{
"type": "FeatureCollection",
"name": "tile_3_21",
"crs": { "type": "name", "properties": { "name": "urn:ogc:def:crs:OGC:1.3:CRS84" } },
"features": [
{ "type": "Feature", "properties": { "crown_id": 917, "tree_id": "918", "top_h_m": 15.182, "H_95_Mean": 15.4515, "DBH": 28.3696, "Carbon_kg": 130.583866, "area_m2": 26.75 }, "geometry": { "type": "MultiPolygon", "coordinates": [ [ [ [ 117.314860096626404, 42.411015805786896 ], [ 117.314860074104701, 42.411011302844976 ], [ 117.314890456759912, 42.411011219393743 ], [ 117.314890366664471, 42.410993207626042 ], [ 117.314896443193788, 42.410993190934832 ], [ 117.31489642066947, 42.410988687992905 ], [ 117.314890344140622, 42.410988704684108 ], [ 117.314890299092951, 42.410979698800233 ], [ 117.314847763396898, 42.410979815629574 ], [ 117.314847740876104, 42.410975312687611 ], [ 117.314841664348492, 42.410975329376235 ], [ 117.314841641828167, 42.410970826434259 ], [ 117.314835565300996, 42.410970843122549 ], [ 117.314835587820923, 42.410975346064518 ], [ 117.314811281710448, 42.410975412814473 ], [ 117.314811461856081, 42.411011436350201 ], [ 117.31481753838716, 42.411011419663161 ], [ 117.314817560905823, 42.41101592260511 ], [ 117.314860096626404, 42.411015805786896 ] ] ], [ [ [ 117.31490263234673, 42.411015688952901 ], [ 117.314902609821999, 42.411011186010988 ], [ 117.314896533290963, 42.411011202702525 ], [ 117.314896555815267, 42.411015705644438 ], [ 117.31490263234673, 42.411015688952901 ] ] ] ] } },
{ "type": "Feature", "properties": { "crown_id": 931, "tree_id": "932", "top_h_m": 17.69, "H_95_Mean": 17.7665, "DBH": 33.6044, "Carbon_kg": 199.514984, "area_m2": 39.75 }, "geometry": { "type": "MultiPolygon", "coordinates": [ [ [ [ 117.314902542247779, 42.410997677185243 ], [ 117.314914695307209, 42.410997643801231 ], [ 117.31491476288403, 42.411011152626962 ], [ 117.314920839415038, 42.411011135934466 ], [ 117.314920861941076, 42.411015638876357 ], [ 117.314926938472524, 42.411015622183534 ], [ 117.314926983525481, 42.411024628067317 ], [ 117.314933060057797, 42.411024611374174 ], [ 117.31493308258473, 42.411029114316051 ], [ 117.314945235650185, 42.411029080928778 ], [ 117.314945258178, 42.411033583870662 ], [ 117.314951334711154, 42.411033567176531 ], [ 117.314951289654687, 42.411024561292777 ], [ 117.314975595783778, 42.411024494513072 ], [ 117.31497557325379, 42.411019991571209 ], [ 117.314969496721972, 42.411020008266611 ], [ 117.314969474192438, 42.411015505324734 ], [ 117.314963397661046, 42.411015522019817 ], [ 117.314963375131953, 42.411011019077947 ], [ 117.314987681255786, 42.41101095229569 ], [ 117.314987658724959, 42.411006449353813 ], [ 117.314981582194434, 42.411006466049848 ], [ 117.31498153713369, 42.410997460166087 ], [ 117.31498761366332, 42.410997443470052 ], [ 117.31498754607091, 42.410983934644378 ], [ 117.314981469542573, 42.410983951340405 ], [ 117.314981424481843, 42.410974945456601 ], [ 117.314975347954373, 42.410974962152295 ], [ 117.31497532542447, 42.41097045921039 ], [ 117.314944942789168, 42.410970542684048 ], [ 117.314944920261425, 42.410966039742121 ], [ 117.31493276720812, 42.410966073129337 ], [ 117.314932744681272, 42.410961570187389 ], [ 117.314926668155039, 42.410961586880518 ], [ 117.314926645628631, 42.410957083938563 ], [ 117.314908416051253, 42.410957134015973 ], [ 117.314908461101496, 42.41096613989987 ], [ 117.314896308048148, 42.410966173283207 ], [ 117.314896398145223, 42.410984185050985 ], [ 117.314902474673616, 42.410984168359455 ], [ 117.314902497198332, 42.410988671301396 ], [ 117.31490857372718, 42.410988654609554 ], [ 117.314908596252351, 42.410993157551474 ], [ 117.314902519723063, 42.410993174243323 ], [ 117.314902542247779, 42.410997677185243 ] ] ], [ [ [ 117.314902542247779, 42.410997677185243 ], [ 117.314896465718064, 42.410997693876773 ], [ 117.314896510766658, 42.41100669976062 ], [ 117.314902587297226, 42.411006683069076 ], [ 117.314902542247779, 42.410997677185243 ] ] ] ] } },
{ "type": "Feature", "properties": { "crown_id": 1003, "tree_id": "1004", "top_h_m": 16.53, "H_95_Mean": 16.6521, "DBH": 28.371, "Carbon_kg": 136.506773, "area_m2": 23.25 }, "geometry": { "type": "Polygon", "coordinates": [ [ [ 117.314999721659262, 42.41098840419324 ], [ 117.315024027774285, 42.410988337403317 ], [ 117.315024005240872, 42.410983834461447 ], [ 117.315042234825796, 42.410983784365641 ], [ 117.315042167221677, 42.410970275540002 ], [ 117.315060396802636, 42.410970225441311 ], [ 117.31506037426665, 42.410965722499441 ], [ 117.315066450793182, 42.410965705799228 ], [ 117.31506642825677, 42.410961202857351 ], [ 117.315054275204531, 42.410961236257435 ], [ 117.315054230133455, 42.410952230373653 ], [ 117.315036000557711, 42.410952280471356 ], [ 117.31503597802346, 42.410947777529451 ], [ 117.315023824973821, 42.410947810926295 ], [ 117.31502380244045, 42.410943307984382 ], [ 117.31501772591605, 42.410943324682322 ], [ 117.315017680850218, 42.410934318798482 ], [ 117.315011604326685, 42.41093433549608 ], [ 117.31501162685916, 42.410938838438014 ], [ 117.315005550335172, 42.410938855135299 ], [ 117.315005595399271, 42.410947861019139 ], [ 117.314987365824706, 42.410947911109091 ], [ 117.314987343293964, 42.410943408167178 ], [ 117.314981266769536, 42.410943424863177 ], [ 117.314981334360496, 42.410956933688951 ], [ 117.314987410886218, 42.410956916992937 ], [ 117.314987501009327, 42.410974928760574 ], [ 117.314993577536796, 42.410974912064233 ], [ 117.31499362259926, 42.41098391794803 ], [ 117.314999699127597, 42.410983901251356 ], [ 117.314999721659262, 42.41098840419324 ] ] ] } },
{ "type": "Feature", "properties": { "crown_id": 1017, "tree_id": "1018", "top_h_m": 17.48, "H_95_Mean": 17.6107, "DBH": 30.5744, "Carbon_kg": 164.059333, "area_m2": 28.0 }, "geometry": { "type": "Polygon", "coordinates": [ [ [ 117.314853817403687, 42.410975295998675 ], [ 117.314890276569102, 42.410975195858292 ], [ 117.31489023152146, 42.410966189974403 ], [ 117.314884154994772, 42.410966206665258 ], [ 117.314884132471377, 42.410961703723302 ], [ 117.314890208997639, 42.410961687032447 ], [ 117.314890163950011, 42.410952681148522 ], [ 117.314896240475406, 42.410952664457348 ], [ 117.314896217951144, 42.410948161515392 ], [ 117.314890141426218, 42.41094817820656 ], [ 117.314890096378619, 42.410939172322614 ], [ 117.31488401985456, 42.410939189013469 ], [ 117.314883997331194, 42.410934686071485 ], [ 117.314890073854826, 42.410934669380637 ], [ 117.314890051331048, 42.410930166438675 ], [ 117.314883974807856, 42.410930183129508 ], [ 117.314883952284504, 42.410925680187525 ], [ 117.314877875761709, 42.410925696878046 ], [ 117.314877853238812, 42.410921193936048 ], [ 117.314871776716473, 42.410921210626249 ], [ 117.314871754194002, 42.410916707684251 ], [ 117.31484137158435, 42.410916791130376 ], [ 117.314841439145226, 42.410930299956391 ], [ 117.314835362621977, 42.410930316644659 ], [ 117.314835407661704, 42.410939322528662 ], [ 117.314829331137588, 42.410939339216611 ], [ 117.314829421215407, 42.410957350984575 ], [ 117.314823344689529, 42.410957367672218 ], [ 117.314823389727607, 42.410966373556192 ], [ 117.314817313200862, 42.410966390243502 ], [ 117.314817335719468, 42.410970893185485 ], [ 117.314829488773825, 42.410970859810512 ], [ 117.314829466254352, 42.410966356868542 ], [ 117.314847695834544, 42.41096630680368 ], [ 117.31484771835531, 42.410970809745656 ], [ 117.314853794882481, 42.41097079305672 ], [ 117.314853817403687, 42.410975295998675 ] ] ] } },
{ "type": "Feature", "properties": { "crown_id": 1018, "tree_id": "1019", "top_h_m": 17.81, "H_95_Mean": 17.8851, "DBH": 27.7786, "Carbon_kg": 136.468416, "area_m2": 18.75 }, "geometry": { "type": "Polygon", "coordinates": [ [ [ 117.314950996788056, 42.41096602304804 ], [ 117.31498137942117, 42.410965939572783 ], [ 117.31498135689084, 42.410961436630878 ], [ 117.314975280364663, 42.410961453326571 ], [ 117.314975190245093, 42.41094344155885 ], [ 117.314969113720636, 42.410943458254216 ], [ 117.314969068661767, 42.410934452370327 ], [ 117.314962992138192, 42.410934469065374 ], [ 117.314962924551196, 42.410920960239515 ], [ 117.314956848028942, 42.410920976934221 ], [ 117.314956825500389, 42.410916473992259 ], [ 117.314950748978532, 42.410916490686638 ], [ 117.314950726450434, 42.410911987744669 ], [ 117.314944649929004, 42.410912004438735 ], [ 117.314944717512034, 42.410925513264623 ], [ 117.314914334898333, 42.410925596730102 ], [ 117.314914379949357, 42.410934602614041 ], [ 117.314926532996608, 42.4109345692288 ], [ 117.314926555523002, 42.41093907217077 ], [ 117.314920478998957, 42.410939088863543 ], [ 117.314920524050876, 42.410948094747454 ], [ 117.314908371001039, 42.41094812813207 ], [ 117.314908393526139, 42.410952631074025 ], [ 117.314932699627576, 42.410952564303507 ], [ 117.314932722154424, 42.410957067245448 ], [ 117.314938798680188, 42.410957050552021 ], [ 117.314938821207477, 42.410961553493962 ], [ 117.314950974259887, 42.41096152010612 ], [ 117.314950996788056, 42.41096602304804 ] ] ] } },
{ "type": "Feature", "properties": { "crown_id": 1060, "tree_id": "1061", "top_h_m": 17.969, "H_95_Mean": 18.1807, "DBH": 24.2594, "Carbon_kg": 104.874768, "area_m2": 10.75 }, "geometry": { "type": "Polygon", "coordinates": [ [ [ 117.314993419818393, 42.410943391470838 ], [ 117.314999496342807, 42.410943374774199 ], [ 117.31499945127959, 42.410934368890345 ], [ 117.315005527803123, 42.410934352193379 ], [ 117.315005505271088, 42.410929849251453 ], [ 117.315023734840409, 42.41092979915863 ], [ 117.315023712307053, 42.410925296216703 ], [ 117.3150176357844, 42.410925312914635 ], [ 117.315017568185709, 42.410911804088826 ], [ 117.314968956014638, 42.410911937660579 ], [ 117.314969046132333, 42.410929949428393 ], [ 117.314975122655483, 42.410929932733048 ], [ 117.314975167715218, 42.410938938616916 ], [ 117.314993397287211, 42.410938888528918 ], [ 117.314993419818393, 42.410943391470838 ] ] ] } },
{ "type": "Feature", "properties": { "crown_id": 1113, "tree_id": "1114", "top_h_m": 16.54, "H_95_Mean": 16.9492, "DBH": 24.386, "Carbon_kg": 101.674105, "area_m2": 12.5 }, "geometry": { "type": "Polygon", "coordinates": [ [ [ 117.315054027313778, 42.410911703896495 ], [ 117.315060103835123, 42.410911687196631 ], [ 117.315060081299194, 42.410907184254711 ], [ 117.31507831086185, 42.410907134153234 ], [ 117.315078288324614, 42.410902631211307 ], [ 117.315072211804164, 42.410902647912124 ], [ 117.315072189267383, 42.410898144970197 ], [ 117.315066112747374, 42.41089816167068 ], [ 117.315066022602025, 42.41088014990293 ], [ 117.315041716528853, 42.410880216701621 ], [ 117.315041693994274, 42.410875713759665 ], [ 117.315035617476411, 42.410875730458528 ], [ 117.315035594942259, 42.410871227516559 ], [ 117.315023441907385, 42.410871260913318 ], [ 117.315023532040541, 42.410889272681182 ], [ 117.315029608559712, 42.410889255982951 ], [ 117.315029631093438, 42.4108937589249 ], [ 117.315023554573827, 42.41089377562313 ], [ 117.315023622173769, 42.410907284448967 ], [ 117.315054004778304, 42.410907200954554 ], [ 117.315054027313778, 42.410911703896495 ] ] ] } },
{ "type": "Feature", "properties": { "crown_id": 1121, "tree_id": "1122", "top_h_m": 17.815, "H_95_Mean": 18.1052, "DBH": 28.5013, "Carbon_kg": 144.762266, "area_m2": 20.25 }, "geometry": { "type": "Polygon", "coordinates": [ [ [ 117.314956802971821, 42.410911971050297 ], [ 117.314962879493251, 42.410911954355598 ], [ 117.314962856964286, 42.410907451413642 ], [ 117.315017545652822, 42.410907301146892 ], [ 117.315017432988498, 42.410884786437109 ], [ 117.315011356469725, 42.410884803134699 ], [ 117.315011333937292, 42.41088030019273 ], [ 117.315005257418989, 42.410880316889987 ], [ 117.315005189823054, 42.410866808064057 ], [ 117.314999113306044, 42.410866824760994 ], [ 117.314999135837567, 42.410871327702971 ], [ 117.314993059320102, 42.410871344399574 ], [ 117.314993036788991, 42.410866841457597 ], [ 117.314986960271952, 42.410866858153867 ], [ 117.314986982802623, 42.410871361095857 ], [ 117.314962676732677, 42.410871427877773 ], [ 117.314962699261628, 42.41087593081977 ], [ 117.314956622743679, 42.410875947514448 ], [ 117.314956690329197, 42.410889456340414 ], [ 117.31495061380997, 42.410889473034779 ], [ 117.314950703922307, 42.410907484802706 ], [ 117.314956780443296, 42.410907468108334 ], [ 117.314956802971821, 42.410911971050297 ] ] ] } },
{ "type": "Feature", "properties": { "crown_id": 1155, "tree_id": "1156", "top_h_m": 17.465, "H_95_Mean": 18.0052, "DBH": 27.963, "Carbon_kg": 138.848951, "area_m2": 19.0 }, "geometry": { "type": "Polygon", "coordinates": [ [ [ 117.314865655150044, 42.410912221432106 ], [ 117.314877808193017, 42.410912188052059 ], [ 117.314877763147251, 42.410903182168056 ], [ 117.314871686626645, 42.410903198858236 ], [ 117.314871619059332, 42.410889690032185 ], [ 117.31487769557863, 42.410889673342012 ], [ 117.314877650532921, 42.410880667457967 ], [ 117.314883727051367, 42.410880650767474 ], [ 117.314883704528071, 42.410876147825448 ], [ 117.314871551492061, 42.410876181206106 ], [ 117.314871483924833, 42.410862672379999 ], [ 117.314877560441545, 42.41086265568984 ], [ 117.314877537918719, 42.410858152747799 ], [ 117.314865384886176, 42.41085818612779 ], [ 117.314865339842271, 42.410849180243673 ], [ 117.314853186811447, 42.410849213622384 ], [ 117.314853209332512, 42.410853716564439 ], [ 117.314847132816666, 42.410853733253305 ], [ 117.314847155337333, 42.410858236195367 ], [ 117.314835002304719, 42.410858269572138 ], [ 117.314835024824518, 42.410862772514193 ], [ 117.314828948307778, 42.410862789202099 ], [ 117.314828970827122, 42.410867292144161 ], [ 117.314822894309955, 42.41086730883174 ], [ 117.314822939347835, 42.410876314715857 ], [ 117.314829015865868, 42.410876298028256 ], [ 117.314829060904643, 42.410885303912345 ], [ 117.314835137423543, 42.410885287224424 ], [ 117.314835159943371, 42.410889790166479 ], [ 117.314841236462698, 42.410889773478239 ], [ 117.31484128150322, 42.410898779362292 ], [ 117.31485951106383, 42.410898729295603 ], [ 117.314859556106967, 42.410907735179649 ], [ 117.314865632628027, 42.410907718490108 ], [ 117.314865655150044, 42.410912221432106 ] ] ] } },
{ "type": "Feature", "properties": { "crown_id": 1156, "tree_id": "1157", "top_h_m": 18.934, "H_95_Mean": 19.041, "DBH": 31.4416, "Carbon_kg": 181.77776, "area_m2": 27.0 }, "geometry": { "type": "Polygon", "coordinates": [ [ [ 117.314920388895146, 42.410921077095679 ], [ 117.314932541939768, 42.410921043709813 ], [ 117.314932519412935, 42.410916540767843 ], [ 117.314938595934819, 42.410916524074423 ], [ 117.314938505825893, 42.41089851230651 ], [ 117.314944582346016, 42.410898495612784 ], [ 117.31494451476307, 42.410884986786819 ], [ 117.314950591281871, 42.410884970092788 ], [ 117.314950523697675, 42.410871461266801 ], [ 117.314956600215183, 42.41087144457245 ], [ 117.314956577686701, 42.410866941630452 ], [ 117.314950501169633, 42.410866958324796 ], [ 117.314950478641563, 42.410862455382784 ], [ 117.314914019541661, 42.410862555542103 ], [ 117.314914042067088, 42.410867058484136 ], [ 117.314901889032868, 42.410867091867999 ], [ 117.314901911557456, 42.410871594810025 ], [ 117.314895835039891, 42.410871611501484 ], [ 117.314895857564053, 42.410876114443496 ], [ 117.314889781046062, 42.410876131134636 ], [ 117.314889826093506, 42.410885137018674 ], [ 117.314883749574662, 42.410885153709494 ], [ 117.314883794621238, 42.410894159593525 ], [ 117.314877718101513, 42.410894176284017 ], [ 117.314877740624368, 42.410898679226037 ], [ 117.314883817144548, 42.41089866253553 ], [ 117.314883862191181, 42.410907668419554 ], [ 117.314889938712213, 42.410907651728714 ], [ 117.314889961235963, 42.410912154670712 ], [ 117.31488388471449, 42.410912171361552 ], [ 117.314883907237828, 42.410916674303536 ], [ 117.31489606028164, 42.410916640921549 ], [ 117.314896037757435, 42.410912137979565 ], [ 117.314908190800352, 42.410912104596285 ], [ 117.314908168275309, 42.410907601654309 ], [ 117.314914244796327, 42.410907584962182 ], [ 117.314914289847309, 42.410916590846142 ], [ 117.314920366369208, 42.410916574153696 ], [ 117.314920388895146, 42.410921077095679 ] ] ] } },
{ "type": "Feature", "properties": { "crown_id": 1196, "tree_id": "1197", "top_h_m": 18.079, "H_95_Mean": 18.7639, "DBH": 32.2185, "Carbon_kg": 189.295677, "area_m2": 30.5 }, "geometry": { "type": "Polygon", "coordinates": [ [ [ 117.315011311404902, 42.41087579725076 ], [ 117.315017387922779, 42.410875780553198 ], [ 117.315017342857104, 42.410866774669238 ], [ 117.315041648925131, 42.410866707875734 ], [ 117.31504167145971, 42.410871210817689 ], [ 117.315047747977133, 42.410871194118521 ], [ 117.315047770512138, 42.410875697060476 ], [ 117.315066000065713, 42.410875646960989 ], [ 117.315065977529372, 42.410871144019033 ], [ 117.315078130564189, 42.410871110617769 ], [ 117.315078108027009, 42.410866607675828 ], [ 117.315084184543963, 42.410866590974706 ], [ 117.315084162006343, 42.410862088032758 ], [ 117.315102391555897, 42.410862037927508 ], [ 117.31510241409481, 42.410866540869449 ], [ 117.315108490611749, 42.410866524167034 ], [ 117.315108422993717, 42.410853015341203 ], [ 117.315096269962424, 42.410853048745665 ], [ 117.315096224885494, 42.410844042861768 ], [ 117.315090148370743, 42.410844059563516 ], [ 117.315090103294708, 42.410835053679584 ], [ 117.315084026780781, 42.410835070380998 ], [ 117.315083981705641, 42.410826064497051 ], [ 117.315077905192581, 42.410826081198131 ], [ 117.315077882655459, 42.410821578256162 ], [ 117.315065729630192, 42.410821611657362 ], [ 117.315065752166461, 42.410826114599345 ], [ 117.315047522627253, 42.410826164698747 ], [ 117.315047500092291, 42.410821661756756 ], [ 117.315041423579643, 42.410821678455918 ], [ 117.315041446114179, 42.410826181397908 ], [ 117.315029293088003, 42.410826214795257 ], [ 117.315029360688996, 42.410839723621251 ], [ 117.315023284174586, 42.410839740319446 ], [ 117.315023351774329, 42.410853249145411 ], [ 117.315011198742909, 42.410853282540856 ], [ 117.315011311404902, 42.41087579725076 ] ] ] } },
{ "type": "Feature", "properties": { "crown_id": 1203, "tree_id": "1204", "top_h_m": 20.319, "H_95_Mean": 20.7231, "DBH": 34.0586, "Carbon_kg": 224.526657, "area_m2": 31.5 }, "geometry": { "type": "Polygon", "coordinates": [ [ [ 117.314877605487212, 42.410871661573907 ], [ 117.314889758522341, 42.410871628192609 ], [ 117.314889735998648, 42.410867125250583 ], [ 117.314895812515772, 42.410867108559451 ], [ 117.31489578999161, 42.410862605617417 ], [ 117.314907943024963, 42.410862572234208 ], [ 117.314907920499977, 42.410858069292182 ], [ 117.314938303081107, 42.410857985828507 ], [ 117.314938190445289, 42.410835471118382 ], [ 117.31494426695933, 42.410835454424692 ], [ 117.314944244431743, 42.410830951482652 ], [ 117.314950320945357, 42.410830934788649 ], [ 117.314950253361346, 42.410817425962534 ], [ 117.314944176849025, 42.41081744265653 ], [ 117.314944199376626, 42.410821945598578 ], [ 117.314932046351132, 42.410821978985624 ], [ 117.314932001297763, 42.410812973101514 ], [ 117.314925924785882, 42.41081298979455 ], [ 117.314925902259617, 42.410808486852481 ], [ 117.314907672725269, 42.410808536929636 ], [ 117.314907695250213, 42.410813039871698 ], [ 117.314883389202592, 42.410813106636731 ], [ 117.314883411725802, 42.4108176095788 ], [ 117.314877335213467, 42.410817626269257 ], [ 117.314877380259034, 42.410826632153402 ], [ 117.314871303745832, 42.410826648843546 ], [ 117.314871281223446, 42.410822145901477 ], [ 117.314859128197867, 42.410822179280785 ], [ 117.314859150719343, 42.410826682222861 ], [ 117.314865227232602, 42.410826665533364 ], [ 117.314865294798366, 42.410840174359571 ], [ 117.314859218283843, 42.410840191049068 ], [ 117.314859240805347, 42.410844693991137 ], [ 117.31487139383529, 42.410844660611801 ], [ 117.314871438880061, 42.410853666495903 ], [ 117.314883591911709, 42.410853633115266 ], [ 117.314883659481495, 42.410867141941388 ], [ 117.314877582964385, 42.410867158631874 ], [ 117.314877605487212, 42.410871661573907 ] ] ] } },
{ "type": "Feature", "properties": { "crown_id": 1216, "tree_id": "1217", "top_h_m": 15.925, "H_95_Mean": 16.082, "DBH": 27.5839, "Carbon_kg": 126.351037, "area_m2": 22.25 }, "geometry": { "type": "Polygon", "coordinates": [ [ [ 117.31496265420374, 42.410866924935775 ], [ 117.314980883754899, 42.41086687484983 ], [ 117.314980861224697, 42.410862371907839 ], [ 117.315005167291091, 42.410862305122073 ], [ 117.315005099695256, 42.410848796296108 ], [ 117.315017252725809, 42.41084876290131 ], [ 117.315017230192993, 42.410844259959319 ], [ 117.315011153678142, 42.410844276656881 ], [ 117.315011131145766, 42.410839773714876 ], [ 117.31501720766019, 42.410839757017321 ], [ 117.315017185127388, 42.410835254075316 ], [ 117.315011108613419, 42.410835270772878 ], [ 117.315011086081043, 42.410830767830866 ], [ 117.315005009567486, 42.410830784528102 ], [ 117.315004987035579, 42.41082628158609 ], [ 117.314992834009345, 42.41082631497958 ], [ 117.314992811478305, 42.410821812037561 ], [ 117.314968505427501, 42.410821878820649 ], [ 117.31496848289818, 42.410817375878608 ], [ 117.314962406385916, 42.410817392573577 ], [ 117.314962428914782, 42.410821895515618 ], [ 117.314956352402064, 42.410821912210253 ], [ 117.314956419987396, 42.41083542103636 ], [ 117.314950343473384, 42.410835437730682 ], [ 117.314950366001398, 42.410839940672716 ], [ 117.314944289486931, 42.410839957366726 ], [ 117.314944379597307, 42.41085796913481 ], [ 117.314956532629722, 42.410857935746435 ], [ 117.31495655515819, 42.410862438688447 ], [ 117.314962631674831, 42.410862421993777 ], [ 117.31496265420374, 42.410866924935775 ] ] ] } }
]
}
