{
"type": "FeatureCollection",
"name": "tile_6_12",
"crs": { "type": "name", "properties": { "name": "urn:ogc:def:crs:OGC:1.3:CRS84" } },
"features": [
{ "type": "Feature", "properties": { "crown_id": 2122, "tree_id": "2123", "top_h_m": 20.52, "H_95_Mean": 20.5689, "DBH": 29.8944, "Carbon_kg": 171.869261, "area_m2": 19.25 }, "geometry": { "type": "MultiPolygon", "coordinates": [ [ [ [ 117.312663784682712, 42.410481456519186 ], [ 117.312663695226021, 42.410463444745979 ], [ 117.312688001143798, 42.410463378452008 ], [ 117.312687911680214, 42.410445366678786 ], [ 117.312675758724808, 42.410445399826401 ], [ 117.312675691629778, 42.410431890996421 ], [ 117.312663538676958, 42.410431924142735 ], [ 117.312663516312824, 42.410427421199401 ], [ 117.312651363360871, 42.410427454344415 ], [ 117.31265140808739, 42.410436460231089 ], [ 117.312639255133675, 42.410436493374817 ], [ 117.312639277496075, 42.410440996318158 ], [ 117.31263320101877, 42.410441012889542 ], [ 117.31263335755267, 42.410472533492836 ], [ 117.312627281072324, 42.410472550063922 ], [ 117.312627303433885, 42.410477053007234 ], [ 117.312633379914672, 42.410477036436156 ], [ 117.312633402276688, 42.410481539379461 ], [ 117.312663784682712, 42.410481456519186 ] ] ], [ [ [ 117.312621271675383, 42.410486075464625 ], [ 117.312621249314262, 42.410481572521313 ], [ 117.312615172833006, 42.410481589091759 ], [ 117.312615195193729, 42.410486092035086 ], [ 117.312621271675383, 42.410486075464625 ] ] ] ] } },
{ "type": "Feature", "properties": { "crown_id": 2181, "tree_id": "2182", "top_h_m": 21.045, "H_95_Mean": 21.2866, "DBH": 32.9918, "Carbon_kg": 213.945771, "area_m2": 26.5 }, "geometry": { "type": "MultiPolygon", "coordinates": [ [ [ [ 117.312742667088685, 42.41045872632845 ], [ 117.312742644718881, 42.410454223385159 ], [ 117.312754797675893, 42.410454190230467 ], [ 117.312754775305223, 42.410449687287191 ], [ 117.312766928261368, 42.410449654131199 ], [ 117.312766838775246, 42.41043164235807 ], [ 117.312760762298907, 42.410431658936211 ], [ 117.312760650443565, 42.410409144219699 ], [ 117.312748497495221, 42.410409177374994 ], [ 117.312748475125034, 42.410404674431689 ], [ 117.312742398651295, 42.410404691008843 ], [ 117.312742376281562, 42.410400188065537 ], [ 117.312730223334952, 42.410400221218886 ], [ 117.312730245703818, 42.410404724162213 ], [ 117.312712016282546, 42.410404773889837 ], [ 117.312712105752894, 42.410422785663144 ], [ 117.312706029277379, 42.410422802238394 ], [ 117.312706141113267, 42.410445316954956 ], [ 117.312693988157903, 42.410445350104503 ], [ 117.312694032890548, 42.410454355991114 ], [ 117.312730491761826, 42.410454256538586 ], [ 117.312730514130777, 42.41045875948187 ], [ 117.312742667088685, 42.41045872632845 ] ] ], [ [ [ 117.312687889314333, 42.410440863735467 ], [ 117.31268784458257, 42.410431857848828 ], [ 117.312681768106188, 42.410431874422791 ], [ 117.312681812837056, 42.41044088030943 ], [ 117.312687889314333, 42.410440863735467 ] ] ] ] } },
{ "type": "Feature", "properties": { "crown_id": 2201, "tree_id": "2202", "top_h_m": 21.885, "H_95_Mean": 22.0466, "DBH": 29.5727, "Carbon_kg": 175.205895, "area_m2": 16.25 }, "geometry": { "type": "Polygon", "coordinates": [ [ [ 117.312773004739441, 42.410449637552723 ], [ 117.312815540085708, 42.41044952149435 ], [ 117.312815450585688, 42.41043150972132 ], [ 117.312809374109406, 42.410431526302034 ], [ 117.312809262236655, 42.410409011585628 ], [ 117.312784956340138, 42.41040907790525 ], [ 117.312784933967336, 42.410404574961937 ], [ 117.31276670454622, 42.410404624698273 ], [ 117.312766816403737, 42.410427139414772 ], [ 117.312772892879607, 42.41042712283631 ], [ 117.312773004739441, 42.410449637552723 ] ] ] } },
{ "type": "Feature", "properties": { "crown_id": 2202, "tree_id": "2203", "top_h_m": 21.47, "H_95_Mean": 21.5246, "DBH": 33.6396, "Carbon_kg": 223.965011, "area_m2": 28.0 }, "geometry": { "type": "Polygon", "coordinates": [ [ [ 117.312858299212593, 42.410494434852389 ], [ 117.312870452177251, 42.410494401685405 ], [ 117.312870295524533, 42.41046288108295 ], [ 117.312876372003814, 42.410462864498982 ], [ 117.312876349624432, 42.410458361555762 ], [ 117.312870273145577, 42.410458378139722 ], [ 117.312870250766636, 42.410453875196509 ], [ 117.312864174288222, 42.410453891780129 ], [ 117.312864107152748, 42.410440382950419 ], [ 117.312858030675642, 42.410440399533726 ], [ 117.312857918785454, 42.410417884817463 ], [ 117.312851842310508, 42.410417901400436 ], [ 117.312851797555339, 42.410408895513903 ], [ 117.312845721081246, 42.410408912096543 ], [ 117.312845676326972, 42.410399906209996 ], [ 117.312833523380533, 42.410399939374301 ], [ 117.312833545756803, 42.410404442317578 ], [ 117.312821392809454, 42.410404475480597 ], [ 117.312821415184871, 42.410408978423888 ], [ 117.312815338710777, 42.410408995004914 ], [ 117.312815428210683, 42.410427006778043 ], [ 117.312821504686539, 42.410426990196996 ], [ 117.312821616563724, 42.410449504913309 ], [ 117.312827693041754, 42.410449488331928 ], [ 117.31282773779354, 42.41045849421841 ], [ 117.312833814272409, 42.410458477636709 ], [ 117.312833948530496, 42.410485495296093 ], [ 117.312840025011965, 42.410485478714044 ], [ 117.312840047388775, 42.410489981657257 ], [ 117.31285827683449, 42.410489931909197 ], [ 117.312858299212593, 42.410494434852389 ] ], [ [ 117.312839913128045, 42.410462963997929 ], [ 117.312839845997757, 42.410449455168205 ], [ 117.312858075431748, 42.410449405420216 ], [ 117.312858142565958, 42.410462914249905 ], [ 117.312839913128045, 42.410462963997929 ] ] ] } },
{ "type": "Feature", "properties": { "crown_id": 2240, "tree_id": "2241", "top_h_m": 21.179, "H_95_Mean": 21.4667, "DBH": 29.0862, "Carbon_kg": 166.794683, "area_m2": 16.0 }, "geometry": { "type": "Polygon", "coordinates": [ [ [ 117.3128639952604, 42.410417868234184 ], [ 117.3128883011601, 42.410417801897793 ], [ 117.312888256399731, 42.410408796011296 ], [ 117.312894332873768, 42.41040877942639 ], [ 117.312894265731927, 42.410395270596631 ], [ 117.312900342204685, 42.410395254011426 ], [ 117.312900297442596, 42.41038624812488 ], [ 117.312894220970733, 42.410386264710084 ], [ 117.312894198590143, 42.410381761766814 ], [ 117.312888122118693, 42.410381778351699 ], [ 117.312888077358394, 42.410372772465138 ], [ 117.312882000887839, 42.410372789049688 ], [ 117.31288197850813, 42.410368286106397 ], [ 117.312863749097644, 42.410368335858124 ], [ 117.312863816232905, 42.410381844687997 ], [ 117.312851663289948, 42.410381877854213 ], [ 117.312851708045059, 42.410390883740789 ], [ 117.312845631572728, 42.410390900323414 ], [ 117.312845653949836, 42.410395403266712 ], [ 117.312851730422636, 42.41039538668408 ], [ 117.312851775177776, 42.410404392570641 ], [ 117.312857851651401, 42.410404375987667 ], [ 117.312857896407436, 42.410413381874207 ], [ 117.312863972881942, 42.410413365290921 ], [ 117.3128639952604, 42.410417868234184 ] ] ] } },
{ "type": "Feature", "properties": { "crown_id": 2295, "tree_id": "2296", "top_h_m": 21.002, "H_95_Mean": 20.9694, "DBH": 24.2528, "Carbon_kg": 114.048299, "area_m2": 8.25 }, "geometry": { "type": "Polygon", "coordinates": [ [ [ 117.312754551598772, 42.410404657854194 ], [ 117.312760628072482, 42.410404641276386 ], [ 117.312760605701456, 42.410400138333081 ], [ 117.312784911594548, 42.410400072018639 ], [ 117.312784866848986, 42.410391066132021 ], [ 117.312778790376584, 42.410391082711101 ], [ 117.312778678514931, 42.410368567994482 ], [ 117.312766525574474, 42.41036860115166 ], [ 117.312766570317379, 42.410377607038342 ], [ 117.312754417375132, 42.410377640194241 ], [ 117.312754439745731, 42.410382143137582 ], [ 117.312748363274181, 42.410382159715041 ], [ 117.312748385644355, 42.410386662658389 ], [ 117.312742309172336, 42.410386679235536 ], [ 117.312742353911801, 42.410395685122204 ], [ 117.312748430384673, 42.41039566854505 ], [ 117.31274845275486, 42.410400171488376 ], [ 117.312754529228144, 42.410400154910882 ], [ 117.312754551598772, 42.410404657854194 ] ] ] } },
{ "type": "Feature", "properties": { "crown_id": 2322, "tree_id": "2323", "top_h_m": 22.812, "H_95_Mean": 22.1434, "DBH": 32.5884, "Carbon_kg": 213.634527, "area_m2": 23.5 }, "geometry": { "type": "Polygon", "coordinates": [ [ [ 117.312669592788808, 42.410427404626418 ], [ 117.312699975168613, 42.410427321756622 ], [ 117.312699930435159, 42.410418315869975 ], [ 117.312706006910247, 42.410418299295067 ], [ 117.312705917441647, 42.410400287521732 ], [ 117.312699840968293, 42.41040030409664 ], [ 117.312699796234909, 42.410391298209944 ], [ 117.31269371976245, 42.410391314784519 ], [ 117.312693630297431, 42.410373303011085 ], [ 117.312663247943675, 42.41037338587909 ], [ 117.312663225579627, 42.410368882935714 ], [ 117.312651072638957, 42.410368916080657 ], [ 117.312651050275775, 42.410364413137266 ], [ 117.312644973805874, 42.410364429709254 ], [ 117.31264501853137, 42.410373435596043 ], [ 117.312651095002153, 42.410373419024047 ], [ 117.312651162091754, 42.410386927854184 ], [ 117.312657238563844, 42.410386911281861 ], [ 117.312657328018474, 42.410404923055331 ], [ 117.312645175070841, 42.410404956199656 ], [ 117.312645197433625, 42.410409459143025 ], [ 117.312651273907875, 42.410409442571009 ], [ 117.312651340997633, 42.410422951401067 ], [ 117.312669570424262, 42.410422901683063 ], [ 117.312669592788808, 42.410427404626418 ] ] ] } },
{ "type": "Feature", "properties": { "crown_id": 2323, "tree_id": "2324", "top_h_m": 20.49, "H_95_Mean": 20.9242, "DBH": 26.2433, "Carbon_kg": 133.529827, "area_m2": 11.25 }, "geometry": { "type": "Polygon", "coordinates": [ [ [ 117.312791010441046, 42.410404558382524 ], [ 117.312815316335801, 42.41040449206163 ], [ 117.312815293960824, 42.410399989118346 ], [ 117.312827446907306, 42.410399955955967 ], [ 117.312827424531477, 42.410395453012676 ], [ 117.312839577477064, 42.410395419849024 ], [ 117.312839532723686, 42.410386413962435 ], [ 117.312845609195591, 42.410386397380137 ], [ 117.312845564441375, 42.410377391493547 ], [ 117.312857717383451, 42.410377358327978 ], [ 117.312857672627501, 42.410368352441381 ], [ 117.312839443217001, 42.410368402189235 ], [ 117.312839465593655, 42.41037290513254 ], [ 117.312827312652402, 42.410372938296163 ], [ 117.312827335028217, 42.410377441239483 ], [ 117.31282125855715, 42.410377457820822 ], [ 117.312821280932539, 42.41038196076412 ], [ 117.31280912798951, 42.410381993925824 ], [ 117.312809105615017, 42.410377490982526 ], [ 117.31280302914395, 42.410377507562892 ], [ 117.312803073892098, 42.410386513449517 ], [ 117.312796997420136, 42.410386530029569 ], [ 117.312797019793791, 42.410391032972875 ], [ 117.312790943321389, 42.410391049552615 ], [ 117.312791010441046, 42.410404558382524 ] ] ] } },
{ "type": "Feature", "properties": { "crown_id": 2345, "tree_id": "2346", "top_h_m": 21.535, "H_95_Mean": 22.9889, "DBH": 28.7552, "Carbon_kg": 169.731197, "area_m2": 13.5 }, "geometry": { "type": "Polygon", "coordinates": [ [ [ 117.312711993914974, 42.410400270946504 ], [ 117.312724146861612, 42.410400237795074 ], [ 117.312724124493187, 42.410395734851747 ], [ 117.31273627743893, 42.410395701699038 ], [ 117.312736210331039, 42.410382192869022 ], [ 117.312742286802603, 42.410382176292195 ], [ 117.312742264432899, 42.410377673348869 ], [ 117.312748340904022, 42.410377656771708 ], [ 117.312748318533849, 42.410373153828374 ], [ 117.312736165592483, 42.410373186982341 ], [ 117.312736143223191, 42.410368684038986 ], [ 117.312730066752934, 42.410368700615486 ], [ 117.312730022015245, 42.410359694728776 ], [ 117.312693563198749, 42.410359794180977 ], [ 117.312693540832527, 42.410355291237586 ], [ 117.31268746436352, 42.41035530781182 ], [ 117.312687531460909, 42.410368816641956 ], [ 117.312699684401494, 42.410368783493141 ], [ 117.312699773868204, 42.410386795266596 ], [ 117.312705850340237, 42.410386778691695 ], [ 117.312705895074515, 42.410395784578391 ], [ 117.312711971547415, 42.410395768003163 ], [ 117.312711993914974, 42.410400270946504 ] ] ] } },
{ "type": "Feature", "properties": { "crown_id": 2378, "tree_id": "2379", "top_h_m": 21.138, "H_95_Mean": 22.7232, "DBH": 31.747, "Carbon_kg": 205.785148, "area_m2": 20.25 }, "geometry": { "type": "Polygon", "coordinates": [ [ [ 117.312784844476226, 42.410386563188709 ], [ 117.312790920948174, 42.410386546609288 ], [ 117.31279089857496, 42.410382043665983 ], [ 117.312796975046481, 42.41038202708625 ], [ 117.312796930299228, 42.410373021199611 ], [ 117.312821236181804, 42.410372954877502 ], [ 117.312821213806416, 42.410368451934197 ], [ 117.312833366746801, 42.410368418771206 ], [ 117.312833344370574, 42.410363915827901 ], [ 117.312863726719272, 42.410363832914818 ], [ 117.312863659584096, 42.410350324084895 ], [ 117.312857583115672, 42.410350340668153 ], [ 117.312857560737726, 42.410345837724833 ], [ 117.312839331333734, 42.410345887472651 ], [ 117.312839286580456, 42.410336881585984 ], [ 117.312833210113325, 42.410336898167941 ], [ 117.312833187737141, 42.410332395224607 ], [ 117.312814958336986, 42.410332444968532 ], [ 117.312815003086754, 42.410341450855228 ], [ 117.312808926619184, 42.410341467435892 ], [ 117.312808948993634, 42.410345970379232 ], [ 117.312796796057569, 42.410346003539615 ], [ 117.312796818431167, 42.410350506482942 ], [ 117.312790741962687, 42.410350523062654 ], [ 117.312790764335858, 42.410355026006002 ], [ 117.312778611398002, 42.410355059164452 ], [ 117.312778656142626, 42.410364065051148 ], [ 117.312784732612428, 42.410364048472076 ], [ 117.312784844476226, 42.410386563188709 ] ] ] } },
{ "type": "Feature", "properties": { "crown_id": 2400, "tree_id": "2401", "top_h_m": 24.065, "H_95_Mean": 24.0649, "DBH": 21.4766, "Carbon_kg": 96.838141, "area_m2": 4.0 }, "geometry": { "type": "MultiPolygon", "coordinates": [ [ [ [ 117.312693451367693, 42.410337279464031 ], [ 117.312693518466304, 42.410350788294195 ], [ 117.312699594934884, 42.410350771719656 ], [ 117.312699617301533, 42.410355274663026 ], [ 117.31271784670848, 42.410355224937426 ], [ 117.312717757236697, 42.410337213163906 ], [ 117.312693451367693, 42.410337279464031 ] ] ], [ [ [ 117.312693451367693, 42.410337279464031 ], [ 117.312693429001499, 42.410332776520633 ], [ 117.312687352534681, 42.410332793094859 ], [ 117.312687374900449, 42.41033729603825 ], [ 117.312693451367693, 42.410337279464031 ] ] ] ] } },
{ "type": "Feature", "properties": { "crown_id": 2412, "tree_id": "2413", "top_h_m": 20.79, "H_95_Mean": 21.5447, "DBH": 30.6595, "Carbon_kg": 185.876461, "area_m2": 19.5 }, "geometry": { "type": "Polygon", "coordinates": [ [ [ 117.312669302049954, 42.410368866362766 ], [ 117.312681454990582, 42.410368833215877 ], [ 117.312681365529187, 42.41035082144235 ], [ 117.312687441997767, 42.410350804868443 ], [ 117.312687397266217, 42.410341798981662 ], [ 117.312681320798504, 42.410341815555569 ], [ 117.312681276067849, 42.410332809668759 ], [ 117.312669123134157, 42.410332842815592 ], [ 117.312669078405278, 42.410323836928768 ], [ 117.312656925473291, 42.410323870074301 ], [ 117.312656836019045, 42.410305858300596 ], [ 117.312644683090525, 42.410305891444821 ], [ 117.312644727815922, 42.410314897331688 ], [ 117.312638651350781, 42.410314913903328 ], [ 117.312638673713067, 42.410319416846761 ], [ 117.312632597247486, 42.410319433418067 ], [ 117.312632619609303, 42.410323936361522 ], [ 117.312620466677274, 42.410323969503189 ], [ 117.312620511399231, 42.410332975390055 ], [ 117.312632664332995, 42.410332942248374 ], [ 117.31263268669484, 42.410337445191786 ], [ 117.312638763162141, 42.410337428620473 ], [ 117.312638874973644, 42.410359943337518 ], [ 117.312657104382069, 42.410359893621575 ], [ 117.312657126745663, 42.410364396564965 ], [ 117.312669279685466, 42.410364363419376 ], [ 117.312669302049954, 42.410368866362766 ] ] ] } },
{ "type": "Feature", "properties": { "crown_id": 2430, "tree_id": "2431", "top_h_m": 23.35, "H_95_Mean": 23.7821, "DBH": 33.0373, "Carbon_kg": 229.07898, "area_m2": 21.75 }, "geometry": { "type": "Polygon", "coordinates": [ [ [ 117.312754395004561, 42.4103731372509 ], [ 117.312760471475229, 42.410373120673114 ], [ 117.31276042673322, 42.410364114786425 ], [ 117.312772579672838, 42.410364081629893 ], [ 117.312772512557203, 42.410350572799857 ], [ 117.312784665494192, 42.410350539642053 ], [ 117.312784643121461, 42.410346036698698 ], [ 117.312790719589529, 42.410346020119327 ], [ 117.312790697216357, 42.410341517175979 ], [ 117.31280285015157, 42.41034148401625 ], [ 117.312802827777546, 42.410336981072888 ], [ 117.312808904244719, 42.410336964492544 ], [ 117.312808859495803, 42.410327958605855 ], [ 117.312790630096913, 42.410328008345907 ], [ 117.312790652470056, 42.410332511289255 ], [ 117.31278457600331, 42.410332527868633 ], [ 117.312784598376012, 42.410337030811988 ], [ 117.312766368974451, 42.410337080548189 ], [ 117.312766346603041, 42.410332577604834 ], [ 117.312760270136266, 42.410332594182925 ], [ 117.312760203023387, 42.410319085352789 ], [ 117.31275412655792, 42.41031910193054 ], [ 117.312754104187391, 42.410314598987171 ], [ 117.312741951257323, 42.410314632141706 ], [ 117.312742018366293, 42.41032814097187 ], [ 117.312717712500842, 42.410328207277125 ], [ 117.31271773486877, 42.410332710220516 ], [ 117.312723811335559, 42.410332693644683 ], [ 117.312723923177458, 42.410355208361572 ], [ 117.312736076115385, 42.410355175208906 ], [ 117.312736120853913, 42.410364181095638 ], [ 117.312742197323757, 42.410364164518818 ], [ 117.312742219693462, 42.410368667462166 ], [ 117.312754372633975, 42.410368634307559 ], [ 117.312754395004561, 42.4103731372509 ] ] ] } },
{ "type": "Feature", "properties": { "crown_id": 2465, "tree_id": "2466", "top_h_m": 23.139, "H_95_Mean": 23.29, "DBH": 26.7794, "Carbon_kg": 148.181576, "area_m2": 10.0 }, "geometry": { "type": "Polygon", "coordinates": [ [ [ 117.312699505468316, 42.410332759946087 ], [ 117.312711658401952, 42.410332726796028 ], [ 117.312711636034464, 42.410328223852638 ], [ 117.312705559568073, 42.410328240427823 ], [ 117.312705492466947, 42.410314731597616 ], [ 117.312699416001863, 42.410314748172475 ], [ 117.31269932653548, 42.410296736398799 ], [ 117.312681097145429, 42.410296786121414 ], [ 117.312681119510714, 42.410301289064833 ], [ 117.312662890119313, 42.410301338784556 ], [ 117.312662979575293, 42.410319350558275 ], [ 117.312675132506357, 42.410319317412096 ], [ 117.31267517723613, 42.41032832329892 ], [ 117.312699483101696, 42.410328257002696 ], [ 117.312699505468316, 42.410332759946087 ] ] ] } },
{ "type": "Feature", "properties": { "crown_id": 2496, "tree_id": "2497", "top_h_m": 23.437, "H_95_Mean": 23.346, "DBH": 26.4577, "Carbon_kg": 144.821248, "area_m2": 9.5 }, "geometry": { "type": "Polygon", "coordinates": [ [ [ 117.312711613666977, 42.410323720909233 ], [ 117.312735919530709, 42.410323654605278 ], [ 117.31273585242306, 42.410310145775107 ], [ 117.312748005352276, 42.410310112621218 ], [ 117.312747938242055, 42.410296603791004 ], [ 117.312741861778747, 42.410296620368115 ], [ 117.312741839409142, 42.410292117424696 ], [ 117.312711457094707, 42.410292200305364 ], [ 117.312711479462166, 42.41029670324879 ], [ 117.312705402998816, 42.410296719823954 ], [ 117.312705470099914, 42.410310228654211 ], [ 117.312711546564543, 42.410310212079025 ], [ 117.312711613666977, 42.410323720909233 ] ] ] } },
{ "type": "Feature", "properties": { "crown_id": 2497, "tree_id": "2498", "top_h_m": 22.032, "H_95_Mean": 22.8769, "DBH": 31.3295, "Carbon_kg": 201.167641, "area_m2": 19.0 }, "geometry": { "type": "Polygon", "coordinates": [ [ [ 117.312863637205709, 42.410345821141583 ], [ 117.312869713673706, 42.41034580455802 ], [ 117.31286964653728, 42.410332295728054 ], [ 117.312881799470631, 42.410332262559962 ], [ 117.312881709952009, 42.410314250786655 ], [ 117.312893862881864, 42.410314217617298 ], [ 117.312893840501346, 42.410309714673964 ], [ 117.312887764036859, 42.410309731258813 ], [ 117.312887674516617, 42.41029171948545 ], [ 117.312875521591096, 42.410291752654139 ], [ 117.312875543970293, 42.410296255597487 ], [ 117.312857314580683, 42.410296305348126 ], [ 117.312857292202807, 42.410291802404757 ], [ 117.312851215740011, 42.410291818987652 ], [ 117.312851238117474, 42.410296321931007 ], [ 117.312845161654238, 42.410296338513589 ], [ 117.312845184031247, 42.410300841456952 ], [ 117.312839107567612, 42.410300858039207 ], [ 117.312839129944194, 42.410305360982576 ], [ 117.312833053480091, 42.410305377564512 ], [ 117.312833075856261, 42.410309880507874 ], [ 117.312826999391717, 42.410309897089491 ], [ 117.312827021767447, 42.410314400032846 ], [ 117.312833098232431, 42.410314383451222 ], [ 117.312833120608602, 42.410318886394563 ], [ 117.312839197073998, 42.41031886981262 ], [ 117.312839264203859, 42.410332378642657 ], [ 117.312845340670549, 42.41033236206038 ], [ 117.312845385424666, 42.410341367947041 ], [ 117.31286361482735, 42.410341318198263 ], [ 117.312863637205709, 42.410345821141583 ] ] ] } },
{ "type": "Feature", "properties": { "crown_id": 2506, "tree_id": "2507", "top_h_m": 22.13, "H_95_Mean": 22.2579, "DBH": 23.9123, "Carbon_kg": 114.82339, "area_m2": 7.0 }, "geometry": { "type": "Polygon", "coordinates": [ [ [ 117.312772423069802, 42.410332561026429 ], [ 117.312778499536563, 42.410332544447691 ], [ 117.312778477164287, 42.410328041504322 ], [ 117.312784553630607, 42.410328024925278 ], [ 117.31278453125789, 42.410323521981908 ], [ 117.312796684189649, 42.410323488822847 ], [ 117.312796661816066, 42.410318985879478 ], [ 117.312790585350655, 42.410319002459161 ], [ 117.312790540604396, 42.41030999657243 ], [ 117.31278446413981, 42.410310013151793 ], [ 117.312784419394447, 42.410301007265026 ], [ 117.312754037075862, 42.410301090156985 ], [ 117.312754081816877, 42.410310096043773 ], [ 117.312760158281478, 42.410310079466022 ], [ 117.312760180652432, 42.410314582409413 ], [ 117.31276625711746, 42.410314565831328 ], [ 117.312766324231646, 42.410328074661464 ], [ 117.312772400697952, 42.410328058083053 ], [ 117.312772423069802, 42.410332561026429 ] ] ] } }
]
}
