{
"type": "FeatureCollection",
"name": "tile_15_20",
"crs": { "type": "name", "properties": { "name": "urn:ogc:def:crs:OGC:1.3:CRS84" } },
"features": [
{ "type": "Feature", "properties": { "crown_id": 6012, "tree_id": "6018", "top_h_m": 19.084, "H_95_Mean": 19.3121, "DBH": 23.1387, "Carbon_kg": 98.804804, "area_m2": 8.0 }, "geometry": { "type": "Polygon", "coordinates": [ [ [ 117.314630561678896, 42.408859496762055 ], [ 117.3146487906494, 42.408859446730823 ], [ 117.314648768144508, 42.408854943787105 ], [ 117.314679149759684, 42.40885486039528 ], [ 117.314679127252631, 42.40885035745157 ], [ 117.314685203575223, 42.40885034077224 ], [ 117.314685158560252, 42.408841334884812 ], [ 117.314691234881963, 42.408841318205162 ], [ 117.314691212374058, 42.408836815261459 ], [ 117.314666907088906, 42.408836881978097 ], [ 117.314666884582749, 42.408832379034365 ], [ 117.314660808261877, 42.408832395712722 ], [ 117.314660853273338, 42.408841401600178 ], [ 117.314642624308121, 42.408841451633322 ], [ 117.314642646812544, 42.408845954577053 ], [ 117.314636570490364, 42.408845971254124 ], [ 117.314636592994361, 42.408850474197855 ], [ 117.314630516671741, 42.408850490874606 ], [ 117.314630561678896, 42.408859496762055 ] ] ] } },
{ "type": "Feature", "properties": { "crown_id": 6018, "tree_id": "6024", "top_h_m": 18.27, "H_95_Mean": 18.27, "DBH": 19.9644, "Carbon_kg": 71.018452, "area_m2": 5.0 }, "geometry": { "type": "Polygon", "coordinates": [ [ [ 117.314575807268184, 42.408846138007121 ], [ 117.314612265201546, 42.408846037959187 ], [ 117.314612242699297, 42.408841535015434 ], [ 117.314600090055734, 42.408841568366036 ], [ 117.314600022551559, 42.40882805953477 ], [ 117.314593946231071, 42.408828076209581 ], [ 117.314593923730129, 42.408823573265792 ], [ 117.314581771090019, 42.40882360661444 ], [ 117.314581793590079, 42.408828109558222 ], [ 117.314575717269591, 42.408828126232059 ], [ 117.314575807268184, 42.408846138007121 ] ] ] } },
{ "type": "Feature", "properties": { "crown_id": 6058, "tree_id": "6064", "top_h_m": 21.449, "H_95_Mean": 21.5363, "DBH": 30.6538, "Carbon_kg": 185.763968, "area_m2": 19.5 }, "geometry": { "type": "Polygon", "coordinates": [ [ [ 117.314618364026458, 42.408850524227141 ], [ 117.314624440349107, 42.408850507551037 ], [ 117.314624417845977, 42.408846004607291 ], [ 117.314630494168171, 42.408845987930874 ], [ 117.3146304716646, 42.408841484987136 ], [ 117.314636547986353, 42.408841468310392 ], [ 117.314636525482356, 42.408836965366653 ], [ 117.314654754446309, 42.408836915334483 ], [ 117.314654641919859, 42.408814400615775 ], [ 117.31464856560072, 42.408814417293478 ], [ 117.314648520591035, 42.408805411405957 ], [ 117.314642444272764, 42.408805428083333 ], [ 117.314642354255227, 42.40878741630825 ], [ 117.314636277938689, 42.408787432985285 ], [ 117.314636300442643, 42.408791935929067 ], [ 117.314630224125665, 42.408791952605775 ], [ 117.314630246629179, 42.408796455549563 ], [ 117.314612017676907, 42.408796505577797 ], [ 117.314612040179099, 42.408801008521571 ], [ 117.31460596386124, 42.408801025197 ], [ 117.314606008864814, 42.40881003108457 ], [ 117.314599932546088, 42.408810047759687 ], [ 117.314599955047441, 42.408814550703454 ], [ 117.314593878728246, 42.408814567378251 ], [ 117.314593901229202, 42.408819070322025 ], [ 117.314599977548795, 42.408819053647235 ], [ 117.314600000050177, 42.408823556590995 ], [ 117.314606076370225, 42.408823539915865 ], [ 117.314606143875679, 42.408837048747145 ], [ 117.314618296518375, 42.408837015395925 ], [ 117.314618364026458, 42.408850524227141 ] ] ] } },
{ "type": "Feature", "properties": { "crown_id": 6076, "tree_id": "6082", "top_h_m": 22.914, "H_95_Mean": 23.2985, "DBH": 36.5003, "Carbon_kg": 276.670248, "area_m2": 33.25 }, "geometry": { "type": "Polygon", "coordinates": [ [ [ 117.314697288695342, 42.40883679858149 ], [ 117.314709441337868, 42.408836765220592 ], [ 117.314709418828642, 42.408832262276889 ], [ 117.314715495149457, 42.408832245595953 ], [ 117.314715472639833, 42.40882774265225 ], [ 117.314727625280611, 42.408827709289433 ], [ 117.314727602770091, 42.408823206345716 ], [ 117.31473367909004, 42.408823189663828 ], [ 117.314733656579094, 42.408818686720117 ], [ 117.3147275802596, 42.408818703402005 ], [ 117.314727557749109, 42.408814200458281 ], [ 117.314721481430027, 42.408814217139856 ], [ 117.314721458919962, 42.408809714196138 ], [ 117.314715382601335, 42.408809730877365 ], [ 117.314715360091711, 42.408805227933634 ], [ 117.314697131137052, 42.408805277975397 ], [ 117.314697086120447, 42.408796272087919 ], [ 117.314691009803084, 42.408796288767867 ], [ 117.314690987295222, 42.4087917858241 ], [ 117.314678834661336, 42.40879181918303 ], [ 117.314678767140407, 42.408778310351728 ], [ 117.314672690824779, 42.408778327030696 ], [ 117.314672623305185, 42.408764818199366 ], [ 117.31467869961952, 42.408764801520412 ], [ 117.314678654605615, 42.40875579563285 ], [ 117.314684730919069, 42.408755778953562 ], [ 117.314684663396946, 42.408742270122211 ], [ 117.314672510772638, 42.408742303480416 ], [ 117.31467255578562, 42.408751309368007 ], [ 117.314660403159564, 42.408751342724941 ], [ 117.314660448170855, 42.408760348612532 ], [ 117.314642219229086, 42.408760398645533 ], [ 117.314642331750875, 42.408782913364469 ], [ 117.314648408066958, 42.408782896687107 ], [ 117.314648498086228, 42.408800908462197 ], [ 117.314654574404059, 42.408800891784509 ], [ 117.314654619414583, 42.408809897672029 ], [ 117.314660695733295, 42.408809880994013 ], [ 117.314660785756146, 42.408827892768983 ], [ 117.314672938396996, 42.408827859411971 ], [ 117.314672960903593, 42.408832362355689 ], [ 117.314697266186982, 42.408832295637779 ], [ 117.314697288695342, 42.40883679858149 ] ] ] } },
{ "type": "Feature", "properties": { "crown_id": 6077, "tree_id": "6083", "top_h_m": 18.527, "H_95_Mean": 19.5119, "DBH": 20.8613, "Carbon_kg": 80.673284, "area_m2": 5.25 }, "geometry": { "type": "Polygon", "coordinates": [ [ [ 117.314751908049828, 42.408823139616231 ], [ 117.31477013700956, 42.408823089565729 ], [ 117.314770114496014, 42.408818586622033 ], [ 117.314782267134945, 42.408818553253425 ], [ 117.314782244620545, 42.408814050309743 ], [ 117.314770091982496, 42.408814083678337 ], [ 117.314770046955431, 42.408805077790916 ], [ 117.314763970637259, 42.408805094474737 ], [ 117.314763880584948, 42.408787082699867 ], [ 117.314757804268496, 42.408787099383346 ], [ 117.314757826781161, 42.408791602327071 ], [ 117.314751750464282, 42.408791619010223 ], [ 117.314751908049828, 42.408823139616231 ] ] ] } },
{ "type": "Feature", "properties": { "crown_id": 6078, "tree_id": "6084", "top_h_m": 19.121, "H_95_Mean": 19.8135, "DBH": 25.4252, "Carbon_kg": 121.296088, "area_m2": 11.0 }, "geometry": { "type": "Polygon", "coordinates": [ [ [ 117.314770204550214, 42.408836598396803 ], [ 117.314800586156181, 42.408836514972819 ], [ 117.314800563640475, 42.408832012029151 ], [ 117.314812716281963, 42.408831978657304 ], [ 117.314812693765361, 42.408827475713636 ], [ 117.314824846405955, 42.408827442340517 ], [ 117.314824778853591, 42.408813933509506 ], [ 117.314818702534609, 42.408813950196226 ], [ 117.314818680017595, 42.40880944725253 ], [ 117.314812603699053, 42.408809463938923 ], [ 117.314812536149361, 42.408795955107841 ], [ 117.314806459832084, 42.408795971793907 ], [ 117.314806482348217, 42.40880047473761 ], [ 117.3148004060305, 42.408800491423342 ], [ 117.314800451061899, 42.408809497310742 ], [ 117.31478829842473, 42.408809530681268 ], [ 117.314788365969264, 42.408823039512328 ], [ 117.314776213329452, 42.408823072881596 ], [ 117.314776235843439, 42.408827575825278 ], [ 117.3147580068824, 42.408827625876754 ], [ 117.31475802939508, 42.408832128820443 ], [ 117.314770182036668, 42.408832095453114 ], [ 117.314770204550214, 42.408836598396803 ] ] ] } },
{ "type": "Feature", "properties": { "crown_id": 6091, "tree_id": "6097", "top_h_m": 18.958, "H_95_Mean": 19.4964, "DBH": 24.4588, "Carbon_kg": 111.117745, "area_m2": 9.75 }, "geometry": { "type": "Polygon", "coordinates": [ [ [ 117.314776145787548, 42.4088095640505 ], [ 117.31478222210616, 42.40880954736604 ], [ 117.314782199591747, 42.40880504442233 ], [ 117.314794352228063, 42.408805011052465 ], [ 117.314794307197545, 42.408796005165058 ], [ 117.314800383514822, 42.408795988479646 ], [ 117.314800360999143, 42.408791485535936 ], [ 117.314812513632816, 42.408791452164152 ], [ 117.31481242356665, 42.408773440389311 ], [ 117.314818499881753, 42.408773423702947 ], [ 117.314818477364767, 42.408768920759236 ], [ 117.314794172106133, 42.408768987502768 ], [ 117.314794194621356, 42.408773490446492 ], [ 117.314788118306254, 42.408773507131578 ], [ 117.314788163335834, 42.40878251301902 ], [ 117.314769934387897, 42.408782563072343 ], [ 117.314770024441913, 42.40880057484722 ], [ 117.314776100759659, 42.408800558163087 ], [ 117.314776145787548, 42.4088095640505 ] ] ] } },
{ "type": "Feature", "properties": { "crown_id": 6140, "tree_id": "6146", "top_h_m": 23.75, "H_95_Mean": 23.725, "DBH": 37.1647, "Carbon_kg": 290.009271, "area_m2": 34.5 }, "geometry": { "type": "MultiPolygon", "coordinates": [ [ [ [ 117.314739710387229, 42.408814167094199 ], [ 117.314739755409974, 42.408823172981613 ], [ 117.314745831729894, 42.408823156299086 ], [ 117.314745786706297, 42.408814150411672 ], [ 117.314739710387229, 42.408814167094199 ] ] ], [ [ [ 117.314739710387229, 42.408814167094199 ], [ 117.314739687875885, 42.408809664150482 ], [ 117.314745764194512, 42.408809647467955 ], [ 117.314745651635619, 42.408787132749339 ], [ 117.314751727952057, 42.408787116066499 ], [ 117.314751705439861, 42.408782613122774 ], [ 117.314763858071885, 42.408782579756142 ], [ 117.314763835558821, 42.408778076812418 ], [ 117.31475775924325, 42.40877809349589 ], [ 117.314757714218018, 42.408769087608412 ], [ 117.314745561588623, 42.408769120974377 ], [ 117.314745539076881, 42.408764618030631 ], [ 117.314739462762603, 42.408764634713137 ], [ 117.31473941774, 42.408755628825617 ], [ 117.314733341426589, 42.408755645507789 ], [ 117.314733273894049, 42.408742136676494 ], [ 117.314721121269784, 42.408742170039851 ], [ 117.314721076249853, 42.408733164152281 ], [ 117.314714999938602, 42.408733180833472 ], [ 117.314714977429077, 42.408728677889684 ], [ 117.314702824807412, 42.408728711251101 ], [ 117.314702869824728, 42.408737717138685 ], [ 117.314696793513022, 42.40873773381891 ], [ 117.314696816021254, 42.408742236762713 ], [ 117.314690739709107, 42.408742253442625 ], [ 117.314690829740357, 42.408760265217758 ], [ 117.314684753426462, 42.408760281897358 ], [ 117.314684798441235, 42.408769287784899 ], [ 117.314678722126473, 42.408769304464187 ], [ 117.314678744633454, 42.408773807407954 ], [ 117.314684820948642, 42.408773790728674 ], [ 117.314684888470879, 42.408787299559975 ], [ 117.314697041103869, 42.40878726620042 ], [ 117.314697063612144, 42.40879176914418 ], [ 117.314703139929065, 42.408791752463912 ], [ 117.314703184946538, 42.408800758351404 ], [ 117.314721413899875, 42.408800708308668 ], [ 117.31472143640994, 42.4088052112524 ], [ 117.314727512728126, 42.408805194570846 ], [ 117.314727535238617, 42.408809697514563 ], [ 117.314733611557244, 42.40880968083269 ], [ 117.314733634068176, 42.4088141837764 ], [ 117.314739710387229, 42.408814167094199 ] ] ] ] } },
{ "type": "Feature", "properties": { "crown_id": 6146, "tree_id": "6152", "top_h_m": 20.247, "H_95_Mean": 21.1697, "DBH": 29.7853, "Carbon_kg": 173.537481, "area_m2": 18.0 }, "geometry": { "type": "Polygon", "coordinates": [ [ [ 117.314599865042013, 42.408796538928328 ], [ 117.314605941359474, 42.408796522253226 ], [ 117.314605918857694, 42.408792019309445 ], [ 117.314624147808672, 42.408791969282177 ], [ 117.314624125305599, 42.408787466338396 ], [ 117.314630201622151, 42.408787449662007 ], [ 117.314630179118652, 42.408782946718219 ], [ 117.314636255434763, 42.408782930041511 ], [ 117.314636120411237, 42.408755912378737 ], [ 117.314654349351699, 42.408755862346716 ], [ 117.314654326846508, 42.408751359402913 ], [ 117.314636097907339, 42.408751409434934 ], [ 117.314636075403442, 42.408746906491125 ], [ 117.314623922778168, 42.408746939844185 ], [ 117.314623900275151, 42.408742436900368 ], [ 117.314611747650716, 42.408742470252143 ], [ 117.314611792655029, 42.408751476139777 ], [ 117.314605716341944, 42.408751492815185 ], [ 117.314605738843667, 42.408755995759009 ], [ 117.314599662530142, 42.40875601243409 ], [ 117.314599707532764, 42.408765018321731 ], [ 117.314587554903952, 42.408765051670947 ], [ 117.314587689906659, 42.408792069333785 ], [ 117.314599842540687, 42.408792035984533 ], [ 117.314599865042013, 42.408796538928328 ] ] ] } },
{ "type": "Feature", "properties": { "crown_id": 6187, "tree_id": "6193", "top_h_m": 19.77, "H_95_Mean": 20.7677, "DBH": 27.1425, "Carbon_kg": 142.278506, "area_m2": 13.0 }, "geometry": { "type": "Polygon", "coordinates": [ [ [ 117.314769911874393, 42.408778060128611 ], [ 117.314782064505494, 42.408778026760061 ], [ 117.31478201947678, 42.408769020872604 ], [ 117.314788095791471, 42.408769004187853 ], [ 117.314788073276674, 42.408764501244114 ], [ 117.31481845484781, 42.408764417815512 ], [ 117.314818432330867, 42.408759914871808 ], [ 117.31480020338951, 42.408759964929921 ], [ 117.314800180873874, 42.408755461986189 ], [ 117.314794104560505, 42.408755478671573 ], [ 117.31479408204531, 42.408750975727841 ], [ 117.314775853106468, 42.408751025782074 ], [ 117.314775785564819, 42.408737516950815 ], [ 117.314757556629885, 42.408737567002127 ], [ 117.314757579142452, 42.408742069945902 ], [ 117.314739350206139, 42.408742119994322 ], [ 117.314739395228713, 42.408751125881849 ], [ 117.31474547154167, 42.408751109199365 ], [ 117.314745516565154, 42.408760115086878 ], [ 117.314751592878963, 42.408760098404059 ], [ 117.314751615391131, 42.408764601347805 ], [ 117.314763768019674, 42.408764567981194 ], [ 117.314763813045758, 42.408773573868679 ], [ 117.314769889360903, 42.408773557184894 ], [ 117.314769911874393, 42.408778060128611 ] ] ] } },
{ "type": "Feature", "properties": { "crown_id": 6249, "tree_id": "6255", "top_h_m": 22.99, "H_95_Mean": 22.8017, "DBH": 36.945, "Carbon_kg": 279.914824, "area_m2": 36.25 }, "geometry": { "type": "Polygon", "coordinates": [ [ [ 117.314806257187229, 42.408755445300464 ], [ 117.314824486127264, 42.408755395241386 ], [ 117.314824463609881, 42.408750892297668 ], [ 117.314848768861481, 42.408750825547735 ], [ 117.314848746342363, 42.40874632260401 ], [ 117.314842670029918, 42.408746339291973 ], [ 117.314842647511256, 42.408741836348256 ], [ 117.314836571199223, 42.408741853035899 ], [ 117.314836526162765, 42.408732847148421 ], [ 117.314830449851613, 42.408732863835731 ], [ 117.314830427333831, 42.408728360892006 ], [ 117.314824351023105, 42.408728377578988 ], [ 117.314824283471083, 42.408714868747737 ], [ 117.314812130852218, 42.408714902120728 ], [ 117.314812108335744, 42.408710399176968 ], [ 117.314806032026766, 42.408710415862977 ], [ 117.314806009510718, 42.40870591291921 ], [ 117.314799933202153, 42.408705929604899 ], [ 117.314799910686574, 42.408701426661111 ], [ 117.31479383437842, 42.40870144334648 ], [ 117.314793811863296, 42.408696940402706 ], [ 117.314787735555555, 42.408696957087734 ], [ 117.314787758070281, 42.408701460031523 ], [ 117.31476345283761, 42.408701526768461 ], [ 117.314763430324632, 42.408697023824658 ], [ 117.314745201401394, 42.408697073873974 ], [ 117.31474522391305, 42.408701576817784 ], [ 117.314733071296658, 42.408701610182383 ], [ 117.314733093807448, 42.408706113126193 ], [ 117.314727017498825, 42.40870612980801 ], [ 117.314727040009188, 42.408710632751806 ], [ 117.314720963700097, 42.408710649433317 ], [ 117.314721053739902, 42.408728661208492 ], [ 117.314727130050713, 42.408728644526981 ], [ 117.314727175071511, 42.408737650414551 ], [ 117.314751480318193, 42.408737583685259 ], [ 117.314751457806082, 42.408733080741492 ], [ 117.314781839362155, 42.408732997322637 ], [ 117.314781906905097, 42.408746506153904 ], [ 117.314800135842589, 42.408746456098712 ], [ 117.314800158358224, 42.40875095904245 ], [ 117.314806234671153, 42.40875094235674 ], [ 117.314806257187229, 42.408755445300464 ] ], [ [ 117.314739282672321, 42.408728611162999 ], [ 117.314739215138559, 42.408715102331634 ], [ 117.314757444067041, 42.408715052283256 ], [ 117.314757511604725, 42.408728561114593 ], [ 117.314739282672321, 42.408728611162999 ] ] ] } },
{ "type": "Feature", "properties": { "crown_id": 6297, "tree_id": "6303", "top_h_m": 23.446, "H_95_Mean": 23.2556, "DBH": 39.3689, "Carbon_kg": 321.893118, "area_m2": 44.75 }, "geometry": { "type": "Polygon", "coordinates": [ [ [ 117.314642151716058, 42.408746889814118 ], [ 117.314666456966535, 42.408746823102845 ], [ 117.314666411954406, 42.408737817215233 ], [ 117.314690717201316, 42.408737750498815 ], [ 117.314690694693525, 42.408733247555027 ], [ 117.314696771004805, 42.408733230875129 ], [ 117.314696725988341, 42.40872422498753 ], [ 117.314714954919552, 42.408724174945888 ], [ 117.314714887391006, 42.408710666114494 ], [ 117.314708811081928, 42.408710682795359 ], [ 117.314708743554746, 42.408697173963908 ], [ 117.314684438323539, 42.408697240684084 ], [ 117.314684393308951, 42.408688234796422 ], [ 117.3146661643881, 42.408688284833161 ], [ 117.314666186894087, 42.408692787777007 ], [ 117.314647957971914, 42.408692837810847 ], [ 117.314647935467192, 42.408688334867001 ], [ 117.314641859160218, 42.408688351544299 ], [ 117.314641836655966, 42.408683848600432 ], [ 117.31462968404287, 42.408683881954069 ], [ 117.314629616532727, 42.408670373122455 ], [ 117.314581006090592, 42.408670506524032 ], [ 117.314581028590496, 42.408675009467942 ], [ 117.314587104896191, 42.408674992793863 ], [ 117.314587127396535, 42.408679495737758 ], [ 117.314593203702699, 42.408679479063359 ], [ 117.314593293705826, 42.408697490838854 ], [ 117.314599370013724, 42.408697474164128 ], [ 117.31459939251495, 42.408701977108002 ], [ 117.314605468823274, 42.408701960432943 ], [ 117.314605491324926, 42.408706463376802 ], [ 117.314617643942427, 42.408706430025717 ], [ 117.31461773395263, 42.408724441801098 ], [ 117.314623810263114, 42.408724425125065 ], [ 117.314623877772121, 42.408737933956544 ], [ 117.314629954083898, 42.408737917280185 ], [ 117.314629976587341, 42.408742420224002 ], [ 117.314642129211748, 42.408742386870301 ], [ 117.314642151716058, 42.408746889814118 ] ], [ [ 117.314642129211748, 42.408742386870301 ], [ 117.314642061698777, 42.408728878038843 ], [ 117.314648138009673, 42.408728861361524 ], [ 117.314648183019173, 42.408737867249158 ], [ 117.314654259330908, 42.408737850571505 ], [ 117.314654281836113, 42.408742353515315 ], [ 117.314642129211748, 42.408742386870301 ] ], [ [ 117.314660268125834, 42.408724325062089 ], [ 117.314660223114629, 42.408715319174448 ], [ 117.314654146805054, 42.408715335852406 ], [ 117.314654079289582, 42.408701827020899 ], [ 117.314672308214384, 42.408701776986071 ], [ 117.314672353227294, 42.408710782873733 ], [ 117.314678429536414, 42.408710766194808 ], [ 117.314678497057116, 42.408724275026252 ], [ 117.314660268125834, 42.408724325062089 ] ] ] } },
{ "type": "Feature", "properties": { "crown_id": 6331, "tree_id": "6337", "top_h_m": 21.97, "H_95_Mean": 23.3175, "DBH": 27.6197, "Carbon_kg": 157.812502, "area_m2": 11.25 }, "geometry": { "type": "Polygon", "coordinates": [ [ [ 117.314769506632373, 42.408697007140908 ], [ 117.314781659247842, 42.40869697377245 ], [ 117.314781636733585, 42.408692470828669 ], [ 117.314793789348158, 42.408692437458917 ], [ 117.314793699287662, 42.408674425683742 ], [ 117.314799775593215, 42.408674408998394 ], [ 117.314799753077665, 42.408669906054598 ], [ 117.314793676772567, 42.408669922739932 ], [ 117.314793654257457, 42.408665419796137 ], [ 117.314787577952785, 42.408665436481151 ], [ 117.31478755543813, 42.408660933537334 ], [ 117.314775402829625, 42.408660966906403 ], [ 117.314775380315822, 42.408656463962586 ], [ 117.314763227708184, 42.408656497330362 ], [ 117.314763250221091, 42.408661000274179 ], [ 117.314757173916831, 42.408661016957588 ], [ 117.314757218941807, 42.408670022845236 ], [ 117.314751142636666, 42.408670039528317 ], [ 117.314751210172872, 42.408683548359768 ], [ 117.314769439092203, 42.408683498309522 ], [ 117.314769506632373, 42.408697007140908 ] ] ] } },
{ "type": "Feature", "properties": { "crown_id": 6354, "tree_id": "6360", "top_h_m": 21.819, "H_95_Mean": 21.8195, "DBH": 19.0434, "Carbon_kg": 71.719159, "area_m2": 3.0 }, "geometry": { "type": "Polygon", "coordinates": [ [ [ 117.314654011774167, 42.408688318189363 ], [ 117.314660088081126, 42.408688301511432 ], [ 117.314660043070006, 42.408679295623713 ], [ 117.314653966763927, 42.408679312301665 ], [ 117.314653899248583, 42.408665803470072 ], [ 117.31463567033417, 42.408665853501944 ], [ 117.314635737845592, 42.408679362333551 ], [ 117.31464789045782, 42.408679328979282 ], [ 117.314647912962499, 42.408683831923135 ], [ 117.314653989269047, 42.40868381524551 ], [ 117.314654011774167, 42.408688318189363 ] ] ] } }
]
}
