{
"type": "FeatureCollection",
"name": "tile_17_10",
"crs": { "type": "name", "properties": { "name": "urn:ogc:def:crs:OGC:1.3:CRS84" } },
"features": [
{ "type": "Feature", "properties": { "crown_id": 6907, "tree_id": "6913", "top_h_m": 18.95, "H_95_Mean": 18.9478, "DBH": 28.1553, "Carbon_kg": 145.093765, "area_m2": 17.75 }, "geometry": { "type": "MultiPolygon", "coordinates": [ [ [ [ 117.312143179354237, 42.408429504891274 ], [ 117.312143201679589, 42.408434007836412 ], [ 117.312167506815072, 42.408433941655325 ], [ 117.312167551469273, 42.408442947545574 ], [ 117.312179704038726, 42.408442914453097 ], [ 117.312179748694675, 42.40845192034331 ], [ 117.312173672409074, 42.408451936889719 ], [ 117.312173650081533, 42.408447433944609 ], [ 117.312167573796359, 42.408447450490691 ], [ 117.312167618450587, 42.408456456380897 ], [ 117.312179771022656, 42.408456423288399 ], [ 117.312179838006642, 42.40846993212368 ], [ 117.312173761719308, 42.408469948670103 ], [ 117.312173806374446, 42.40847895456028 ], [ 117.312179882662647, 42.408478938013843 ], [ 117.312179860334638, 42.408474435068769 ], [ 117.312185936622384, 42.408474418522033 ], [ 117.312185891965512, 42.408465412631848 ], [ 117.312191968252407, 42.4084653960848 ], [ 117.312191945923544, 42.408460893139711 ], [ 117.312198022209984, 42.408460876592329 ], [ 117.312197910563583, 42.408438361866857 ], [ 117.312203986847834, 42.408438345319169 ], [ 117.312203964518162, 42.408433842374059 ], [ 117.312197888234309, 42.408433858921732 ], [ 117.31219779891731, 42.408415847141278 ], [ 117.3121856463531, 42.408415880235665 ], [ 117.312185601696356, 42.408406874345403 ], [ 117.312167372852628, 42.408406923984543 ], [ 117.312167417506757, 42.408415929874813 ], [ 117.312155264942504, 42.408415962965975 ], [ 117.312155309594914, 42.408424968856252 ], [ 117.312149233311914, 42.408424985401361 ], [ 117.312149255637692, 42.408429488346485 ], [ 117.312143179354237, 42.408429504891274 ] ], [ [ 117.312191945923544, 42.408460893139711 ], [ 117.312185869637105, 42.40846090968676 ], [ 117.312185847308669, 42.408456406741671 ], [ 117.312191923594682, 42.408456390194615 ], [ 117.312191945923544, 42.408460893139711 ] ] ], [ [ [ 117.312143179354237, 42.408429504891274 ], [ 117.312143157028899, 42.408425001946142 ], [ 117.312137080745899, 42.408425018490597 ], [ 117.312137103070796, 42.408429521435743 ], [ 117.312143179354237, 42.408429504891274 ] ] ], [ [ [ 117.312185936622384, 42.408474418522033 ], [ 117.312185958950849, 42.408478921467108 ], [ 117.312192035239022, 42.408478904920045 ], [ 117.312192012910145, 42.408474401974971 ], [ 117.312185936622384, 42.408474418522033 ] ] ], [ [ [ 117.312191968252407, 42.4084653960848 ], [ 117.312191990581283, 42.408469899029889 ], [ 117.312198066868589, 42.4084698824825 ], [ 117.312198044539286, 42.408465379537418 ], [ 117.312191968252407, 42.4084653960848 ] ] ] ] } },
{ "type": "Feature", "properties": { "crown_id": 6927, "tree_id": "6933", "top_h_m": 19.444, "H_95_Mean": 19.2381, "DBH": 34.7359, "Carbon_kg": 223.565176, "area_m2": 39.0 }, "geometry": { "type": "MultiPolygon", "coordinates": [ [ [ [ 117.312216295730508, 42.408469832838421 ], [ 117.312216318061104, 42.408474335783488 ], [ 117.312222394348851, 42.40847431923482 ], [ 117.312222372017786, 42.40846981628976 ], [ 117.312216295730508, 42.408469832838421 ] ] ], [ [ [ 117.312216295730508, 42.408469832838421 ], [ 117.312216273399883, 42.408465329893339 ], [ 117.312234502260452, 42.408465280246368 ], [ 117.312234524592384, 42.408469783191435 ], [ 117.312246677166911, 42.40846975009184 ], [ 117.31224663250137, 42.408460744201712 ], [ 117.31225878507415, 42.408460711100837 ], [ 117.312258718073267, 42.408447202265634 ], [ 117.312264794358342, 42.408447185714728 ], [ 117.312264816692419, 42.408451688659795 ], [ 117.312270892977921, 42.408451672108569 ], [ 117.312270870643431, 42.408447169163495 ], [ 117.312276946928506, 42.408447152611934 ], [ 117.312276969263422, 42.408451655557002 ], [ 117.312283045548952, 42.408451639005129 ], [ 117.31228300087821, 42.408442633115008 ], [ 117.312276924593576, 42.408442649666874 ], [ 117.31227683525394, 42.408424637886569 ], [ 117.312282911536812, 42.408424621334703 ], [ 117.312282889201484, 42.408420118389621 ], [ 117.312264660354089, 42.408420168044252 ], [ 117.312264638020054, 42.408415665099149 ], [ 117.31225856173802, 42.408415681650034 ], [ 117.312258539404439, 42.408411178704945 ], [ 117.312252463122817, 42.408411195255511 ], [ 117.312252440789663, 42.408406692310415 ], [ 117.312222059383686, 42.40840677505841 ], [ 117.312222014721755, 42.408397769168175 ], [ 117.312215938441426, 42.408397785716794 ], [ 117.312215916110901, 42.408393282771662 ], [ 117.31218553471129, 42.408393365509973 ], [ 117.312185579368006, 42.408402371400264 ], [ 117.312191655648803, 42.408402354853237 ], [ 117.3121917003064, 42.408411360743493 ], [ 117.312203852869715, 42.40841132764848 ], [ 117.312203942188447, 42.408429339428949 ], [ 117.312210018471845, 42.408429322880941 ], [ 117.312210085462254, 42.408442831716258 ], [ 117.312204009177549, 42.408442848264265 ], [ 117.312204053836993, 42.408451854154464 ], [ 117.312210130122537, 42.408451837606442 ], [ 117.312210152452707, 42.408456340551531 ], [ 117.312204076166694, 42.408456357099546 ], [ 117.312204120826166, 42.408465362989709 ], [ 117.312210197113032, 42.408465346441687 ], [ 117.312210219443202, 42.408469849386769 ], [ 117.312216295730508, 42.408469832838421 ] ] ], [ [ [ 117.31225878507415, 42.408460711100837 ], [ 117.312258807407801, 42.408465214045897 ], [ 117.312264883694624, 42.408465197494969 ], [ 117.312264861360546, 42.408460694549916 ], [ 117.31225878507415, 42.408460711100837 ] ] ] ] } },
{ "type": "Feature", "properties": { "crown_id": 6994, "tree_id": "7000", "top_h_m": 20.52, "H_95_Mean": 20.307, "DBH": 38.1424, "Carbon_kg": 278.72892, "area_m2": 50.75 }, "geometry": { "type": "Polygon", "coordinates": [ [ [ 117.312270714302102, 42.40841564854793 ], [ 117.312301095712229, 42.408415565787024 ], [ 117.312301006365729, 42.408397554006676 ], [ 117.312307082646001, 42.408397537453546 ], [ 117.312306948623828, 42.408370519782935 ], [ 117.312300872346171, 42.408370536336058 ], [ 117.312300850009592, 42.408366033390941 ], [ 117.312282621177872, 42.408366083048378 ], [ 117.312282509501571, 42.408343568322692 ], [ 117.312276433226501, 42.408343584874501 ], [ 117.312276410891684, 42.408339081929363 ], [ 117.312270334617054, 42.408339098480852 ], [ 117.312270356951416, 42.408343601426004 ], [ 117.312264280676345, 42.408343617977181 ], [ 117.31226425834241, 42.408339115032021 ], [ 117.312239953243747, 42.408339181233501 ], [ 117.312239975575949, 42.408343684178654 ], [ 117.31223389930085, 42.408343700728217 ], [ 117.312233921632611, 42.408348203673391 ], [ 117.312221769081518, 42.408348236771552 ], [ 117.312221791412412, 42.408352739716719 ], [ 117.312209638860423, 42.408352772813615 ], [ 117.312209728180633, 42.408370784594261 ], [ 117.31219757562512, 42.408370817689878 ], [ 117.312197664941948, 42.408388829470482 ], [ 117.312221970059852, 42.408388763277912 ], [ 117.312221992390803, 42.408393266223037 ], [ 117.312228068670706, 42.408393249674091 ], [ 117.312228113333504, 42.408402255564347 ], [ 117.312258494737264, 42.408402172814739 ], [ 117.312258517070845, 42.408406675759842 ], [ 117.312264593352012, 42.408406659208957 ], [ 117.312264615686047, 42.40841116215406 ], [ 117.31227069196764, 42.408411145602841 ], [ 117.312270714302102, 42.40841564854793 ] ] ] } },
{ "type": "Feature", "properties": { "crown_id": 7028, "tree_id": "7034", "top_h_m": 19.464, "H_95_Mean": 20.0602, "DBH": 38.8956, "Carbon_kg": 287.84424, "area_m2": 56.0 }, "geometry": { "type": "Polygon", "coordinates": [ [ [ 117.312118807249618, 42.408416062231737 ], [ 117.312130959813928, 42.408416029144433 ], [ 117.312130937489471, 42.408411526199288 ], [ 117.312124861207749, 42.408411542743089 ], [ 117.312124838883719, 42.408407039797936 ], [ 117.312136991446295, 42.408407006709993 ], [ 117.312137036096075, 42.408416012600306 ], [ 117.312149188660356, 42.408415979511076 ], [ 117.312149166334592, 42.408411476565931 ], [ 117.312161318897992, 42.408411443475423 ], [ 117.312161274244758, 42.408402437585124 ], [ 117.312179503087179, 42.408402387946971 ], [ 117.312179436103449, 42.408388879111527 ], [ 117.312191588662444, 42.408388846017807 ], [ 117.312191477018615, 42.408366331292036 ], [ 117.312203629573261, 42.408366298197059 ], [ 117.312203562584415, 42.408352789361572 ], [ 117.312197486308406, 42.40835280590921 ], [ 117.31219741932091, 42.408339297073667 ], [ 117.312185266771479, 42.408339330167969 ], [ 117.312185244443199, 42.408334827222774 ], [ 117.312167015620318, 42.408334876861794 ], [ 117.312167037947304, 42.408339379806989 ], [ 117.312130580298799, 42.408339479076332 ], [ 117.312130557974427, 42.40833497613113 ], [ 117.312112329151418, 42.408335025761446 ], [ 117.312112306828354, 42.408330522816229 ], [ 117.31210623055442, 42.408330539359014 ], [ 117.312106520749026, 42.408389077646703 ], [ 117.312112597028573, 42.408389061103883 ], [ 117.312112619351709, 42.408393564049057 ], [ 117.312106543071707, 42.408393580591884 ], [ 117.312106565394416, 42.408398083537065 ], [ 117.312094412833545, 42.408398116621761 ], [ 117.312094435155359, 42.408402619566942 ], [ 117.312106587717125, 42.408402586482246 ], [ 117.312106610039834, 42.408407089427406 ], [ 117.312112686321143, 42.408407072884572 ], [ 117.312112663997993, 42.408402569939405 ], [ 117.312118740278848, 42.408402553396257 ], [ 117.312118807249618, 42.408416062231737 ] ], [ [ 117.312112641674858, 42.408398066994231 ], [ 117.312112619351709, 42.408393564049057 ], [ 117.312118695631696, 42.408393547505909 ], [ 117.312118717955272, 42.408398050451083 ], [ 117.312112641674858, 42.408398066994231 ] ] ] } },
{ "type": "Feature", "properties": { "crown_id": 7043, "tree_id": "7049", "top_h_m": 20.29, "H_95_Mean": 20.5704, "DBH": 37.3118, "Carbon_kg": 268.670926, "area_m2": 45.5 }, "geometry": { "type": "Polygon", "coordinates": [ [ [ 117.312307127320096, 42.408406543343723 ], [ 117.31231927988236, 42.40840651023646 ], [ 117.312319235206516, 42.40839750434629 ], [ 117.312325311486774, 42.4083974877922 ], [ 117.312325289148433, 42.408392984847112 ], [ 117.312319212868616, 42.408393001401208 ], [ 117.312319190530715, 42.408388498456119 ], [ 117.312343495648207, 42.408388432237786 ], [ 117.31234351798787, 42.408392935182867 ], [ 117.312337441708067, 42.408392951737937 ], [ 117.312337486386483, 42.408401957628094 ], [ 117.312349638947822, 42.408401924517626 ], [ 117.312349616607733, 42.408397421572545 ], [ 117.312355692887962, 42.408397405016828 ], [ 117.312355670547447, 42.408392902071768 ], [ 117.312367823107024, 42.408392868959375 ], [ 117.312367756082878, 42.408379360124151 ], [ 117.312373832361359, 42.408379343567482 ], [ 117.312373765335977, 42.408365834732237 ], [ 117.312385917890296, 42.408365801617947 ], [ 117.312385873205002, 42.408356795727784 ], [ 117.312391949481267, 42.408356779170155 ], [ 117.312391927138194, 42.408352276225067 ], [ 117.312373698310623, 42.408352325896963 ], [ 117.312373631285325, 42.408338817061647 ], [ 117.312367555010766, 42.408338833618302 ], [ 117.312367510328116, 42.408329827728053 ], [ 117.31234320523329, 42.408329893951411 ], [ 117.312343182893727, 42.408325391006294 ], [ 117.312306725253933, 42.408325490331634 ], [ 117.312306747590895, 42.408329993276773 ], [ 117.312300671317146, 42.408330009829875 ], [ 117.312300693653668, 42.408334512775021 ], [ 117.312282464831085, 42.408334562432394 ], [ 117.312282487166343, 42.40833906537754 ], [ 117.312288563440987, 42.408339048825404 ], [ 117.312288675119419, 42.40836156355109 ], [ 117.312306903949818, 42.408361513892707 ], [ 117.312306926286823, 42.408366016837824 ], [ 117.312313002564025, 42.408366000284374 ], [ 117.312313181263747, 42.40840202384517 ], [ 117.312307104983049, 42.408402040398634 ], [ 117.312307127320096, 42.408406543343723 ] ] ] } }
]
}
