{
"type": "FeatureCollection",
"name": "tile_16_20",
"crs": { "type": "name", "properties": { "name": "urn:ogc:def:crs:OGC:1.3:CRS84" } },
"features": [
{ "type": "Feature", "properties": { "crown_id": 6361, "tree_id": "6367", "top_h_m": 21.705, "H_95_Mean": 21.9845, "DBH": 30.1026, "Carbon_kg": 181.288266, "area_m2": 17.5 }, "geometry": { "type": "Polygon", "coordinates": [ [ [ 117.314714864881509, 42.408706163170692 ], [ 117.31472094119016, 42.408706146489514 ], [ 117.314720918680237, 42.408701643545697 ], [ 117.314726994988462, 42.4087016268642 ], [ 117.314726972478098, 42.40869712392039 ], [ 117.3147208961703, 42.40869714060188 ], [ 117.31472082864056, 42.408683631770423 ], [ 117.314708676027607, 42.408683665132422 ], [ 117.314708608500538, 42.408670156300921 ], [ 117.314702532195341, 42.408670172981438 ], [ 117.314702374635374, 42.408638652374449 ], [ 117.31468414572889, 42.408638702413995 ], [ 117.314684190743421, 42.408647708301743 ], [ 117.314678114440383, 42.408647724980952 ], [ 117.314678136947208, 42.408652227924826 ], [ 117.314672060643716, 42.408652244603708 ], [ 117.314672083150143, 42.408656747547582 ], [ 117.31466600684621, 42.408656764226158 ], [ 117.314666051858168, 42.408665770113878 ], [ 117.314659975553383, 42.408665786792135 ], [ 117.31466002056446, 42.408674792679861 ], [ 117.314666096870113, 42.408674776001611 ], [ 117.314666141882086, 42.408683781889309 ], [ 117.314690447108134, 42.408683715173019 ], [ 117.314690492123617, 42.408692721060696 ], [ 117.314714797353048, 42.408692654339241 ], [ 117.314714864881509, 42.408706163170692 ] ] ] } },
{ "type": "Feature", "properties": { "crown_id": 6362, "tree_id": "6368", "top_h_m": 21.63, "H_95_Mean": 22.0942, "DBH": 25.9526, "Carbon_kg": 134.835442, "area_m2": 9.75 }, "geometry": { "type": "Polygon", "coordinates": [ [ [ 117.314733048785854, 42.408697107238574 ], [ 117.314739125093624, 42.40869709055643 ], [ 117.314739102582394, 42.408692587612627 ], [ 117.314763407811668, 42.408692520880862 ], [ 117.314763385298718, 42.40868801793706 ], [ 117.314733003764289, 42.408688101350947 ], [ 117.314732936231977, 42.408674592519482 ], [ 117.314745088843168, 42.408674559154917 ], [ 117.314745066331525, 42.408670056211086 ], [ 117.314732913721215, 42.408670089575658 ], [ 117.314732823678213, 42.408652077800298 ], [ 117.314720671071356, 42.408652111163555 ], [ 117.314720581031921, 42.408634099388138 ], [ 117.314714504730233, 42.408634116069265 ], [ 117.31471452723963, 42.408638619013139 ], [ 117.314708450937516, 42.408638635693954 ], [ 117.314708585991497, 42.40866565335709 ], [ 117.314714662296254, 42.408665636676247 ], [ 117.31471472982463, 42.408679145507762 ], [ 117.314726882436716, 42.408679112145116 ], [ 117.314726949967735, 42.408692620976581 ], [ 117.314733026275064, 42.408692604294764 ], [ 117.314733048785854, 42.408697107238574 ] ] ] } },
{ "type": "Feature", "properties": { "crown_id": 6407, "tree_id": "6413", "top_h_m": 20.18, "H_95_Mean": 20.4279, "DBH": 23.1697, "Carbon_kg": 102.418447, "area_m2": 7.25 }, "geometry": { "type": "Polygon", "coordinates": [ [ [ 117.314635647830372, 42.40866135055807 ], [ 117.314659953047823, 42.408661283848275 ], [ 117.314659908036759, 42.408652277960527 ], [ 117.314665984340252, 42.408652261282285 ], [ 117.314665961834294, 42.408647758338404 ], [ 117.314672038137346, 42.408647741659841 ], [ 117.314672015630961, 42.408643238715968 ], [ 117.314678091933558, 42.408643222037071 ], [ 117.314678069426733, 42.408638719093211 ], [ 117.314671993124563, 42.408638735772087 ], [ 117.314671948111823, 42.408629729884311 ], [ 117.314659795509229, 42.408629763241109 ], [ 117.314659818014732, 42.408634266184997 ], [ 117.314641589109442, 42.408634316217771 ], [ 117.314641701630521, 42.408656830937225 ], [ 117.314635625326574, 42.408656847614189 ], [ 117.314635647830372, 42.40866135055807 ] ] ] } },
{ "type": "Feature", "properties": { "crown_id": 6427, "tree_id": "6433", "top_h_m": 22.469, "H_95_Mean": 22.3729, "DBH": 35.0961, "Carbon_kg": 249.580322, "area_m2": 30.75 }, "geometry": { "type": "Polygon", "coordinates": [ [ [ 117.314738967515183, 42.408665569949704 ], [ 117.314751120124598, 42.4086655365845 ], [ 117.314751075100489, 42.408656530696845 ], [ 117.314757151404336, 42.408656514013764 ], [ 117.314757128891856, 42.408652011069933 ], [ 117.314781434105413, 42.408651944334387 ], [ 117.314781456619642, 42.408656447278219 ], [ 117.314787532923461, 42.408656430593524 ], [ 117.314787487894165, 42.408647424705883 ], [ 117.314799640500027, 42.408647391335542 ], [ 117.314799595469026, 42.408638385447901 ], [ 117.314805671771055, 42.408638368762254 ], [ 117.314805581707361, 42.408620356986923 ], [ 117.31481165800767, 42.40862034030097 ], [ 117.314811545425968, 42.40859782558173 ], [ 117.31479939282967, 42.4085978589533 ], [ 117.314799347798768, 42.408588853065588 ], [ 117.314787195204204, 42.408588886435858 ], [ 117.314787240233386, 42.408597892323584 ], [ 117.314781163935208, 42.408597909008243 ], [ 117.314781186449366, 42.408602411952117 ], [ 117.314769033852158, 42.408602445320462 ], [ 117.314769078878726, 42.408611451208195 ], [ 117.314763002579255, 42.408611467891888 ], [ 117.31476302509212, 42.408615970835747 ], [ 117.314756948792223, 42.408615987519134 ], [ 117.314756993817085, 42.408624993406853 ], [ 117.314744841215472, 42.408625026772654 ], [ 117.314744863727057, 42.408629529716521 ], [ 117.31472663482333, 42.408629579762817 ], [ 117.314726724864485, 42.408647591538248 ], [ 117.314738877470475, 42.408647558174351 ], [ 117.314738967515183, 42.408665569949704 ] ], [ [ 117.31478726274797, 42.408602395267458 ], [ 117.314787240233386, 42.408597892323584 ], [ 117.314793316531521, 42.408597875638613 ], [ 117.314793339046545, 42.408602378582472 ], [ 117.31478726274797, 42.408602395267458 ] ] ] } },
{ "type": "Feature", "properties": { "crown_id": 6438, "tree_id": "6444", "top_h_m": 20.849, "H_95_Mean": 21.3217, "DBH": 28.7569, "Carbon_kg": 162.358425, "area_m2": 15.5 }, "geometry": { "type": "Polygon", "coordinates": [ [ [ 117.314611365114899, 42.408665920206595 ], [ 117.314629594029356, 42.408665870178574 ], [ 117.314629526519283, 42.408652361346931 ], [ 117.314635602822804, 42.408652344670287 ], [ 117.314635467800173, 42.408625327006902 ], [ 117.314623315198347, 42.408625360359835 ], [ 117.314623292695472, 42.408620857415904 ], [ 117.314611140094527, 42.408620890767544 ], [ 117.314611117592506, 42.408616387823621 ], [ 117.314605041292481, 42.408616404498943 ], [ 117.314605063794033, 42.408620907442874 ], [ 117.314586834892552, 42.40862095746693 ], [ 117.314586947393977, 42.408643472186554 ], [ 117.314599099999327, 42.408643438837473 ], [ 117.314599167502834, 42.408656947669201 ], [ 117.314611320110785, 42.408656914318811 ], [ 117.314611365114899, 42.408665920206595 ] ] ] } },
{ "type": "Feature", "properties": { "crown_id": 6497, "tree_id": "6503", "top_h_m": 20.409, "H_95_Mean": 20.8207, "DBH": 25.5613, "Carbon_kg": 126.257273, "area_m2": 10.25 }, "geometry": { "type": "Polygon", "coordinates": [ [ [ 117.314714459711382, 42.408625110181525 ], [ 117.314738764914679, 42.408625043455061 ], [ 117.314738742403534, 42.408620540511208 ], [ 117.314750895004281, 42.408620507146054 ], [ 117.314750849980271, 42.408611501258328 ], [ 117.31475692627977, 42.408611484575275 ], [ 117.314756903767346, 42.408606981631401 ], [ 117.314762980066405, 42.408606964948028 ], [ 117.31476293504069, 42.40859795906028 ], [ 117.314750782444321, 42.408597992426699 ], [ 117.314750759932338, 42.408593489482818 ], [ 117.314732531039041, 42.408593539530017 ], [ 117.314732553549703, 42.408598042473905 ], [ 117.314720400953291, 42.408598075837098 ], [ 117.314720423463086, 42.408602578781 ], [ 117.31471434716444, 42.408602595462114 ], [ 117.314714459711382, 42.408625110181525 ] ] ] } },
{ "type": "Feature", "properties": { "crown_id": 6521, "tree_id": "6527", "top_h_m": 24.717, "H_95_Mean": 24.7444, "DBH": 41.1607, "Carbon_kg": 365.266235, "area_m2": 47.5 }, "geometry": { "type": "Polygon", "coordinates": [ [ [ 117.314678046919923, 42.408634216149323 ], [ 117.314708428428517, 42.408634132750088 ], [ 117.314708248356837, 42.408598109199012 ], [ 117.314714324655057, 42.408598092518218 ], [ 117.314714302145688, 42.408593589574316 ], [ 117.314726454741276, 42.408593556211784 ], [ 117.314726432231041, 42.408589053267882 ], [ 117.314702127041599, 42.408589119991682 ], [ 117.314701991990731, 42.408562102328169 ], [ 117.31464122904292, 42.408562269114938 ], [ 117.314641274051155, 42.408571275002835 ], [ 117.314635197755479, 42.408571291679763 ], [ 117.314635287770287, 42.408589303455528 ], [ 117.314629211472877, 42.408589320132137 ], [ 117.314629256479435, 42.408598326020005 ], [ 117.314617103882838, 42.408598359372242 ], [ 117.314617193892559, 42.408616371147964 ], [ 117.314629346492637, 42.408616337795692 ], [ 117.314629368995952, 42.40862084073963 ], [ 117.314641521596883, 42.408620807386058 ], [ 117.314641566605275, 42.408629813273862 ], [ 117.314653719207897, 42.408629779919018 ], [ 117.314653696702848, 42.408625276975108 ], [ 117.31467800190633, 42.40862521026154 ], [ 117.314678046919923, 42.408634216149323 ] ] ] } },
{ "type": "Feature", "properties": { "crown_id": 6547, "tree_id": "6553", "top_h_m": 21.71, "H_95_Mean": 22.1747, "DBH": 30.5537, "Carbon_kg": 187.759581, "area_m2": 18.25 }, "geometry": { "type": "MultiPolygon", "coordinates": [ [ [ [ 117.314568583492047, 42.408616504544149 ], [ 117.314598964992399, 42.408616421173946 ], [ 117.314598942491273, 42.408611918230008 ], [ 117.314611095090513, 42.40861188487969 ], [ 117.31461100508254, 42.408593873103939 ], [ 117.314598852486782, 42.40859390645425 ], [ 117.314598829985684, 42.408589403510298 ], [ 117.314592753688231, 42.408589420184967 ], [ 117.314592708686888, 42.408580414297056 ], [ 117.314586632390288, 42.408580430971398 ], [ 117.314586677390764, 42.408589436859323 ], [ 117.314568448498363, 42.408589486880423 ], [ 117.314568381001578, 42.408575978048511 ], [ 117.314586609890085, 42.408575928027439 ], [ 117.314586564889638, 42.408566922139492 ], [ 117.31459264118493, 42.408566905465158 ], [ 117.314592618684287, 42.408562402521177 ], [ 117.314544008325328, 42.408562535906803 ], [ 117.314544030822489, 42.408567038850805 ], [ 117.31455010711781, 42.408567022178723 ], [ 117.314550197108261, 42.408585033954658 ], [ 117.314562349702371, 42.408585000609513 ], [ 117.31456248469344, 42.408612018273267 ], [ 117.314568560993081, 42.408612001600204 ], [ 117.314568583492047, 42.408616504544149 ] ] ], [ [ [ 117.314592618684287, 42.408562402521177 ], [ 117.314598694979125, 42.408562385846523 ], [ 117.314598672478056, 42.408557882902556 ], [ 117.314592596183644, 42.408557899577197 ], [ 117.314592618684287, 42.408562402521177 ] ] ] ] } },
{ "type": "Feature", "properties": { "crown_id": 6574, "tree_id": "6580", "top_h_m": 22.385, "H_95_Mean": 23.3674, "DBH": 26.103, "Carbon_kg": 141.011167, "area_m2": 9.0 }, "geometry": { "type": "Polygon", "coordinates": [ [ [ 117.314617081380419, 42.408593856428304 ], [ 117.314623157678284, 42.408593839752349 ], [ 117.314623112672592, 42.408584833864467 ], [ 117.31462918896959, 42.408584817188192 ], [ 117.31462909895653, 42.408566805412406 ], [ 117.31463517525178, 42.408566788735804 ], [ 117.314635130244412, 42.408557782847893 ], [ 117.314622977655645, 42.408557816200734 ], [ 117.314622955152842, 42.40855331325676 ], [ 117.314616878858899, 42.408553329932708 ], [ 117.314616901361276, 42.408557832876674 ], [ 117.314604748772453, 42.408557866227589 ], [ 117.314604793775473, 42.408566872115522 ], [ 117.314598717480209, 42.408566888790503 ], [ 117.314598739981278, 42.408571391734469 ], [ 117.314592663685573, 42.408571408409124 ], [ 117.314592686186216, 42.408575911353097 ], [ 117.314598762482376, 42.408575894678435 ], [ 117.314598807484558, 42.408584900566346 ], [ 117.314604883781584, 42.408584883891365 ], [ 117.314604906283122, 42.408589386835317 ], [ 117.314617058878014, 42.408589353484366 ], [ 117.314617081380419, 42.408593856428304 ] ] ] } },
{ "type": "Feature", "properties": { "crown_id": 6654, "tree_id": "6660", "top_h_m": 21.76, "H_95_Mean": 21.7283, "DBH": 28.0004, "Carbon_kg": 155.593739, "area_m2": 13.5 }, "geometry": { "type": "Polygon", "coordinates": [ [ [ 117.314556138417061, 42.408557999618331 ], [ 117.314586519889218, 42.408557916251539 ], [ 117.31458649738903, 42.408553413307551 ], [ 117.314610802564928, 42.408553346608315 ], [ 117.31461075756107, 42.408544340720361 ], [ 117.314604681267966, 42.408544357395641 ], [ 117.314604636264988, 42.408535351507673 ], [ 117.314598559972779, 42.408535368182633 ], [ 117.314598447467603, 42.408512853462611 ], [ 117.31459237117754, 42.40851287013723 ], [ 117.31459239367814, 42.408517373081253 ], [ 117.314574164806601, 42.408517423103191 ], [ 117.31457423230448, 42.408530931935225 ], [ 117.314568156012641, 42.408530948608572 ], [ 117.314568178511507, 42.408535451552588 ], [ 117.31456210221927, 42.408535468225615 ], [ 117.314562147216151, 42.408544474113626 ], [ 117.31455607092299, 42.40854449078634 ], [ 117.314556093421018, 42.408548993730342 ], [ 117.314562169714577, 42.408548977057627 ], [ 117.314562192213032, 42.408553480001629 ], [ 117.314556115919032, 42.408553496674337 ], [ 117.314556138417061, 42.408557999618331 ] ] ] } },
{ "type": "Feature", "properties": { "crown_id": 6664, "tree_id": "6670", "top_h_m": 24.396, "H_95_Mean": 23.8506, "DBH": 40.8883, "Carbon_kg": 352.652805, "area_m2": 49.5 }, "geometry": { "type": "Polygon", "coordinates": [ [ [ 117.314769011338868, 42.408597942376602 ], [ 117.314775087637031, 42.408597925692575 ], [ 117.314775065123314, 42.408593422748716 ], [ 117.314781141421051, 42.408593406064377 ], [ 117.314781096392764, 42.408584400176643 ], [ 117.314799325283346, 42.408584350121721 ], [ 117.314799280252458, 42.408575344233974 ], [ 117.314805356548419, 42.408575327548363 ], [ 117.314805311516707, 42.408566321660608 ], [ 117.314811387811815, 42.408566304974684 ], [ 117.314811365295526, 42.408561802030803 ], [ 117.314817441590193, 42.408561785344553 ], [ 117.314817419073464, 42.408557282400672 ], [ 117.314799190190755, 42.40855733245845 ], [ 117.314799077613785, 42.408534817738939 ], [ 117.314793001321718, 42.408534834424209 ], [ 117.314792933776886, 42.40852132559246 ], [ 117.314786857486112, 42.408521342277403 ], [ 117.314786834971599, 42.408516839333473 ], [ 117.314774682390905, 42.408516872702357 ], [ 117.314774704904551, 42.408521375646302 ], [ 117.314768628613763, 42.408521392330265 ], [ 117.314768651126968, 42.408525895274188 ], [ 117.314756498544497, 42.408525928641161 ], [ 117.31475652105685, 42.408530431585106 ], [ 117.314738292181815, 42.408530481633164 ], [ 117.314738314692846, 42.408534984577102 ], [ 117.314732238400723, 42.408535001259132 ], [ 117.314732260911342, 42.408539504203077 ], [ 117.314720108326227, 42.408539537566199 ], [ 117.314720130835951, 42.408544040510144 ], [ 117.314714054542947, 42.408544057191207 ], [ 117.314714099561584, 42.40855306307909 ], [ 117.314708023267713, 42.408553079759855 ], [ 117.314708180830053, 42.408584600367305 ], [ 117.314732486017704, 42.408584533642234 ], [ 117.314732508528365, 42.408589036586129 ], [ 117.314756813717665, 42.408588969855892 ], [ 117.314756836230089, 42.40859347279978 ], [ 117.314768988825577, 42.408593439432721 ], [ 117.314769011338868, 42.408597942376602 ] ] ] } },
{ "type": "Feature", "properties": { "crown_id": 6690, "tree_id": "6696", "top_h_m": 21.016, "H_95_Mean": 21.1108, "DBH": 31.7734, "Carbon_kg": 197.349357, "area_m2": 23.25 }, "geometry": { "type": "Polygon", "coordinates": [ [ [ 117.314641206538795, 42.408557766170986 ], [ 117.314683740599278, 42.408557649423642 ], [ 117.314683673077838, 42.408544140591793 ], [ 117.314677596784804, 42.408544157270953 ], [ 117.314677574278107, 42.408539654327008 ], [ 117.314665421692879, 42.408539687684325 ], [ 117.31466544419871, 42.408544190628291 ], [ 117.314647215319539, 42.408544240661882 ], [ 117.314647147805985, 42.408530731829956 ], [ 117.314665376681234, 42.4085306817964 ], [ 117.314665331669616, 42.408521675908453 ], [ 117.314671407960489, 42.408521659229955 ], [ 117.314671362948005, 42.408512653342008 ], [ 117.314665286657998, 42.408512670020492 ], [ 117.314665264152197, 42.408508167076512 ], [ 117.314653111573051, 42.408508200432507 ], [ 117.31465308906813, 42.408503697488513 ], [ 117.314647012778963, 42.408503714166038 ], [ 117.314646990274483, 42.408499211222029 ], [ 117.314640913985784, 42.408499227899235 ], [ 117.314640958993877, 42.408508233787231 ], [ 117.314634882704283, 42.408508250464102 ], [ 117.31463490520791, 42.408512753408111 ], [ 117.314622752627827, 42.408512786760888 ], [ 117.314622775130573, 42.408517289704889 ], [ 117.314604546259133, 42.408517339731674 ], [ 117.314604613763535, 42.408530848563672 ], [ 117.314610690055318, 42.408530831888385 ], [ 117.314610735059148, 42.408539837776367 ], [ 117.314616811351797, 42.408539821100767 ], [ 117.314616856356523, 42.408548826988721 ], [ 117.314629008943555, 42.408548793636534 ], [ 117.314629031446799, 42.408553296580514 ], [ 117.314641184034684, 42.408553263227027 ], [ 117.314641206538795, 42.408557766170986 ] ] ] } },
{ "type": "Feature", "properties": { "crown_id": 6729, "tree_id": "6735", "top_h_m": 24.599, "H_95_Mean": 24.0449, "DBH": 39.4635, "Carbon_kg": 329.902755, "area_m2": 42.5 }, "geometry": { "type": "Polygon", "coordinates": [ [ [ 117.314689816893605, 42.408557632744156 ], [ 117.314701969482272, 42.408557599384224 ], [ 117.314701924465353, 42.408548593496356 ], [ 117.314708000758827, 42.408548576815917 ], [ 117.314707955741071, 42.408539570928042 ], [ 117.314714032033649, 42.408539554247284 ], [ 117.314714009524337, 42.408535051303339 ], [ 117.314726162108613, 42.408535017940864 ], [ 117.314726139598434, 42.408530514996919 ], [ 117.314732215890132, 42.408530498315187 ], [ 117.314732193379527, 42.408525995371249 ], [ 117.314750422253269, 42.408525945324172 ], [ 117.314750399741385, 42.408521442380234 ], [ 117.314762552322975, 42.408521409013915 ], [ 117.31476252981021, 42.408516906069984 ], [ 117.314768606100571, 42.408516889386334 ], [ 117.314768583587394, 42.408512386442396 ], [ 117.314774659877287, 42.408512369758419 ], [ 117.31477461485008, 42.408503363870551 ], [ 117.314768538561012, 42.408503380554507 ], [ 117.314768516047849, 42.408498877610562 ], [ 117.314762439759221, 42.408498894294198 ], [ 117.314762417246484, 42.408494391350224 ], [ 117.314756340958297, 42.408494408033533 ], [ 117.314756318446001, 42.408489905089588 ], [ 117.314750242158254, 42.408489921772578 ], [ 117.314750197134529, 42.408480915884631 ], [ 117.314744120847649, 42.408480932567294 ], [ 117.314744143359064, 42.40848543551126 ], [ 117.31471376192232, 42.408485518919726 ], [ 117.314713716903853, 42.408476513031758 ], [ 117.314701564330875, 42.408476546392869 ], [ 117.314701541822501, 42.408472043448874 ], [ 117.314689389250347, 42.408472076808707 ], [ 117.314689456772868, 42.408485585640705 ], [ 117.314683380485477, 42.408485602320134 ], [ 117.314683402992557, 42.408490105264136 ], [ 117.314677326704725, 42.408490121943245 ], [ 117.314677349211365, 42.408494624887247 ], [ 117.314653044058304, 42.408494691600509 ], [ 117.31465306656321, 42.408499194544525 ], [ 117.314659142851923, 42.408499177866688 ], [ 117.31465916535727, 42.408503680810682 ], [ 117.314671317935549, 42.408503647454026 ], [ 117.314671340441762, 42.408508150398013 ], [ 117.314677416731342, 42.408508133719216 ], [ 117.314677506758031, 42.408526145495109 ], [ 117.314671430466731, 42.408526162173935 ], [ 117.314671475479244, 42.408535168061867 ], [ 117.314683628063577, 42.408535134703889 ], [ 117.3146836505707, 42.408539637647849 ], [ 117.314689726863307, 42.408539620968384 ], [ 117.314689816893605, 42.408557632744156 ] ], [ [ 117.314701811923186, 42.408526078776625 ], [ 117.314701744397951, 42.408512569944726 ], [ 117.314719973267856, 42.408512519902501 ], [ 117.314720040797013, 42.408526028734364 ], [ 117.314701811923186, 42.408526078776625 ] ] ] } },
{ "type": "Feature", "properties": { "crown_id": 6762, "tree_id": "6768", "top_h_m": 14.214, "H_95_Mean": 14.0771, "DBH": 19.5376, "Carbon_kg": 58.275695, "area_m2": 7.5 }, "geometry": { "type": "Polygon", "coordinates": [ [ [ 117.314610600047743, 42.408512820112392 ], [ 117.314616676337792, 42.408512803436807 ], [ 117.314616653835472, 42.408508300492798 ], [ 117.314628806414689, 42.408508267140668 ], [ 117.314628783911502, 42.408503764196652 ], [ 117.31463486020067, 42.408503747520101 ], [ 117.314634837697042, 42.408499244576099 ], [ 117.314628761408315, 42.408499261252643 ], [ 117.314628738905157, 42.408494758308628 ], [ 117.314616586328526, 42.408494791660758 ], [ 117.314616563826235, 42.408490288716742 ], [ 117.31461048753836, 42.40849030539232 ], [ 117.314610510040225, 42.408494808336336 ], [ 117.314604433751896, 42.408494825011594 ], [ 117.314604411250471, 42.408490322067571 ], [ 117.314598334962582, 42.408490338742496 ], [ 117.314598312461584, 42.408485835798466 ], [ 117.314592236174121, 42.408485852473078 ], [ 117.314592258674679, 42.408490355417108 ], [ 117.31458618238679, 42.4084903720914 ], [ 117.314586204886908, 42.40849487503543 ], [ 117.314580128598578, 42.408494891709402 ], [ 117.314580173597975, 42.408503897597463 ], [ 117.314586249887171, 42.40850388092349 ], [ 117.314586272387331, 42.408508383867513 ], [ 117.314610577545849, 42.408508317168383 ], [ 117.314610600047743, 42.408512820112392 ] ] ] } },
{ "type": "Feature", "properties": { "crown_id": 6773, "tree_id": "6779", "top_h_m": 22.134, "H_95_Mean": 22.7029, "DBH": 30.1028, "Carbon_kg": 184.771548, "area_m2": 16.5 }, "geometry": { "type": "Polygon", "coordinates": [ [ [ 117.314792911261947, 42.408516822648537 ], [ 117.314811140132917, 42.40851677259181 ], [ 117.314811005035608, 42.40848975492824 ], [ 117.314823157611031, 42.408489721555505 ], [ 117.314823135093945, 42.408485218611567 ], [ 117.314829211381209, 42.408485201924734 ], [ 117.314829188863726, 42.408480698980789 ], [ 117.314798807429526, 42.408480782411779 ], [ 117.314798717368276, 42.40846277063595 ], [ 117.314786564798041, 42.408462804006078 ], [ 117.314786609826911, 42.40847180989401 ], [ 117.314774457254913, 42.408471843262845 ], [ 117.314774479768488, 42.408476346206818 ], [ 117.314768403482034, 42.40847636289076 ], [ 117.314768425995197, 42.408480865834733 ], [ 117.314756273421423, 42.408480899201656 ], [ 117.314756295933719, 42.408485402145622 ], [ 117.314762372221026, 42.40848538546232 ], [ 117.314762394733762, 42.408489888406272 ], [ 117.314768471021495, 42.408489871722651 ], [ 117.314768493534658, 42.408494374666596 ], [ 117.314774569822859, 42.408494357982647 ], [ 117.314774592336462, 42.408498860926599 ], [ 117.314780668625062, 42.408498844242331 ], [ 117.314780736167222, 42.408512353074144 ], [ 117.314792888747021, 42.408512319704599 ], [ 117.314792911261947, 42.408516822648537 ] ] ] } }
]
}
