{
"type": "FeatureCollection",
"name": "tile_5_12",
"crs": { "type": "name", "properties": { "name": "urn:ogc:def:crs:OGC:1.3:CRS84" } },
"features": [
{ "type": "Feature", "properties": { "crown_id": 1578, "tree_id": "1579", "top_h_m": 20.53, "H_95_Mean": 20.8651, "DBH": 28.3448, "Carbon_kg": 155.696863, "area_m2": 15.25 }, "geometry": { "type": "Polygon", "coordinates": [ [ [ 117.312743718475502, 42.410670364658614 ], [ 117.312761947973641, 42.410670314925696 ], [ 117.312761903230921, 42.410661309039483 ], [ 117.312792285723347, 42.410661226144875 ], [ 117.312792218602809, 42.410647717315562 ], [ 117.312780065608464, 42.410647750474361 ], [ 117.312780020863229, 42.41063874458812 ], [ 117.312773944366896, 42.410638761167029 ], [ 117.312773899622542, 42.410629755280787 ], [ 117.312761746631637, 42.410629788437618 ], [ 117.312761724260326, 42.410625285494483 ], [ 117.312755647765314, 42.410625302072425 ], [ 117.312755670136184, 42.41062980501556 ], [ 117.312737440649784, 42.410629854747441 ], [ 117.312737619606523, 42.410665878292498 ], [ 117.312743696105471, 42.410665861715493 ], [ 117.312743718475502, 42.410670364658614 ] ] ] } },
{ "type": "Feature", "properties": { "crown_id": 1596, "tree_id": "1597", "top_h_m": 19.829, "H_95_Mean": 22.515, "DBH": 24.0421, "Carbon_kg": 116.874279, "area_m2": 7.0 }, "geometry": { "type": "Polygon", "coordinates": [ [ [ 117.312865248462117, 42.41067003305109 ], [ 117.312871324961407, 42.410670016467328 ], [ 117.312871168307254, 42.410638495865854 ], [ 117.312859015314785, 42.410638529032994 ], [ 117.312859037693073, 42.410643031976079 ], [ 117.312846884699695, 42.410643065141961 ], [ 117.312846907077102, 42.410647568085047 ], [ 117.312828677585713, 42.410647617831444 ], [ 117.312828699961841, 42.410652120774536 ], [ 117.312834776459411, 42.410652104192728 ], [ 117.312834821212519, 42.410661110078891 ], [ 117.312859127206224, 42.410661043748384 ], [ 117.312859149584526, 42.410665546691455 ], [ 117.312865226083375, 42.410665530108012 ], [ 117.312865248462117, 42.41067003305109 ] ] ] } },
{ "type": "Feature", "properties": { "crown_id": 1617, "tree_id": "1618", "top_h_m": 19.1, "H_95_Mean": 20.161, "DBH": 20.9237, "Carbon_kg": 82.746606, "area_m2": 5.0 }, "geometry": { "type": "MultiPolygon", "coordinates": [ [ [ [ 117.312634296761388, 42.410661657108918 ], [ 117.312646449758589, 42.410661623965566 ], [ 117.312646382669342, 42.41064811513607 ], [ 117.312634229674742, 42.410648148279407 ], [ 117.312634296761388, 42.410661657108918 ] ] ], [ [ [ 117.312646382669342, 42.41064811513607 ], [ 117.312664612161186, 42.410648065418656 ], [ 117.312664589796796, 42.410643562475485 ], [ 117.312670666293641, 42.410643545902374 ], [ 117.312670621564052, 42.410634540016034 ], [ 117.312664545068074, 42.410634556589144 ], [ 117.312664522703713, 42.410630053645967 ], [ 117.312646293217071, 42.41063010336336 ], [ 117.312646382669342, 42.41064811513607 ] ] ] ] } },
{ "type": "Feature", "properties": { "crown_id": 1678, "tree_id": "1679", "top_h_m": 20.73, "H_95_Mean": 21.3067, "DBH": 28.9834, "Carbon_kg": 164.877489, "area_m2": 16.0 }, "geometry": { "type": "Polygon", "coordinates": [ [ [ 117.312689007614736, 42.41066601089684 ], [ 117.312701160612718, 42.410665977747676 ], [ 117.31270107114473, 42.410647965975123 ], [ 117.312731453630903, 42.410647883096644 ], [ 117.312731364154288, 42.410629871324083 ], [ 117.312707058172336, 42.410629937627455 ], [ 117.312707035804948, 42.410625434684306 ], [ 117.31269488281481, 42.410625467834052 ], [ 117.312694838081754, 42.410616461947704 ], [ 117.312670532104889, 42.410616528243317 ], [ 117.312670599199251, 42.410630037072863 ], [ 117.312676675694775, 42.41063002049944 ], [ 117.312676765155715, 42.4106480322721 ], [ 117.312670688658457, 42.41064804884553 ], [ 117.312670733388074, 42.410657054731857 ], [ 117.312688962882476, 42.410657005010556 ], [ 117.312689007614736, 42.41066601089684 ] ] ] } },
{ "type": "Feature", "properties": { "crown_id": 1684, "tree_id": "1685", "top_h_m": 19.86, "H_95_Mean": 20.1566, "DBH": 31.4233, "Carbon_kg": 187.783089, "area_m2": 24.25 }, "geometry": { "type": "MultiPolygon", "coordinates": [ [ [ [ 117.312792173855811, 42.410638711429343 ], [ 117.312804326848408, 42.410638678269265 ], [ 117.312804349222759, 42.410643181212379 ], [ 117.312840808203006, 42.410643081724416 ], [ 117.31284078582604, 42.410638578781317 ], [ 117.312852938818537, 42.410638545616095 ], [ 117.312852916440704, 42.410634042673003 ], [ 117.312871145928113, 42.410633992922762 ], [ 117.312870989274259, 42.41060247232106 ], [ 117.312864912781521, 42.410602488904786 ], [ 117.312864890402835, 42.410597985961665 ], [ 117.312858813910523, 42.410598002545058 ], [ 117.312858791532292, 42.410593499601951 ], [ 117.312852715040378, 42.410593516185017 ], [ 117.312852737418183, 42.410598019128138 ], [ 117.312834507941162, 42.41059806887543 ], [ 117.312834552694142, 42.410607074761685 ], [ 117.312816323214449, 42.410607124506079 ], [ 117.312816345589653, 42.410611627449207 ], [ 117.312798116108638, 42.410611677190715 ], [ 117.312798227978192, 42.410634191906347 ], [ 117.312792151482313, 42.410634208486222 ], [ 117.312792173855811, 42.410638711429343 ] ], [ [ 117.312804326848408, 42.410638678269265 ], [ 117.312804304474042, 42.410634175326152 ], [ 117.312810380969893, 42.410634158745637 ], [ 117.312810403344685, 42.410638661688743 ], [ 117.312804326848408, 42.410638678269265 ] ] ], [ [ [ 117.312786119732564, 42.410643230952005 ], [ 117.31279219622931, 42.410643214372449 ], [ 117.312792173855811, 42.410638711429343 ], [ 117.312786097359506, 42.410638728008898 ], [ 117.312786119732564, 42.410643230952005 ] ] ] ] } },
{ "type": "Feature", "properties": { "crown_id": 1729, "tree_id": "1730", "top_h_m": 21.919, "H_95_Mean": 22.7761, "DBH": 21.5725, "Carbon_kg": 94.581814, "area_m2": 4.5 }, "geometry": { "type": "Polygon", "coordinates": [ [ [ 117.312676586233906, 42.410612008726723 ], [ 117.312694815715247, 42.410611959004527 ], [ 117.312694770982247, 42.410602953118165 ], [ 117.312700847475156, 42.410602936543462 ], [ 117.312700780374357, 42.410589427713894 ], [ 117.312676474407951, 42.410589494010743 ], [ 117.312676586233906, 42.410612008726723 ] ] ] } },
{ "type": "Feature", "properties": { "crown_id": 1751, "tree_id": "1752", "top_h_m": 19.859, "H_95_Mean": 20.2169, "DBH": 28.0409, "Carbon_kg": 149.533312, "area_m2": 15.5 }, "geometry": { "type": "Polygon", "coordinates": [ [ [ 117.312877065767012, 42.41060245573702 ], [ 117.31288314225975, 42.410602439152662 ], [ 117.3128831198798, 42.410597936209555 ], [ 117.312901349356707, 42.410597886454539 ], [ 117.312901326975421, 42.410593383511433 ], [ 117.312919556450993, 42.410593333753525 ], [ 117.312919511685848, 42.410584327867333 ], [ 117.312913435194858, 42.410584344453618 ], [ 117.312913390430637, 42.410575338567398 ], [ 117.312895160960267, 42.410575388324304 ], [ 117.312895138579464, 42.410570885381198 ], [ 117.312889062089781, 42.410570901966175 ], [ 117.312888994948693, 42.41055739313677 ], [ 117.312876841971885, 42.410557426305772 ], [ 117.312876819592404, 42.41055292336263 ], [ 117.312858590128471, 42.410552973113703 ], [ 117.312858567750311, 42.410548470170539 ], [ 117.31285249126276, 42.410548486753591 ], [ 117.312852536018227, 42.410557492639903 ], [ 117.312846459529808, 42.410557509222635 ], [ 117.312846504284465, 42.410566515108933 ], [ 117.312858657263035, 42.41056648194315 ], [ 117.312858724397643, 42.410579990772561 ], [ 117.312864800888235, 42.410579974189176 ], [ 117.312864868024164, 42.410593483018552 ], [ 117.312870944516078, 42.41059346643484 ], [ 117.312870966895161, 42.41059796937796 ], [ 117.312877043387488, 42.410597952793907 ], [ 117.312877065767012, 42.41060245573702 ] ], [ [ 117.312864778509592, 42.410575471246041 ], [ 117.312864711373706, 42.410561962416622 ], [ 117.312882940840211, 42.410561912664576 ], [ 117.31288300798002, 42.410575421493974 ], [ 117.312864778509592, 42.410575471246041 ] ] ] } },
{ "type": "Feature", "properties": { "crown_id": 1769, "tree_id": "1770", "top_h_m": 21.88, "H_95_Mean": 22.0539, "DBH": 36.8752, "Carbon_kg": 273.404201, "area_m2": 38.25 }, "geometry": { "type": "Polygon", "coordinates": [ [ [ 117.312713112300017, 42.41062541810895 ], [ 117.312749571270274, 42.410625318650034 ], [ 117.312749548899831, 42.410620815706885 ], [ 117.312761701889016, 42.410620782551341 ], [ 117.312761679517735, 42.410616279608185 ], [ 117.31276775601188, 42.410616263029937 ], [ 117.312767711268421, 42.410607257143646 ], [ 117.312761634775143, 42.410607273721901 ], [ 117.312761567661312, 42.410593764892418 ], [ 117.312773720645254, 42.410593731735617 ], [ 117.312773675900971, 42.410584725849297 ], [ 117.312767599409881, 42.410584742427851 ], [ 117.312767487551483, 42.410562227711956 ], [ 117.312755334573595, 42.410562260868076 ], [ 117.312755312202825, 42.410557757924884 ], [ 117.312731006248768, 42.410557824233258 ], [ 117.312730961510653, 42.410548818346832 ], [ 117.312724885022988, 42.410548834923112 ], [ 117.312724862654377, 42.410544331979892 ], [ 117.312718786167153, 42.410544348555852 ], [ 117.31271883090352, 42.410553354442293 ], [ 117.312706677927281, 42.410553387593239 ], [ 117.312706812131253, 42.410580405252496 ], [ 117.312700735640533, 42.410580421827504 ], [ 117.312700758007452, 42.41058492477071 ], [ 117.312706834498613, 42.410584908195695 ], [ 117.31270694633541, 42.410607422911625 ], [ 117.312700869842089, 42.41060743948664 ], [ 117.312700936942903, 42.410620948316165 ], [ 117.312713089932188, 42.410620915165779 ], [ 117.312713112300017, 42.41062541810895 ] ] ] } },
{ "type": "Feature", "properties": { "crown_id": 1770, "tree_id": "1771", "top_h_m": 19.18, "H_95_Mean": 20.0, "DBH": 19.0142, "Carbon_kg": 67.9088, "area_m2": 3.5 }, "geometry": { "type": "Polygon", "coordinates": [ [ [ 117.31282840907275, 42.410593582514075 ], [ 117.312840562056564, 42.410593549350196 ], [ 117.312840539679655, 42.410589046407054 ], [ 117.312858769154062, 42.410588996658824 ], [ 117.312858746775845, 42.410584493715703 ], [ 117.312852670284812, 42.410584510298762 ], [ 117.312852603151498, 42.41057100146935 ], [ 117.312846526661772, 42.410571018052082 ], [ 117.312846549039122, 42.410575520995224 ], [ 117.312840472548942, 42.410575537577643 ], [ 117.312840494925851, 42.410580040520784 ], [ 117.312828341944609, 42.410580073684649 ], [ 117.31282840907275, 42.410593582514075 ] ] ] } },
{ "type": "Feature", "properties": { "crown_id": 1799, "tree_id": "1800", "top_h_m": 23.056, "H_95_Mean": 23.3313, "DBH": 40.5722, "Carbon_kg": 342.688526, "area_m2": 50.0 }, "geometry": { "type": "MultiPolygon", "coordinates": [ [ [ [ 117.312591247011312, 42.410558205406339 ], [ 117.312591179934159, 42.410544696576522 ], [ 117.312572950472102, 42.410544746282163 ], [ 117.312572995187594, 42.410553752168731 ], [ 117.312585148164032, 42.410553719031938 ], [ 117.312585170522667, 42.410558221975208 ], [ 117.312591247011312, 42.410558205406339 ] ] ], [ [ [ 117.312664500339352, 42.41062555070279 ], [ 117.31266443324634, 42.410612041873229 ], [ 117.31267050974013, 42.410612025300132 ], [ 117.312670375551576, 42.41058500764094 ], [ 117.312694681516277, 42.410584941345398 ], [ 117.312694636783334, 42.410575935458994 ], [ 117.312700713273628, 42.410575918884305 ], [ 117.312700601439175, 42.410553404168233 ], [ 117.312676295486668, 42.410553470465004 ], [ 117.312676250756411, 42.410544464578521 ], [ 117.31267017426913, 42.410544481151895 ], [ 117.312670084810378, 42.410526469378908 ], [ 117.312664008324859, 42.410526485951955 ], [ 117.312663963596393, 42.41051748006543 ], [ 117.312657887111712, 42.41051749663815 ], [ 117.312657909475519, 42.410521999581427 ], [ 117.312639680020155, 42.410522049297647 ], [ 117.31263963529517, 42.410513043411093 ], [ 117.312627482326647, 42.410513076553627 ], [ 117.312627459965043, 42.410508573610343 ], [ 117.312615306997358, 42.410508606751577 ], [ 117.312615396440378, 42.410526618524727 ], [ 117.312578937526808, 42.41052671794079 ], [ 117.312578959884959, 42.410531220884089 ], [ 117.312597189343066, 42.410531171177496 ], [ 117.312597256421483, 42.410544680007327 ], [ 117.312621562370779, 42.410544613727332 ], [ 117.312621629454455, 42.410558122557113 ], [ 117.312627705943086, 42.410558105986297 ], [ 117.312627728304747, 42.410562608929553 ], [ 117.312633804793776, 42.410562592358417 ], [ 117.312633827155892, 42.410567095301658 ], [ 117.312639903645362, 42.41056707873021 ], [ 117.312639948370474, 42.410576084616672 ], [ 117.312646024860797, 42.410576068044875 ], [ 117.312646114312813, 42.410594079817763 ], [ 117.312640037820756, 42.410594096389552 ], [ 117.312640104908496, 42.410607605219198 ], [ 117.312627951921726, 42.410607638361839 ], [ 117.312627974283444, 42.410612141305037 ], [ 117.312634050777262, 42.410612124733881 ], [ 117.312634073139435, 42.410616627677079 ], [ 117.31264014963368, 42.410616611105596 ], [ 117.312640171996293, 42.410621114048787 ], [ 117.312646248490992, 42.410621097476977 ], [ 117.312646270854032, 42.410625600420168 ], [ 117.312664500339352, 42.41062555070279 ] ], [ [ 117.312639702382654, 42.410526552240917 ], [ 117.312657931839325, 42.410526502524675 ], [ 117.31265799893076, 42.410540011354456 ], [ 117.312639769470181, 42.410540061070712 ], [ 117.312639702382654, 42.410526552240917 ] ] ] ] } },
{ "type": "Feature", "properties": { "crown_id": 1812, "tree_id": "1813", "top_h_m": 21.453, "H_95_Mean": 20.7912, "DBH": 33.3182, "Carbon_kg": 215.214864, "area_m2": 28.75 }, "geometry": { "type": "Polygon", "coordinates": [ [ [ 117.312779998490598, 42.410634241644992 ], [ 117.312786074986462, 42.410634225065763 ], [ 117.312786052613404, 42.41062972212265 ], [ 117.312792129108843, 42.410629705543101 ], [ 117.312792017241478, 42.410607190827442 ], [ 117.312810246721227, 42.410607141086906 ], [ 117.312810224346478, 42.410602638143772 ], [ 117.312828453824864, 42.410602588400351 ], [ 117.312828431448793, 42.41059808545721 ], [ 117.312822354956438, 42.410598102038669 ], [ 117.312822243078386, 42.410575587322953 ], [ 117.312834396058761, 42.410575554159742 ], [ 117.312834373682293, 42.410571051216579 ], [ 117.312840450172033, 42.410571034634501 ], [ 117.312840405418271, 42.410562028748195 ], [ 117.312803946484948, 42.410562128235874 ], [ 117.31280387936215, 42.410548619406349 ], [ 117.312773496924123, 42.410548702303856 ], [ 117.312773653528851, 42.410580222906113 ], [ 117.312779730019514, 42.410580206327253 ], [ 117.312779819509785, 42.410598218099878 ], [ 117.312767666524977, 42.410598251257333 ], [ 117.312767688896699, 42.410602754200497 ], [ 117.312773765389551, 42.410602737621922 ], [ 117.312773854878188, 42.410620749394504 ], [ 117.312767778383616, 42.410620765973093 ], [ 117.312767800755338, 42.410625268916235 ], [ 117.312779953745348, 42.410625235758744 ], [ 117.312779998490598, 42.410634241644992 ] ] ] } },
{ "type": "Feature", "properties": { "crown_id": 1871, "tree_id": "1872", "top_h_m": 19.95, "H_95_Mean": 19.945, "DBH": 21.5801, "Carbon_kg": 87.50262, "area_m2": 5.75 }, "geometry": { "type": "Polygon", "coordinates": [ [ [ 117.312810000599157, 42.410557608712232 ], [ 117.31284038304139, 42.410557525805032 ], [ 117.312840360664509, 42.410553022861869 ], [ 117.312846437152501, 42.410553006279471 ], [ 117.312846414775208, 42.410548503336315 ], [ 117.312840338287629, 42.410548519918713 ], [ 117.31284029353391, 42.410539514032365 ], [ 117.312822064073799, 42.410539563777625 ], [ 117.31282204169824, 42.410535060834434 ], [ 117.312809888725695, 42.41053509399633 ], [ 117.312810000599157, 42.410557608712232 ] ] ] } },
{ "type": "Feature", "properties": { "crown_id": 1901, "tree_id": "1902", "top_h_m": 21.024, "H_95_Mean": 21.162, "DBH": 22.4395, "Carbon_kg": 98.043124, "area_m2": 6.0 }, "geometry": { "type": "Polygon", "coordinates": [ [ [ 117.312761388691314, 42.410557741346999 ], [ 117.312767465179817, 42.410557724768772 ], [ 117.31276739806485, 42.410544215939183 ], [ 117.312773474552046, 42.410544199360658 ], [ 117.312773429807876, 42.410535193474246 ], [ 117.312736970889873, 42.410535292940587 ], [ 117.31273699325935, 42.410539795883807 ], [ 117.312730916772551, 42.410539812460406 ], [ 117.312730939141602, 42.410544315403619 ], [ 117.312737015628826, 42.41054429882702 ], [ 117.31273706036778, 42.410553304713446 ], [ 117.312761366320089, 42.410553238403807 ], [ 117.312761388691314, 42.410557741346999 ] ] ] } },
{ "type": "Feature", "properties": { "crown_id": 1924, "tree_id": "1925", "top_h_m": 20.869, "H_95_Mean": 20.95, "DBH": 21.3081, "Carbon_kg": 87.810397, "area_m2": 5.0 }, "geometry": { "type": "Polygon", "coordinates": [ [ [ 117.312706655559964, 42.410548884650026 ], [ 117.312712732047657, 42.410548868074713 ], [ 117.312712687312185, 42.410539862188259 ], [ 117.312724840285767, 42.410539829036679 ], [ 117.312724817917186, 42.410535326093459 ], [ 117.312730894403543, 42.410535309517179 ], [ 117.312730872034493, 42.410530806573952 ], [ 117.312736948520424, 42.41053078999736 ], [ 117.312736926150976, 42.410526287054132 ], [ 117.312730849665471, 42.410526303630725 ], [ 117.312730804927469, 42.410517297744256 ], [ 117.312724728442831, 42.410517314320522 ], [ 117.312724683705682, 42.410508308434032 ], [ 117.312718607221953, 42.410508325009971 ], [ 117.312718696694517, 42.410526336782929 ], [ 117.312706543723493, 42.410526369933862 ], [ 117.312706655559964, 42.410548884650026 ] ] ] } },
{ "type": "Feature", "properties": { "crown_id": 1937, "tree_id": "1938", "top_h_m": 19.64, "H_95_Mean": 20.3101, "DBH": 19.4972, "Carbon_kg": 72.083416, "area_m2": 3.75 }, "geometry": { "type": "Polygon", "coordinates": [ [ [ 117.312809866351003, 42.410530591053138 ], [ 117.312822019322709, 42.410530557891249 ], [ 117.312821974571605, 42.41052155200488 ], [ 117.312815898086654, 42.41052156858597 ], [ 117.312815853336446, 42.410512562699566 ], [ 117.312791547399996, 42.410512629020715 ], [ 117.312791614520052, 42.41052613785034 ], [ 117.312809843976339, 42.410526088109933 ], [ 117.312809866351003, 42.410530591053138 ] ] ] } },
{ "type": "Feature", "properties": { "crown_id": 1952, "tree_id": "1953", "top_h_m": 20.726, "H_95_Mean": 20.7498, "DBH": 27.6544, "Carbon_kg": 147.663202, "area_m2": 14.0 }, "geometry": { "type": "Polygon", "coordinates": [ [ [ 117.312779551039213, 42.410544182781798 ], [ 117.312803856987912, 42.410544116463164 ], [ 117.312803789865157, 42.410530607633596 ], [ 117.312785560407548, 42.410530657373016 ], [ 117.312785470915856, 42.410512645600186 ], [ 117.312779394431729, 42.41051266217935 ], [ 117.312779349686778, 42.410503656292903 ], [ 117.312742890787064, 42.410503755761049 ], [ 117.312742913156924, 42.410508258704297 ], [ 117.312730760189453, 42.410508291857781 ], [ 117.312730782558447, 42.410512794801022 ], [ 117.312736859042616, 42.410512778224437 ], [ 117.312736903781513, 42.410521784110912 ], [ 117.312742980266549, 42.410521767534 ], [ 117.312743025006327, 42.41053077342044 ], [ 117.312779483921673, 42.410530673952195 ], [ 117.312779551039213, 42.410544182781798 ] ] ] } },
{ "type": "Feature", "properties": { "crown_id": 1957, "tree_id": "1958", "top_h_m": 20.27, "H_95_Mean": 20.5688, "DBH": 26.3244, "Carbon_kg": 133.008289, "area_m2": 11.75 }, "geometry": { "type": "Polygon", "coordinates": [ [ [ 117.312682349609247, 42.410548950948062 ], [ 117.312700579072313, 42.410548901225013 ], [ 117.312700444871155, 42.4105218835656 ], [ 117.312712597841298, 42.410521850415321 ], [ 117.312712508370481, 42.410503838642327 ], [ 117.312718584853826, 42.410503822066715 ], [ 117.312718562485685, 42.41049931912346 ], [ 117.312700333037014, 42.410499368849329 ], [ 117.31270035540382, 42.410503871792592 ], [ 117.312694278920489, 42.410503888367231 ], [ 117.312694301286896, 42.410508391310493 ], [ 117.312682148319311, 42.410508424458818 ], [ 117.312682170684852, 42.410512927402081 ], [ 117.3126700177164, 42.410512960549127 ], [ 117.312670062445719, 42.410521966435653 ], [ 117.312676138930826, 42.410521949862286 ], [ 117.312676228391283, 42.410539961635287 ], [ 117.312682304878095, 42.410539945061586 ], [ 117.312682349609247, 42.410548950948062 ] ] ] } },
{ "type": "Feature", "properties": { "crown_id": 1958, "tree_id": "1959", "top_h_m": 19.65, "H_95_Mean": 20.0113, "DBH": 29.2065, "Carbon_kg": 161.347196, "area_m2": 18.5 }, "geometry": { "type": "Polygon", "coordinates": [ [ [ 117.312846392397887, 42.410544000393138 ], [ 117.312858545372137, 42.41054396722739 ], [ 117.312858522993963, 42.410539464284227 ], [ 117.312870675967318, 42.410539431117186 ], [ 117.312870631209279, 42.410530425230846 ], [ 117.312888860666646, 42.410530375477883 ], [ 117.312888838286327, 42.41052587253472 ], [ 117.31290099125701, 42.410525839364475 ], [ 117.312900946494651, 42.410516833478155 ], [ 117.312907022979104, 42.41051681689256 ], [ 117.312906978215892, 42.410507811006219 ], [ 117.312900901732291, 42.410507827591815 ], [ 117.312900856969975, 42.410498821705474 ], [ 117.312864398073472, 42.410498921212259 ], [ 117.312864442830602, 42.410507927098642 ], [ 117.312852289863315, 42.410507960265001 ], [ 117.312852334618711, 42.410516966151377 ], [ 117.312846258134186, 42.41051698273408 ], [ 117.312846280511479, 42.410521485677272 ], [ 117.312828051056599, 42.410521535423456 ], [ 117.312828118184513, 42.410535044253024 ], [ 117.312846347643315, 42.410534994506804 ], [ 117.312846392397887, 42.410544000393138 ] ] ] } },
{ "type": "Feature", "properties": { "crown_id": 1988, "tree_id": "1989", "top_h_m": 20.02, "H_95_Mean": 20.0025, "DBH": 21.3636, "Carbon_kg": 85.88843, "area_m2": 5.5 }, "geometry": { "type": "Polygon", "coordinates": [ [ [ 117.312821952196074, 42.410517049061674 ], [ 117.31284018164969, 42.410516999316464 ], [ 117.312840159272852, 42.410512496373272 ], [ 117.312846235756922, 42.410512479790889 ], [ 117.312846191002421, 42.410503473904505 ], [ 117.312858343968827, 42.410503440738786 ], [ 117.312858321590724, 42.410498937795602 ], [ 117.312852245107962, 42.41049895437861 ], [ 117.312852222730257, 42.410494451435412 ], [ 117.31283399328322, 42.410494501182512 ], [ 117.312833970906851, 42.410489998239306 ], [ 117.312827894424942, 42.410490014821029 ], [ 117.312827939176813, 42.410499020707448 ], [ 117.312821862694022, 42.410499037288858 ], [ 117.312821952196074, 42.410517049061674 ] ] ] } },
{ "type": "Feature", "properties": { "crown_id": 2001, "tree_id": "2002", "top_h_m": 20.243, "H_95_Mean": 20.65, "DBH": 24.4448, "Carbon_kg": 114.828165, "area_m2": 8.75 }, "geometry": { "type": "Polygon", "coordinates": [ [ [ 117.31264573414235, 42.410517529782624 ], [ 117.312651810627031, 42.41051751321055 ], [ 117.312651788263693, 42.410513010267273 ], [ 117.312657864747933, 42.41051299369488 ], [ 117.312657842384127, 42.410508490751603 ], [ 117.312676071835526, 42.410508441032498 ], [ 117.312676049470454, 42.410503938089221 ], [ 117.312669972987095, 42.41050395466258 ], [ 117.31266995062245, 42.410499451719311 ], [ 117.312663874139531, 42.410499468292336 ], [ 117.312663807046917, 42.410485959462484 ], [ 117.312627348157065, 42.410486058893852 ], [ 117.312627437603453, 42.410504070667052 ], [ 117.312633514086826, 42.410504054095952 ], [ 117.312633536448871, 42.410508557039236 ], [ 117.312645689416499, 42.41050852389607 ], [ 117.31264573414235, 42.410517529782624 ] ] ] } },
{ "type": "Feature", "properties": { "crown_id": 2029, "tree_id": "2030", "top_h_m": 20.885, "H_95_Mean": 22.15, "DBH": 28.12, "Carbon_kg": 158.730524, "area_m2": 13.25 }, "geometry": { "type": "Polygon", "coordinates": [ [ [ 117.312682125953813, 42.410503921515556 ], [ 117.312688202437158, 42.410503904941557 ], [ 117.312688180071191, 42.41049940199828 ], [ 117.312694256554124, 42.410499385423961 ], [ 117.312694234187717, 42.410494882480684 ], [ 117.312718540117586, 42.410494816180204 ], [ 117.31271851774946, 42.410490313236942 ], [ 117.312724594231497, 42.410490296661017 ], [ 117.31272457186293, 42.410485793717747 ], [ 117.312712418899778, 42.410485826869284 ], [ 117.312712329429147, 42.410467815096162 ], [ 117.312706252949283, 42.410467831671433 ], [ 117.312706208214848, 42.41045882578485 ], [ 117.312694055256898, 42.410458858934412 ], [ 117.312694099989557, 42.410467864821001 ], [ 117.312669794070075, 42.41046793111628 ], [ 117.312669928257804, 42.410494948776027 ], [ 117.312676004740297, 42.410494932202681 ], [ 117.312676027105383, 42.410499435145958 ], [ 117.312682103588301, 42.410499418572279 ], [ 117.312682125953813, 42.410503921515556 ] ] ] } },
{ "type": "Feature", "properties": { "crown_id": 2062, "tree_id": "2063", "top_h_m": 20.3, "H_95_Mean": 21.6425, "DBH": 29.4309, "Carbon_kg": 171.628579, "area_m2": 16.5 }, "geometry": { "type": "Polygon", "coordinates": [ [ [ 117.312724661337128, 42.410503805490791 ], [ 117.312736814303761, 42.410503772337961 ], [ 117.312736791934341, 42.410499269394712 ], [ 117.312742868417203, 42.410499252817814 ], [ 117.312742801307664, 42.410485743988062 ], [ 117.312761030752313, 42.410485694255463 ], [ 117.312761097865774, 42.410499203085202 ], [ 117.312779327314288, 42.410499153349676 ], [ 117.312779260196933, 42.410485644519959 ], [ 117.312773183715379, 42.410485661098789 ], [ 117.312773094227367, 42.410467649325774 ], [ 117.312767017747575, 42.410467665904264 ], [ 117.312766950632906, 42.410454157074469 ], [ 117.312760874154421, 42.410454173652624 ], [ 117.312760896525518, 42.410458676595894 ], [ 117.312748743567639, 42.410458709751261 ], [ 117.312748765937883, 42.41046321269453 ], [ 117.312724460020306, 42.410463279001384 ], [ 117.312724437651795, 42.4104587760581 ], [ 117.312712284693859, 42.410458809209594 ], [ 117.312712307061474, 42.410463312152878 ], [ 117.312718383540897, 42.410463295577301 ], [ 117.312718473013248, 42.410481307350409 ], [ 117.312730625975533, 42.410481274198254 ], [ 117.312730693082472, 42.410494783028021 ], [ 117.312724616600022, 42.410494799604287 ], [ 117.312724661337128, 42.410503805490791 ] ] ] } },
{ "type": "Feature", "properties": { "crown_id": 2069, "tree_id": "2070", "top_h_m": 19.52, "H_95_Mean": 21.4648, "DBH": 30.9047, "Carbon_kg": 188.470129, "area_m2": 20.25 }, "geometry": { "type": "Polygon", "coordinates": [ [ [ 117.31278544854294, 42.410508142656973 ], [ 117.31281583096137, 42.410508059756367 ], [ 117.312815763836156, 42.410494550926714 ], [ 117.31282184031852, 42.410494534345638 ], [ 117.312821795567501, 42.410485528459205 ], [ 117.312827872048999, 42.410485511877802 ], [ 117.312827760169426, 42.410462997161666 ], [ 117.312821683690117, 42.410463013743041 ], [ 117.312821638939184, 42.410454007856551 ], [ 117.312779103589904, 42.410454123917184 ], [ 117.312779125962308, 42.410458626860446 ], [ 117.312773049483383, 42.410458643439249 ], [ 117.312773071855375, 42.410463146382526 ], [ 117.312779148334741, 42.410463129803716 ], [ 117.312779237824472, 42.410481141576717 ], [ 117.312785314305572, 42.410481124997581 ], [ 117.31278544854294, 42.410508142656973 ] ] ] } }
]
}
