{
"type": "FeatureCollection",
"name": "tile_10_18",
"crs": { "type": "name", "properties": { "name": "urn:ogc:def:crs:OGC:1.3:CRS84" } },
"features": [
{ "type": "Feature", "properties": { "crown_id": 3930, "tree_id": "3933", "top_h_m": 21.226, "H_95_Mean": 21.2961, "DBH": 34.7803, "Carbon_kg": 238.028022, "area_m2": 32.5 }, "geometry": { "type": "MultiPolygon", "coordinates": [ [ [ [ 117.314251888997902, 42.409689088363997 ], [ 117.314251933952221, 42.409698094250466 ], [ 117.31425801035688, 42.409698077593511 ], [ 117.314258055312109, 42.409707083479951 ], [ 117.314264131717636, 42.409707066822669 ], [ 117.31426408676154, 42.409698060936229 ], [ 117.314282315975476, 42.409698010962472 ], [ 117.314282383413513, 42.409711519792097 ], [ 117.314264154195683, 42.409711569765882 ], [ 117.314264334020251, 42.409747593311465 ], [ 117.314258257610831, 42.409747609968775 ], [ 117.314258347521502, 42.409765621741492 ], [ 117.314270500343838, 42.409765588426531 ], [ 117.314270545300957, 42.409774594312871 ], [ 117.314288774537005, 42.409774544338006 ], [ 117.314288752057152, 42.40977004139485 ], [ 117.314294828468732, 42.409770024735927 ], [ 117.314294738547602, 42.409752012963288 ], [ 117.314300814957448, 42.409751996304053 ], [ 117.31430072503467, 42.409733984531364 ], [ 117.314306801442768, 42.409733967871809 ], [ 117.314306778961637, 42.409729464928638 ], [ 117.314312855369295, 42.409729448268763 ], [ 117.314312675517044, 42.409693424723237 ], [ 117.314306599112882, 42.409693441383077 ], [ 117.314306576631822, 42.409688938439871 ], [ 117.314300500228057, 42.409688955099391 ], [ 117.314300477747437, 42.409684452156185 ], [ 117.314282248537467, 42.409684502132819 ], [ 117.314282271016779, 42.409689005076039 ], [ 117.314251888997902, 42.409689088363997 ] ] ], [ [ [ 117.314251888997902, 42.409689088363997 ], [ 117.314251844043611, 42.409680082477522 ], [ 117.314245767640685, 42.409680099134135 ], [ 117.314245812594109, 42.409689105020625 ], [ 117.314251888997902, 42.409689088363997 ] ] ] ] } },
{ "type": "Feature", "properties": { "crown_id": 3956, "tree_id": "3959", "top_h_m": 20.823, "H_95_Mean": 21.8042, "DBH": 36.3014, "Carbon_kg": 263.119325, "area_m2": 36.75 }, "geometry": { "type": "Polygon", "coordinates": [ [ [ 117.314076100113269, 42.409775127197655 ], [ 117.314088252937637, 42.409775093902027 ], [ 117.314088230472137, 42.409770590958786 ], [ 117.314100383295624, 42.409770557661865 ], [ 117.314100360829229, 42.409766054718609 ], [ 117.314118590063146, 42.40976600477083 ], [ 117.314118545127783, 42.409756998884355 ], [ 117.314124621538198, 42.409756982234462 ], [ 117.314124599070098, 42.409752479291221 ], [ 117.314136751890047, 42.409752445990456 ], [ 117.31413672942108, 42.409747943047215 ], [ 117.314130653011546, 42.409747959697761 ], [ 117.314130540668955, 42.409725444981504 ], [ 117.314124464261567, 42.409725461631709 ], [ 117.31412439685738, 42.409711952801914 ], [ 117.314118320451314, 42.409711969451791 ], [ 117.31411823058086, 42.409693957678648 ], [ 117.314087848559097, 42.409694040923156 ], [ 117.314087826093669, 42.409689537979851 ], [ 117.314081749689748, 42.409689554627782 ], [ 117.314081772154751, 42.409694057571087 ], [ 117.314069619345986, 42.409694090865983 ], [ 117.314069709202542, 42.40971210263919 ], [ 117.314063632796405, 42.409712119286169 ], [ 117.314063655260128, 42.40971662222946 ], [ 117.314069731666663, 42.409716605582496 ], [ 117.314069843987497, 42.409739120298902 ], [ 117.314075920396206, 42.409739103651603 ], [ 117.314076100113269, 42.409775127197655 ] ] ] } },
{ "type": "Feature", "properties": { "crown_id": 3957, "tree_id": "3960", "top_h_m": 21.636, "H_95_Mean": 22.1164, "DBH": 38.281, "Carbon_kg": 295.312332, "area_m2": 44.0 }, "geometry": { "type": "Polygon", "coordinates": [ [ [ 117.314209758706156, 42.409770257931598 ], [ 117.314234064352704, 42.409770191310713 ], [ 117.314234041876759, 42.409765688367521 ], [ 117.314240118287955, 42.409765671711497 ], [ 117.314240095811599, 42.409761168768313 ], [ 117.314252248633096, 42.409761135455298 ], [ 117.314252158724159, 42.409743123682567 ], [ 117.314258235133167, 42.409743107025577 ], [ 117.314258077789731, 42.409711586423164 ], [ 117.31425200138375, 42.409711603080126 ], [ 117.314251956429402, 42.409702597193686 ], [ 117.314245880024316, 42.409702613850321 ], [ 117.314245835070835, 42.40969360796386 ], [ 117.314227605858107, 42.409693657931811 ], [ 117.314227583382717, 42.409689154988563 ], [ 117.314203277767419, 42.409689221607984 ], [ 117.314203345188488, 42.409702730437743 ], [ 117.314197268783346, 42.409702747091792 ], [ 117.314197313729878, 42.409711752978275 ], [ 117.314185160917845, 42.409711786285435 ], [ 117.314185228335063, 42.409725295115159 ], [ 117.31417915192776, 42.409725311768263 ], [ 117.314179174399726, 42.409729814711504 ], [ 117.314173097991969, 42.409729831364295 ], [ 117.314173165406643, 42.409743340193977 ], [ 117.314179241815737, 42.409743323541193 ], [ 117.314179264287731, 42.40974782648442 ], [ 117.314191417106727, 42.409747793177857 ], [ 117.314191462052491, 42.409756799064283 ], [ 117.314203614873207, 42.409756765756427 ], [ 117.314203637346964, 42.409761268699626 ], [ 117.314209713757748, 42.409761252045207 ], [ 117.314209758706156, 42.409770257931598 ] ] ] } },
{ "type": "Feature", "properties": { "crown_id": 3982, "tree_id": "3985", "top_h_m": 20.853, "H_95_Mean": 21.2978, "DBH": 36.6335, "Carbon_kg": 264.29442, "area_m2": 39.75 }, "geometry": { "type": "MultiPolygon", "coordinates": [ [ [ [ 117.314142828300021, 42.409752429339584 ], [ 117.314161057529901, 42.409752379385054 ], [ 117.3141610350592, 42.409747876441834 ], [ 117.31416711146872, 42.409747859789682 ], [ 117.314166999113084, 42.409725345073518 ], [ 117.314173075520401, 42.409725328421054 ], [ 117.314173053048876, 42.409720825477812 ], [ 117.314179129455766, 42.409720808825028 ], [ 117.314179062039869, 42.409707299995297 ], [ 117.314191214851036, 42.409707266688777 ], [ 117.314191169905371, 42.40969826080228 ], [ 117.314197246310073, 42.409698244148551 ], [ 117.314197178890339, 42.409684735318777 ], [ 117.31419110248693, 42.409684751972499 ], [ 117.314191057541336, 42.409675746085966 ], [ 117.314172828333696, 42.409675796045185 ], [ 117.314172805862185, 42.409671293101901 ], [ 117.314154576655824, 42.409671343058228 ], [ 117.314154554185649, 42.409666840114937 ], [ 117.314136324980524, 42.409666890068344 ], [ 117.314136347449391, 42.409671393011642 ], [ 117.314124194645089, 42.409671426312315 ], [ 117.31412421711309, 42.40967592925562 ], [ 117.314112064307892, 42.409675962555013 ], [ 117.314112086775054, 42.409680465498312 ], [ 117.314106010372001, 42.409680482147529 ], [ 117.314106032838723, 42.409684985090827 ], [ 117.314093880031749, 42.409685018388302 ], [ 117.314093902497618, 42.409689521331593 ], [ 117.314124284517163, 42.409689438085515 ], [ 117.314124374389323, 42.409707449858637 ], [ 117.314130450794949, 42.409707433208439 ], [ 117.314130518200443, 42.409720942038248 ], [ 117.314136594607362, 42.409720925387724 ], [ 117.314136706952112, 42.409743440103981 ], [ 117.31414278336122, 42.409743423453115 ], [ 117.314142828300021, 42.409752429339584 ] ] ], [ [ [ 117.31416711146872, 42.409747859789682 ], [ 117.314167133939847, 42.409752362732902 ], [ 117.314173210349793, 42.409752346080431 ], [ 117.314173187878239, 42.409747843137211 ], [ 117.31416711146872, 42.409747859789682 ] ] ] ] } },
{ "type": "Feature", "properties": { "crown_id": 4055, "tree_id": "4058", "top_h_m": 19.2, "H_95_Mean": 19.2, "DBH": 18.9829, "Carbon_kg": 66.069059, "area_m2": 3.75 }, "geometry": { "type": "Polygon", "coordinates": [ [ [ 117.314233659786495, 42.409689138332915 ], [ 117.314239736190316, 42.409689121676927 ], [ 117.314239646285202, 42.40967110990394 ], [ 117.314221417078983, 42.409671159870882 ], [ 117.314221439553961, 42.409675662814138 ], [ 117.31420928674892, 42.409675696123841 ], [ 117.314209309223031, 42.409680199067111 ], [ 117.314203232820077, 42.409680215721465 ], [ 117.314203255293748, 42.409684718664728 ], [ 117.314233637310664, 42.409684635389667 ], [ 117.314233659786495, 42.409689138332915 ] ] ] } },
{ "type": "Feature", "properties": { "crown_id": 4072, "tree_id": "4075", "top_h_m": 18.14, "H_95_Mean": 18.645, "DBH": 22.3788, "Carbon_kg": 90.473047, "area_m2": 7.5 }, "geometry": { "type": "Polygon", "coordinates": [ [ [ 117.314257942924101, 42.409684568763815 ], [ 117.314276172134129, 42.409684518791046 ], [ 117.314276149655242, 42.409680015847819 ], [ 117.31429437886392, 42.409679965872158 ], [ 117.314294311423382, 42.409666457042469 ], [ 117.314282158620202, 42.409666490359882 ], [ 117.314282136140918, 42.409661987416655 ], [ 117.314251754135057, 42.409662070704528 ], [ 117.314251776612195, 42.409666573647776 ], [ 117.314245700210563, 42.409666590304397 ], [ 117.314245745163959, 42.409675596190901 ], [ 117.314257897968943, 42.409675562877332 ], [ 117.314257942924101, 42.409684568763815 ] ] ] } },
{ "type": "Feature", "properties": { "crown_id": 4176, "tree_id": "4179", "top_h_m": 21.613, "H_95_Mean": 21.8082, "DBH": 40.9686, "Carbon_kg": 335.790973, "area_m2": 58.75 }, "geometry": { "type": "Polygon", "coordinates": [ [ [ 117.31419713394385, 42.409675729432237 ], [ 117.314203210346406, 42.409675712778196 ], [ 117.314203187872721, 42.40967120983494 ], [ 117.314215340676895, 42.409671176525897 ], [ 117.314215318202386, 42.40966667358262 ], [ 117.31423962380893, 42.409666606960684 ], [ 117.314239601332687, 42.409662104017428 ], [ 117.314245677733865, 42.409662087361134 ], [ 117.314245655257182, 42.409657584417864 ], [ 117.314288190062328, 42.409657467814853 ], [ 117.314288212542053, 42.409661970758101 ], [ 117.314294288943202, 42.409661954099235 ], [ 117.314294266463037, 42.409657451155994 ], [ 117.314312495665149, 42.409657401177469 ], [ 117.314312473183691, 42.409652898234235 ], [ 117.314324625984213, 42.409652864913625 ], [ 117.314324603501888, 42.40964836197039 ], [ 117.314330679901701, 42.409648345309598 ], [ 117.314330634936198, 42.40963933942313 ], [ 117.314342787734063, 42.409639306100587 ], [ 117.314342765250444, 42.40963480315736 ], [ 117.314336688851938, 42.409634819818784 ], [ 117.314336643885582, 42.409625813932301 ], [ 117.314330567487957, 42.409625830593399 ], [ 117.31433054500522, 42.409621327650136 ], [ 117.314275857430175, 42.409621477585503 ], [ 117.31427583495136, 42.409616974642226 ], [ 117.314269758554545, 42.409616991300098 ], [ 117.31426978103292, 42.409621494243382 ], [ 117.314233322649287, 42.409621594183868 ], [ 117.314233300173527, 42.40961709124057 ], [ 117.314227223776655, 42.409617107896182 ], [ 117.314227246252003, 42.409621610839487 ], [ 117.314209017060094, 42.409621660804412 ], [ 117.314209039534148, 42.409626163747724 ], [ 117.314190810340889, 42.409626213709757 ], [ 117.314190832813622, 42.409630716653069 ], [ 117.314178680017235, 42.409630749959483 ], [ 117.31417870248913, 42.409635252902802 ], [ 117.314154396894523, 42.409635319511793 ], [ 117.314154419364684, 42.409639822455098 ], [ 117.314166572162847, 42.409639789151242 ], [ 117.314166594633846, 42.409644292094569 ], [ 117.314154441834816, 42.409644325398418 ], [ 117.314154464304977, 42.409648828341737 ], [ 117.314142311505051, 42.409648861644307 ], [ 117.314142333974317, 42.409653364587626 ], [ 117.314148410374727, 42.409653347936484 ], [ 117.314148455314211, 42.409662353823087 ], [ 117.314160608116723, 42.409662320519864 ], [ 117.314160630587352, 42.409666823463155 ], [ 117.314178859792406, 42.409666773505869 ], [ 117.314178882264329, 42.409671276449153 ], [ 117.314197111470648, 42.409671226488967 ], [ 117.31419713394385, 42.409675729432237 ] ], [ [ 117.314166662046944, 42.409657800924464 ], [ 117.314166594633846, 42.409644292094569 ], [ 117.314184823832392, 42.409644242136352 ], [ 117.314184891249397, 42.40965775096624 ], [ 117.314166662046944, 42.409657800924464 ] ], [ [ 117.314227403579523, 42.409653131442482 ], [ 117.314227336153408, 42.409639622612659 ], [ 117.314245565350461, 42.409639572644792 ], [ 117.314245632780484, 42.409653081474609 ], [ 117.314227403579523, 42.409653131442482 ] ] ] } },
{ "type": "Feature", "properties": { "crown_id": 4244, "tree_id": "4247", "top_h_m": 21.045, "H_95_Mean": 21.1774, "DBH": 38.958, "Carbon_kg": 298.182467, "area_m2": 51.0 }, "geometry": { "type": "Polygon", "coordinates": [ [ [ 117.314093857565894, 42.409680515444997 ], [ 117.314099933968947, 42.409680498796419 ], [ 117.31409991150268, 42.4096759958531 ], [ 117.314105987905293, 42.409675979204223 ], [ 117.314105965438571, 42.409671476260911 ], [ 117.314118118242931, 42.409671442962164 ], [ 117.314118095775356, 42.409666940018866 ], [ 117.314130248578792, 42.40966690671884 ], [ 117.314130203641938, 42.409657900832222 ], [ 117.314136280042774, 42.409657884181733 ], [ 117.314136212636214, 42.409644375351789 ], [ 117.314148365435301, 42.409644342049873 ], [ 117.314148342965566, 42.409639839106546 ], [ 117.314136190167375, 42.409639872408462 ], [ 117.314136145229696, 42.409630866521823 ], [ 117.314130068831446, 42.409630883172291 ], [ 117.314130046363047, 42.409626380228964 ], [ 117.314123969965237, 42.409626396879112 ], [ 117.314123947497293, 42.409621893935757 ], [ 117.31411787109991, 42.409621910585592 ], [ 117.314117803697371, 42.409608401755541 ], [ 117.314123880093447, 42.40960838510572 ], [ 117.314123857625503, 42.409603882162358 ], [ 117.314129934021153, 42.409603865512217 ], [ 117.314129821679373, 42.409581350795413 ], [ 117.314117668892436, 42.409581384095326 ], [ 117.314117691359925, 42.409585887038702 ], [ 117.314099462178163, 42.409585936986183 ], [ 117.314099439711995, 42.409581434042799 ], [ 117.314093363318506, 42.409581450691313 ], [ 117.314093385784247, 42.409585953634696 ], [ 117.314075156602428, 42.409586003578298 ], [ 117.314075246460234, 42.409604015351839 ], [ 117.314069170064528, 42.409604031999081 ], [ 117.314069237456607, 42.409617540829203 ], [ 117.314063161059622, 42.409617557476132 ], [ 117.314063228450451, 42.40963106630624 ], [ 117.314057152052158, 42.409631082952842 ], [ 117.314057219441722, 42.409644591782929 ], [ 117.314051143042107, 42.409644608429211 ], [ 117.314051210430421, 42.409658117259262 ], [ 117.314057286831343, 42.409658100612958 ], [ 117.314057264368131, 42.409653597669617 ], [ 117.314075493569561, 42.409653547728794 ], [ 117.314075583427623, 42.409671559502122 ], [ 117.314081659829839, 42.409671542854518 ], [ 117.314081682294812, 42.409676045797838 ], [ 117.314093835100053, 42.40967601250167 ], [ 117.314093857565894, 42.409680515444997 ] ] ] } },
{ "type": "Feature", "properties": { "crown_id": 4256, "tree_id": "4259", "top_h_m": 20.17, "H_95_Mean": 20.4977, "DBH": 23.2072, "Carbon_kg": 102.96033, "area_m2": 7.25 }, "geometry": { "type": "Polygon", "coordinates": [ [ [ 117.31423937657037, 42.409617074584631 ], [ 117.314263682157701, 42.40961700795765 ], [ 117.314263614723913, 42.409603499127776 ], [ 117.314257538328391, 42.409603515784987 ], [ 117.314257470895924, 42.409590006955078 ], [ 117.314245318107453, 42.409590040268533 ], [ 117.314245295630855, 42.409585537325214 ], [ 117.314239219237052, 42.409585553981458 ], [ 117.314239241713224, 42.409590056924777 ], [ 117.314233165318967, 42.409590073580702 ], [ 117.314233232746219, 42.409603582410654 ], [ 117.314227156350682, 42.409603599066266 ], [ 117.314227201301321, 42.409612604952891 ], [ 117.314239354094155, 42.409612571641325 ], [ 117.31423937657037, 42.409617074584631 ] ] ] } },
{ "type": "Feature", "properties": { "crown_id": 4257, "tree_id": "4260", "top_h_m": 17.81, "H_95_Mean": 19.5963, "DBH": 21.6358, "Carbon_kg": 87.045605, "area_m2": 6.0 }, "geometry": { "type": "Polygon", "coordinates": [ [ [ 117.31434274276684, 42.409630300214111 ], [ 117.314348819164877, 42.409630283552374 ], [ 117.314348751712771, 42.409616774722643 ], [ 117.314342675316027, 42.409616791384373 ], [ 117.314342562898133, 42.409594276668066 ], [ 117.314336486503521, 42.409594293329469 ], [ 117.314336464020414, 42.409589790386185 ], [ 117.314324311232056, 42.409589823708018 ], [ 117.314324378678876, 42.409603332537863 ], [ 117.314318302283411, 42.409603349198306 ], [ 117.314318369728952, 42.409616858028102 ], [ 117.314336598919255, 42.409616808045783 ], [ 117.314336621402418, 42.409621310989039 ], [ 117.314342697799631, 42.409621294327621 ], [ 117.31434274276684, 42.409630300214111 ] ] ] } },
{ "type": "Feature", "properties": { "crown_id": 4278, "tree_id": "4281", "top_h_m": 20.135, "H_95_Mean": 20.2049, "DBH": 34.9537, "Carbon_kg": 233.061353, "area_m2": 36.5 }, "geometry": { "type": "Polygon", "coordinates": [ [ [ 117.314142244097184, 42.409635352814348 ], [ 117.31414832049586, 42.409635336163234 ], [ 117.314148298026169, 42.409630833219914 ], [ 117.314160450822598, 42.409630799916698 ], [ 117.314160428352039, 42.409626296973393 ], [ 117.314166504749821, 42.409626280321305 ], [ 117.31416652722082, 42.409630783264625 ], [ 117.314172603619042, 42.409630766612217 ], [ 117.314172581147588, 42.409626263668905 ], [ 117.314184733943122, 42.409626230363138 ], [ 117.31418471147083, 42.409621727419818 ], [ 117.314202940662796, 42.409621677458745 ], [ 117.314202918189196, 42.409617174515446 ], [ 117.314221147379811, 42.409617124551481 ], [ 117.314221057480239, 42.409599112778231 ], [ 117.314227133875349, 42.409599096122946 ], [ 117.314227066449419, 42.409585587292987 ], [ 117.314233142843236, 42.40958557063739 ], [ 117.31423307541607, 42.409572061807388 ], [ 117.314226999023546, 42.409572078462993 ], [ 117.314226976548269, 42.409567575519638 ], [ 117.314214823764104, 42.409567608829853 ], [ 117.314214778815298, 42.409558602943164 ], [ 117.314208702424082, 42.409558619597782 ], [ 117.314208747372007, 42.409567625484478 ], [ 117.314202670979924, 42.409567642138782 ], [ 117.31420271592701, 42.409576648025485 ], [ 117.314178410355098, 42.409576714639478 ], [ 117.31417845529873, 42.409585720526181 ], [ 117.314154149723279, 42.409585787135065 ], [ 117.314154172193369, 42.409590290078413 ], [ 117.314135943010413, 42.409590340031691 ], [ 117.314136032885585, 42.409608351805119 ], [ 117.314129956489523, 42.409608368455579 ], [ 117.314129978957908, 42.409612871398927 ], [ 117.314123902561391, 42.409612888049075 ], [ 117.314123925029335, 42.409617390992416 ], [ 117.314130001426292, 42.409617374342275 ], [ 117.314130023894663, 42.409621877285616 ], [ 117.314136100292018, 42.409621860635141 ], [ 117.314136122760857, 42.409626363578489 ], [ 117.314142199158667, 42.409626346927695 ], [ 117.314142244097184, 42.409635352814348 ] ], [ [ 117.314148185677695, 42.409608318503246 ], [ 117.31414811826869, 42.409594809673187 ], [ 117.314166347452939, 42.409594759717962 ], [ 117.314166414865838, 42.409608268547991 ], [ 117.314148185677695, 42.409608318503246 ] ] ] } },
{ "type": "Feature", "properties": { "crown_id": 4279, "tree_id": "4282", "top_h_m": 19.946, "H_95_Mean": 20.2677, "DBH": 26.5609, "Carbon_kg": 134.251605, "area_m2": 12.5 }, "geometry": { "type": "Polygon", "coordinates": [ [ [ 117.314281911348161, 42.409616957984035 ], [ 117.314312293332165, 42.409616874688226 ], [ 117.31431220340653, 42.409598862915132 ], [ 117.314318279801569, 42.409598846255022 ], [ 117.314318234837913, 42.409589840368454 ], [ 117.314300005655369, 42.409589890347824 ], [ 117.314299983174848, 42.409585387404526 ], [ 117.314293906781089, 42.409585404063677 ], [ 117.314293884300994, 42.409580901120371 ], [ 117.314281731514356, 42.409580934437678 ], [ 117.314281753993555, 42.40958543738099 ], [ 117.314275677599781, 42.409585454039167 ], [ 117.314275700078568, 42.409589956982472 ], [ 117.314263547290153, 42.40958999029786 ], [ 117.314263592245965, 42.409598996184478 ], [ 117.31426966864106, 42.409598979526926 ], [ 117.31426973607617, 42.409612488356814 ], [ 117.314281888868919, 42.409612455040751 ], [ 117.314281911348161, 42.409616957984035 ] ] ] } },
{ "type": "Feature", "properties": { "crown_id": 4335, "tree_id": "4338", "top_h_m": 19.908, "H_95_Mean": 19.7642, "DBH": 21.4869, "Carbon_kg": 86.276686, "area_m2": 5.75 }, "geometry": { "type": "Polygon", "coordinates": [ [ [ 117.314251372024643, 42.409585520668656 ], [ 117.314269601206021, 42.409585470697017 ], [ 117.314269578727661, 42.409580967753705 ], [ 117.314275655121023, 42.409580951095862 ], [ 117.314275632642236, 42.409576448152542 ], [ 117.314269556249329, 42.409576464810399 ], [ 117.314269488814347, 42.409562955980434 ], [ 117.314233030464621, 42.409563055920721 ], [ 117.314233052940338, 42.409567558864055 ], [ 117.314251282116544, 42.409567508895357 ], [ 117.314251304593554, 42.409572011838684 ], [ 117.314239151808565, 42.409572045151478 ], [ 117.314239196760894, 42.409581051038138 ], [ 117.314251349547618, 42.40958101772533 ], [ 117.314251372024643, 42.409585520668656 ] ] ] } }
]
}
