{
"type": "FeatureCollection",
"name": "tile_18_6",
"crs": { "type": "name", "properties": { "name": "urn:ogc:def:crs:OGC:1.3:CRS84" } },
"features": [
{ "type": "Feature", "properties": { "crown_id": 7149, "tree_id": "7155", "top_h_m": 18.605, "H_95_Mean": 18.8432, "DBH": 22.2965, "Carbon_kg": 90.367106, "area_m2": 7.25 }, "geometry": { "type": "Polygon", "coordinates": [ [ [ 117.311164363525421, 42.408324093707172 ], [ 117.31118259234691, 42.408324044227598 ], [ 117.311182547833795, 42.408315038336319 ], [ 117.311194700379716, 42.408315005348335 ], [ 117.311194678122291, 42.408310502402706 ], [ 117.31120075439479, 42.408310485908238 ], [ 117.311200732136939, 42.408305982962602 ], [ 117.311182503320708, 42.408306032445047 ], [ 117.311182481064179, 42.408301529499397 ], [ 117.311176404792533, 42.408301545992899 ], [ 117.311176360280328, 42.408292540101598 ], [ 117.311164207738742, 42.408292573087621 ], [ 117.311164252249213, 42.408301578978936 ], [ 117.311158175977525, 42.408301595471471 ], [ 117.311158242741953, 42.408315104308436 ], [ 117.311152166468972, 42.408315120800651 ], [ 117.311152188723355, 42.408319623746301 ], [ 117.311164341270157, 42.408319590761536 ], [ 117.311164363525421, 42.408324093707172 ] ] ] } },
{ "type": "Feature", "properties": { "crown_id": 7169, "tree_id": "7175", "top_h_m": 18.984, "H_95_Mean": 19.795, "DBH": 24.6363, "Carbon_kg": 113.767186, "area_m2": 9.75 }, "geometry": { "type": "Polygon", "coordinates": [ [ [ 117.311212929198504, 42.408314955863951 ], [ 117.311219005471429, 42.408314939368509 ], [ 117.311218938693983, 42.40830143053163 ], [ 117.311225014965615, 42.408301414035876 ], [ 117.31122494818689, 42.408287905198961 ], [ 117.311212795646256, 42.408287938190142 ], [ 117.311212751128892, 42.408278932298828 ], [ 117.31120667485942, 42.408278948793935 ], [ 117.311206652601186, 42.408274445848285 ], [ 117.311200576332155, 42.408274462343059 ], [ 117.311200554074347, 42.408269959397394 ], [ 117.311188401537166, 42.408269992385961 ], [ 117.311188468307975, 42.408283501222968 ], [ 117.311182392038063, 42.408283517716782 ], [ 117.311182458807636, 42.40829702655374 ], [ 117.311188535078855, 42.408297010059918 ], [ 117.311188557335825, 42.408301513005568 ], [ 117.311206786150748, 42.408301463522172 ], [ 117.311206830667288, 42.408310469413436 ], [ 117.311212906939787, 42.408310452918329 ], [ 117.311212929198504, 42.408314955863951 ] ] ] } },
{ "type": "Feature", "properties": { "crown_id": 7203, "tree_id": "7209", "top_h_m": 19.513, "H_95_Mean": 21.0294, "DBH": 23.6966, "Carbon_kg": 109.022208, "area_m2": 7.5 }, "geometry": { "type": "Polygon", "coordinates": [ [ [ 117.311340597732496, 42.408328118228738 ], [ 117.3113466740066, 42.408328101726525 ], [ 117.311346540396883, 42.408301084053129 ], [ 117.311352616668387, 42.408301067550603 ], [ 117.311352527593627, 42.408283055768273 ], [ 117.311358603863397, 42.408283039265442 ], [ 117.311358581594277, 42.408278536319841 ], [ 117.311352505324933, 42.408278552822672 ], [ 117.311352483056268, 42.408274049877086 ], [ 117.311346406787351, 42.408274066379583 ], [ 117.311346384519126, 42.408269563433983 ], [ 117.311340308250649, 42.40826957993616 ], [ 117.311340285982865, 42.40826507699056 ], [ 117.311334209714829, 42.408265093492417 ], [ 117.311334432388662, 42.40831012294835 ], [ 117.311340508661061, 42.408310106446464 ], [ 117.311340597732496, 42.408328118228738 ] ] ] } },
{ "type": "Feature", "properties": { "crown_id": 7221, "tree_id": "7227", "top_h_m": 19.24, "H_95_Mean": 20.1788, "DBH": 29.2197, "Carbon_kg": 162.292347, "area_m2": 18.25 }, "geometry": { "type": "MultiPolygon", "coordinates": [ [ [ [ 117.311328111179847, 42.408260607048327 ], [ 117.311334187447457, 42.408260590546803 ], [ 117.311334165180114, 42.408256087601181 ], [ 117.31132808891293, 42.408256104102712 ], [ 117.311328111179847, 42.408260607048327 ] ] ], [ [ [ 117.311328111179847, 42.408260607048327 ], [ 117.311309882376975, 42.408260656550986 ], [ 117.311309860111336, 42.408256153605357 ], [ 117.311303783844153, 42.408256170105588 ], [ 117.311303761578984, 42.408251667159966 ], [ 117.311297685312198, 42.40825168365987 ], [ 117.311297752106441, 42.408265192496778 ], [ 117.311279523302176, 42.408265241994613 ], [ 117.31127954556564, 42.408269744940242 ], [ 117.311273469297106, 42.408269761438881 ], [ 117.311273536086176, 42.408283270275767 ], [ 117.311261383546508, 42.408283303272086 ], [ 117.311261428070836, 42.408292309163336 ], [ 117.311249275529406, 42.408292342158376 ], [ 117.31124929779071, 42.408296845104012 ], [ 117.311267526604155, 42.408296795610944 ], [ 117.311267504341558, 42.40829229266533 ], [ 117.311285733153682, 42.408292243169377 ], [ 117.311285666361954, 42.408278734332534 ], [ 117.311303895170113, 42.408278684833711 ], [ 117.31130398423096, 42.408296696616134 ], [ 117.311310060502052, 42.408296680115882 ], [ 117.311310105033385, 42.408305686007068 ], [ 117.311322257577345, 42.408305653005563 ], [ 117.311322302110426, 42.408314658896721 ], [ 117.311328378383251, 42.408314642395489 ], [ 117.311328111179847, 42.408260607048327 ] ] ], [ [ [ 117.311328378383251, 42.408314642395489 ], [ 117.31132840065024, 42.408319145341068 ], [ 117.311334476923506, 42.408319128839494 ], [ 117.311334454656077, 42.408314625893929 ], [ 117.311328378383251, 42.408314642395489 ] ] ] ] } },
{ "type": "Feature", "properties": { "crown_id": 7229, "tree_id": "7235", "top_h_m": 21.18, "H_95_Mean": 20.6685, "DBH": 36.8556, "Carbon_kg": 262.829779, "area_m2": 43.0 }, "geometry": { "type": "Polygon", "coordinates": [ [ [ 117.311352750280719, 42.408328085223992 ], [ 117.311383131651226, 42.40832800270649 ], [ 117.311383109380316, 42.408323499760954 ], [ 117.311389185653994, 42.408323483256481 ], [ 117.31138914111132, 42.40831447736538 ], [ 117.311401293656871, 42.408314444355497 ], [ 117.311401249112492, 42.408305438464403 ], [ 117.311425554200071, 42.408305372440786 ], [ 117.311425487378287, 42.408291863604163 ], [ 117.311419411107735, 42.408291880110532 ], [ 117.311419322013876, 42.408273868328287 ], [ 117.311425398282708, 42.408273851821924 ], [ 117.311425309187186, 42.408255840039629 ], [ 117.311419232920073, 42.408255856545978 ], [ 117.31141916609981, 42.408242347709219 ], [ 117.311413089834005, 42.408242364215248 ], [ 117.31141311210699, 42.408246867160841 ], [ 117.311394883308253, 42.408246916677008 ], [ 117.311394905579945, 42.408251419622601 ], [ 117.311358447979686, 42.408251518646246 ], [ 117.311358425710608, 42.408247015700631 ], [ 117.31135234944432, 42.408247032203448 ], [ 117.311352371712957, 42.408251535149056 ], [ 117.311340219179485, 42.408251568153709 ], [ 117.311340263715067, 42.408260574044945 ], [ 117.311346339982677, 42.408260557542775 ], [ 117.311346362250887, 42.408265060488382 ], [ 117.311352438518938, 42.408265043985878 ], [ 117.311352460787603, 42.408269546931486 ], [ 117.311358537056051, 42.408269530428662 ], [ 117.311358559325171, 42.408274033374255 ], [ 117.31136463559406, 42.408274016871111 ], [ 117.311364702402713, 42.408287525707877 ], [ 117.311358626132531, 42.408287542211028 ], [ 117.311358715209053, 42.408305553993337 ], [ 117.311352638937109, 42.408305570496189 ], [ 117.311352750280719, 42.408328085223992 ] ] ] } },
{ "type": "Feature", "properties": { "crown_id": 7252, "tree_id": "7258", "top_h_m": 18.165, "H_95_Mean": 18.3225, "DBH": 22.9203, "Carbon_kg": 93.964797, "area_m2": 8.5 }, "geometry": { "type": "Polygon", "coordinates": [ [ [ 117.311261361284352, 42.408278800326457 ], [ 117.311267437553738, 42.408278783828457 ], [ 117.311267370765989, 42.40826527499155 ], [ 117.311273447034083, 42.408265258493238 ], [ 117.311273424771073, 42.408260755547595 ], [ 117.311291653574031, 42.40826070605074 ], [ 117.31129158678111, 42.408247197213825 ], [ 117.311297663047483, 42.408247180714234 ], [ 117.311297640782726, 42.408242677768591 ], [ 117.311249030655333, 42.408242809756267 ], [ 117.311249119700392, 42.40826082153891 ], [ 117.31126127223574, 42.408260788543906 ], [ 117.311261361284352, 42.408278800326457 ] ] ] } },
{ "type": "Feature", "properties": { "crown_id": 7276, "tree_id": "7282", "top_h_m": 21.305, "H_95_Mean": 21.2859, "DBH": 34.6338, "Carbon_kg": 235.944726, "area_m2": 32.0 }, "geometry": { "type": "Polygon", "coordinates": [ [ [ 117.311231046717197, 42.40829239164853 ], [ 117.311243199258683, 42.408292358655416 ], [ 117.311243176997806, 42.408287855709787 ], [ 117.311255329538398, 42.408287822715401 ], [ 117.311255218229775, 42.408265307987214 ], [ 117.311243065693532, 42.408265340981579 ], [ 117.311242998911041, 42.408251832144607 ], [ 117.311224770110542, 42.408251881633724 ], [ 117.311224747851028, 42.40824737868806 ], [ 117.311218671584612, 42.408247395183778 ], [ 117.311218627066467, 42.408238389292421 ], [ 117.311206474535396, 42.408238422282899 ], [ 117.311206385502601, 42.408220410500114 ], [ 117.311200309238814, 42.408220426994859 ], [ 117.311200264723311, 42.408211421103445 ], [ 117.311194188460377, 42.408211437597849 ], [ 117.311194121688473, 42.4081979287607 ], [ 117.311188045426846, 42.408197945254784 ], [ 117.311188112197428, 42.408211454091948 ], [ 117.311182035934465, 42.408211470585726 ], [ 117.311182058190894, 42.408215973531448 ], [ 117.311175981927505, 42.408215990024893 ], [ 117.311176004183523, 42.408220492970614 ], [ 117.311169927919678, 42.408220509463746 ], [ 117.311169994686409, 42.408234018300881 ], [ 117.311163918421272, 42.408234034793701 ], [ 117.311163940676451, 42.4082385377394 ], [ 117.311157864410845, 42.408238554231907 ], [ 117.311157886665598, 42.408243057177614 ], [ 117.311163962931602, 42.408243040685107 ], [ 117.311163985186766, 42.408247543630814 ], [ 117.311170061453225, 42.408247527137995 ], [ 117.311170083708845, 42.40825203008368 ], [ 117.311176159975716, 42.408252013590534 ], [ 117.311176204487808, 42.408261019481898 ], [ 117.311182280755546, 42.408261002988425 ], [ 117.311182303012046, 42.408265505934104 ], [ 117.311206608084689, 42.408265439956963 ], [ 117.311206630342923, 42.408269942902628 ], [ 117.311212706611528, 42.408269926407527 ], [ 117.311212728870203, 42.408274429353185 ], [ 117.311218805139205, 42.408274412857772 ], [ 117.311218849657465, 42.408283418749072 ], [ 117.311231002197218, 42.408283385757258 ], [ 117.311231046717197, 42.40829239164853 ] ] ] } },
{ "type": "Feature", "properties": { "crown_id": 7277, "tree_id": "7283", "top_h_m": 22.4, "H_95_Mean": 22.0853, "DBH": 32.2771, "Carbon_kg": 209.216029, "area_m2": 22.75 }, "geometry": { "type": "Polygon", "coordinates": [ [ [ 117.311315936378548, 42.408256137104793 ], [ 117.311322012645718, 42.408256120603916 ], [ 117.311321990379241, 42.408251617658294 ], [ 117.311334142912742, 42.408251584655567 ], [ 117.311334120645427, 42.408247081709938 ], [ 117.311346273178032, 42.408247048705931 ], [ 117.311346250909821, 42.408242545760309 ], [ 117.311364479707393, 42.408242496251873 ], [ 117.311364501976897, 42.408246999197502 ], [ 117.311388807041979, 42.408246933181751 ], [ 117.311388784770728, 42.408242430236143 ], [ 117.311407013568186, 42.408242380720949 ], [ 117.311406991295655, 42.408237877775363 ], [ 117.311400915030262, 42.408237894280745 ], [ 117.311400892758158, 42.408233391335131 ], [ 117.31139481649322, 42.408233407840193 ], [ 117.311394794221542, 42.408228904894585 ], [ 117.311388717957016, 42.408228921399321 ], [ 117.311388651143361, 42.408215412562448 ], [ 117.311382574880113, 42.40821542906685 ], [ 117.311382552609345, 42.408210926121214 ], [ 117.31137040008376, 42.408210959129043 ], [ 117.311370355543957, 42.40820195323775 ], [ 117.311364279282017, 42.408201969741185 ], [ 117.311364323820953, 42.408210975632471 ], [ 117.311358247558147, 42.408210992135587 ], [ 117.311358269827195, 42.40821549508123 ], [ 117.311346117300673, 42.408215528086494 ], [ 117.311346139568855, 42.408220031032137 ], [ 117.311315758250331, 42.408220113539663 ], [ 117.311315802782374, 42.408229119430985 ], [ 117.311309726517763, 42.408229135931514 ], [ 117.311309748783344, 42.408233638877164 ], [ 117.311303672518335, 42.408233655377394 ], [ 117.3113037393138, 42.408247164214316 ], [ 117.311309815580131, 42.408247147714093 ], [ 117.311309837845755, 42.408251650659736 ], [ 117.311315914112498, 42.408251634159178 ], [ 117.311315936378548, 42.408256137104793 ] ], [ [ 117.3113462063734, 42.408233539869052 ], [ 117.311346139568855, 42.408220031032137 ], [ 117.311364368359918, 42.408219981523757 ], [ 117.311364435168386, 42.408233490360637 ], [ 117.3113462063734, 42.408233539869052 ] ] ] } },
{ "type": "Feature", "properties": { "crown_id": 7292, "tree_id": "7298", "top_h_m": 20.41, "H_95_Mean": 22.0096, "DBH": 27.618, "Carbon_kg": 152.496446, "area_m2": 12.5 }, "geometry": { "type": "Polygon", "coordinates": [ [ [ 117.31123082411743, 42.408247362192007 ], [ 117.311242976650206, 42.408247329198957 ], [ 117.311242932128579, 42.408238323307614 ], [ 117.311267237190606, 42.408238257317649 ], [ 117.311267148140445, 42.40822024553497 ], [ 117.311236766821594, 42.408220328021571 ], [ 117.31123672230089, 42.408211322130185 ], [ 117.311218493512129, 42.408211371618265 ], [ 117.311218471253085, 42.408206868672565 ], [ 117.311206318728082, 42.408206901663 ], [ 117.311206363244423, 42.408215907554421 ], [ 117.311212439507813, 42.408215891059356 ], [ 117.311212528542299, 42.408233902842127 ], [ 117.311224681072488, 42.408233869851024 ], [ 117.311224725591529, 42.408242875742374 ], [ 117.311230801857491, 42.408242859246343 ], [ 117.31123082411743, 42.408247362192007 ] ] ] } },
{ "type": "Feature", "properties": { "crown_id": 7331, "tree_id": "7337", "top_h_m": 22.607, "H_95_Mean": 22.3998, "DBH": 34.1995, "Carbon_kg": 237.064597, "area_m2": 27.75 }, "geometry": { "type": "Polygon", "coordinates": [ [ [ 117.311273313456084, 42.408238240819351 ], [ 117.311297618518012, 42.408238174822955 ], [ 117.311297573988597, 42.408229168931641 ], [ 117.31130365025318, 42.408229152431737 ], [ 117.311303627988053, 42.408224649486087 ], [ 117.311309704252196, 42.408224632985863 ], [ 117.311309659721047, 42.408215627094549 ], [ 117.311340041037411, 42.408215544588643 ], [ 117.311340018769684, 42.408211041642993 ], [ 117.311352171295326, 42.408211008638375 ], [ 117.311352149026732, 42.408206505692725 ], [ 117.311358225289098, 42.408206489189944 ], [ 117.311358180751057, 42.408197483298636 ], [ 117.31137033327407, 42.408197450292121 ], [ 117.311370311004183, 42.40819294734645 ], [ 117.31136423474311, 42.408192963849878 ], [ 117.311364190204216, 42.408183957958563 ], [ 117.31135811394401, 42.408183974461664 ], [ 117.311358091675018, 42.408179471515993 ], [ 117.311345939155458, 42.408179504521215 ], [ 117.311345961423598, 42.408184007466886 ], [ 117.311327732642923, 42.408184056972303 ], [ 117.311327710376105, 42.408179554026624 ], [ 117.311315557856503, 42.408179587028634 ], [ 117.311315580122454, 42.408184089974313 ], [ 117.311303427601956, 42.408184122975022 ], [ 117.311303449867054, 42.408188625920722 ], [ 117.311291297345676, 42.408188658920146 ], [ 117.311291319609921, 42.408193161865839 ], [ 117.311285243348792, 42.408193178365082 ], [ 117.311285287876402, 42.408202184256446 ], [ 117.311273135352394, 42.408202217253965 ], [ 117.311273157615346, 42.408206720199651 ], [ 117.311254928827964, 42.408206769693514 ], [ 117.311254973351254, 42.408215775584893 ], [ 117.311273202141251, 42.408215726091015 ], [ 117.311273268930151, 42.408229234928029 ], [ 117.311279345194762, 42.408229218429419 ], [ 117.311279367458155, 42.408233721375076 ], [ 117.311273291193118, 42.408233737873701 ], [ 117.311273313456084, 42.408238240819351 ] ], [ [ 117.311309637455494, 42.408211124148885 ], [ 117.311309570658821, 42.408197615311877 ], [ 117.311327799443447, 42.408197565809317 ], [ 117.311327866244028, 42.40821107464631 ], [ 117.311309637455494, 42.408211124148885 ] ] ] } },
{ "type": "Feature", "properties": { "crown_id": 7366, "tree_id": "7372", "top_h_m": 19.3, "H_95_Mean": 19.5306, "DBH": 28.3551, "Carbon_kg": 149.837351, "area_m2": 17.25 }, "geometry": { "type": "Polygon", "coordinates": [ [ [ 117.311242820824575, 42.408215808579207 ], [ 117.311248897087921, 42.40821579208221 ], [ 117.31124883030428, 42.408202283245139 ], [ 117.311267059090355, 42.408202233752242 ], [ 117.311267036827871, 42.408197730806556 ], [ 117.311260960566273, 42.408197747304499 ], [ 117.311260916042144, 42.408188741413106 ], [ 117.311254839781427, 42.408188757910715 ], [ 117.31125481751981, 42.408184254965022 ], [ 117.311248741259519, 42.408184271462318 ], [ 117.311248718998328, 42.408179768516604 ], [ 117.311242642738449, 42.408179785013587 ], [ 117.311242598216992, 42.408170779122131 ], [ 117.311230445698968, 42.408170812115102 ], [ 117.311230401179273, 42.408161806223632 ], [ 117.311224324921128, 42.408161822719634 ], [ 117.311224302661699, 42.408157319773885 ], [ 117.31121822640398, 42.408157336269561 ], [ 117.311218293180943, 42.408170845106795 ], [ 117.311206140662918, 42.408170878097188 ], [ 117.311206162921025, 42.408175381042916 ], [ 117.311200086661586, 42.40817539753764 ], [ 117.31120010891928, 42.408179900483375 ], [ 117.311206185179188, 42.408179883988666 ], [ 117.311206207437323, 42.408184386934394 ], [ 117.311200131176989, 42.408184403429111 ], [ 117.311200153434683, 42.408188906374839 ], [ 117.311206229695458, 42.408188889880115 ], [ 117.31120627421177, 42.408197895771572 ], [ 117.311200197950129, 42.408197912266289 ], [ 117.311200220207851, 42.408202415212017 ], [ 117.311224525256122, 42.408202349231146 ], [ 117.311224547515579, 42.408206852176853 ], [ 117.311242776303018, 42.408206802687822 ], [ 117.311242820824575, 42.408215808579207 ] ] ] } },
{ "type": "Feature", "properties": { "crown_id": 7392, "tree_id": "7398", "top_h_m": 19.68, "H_95_Mean": 19.7108, "DBH": 22.7797, "Carbon_kg": 96.903624, "area_m2": 7.25 }, "geometry": { "type": "Polygon", "coordinates": [ [ [ 117.311273113089456, 42.40819771430828 ], [ 117.311279189351012, 42.408197697809683 ], [ 117.311279144824297, 42.408188691918291 ], [ 117.311285221084987, 42.408188675419382 ], [ 117.31128519882121, 42.408184172473689 ], [ 117.311297351341722, 42.408184139474905 ], [ 117.311297306812406, 42.408175133583519 ], [ 117.311279078034218, 42.408175183081191 ], [ 117.311279055770868, 42.408170680135484 ], [ 117.311260826993959, 42.408170729630257 ], [ 117.311260804731916, 42.408166226684536 ], [ 117.311254728473386, 42.408166243182144 ], [ 117.31125470621177, 42.40816174023643 ], [ 117.31123647743739, 42.408161789727323 ], [ 117.311236499697685, 42.408166292673044 ], [ 117.311248652214829, 42.40816625967944 ], [ 117.311248696737152, 42.408175265570875 ], [ 117.311254772996563, 42.408175249073579 ], [ 117.311254795258179, 42.408179752019308 ], [ 117.311260871518044, 42.408179735521685 ], [ 117.311260893780087, 42.408184238467399 ], [ 117.311266970040379, 42.408184221969449 ], [ 117.31126701456536, 42.408193227860842 ], [ 117.311273090826518, 42.40819321136258 ], [ 117.311273113089456, 42.40819771430828 ] ] ] } },
{ "type": "Feature", "properties": { "crown_id": 7447, "tree_id": "7453", "top_h_m": 20.12, "H_95_Mean": 20.3958, "DBH": 25.3127, "Carbon_kg": 122.294084, "area_m2": 10.25 }, "geometry": { "type": "Polygon", "coordinates": [ [ [ 117.311285132029838, 42.408170663636582 ], [ 117.31130336080669, 42.408170614137951 ], [ 117.311303294011481, 42.40815710530083 ], [ 117.311297217753847, 42.408157121800691 ], [ 117.311297173224602, 42.408148115909263 ], [ 117.311285020711026, 42.408148148908005 ], [ 117.311284953919795, 42.408134640070813 ], [ 117.311291030175269, 42.408134623571605 ], [ 117.311291007911109, 42.408130120625877 ], [ 117.311278855401014, 42.408130153623951 ], [ 117.311278877664321, 42.408134656569693 ], [ 117.311272801408819, 42.408134673068254 ], [ 117.311272845934567, 42.408143678959725 ], [ 117.311266769678198, 42.408143695457959 ], [ 117.311266791940639, 42.408148198403701 ], [ 117.31124856317021, 42.408148247896506 ], [ 117.311248607692505, 42.408157253787977 ], [ 117.311260760207858, 42.408157220793086 ], [ 117.311260782469887, 42.408161723738829 ], [ 117.311266858728004, 42.408161707240879 ], [ 117.311266880990459, 42.408166210186607 ], [ 117.311285109766075, 42.408166160690875 ], [ 117.311285132029838, 42.408170663636582 ] ] ] } },
{ "type": "Feature", "properties": { "crown_id": 7456, "tree_id": "7462", "top_h_m": 20.292, "H_95_Mean": 19.8321, "DBH": 32.5065, "Carbon_kg": 199.137182, "area_m2": 28.5 }, "geometry": { "type": "MultiPolygon", "coordinates": [ [ [ [ 117.311303405336872, 42.408179620029344 ], [ 117.31130948159668, 42.408179603529149 ], [ 117.31130945933117, 42.408175100583449 ], [ 117.311303383071802, 42.408175117083644 ], [ 117.311303405336872, 42.408179620029344 ] ] ], [ [ [ 117.31130945933117, 42.408175100583449 ], [ 117.311333764368626, 42.408175034579457 ], [ 117.311333786635885, 42.40817953752515 ], [ 117.311339862895693, 42.408179521023349 ], [ 117.311339840627994, 42.408175018077664 ], [ 117.311364145665337, 42.408174952067228 ], [ 117.311364167934769, 42.408179455012899 ], [ 117.311376320454301, 42.408179422005752 ], [ 117.311376275913702, 42.408170416114416 ], [ 117.311382352172586, 42.408170399610363 ], [ 117.311382307631135, 42.408161393719027 ], [ 117.311376231373117, 42.408161410223073 ], [ 117.311376209102846, 42.408156907277395 ], [ 117.311382285360409, 42.408156890773341 ], [ 117.311382240819, 42.408147884881991 ], [ 117.311370088305566, 42.40814791788975 ], [ 117.311370066035749, 42.408143414944064 ], [ 117.311351837266884, 42.408143464453275 ], [ 117.311351792729823, 42.408134458561875 ], [ 117.311339640218947, 42.4081344915664 ], [ 117.311339595683677, 42.408125485674965 ], [ 117.311327443174534, 42.408125518678183 ], [ 117.311327465441295, 42.408130021623911 ], [ 117.311297084166142, 42.40813010412635 ], [ 117.311297128695358, 42.408139110017814 ], [ 117.311291052439458, 42.408139126517341 ], [ 117.311291074703618, 42.408143629463069 ], [ 117.311303227216328, 42.408143596463688 ], [ 117.311303271746425, 42.408152602355116 ], [ 117.311309348003633, 42.408152585854943 ], [ 117.31130945933117, 42.408175100583449 ] ] ] ] } }
]
}
