{
"type": "FeatureCollection",
"name": "tile_7_6",
"crs": { "type": "name", "properties": { "name": "urn:ogc:def:crs:OGC:1.3:CRS84" } },
"features": [
{ "type": "Feature", "properties": { "crown_id": 2525, "tree_id": "2526", "top_h_m": 20.644, "H_95_Mean": 21.6869, "DBH": 21.9334, "Carbon_kg": 95.004206, "area_m2": 5.25 }, "geometry": { "type": "Polygon", "coordinates": [ [ [ 117.311234965506713, 42.410314230376905 ], [ 117.311241041972579, 42.41031421387968 ], [ 117.31124101971028, 42.410309710935628 ], [ 117.31124709617572, 42.410309694438091 ], [ 117.311247029387587, 42.410296185605958 ], [ 117.311228799995177, 42.410296235097626 ], [ 117.311228733210982, 42.410282726265443 ], [ 117.311234809673806, 42.410282709768538 ], [ 117.31123474288836, 42.410269200936341 ], [ 117.311228666426842, 42.410269217433225 ], [ 117.311228688688203, 42.41027372037729 ], [ 117.311222612226246, 42.410273736873869 ], [ 117.311222790313948, 42.410309760426365 ], [ 117.311234943244841, 42.410309727432868 ], [ 117.311234965506713, 42.410314230376905 ] ] ] } },
{ "type": "Feature", "properties": { "crown_id": 2538, "tree_id": "2539", "top_h_m": 21.423, "H_95_Mean": 22.3716, "DBH": 20.05, "Carbon_kg": 80.749556, "area_m2": 3.5 }, "geometry": { "type": "Polygon", "coordinates": [ [ [ 117.311295707899049, 42.410309562446059 ], [ 117.311301784364431, 42.410309545945601 ], [ 117.311301762097813, 42.410305043001578 ], [ 117.311313915027696, 42.410305009999718 ], [ 117.311313870492711, 42.410296004111693 ], [ 117.311307794028636, 42.410296020612783 ], [ 117.311307727227501, 42.4102825117807 ], [ 117.311301650764705, 42.410282528281456 ], [ 117.311301695297942, 42.410291534169524 ], [ 117.311289542370616, 42.410291567170077 ], [ 117.311289564636382, 42.410296070114121 ], [ 117.311283488172265, 42.410296086613918 ], [ 117.31128351043759, 42.410300589557941 ], [ 117.31129566336665, 42.410300556558013 ], [ 117.311295707899049, 42.410309562446059 ] ] ] } },
{ "type": "Feature", "properties": { "crown_id": 2567, "tree_id": "2568", "top_h_m": 21.67, "H_95_Mean": 21.85, "DBH": 19.056, "Carbon_kg": 71.874188, "area_m2": 3.0 }, "geometry": { "type": "Polygon", "coordinates": [ [ [ 117.31123485419748, 42.410291715656662 ], [ 117.311283465906953, 42.410291583669881 ], [ 117.311283421376331, 42.4102825777818 ], [ 117.311259115525118, 42.410282643777755 ], [ 117.311259137788696, 42.410287146721799 ], [ 117.31123483193565, 42.41028721271261 ], [ 117.31123485419748, 42.410291715656662 ] ] ] } },
{ "type": "Feature", "properties": { "crown_id": 2568, "tree_id": "2569", "top_h_m": 21.14, "H_95_Mean": 21.3602, "DBH": 28.6612, "Carbon_kg": 161.443443, "area_m2": 15.25 }, "geometry": { "type": "Polygon", "coordinates": [ [ [ 117.311356539364368, 42.410322906258997 ], [ 117.31136261583103, 42.410322889755314 ], [ 117.31136259356002, 42.41031838681134 ], [ 117.311368670026226, 42.410318370307337 ], [ 117.311368580940567, 42.410300358531394 ], [ 117.311362504476094, 42.410300375035384 ], [ 117.311362415392267, 42.410282363259384 ], [ 117.31133810954131, 42.410282429272073 ], [ 117.311338087272105, 42.410277926328057 ], [ 117.311313781422797, 42.410277992335587 ], [ 117.311313848225211, 42.410291501167663 ], [ 117.311319924688846, 42.410291484666253 ], [ 117.311319991492638, 42.410304993498301 ], [ 117.311326067957566, 42.410304976996564 ], [ 117.311326090225933, 42.41030947994058 ], [ 117.311332166691301, 42.410309463438509 ], [ 117.311332188960122, 42.410313966382517 ], [ 117.311338265425917, 42.41031394988012 ], [ 117.311338287695165, 42.410318452824121 ], [ 117.311356517093813, 42.410318403315017 ], [ 117.311356539364368, 42.410322906258997 ] ] ] } },
{ "type": "Feature", "properties": { "crown_id": 2586, "tree_id": "2587", "top_h_m": 21.37, "H_95_Mean": 20.9251, "DBH": 31.1018, "Carbon_kg": 188.046885, "area_m2": 21.75 }, "geometry": { "type": "Polygon", "coordinates": [ [ [ 117.311204560917574, 42.410309809914189 ], [ 117.311216713848481, 42.410309776922638 ], [ 117.311216513503737, 42.410269250426026 ], [ 117.311222589965283, 42.410269233929796 ], [ 117.311222567704363, 42.410264730985709 ], [ 117.311204338321005, 42.410264780473462 ], [ 117.311204293801765, 42.410255774585266 ], [ 117.311173911500418, 42.410255857058388 ], [ 117.311173978272777, 42.410269365890706 ], [ 117.311167901811203, 42.410269382384371 ], [ 117.311167924068215, 42.410273885328472 ], [ 117.311155771144172, 42.410273918314843 ], [ 117.311155837912665, 42.410287427147132 ], [ 117.311167990839337, 42.410287394160754 ], [ 117.311168013096392, 42.410291897104841 ], [ 117.311174089560168, 42.410291880611162 ], [ 117.311174156332626, 42.410305389443394 ], [ 117.31120453865789, 42.41030530697013 ], [ 117.311204560917574, 42.410309809914189 ] ] ] } },
{ "type": "Feature", "properties": { "crown_id": 2645, "tree_id": "2646", "top_h_m": 22.62, "H_95_Mean": 22.048, "DBH": 35.8362, "Carbon_kg": 258.059185, "area_m2": 34.25 }, "geometry": { "type": "Polygon", "coordinates": [ [ [ 117.311240886136659, 42.410282693271341 ], [ 117.311253039062294, 42.410282660275932 ], [ 117.311253016799185, 42.410278157331874 ], [ 117.311259093261569, 42.41027814083369 ], [ 117.311259026470907, 42.410264632001507 ], [ 117.311277255854137, 42.410264582505057 ], [ 117.311277278118993, 42.410269085449123 ], [ 117.31128943104197, 42.41026905244987 ], [ 117.311289475573417, 42.410278058337973 ], [ 117.311301628498128, 42.410278025337426 ], [ 117.311301606231524, 42.410273522393375 ], [ 117.311295529769609, 42.410273538893811 ], [ 117.311295418438874, 42.410251024173533 ], [ 117.311301494898615, 42.410251007673125 ], [ 117.311301383565848, 42.410228492952776 ], [ 117.311295307108267, 42.410228509453191 ], [ 117.311295329374389, 42.410233012397264 ], [ 117.311277100000339, 42.410233061896555 ], [ 117.311277122265167, 42.410237564840635 ], [ 117.311246739972816, 42.410237647333027 ], [ 117.311246717710176, 42.41023314438894 ], [ 117.311234564794077, 42.410233177383624 ], [ 117.31123452027056, 42.410224171495422 ], [ 117.311204137984561, 42.410224253976509 ], [ 117.311204160244145, 42.410228756920624 ], [ 117.31117985441351, 42.41022882289969 ], [ 117.31117996570282, 42.410251337620302 ], [ 117.311210348001978, 42.410251255145582 ], [ 117.311210392522085, 42.410260261033777 ], [ 117.311228621904107, 42.410260211545058 ], [ 117.311228644165482, 42.410264714489145 ], [ 117.311240797087663, 42.410264681495065 ], [ 117.311240886136659, 42.410282693271341 ] ], [ [ 117.31120424928254, 42.410246768697071 ], [ 117.311204182503715, 42.410233259864732 ], [ 117.311222411877964, 42.410233210377037 ], [ 117.311222478660653, 42.41024671920934 ], [ 117.31120424928254, 42.410246768697071 ] ] ] } },
{ "type": "Feature", "properties": { "crown_id": 2646, "tree_id": "2647", "top_h_m": 21.574, "H_95_Mean": 21.9884, "DBH": 35.5869, "Carbon_kg": 254.046647, "area_m2": 33.5 }, "geometry": { "type": "Polygon", "coordinates": [ [ [ 117.311368491854992, 42.410282346755395 ], [ 117.311374568317717, 42.4102823302511 ], [ 117.311374323328039, 42.410232797866833 ], [ 117.311368246870074, 42.410232814371099 ], [ 117.311368224598752, 42.410228311427062 ], [ 117.311362148141257, 42.410228327931009 ], [ 117.311362125870346, 42.410223824986957 ], [ 117.311356049413277, 42.410223841490577 ], [ 117.311356027142821, 42.410219338546518 ], [ 117.311349950686193, 42.410219355049811 ], [ 117.311349928416178, 42.410214852105746 ], [ 117.311337775503702, 42.410214885111372 ], [ 117.31133779777285, 42.410219388055438 ], [ 117.311325644859522, 42.410219421059786 ], [ 117.31132566712779, 42.410223924003866 ], [ 117.31130743775644, 42.410223973507975 ], [ 117.311307593625344, 42.410255494116441 ], [ 117.311301517165205, 42.410255510617191 ], [ 117.311301583964934, 42.410269019449338 ], [ 117.311307660426408, 42.410269002948588 ], [ 117.311307682693425, 42.410273505892619 ], [ 117.311344141464758, 42.410273406881331 ], [ 117.311344163734418, 42.410277909825368 ], [ 117.311368469583599, 42.410277843811386 ], [ 117.311368491854992, 42.410282346755395 ] ] ] } },
{ "type": "Feature", "properties": { "crown_id": 2789, "tree_id": "2790", "top_h_m": 20.683, "H_95_Mean": 21.6267, "DBH": 38.2069, "Carbon_kg": 290.29138, "area_m2": 45.5 }, "geometry": { "type": "Polygon", "coordinates": [ [ [ 117.311380555691471, 42.410264301970443 ], [ 117.311392708613397, 42.410264268960248 ], [ 117.311392686340298, 42.410259766016232 ], [ 117.311404839261343, 42.410259733004757 ], [ 117.311404794713425, 42.410250727116725 ], [ 117.311416947632736, 42.410250694103965 ], [ 117.311416925357918, 42.410246191159963 ], [ 117.311423001817104, 42.410246174653111 ], [ 117.311423024092349, 42.410250677597119 ], [ 117.311441253471259, 42.410250628074593 ], [ 117.311441208918154, 42.410241622186589 ], [ 117.311459438294378, 42.410241572661199 ], [ 117.311459326905137, 42.410219057941141 ], [ 117.311465403361709, 42.410219041432057 ], [ 117.311465358805194, 42.410210035544011 ], [ 117.311459282349489, 42.41021005205311 ], [ 117.311459260071672, 42.410205549109087 ], [ 117.311447107161129, 42.410205582126295 ], [ 117.311447040330322, 42.410192073294176 ], [ 117.311440963876365, 42.410192089802294 ], [ 117.311440919323374, 42.410183083914198 ], [ 117.31141053705781, 42.410183166449904 ], [ 117.311410581606438, 42.410192172338036 ], [ 117.311386275790412, 42.410192238360828 ], [ 117.311386298062999, 42.410196741304901 ], [ 117.311368068699622, 42.410196790818624 ], [ 117.311368024157048, 42.410187784930464 ], [ 117.31136194770346, 42.410187801434382 ], [ 117.311362014515993, 42.410201310266629 ], [ 117.311355938061084, 42.410201326770242 ], [ 117.31135600487238, 42.410214835602453 ], [ 117.31136208132861, 42.410214819098833 ], [ 117.311362103599464, 42.410219322042892 ], [ 117.311368180056107, 42.410219305538945 ], [ 117.311368202327444, 42.410223808483011 ], [ 117.311374278784513, 42.410223791978751 ], [ 117.311374301056262, 42.410228294922788 ], [ 117.311380377513771, 42.410228278418195 ], [ 117.311380555691471, 42.410264301970443 ] ], [ [ 117.311392530428748, 42.410228245408035 ], [ 117.311392463609593, 42.410214736575909 ], [ 117.311410692978114, 42.410214687058286 ], [ 117.311410759801191, 42.410228195890397 ], [ 117.311392530428748, 42.410228245408035 ] ], [ [ 117.311422912716125, 42.410228162877026 ], [ 117.311422845890462, 42.410214654044943 ], [ 117.311441075258898, 42.41021460452248 ], [ 117.311441142088512, 42.410228113354556 ], [ 117.311422912716125, 42.410228162877026 ] ] ] } },
{ "type": "Feature", "properties": { "crown_id": 2801, "tree_id": "2802", "top_h_m": 18.671, "H_95_Mean": 19.7753, "DBH": 26.2524, "Carbon_kg": 129.233687, "area_m2": 12.5 }, "geometry": { "type": "Polygon", "coordinates": [ [ [ 117.311179832155659, 42.410224319955567 ], [ 117.311198061527335, 42.410224270471751 ], [ 117.311198039268206, 42.410219767527614 ], [ 117.311234498008815, 42.410219668551306 ], [ 117.311234475747057, 42.410215165607191 ], [ 117.31125270511599, 42.410215116114692 ], [ 117.311252682852952, 42.410210613170577 ], [ 117.311246606397077, 42.410210629668398 ], [ 117.311246584134466, 42.410206126724283 ], [ 117.311240507679017, 42.410206143221778 ], [ 117.311240485416832, 42.410201640277648 ], [ 117.311234408961823, 42.410201656774817 ], [ 117.311234342176661, 42.410188147942428 ], [ 117.311210036361786, 42.410188213927846 ], [ 117.311210080881736, 42.410197219816133 ], [ 117.311204004427168, 42.410197236311696 ], [ 117.311204026686696, 42.410201739255832 ], [ 117.311197950231659, 42.410201755751075 ], [ 117.311197994749932, 42.410210761639348 ], [ 117.311185841838082, 42.410210794628874 ], [ 117.311185886354622, 42.41021980051714 ], [ 117.311179809897823, 42.410219817011431 ], [ 117.311179832155659, 42.410224319955567 ] ] ] } },
{ "type": "Feature", "properties": { "crown_id": 2834, "tree_id": "2835", "top_h_m": 22.19, "H_95_Mean": 22.7584, "DBH": 31.1465, "Carbon_kg": 198.196636, "area_m2": 18.75 }, "geometry": { "type": "Polygon", "coordinates": [ [ [ 117.311252794168212, 42.410233127891097 ], [ 117.311271023542332, 42.410233078395663 ], [ 117.311271001277944, 42.410228575451583 ], [ 117.311289230650715, 42.410228525953265 ], [ 117.311289030259857, 42.410187999456376 ], [ 117.311282953806199, 42.410188015956109 ], [ 117.311282909275818, 42.410179010067871 ], [ 117.311276832823012, 42.410179026567285 ], [ 117.311276810558269, 42.410174523623148 ], [ 117.311270734105904, 42.410174540122235 ], [ 117.311270711841587, 42.410170037178098 ], [ 117.311264635389648, 42.410170053676865 ], [ 117.311264613125772, 42.410165550732721 ], [ 117.311258536674274, 42.410165567231161 ], [ 117.311258581201116, 42.410174573119441 ], [ 117.311252504748737, 42.410174589617561 ], [ 117.311252549274769, 42.410183595505835 ], [ 117.311246472821509, 42.410183612003635 ], [ 117.311246495084063, 42.410188114947765 ], [ 117.311240418630376, 42.410188131445253 ], [ 117.311240463154689, 42.410197137333526 ], [ 117.311246539609272, 42.410197120836038 ], [ 117.311246561871855, 42.410201623780161 ], [ 117.311252638326863, 42.410201607282346 ], [ 117.311252660589901, 42.410206110226468 ], [ 117.311270889956162, 42.410206060731085 ], [ 117.311270956749226, 42.410219569563395 ], [ 117.311240574465558, 42.410219652054117 ], [ 117.311240618989927, 42.410228657942341 ], [ 117.311252771905146, 42.410228624947003 ], [ 117.311252794168212, 42.410233127891097 ] ] ] } },
{ "type": "Feature", "properties": { "crown_id": 2835, "tree_id": "2836", "top_h_m": 22.382, "H_95_Mean": 22.5409, "DBH": 35.1461, "Carbon_kg": 251.407435, "area_m2": 30.5 }, "geometry": { "type": "Polygon", "coordinates": [ [ [ 117.311295284842174, 42.410224006509104 ], [ 117.311301361299286, 42.410223990008696 ], [ 117.311301339032767, 42.410219487064609 ], [ 117.311319568402837, 42.410219437561473 ], [ 117.31131954613501, 42.4102149346174 ], [ 117.311331699047471, 42.410214901613713 ], [ 117.311331676778778, 42.410210398669626 ], [ 117.311349906146162, 42.410210349161687 ], [ 117.311349839336188, 42.410196840329448 ], [ 117.311355915790671, 42.410196823826162 ], [ 117.311355826709061, 42.410178812049814 ], [ 117.311349750256312, 42.410178828553093 ], [ 117.31134972798634, 42.410174325608992 ], [ 117.311343651534031, 42.410174342111944 ], [ 117.311343584725492, 42.410160833279619 ], [ 117.311337508274462, 42.410160849782237 ], [ 117.311337486005399, 42.410156346838122 ], [ 117.311331409554811, 42.410156363340427 ], [ 117.311331387286202, 42.41015186039629 ], [ 117.311319234385863, 42.410151893399913 ], [ 117.311319278921388, 42.410160899288172 ], [ 117.3113010495683, 42.410160948791209 ], [ 117.311301027301809, 42.410156445847079 ], [ 117.311276721499326, 42.410156511846601 ], [ 117.311276743764054, 42.410161014790738 ], [ 117.311270667312982, 42.410161031289817 ], [ 117.311270689577299, 42.410165534233961 ], [ 117.311276766028797, 42.410165517734882 ], [ 117.311276788293526, 42.410170020679004 ], [ 117.311282864745451, 42.410170004179605 ], [ 117.311282887010634, 42.410174507123742 ], [ 117.311288963462999, 42.410174490624009 ], [ 117.311289007994219, 42.410183496512253 ], [ 117.311295084447451, 42.410183480012194 ], [ 117.311295039915365, 42.410174474123963 ], [ 117.311313269272404, 42.410174424621871 ], [ 117.311313336074463, 42.410187933454203 ], [ 117.31129510671353, 42.410187982956309 ], [ 117.311295284842174, 42.410224006509104 ] ] ] } },
{ "type": "Feature", "properties": { "crown_id": 2871, "tree_id": "2872", "top_h_m": 18.965, "H_95_Mean": 19.4527, "DBH": 25.3502, "Carbon_kg": 119.272499, "area_m2": 11.25 }, "geometry": { "type": "Polygon", "coordinates": [ [ [ 117.311173666668822, 42.410206324672956 ], [ 117.311179743124328, 42.410206308178999 ], [ 117.311179720866491, 42.410201805234855 ], [ 117.311185797321556, 42.410201788740579 ], [ 117.311185819579819, 42.41020629168473 ], [ 117.311191896035311, 42.410206275190134 ], [ 117.311191851517933, 42.410197269301847 ], [ 117.311179698608697, 42.410197302290705 ], [ 117.311179631835259, 42.410183793458216 ], [ 117.311197861195211, 42.410183743974471 ], [ 117.311197905713428, 42.410192749862787 ], [ 117.311203982167612, 42.410192733367552 ], [ 117.311203937648514, 42.410183727479243 ], [ 117.311240396368234, 42.410183628501116 ], [ 117.311240374106077, 42.410179125556979 ], [ 117.311246450558926, 42.410179109059506 ], [ 117.311246428296343, 42.410174606115362 ], [ 117.311222122486726, 42.410174672103331 ], [ 117.31122207796507, 42.410165666215022 ], [ 117.31118561925571, 42.41016576518728 ], [ 117.311185663772122, 42.410174771075624 ], [ 117.311179587319685, 42.410174787569886 ], [ 117.311179609577493, 42.410179290514051 ], [ 117.311173533124588, 42.410179307007994 ], [ 117.311173577639323, 42.410188312896317 ], [ 117.311167501185565, 42.410188329389939 ], [ 117.311167523442492, 42.410192832334111 ], [ 117.311173599896691, 42.410192815840482 ], [ 117.311173666668822, 42.410206324672956 ] ] ] } },
{ "type": "Feature", "properties": { "crown_id": 2872, "tree_id": "2873", "top_h_m": 20.767, "H_95_Mean": 21.5586, "DBH": 26.9167, "Carbon_kg": 143.030186, "area_m2": 11.75 }, "geometry": { "type": "MultiPolygon", "coordinates": [ [ [ [ 117.311374122882384, 42.410192271370299 ], [ 117.311380199336398, 42.410192254865727 ], [ 117.311380177064251, 42.410187751921647 ], [ 117.311374100610664, 42.410187768426219 ], [ 117.311374122882384, 42.410192271370299 ] ] ], [ [ [ 117.311380177064251, 42.410187751921647 ], [ 117.311404482878544, 42.410187685900141 ], [ 117.311404438330797, 42.41017868001201 ], [ 117.311440897046893, 42.41017858097014 ], [ 117.311440852493945, 42.410169575082001 ], [ 117.311434776042134, 42.410169591589792 ], [ 117.311434686938028, 42.410151579813494 ], [ 117.311404304687628, 42.410151662347502 ], [ 117.311404371509198, 42.410165171179777 ], [ 117.311398295057799, 42.410165187685628 ], [ 117.311398339604651, 42.410174193573788 ], [ 117.311380110247839, 42.410174243089408 ], [ 117.311380177064251, 42.410187751921647 ] ] ] ] } },
{ "type": "Feature", "properties": { "crown_id": 2898, "tree_id": "2899", "top_h_m": 19.052, "H_95_Mean": 19.7128, "DBH": 18.884, "Carbon_kg": 66.404321, "area_m2": 3.5 }, "geometry": { "type": "Polygon", "coordinates": [ [ [ 117.311361925432607, 42.410183298490296 ], [ 117.311374078338943, 42.410183265482139 ], [ 117.311373989252161, 42.410165253705777 ], [ 117.311367912800733, 42.410165270210015 ], [ 117.311367890529482, 42.4101607672659 ], [ 117.311349661176507, 42.410160816776674 ], [ 117.311349705716381, 42.410169822664884 ], [ 117.311355782168263, 42.410169806161626 ], [ 117.311355804438662, 42.410174309105727 ], [ 117.311361880890942, 42.410174292602122 ], [ 117.311361925432607, 42.410183298490296 ] ] ] } },
{ "type": "Feature", "properties": { "crown_id": 2928, "tree_id": "2929", "top_h_m": 21.12, "H_95_Mean": 20.4036, "DBH": 31.6055, "Carbon_kg": 191.357576, "area_m2": 24.25 }, "geometry": { "type": "Polygon", "coordinates": [ [ [ 117.311228176677886, 42.410170152662673 ], [ 117.311252482485742, 42.410170086673411 ], [ 117.311252437959752, 42.410161080785123 ], [ 117.31126459086191, 42.41016104778857 ], [ 117.311264568598062, 42.410156544844426 ], [ 117.311270645048694, 42.410156528345674 ], [ 117.31127062278442, 42.410152025401516 ], [ 117.311264546334229, 42.410152041900275 ], [ 117.3112644795427, 42.410138533067794 ], [ 117.311234097298097, 42.410138615556683 ], [ 117.311234052774793, 42.410129609668317 ], [ 117.31122189987866, 42.410129642661609 ], [ 117.311221877617882, 42.410125139717422 ], [ 117.311191495379646, 42.410125222194992 ], [ 117.311191539896882, 42.410134228083393 ], [ 117.311179386999797, 42.41013426107218 ], [ 117.311179409257534, 42.410138764016388 ], [ 117.311173332808579, 42.410138780510295 ], [ 117.311173377323215, 42.410147786398703 ], [ 117.311167300873336, 42.41014780289229 ], [ 117.311167345387133, 42.410156808780691 ], [ 117.311179498288581, 42.410156775793162 ], [ 117.311179520546332, 42.410161278737348 ], [ 117.31122813215535, 42.41016114677435 ], [ 117.311228176677886, 42.410170152662673 ] ], [ [ 117.311222033443428, 42.410156660326692 ], [ 117.311221966661023, 42.410143151494161 ], [ 117.311240196009138, 42.410143102003715 ], [ 117.311240262795437, 42.410156610836225 ], [ 117.311222033443428, 42.410156660326692 ] ] ] } },
{ "type": "Feature", "properties": { "crown_id": 2950, "tree_id": "2951", "top_h_m": 20.452, "H_95_Mean": 20.4305, "DBH": 26.7983, "Carbon_kg": 137.329332, "area_m2": 12.75 }, "geometry": { "type": "Polygon", "coordinates": [ [ [ 117.311380087975692, 42.410169740145314 ], [ 117.311392240879371, 42.410169707135232 ], [ 117.311392196333415, 42.410160701247051 ], [ 117.311398272784388, 42.410160684741534 ], [ 117.311398139143961, 42.410133667076934 ], [ 117.311404215592304, 42.41013365057109 ], [ 117.311404126497052, 42.410115638794636 ], [ 117.31138589715718, 42.410115688311116 ], [ 117.311385874884706, 42.410111185366993 ], [ 117.311379798438495, 42.410111201871835 ], [ 117.311379776166447, 42.410106698927699 ], [ 117.311373699720676, 42.410106715432214 ], [ 117.311373655177434, 42.410097709543926 ], [ 117.311367578732558, 42.410097726048122 ], [ 117.311367667817294, 42.410115737824704 ], [ 117.311361591370627, 42.410115754328594 ], [ 117.311361635912164, 42.41012476021686 ], [ 117.311367712359683, 42.41012474371297 ], [ 117.311367734630892, 42.4101292466571 ], [ 117.311373811078838, 42.410129230152883 ], [ 117.311373966980469, 42.410160750761683 ], [ 117.311380043431456, 42.410160734257119 ], [ 117.311380087975692, 42.410169740145314 ] ], [ [ 117.311379909798845, 42.410133716592483 ], [ 117.311379842982618, 42.410120207760109 ], [ 117.311398072323811, 42.410120158244588 ], [ 117.311398139143961, 42.410133667076934 ], [ 117.311379909798845, 42.410133716592483 ] ] ] } },
{ "type": "Feature", "properties": { "crown_id": 2972, "tree_id": "2973", "top_h_m": 20.443, "H_95_Mean": 20.7311, "DBH": 25.668, "Carbon_kg": 126.997397, "area_m2": 10.5 }, "geometry": { "type": "Polygon", "coordinates": [ [ [ 117.311307103752426, 42.41015642934638 ], [ 117.31131318020303, 42.410156412845375 ], [ 117.311313135668399, 42.410147406957115 ], [ 117.311319212118121, 42.410147390455791 ], [ 117.311319145314869, 42.410133881623366 ], [ 117.31131306886644, 42.410133898124684 ], [ 117.311313024331866, 42.410124892236375 ], [ 117.311306947884304, 42.410124908737373 ], [ 117.311306925617444, 42.410120405793215 ], [ 117.311288696276023, 42.410120455294248 ], [ 117.311288740807143, 42.410129461182578 ], [ 117.311282664359112, 42.410129477682268 ], [ 117.311282686624239, 42.410133980626441 ], [ 117.311276610175796, 42.410133997125818 ], [ 117.311276632440482, 42.410138500069991 ], [ 117.311270555991584, 42.410138516569049 ], [ 117.311270600520132, 42.410147522457372 ], [ 117.311276676969911, 42.4101475059583 ], [ 117.311276699234625, 42.41015200890245 ], [ 117.311307081485538, 42.410151926402243 ], [ 117.311307103752426, 42.41015642934638 ] ] ] } }
]
}
