{
"type": "FeatureCollection",
"name": "tile_6_19",
"crs": { "type": "name", "properties": { "name": "urn:ogc:def:crs:OGC:1.3:CRS84" } },
"features": [
{ "type": "Feature", "properties": { "crown_id": 2147, "tree_id": "2148", "top_h_m": 22.196, "H_95_Mean": 22.2316, "DBH": 36.8899, "Carbon_kg": 274.925788, "area_m2": 37.75 }, "geometry": { "type": "Polygon", "coordinates": [ [ [ 117.314395604102472, 42.410481223116378 ], [ 117.314425986503224, 42.410481139789077 ], [ 117.314425964012997, 42.410476636846539 ], [ 117.314432040492704, 42.41047662018012 ], [ 117.314432018002037, 42.410472117237568 ], [ 117.314444170960556, 42.41047208390377 ], [ 117.314444148469022, 42.410467580961232 ], [ 117.314450224947848, 42.410467564293853 ], [ 117.314450179963941, 42.41045855840877 ], [ 117.314456256441886, 42.410458541741072 ], [ 117.314456121487694, 42.410431524085759 ], [ 117.314450045012379, 42.410431540753443 ], [ 117.314450022520461, 42.410427037810891 ], [ 117.314443946045543, 42.410427054478241 ], [ 117.314443878571154, 42.41041354565052 ], [ 117.314437802097544, 42.410413562317544 ], [ 117.314437779606507, 42.41040905937497 ], [ 117.314425626660153, 42.410409092708058 ], [ 117.314425649150323, 42.410413595650645 ], [ 117.314401343255795, 42.410413662312976 ], [ 117.314401410721089, 42.410427171140753 ], [ 117.314395334246129, 42.410427187805546 ], [ 117.314395356734124, 42.410431690748126 ], [ 117.314389280258723, 42.410431707412577 ], [ 117.31438932523389, 42.410440713297767 ], [ 117.314383248757622, 42.410440729961906 ], [ 117.314383316219079, 42.410454238789647 ], [ 117.314377239741518, 42.41045425545348 ], [ 117.3143773521752, 42.410476770166333 ], [ 117.314383428654935, 42.410476753502479 ], [ 117.314383406167764, 42.41047225055992 ], [ 117.314389482647073, 42.41047223389576 ], [ 117.314389505134685, 42.410476736838312 ], [ 117.31439558161442, 42.410476720173818 ], [ 117.314395604102472, 42.410481223116378 ] ] ] } },
{ "type": "Feature", "properties": { "crown_id": 2148, "tree_id": "2149", "top_h_m": 21.547, "H_95_Mean": 21.9968, "DBH": 34.8165, "Carbon_kg": 243.138789, "area_m2": 30.75 }, "geometry": { "type": "Polygon", "coordinates": [ [ [ 117.314517088711227, 42.410471883873868 ], [ 117.314541394627952, 42.410471817186938 ], [ 117.314541349631, 42.41046281130194 ], [ 117.3145352731527, 42.41046282797415 ], [ 117.314535160662587, 42.410440313261596 ], [ 117.314516931234166, 42.410440363276265 ], [ 117.314516863744075, 42.410426854448666 ], [ 117.314510787269214, 42.410426871119569 ], [ 117.314510764772976, 42.410422368177024 ], [ 117.314480382400816, 42.410422451526699 ], [ 117.314480359906739, 42.410417948584126 ], [ 117.31447428343273, 42.410417965253103 ], [ 117.314474260939107, 42.410413462310537 ], [ 117.314449955044765, 42.41041352898317 ], [ 117.314450000028543, 42.410422534868317 ], [ 117.314456076503021, 42.410422518200647 ], [ 117.314456098995365, 42.410427021143207 ], [ 117.314462175470254, 42.410427004475203 ], [ 117.314462355412644, 42.410463028015585 ], [ 117.314456278934287, 42.41046304468361 ], [ 117.314456301426659, 42.410467547626148 ], [ 117.314517066214492, 42.410467380931365 ], [ 117.314517088711227, 42.410471883873868 ] ] ] } },
{ "type": "Feature", "properties": { "crown_id": 2194, "tree_id": "2195", "top_h_m": 20.94, "H_95_Mean": 20.9433, "DBH": 32.5786, "Carbon_kg": 206.583354, "area_m2": 26.0 }, "geometry": { "type": "Polygon", "coordinates": [ [ [ 117.314346879838155, 42.410458841710415 ], [ 117.314371185750232, 42.410458775059574 ], [ 117.314371140777652, 42.410449769174413 ], [ 117.314377217254801, 42.4104497525109 ], [ 117.314377149794652, 42.410436243683151 ], [ 117.314383226270493, 42.410436227019318 ], [ 117.314383181296236, 42.410427221134135 ], [ 117.314389257771168, 42.410427204469997 ], [ 117.314389235283627, 42.410422701527402 ], [ 117.314395311758133, 42.410422684862944 ], [ 117.314395266782157, 42.41041367897774 ], [ 117.314377037361197, 42.410413728970134 ], [ 117.314376992387849, 42.410404723084916 ], [ 117.314370915915049, 42.410404739748394 ], [ 117.314370870942597, 42.410395733863155 ], [ 117.314352641526796, 42.410395783851648 ], [ 117.314352664011722, 42.410400286794285 ], [ 117.314346587539347, 42.410400303456477 ], [ 117.314346610023833, 42.4104048063991 ], [ 117.314340533551018, 42.410404823060972 ], [ 117.314340556035063, 42.410409326003617 ], [ 117.314334479561808, 42.410409342665169 ], [ 117.314334502045455, 42.410413845607792 ], [ 117.314328425571745, 42.410413862269031 ], [ 117.314328470538172, 42.410422868154285 ], [ 117.314322394063595, 42.410422884815198 ], [ 117.314322416546375, 42.410427387757828 ], [ 117.314316340071372, 42.410427404418421 ], [ 117.314316362553711, 42.410431907361044 ], [ 117.314328515504599, 42.410431874039524 ], [ 117.314328582954289, 42.410445382867351 ], [ 117.31433465943104, 42.410445366206105 ], [ 117.314334704398377, 42.410454372091294 ], [ 117.314346857353598, 42.410454338767821 ], [ 117.314346879838155, 42.410458841710415 ] ], [ [ 117.314340758391879, 42.410449852487126 ], [ 117.314340735907777, 42.410445349544524 ], [ 117.314346812384485, 42.410445332882631 ], [ 117.314346834869056, 42.410449835825226 ], [ 117.314340758391879, 42.410449852487126 ] ], [ [ 117.31433465943104, 42.410445366206105 ], [ 117.314334636947365, 42.410440863263503 ], [ 117.314340713423675, 42.410440846601929 ], [ 117.314340735907777, 42.410445349544524 ], [ 117.31433465943104, 42.410445366206105 ] ] ] } },
{ "type": "Feature", "properties": { "crown_id": 2213, "tree_id": "2214", "top_h_m": 20.633, "H_95_Mean": 20.3276, "DBH": 36.345, "Carbon_kg": 253.041099, "area_m2": 42.0 }, "geometry": { "type": "Polygon", "coordinates": [ [ [ 117.314565745545039, 42.410480756379798 ], [ 117.314577898505078, 42.41048072303181 ], [ 117.314577831001799, 42.410467214204381 ], [ 117.314589983959209, 42.410467180855115 ], [ 117.314590006461145, 42.410471683797581 ], [ 117.314602159419408, 42.410471650447036 ], [ 117.314602114413773, 42.410462644562102 ], [ 117.314596037935502, 42.410462661237538 ], [ 117.314596015433125, 42.41045815829505 ], [ 117.314608168388745, 42.410458124943865 ], [ 117.314608123382271, 42.41044911905891 ], [ 117.314602046905335, 42.410449135734659 ], [ 117.314601934391405, 42.410426621022204 ], [ 117.314608010866152, 42.410426604346455 ], [ 117.314607988362965, 42.410422101403952 ], [ 117.314577605991218, 42.410422184779407 ], [ 117.3145776509933, 42.410431190664418 ], [ 117.314559421567608, 42.410431240685838 ], [ 117.314559354068393, 42.41041773185826 ], [ 117.314553277594456, 42.410417748531415 ], [ 117.314553210096619, 42.410404239703809 ], [ 117.314547133623975, 42.41040425637663 ], [ 117.31454704362865, 42.410386244606435 ], [ 117.314534890686829, 42.410386277951076 ], [ 117.314534868188886, 42.410381775008524 ], [ 117.314522715247918, 42.410381808351893 ], [ 117.314522760242085, 42.410390814237033 ], [ 117.31451060729934, 42.410390847579123 ], [ 117.31451069728422, 42.410408859349367 ], [ 117.314504620811121, 42.410408876019943 ], [ 117.314504643306933, 42.410413378962502 ], [ 117.314498566833365, 42.410413395632744 ], [ 117.31449858932875, 42.410417898575304 ], [ 117.314516818750704, 42.410417848563569 ], [ 117.314516841247368, 42.410422351506121 ], [ 117.314522917721774, 42.410422334834905 ], [ 117.314522985213173, 42.410435843662505 ], [ 117.314541214640258, 42.410435793646869 ], [ 117.314541327132545, 42.410458308359438 ], [ 117.314547403610405, 42.410458291686915 ], [ 117.314547471107119, 42.410471800514387 ], [ 117.314571777023744, 42.410471733821012 ], [ 117.314571799524387, 42.410476236763479 ], [ 117.314565723044822, 42.410476253437317 ], [ 117.314565745545039, 42.410480756379798 ] ] ] } },
{ "type": "Feature", "properties": { "crown_id": 2271, "tree_id": "2272", "top_h_m": 20.71, "H_95_Mean": 20.4723, "DBH": 29.6262, "Carbon_kg": 168.306389, "area_m2": 18.75 }, "geometry": { "type": "Polygon", "coordinates": [ [ [ 117.314486436380761, 42.410417931914843 ], [ 117.314492512854756, 42.410417915245233 ], [ 117.314492467864866, 42.410408909360115 ], [ 117.314498544337994, 42.410408892690185 ], [ 117.314498521842651, 42.410404389747619 ], [ 117.31450459831531, 42.410404373077377 ], [ 117.314504530827961, 42.410390864249678 ], [ 117.314498454356595, 42.410390880919913 ], [ 117.314498431861239, 42.410386377977332 ], [ 117.314492355390271, 42.410386394647247 ], [ 117.314492310400496, 42.410377388762086 ], [ 117.314480157460295, 42.410377422100929 ], [ 117.314480134966288, 42.410372919158348 ], [ 117.314467982026954, 42.410372952495891 ], [ 117.314467959533786, 42.410368449553296 ], [ 117.314455806595319, 42.41036848288956 ], [ 117.314455851579893, 42.41037748877477 ], [ 117.314437622169521, 42.410377538776764 ], [ 117.314437644660487, 42.410382041719366 ], [ 117.314443721131042, 42.410382025052364 ], [ 117.314443811096808, 42.410400036822757 ], [ 117.314437734624491, 42.410400053489788 ], [ 117.314437757115513, 42.410404556432368 ], [ 117.314443833588228, 42.410404539765345 ], [ 117.314443856079691, 42.41040904270794 ], [ 117.314480314918612, 42.410408942699 ], [ 117.314480337412661, 42.410413445641566 ], [ 117.314486413886257, 42.410413428972291 ], [ 117.314486436380761, 42.410417931914843 ] ] ] } },
{ "type": "Feature", "properties": { "crown_id": 2299, "tree_id": "2300", "top_h_m": 18.74, "H_95_Mean": 19.098, "DBH": 33.413, "Carbon_kg": 205.844521, "area_m2": 34.0 }, "geometry": { "type": "MultiPolygon", "coordinates": [ [ [ [ 117.314352529102251, 42.410373269138439 ], [ 117.314352551587149, 42.410377772081084 ], [ 117.314358628057349, 42.410377755418594 ], [ 117.314358695513377, 42.410391264246506 ], [ 117.314376924927871, 42.410391214257054 ], [ 117.314376969901176, 42.410400220142293 ], [ 117.314383046373536, 42.410400203478488 ], [ 117.31438309134775, 42.410409209363728 ], [ 117.314419550186983, 42.410409109374129 ], [ 117.314419527697254, 42.410404606431513 ], [ 117.31443168064277, 42.410404573099079 ], [ 117.314431635661606, 42.410395567213882 ], [ 117.314437712133483, 42.410395550547186 ], [ 117.314437667151495, 42.410386544661982 ], [ 117.314431590680471, 42.410386561328671 ], [ 117.314431523208825, 42.410373052500852 ], [ 117.314437599678513, 42.410373035834155 ], [ 117.314437554696596, 42.410364029948909 ], [ 117.314461860571853, 42.410363963278968 ], [ 117.314461815586441, 42.41035495739375 ], [ 117.3144557391185, 42.410354974061718 ], [ 117.314455716626256, 42.410350471119081 ], [ 117.314394951950902, 42.410350637780972 ], [ 117.314394974438827, 42.410355140723624 ], [ 117.314388897970815, 42.410355157388047 ], [ 117.314388965433281, 42.410368666215973 ], [ 117.314376812494658, 42.410368699543866 ], [ 117.314376834981303, 42.410373202486525 ], [ 117.314352529102251, 42.410373269138439 ] ] ], [ [ [ 117.314352529102251, 42.410373269138439 ], [ 117.314352506617368, 42.410368766195774 ], [ 117.314346430148021, 42.410368782857958 ], [ 117.314346452632492, 42.410373285800617 ], [ 117.314352529102251, 42.410373269138439 ] ] ] ] } },
{ "type": "Feature", "properties": { "crown_id": 2314, "tree_id": "2315", "top_h_m": 19.908, "H_95_Mean": 20.2339, "DBH": 29.049, "Carbon_kg": 160.646008, "area_m2": 17.75 }, "geometry": { "type": "Polygon", "coordinates": [ [ [ 117.314565430542345, 42.410417715184792 ], [ 117.31460188938587, 42.410417615137185 ], [ 117.314601866883081, 42.410413112194675 ], [ 117.314595790409626, 42.410413128870076 ], [ 117.314595677898069, 42.410390614157464 ], [ 117.314601754369363, 42.410390597482071 ], [ 117.314601686861195, 42.410377088654457 ], [ 117.314577380981177, 42.410377155354055 ], [ 117.314577335979223, 42.410368149468944 ], [ 117.314565183040912, 42.410368182816796 ], [ 117.314565205541015, 42.41037268575937 ], [ 117.314546976132249, 42.410372735778751 ], [ 117.31454699863103, 42.41037723872131 ], [ 117.314540922161015, 42.410377255393797 ], [ 117.31454094465937, 42.410381758336371 ], [ 117.314553097600324, 42.410381724991069 ], [ 117.314553187597355, 42.410399736761264 ], [ 117.314559264069558, 42.41039972008813 ], [ 117.314559331568702, 42.410413228915743 ], [ 117.314565408042185, 42.410413212242261 ], [ 117.314565430542345, 42.410417715184792 ] ] ] } },
{ "type": "Feature", "properties": { "crown_id": 2380, "tree_id": "2381", "top_h_m": 18.74, "H_95_Mean": 19.0801, "DBH": 27.2795, "Carbon_kg": 136.702347, "area_m2": 15.5 }, "geometry": { "type": "Polygon", "coordinates": [ [ [ 117.314358583086701, 42.410368749533284 ], [ 117.314370736025353, 42.41036871620733 ], [ 117.314370713539162, 42.410364213264685 ], [ 117.314382866476919, 42.410364179937439 ], [ 117.314382799015775, 42.410350671109484 ], [ 117.314388875483345, 42.410350654445388 ], [ 117.314388852995862, 42.410346151502743 ], [ 117.314370623594442, 42.41034620149405 ], [ 117.314370578622132, 42.410337195608712 ], [ 117.314346272756978, 42.410337262259269 ], [ 117.314346250272564, 42.410332759316567 ], [ 117.314321944409059, 42.410332825961952 ], [ 117.31432196689174, 42.410337328904667 ], [ 117.314303737492764, 42.41033737888533 ], [ 117.314303759974152, 42.410341881828039 ], [ 117.314315912907688, 42.410341848507905 ], [ 117.314315935389928, 42.410346351450592 ], [ 117.314322011857129, 42.410346334790034 ], [ 117.31432203433981, 42.410350837732722 ], [ 117.314328110807438, 42.410350821071845 ], [ 117.314328133290573, 42.410355324014539 ], [ 117.314334209758613, 42.410355307353335 ], [ 117.31433425472575, 42.410364313238659 ], [ 117.314358560601377, 42.410364246590632 ], [ 117.314358583086701, 42.410368749533284 ] ] ] } },
{ "type": "Feature", "properties": { "crown_id": 2381, "tree_id": "2382", "top_h_m": 20.818, "H_95_Mean": 20.6848, "DBH": 31.0232, "Carbon_kg": 185.816539, "area_m2": 22.0 }, "geometry": { "type": "Polygon", "coordinates": [ [ [ 117.314504508332178, 42.410386361307097 ], [ 117.314516661274055, 42.410386327965668 ], [ 117.314516616280784, 42.410377322080521 ], [ 117.314534845690957, 42.410377272065965 ], [ 117.314534823193014, 42.410372769123398 ], [ 117.314540899662632, 42.410372752451231 ], [ 117.314540764672515, 42.410345734795726 ], [ 117.314516458804476, 42.410345801482386 ], [ 117.314516436307883, 42.410341298539777 ], [ 117.314467824575019, 42.410341431897592 ], [ 117.31446784706813, 42.410345934840223 ], [ 117.314461770601056, 42.410345951508496 ], [ 117.31446179309377, 42.41035045445112 ], [ 117.314467869561241, 42.410350437782839 ], [ 117.314467937040661, 42.410363946610694 ], [ 117.314474013509454, 42.410363929942072 ], [ 117.31447403600302, 42.410368432884667 ], [ 117.314486188941501, 42.410368399546485 ], [ 117.314486211435934, 42.410372902489073 ], [ 117.31449836437524, 42.410372869149583 ], [ 117.314498409365896, 42.410381875034759 ], [ 117.314504485836423, 42.410381858364516 ], [ 117.314504508332178, 42.410386361307097 ] ] ] } },
{ "type": "Feature", "properties": { "crown_id": 2382, "tree_id": "2383", "top_h_m": 21.26, "H_95_Mean": 20.9011, "DBH": 30.5179, "Carbon_kg": 180.876484, "area_m2": 20.25 }, "geometry": { "type": "Polygon", "coordinates": [ [ [ 117.314583434949768, 42.410372635737083 ], [ 117.314601664358463, 42.410372585711912 ], [ 117.314601439331597, 42.410327556286276 ], [ 117.314577133470721, 42.410327622985768 ], [ 117.314577110969793, 42.410323120043181 ], [ 117.314558881575365, 42.410323170064402 ], [ 117.314558904075, 42.410327673006996 ], [ 117.314552827609731, 42.410327689680095 ], [ 117.314552872608118, 42.410336695565299 ], [ 117.314546796141983, 42.410336712238085 ], [ 117.314546953633439, 42.410368232836177 ], [ 117.314559106571778, 42.41036819949025 ], [ 117.314559084072101, 42.410363696547684 ], [ 117.314583389946961, 42.410363629851972 ], [ 117.314583434949768, 42.410372635737083 ] ] ] } },
{ "type": "Feature", "properties": { "crown_id": 2446, "tree_id": "2447", "top_h_m": 16.284, "H_95_Mean": 16.442, "DBH": 21.5922, "Carbon_kg": 78.144858, "area_m2": 8.25 }, "geometry": { "type": "Polygon", "coordinates": [ [ [ 117.314394929462992, 42.410346134838321 ], [ 117.314413158864355, 42.410346084843141 ], [ 117.314413046418366, 42.410323570129862 ], [ 117.314406969953424, 42.410323586795215 ], [ 117.314406992442187, 42.410328089737888 ], [ 117.31438876304604, 42.410328139732066 ], [ 117.31438874055857, 42.4103236367894 ], [ 117.314382664093614, 42.410323653453474 ], [ 117.314382641606613, 42.410319150510801 ], [ 117.314364412212996, 42.410319200501092 ], [ 117.314364457184411, 42.41032820638646 ], [ 117.314352304253575, 42.410328239711731 ], [ 117.314352326738415, 42.410332742654418 ], [ 117.314376632601821, 42.410332676002582 ], [ 117.314376677574998, 42.410341681887935 ], [ 117.314394906975096, 42.410341631895669 ], [ 117.314394929462992, 42.410346134838321 ] ] ] } },
{ "type": "Feature", "properties": { "crown_id": 2447, "tree_id": "2448", "top_h_m": 19.164, "H_95_Mean": 19.1828, "DBH": 30.4444, "Carbon_kg": 171.094214, "area_m2": 23.5 }, "geometry": { "type": "Polygon", "coordinates": [ [ [ 117.314522512774474, 42.410341281868604 ], [ 117.314540742174188, 42.410341231853145 ], [ 117.314540697177534, 42.410332225967935 ], [ 117.314546773643229, 42.410332209295476 ], [ 117.31454668364826, 42.410314197525047 ], [ 117.314540607184298, 42.410314214197498 ], [ 117.314540584685986, 42.410309711254882 ], [ 117.314528431758944, 42.410309744598806 ], [ 117.314528409261513, 42.410305241656182 ], [ 117.31451625633531, 42.410305274998819 ], [ 117.314516211342209, 42.41029626911353 ], [ 117.314504058417711, 42.41029630245486 ], [ 117.314504080913395, 42.410300805397519 ], [ 117.314473698599883, 42.410300888745226 ], [ 117.314473721093407, 42.410305391687878 ], [ 117.314467644630255, 42.41030540835645 ], [ 117.314467667123338, 42.410309911299102 ], [ 117.31447374358693, 42.410309894630529 ], [ 117.314473833560996, 42.410327906401101 ], [ 117.314467757095684, 42.410327923069687 ], [ 117.314467802081907, 42.410336928954962 ], [ 117.31452249027744, 42.410336778925995 ], [ 117.314522512774474, 42.410341281868604 ] ] ] } },
{ "type": "Feature", "properties": { "crown_id": 2487, "tree_id": "2488", "top_h_m": 16.94, "H_95_Mean": 17.1053, "DBH": 27.3756, "Carbon_kg": 129.059316, "area_m2": 19.25 }, "geometry": { "type": "Polygon", "coordinates": [ [ [ 117.314419235331457, 42.410346068177446 ], [ 117.314455694133983, 42.410345968176451 ], [ 117.314455671641738, 42.410341465233834 ], [ 117.314461748108386, 42.410341448565866 ], [ 117.314461658137688, 42.410323436795323 ], [ 117.314467734602601, 42.410323420127042 ], [ 117.314467689616393, 42.410314414241746 ], [ 117.314461613152375, 42.410314430910027 ], [ 117.314461545674476, 42.410300922082058 ], [ 117.314467622137187, 42.410300905413798 ], [ 117.314467599644104, 42.410296402471133 ], [ 117.314431140870326, 42.410296502475802 ], [ 117.314431163360794, 42.410301005418489 ], [ 117.314419010435273, 42.410301038750809 ], [ 117.314419235331457, 42.410346068177446 ] ] ] } },
{ "type": "Feature", "properties": { "crown_id": 2499, "tree_id": "2500", "top_h_m": 19.47, "H_95_Mean": 19.5541, "DBH": 23.9934, "Carbon_kg": 107.084487, "area_m2": 9.0 }, "geometry": { "type": "Polygon", "coordinates": [ [ [ 117.314583187434579, 42.410323103368782 ], [ 117.314601416828921, 42.410323053343696 ], [ 117.314601394326274, 42.410318550401115 ], [ 117.314607470790619, 42.410318533725437 ], [ 117.314607425784445, 42.410309527840255 ], [ 117.314601349320981, 42.410309544515918 ], [ 117.314601326818362, 42.410305041573331 ], [ 117.31459525035531, 42.410305058248667 ], [ 117.314595227853118, 42.410300555306065 ], [ 117.314589151390493, 42.410300571981089 ], [ 117.31458910638699, 42.410291566095857 ], [ 117.314583029925245, 42.410291582770554 ], [ 117.314583052426542, 42.410296085713163 ], [ 117.314576975964357, 42.410296102387534 ], [ 117.314576998465256, 42.41030060533015 ], [ 117.31457092200263, 42.410300622004208 ], [ 117.314570944503103, 42.410305124946817 ], [ 117.314552715113862, 42.410305174967043 ], [ 117.314552782611372, 42.410318683794898 ], [ 117.314583164933225, 42.410318600426194 ], [ 117.314583187434579, 42.410323103368782 ] ] ] } },
{ "type": "Feature", "properties": { "crown_id": 2561, "tree_id": "2562", "top_h_m": 18.079, "H_95_Mean": 19.4021, "DBH": 27.2665, "Carbon_kg": 137.929616, "area_m2": 15.0 }, "geometry": { "type": "Polygon", "coordinates": [ [ [ 117.31439481702354, 42.410323620124991 ], [ 117.314400893488497, 42.410323603460263 ], [ 117.31440087100016, 42.410319100517597 ], [ 117.314413023929191, 42.410319067187196 ], [ 117.314412821526787, 42.410278540703032 ], [ 117.3144006686056, 42.410278574033384 ], [ 117.314400601140832, 42.410265065205252 ], [ 117.314388448222246, 42.41026509853431 ], [ 117.314388493196986, 42.410274104419742 ], [ 117.314382416736819, 42.410274121083802 ], [ 117.314382439223763, 42.41027862402651 ], [ 117.314376362763156, 42.410278640690244 ], [ 117.314376542655509, 42.410314664231855 ], [ 117.314388695583702, 42.410314630904026 ], [ 117.314388718071143, 42.41031913384672 ], [ 117.314394794535659, 42.410319117182325 ], [ 117.31439481702354, 42.410323620124991 ] ] ] } }
]
}
