{
"type": "FeatureCollection",
"name": "tile_10_14",
"crs": { "type": "name", "properties": { "name": "urn:ogc:def:crs:OGC:1.3:CRS84" } },
"features": [
{ "type": "Feature", "properties": { "crown_id": 3859, "tree_id": "3862", "top_h_m": 21.189, "H_95_Mean": 21.1598, "DBH": 24.1645, "Carbon_kg": 113.819832, "area_m2": 8.0 }, "geometry": { "type": "MultiPolygon", "coordinates": [ [ [ [ 117.31333475537528, 42.409772652851828 ], [ 117.313346908200046, 42.409772619634779 ], [ 117.313346885787567, 42.409768116691218 ], [ 117.313352962199502, 42.409768100082211 ], [ 117.313352894960744, 42.409754591251513 ], [ 117.313346818550102, 42.409754607860506 ], [ 117.313346706487806, 42.409732093142594 ], [ 117.31335278289626, 42.409732076533615 ], [ 117.313352760483397, 42.409727573590025 ], [ 117.313340607667314, 42.409727606807664 ], [ 117.313340652491362, 42.409736612694857 ], [ 117.313334576082426, 42.409736629303197 ], [ 117.313334643317219, 42.409750138133958 ], [ 117.313316414086529, 42.40975018795708 ], [ 117.313316458907138, 42.409759193844245 ], [ 117.313322535318235, 42.40975917723685 ], [ 117.313322557728981, 42.409763680180433 ], [ 117.313328634140504, 42.409763663572718 ], [ 117.31332865655169, 42.409768166516301 ], [ 117.313334732963639, 42.40976814990826 ], [ 117.31333475537528, 42.409772652851828 ] ] ], [ [ [ 117.313352962199502, 42.409768100082211 ], [ 117.313352984612408, 42.409772603025779 ], [ 117.313359061024798, 42.409772586416452 ], [ 117.313359038611424, 42.409768083472883 ], [ 117.313352962199502, 42.409768100082211 ] ] ] ] } },
{ "type": "Feature", "properties": { "crown_id": 3927, "tree_id": "3930", "top_h_m": 18.87, "H_95_Mean": 19.1982, "DBH": 25.6141, "Carbon_kg": 120.843314, "area_m2": 12.0 }, "geometry": { "type": "Polygon", "coordinates": [ [ [ 117.313298162446827, 42.409745734833677 ], [ 117.313304238856645, 42.409745718227271 ], [ 117.313304194037826, 42.409736712340077 ], [ 117.313322423264594, 42.409736662518903 ], [ 117.313322468086042, 42.409745668406096 ], [ 117.313328544495832, 42.409745651798389 ], [ 117.31332847726236, 42.40973214296762 ], [ 117.31333455367087, 42.409732126359593 ], [ 117.313334508847717, 42.409723120472393 ], [ 117.31335273807052, 42.409723070646422 ], [ 117.313352715657658, 42.409718567702832 ], [ 117.313346639250483, 42.409718584311804 ], [ 117.313346616838047, 42.4097140813682 ], [ 117.313340540431341, 42.409714097976853 ], [ 117.313340518019345, 42.409709595033242 ], [ 117.313304059581455, 42.409709694678369 ], [ 117.313304081990822, 42.409714197621987 ], [ 117.313291929177282, 42.40971423083446 ], [ 117.313291973994325, 42.409723236721717 ], [ 117.313285897586667, 42.409723253327464 ], [ 117.313285919994769, 42.409727756271096 ], [ 117.313298072810923, 42.409727723059255 ], [ 117.313298162446827, 42.409745734833677 ] ] ] } },
{ "type": "Feature", "properties": { "crown_id": 4021, "tree_id": "4024", "top_h_m": 22.06, "H_95_Mean": 21.7027, "DBH": 42.2415, "Carbon_kg": 356.12759, "area_m2": 66.75 }, "geometry": { "type": "Polygon", "coordinates": [ [ [ 117.313182777861655, 42.409759559125305 ], [ 117.31318885427288, 42.409759542525002 ], [ 117.313188831871699, 42.40975503958137 ], [ 117.313213137514751, 42.409754973176938 ], [ 117.31321311511185, 42.40975047023332 ], [ 117.31321919152218, 42.40975045363141 ], [ 117.313219146715483, 42.409741447744132 ], [ 117.313231299534365, 42.409741414539361 ], [ 117.313231254725977, 42.409732408652083 ], [ 117.313243407543098, 42.40973237544604 ], [ 117.313243385138051, 42.409727872502394 ], [ 117.313249461546164, 42.409727855898893 ], [ 117.313249439140691, 42.409723352955254 ], [ 117.31323728632529, 42.409723386161936 ], [ 117.313237219111471, 42.409709877330982 ], [ 117.313243295517864, 42.409709860727808 ], [ 117.313243250707814, 42.409700854840494 ], [ 117.313237174302287, 42.409700871443668 ], [ 117.313237017470314, 42.40966935083793 ], [ 117.313218788262859, 42.409669400645448 ], [ 117.313218743456375, 42.409660394758049 ], [ 117.31320659065311, 42.409660427961434 ], [ 117.313206545848388, 42.409651422074013 ], [ 117.313194393046828, 42.409651455276112 ], [ 117.313194370645348, 42.409646952332388 ], [ 117.313182217844655, 42.409646985533186 ], [ 117.313182240245283, 42.409651488476911 ], [ 117.313176163844489, 42.409651505076823 ], [ 117.313176231045077, 42.409665013908004 ], [ 117.313170154642989, 42.409665030507604 ], [ 117.31317017704275, 42.409669533451321 ], [ 117.313139795030025, 42.409669616444532 ], [ 117.313139817427611, 42.409674119388256 ], [ 117.313127664621632, 42.409674152583285 ], [ 117.313127731811846, 42.409687661414459 ], [ 117.313133808216179, 42.409687644817097 ], [ 117.313133785818991, 42.409683141873387 ], [ 117.313139862222855, 42.409683125275699 ], [ 117.313139907018098, 42.409692131163119 ], [ 117.313145983422828, 42.409692114565111 ], [ 117.313146073015076, 42.409710126339924 ], [ 117.313152149421541, 42.409710109741589 ], [ 117.313152194218588, 42.40971911562896 ], [ 117.313170423440553, 42.409719065831993 ], [ 117.313170513039907, 42.409737077606671 ], [ 117.313176589448958, 42.409737061007036 ], [ 117.31317665664983, 42.409750569837996 ], [ 117.313182733060188, 42.40975055323802 ], [ 117.313182777861655, 42.409759559125305 ] ], [ [ 117.313188764668212, 42.409741530750431 ], [ 117.313188697464739, 42.409728021919442 ], [ 117.313206926689219, 42.409727972116663 ], [ 117.313206993896586, 42.409741480947623 ], [ 117.313188764668212, 42.409741530750431 ] ], [ [ 117.3131641902376, 42.409687561825457 ], [ 117.313164167838252, 42.409683058881754 ], [ 117.313170244242087, 42.40968304228246 ], [ 117.313170266641876, 42.409687545226156 ], [ 117.3131641902376, 42.409687561825457 ] ] ] } },
{ "type": "Feature", "properties": { "crown_id": 4031, "tree_id": "4034", "top_h_m": 17.877, "H_95_Mean": 18.4495, "DBH": 28.0973, "Carbon_kg": 142.232246, "area_m2": 18.5 }, "geometry": { "type": "Polygon", "coordinates": [ [ [ 117.313243340327958, 42.409718866615108 ], [ 117.313285875178593, 42.409718750383846 ], [ 117.313285830362418, 42.409709744496574 ], [ 117.313297983175119, 42.409709711284769 ], [ 117.313297893539371, 42.409691699510212 ], [ 117.313291817134768, 42.409691716116264 ], [ 117.313291749909311, 42.409678207285317 ], [ 117.31325529148944, 42.409678306914863 ], [ 117.313255246677713, 42.40966930102752 ], [ 117.313243093872785, 42.409669334234785 ], [ 117.313243228302795, 42.409696351896834 ], [ 117.313249304707881, 42.40969633529334 ], [ 117.313249394329731, 42.409714347067961 ], [ 117.313243317922911, 42.409714363671455 ], [ 117.313243340327958, 42.409718866615108 ] ] ] } },
{ "type": "Feature", "properties": { "crown_id": 4099, "tree_id": "4102", "top_h_m": 19.67, "H_95_Mean": 21.0955, "DBH": 30.2546, "Carbon_kg": 178.720934, "area_m2": 19.25 }, "geometry": { "type": "Polygon", "coordinates": [ [ [ 117.31329787113043, 42.409687196566566 ], [ 117.313310023938755, 42.409687163353475 ], [ 117.313309844660608, 42.409651139804225 ], [ 117.313303768259942, 42.409651156410909 ], [ 117.313303701032027, 42.409637647579871 ], [ 117.313291548233238, 42.409637680792258 ], [ 117.313291525824837, 42.409633177848569 ], [ 117.313279373026916, 42.409633211059649 ], [ 117.313279350619354, 42.409628708115953 ], [ 117.313267197822285, 42.409628741325754 ], [ 117.31326722022898, 42.40963324426945 ], [ 117.313261143830005, 42.409633260873868 ], [ 117.313261166236245, 42.409637763817578 ], [ 117.313255089836829, 42.409637780421676 ], [ 117.313255157054314, 42.409651289252771 ], [ 117.313261233455023, 42.409651272648667 ], [ 117.313261345486453, 42.40967378736709 ], [ 117.313297803903708, 42.409673687735598 ], [ 117.31329787113043, 42.409687196566566 ] ] ] } },
{ "type": "Feature", "properties": { "crown_id": 4128, "tree_id": "4131", "top_h_m": 18.605, "H_95_Mean": 18.6475, "DBH": 23.2869, "Carbon_kg": 98.03271, "area_m2": 8.75 }, "geometry": { "type": "Polygon", "coordinates": [ [ [ 117.313127642224913, 42.409669649639547 ], [ 117.313133718627455, 42.409669633042192 ], [ 117.313133696230295, 42.409665130098468 ], [ 117.313164078240874, 42.409665047106891 ], [ 117.313164055841554, 42.409660544163152 ], [ 117.313170132243215, 42.409660527563872 ], [ 117.313170087443694, 42.409651521676423 ], [ 117.313157934642092, 42.40965155487465 ], [ 117.313157889844334, 42.409642548987179 ], [ 117.313151813444406, 42.409642565585806 ], [ 117.313151791045982, 42.40963806264206 ], [ 117.313133561847422, 42.409638112435985 ], [ 117.313133606641699, 42.409647118323498 ], [ 117.313127530241317, 42.409647134920831 ], [ 117.313127552638022, 42.409651637864592 ], [ 117.313115399836335, 42.409651671058299 ], [ 117.313115422232173, 42.409656174002052 ], [ 117.313127575034727, 42.40965614080833 ], [ 117.313127642224913, 42.409669649639547 ] ] ] } },
{ "type": "Feature", "properties": { "crown_id": 4129, "tree_id": "4132", "top_h_m": 20.485, "H_95_Mean": 21.0866, "DBH": 31.7562, "Carbon_kg": 197.000407, "area_m2": 23.25 }, "geometry": { "type": "Polygon", "coordinates": [ [ [ 117.313328275562299, 42.409691616475072 ], [ 117.313340428371433, 42.409691583258763 ], [ 117.313340405959465, 42.409687080315145 ], [ 117.313352558767718, 42.409687047097549 ], [ 117.313352536354884, 42.409682544153924 ], [ 117.313364689162228, 42.409682510935049 ], [ 117.313364621921153, 42.40966900210416 ], [ 117.313358545518795, 42.409669018713757 ], [ 117.313358366213009, 42.40963299516455 ], [ 117.313321907819528, 42.409633094815206 ], [ 117.313321885408925, 42.409628591871517 ], [ 117.313309732611927, 42.409628625085837 ], [ 117.313309822250872, 42.409646636860558 ], [ 117.313315898651098, 42.409646620253561 ], [ 117.313316100342902, 42.409687146746457 ], [ 117.313328253151198, 42.40968711353144 ], [ 117.313328275562299, 42.409691616475072 ] ] ] } },
{ "type": "Feature", "properties": { "crown_id": 4194, "tree_id": "4197", "top_h_m": 20.56, "H_95_Mean": 20.7758, "DBH": 22.9299, "Carbon_kg": 101.300009, "area_m2": 6.75 }, "geometry": { "type": "Polygon", "coordinates": [ [ [ 117.313163988643581, 42.409647035331965 ], [ 117.313176141444302, 42.409647002133106 ], [ 117.31317611904413, 42.409642499189374 ], [ 117.313194348243854, 42.409642449388663 ], [ 117.313194281039443, 42.409628940557468 ], [ 117.313188204640852, 42.409628957158006 ], [ 117.313188159838788, 42.409619951270521 ], [ 117.313169930645557, 42.409620001070223 ], [ 117.313169953045289, 42.409624504013969 ], [ 117.313157800248902, 42.409624537212174 ], [ 117.313157867445469, 42.409638046043433 ], [ 117.313163943844984, 42.409638029444487 ], [ 117.313163988643581, 42.409647035331965 ] ] ] } },
{ "type": "Feature", "properties": { "crown_id": 4200, "tree_id": "4203", "top_h_m": 19.405, "H_95_Mean": 20.3484, "DBH": 30.3225, "Carbon_kg": 175.742048, "area_m2": 20.75 }, "geometry": { "type": "Polygon", "coordinates": [ [ [ 117.313224842261647, 42.409664881099573 ], [ 117.313255224271856, 42.409664798083838 ], [ 117.313255179460157, 42.40965579219646 ], [ 117.313249103059007, 42.409655808800252 ], [ 117.31324899103204, 42.409633294081736 ], [ 117.313255067431015, 42.409633277477965 ], [ 117.313255045025201, 42.409628774534262 ], [ 117.31326112142375, 42.409628757930165 ], [ 117.31326109901751, 42.40962425498644 ], [ 117.31323679342502, 42.409624321400877 ], [ 117.313236748616035, 42.40961531551342 ], [ 117.313230672218765, 42.409615332116225 ], [ 117.313230627410675, 42.40960632622874 ], [ 117.313212398221467, 42.409606376035185 ], [ 117.313212420624197, 42.409610878978931 ], [ 117.313206344227353, 42.409610895580443 ], [ 117.313206389031976, 42.409619901467927 ], [ 117.313194236236527, 42.409619934669976 ], [ 117.313194258637992, 42.409624437613722 ], [ 117.313200335036157, 42.409624421012857 ], [ 117.313200447045674, 42.409646935731509 ], [ 117.313212599846338, 42.409646902528777 ], [ 117.313212644651927, 42.409655908416205 ], [ 117.313224797454296, 42.409655875212167 ], [ 117.313224842261647, 42.409664881099573 ] ], [ [ 117.313230896259597, 42.409660361553371 ], [ 117.313230873855488, 42.409655858609668 ], [ 117.313236950256666, 42.409655842006849 ], [ 117.313236972661201, 42.409660344950552 ], [ 117.313230896259597, 42.409660361553371 ] ] ] } },
{ "type": "Feature", "properties": { "crown_id": 4231, "tree_id": "4234", "top_h_m": 19.69, "H_95_Mean": 20.1259, "DBH": 26.3351, "Carbon_kg": 131.414404, "area_m2": 12.25 }, "geometry": { "type": "Polygon", "coordinates": [ [ [ 117.313115377440496, 42.409647168114546 ], [ 117.313121453840907, 42.409647151517852 ], [ 117.313121431444642, 42.409642648574092 ], [ 117.313127507844612, 42.409642631977079 ], [ 117.313127463051202, 42.409633626089558 ], [ 117.313151768647543, 42.4096335596983 ], [ 117.31315167905386, 42.409615547923259 ], [ 117.313145602656533, 42.409615564521552 ], [ 117.313145580258563, 42.409611061577785 ], [ 117.313127351067848, 42.409611111370701 ], [ 117.313127328671172, 42.409606608426913 ], [ 117.313121252274684, 42.409606625023905 ], [ 117.313121229878462, 42.409602122080123 ], [ 117.31310300069029, 42.40960217186916 ], [ 117.313103135059876, 42.409629189531898 ], [ 117.313115287857201, 42.409629156339491 ], [ 117.313115377440496, 42.409647168114546 ] ] ] } },
{ "type": "Feature", "properties": { "crown_id": 4263, "tree_id": "4266", "top_h_m": 20.255, "H_95_Mean": 21.9962, "DBH": 24.2056, "Carbon_kg": 116.859314, "area_m2": 7.5 }, "geometry": { "type": "Polygon", "coordinates": [ [ [ 117.313242847418209, 42.409619801854035 ], [ 117.313261076611269, 42.409619752042737 ], [ 117.313261054205043, 42.409615249099019 ], [ 117.313273206999497, 42.409615215889886 ], [ 117.313273117371168, 42.409597204114988 ], [ 117.313260964580167, 42.409597237324107 ], [ 117.313260942173955, 42.409592734380368 ], [ 117.313242712988739, 42.409592784191616 ], [ 117.313242735393629, 42.409597287135362 ], [ 117.313230582602586, 42.409597320341263 ], [ 117.313230605006623, 42.409601823284994 ], [ 117.313236681402572, 42.409601806682211 ], [ 117.313236726211542, 42.409610812569696 ], [ 117.313242802608372, 42.409610795966564 ], [ 117.313242847418209, 42.409619801854035 ] ] ] } },
{ "type": "Feature", "properties": { "crown_id": 4276, "tree_id": "4279", "top_h_m": 21.33, "H_95_Mean": 21.8975, "DBH": 29.5942, "Carbon_kg": 174.759895, "area_m2": 16.5 }, "geometry": { "type": "Polygon", "coordinates": [ [ [ 117.31329760222377, 42.409633161242539 ], [ 117.313303678622731, 42.409633144636182 ], [ 117.313303633804153, 42.409624138748796 ], [ 117.31332186299835, 42.409624088927835 ], [ 117.313321840587761, 42.409619585984153 ], [ 117.313315764190122, 42.409619602591455 ], [ 117.31331569695972, 42.40960609376036 ], [ 117.313309620563402, 42.409606110367342 ], [ 117.313309486105297, 42.409579092705037 ], [ 117.31330340971158, 42.409579109311672 ], [ 117.313303387302369, 42.40957460636794 ], [ 117.313285158122468, 42.409574656185917 ], [ 117.313285180530386, 42.409579159129663 ], [ 117.313279104136626, 42.409579175735026 ], [ 117.313279148951622, 42.409588181622482 ], [ 117.313266996162398, 42.409588214832233 ], [ 117.313267018569022, 42.409592717775972 ], [ 117.313279171359127, 42.409592684566221 ], [ 117.313279305804272, 42.409619702228547 ], [ 117.313267153008951, 42.409619735438319 ], [ 117.313267175415604, 42.409624238382037 ], [ 117.3132854046099, 42.409624188566873 ], [ 117.313285427017874, 42.409628691510569 ], [ 117.313297579814929, 42.409628658298843 ], [ 117.31329760222377, 42.409633161242539 ] ] ] } },
{ "type": "Feature", "properties": { "crown_id": 4291, "tree_id": "4294", "top_h_m": 21.355, "H_95_Mean": 21.6724, "DBH": 22.4464, "Carbon_kg": 99.496554, "area_m2": 5.75 }, "geometry": { "type": "Polygon", "coordinates": [ [ [ 117.313151656655478, 42.409611044979499 ], [ 117.31316380944925, 42.409611011781962 ], [ 117.313163697452964, 42.409588497063076 ], [ 117.31313939187406, 42.409588563456808 ], [ 117.313139414271575, 42.409593066400603 ], [ 117.313127261481213, 42.40959309959554 ], [ 117.313127306274524, 42.409602105483124 ], [ 117.313133382670571, 42.409602088885812 ], [ 117.31313340506766, 42.409606591829593 ], [ 117.313151634257082, 42.409606542035718 ], [ 117.313151656655478, 42.409611044979499 ] ] ] } },
{ "type": "Feature", "properties": { "crown_id": 4320, "tree_id": "4323", "top_h_m": 21.86, "H_95_Mean": 21.8775, "DBH": 29.8099, "Carbon_kg": 177.240816, "area_m2": 17.0 }, "geometry": { "type": "MultiPolygon", "coordinates": [ [ [ [ 117.313200290232373, 42.409615415125366 ], [ 117.313200245428604, 42.409606409237867 ], [ 117.313206321825049, 42.40960639263669 ], [ 117.313206299422717, 42.409601889692929 ], [ 117.313218452214684, 42.409601856489616 ], [ 117.313218429811513, 42.409597353545855 ], [ 117.313224506207064, 42.409597336943719 ], [ 117.313224483803467, 42.409592833999966 ], [ 117.313212331013261, 42.409592867203926 ], [ 117.313212308610531, 42.409588364260159 ], [ 117.313206232215848, 42.409588380861663 ], [ 117.313206187411296, 42.409579374974122 ], [ 117.313194034623663, 42.409579408176121 ], [ 117.313193989820846, 42.409570402288566 ], [ 117.313187913427882, 42.409570418889082 ], [ 117.313187891026942, 42.409565915945294 ], [ 117.313181814634419, 42.409565932545483 ], [ 117.313181769833378, 42.409556926657885 ], [ 117.313169617050036, 42.409556959857284 ], [ 117.313169908245854, 42.409615498126463 ], [ 117.313200290232373, 42.409615415125366 ] ] ], [ [ [ 117.313163854247819, 42.409620017669482 ], [ 117.313163831848527, 42.409615514725722 ], [ 117.313157755451201, 42.40961553132464 ], [ 117.313157777850066, 42.409620034268414 ], [ 117.313163854247819, 42.409620017669482 ] ] ] ] } },
{ "type": "Feature", "properties": { "crown_id": 4321, "tree_id": "4324", "top_h_m": 20.62, "H_95_Mean": 21.1107, "DBH": 34.0024, "Carbon_kg": 226.246765, "area_m2": 30.25 }, "geometry": { "type": "Polygon", "coordinates": [ [ [ 117.313327961807431, 42.409628575263895 ], [ 117.313358343799791, 42.409628492220889 ], [ 117.313358321386602, 42.409623989277208 ], [ 117.313352244988565, 42.409624005886457 ], [ 117.313352177750318, 42.409610497055418 ], [ 117.313358254147062, 42.409610480446183 ], [ 117.313358209320697, 42.409601474558819 ], [ 117.31336428571656, 42.409601457949258 ], [ 117.313364240889356, 42.409592452061887 ], [ 117.313370317284352, 42.409592435452012 ], [ 117.31337029487031, 42.409587932508316 ], [ 117.313376371264852, 42.409587915898136 ], [ 117.313376326435943, 42.409578910010737 ], [ 117.313370250042283, 42.409578926620917 ], [ 117.31337018280027, 42.4095654177898 ], [ 117.313364106407903, 42.409565434399646 ], [ 117.31336408399433, 42.409560931455935 ], [ 117.313351931210462, 42.409560964674675 ], [ 117.31335190879777, 42.409556461730944 ], [ 117.313315450448584, 42.409556561379404 ], [ 117.313315472858676, 42.409561064323142 ], [ 117.313309396466693, 42.409561080930096 ], [ 117.313309418876344, 42.409565583873828 ], [ 117.313297266091482, 42.409565617086777 ], [ 117.313297288500266, 42.409570120030523 ], [ 117.313309441285995, 42.409570086817567 ], [ 117.313309463695646, 42.409574589761299 ], [ 117.313315540088936, 42.409574573154337 ], [ 117.3133156745496, 42.409601590816649 ], [ 117.313321750945477, 42.409601574209361 ], [ 117.313321818177187, 42.409615083040457 ], [ 117.313327894574371, 42.409615066432828 ], [ 117.313327961807431, 42.409628575263895 ] ] ] } }
]
}
