{
"type": "FeatureCollection",
"name": "tile_10_21",
"crs": { "type": "name", "properties": { "name": "urn:ogc:def:crs:OGC:1.3:CRS84" } },
"features": [
{ "type": "Feature", "properties": { "crown_id": 3887, "tree_id": "3890", "top_h_m": 20.155, "H_95_Mean": 22.04, "DBH": 23.3514, "Carbon_kg": 108.824521, "area_m2": 6.5 }, "geometry": { "type": "Polygon", "coordinates": [ [ [ 117.314835584040793, 42.409759534915644 ], [ 117.314865966091986, 42.40975945147288 ], [ 117.314865943570837, 42.409754948529965 ], [ 117.314859867161061, 42.409754965219165 ], [ 117.314859822119686, 42.409745959333314 ], [ 117.314853745710749, 42.409745976022187 ], [ 117.314853700670255, 42.409736970136315 ], [ 117.314847624262185, 42.409736986824853 ], [ 117.314847601742414, 42.409732483881918 ], [ 117.314841525334742, 42.409732500570136 ], [ 117.314841502815398, 42.409727997627186 ], [ 117.314835426408209, 42.409728014315071 ], [ 117.314835448927113, 42.409732517258021 ], [ 117.314829372519483, 42.409732533945586 ], [ 117.314829462593508, 42.409750545717365 ], [ 117.314835539002885, 42.409750529029786 ], [ 117.314835584040793, 42.409759534915644 ] ] ] } },
{ "type": "Feature", "properties": { "crown_id": 3911, "tree_id": "3914", "top_h_m": 21.027, "H_95_Mean": 20.6794, "DBH": 32.303, "Carbon_kg": 201.558806, "area_m2": 25.75 }, "geometry": { "type": "Polygon", "coordinates": [ [ [ 117.314878141434434, 42.409763921036429 ], [ 117.314884217845076, 42.409763904346271 ], [ 117.31488419532262, 42.409759401403356 ], [ 117.314896348143037, 42.409759368022065 ], [ 117.314896325619742, 42.409754865079172 ], [ 117.314902402029489, 42.40975484838804 ], [ 117.314902356982017, 42.409745842502232 ], [ 117.314914509799806, 42.409745809119016 ], [ 117.314914442226026, 42.409732300290294 ], [ 117.314920518633613, 42.409732283598217 ], [ 117.314920496108584, 42.409727780655302 ], [ 117.314914419701466, 42.409727797347379 ], [ 117.314914397176878, 42.409723294404458 ], [ 117.314920473583598, 42.409723277712381 ], [ 117.314920451058569, 42.409718774769466 ], [ 117.314914374652318, 42.409718791461529 ], [ 117.314914329603198, 42.409709785575672 ], [ 117.3149082531978, 42.409709802267422 ], [ 117.314908230673666, 42.409705299324479 ], [ 117.314896077863722, 42.409705332707006 ], [ 117.314896032817245, 42.40969632682112 ], [ 117.314889956413126, 42.409696343511882 ], [ 117.314889933890314, 42.409691840568918 ], [ 117.31488385748662, 42.409691857259368 ], [ 117.314883880009006, 42.409696360202325 ], [ 117.314877803604872, 42.409696376892455 ], [ 117.314877871170694, 42.409709885721313 ], [ 117.314871794765253, 42.40970990241113 ], [ 117.314871817286758, 42.409714405354073 ], [ 117.314859664475009, 42.409714438732742 ], [ 117.314859686995675, 42.409718941675692 ], [ 117.314853610589338, 42.409718958364536 ], [ 117.314853633109564, 42.409723461307479 ], [ 117.314847556702802, 42.409723477996017 ], [ 117.314847579222601, 42.409727980938975 ], [ 117.314853655629776, 42.409727964250436 ], [ 117.314853678150016, 42.409732467193372 ], [ 117.314859754557645, 42.409732450504521 ], [ 117.314859799598992, 42.409741456390378 ], [ 117.314865876007488, 42.4097414397012 ], [ 117.314865921049716, 42.409750445587051 ], [ 117.314871997459079, 42.409750428897546 ], [ 117.314872042502188, 42.409759434783361 ], [ 117.314878118912418, 42.409759418093529 ], [ 117.314878141434434, 42.409763921036429 ] ] ] } },
{ "type": "Feature", "properties": { "crown_id": 3912, "tree_id": "3915", "top_h_m": 18.71, "H_95_Mean": 20.37, "DBH": 21.0264, "Carbon_kg": 84.078534, "area_m2": 5.0 }, "geometry": { "type": "Polygon", "coordinates": [ [ [ 117.315048213328041, 42.409749944761543 ], [ 117.315066442555619, 42.409749894663044 ], [ 117.315066420020145, 42.409745391720215 ], [ 117.315072496428897, 42.409745375020073 ], [ 117.315072518964811, 42.409749877962909 ], [ 117.315084671783154, 42.409749844561652 ], [ 117.315084649246373, 42.40974534161883 ], [ 117.315078572837649, 42.409745358319618 ], [ 117.315078527764996, 42.409736352433939 ], [ 117.315060298541354, 42.409736402534342 ], [ 117.315060276006335, 42.409731899591492 ], [ 117.315054199598876, 42.40973191629098 ], [ 117.315054177064326, 42.409727413348122 ], [ 117.315048100657293, 42.409727430047283 ], [ 117.315048078123169, 42.409722927104418 ], [ 117.315042001716549, 42.409722943803267 ], [ 117.315042046783972, 42.409731949688982 ], [ 117.315048123191417, 42.409731932990141 ], [ 117.315048213328041, 42.409749944761543 ] ] ] } },
{ "type": "Feature", "properties": { "crown_id": 3972, "tree_id": "3975", "top_h_m": 19.69, "H_95_Mean": 20.75, "DBH": 25.3584, "Carbon_kg": 123.995776, "area_m2": 10.0 }, "geometry": { "type": "Polygon", "coordinates": [ [ [ 117.314926572515716, 42.409727763962906 ], [ 117.314956954551306, 42.409727680496069 ], [ 117.314956932023691, 42.409723177553168 ], [ 117.314981237650343, 42.409723110773925 ], [ 117.314981192591645, 42.409714104888131 ], [ 117.314987268997427, 42.409714088192523 ], [ 117.314987246467652, 42.40970958524963 ], [ 117.314962940846243, 42.409709652030124 ], [ 117.314962918318201, 42.409705149087209 ], [ 117.314926459888554, 42.40970524924829 ], [ 117.314926482413981, 42.409709752191219 ], [ 117.314920406008582, 42.409709768883609 ], [ 117.314920428533583, 42.409714271826545 ], [ 117.314926504939407, 42.409714255134148 ], [ 117.314926572515716, 42.409727763962906 ] ] ] } },
{ "type": "Feature", "properties": { "crown_id": 3973, "tree_id": "3976", "top_h_m": 21.7, "H_95_Mean": 22.82, "DBH": 25.436, "Carbon_kg": 131.979727, "area_m2": 8.5 }, "geometry": { "type": "Polygon", "coordinates": [ [ [ 117.315011642215026, 42.4097275302355 ], [ 117.315035947843228, 42.409727463444653 ], [ 117.3150359027767, 42.409718457558903 ], [ 117.315041979182851, 42.409718440860388 ], [ 117.315041934115484, 42.409709434974637 ], [ 117.3150358577102, 42.409709451673152 ], [ 117.315035790110485, 42.409695942844507 ], [ 117.315023637302474, 42.409695976240535 ], [ 117.315023659834836, 42.409700479183421 ], [ 117.315005430621511, 42.409700529275071 ], [ 117.31500545315258, 42.409705032217971 ], [ 117.315011529557466, 42.40970501552107 ], [ 117.315011552088976, 42.409709518463963 ], [ 117.314999399278307, 42.409709551857432 ], [ 117.314999444339591, 42.409718557743219 ], [ 117.3150055207458, 42.409718541046644 ], [ 117.315005543276882, 42.40972304398953 ], [ 117.315011619683517, 42.409723027292614 ], [ 117.315011642215026, 42.4097275302355 ] ] ] } },
{ "type": "Feature", "properties": { "crown_id": 3986, "tree_id": "3989", "top_h_m": 20.05, "H_95_Mean": 20.3696, "DBH": 27.6619, "Carbon_kg": 146.136728, "area_m2": 14.5 }, "geometry": { "type": "Polygon", "coordinates": [ [ [ 117.314817197186542, 42.409728064376814 ], [ 117.314829350000977, 42.409728031002651 ], [ 117.314829327482499, 42.409723528059686 ], [ 117.314841480296039, 42.409723494684229 ], [ 117.314841457776694, 42.409718991741272 ], [ 117.314847534183031, 42.40971897505306 ], [ 117.314847511663245, 42.40971447211011 ], [ 117.314853588069127, 42.409714455421586 ], [ 117.314853565548916, 42.409709952478629 ], [ 117.314865718359812, 42.409709919100614 ], [ 117.314865695838733, 42.409705416157664 ], [ 117.314859619433719, 42.409705432846835 ], [ 117.314859596913095, 42.409700929903863 ], [ 117.314865673317655, 42.409700913214699 ], [ 117.314865650796605, 42.409696410271742 ], [ 117.314835268775838, 42.409696493714321 ], [ 117.314835246256948, 42.409691990771343 ], [ 117.314804864238226, 42.40969207420585 ], [ 117.314804909271672, 42.409701080091843 ], [ 117.314798832867041, 42.409701096777773 ], [ 117.314798900415923, 42.40971460560673 ], [ 117.314804976821847, 42.409714588920778 ], [ 117.314804999338591, 42.409719091863749 ], [ 117.314817152151321, 42.409719058490879 ], [ 117.314817197186542, 42.409728064376814 ] ] ] } },
{ "type": "Feature", "properties": { "crown_id": 4036, "tree_id": "4039", "top_h_m": 22.303, "H_95_Mean": 22.3716, "DBH": 25.573, "Carbon_kg": 131.859533, "area_m2": 9.0 }, "geometry": { "type": "Polygon", "coordinates": [ [ [ 117.314914307078638, 42.409705282632743 ], [ 117.314920383483596, 42.40970526594068 ], [ 117.314920360958624, 42.409700762997744 ], [ 117.314944666576693, 42.409700696226281 ], [ 117.314944598996576, 42.409687187397488 ], [ 117.314938522593366, 42.409687204090815 ], [ 117.314938477540835, 42.409678198204944 ], [ 117.314932401138492, 42.409678214897959 ], [ 117.314932356086857, 42.409669209012051 ], [ 117.31492627968538, 42.409669225704725 ], [ 117.31492630221075, 42.409673728647689 ], [ 117.314908073005, 42.409673778723828 ], [ 117.314908140577259, 42.4096872875527 ], [ 117.314902064174021, 42.409687304244109 ], [ 117.314902086697671, 42.409691807187066 ], [ 117.314908163101364, 42.409691790495657 ], [ 117.314908185625441, 42.409696293438614 ], [ 117.314902109221336, 42.409696310130016 ], [ 117.314902131745015, 42.409700813072966 ], [ 117.314914284554092, 42.409700779689807 ], [ 117.314914307078638, 42.409705282632743 ] ] ] } },
{ "type": "Feature", "properties": { "crown_id": 4058, "tree_id": "4061", "top_h_m": 22.7, "H_95_Mean": 22.9171, "DBH": 30.1176, "Carbon_kg": 185.984823, "area_m2": 16.25 }, "geometry": { "type": "Polygon", "coordinates": [ [ [ 117.314968994723145, 42.409705132392574 ], [ 117.314993300342778, 42.409705065610794 ], [ 117.314993277812576, 42.409700562667886 ], [ 117.314999354217051, 42.409700545971646 ], [ 117.314999331686408, 42.409696043028731 ], [ 117.315005408090428, 42.409696026332178 ], [ 117.315005385559388, 42.409691523389249 ], [ 117.314993232752201, 42.409691556782064 ], [ 117.314993142631522, 42.409673545010392 ], [ 117.314987066229634, 42.409673561706299 ], [ 117.314987021170211, 42.409664555820434 ], [ 117.314980944769218, 42.409664572516022 ], [ 117.314980922239926, 42.409660069573079 ], [ 117.314974845839359, 42.409660086268332 ], [ 117.314974868368196, 42.409664589211282 ], [ 117.314956639165175, 42.409664639295123 ], [ 117.314956661692705, 42.40966914223808 ], [ 117.314938432488333, 42.409669192319036 ], [ 117.31493845501457, 42.409673695261986 ], [ 117.314944531416472, 42.409673678568659 ], [ 117.31494457646987, 42.409682684454545 ], [ 117.314950652872625, 42.409682667760883 ], [ 117.314950742981196, 42.409700679532598 ], [ 117.314968972194691, 42.409700629449659 ], [ 117.314968994723145, 42.409705132392574 ] ] ] } },
{ "type": "Feature", "properties": { "crown_id": 4082, "tree_id": "4085", "top_h_m": 20.657, "H_95_Mean": 21.0828, "DBH": 35.2171, "Carbon_kg": 242.642484, "area_m2": 34.75 }, "geometry": { "type": "Polygon", "coordinates": [ [ [ 117.314841322660669, 42.409691974083472 ], [ 117.314865628275527, 42.409691907328771 ], [ 117.314865605754477, 42.409687404385807 ], [ 117.314871682157758, 42.409687387696316 ], [ 117.314871456943152, 42.409642358266467 ], [ 117.314877533342056, 42.409642341576699 ], [ 117.314877510820182, 42.409637838633692 ], [ 117.314871434421718, 42.40963785532346 ], [ 117.314871411900285, 42.409633352380446 ], [ 117.314859259104168, 42.409633385759022 ], [ 117.314859236583629, 42.409628882816001 ], [ 117.314841007390726, 42.409628932881432 ], [ 117.314840984871495, 42.409624429938404 ], [ 117.314834908474268, 42.409624446626239 ], [ 117.314834953511877, 42.409633452512296 ], [ 117.314816724317637, 42.409633502573868 ], [ 117.314816746835149, 42.409638005516896 ], [ 117.314792441240968, 42.409638072261167 ], [ 117.314792508788344, 42.409651581090273 ], [ 117.314786432388502, 42.409651597775543 ], [ 117.314786477419219, 42.4096606036616 ], [ 117.314810783022097, 42.40966053691858 ], [ 117.31481080553921, 42.409665039861594 ], [ 117.314816881940345, 42.409665023175016 ], [ 117.314816949493022, 42.409678532004044 ], [ 117.314823025895464, 42.40967851531714 ], [ 117.314823070931482, 42.409687521203125 ], [ 117.314841300141381, 42.409687471140487 ], [ 117.314841322660669, 42.409691974083472 ] ] ] } },
{ "type": "Feature", "properties": { "crown_id": 4083, "tree_id": "4086", "top_h_m": 20.895, "H_95_Mean": 21.2295, "DBH": 27.151, "Carbon_kg": 144.23233, "area_m2": 12.5 }, "geometry": { "type": "Polygon", "coordinates": [ [ [ 117.315011461962968, 42.409691506692376 ], [ 117.315035767577243, 42.4096914399016 ], [ 117.315035745044028, 42.409686936958714 ], [ 117.315041821447139, 42.409686920260214 ], [ 117.315041798913498, 42.409682417317313 ], [ 117.315047875316196, 42.409682400618514 ], [ 117.315047852782087, 42.409677897675607 ], [ 117.315053929184359, 42.409677880976467 ], [ 117.315053906649823, 42.409673378033574 ], [ 117.315047830248005, 42.4096733947327 ], [ 117.315047807713967, 42.409668891789799 ], [ 117.315041731312562, 42.409668908488598 ], [ 117.315041708778935, 42.409664405545691 ], [ 117.31502347957607, 42.409664455640176 ], [ 117.315023457043736, 42.409659952697254 ], [ 117.315017380643212, 42.40965996939476 ], [ 117.315017358111348, 42.409655466451831 ], [ 117.31500520531111, 42.40965549984589 ], [ 117.315005227842136, 42.409660002788826 ], [ 117.314999151441597, 42.409660019485372 ], [ 117.314999173972168, 42.409664522428301 ], [ 117.314993097571204, 42.409664539124535 ], [ 117.314993120101335, 42.409669042067456 ], [ 117.314999196502754, 42.40966902537123 ], [ 117.314999286625181, 42.409687037142909 ], [ 117.315011439431487, 42.409687003749468 ], [ 117.315011461962968, 42.409691506692376 ] ] ] } },
{ "type": "Feature", "properties": { "crown_id": 4104, "tree_id": "4107", "top_h_m": 20.49, "H_95_Mean": 22.3404, "DBH": 25.7372, "Carbon_kg": 133.461297, "area_m2": 9.25 }, "geometry": { "type": "Polygon", "coordinates": [ [ [ 117.314877713517191, 42.409678365120584 ], [ 117.314883789919591, 42.409678348430482 ], [ 117.314883767397234, 42.409673845487497 ], [ 117.314895920201124, 42.409673812106305 ], [ 117.314895875154704, 42.409664806220377 ], [ 117.314908027956847, 42.409664772837893 ], [ 117.314908050480923, 42.409669275780864 ], [ 117.314920203283904, 42.409669242397101 ], [ 117.314920180758961, 42.409664739454144 ], [ 117.314914104357911, 42.409664756146178 ], [ 117.314914014259926, 42.409646744374278 ], [ 117.31490793786061, 42.409646761065979 ], [ 117.314907892812528, 42.409637755180007 ], [ 117.314901816414064, 42.409637771871381 ], [ 117.314901838937672, 42.409642274814388 ], [ 117.314883609740988, 42.409642324886597 ], [ 117.314883632263275, 42.40964682782959 ], [ 117.314877555863944, 42.409646844519692 ], [ 117.314877713517191, 42.409678365120584 ] ], [ [ 117.314889731185374, 42.409651314082168 ], [ 117.314889708662619, 42.409646811139169 ], [ 117.314895785061964, 42.409646794448442 ], [ 117.314895807585145, 42.40965129739142 ], [ 117.314889731185374, 42.409651314082168 ] ] ] } },
{ "type": "Feature", "properties": { "crown_id": 4116, "tree_id": "4119", "top_h_m": 19.29, "H_95_Mean": 21.61, "DBH": 18.5366, "Carbon_kg": 67.537763, "area_m2": 2.75 }, "geometry": { "type": "Polygon", "coordinates": [ [ [ 117.315053884115329, 42.409668875090674 ], [ 117.315059960516678, 42.409668858391221 ], [ 117.315059937981772, 42.409664355448321 ], [ 117.315072090783602, 42.409664322048457 ], [ 117.315072023176228, 42.409650813219741 ], [ 117.315053793977341, 42.40965086331903 ], [ 117.315053839046314, 42.409659869204859 ], [ 117.315047762645833, 42.409659885903977 ], [ 117.315047785179885, 42.409664388846899 ], [ 117.315053861580822, 42.409664372147766 ], [ 117.315053884115329, 42.409668875090674 ] ] ] } },
{ "type": "Feature", "properties": { "crown_id": 4137, "tree_id": "4140", "top_h_m": 22.1, "H_95_Mean": 22.3938, "DBH": 29.431, "Carbon_kg": 175.129068, "area_m2": 15.5 }, "geometry": { "type": "MultiPolygon", "coordinates": [ [ [ [ 117.314980742005858, 42.409624046029428 ], [ 117.314980719476637, 42.409619543086457 ], [ 117.314974643079964, 42.409619559781682 ], [ 117.314974665608773, 42.409624062724667 ], [ 117.314980742005858, 42.409624046029428 ] ] ], [ [ [ 117.314913991735438, 42.4096422414313 ], [ 117.314920068134313, 42.409642224739272 ], [ 117.314920158234017, 42.409660236511165 ], [ 117.314926234634626, 42.409660219818811 ], [ 117.314926257159996, 42.409664722761782 ], [ 117.314950562764153, 42.409664655989104 ], [ 117.314950540237049, 42.409660153046147 ], [ 117.314968769438778, 42.409660102963279 ], [ 117.314968589211674, 42.409624079419572 ], [ 117.314956436417475, 42.409624112808444 ], [ 117.314956458944962, 42.409628615751416 ], [ 117.314944306149883, 42.409628649139002 ], [ 117.314944328676503, 42.409633152081973 ], [ 117.314913946686502, 42.409633235545314 ], [ 117.314913991735438, 42.4096422414313 ] ] ], [ [ [ 117.314913924162042, 42.409628732602322 ], [ 117.314907847764459, 42.409628749294022 ], [ 117.314907870288479, 42.409633252237015 ], [ 117.314913946686502, 42.409633235545314 ], [ 117.314913924162042, 42.409628732602322 ] ] ] ] } },
{ "type": "Feature", "properties": { "crown_id": 4138, "tree_id": "4141", "top_h_m": 21.24, "H_95_Mean": 21.4601, "DBH": 23.717, "Carbon_kg": 110.528917, "area_m2": 7.25 }, "geometry": { "type": "Polygon", "coordinates": [ [ [ 117.314986998640478, 42.409660052877491 ], [ 117.314993075041045, 42.409660036181599 ], [ 117.314993052510886, 42.409655533238656 ], [ 117.314999128911012, 42.409655516542429 ], [ 117.314999106380441, 42.409651013599493 ], [ 117.315017335579455, 42.409650963508909 ], [ 117.315017313047591, 42.409646460565966 ], [ 117.31501123664836, 42.409646477263145 ], [ 117.315011191585498, 42.409637471377259 ], [ 117.314992962390377, 42.409637521466863 ], [ 117.314992939860247, 42.409633018523898 ], [ 117.314986863462309, 42.409633035219791 ], [ 117.314986840932633, 42.409628532276841 ], [ 117.314974688137568, 42.409628565667632 ], [ 117.314974823310521, 42.409655583325396 ], [ 117.314986976110788, 42.409655549934548 ], [ 117.314986998640478, 42.409660052877491 ] ] ] } },
{ "type": "Feature", "properties": { "crown_id": 4151, "tree_id": "4154", "top_h_m": 21.452, "H_95_Mean": 22.5923, "DBH": 26.3985, "Carbon_kg": 141.397598, "area_m2": 10.0 }, "geometry": { "type": "Polygon", "coordinates": [ [ [ 117.315029533444275, 42.409659935999414 ], [ 117.315041686245323, 42.409659902602783 ], [ 117.315041663711682, 42.409655399659862 ], [ 117.315047740111751, 42.409655382961063 ], [ 117.315047695043674, 42.409646377075219 ], [ 117.315065924241267, 42.409646326976905 ], [ 117.315065879170561, 42.409637321091061 ], [ 117.31505980277224, 42.409637337790819 ], [ 117.315059780237348, 42.409632834847891 ], [ 117.31503547464574, 42.409632901643683 ], [ 117.315035452112582, 42.409628398700733 ], [ 117.315005070125153, 42.409628482188211 ], [ 117.31500504759417, 42.409623979245261 ], [ 117.314992894800028, 42.409624012637991 ], [ 117.31499291733013, 42.409628515580948 ], [ 117.314998993727642, 42.409628498884736 ], [ 117.314999016258184, 42.409633001827693 ], [ 117.315017245451997, 42.409632951737137 ], [ 117.315017290515698, 42.409641957623023 ], [ 117.315023366914502, 42.409641940925518 ], [ 117.315023434511417, 42.409655449754318 ], [ 117.315029510911529, 42.409655433056486 ], [ 117.315029533444275, 42.409659935999414 ] ] ] } },
{ "type": "Feature", "properties": { "crown_id": 4218, "tree_id": "4221", "top_h_m": 21.136, "H_95_Mean": 21.8323, "DBH": 24.3249, "Carbon_kg": 117.50211, "area_m2": 7.75 }, "geometry": { "type": "Polygon", "coordinates": [ [ [ 117.314883587218659, 42.409637821943598 ], [ 117.314895740015615, 42.409637788562442 ], [ 117.314895717492448, 42.409633285619442 ], [ 117.314901793890471, 42.409633268928395 ], [ 117.314901748843269, 42.409624263042389 ], [ 117.314907825240425, 42.409624246351015 ], [ 117.314907802716419, 42.409619743408015 ], [ 117.314901726319704, 42.409619760099382 ], [ 117.314901681272545, 42.409610754213361 ], [ 117.314889528480833, 42.409610787595128 ], [ 117.314889505958135, 42.409606284652099 ], [ 117.314877353167262, 42.409606318032573 ], [ 117.314877398210939, 42.409615323918622 ], [ 117.314865245418318, 42.409615357297817 ], [ 117.31486531298124, 42.409628866126873 ], [ 117.31487746577649, 42.409628832747671 ], [ 117.314877488298322, 42.409633335690685 ], [ 117.314883564696359, 42.409633319000598 ], [ 117.314883587218659, 42.409637821943598 ] ] ] } },
{ "type": "Feature", "properties": { "crown_id": 4219, "tree_id": "4222", "top_h_m": 21.697, "H_95_Mean": 22.5551, "DBH": 24.0623, "Carbon_kg": 117.195559, "area_m2": 7.0 }, "geometry": { "type": "MultiPolygon", "coordinates": [ [ [ [ 117.31501105639704, 42.409610453719516 ], [ 117.315017132792789, 42.409610437022351 ], [ 117.315017110260953, 42.409605934079387 ], [ 117.31501103386563, 42.409605950776552 ], [ 117.31501105639704, 42.409610453719516 ] ] ], [ [ [ 117.31501105639704, 42.409610453719516 ], [ 117.315004980001262, 42.409610470416347 ], [ 117.315005002532232, 42.409614973359325 ], [ 117.315011078928407, 42.40961495666248 ], [ 117.31501105639704, 42.409610453719516 ] ] ], [ [ [ 117.315017132792789, 42.409610437022351 ], [ 117.315017155324625, 42.409614939965316 ], [ 117.315011078928407, 42.40961495666248 ], [ 117.315011123991226, 42.409623962548409 ], [ 117.315041505976467, 42.409623879059339 ], [ 117.315041528510065, 42.409628382002282 ], [ 117.315059757702457, 42.409628331904962 ], [ 117.315059735167566, 42.409623828962033 ], [ 117.315047582373523, 42.409623862360554 ], [ 117.315047514771493, 42.409610353531711 ], [ 117.315041438375744, 42.409610370230482 ], [ 117.315041370775063, 42.409596861401603 ], [ 117.315035294380635, 42.409596878100047 ], [ 117.315035316913765, 42.409601381043011 ], [ 117.315029240518882, 42.409601397741135 ], [ 117.315029263051585, 42.409605900684113 ], [ 117.315023186656262, 42.40960591738191 ], [ 117.315023209188539, 42.409610420324874 ], [ 117.315017132792789, 42.409610437022351 ] ] ] ] } },
{ "type": "Feature", "properties": { "crown_id": 4246, "tree_id": "4249", "top_h_m": 21.68, "H_95_Mean": 22.0335, "DBH": 28.961, "Carbon_kg": 167.919288, "area_m2": 15.0 }, "geometry": { "type": "Polygon", "coordinates": [ [ [ 117.314920000559624, 42.409628715910294 ], [ 117.314938229752315, 42.409628665832315 ], [ 117.314938207226135, 42.40962416288933 ], [ 117.314950360020347, 42.409624129502397 ], [ 117.3149503374933, 42.409619626559405 ], [ 117.314968566683305, 42.409619576476594 ], [ 117.314968544154951, 42.409615073533615 ], [ 117.314980696947387, 42.409615040143471 ], [ 117.31498067441818, 42.409610537200493 ], [ 117.314974598022374, 42.409610553895725 ], [ 117.314974552964827, 42.409601548009753 ], [ 117.314950247385113, 42.409601614787427 ], [ 117.314950224858052, 42.40959711184442 ], [ 117.314913766490918, 42.409597212001259 ], [ 117.314913789015364, 42.409601714944273 ], [ 117.314895559830418, 42.409601765018358 ], [ 117.314895582353557, 42.409606267961387 ], [ 117.314907735144402, 42.40960623457898 ], [ 117.314907780192399, 42.409615240465008 ], [ 117.314913856588689, 42.409615223773322 ], [ 117.314913901637581, 42.409624229659322 ], [ 117.314919978034723, 42.409624212967309 ], [ 117.314920000559624, 42.409628715910294 ] ] ] } },
{ "type": "Feature", "properties": { "crown_id": 4282, "tree_id": "4285", "top_h_m": 21.52, "H_95_Mean": 21.9349, "DBH": 31.9895, "Carbon_kg": 204.647003, "area_m2": 22.25 }, "geometry": { "type": "Polygon", "coordinates": [ [ [ 117.314847061268694, 42.409624413250256 ], [ 117.314859214063063, 42.40962437987298 ], [ 117.314859146501476, 42.409610871043895 ], [ 117.31487129929323, 42.409610837665348 ], [ 117.314871276771825, 42.409606334722319 ], [ 117.314865200376374, 42.409606351411753 ], [ 117.314865132813537, 42.409592842582633 ], [ 117.31485905641938, 42.40959285927174 ], [ 117.314858966337397, 42.409574847499506 ], [ 117.314871119122216, 42.409574814121015 ], [ 117.314871074079505, 42.409565808234888 ], [ 117.31485892129642, 42.409565841613372 ], [ 117.314858898775952, 42.409561338670308 ], [ 117.314840669602589, 42.409561388735618 ], [ 117.314840692121791, 42.409565891678696 ], [ 117.314834615730206, 42.409565908366496 ], [ 117.314834593211472, 42.40956140542341 ], [ 117.314828516820356, 42.40956142211089 ], [ 117.314828539338649, 42.409565925053961 ], [ 117.314810310163921, 42.409565975114454 ], [ 117.314810422748991, 42.409588489829865 ], [ 117.314816499142751, 42.409588473143344 ], [ 117.314816521660219, 42.409592976086422 ], [ 117.314828674448563, 42.409592942712393 ], [ 117.314828742003598, 42.409606451541563 ], [ 117.314834818399092, 42.409606434854076 ], [ 117.314834885955477, 42.409619943683197 ], [ 117.314847038749008, 42.409619910307228 ], [ 117.314847061268694, 42.409624413250256 ] ] ] } },
{ "type": "Feature", "properties": { "crown_id": 4298, "tree_id": "4301", "top_h_m": 20.35, "H_95_Mean": 20.7258, "DBH": 22.4541, "Carbon_kg": 96.969794, "area_m2": 6.25 }, "geometry": { "type": "Polygon", "coordinates": [ [ [ 117.314871254250434, 42.409601831779284 ], [ 117.314889483435437, 42.409601781709071 ], [ 117.314889460912752, 42.409597278766043 ], [ 117.314895537307308, 42.40959726207533 ], [ 117.314895492261059, 42.409588256189259 ], [ 117.31488941586737, 42.409588272879972 ], [ 117.31488934829936, 42.409574764050838 ], [ 117.314883271906993, 42.409574780741224 ], [ 117.314883181818118, 42.409556768968983 ], [ 117.31487710542747, 42.409556785659021 ], [ 117.314877218036386, 42.409579300374332 ], [ 117.314865065250714, 42.409579333753477 ], [ 117.314865110292587, 42.409588339639583 ], [ 117.314871186686304, 42.409588322950157 ], [ 117.314871254250434, 42.409601831779284 ] ] ] } },
{ "type": "Feature", "properties": { "crown_id": 4323, "tree_id": "4326", "top_h_m": 20.72, "H_95_Mean": 21.7477, "DBH": 25.5878, "Carbon_kg": 129.823298, "area_m2": 9.5 }, "geometry": { "type": "Polygon", "coordinates": [ [ [ 117.314901613701863, 42.409597245384298 ], [ 117.314907690096391, 42.409597228692945 ], [ 117.314907667572413, 42.40959272574991 ], [ 117.314950202331019, 42.409592608901413 ], [ 117.314950179804015, 42.409588105958406 ], [ 117.314944103410383, 42.409588122651996 ], [ 117.314944035830621, 42.409574613822947 ], [ 117.314913653868885, 42.409574697286111 ], [ 117.314913631344467, 42.409570194343068 ], [ 117.314907554952541, 42.409570211034726 ], [ 117.314907532428592, 42.409565708091677 ], [ 117.314889303254063, 42.409565758164725 ], [ 117.314889325776704, 42.409570261107788 ], [ 117.314895402168673, 42.409570244417083 ], [ 117.314895469737948, 42.409583753246224 ], [ 117.31490154613121, 42.409583736555192 ], [ 117.314901613701863, 42.409597245384298 ] ] ] } }
]
}
