{
"type": "FeatureCollection",
"name": "tile_12_1",
"crs": { "type": "name", "properties": { "name": "urn:ogc:def:crs:OGC:1.3:CRS84" } },
"features": [
{ "type": "Feature", "properties": { "crown_id": 4801, "tree_id": "4805", "top_h_m": 19.66, "H_95_Mean": 19.9058, "DBH": 35.2459, "Carbon_kg": 234.92338, "area_m2": 38.75 }, "geometry": { "type": "MultiPolygon", "coordinates": [ [ [ [ 117.310070057830302, 42.409443804136821 ], [ 117.310082210595368, 42.409443771266062 ], [ 117.310082188416644, 42.409439268320845 ], [ 117.310094341180815, 42.409439235448808 ], [ 117.310094296821646, 42.409430229558382 ], [ 117.31010644958404, 42.409430196685058 ], [ 117.310106427403596, 42.40942569373982 ], [ 117.310124656545881, 42.409425644427444 ], [ 117.310124634364144, 42.409421141482227 ], [ 117.310130710744446, 42.409421125044126 ], [ 117.310130688562268, 42.409416622098917 ], [ 117.310142841322005, 42.409416589221749 ], [ 117.310142819138989, 42.409412086276525 ], [ 117.310154971897845, 42.409412053398086 ], [ 117.310154883162227, 42.409394041617198 ], [ 117.310160959539914, 42.409394025177505 ], [ 117.310160915171281, 42.409385019287043 ], [ 117.310173067924893, 42.409384986406707 ], [ 117.310173001369378, 42.409371477571014 ], [ 117.310166924993879, 42.409371494011332 ], [ 117.310166902809144, 42.409366991066094 ], [ 117.31014259730884, 42.409367056824181 ], [ 117.310142575125838, 42.409362553878928 ], [ 117.310124346001871, 42.409362603194111 ], [ 117.310124301638496, 42.409353597303578 ], [ 117.310112148890894, 42.409353630178735 ], [ 117.310112259794977, 42.409376144905067 ], [ 117.310106183418995, 42.40937616134218 ], [ 117.310106272140587, 42.409394173123196 ], [ 117.310100195762857, 42.409394189560004 ], [ 117.310100240122836, 42.409403195450487 ], [ 117.310082010987003, 42.40940324475897 ], [ 117.310081988808321, 42.409398741813717 ], [ 117.310063759673753, 42.409398791119294 ], [ 117.31006380402853, 42.409407797009798 ], [ 117.310057727649436, 42.409407813444361 ], [ 117.310057772003375, 42.409416819334865 ], [ 117.310063848383294, 42.409416802900303 ], [ 117.310063870560697, 42.409421305845548 ], [ 117.31006994694107, 42.409421289410673 ], [ 117.310070057830302, 42.409443804136821 ] ], [ [ 117.310106272140587, 42.409394173123196 ], [ 117.310124501273748, 42.409394123810863 ], [ 117.310124567818917, 42.409407632646563 ], [ 117.310106338681834, 42.409407681958918 ], [ 117.310106272140587, 42.409394173123196 ] ], [ [ 117.31012445691033, 42.40938511792038 ], [ 117.310124390365232, 42.40937160908463 ], [ 117.310142619491828, 42.409371559769433 ], [ 117.310142686040848, 42.409385068605161 ], [ 117.31012445691033, 42.40938511792038 ] ] ], [ [ [ 117.310051873035775, 42.40945285933099 ], [ 117.310057949419217, 42.409452842896748 ], [ 117.310057927242198, 42.409448339951524 ], [ 117.310051850859224, 42.409448356385781 ], [ 117.310051873035775, 42.40945285933099 ] ] ], [ [ [ 117.310057927242198, 42.409448339951524 ], [ 117.31007008000816, 42.409448307082052 ], [ 117.310070057830302, 42.409443804136821 ], [ 117.310057905065207, 42.409443837006293 ], [ 117.310057927242198, 42.409448339951524 ] ] ] ] } },
{ "type": "Feature", "properties": { "crown_id": 4859, "tree_id": "4863", "top_h_m": 20.88, "H_95_Mean": 20.7701, "DBH": 30.1327, "Carbon_kg": 175.650118, "area_m2": 19.5 }, "geometry": { "type": "Polygon", "coordinates": [ [ [ 117.309899786123182, 42.409417246520327 ], [ 117.309905862503257, 42.409417230094142 ], [ 117.309905840337166, 42.409412727148826 ], [ 117.309911916716814, 42.409412710722329 ], [ 117.309911894550282, 42.409408207777012 ], [ 117.309924047308655, 42.409408174923037 ], [ 117.309923980806502, 42.409394666087081 ], [ 117.309930057184403, 42.409394649659625 ], [ 117.309930035016592, 42.409390146714294 ], [ 117.309942187771455, 42.409390113858422 ], [ 117.309942165602791, 42.409385610913098 ], [ 117.309954318356759, 42.409385578055939 ], [ 117.309954274017684, 42.409376572165286 ], [ 117.309960350393794, 42.40937655573623 ], [ 117.309960328223852, 42.409372052790907 ], [ 117.309948175472471, 42.409372085648698 ], [ 117.30994813113432, 42.409363079758037 ], [ 117.309929902009841, 42.409363129042298 ], [ 117.309929879842088, 42.409358626096939 ], [ 117.309923803467683, 42.409358642524388 ], [ 117.309923781300341, 42.409354139579023 ], [ 117.309911628552399, 42.409354172432934 ], [ 117.309911650718846, 42.409358675378293 ], [ 117.309899497970022, 42.409358708230918 ], [ 117.309899786123182, 42.409417246520327 ] ] ] } },
{ "type": "Feature", "properties": { "crown_id": 4868, "tree_id": "4872", "top_h_m": 21.085, "H_95_Mean": 20.9872, "DBH": 33.0856, "Carbon_kg": 213.37831, "area_m2": 27.5 }, "geometry": { "type": "Polygon", "coordinates": [ [ [ 117.310027345754037, 42.409407895612297 ], [ 117.310051651270385, 42.409407829878589 ], [ 117.310051629093849, 42.409403326933322 ], [ 117.310057705472502, 42.409403310499101 ], [ 117.31005766111862, 42.409394304608583 ], [ 117.310088043007383, 42.409394222432638 ], [ 117.310088065186505, 42.409398725377876 ], [ 117.310094141564676, 42.40939870894173 ], [ 117.310094097205578, 42.409389703051218 ], [ 117.310100173582882, 42.409389686614745 ], [ 117.310100084863052, 42.4093716748337 ], [ 117.310106161238593, 42.409371658396914 ], [ 117.310106094697446, 42.409358149561101 ], [ 117.310087865574687, 42.409358198870471 ], [ 117.310087887753738, 42.409362701815766 ], [ 117.310081811379064, 42.409362718251579 ], [ 117.310081833557703, 42.409367221196852 ], [ 117.310063604432258, 42.409367270502379 ], [ 117.310063582254912, 42.409362767557099 ], [ 117.310045353130732, 42.409362816859705 ], [ 117.310045375306757, 42.409367319805 ], [ 117.310033222556427, 42.409367352671808 ], [ 117.310033244731585, 42.409371855617103 ], [ 117.310027168355987, 42.409371872050023 ], [ 117.310027146181227, 42.409367369104729 ], [ 117.31001499343084, 42.409367401969597 ], [ 117.310015126474141, 42.40939441964138 ], [ 117.310021202851928, 42.409394403209092 ], [ 117.310021247200581, 42.409403409099646 ], [ 117.310027323579263, 42.409403392667024 ], [ 117.310027345754037, 42.409407895612297 ] ] ] } },
{ "type": "Feature", "properties": { "crown_id": 4943, "tree_id": "4947", "top_h_m": 19.897, "H_95_Mean": 19.9327, "DBH": 28.4151, "Carbon_kg": 152.301809, "area_m2": 16.75 }, "geometry": { "type": "MultiPolygon", "coordinates": [ [ [ [ 117.310148651500498, 42.409362537439897 ], [ 117.310166880624422, 42.409362488120863 ], [ 117.3101668584397, 42.409357985175603 ], [ 117.310215469433118, 42.409357853644011 ], [ 117.310215491621335, 42.409362356589241 ], [ 117.31023979711965, 42.409362290815707 ], [ 117.310239774929713, 42.409357787870491 ], [ 117.310233698555592, 42.409357804314361 ], [ 117.310233565418699, 42.409330786642968 ], [ 117.310227489047136, 42.40933080308649 ], [ 117.310227466858109, 42.409326300141252 ], [ 117.310215314115894, 42.40932633302733 ], [ 117.310215380680404, 42.409339841863073 ], [ 117.310197151563116, 42.409339891189795 ], [ 117.310197107189367, 42.409330885299298 ], [ 117.310184954446243, 42.409330918182171 ], [ 117.310184998818229, 42.409339924072682 ], [ 117.310178922445786, 42.409339940513632 ], [ 117.31017896681692, 42.409348946404151 ], [ 117.310154661323608, 42.409349012164775 ], [ 117.310154705691303, 42.409358018055286 ], [ 117.310148629317069, 42.409358034494637 ], [ 117.310148651500498, 42.409362537439897 ] ] ], [ [ [ 117.310215314115894, 42.40932633302733 ], [ 117.310215269739572, 42.409317327136819 ], [ 117.310203116999091, 42.409317360021603 ], [ 117.31020316137365, 42.409326365912129 ], [ 117.310215314115894, 42.40932633302733 ] ] ] ] } },
{ "type": "Feature", "properties": { "crown_id": 4976, "tree_id": "4980", "top_h_m": 21.047, "H_95_Mean": 21.7227, "DBH": 38.766, "Carbon_kg": 299.700833, "area_m2": 47.75 }, "geometry": { "type": "Polygon", "coordinates": [ [ [ 117.309960394733736, 42.409385561626884 ], [ 117.309990776618577, 42.409385479476718 ], [ 117.309990754446446, 42.409380976531409 ], [ 117.310008983575969, 42.409380927237464 ], [ 117.310008872708821, 42.409358412510926 ], [ 117.310002796334473, 42.409358428942554 ], [ 117.310002774161504, 42.40935392599723 ], [ 117.309972392291925, 42.409354008150522 ], [ 117.309972347950307, 42.409345002259847 ], [ 117.309954118831129, 42.409345051547938 ], [ 117.309954052322666, 42.409331542711868 ], [ 117.309966205066218, 42.40933150985348 ], [ 117.309966182895863, 42.409327006908129 ], [ 117.309978335638505, 42.409326974048447 ], [ 117.309978313467298, 42.409322471103081 ], [ 117.309990466209058, 42.409322438242143 ], [ 117.309990399692836, 42.409308929406066 ], [ 117.309984323323278, 42.409308945836699 ], [ 117.309984301151658, 42.409304442891326 ], [ 117.30997214841338, 42.409304475751618 ], [ 117.309972170584132, 42.409308978696991 ], [ 117.309941788736168, 42.409309060842098 ], [ 117.309941766567576, 42.409304557896711 ], [ 117.309935690198415, 42.409304574324757 ], [ 117.309935668030278, 42.409300071379377 ], [ 117.309923515292766, 42.409300104234511 ], [ 117.309923493125495, 42.409295601289102 ], [ 117.309905264020529, 42.409295650569398 ], [ 117.30990524185458, 42.409291147623975 ], [ 117.309899165486669, 42.409291164050089 ], [ 117.309899475804428, 42.40935420528556 ], [ 117.309905552178421, 42.40935418885941 ], [ 117.309905530012401, 42.409349685914044 ], [ 117.309929835506551, 42.409349620206243 ], [ 117.309929857674305, 42.409354123151594 ], [ 117.309935934048283, 42.409354106723832 ], [ 117.309935956216464, 42.409358609669184 ], [ 117.30995418533962, 42.409358560383957 ], [ 117.309954229678638, 42.409367566274639 ], [ 117.309966382429124, 42.409367533416216 ], [ 117.309966448940301, 42.409381042252178 ], [ 117.309960372563765, 42.409381058681561 ], [ 117.309960394733736, 42.409385561626884 ] ] ] } },
{ "type": "Feature", "properties": { "crown_id": 4988, "tree_id": "4992", "top_h_m": 20.13, "H_95_Mean": 20.7802, "DBH": 25.2109, "Carbon_kg": 122.651886, "area_m2": 9.75 }, "geometry": { "type": "Polygon", "coordinates": [ [ [ 117.309978446494611, 42.409349488775177 ], [ 117.310008828361987, 42.409349406620279 ], [ 117.310008806188591, 42.40934490367497 ], [ 117.310014882561589, 42.409344887243037 ], [ 117.310014838213945, 42.409335881352362 ], [ 117.31002091458609, 42.409335864920109 ], [ 117.310020825889097, 42.409317853138759 ], [ 117.30999652040741, 42.409317918865824 ], [ 117.30999656475241, 42.409326924756527 ], [ 117.309984412009811, 42.409326957618134 ], [ 117.309984434181459, 42.409331460563479 ], [ 117.309972281437965, 42.409331493423807 ], [ 117.309972303608745, 42.409335996369144 ], [ 117.309978379980933, 42.409335979939151 ], [ 117.309978446494611, 42.409349488775177 ] ] ] } },
{ "type": "Feature", "properties": { "crown_id": 4989, "tree_id": "4993", "top_h_m": 19.26, "H_95_Mean": 20.1012, "DBH": 33.501, "Carbon_kg": 213.300653, "area_m2": 31.25 }, "geometry": { "type": "Polygon", "coordinates": [ [ [ 117.31001497125699, 42.409362899024295 ], [ 117.310039276756001, 42.409362833293279 ], [ 117.310039254580403, 42.409358330347963 ], [ 117.310069636451871, 42.409358248176957 ], [ 117.310069658629644, 42.409362751122238 ], [ 117.310075735004347, 42.409362734687065 ], [ 117.310075712826148, 42.409358231741784 ], [ 117.31008178920041, 42.409358215306305 ], [ 117.310081767021799, 42.40935371236101 ], [ 117.310093919769429, 42.409353679489058 ], [ 117.310093897589951, 42.40934917654377 ], [ 117.310099973963332, 42.409349160107332 ], [ 117.310099996143279, 42.409353663052606 ], [ 117.310106072517101, 42.409353646615841 ], [ 117.310106005975996, 42.409340137779978 ], [ 117.31009992960351, 42.409340154216743 ], [ 117.310099863063783, 42.409326645380865 ], [ 117.310087710321341, 42.409326678253422 ], [ 117.310087643784257, 42.409313169417487 ], [ 117.310081567414329, 42.409313185853264 ], [ 117.31008150087861, 42.409299677017287 ], [ 117.310075424510003, 42.409299693452738 ], [ 117.310075468866273, 42.409308699343406 ], [ 117.310057239757768, 42.409308748647867 ], [ 117.310057284111451, 42.409317754538527 ], [ 117.31002690225948, 42.409317836706201 ], [ 117.310027013132924, 42.409340351432853 ], [ 117.310020936760353, 42.409340367865433 ], [ 117.310020981108892, 42.409349373756079 ], [ 117.310014904735453, 42.409349390188353 ], [ 117.31001497125699, 42.409362899024295 ] ] ] } },
{ "type": "Feature", "properties": { "crown_id": 5042, "tree_id": "5046", "top_h_m": 19.52, "H_95_Mean": 20.4492, "DBH": 20.501, "Carbon_kg": 80.08145, "area_m2": 4.5 }, "geometry": { "type": "Polygon", "coordinates": [ [ [ 117.310093764513098, 42.409322158872001 ], [ 117.310118069996193, 42.409322093124317 ], [ 117.310118047814996, 42.409317590179015 ], [ 117.310124124185307, 42.409317573741298 ], [ 117.310124102003684, 42.409313070796003 ], [ 117.310111949263913, 42.40931310367111 ], [ 117.310111927083156, 42.409308600725808 ], [ 117.310105850713683, 42.409308617162878 ], [ 117.310105806353064, 42.409299611272239 ], [ 117.310087577247231, 42.40929966058151 ], [ 117.310087621605263, 42.409308666472164 ], [ 117.310093697974722, 42.409308650036053 ], [ 117.310093764513098, 42.409322158872001 ] ] ] } },
{ "type": "Feature", "properties": { "crown_id": 5043, "tree_id": "5047", "top_h_m": 21.183, "H_95_Mean": 21.0356, "DBH": 36.0603, "Carbon_kg": 254.15683, "area_m2": 38.25 }, "geometry": { "type": "Polygon", "coordinates": [ [ [ 117.310130400194424, 42.409358083810773 ], [ 117.310142552942878, 42.409358050933662 ], [ 117.310142530759876, 42.40935354798841 ], [ 117.310148607133669, 42.409353531549378 ], [ 117.310148562766869, 42.409344525658859 ], [ 117.310160715512666, 42.409344492779844 ], [ 117.310160671144132, 42.409335486889312 ], [ 117.310178900260226, 42.409335437568373 ], [ 117.310178855889092, 42.409326431677854 ], [ 117.310197085002528, 42.409326382354038 ], [ 117.310197018441968, 42.409312873518232 ], [ 117.310209171181612, 42.409312840634108 ], [ 117.310209126806214, 42.409303834743561 ], [ 117.310215203175176, 42.409303818301012 ], [ 117.310215136610793, 42.409290309465199 ], [ 117.310209060243139, 42.409290325907733 ], [ 117.310208993680135, 42.409276817071856 ], [ 117.310202917313759, 42.40927683351407 ], [ 117.310202939501011, 42.409281336459365 ], [ 117.310196863134237, 42.409281352901253 ], [ 117.31019688532102, 42.409285855846541 ], [ 117.310166503484865, 42.40928593805117 ], [ 117.310166525669516, 42.409290440996479 ], [ 117.310154372934136, 42.409290473876077 ], [ 117.310154417301703, 42.40929947976668 ], [ 117.310136188195997, 42.409299529083675 ], [ 117.310136232560978, 42.409308534974294 ], [ 117.310130156191505, 42.40930855141265 ], [ 117.310130222737683, 42.409322060248549 ], [ 117.310124146366945, 42.409322076686585 ], [ 117.310124168548569, 42.40932657963188 ], [ 117.310105939434976, 42.409326628944108 ], [ 117.310105983795651, 42.409335634834697 ], [ 117.310112060167739, 42.409335618397613 ], [ 117.310112126710109, 42.409349127233462 ], [ 117.310130355830211, 42.409349077920233 ], [ 117.310130400194424, 42.409358083810773 ] ] ] } },
{ "type": "Feature", "properties": { "crown_id": 5098, "tree_id": "5102", "top_h_m": 19.9, "H_95_Mean": 20.2286, "DBH": 30.0482, "Carbon_kg": 171.950998, "area_m2": 20.25 }, "geometry": { "type": "Polygon", "coordinates": [ [ [ 117.309996498234895, 42.409313415920472 ], [ 117.31005118556466, 42.409313268027368 ], [ 117.310051141211844, 42.409304262136693 ], [ 117.310069370319056, 42.40930421283322 ], [ 117.310069348141383, 42.40929970988789 ], [ 117.310063271772719, 42.409299726322701 ], [ 117.310063227418212, 42.409290720432011 ], [ 117.310057151050444, 42.409290736866495 ], [ 117.310057128873638, 42.409286233921151 ], [ 117.310044976138954, 42.409286266789145 ], [ 117.310044931787061, 42.409277260898421 ], [ 117.310008473588113, 42.409277359494666 ], [ 117.310008495761437, 42.409281862440039 ], [ 117.309990266660591, 42.409281911733828 ], [ 117.309990377520791, 42.4093044264607 ], [ 117.309996453889923, 42.409304410029748 ], [ 117.309996498234895, 42.409313415920472 ] ] ] } },
{ "type": "Feature", "properties": { "crown_id": 5123, "tree_id": "5127", "top_h_m": 21.08, "H_95_Mean": 21.115, "DBH": 24.1403, "Carbon_kg": 113.447904, "area_m2": 8.0 }, "geometry": { "type": "Polygon", "coordinates": [ [ [ 117.310118003452601, 42.409308584288411 ], [ 117.31012407982206, 42.409308567850701 ], [ 117.310124057640436, 42.409304064905371 ], [ 117.310130134009455, 42.409304048467348 ], [ 117.31013002309929, 42.409281533740774 ], [ 117.310142175832951, 42.409281500863756 ], [ 117.310142153650062, 42.409276997918433 ], [ 117.310117848184433, 42.409277063671169 ], [ 117.310117826003292, 42.409272560725832 ], [ 117.310099596905317, 42.409272610036986 ], [ 117.310099707804568, 42.409295124763659 ], [ 117.310111860540914, 42.409295091889859 ], [ 117.310111904902399, 42.409304097780485 ], [ 117.310117981271432, 42.409304081343095 ], [ 117.310118003452601, 42.409308584288411 ] ] ] } },
{ "type": "Feature", "properties": { "crown_id": 5131, "tree_id": "5135", "top_h_m": 20.85, "H_95_Mean": 20.9682, "DBH": 32.2693, "Carbon_kg": 202.791907, "area_m2": 25.0 }, "geometry": { "type": "Polygon", "coordinates": [ [ [ 117.309947842936765, 42.40930454146833 ], [ 117.309966072044219, 42.409304492181278 ], [ 117.309966049873921, 42.409299989235912 ], [ 117.309984278980025, 42.40929993994596 ], [ 117.309984168122028, 42.409277425219045 ], [ 117.309990244488574, 42.409277408788448 ], [ 117.30999020014454, 42.409268402897652 ], [ 117.309984123778861, 42.409268419328271 ], [ 117.309984079435722, 42.409259413437461 ], [ 117.309978003070938, 42.409259429867745 ], [ 117.30997795872868, 42.409250423976914 ], [ 117.309941500545037, 42.409250522551815 ], [ 117.309941589219136, 42.409268534333499 ], [ 117.309935512853428, 42.409268550761539 ], [ 117.309935535021538, 42.409273053706954 ], [ 117.309923382289242, 42.409273086562052 ], [ 117.309923404456484, 42.409277589507475 ], [ 117.309917328089924, 42.409277605934548 ], [ 117.30991735025674, 42.409282108879957 ], [ 117.309911273889711, 42.40928212530671 ], [ 117.309911318222476, 42.409291131197548 ], [ 117.309929547326107, 42.409291081916301 ], [ 117.309929569493818, 42.409295584861709 ], [ 117.309941722230434, 42.409295552005929 ], [ 117.309941744398998, 42.409300054951323 ], [ 117.309947820767732, 42.409300038522943 ], [ 117.309947842936765, 42.40930454146833 ] ] ] } },
{ "type": "Feature", "properties": { "crown_id": 5176, "tree_id": "5180", "top_h_m": 21.31, "H_95_Mean": 21.7305, "DBH": 38.3475, "Carbon_kg": 293.27786, "area_m2": 45.75 }, "geometry": { "type": "MultiPolygon", "coordinates": [ [ [ [ 117.310136166013507, 42.409295026138366 ], [ 117.310148318749782, 42.409294993260694 ], [ 117.310148274383096, 42.409285987370083 ], [ 117.310136121648597, 42.409286020247741 ], [ 117.310136166013507, 42.409295026138366 ] ] ], [ [ [ 117.310148274383096, 42.409285987370083 ], [ 117.310160427117637, 42.409285954491132 ], [ 117.310160404933413, 42.409281451545823 ], [ 117.31019078676745, 42.409281369342814 ], [ 117.310190764581066, 42.409276866397519 ], [ 117.310196840947427, 42.409276849955951 ], [ 117.310196818760645, 42.409272347010649 ], [ 117.31021504785835, 42.409272297684041 ], [ 117.310214959105991, 42.409254285902826 ], [ 117.310208882741847, 42.409254302345339 ], [ 117.310208860554198, 42.409249799400023 ], [ 117.310214936917944, 42.409249782957509 ], [ 117.310214914729855, 42.409245280012193 ], [ 117.310220991093161, 42.409245263569368 ], [ 117.310220968904645, 42.409240760624044 ], [ 117.310214892541794, 42.409240777066877 ], [ 117.310214870353732, 42.409236274121554 ], [ 117.310202717628869, 42.409236307006246 ], [ 117.310202695441674, 42.409231804060916 ], [ 117.310190542717677, 42.409231836944315 ], [ 117.31019047615878, 42.409218328108288 ], [ 117.310184399798061, 42.409218344549487 ], [ 117.310184355426344, 42.409209338658791 ], [ 117.310178279066491, 42.409209355099662 ], [ 117.310178212510266, 42.40919584626355 ], [ 117.310172136151706, 42.409195862704109 ], [ 117.310172180521661, 42.409204868594841 ], [ 117.310160027802809, 42.409204901475 ], [ 117.310160049986919, 42.409209404420366 ], [ 117.310153973627067, 42.409209420859966 ], [ 117.310154017994435, 42.409218426750705 ], [ 117.310141865272954, 42.409218459628931 ], [ 117.310141887455771, 42.409222962574297 ], [ 117.310135811094597, 42.409222979012931 ], [ 117.310135833276988, 42.409227481958297 ], [ 117.310129756915359, 42.409227498396611 ], [ 117.310129779097338, 42.409232001341984 ], [ 117.310111550011115, 42.409232050654992 ], [ 117.310111572191801, 42.409236553600365 ], [ 117.310117648554296, 42.409236537163018 ], [ 117.310117692916521, 42.409245543053743 ], [ 117.310123769279883, 42.409245526616054 ], [ 117.310123835824569, 42.409259035452109 ], [ 117.310117759459885, 42.409259051889798 ], [ 117.310117803822152, 42.40926805778048 ], [ 117.310123880187703, 42.409268041342791 ], [ 117.31012390236927, 42.409272544288129 ], [ 117.310148207833151, 42.40927247853412 ], [ 117.310148274383096, 42.409285987370083 ] ], [ [ 117.310196796573834, 42.40926784406534 ], [ 117.310196774387038, 42.409263341120038 ], [ 117.310202850752077, 42.409263324678157 ], [ 117.310202872939328, 42.409267827623466 ], [ 117.310196796573834, 42.40926784406534 ] ], [ [ 117.310142020552831, 42.409249980246422 ], [ 117.31014195400428, 42.409236471410381 ], [ 117.31016018309171, 42.409236422092512 ], [ 117.310160249644184, 42.409249930928553 ], [ 117.310142020552831, 42.409249980246422 ] ], [ [ 117.310160249644184, 42.409249930928553 ], [ 117.310178478735466, 42.409249881607764 ], [ 117.310178545291905, 42.409263390443733 ], [ 117.310160316196672, 42.409263439764537 ], [ 117.310160249644184, 42.409249930928553 ] ] ] ] } },
{ "type": "Feature", "properties": { "crown_id": 5190, "tree_id": "5194", "top_h_m": 20.49, "H_95_Mean": 20.9504, "DBH": 25.6367, "Carbon_kg": 127.476388, "area_m2": 10.25 }, "geometry": { "type": "Polygon", "coordinates": [ [ [ 117.309899143321147, 42.409286661104666 ], [ 117.30990521968863, 42.409286644678552 ], [ 117.309905175356732, 42.409277638787721 ], [ 117.309911251723335, 42.409277622361287 ], [ 117.309911229556946, 42.409273119415872 ], [ 117.309917305923108, 42.409273102989133 ], [ 117.309917283756292, 42.409268600043696 ], [ 117.309929436487721, 42.409268567189244 ], [ 117.309929414320081, 42.409264064243828 ], [ 117.309935490685348, 42.409264047816116 ], [ 117.309935402012982, 42.409246036034411 ], [ 117.309917172922397, 42.409246085316532 ], [ 117.309917106422077, 42.409232576480186 ], [ 117.309911030059837, 42.409232592906896 ], [ 117.309911074392502, 42.409241598797806 ], [ 117.30989892166626, 42.409241631650303 ], [ 117.309899143321147, 42.409286661104666 ] ] ] } },
{ "type": "Feature", "properties": { "crown_id": 5191, "tree_id": "5195", "top_h_m": 18.876, "H_95_Mean": 19.3228, "DBH": 24.9753, "Carbon_kg": 115.286297, "area_m2": 10.75 }, "geometry": { "type": "Polygon", "coordinates": [ [ [ 117.309996320855078, 42.409277392357502 ], [ 117.310002397221595, 42.409277375926251 ], [ 117.310002375048711, 42.409272872980864 ], [ 117.310014527780851, 42.409272840117396 ], [ 117.310014416912125, 42.409250325390438 ], [ 117.310020493276028, 42.409250308958228 ], [ 117.310020404579419, 42.409232297176622 ], [ 117.31000217549294, 42.409232346472237 ], [ 117.310002153320099, 42.409227843526821 ], [ 117.30999607695837, 42.409227859958058 ], [ 117.309996099130757, 42.409232362903474 ], [ 117.309990022768588, 42.409232379334391 ], [ 117.309990067112551, 42.409241385225222 ], [ 117.309983990749487, 42.409241401655827 ], [ 117.309984057264145, 42.409254910492052 ], [ 117.309990133628503, 42.409254894061455 ], [ 117.309990177972509, 42.409263899952258 ], [ 117.309996254337733, 42.409263883521334 ], [ 117.309996320855078, 42.409277392357502 ] ] ] } },
{ "type": "Feature", "properties": { "crown_id": 5192, "tree_id": "5196", "top_h_m": 21.42, "H_95_Mean": 22.09, "DBH": 35.5265, "Carbon_kg": 253.869616, "area_m2": 33.0 }, "geometry": { "type": "Polygon", "coordinates": [ [ [ 117.310069325963681, 42.409295206942552 ], [ 117.310093631436402, 42.409295141200083 ], [ 117.310093498359905, 42.409268123528044 ], [ 117.310111727456601, 42.409268074217856 ], [ 117.310111660914515, 42.409254565381794 ], [ 117.310117737278745, 42.409254548944446 ], [ 117.310117715097633, 42.409250045999087 ], [ 117.310111638733815, 42.409250062436449 ], [ 117.310111594372458, 42.409241056545731 ], [ 117.310105518009522, 42.409241072982773 ], [ 117.31010547364906, 42.409232067092027 ], [ 117.310081168200682, 42.40923213283692 ], [ 117.310081190379165, 42.4092366357823 ], [ 117.310044732203863, 42.409236734389999 ], [ 117.31004475437976, 42.409241237335401 ], [ 117.310026525290723, 42.409241286634909 ], [ 117.31002659181452, 42.409254795471078 ], [ 117.310020515450191, 42.409254811903622 ], [ 117.310020604146928, 42.409272823685164 ], [ 117.310050985977171, 42.409272741519224 ], [ 117.31005103032993, 42.409281747409949 ], [ 117.310063183063718, 42.409281714541315 ], [ 117.310063205240965, 42.40928621748666 ], [ 117.310069281608293, 42.409286201051856 ], [ 117.310069325963681, 42.409295206942552 ] ], [ [ 117.310063116532007, 42.409268205705224 ], [ 117.310063050000352, 42.409254696869127 ], [ 117.310081279093211, 42.409254647563792 ], [ 117.31008134562876, 42.409268156399882 ], [ 117.310063116532007, 42.409268205705224 ] ] ] } }
]
}
