{
"type": "FeatureCollection",
"name": "tile_21_21",
"crs": { "type": "name", "properties": { "name": "urn:ogc:def:crs:OGC:1.3:CRS84" } },
"features": [
{ "type": "Feature", "properties": { "crown_id": 8073, "tree_id": "8080", "top_h_m": 20.642, "H_95_Mean": 20.6208, "DBH": 26.9164, "Carbon_kg": 139.313714, "area_m2": 12.75 }, "geometry": { "type": "Polygon", "coordinates": [ [ [ 117.314959353014487, 42.407777872500084 ], [ 117.31500188654681, 42.407777755636424 ], [ 117.315001751371113, 42.407750737969849 ], [ 117.315007827587408, 42.407750721273771 ], [ 117.315007737468662, 42.407732709495995 ], [ 117.315001661254115, 42.407732726192066 ], [ 117.315001683783365, 42.407737229136529 ], [ 117.314989531353405, 42.407737262527711 ], [ 117.314989598938553, 42.407750771361052 ], [ 117.314971370289683, 42.407750821445433 ], [ 117.314971392816759, 42.407755324389875 ], [ 117.314959240383288, 42.407755357777859 ], [ 117.314959285435748, 42.407764363666757 ], [ 117.314953209218132, 42.407764380360263 ], [ 117.314953231743942, 42.407768883304712 ], [ 117.314959307961985, 42.4077688666112 ], [ 117.314959353014487, 42.407777872500084 ] ] ] } },
{ "type": "Feature", "properties": { "crown_id": 8086, "tree_id": "8093", "top_h_m": 26.144, "H_95_Mean": 25.8613, "DBH": 34.6627, "Carbon_kg": 265.18762, "area_m2": 22.5 }, "geometry": { "type": "Polygon", "coordinates": [ [ [ 117.314813546274749, 42.40778277600019 ], [ 117.314831774933168, 42.407782725940869 ], [ 117.31483175241604, 42.407778222996377 ], [ 117.314849981073095, 42.407778172934179 ], [ 117.314849890999412, 42.407760161156212 ], [ 117.314855967216701, 42.407760144468178 ], [ 117.31485594469784, 42.407755641523678 ], [ 117.314862020914688, 42.407755624835325 ], [ 117.314861885799118, 42.407728607168281 ], [ 117.314837580942196, 42.407728673919713 ], [ 117.314837558424685, 42.407724170975186 ], [ 117.314831482210892, 42.407724187662225 ], [ 117.314831504727948, 42.40772869060676 ], [ 117.314825428513714, 42.407728707293494 ], [ 117.314825451030345, 42.407733210238021 ], [ 117.314813298600967, 42.407733243610515 ], [ 117.314813321116745, 42.40773774655505 ], [ 117.314801168686444, 42.407737779926265 ], [ 117.314801191201369, 42.407742282870799 ], [ 117.314795114985785, 42.407742299555927 ], [ 117.314795137500269, 42.407746802500462 ], [ 117.314801213716279, 42.40774678581532 ], [ 117.314801258746115, 42.407755791704382 ], [ 117.31481341117987, 42.407755758333145 ], [ 117.314813546274749, 42.40778277600019 ] ] ] } },
{ "type": "Feature", "properties": { "crown_id": 8087, "tree_id": "8094", "top_h_m": 23.5, "H_95_Mean": 23.8459, "DBH": 24.4705, "Carbon_kg": 125.294124, "area_m2": 6.75 }, "geometry": { "type": "Polygon", "coordinates": [ [ [ 117.314898568303121, 42.407773536476341 ], [ 117.314904644521647, 42.407773519785714 ], [ 117.314904621999332, 42.407769016841243 ], [ 117.314910698217432, 42.407769000150303 ], [ 117.314910653171893, 42.407759994261369 ], [ 117.314892424520224, 42.407760044333202 ], [ 117.314892379477314, 42.407751038444246 ], [ 117.314886303260934, 42.407751055134199 ], [ 117.314886235697941, 42.407737546300716 ], [ 117.314868007052709, 42.407737596368655 ], [ 117.314868097131509, 42.407755608146651 ], [ 117.314874173348343, 42.407755591457644 ], [ 117.31487419586847, 42.407760094402136 ], [ 117.31488027208573, 42.407760077712823 ], [ 117.314880317126892, 42.407769083601778 ], [ 117.314898545781233, 42.407769033531856 ], [ 117.314898568303121, 42.407773536476341 ] ] ] } },
{ "type": "Feature", "properties": { "crown_id": 8088, "tree_id": "8095", "top_h_m": 23.654, "H_95_Mean": 23.1866, "DBH": 33.0259, "Carbon_kg": 225.511826, "area_m2": 22.75 }, "geometry": { "type": "Polygon", "coordinates": [ [ [ 117.315056640116197, 42.407791114193124 ], [ 117.315062716336328, 42.407791097494119 ], [ 117.315062693802659, 42.407786594549748 ], [ 117.315068770022364, 42.407786577850423 ], [ 117.315068747488283, 42.407782074906038 ], [ 117.315080899926798, 42.407782041506429 ], [ 117.315080832321968, 42.407768532673273 ], [ 117.315086908539911, 42.407768515972997 ], [ 117.315086886004565, 42.407764013028597 ], [ 117.315074733569531, 42.407764046428824 ], [ 117.315074711035024, 42.407759543484424 ], [ 117.315068634817948, 42.407759560184061 ], [ 117.315068567215818, 42.407746051350841 ], [ 117.315044262352629, 42.407746118146093 ], [ 117.315044217288047, 42.407737112257244 ], [ 117.315038141073103, 42.407737128955247 ], [ 117.315038163604967, 42.407741631899682 ], [ 117.315013858743413, 42.407741698688483 ], [ 117.315013926333805, 42.407755207521802 ], [ 117.315007850117112, 42.407755224218207 ], [ 117.315007962765691, 42.407777738940325 ], [ 117.315044420078863, 42.40777763875699 ], [ 117.31504444261121, 42.407782141701382 ], [ 117.315056595049739, 42.407782108304346 ], [ 117.315056640116197, 42.407791114193124 ] ] ] } },
{ "type": "Feature", "properties": { "crown_id": 8101, "tree_id": "8108", "top_h_m": 24.365, "H_95_Mean": 24.2598, "DBH": 30.6866, "Carbon_kg": 199.749452, "area_m2": 15.75 }, "geometry": { "type": "Polygon", "coordinates": [ [ [ 117.314916796958713, 42.407773486403514 ], [ 117.314935025614261, 42.407773436327794 ], [ 117.314935003089744, 42.407768933383331 ], [ 117.314947155525886, 42.407768899997912 ], [ 117.314947110475146, 42.407759894108999 ], [ 117.314953186692321, 42.40775987741582 ], [ 117.314953141640757, 42.407750871526908 ], [ 117.314965294073374, 42.407750838139577 ], [ 117.314965226493428, 42.407737329306194 ], [ 117.31493484541835, 42.407737412772065 ], [ 117.314934822893889, 42.407732909827587 ], [ 117.314910518035475, 42.407732976594474 ], [ 117.314910540558202, 42.407737479538973 ], [ 117.314892311913013, 42.407737529610763 ], [ 117.31489235695588, 42.407746535499754 ], [ 117.314910585603656, 42.407746485427936 ], [ 117.314910630649138, 42.407755491316898 ], [ 117.314916706865944, 42.407755474625652 ], [ 117.314916796958713, 42.407773486403514 ] ] ] } },
{ "type": "Feature", "properties": { "crown_id": 8135, "tree_id": "8142", "top_h_m": 23.243, "H_95_Mean": 23.3154, "DBH": 31.503, "Carbon_kg": 205.716522, "area_m2": 18.75 }, "geometry": { "type": "Polygon", "coordinates": [ [ [ 117.314971347762608, 42.407746318500969 ], [ 117.314983500194316, 42.407746285111713 ], [ 117.314983432610489, 42.407732776278344 ], [ 117.314995585039583, 42.407732742887823 ], [ 117.314995562510774, 42.40772823994336 ], [ 117.314989486296639, 42.407728256638777 ], [ 117.314989441239945, 42.407719250749849 ], [ 117.314983365026677, 42.407719267444953 ], [ 117.314983342498763, 42.407714764500469 ], [ 117.314971190073123, 42.407714797889696 ], [ 117.314971145019044, 42.407705792000726 ], [ 117.314965068807069, 42.407705808694857 ], [ 117.314965001227279, 42.407692299861367 ], [ 117.314934620173943, 42.40769238332711 ], [ 117.314934665222779, 42.407701389216129 ], [ 117.314928589011217, 42.407701405908327 ], [ 117.31492870163126, 42.407723920630815 ], [ 117.314922625417509, 42.4077239373227 ], [ 117.314922647941103, 42.407728440267185 ], [ 117.314940876583591, 42.407728390190584 ], [ 117.314940899108478, 42.407732893135055 ], [ 117.314971280181368, 42.407732809667593 ], [ 117.314971347762608, 42.407746318500969 ] ] ] } },
{ "type": "Feature", "properties": { "crown_id": 8136, "tree_id": "8143", "top_h_m": 23.59, "H_95_Mean": 23.5265, "DBH": 34.6697, "Carbon_kg": 250.856357, "area_m2": 26.75 }, "geometry": { "type": "Polygon", "coordinates": [ [ [ 117.315050316035709, 42.407741598503343 ], [ 117.315068544681793, 42.407741548406413 ], [ 117.31506852214774, 42.407737045462007 ], [ 117.315080674577572, 42.407737012062455 ], [ 117.315080652042681, 42.407732509118034 ], [ 117.315092804471604, 42.407732475717197 ], [ 117.315092759400088, 42.407723469828355 ], [ 117.315098835613682, 42.407723453127467 ], [ 117.315098813077498, 42.407718950183046 ], [ 117.31508666065119, 42.407718983584509 ], [ 117.315086638115872, 42.407714480640074 ], [ 117.315080561903144, 42.407714497340329 ], [ 117.315080471763707, 42.40769648556256 ], [ 117.315074395552699, 42.407696502262482 ], [ 117.315074327949475, 42.40768299342912 ], [ 117.315062175530073, 42.407683026827961 ], [ 117.315062198063615, 42.407687529772424 ], [ 117.315056121853459, 42.407687546471372 ], [ 117.315056099320373, 42.407683043526902 ], [ 117.315050023110643, 42.407683060225516 ], [ 117.315050000577997, 42.407678557281045 ], [ 117.315043924368695, 42.407678573979332 ], [ 117.31504405956214, 42.407705591646142 ], [ 117.315031907138348, 42.407705625041793 ], [ 117.315031952201124, 42.407714630930698 ], [ 117.31501979977557, 42.407714664325077 ], [ 117.315019822306084, 42.407719167269548 ], [ 117.315007669879634, 42.407719200662626 ], [ 117.315007714938986, 42.407728206551539 ], [ 117.315013791153063, 42.407728189855149 ], [ 117.315013836213296, 42.407737195744048 ], [ 117.315032064858158, 42.407737145652931 ], [ 117.315032042326749, 42.407732642708488 ], [ 117.315050270970261, 42.407732592614479 ], [ 117.315050316035709, 42.407741598503343 ] ] ] } },
{ "type": "Feature", "properties": { "crown_id": 8149, "tree_id": "8156", "top_h_m": 25.391, "H_95_Mean": 24.9112, "DBH": 40.8932, "Carbon_kg": 361.932907, "area_m2": 45.75 }, "geometry": { "type": "Polygon", "coordinates": [ [ [ 117.314867984533038, 42.407733093424142 ], [ 117.314904441820858, 42.407732993285393 ], [ 117.314904419298557, 42.407728490340901 ], [ 117.314916571726926, 42.407728456958743 ], [ 117.314916526680619, 42.407719451069759 ], [ 117.314922602893944, 42.407719434378201 ], [ 117.314922490276089, 42.407696919655663 ], [ 117.314928566487225, 42.407696902963799 ], [ 117.314928543963248, 42.407692400019293 ], [ 117.314922467752552, 42.40769241671115 ], [ 117.314922422705465, 42.407683410822109 ], [ 117.314898117866122, 42.407683477586311 ], [ 117.314897982735431, 42.407656459919032 ], [ 117.314885830320961, 42.407656493299164 ], [ 117.314885807800067, 42.407651990354594 ], [ 117.314879731593237, 42.407652007044184 ], [ 117.314879776634157, 42.40766101293331 ], [ 117.314873700426475, 42.407661029622574 ], [ 117.314873722946501, 42.407665532567137 ], [ 117.314867646738378, 42.40766554925608 ], [ 117.314867669257978, 42.407670052200643 ], [ 117.314861593049429, 42.407670068889267 ], [ 117.314861615568589, 42.407674571833837 ], [ 117.31485553935957, 42.407674588522141 ], [ 117.314855561878332, 42.407679091466697 ], [ 117.314837333249969, 42.407679141529691 ], [ 117.314837378284864, 42.407688147418831 ], [ 117.314831302074523, 42.407688164105856 ], [ 117.314831324591552, 42.407692667050405 ], [ 117.314825248380785, 42.407692683737118 ], [ 117.314825315930605, 42.407706192570785 ], [ 117.314831392142665, 42.407706175884066 ], [ 117.314831414659722, 42.407710678828614 ], [ 117.314837490872222, 42.407710662141568 ], [ 117.314837535907202, 42.407719668030651 ], [ 117.314843612120569, 42.407719651343292 ], [ 117.314843634638507, 42.407724154287813 ], [ 117.314867939493681, 42.407724087535108 ], [ 117.314867984533038, 42.407733093424142 ] ] ] } },
{ "type": "Feature", "properties": { "crown_id": 8167, "tree_id": "8174", "top_h_m": 22.807, "H_95_Mean": 23.1458, "DBH": 33.7227, "Carbon_kg": 234.959356, "area_m2": 24.75 }, "geometry": { "type": "Polygon", "coordinates": [ [ [ 117.314995539981965, 42.407723736998896 ], [ 117.31500161619563, 42.40772372030316 ], [ 117.315001571137174, 42.407714714414226 ], [ 117.315013723562785, 42.40771468102178 ], [ 117.315013701032683, 42.407710178077316 ], [ 117.315025853457371, 42.407710144683591 ], [ 117.315025808395475, 42.407701138794671 ], [ 117.315037960818415, 42.40770110539966 ], [ 117.315037803095862, 42.407669584788344 ], [ 117.31497704101136, 42.407669751750291 ], [ 117.314977086066236, 42.407678757639303 ], [ 117.314964933647545, 42.407678791027841 ], [ 117.314964978700715, 42.407687796916861 ], [ 117.314971054910927, 42.407687780222751 ], [ 117.314971122492011, 42.407701289056241 ], [ 117.314977198703517, 42.407701272361805 ], [ 117.314977243758463, 42.407710278250768 ], [ 117.314989396183236, 42.407710244860908 ], [ 117.314989418711562, 42.407714747805379 ], [ 117.314995494924389, 42.407714731109962 ], [ 117.314995539981965, 42.407723736998896 ] ] ] } },
{ "type": "Feature", "properties": { "crown_id": 8213, "tree_id": "8221", "top_h_m": 21.275, "H_95_Mean": 20.9523, "DBH": 22.7993, "Carbon_kg": 100.642811, "area_m2": 6.5 }, "geometry": { "type": "Polygon", "coordinates": [ [ [ 117.314837310732528, 42.407674638585128 ], [ 117.314849463150566, 42.407674605210126 ], [ 117.314849440632258, 42.407670102265563 ], [ 117.314855516840836, 42.407670085577578 ], [ 117.314855494322103, 42.407665582633015 ], [ 117.314861570530226, 42.407665565944704 ], [ 117.314861548011066, 42.407661063000134 ], [ 117.314867624218778, 42.40766104631151 ], [ 117.314867601699177, 42.407656543366947 ], [ 117.314873677906434, 42.407656526678004 ], [ 117.314873632866394, 42.407647520788863 ], [ 117.314867556660005, 42.407647537477793 ], [ 117.314867579179577, 42.407652040422377 ], [ 117.314837198145369, 42.407652123862242 ], [ 117.314837220662781, 42.407656626806819 ], [ 117.314831144455496, 42.407656643493823 ], [ 117.314831166972482, 42.407661146438414 ], [ 117.314825090764757, 42.407661163125105 ], [ 117.314825135797875, 42.407670169014267 ], [ 117.314837288215074, 42.407670135640551 ], [ 117.314837310732528, 42.407674638585128 ] ] ] } },
{ "type": "Feature", "properties": { "crown_id": 8214, "tree_id": "8222", "top_h_m": 23.89, "H_95_Mean": 23.5855, "DBH": 31.3428, "Carbon_kg": 205.005373, "area_m2": 18.0 }, "geometry": { "type": "Polygon", "coordinates": [ [ [ 117.314928521439271, 42.40768789707478 ], [ 117.314958902490474, 42.407687813610657 ], [ 117.314958834912062, 42.407674304777117 ], [ 117.314970987329886, 42.407674271389233 ], [ 117.314970942275906, 42.407665265500206 ], [ 117.314964866067854, 42.407665282194301 ], [ 117.31496484354129, 42.407660779249774 ], [ 117.314958767333664, 42.407660795943549 ], [ 117.314958699755323, 42.407647287109945 ], [ 117.314940471136381, 42.407647337189317 ], [ 117.314940493661169, 42.407651840133866 ], [ 117.314922265040835, 42.407651890210346 ], [ 117.314922242517341, 42.407647387265783 ], [ 117.314916166310979, 42.407647403957291 ], [ 117.314916188834061, 42.407651906901854 ], [ 117.31491011262726, 42.407651923593043 ], [ 117.314910135149887, 42.407656426537599 ], [ 117.314904058942659, 42.407656443228461 ], [ 117.314904171553735, 42.407678957951205 ], [ 117.314928476391316, 42.407678891185725 ], [ 117.314928521439271, 42.40768789707478 ] ] ] } },
{ "type": "Feature", "properties": { "crown_id": 8232, "tree_id": "8240", "top_h_m": 20.504, "H_95_Mean": 20.8367, "DBH": 29.8751, "Carbon_kg": 172.963978, "area_m2": 18.75 }, "geometry": { "type": "Polygon", "coordinates": [ [ [ 117.314977018483944, 42.407665248805777 ], [ 117.315037780564069, 42.407665081843859 ], [ 117.315037735500553, 42.407656075954868 ], [ 117.31502558308631, 42.407656109349816 ], [ 117.315025560555412, 42.407651606405317 ], [ 117.31501948434871, 42.407651623102296 ], [ 117.315019461818252, 42.407647120157797 ], [ 117.315013385611977, 42.407647136854457 ], [ 117.31501329549198, 42.407629125076369 ], [ 117.31500114308291, 42.407629158468708 ], [ 117.315001120553774, 42.407624655524181 ], [ 117.314982891941426, 42.40762470561026 ], [ 117.314982914469255, 42.407629208554809 ], [ 117.314970762060128, 42.407629241943923 ], [ 117.314970784587075, 42.407633744888479 ], [ 117.314964708382064, 42.407633761582552 ], [ 117.314964730908585, 42.407638264527094 ], [ 117.314958654703148, 42.407638281220862 ], [ 117.314958677229242, 42.407642784165404 ], [ 117.31496475343512, 42.407642767471643 ], [ 117.31496482101474, 42.407656276305246 ], [ 117.314970897221926, 42.407656259611159 ], [ 117.314970919748902, 42.407660762555679 ], [ 117.314976995956513, 42.407660745861257 ], [ 117.314977018483944, 42.407665248805777 ] ] ] } },
{ "type": "Feature", "properties": { "crown_id": 8280, "tree_id": "8288", "top_h_m": 24.029, "H_95_Mean": 23.6924, "DBH": 36.2804, "Carbon_kg": 276.044786, "area_m2": 31.5 }, "geometry": { "type": "Polygon", "coordinates": [ [ [ 117.314891884006855, 42.407651973664692 ], [ 117.314904036420458, 42.40765194028392 ], [ 117.314904013898271, 42.407647437339357 ], [ 117.314910090104632, 42.407647420648487 ], [ 117.314910067582005, 42.407642917703917 ], [ 117.314928296199767, 42.407642867629399 ], [ 117.314928318723688, 42.407647370573947 ], [ 117.314934394930035, 42.407647353881792 ], [ 117.314934372405673, 42.407642850937243 ], [ 117.31495260102335, 42.407642800858838 ], [ 117.314952555972042, 42.407633794969747 ], [ 117.314958632177067, 42.40763377827632 ], [ 117.314958609650972, 42.407629275331757 ], [ 117.314964685855543, 42.407629258638003 ], [ 117.314964640802529, 42.407620252748906 ], [ 117.314946412191389, 42.407620302829173 ], [ 117.31494636714099, 42.40761129694004 ], [ 117.314940290938139, 42.40761131363282 ], [ 117.314940268413395, 42.407606810688243 ], [ 117.31493419221097, 42.407606827380711 ], [ 117.314934169686637, 42.407602324436127 ], [ 117.314928093484639, 42.407602341128246 ], [ 117.314928070960775, 42.407597838183662 ], [ 117.314921994759217, 42.407597854875469 ], [ 117.314921927188919, 42.407584346041673 ], [ 117.314915850988655, 42.407584362733147 ], [ 117.314915941080642, 42.407602374511548 ], [ 117.314903788676631, 42.407602407893556 ], [ 117.314903811198775, 42.407606910838147 ], [ 117.314885582591373, 42.407606960908744 ], [ 117.31488560511221, 42.40761146385335 ], [ 117.314879528909302, 42.407611480542904 ], [ 117.314879551429726, 42.407615983487503 ], [ 117.314867399023044, 42.407616016865667 ], [ 117.314867534140404, 42.407643034533216 ], [ 117.314879686552331, 42.407643001155023 ], [ 117.31487970907277, 42.407647504099607 ], [ 117.314891861485535, 42.407647470720129 ], [ 117.314891884006855, 42.407651973664692 ] ] ] } },
{ "type": "Feature", "properties": { "crown_id": 8291, "tree_id": "8299", "top_h_m": 22.12, "H_95_Mean": 22.0799, "DBH": 29.1135, "Carbon_kg": 169.917461, "area_m2": 15.25 }, "geometry": { "type": "Polygon", "coordinates": [ [ [ 117.315019371696522, 42.407629108379716 ], [ 117.31505582892359, 42.40762900819302 ], [ 117.315055806390546, 42.407624505248506 ], [ 117.31506795879865, 42.407624471850369 ], [ 117.315067891196989, 42.407610963016829 ], [ 117.315061814994223, 42.407610979716047 ], [ 117.315061724860485, 42.40759296793793 ], [ 117.315055648659467, 42.407592984636814 ], [ 117.31505562612648, 42.407588481692272 ], [ 117.315043473725297, 42.407588515089074 ], [ 117.315043496257417, 42.407593018033616 ], [ 117.315031343855338, 42.407593051429146 ], [ 117.315031366386592, 42.407597554373702 ], [ 117.315025290185133, 42.40759757107098 ], [ 117.315025357777628, 42.407611079904598 ], [ 117.31500712916926, 42.407611129994535 ], [ 117.315007196757875, 42.407624638828167 ], [ 117.315019349166079, 42.407624605435174 ], [ 117.315019371696522, 42.407629108379716 ] ] ] } },
{ "type": "Feature", "properties": { "crown_id": 8318, "tree_id": "8326", "top_h_m": 23.535, "H_95_Mean": 23.2274, "DBH": 35.87, "Carbon_kg": 266.642934, "area_m2": 31.25 }, "geometry": { "type": "Polygon", "coordinates": [ [ [ 117.31497073953318, 42.407624738999381 ], [ 117.31497681573731, 42.407624722304973 ], [ 117.314976793209922, 42.407620219360432 ], [ 117.315001098024652, 42.407620152579632 ], [ 117.315001030437358, 42.407606643745993 ], [ 117.315019259044433, 42.407606593657029 ], [ 117.31501919145326, 42.407593084823375 ], [ 117.315025267654292, 42.407593068126417 ], [ 117.315025245123493, 42.407588565181868 ], [ 117.315013092722253, 42.407588598575458 ], [ 117.315013025132444, 42.407575089741755 ], [ 117.314994796534464, 42.407575139829689 ], [ 117.314994774005825, 42.407570636885104 ], [ 117.314988697806939, 42.407570653580443 ], [ 117.314988675278741, 42.407566150635859 ], [ 117.314976522881807, 42.407566184025541 ], [ 117.31497654540911, 42.407570686970132 ], [ 117.314964393011266, 42.407570720358549 ], [ 117.31496441553773, 42.407575223303134 ], [ 117.314934034540855, 42.407575306768535 ], [ 117.314934057065159, 42.407579809713148 ], [ 117.31492798086532, 42.407579826405261 ], [ 117.314928048436897, 42.407593335239071 ], [ 117.314934124638029, 42.407593318546937 ], [ 117.314934147162333, 42.407597821491542 ], [ 117.314940223363891, 42.407597804799082 ], [ 117.314940245888636, 42.407602307743666 ], [ 117.31494632209062, 42.4076022910509 ], [ 117.314946344615791, 42.407606793995477 ], [ 117.314952420818216, 42.407606777302369 ], [ 117.314952465869482, 42.407615783191517 ], [ 117.3149706944793, 42.407615733110269 ], [ 117.31497073953318, 42.407624738999381 ] ] ] } }
]
}
