{
"type": "FeatureCollection",
"name": "tile_16_10",
"crs": { "type": "name", "properties": { "name": "urn:ogc:def:crs:OGC:1.3:CRS84" } },
"features": [
{ "type": "Feature", "properties": { "crown_id": 6370, "tree_id": "6376", "top_h_m": 19.799, "H_95_Mean": 20.327, "DBH": 34.1552, "Carbon_kg": 223.249123, "area_m2": 33.0 }, "geometry": { "type": "MultiPolygon", "coordinates": [ [ [ [ 117.312174922759681, 42.408704101810002 ], [ 117.312187075379498, 42.408704068716581 ], [ 117.31218705305082, 42.408699565771677 ], [ 117.312205281979246, 42.408699516129133 ], [ 117.312205237319247, 42.408690510239325 ], [ 117.312235618862189, 42.40869042749533 ], [ 117.312235596530044, 42.408685924550447 ], [ 117.312241672838184, 42.408685908000685 ], [ 117.312241650505584, 42.408681405055788 ], [ 117.312247726813297, 42.40868138850572 ], [ 117.312247682147259, 42.408672382615912 ], [ 117.312253758454091, 42.408672366065517 ], [ 117.312253736120638, 42.408667863120627 ], [ 117.312278041346147, 42.408667796915822 ], [ 117.312277952005459, 42.408649785136227 ], [ 117.31227187570083, 42.408649801687908 ], [ 117.31227183103141, 42.408640795798085 ], [ 117.312259678423871, 42.408640828900452 ], [ 117.312259700757707, 42.408645331845371 ], [ 117.312253624453504, 42.408645348396078 ], [ 117.312253713787186, 42.408663360175723 ], [ 117.31224156117527, 42.408663393276179 ], [ 117.312241583507856, 42.40866789622109 ], [ 117.312217278282219, 42.408667962418178 ], [ 117.312217255951396, 42.408663459473253 ], [ 117.312211179645402, 42.408663476021715 ], [ 117.312211157315019, 42.40865897307679 ], [ 117.312205081009466, 42.408658989624918 ], [ 117.312205036349567, 42.40864998373506 ], [ 117.312180731130752, 42.408650049924368 ], [ 117.312180798115392, 42.408663558759194 ], [ 117.312168645503348, 42.408663591851919 ], [ 117.312168690158074, 42.408672597741791 ], [ 117.312156537544283, 42.408672630833244 ], [ 117.312156626850282, 42.408690642612974 ], [ 117.312150550541631, 42.408690659158225 ], [ 117.312150572867722, 42.40869516210315 ], [ 117.312174878104003, 42.408695095920194 ], [ 117.312174922759681, 42.408704101810002 ] ] ], [ [ [ 117.312180731130752, 42.408650049924368 ], [ 117.312180708802558, 42.408645546979415 ], [ 117.312174632498284, 42.408645563525937 ], [ 117.312174654826038, 42.408650066470891 ], [ 117.312180731130752, 42.408650049924368 ] ] ] ] } },
{ "type": "Feature", "properties": { "crown_id": 6401, "tree_id": "6407", "top_h_m": 20.247, "H_95_Mean": 20.0158, "DBH": 27.6734, "Carbon_kg": 144.751296, "area_m2": 15.0 }, "geometry": { "type": "Polygon", "coordinates": [ [ [ 117.312223332257375, 42.408663442924464 ], [ 117.312235484869319, 42.408663409825941 ], [ 117.312235462537188, 42.408658906881016 ], [ 117.312247615148237, 42.408658873781199 ], [ 117.312247525816304, 42.40864086200154 ], [ 117.31225360212008, 42.408640845451153 ], [ 117.312253579786685, 42.408636342506242 ], [ 117.312265732393357, 42.408636309404507 ], [ 117.312265643056307, 42.408618297624798 ], [ 117.312259566754705, 42.408618314175804 ], [ 117.312259589088526, 42.408622817120737 ], [ 117.312235283880341, 42.40862288332157 ], [ 117.312235261548253, 42.40861838037663 ], [ 117.312229185246636, 42.40861839692603 ], [ 117.312229162914974, 42.408613893981084 ], [ 117.312223086613798, 42.408613910530157 ], [ 117.312223108945005, 42.408618413475104 ], [ 117.312217032643375, 42.408618430023871 ], [ 117.312217077304922, 42.408627435913779 ], [ 117.312211001002424, 42.408627452462213 ], [ 117.312211045663148, 42.40863645835212 ], [ 117.312217121966498, 42.408636441803665 ], [ 117.31221718895894, 42.40864995063847 ], [ 117.312211112654253, 42.408649967186932 ], [ 117.312211134984622, 42.408654470131857 ], [ 117.312217211289735, 42.408654453583402 ], [ 117.312217233620558, 42.408658956528328 ], [ 117.312223309926111, 42.408658939979532 ], [ 117.312223332257375, 42.408663442924464 ] ] ] } },
{ "type": "Feature", "properties": { "crown_id": 6443, "tree_id": "6449", "top_h_m": 18.069, "H_95_Mean": 18.1559, "DBH": 30.1315, "Carbon_kg": 162.203423, "area_m2": 25.0 }, "geometry": { "type": "Polygon", "coordinates": [ [ [ 117.312290149286795, 42.408658757921707 ], [ 117.312296225592263, 42.408658741369059 ], [ 117.312296203255784, 42.40865423842417 ], [ 117.312314432170922, 42.408654188764316 ], [ 117.312314409833135, 42.408649685819427 ], [ 117.31232048613775, 42.408649669265493 ], [ 117.312320463799551, 42.408645166320611 ], [ 117.312338692712004, 42.408645116656913 ], [ 117.312338625693513, 42.40863160782223 ], [ 117.312332549390689, 42.408631624377122 ], [ 117.312332437695503, 42.408609109652595 ], [ 117.312326361394824, 42.408609126207146 ], [ 117.312326316717645, 42.408600120317303 ], [ 117.312302011518383, 42.408600186532261 ], [ 117.312301989181563, 42.408595683587329 ], [ 117.31228376028335, 42.40859573324515 ], [ 117.312283782618891, 42.408600236190097 ], [ 117.312277706319037, 42.408600252742069 ], [ 117.312277750989239, 42.408609258631948 ], [ 117.31228382728996, 42.408609242079976 ], [ 117.312283849625516, 42.408613745024908 ], [ 117.312277773324368, 42.408613761576881 ], [ 117.312277795659497, 42.408618264521813 ], [ 117.312271719357881, 42.408618281073466 ], [ 117.312271808696693, 42.408636292853167 ], [ 117.312277885000029, 42.408636276301507 ], [ 117.312277929670302, 42.40864528219133 ], [ 117.312284005974504, 42.408645265639336 ], [ 117.312284050645687, 42.408654271529144 ], [ 117.312290126950742, 42.408654254976817 ], [ 117.312290149286795, 42.408658757921707 ] ], [ [ 117.312308266516581, 42.408636193538342 ], [ 117.312308199504642, 42.408622684703616 ], [ 117.3123264284106, 42.408622635041873 ], [ 117.312326495426447, 42.408636143876585 ], [ 117.312308266516581, 42.408636193538342 ] ] ] } },
{ "type": "Feature", "properties": { "crown_id": 6504, "tree_id": "6510", "top_h_m": 18.82, "H_95_Mean": 19.1572, "DBH": 38.9002, "Carbon_kg": 280.175367, "area_m2": 61.0 }, "geometry": { "type": "Polygon", "coordinates": [ [ [ 117.312186785106817, 42.408645530432572 ], [ 117.312211090323885, 42.408645464241999 ], [ 117.312211067993516, 42.408640961297053 ], [ 117.312204991689697, 42.408640977845174 ], [ 117.312204902369999, 42.40862296606538 ], [ 117.312210978672056, 42.408622949517259 ], [ 117.312210934011375, 42.408613943627351 ], [ 117.312217010312594, 42.408613927078918 ], [ 117.312216987981827, 42.408609424133957 ], [ 117.312229140583355, 42.408609391036137 ], [ 117.312229073588455, 42.408595882201247 ], [ 117.312235149887897, 42.408595865651854 ], [ 117.312235105223806, 42.408586859761911 ], [ 117.312241181522381, 42.408586843212213 ], [ 117.312241136857452, 42.408577837322269 ], [ 117.312253289452855, 42.408577804221906 ], [ 117.312253244786177, 42.408568798331949 ], [ 117.312265397379832, 42.408568765230299 ], [ 117.312265352711435, 42.408559759340356 ], [ 117.312259276415475, 42.408559775891334 ], [ 117.312259231747987, 42.408550770001355 ], [ 117.312253155452908, 42.408550786551999 ], [ 117.312253110786287, 42.408541780662013 ], [ 117.31223488190362, 42.408541830312011 ], [ 117.312234859571632, 42.408537327367 ], [ 117.312216630690187, 42.408537377014106 ], [ 117.312216653020897, 42.408541879959124 ], [ 117.312222729315138, 42.408541863410413 ], [ 117.312222751646274, 42.408546366355417 ], [ 117.312192370172795, 42.40854644909578 ], [ 117.312192437159709, 42.408559957930827 ], [ 117.312186360863691, 42.408559974477939 ], [ 117.312186383192227, 42.408564477422956 ], [ 117.312168154302853, 42.40856452706236 ], [ 117.312168265939135, 42.408587041787413 ], [ 117.312156113341842, 42.408587074878774 ], [ 117.31215615799465, 42.408596080768781 ], [ 117.312150081695123, 42.408596097313982 ], [ 117.312150126347063, 42.408605103203968 ], [ 117.312156202647472, 42.40860508665876 ], [ 117.312156269626726, 42.408618595493728 ], [ 117.312150193325039, 42.408618612038936 ], [ 117.312150282629062, 42.40863662381885 ], [ 117.312156358932498, 42.408636607273635 ], [ 117.312156381258944, 42.408641110218596 ], [ 117.312186762778211, 42.408641027487619 ], [ 117.312186785106817, 42.408645530432572 ] ], [ [ 117.312168466884714, 42.408627568292282 ], [ 117.312168399902802, 42.408614059457356 ], [ 117.312186628806501, 42.40861400981786 ], [ 117.312186695792334, 42.408627518652757 ], [ 117.312168466884714, 42.408627568292282 ] ] ] } },
{ "type": "Feature", "properties": { "crown_id": 6505, "tree_id": "6511", "top_h_m": 17.118, "H_95_Mean": 17.5545, "DBH": 23.5646, "Carbon_kg": 96.879587, "area_m2": 10.25 }, "geometry": { "type": "Polygon", "coordinates": [ [ [ 117.312241337849883, 42.408618363826911 ], [ 117.312253490453088, 42.408618330726497 ], [ 117.312253468119721, 42.408613827781565 ], [ 117.31227169702322, 42.408613778128533 ], [ 117.312271607684522, 42.408595766348768 ], [ 117.312277683983936, 42.408595749797122 ], [ 117.312277661648835, 42.408591246852176 ], [ 117.312271585349848, 42.408591263403814 ], [ 117.312271540680555, 42.408582257513892 ], [ 117.312265464382435, 42.408582274065218 ], [ 117.312265419714009, 42.408573268175275 ], [ 117.312259343416756, 42.408573284726266 ], [ 117.312259388084314, 42.408582290616202 ], [ 117.312247235488044, 42.408582323717212 ], [ 117.312247280153883, 42.408591329607148 ], [ 117.312241203854867, 42.408591346157181 ], [ 117.312241248519854, 42.40860035204711 ], [ 117.312235172219971, 42.408600368596822 ], [ 117.312235239216179, 42.408613877431691 ], [ 117.31224131551734, 42.408613860881964 ], [ 117.312241337849883, 42.408618363826911 ] ] ] } },
{ "type": "Feature", "properties": { "crown_id": 6609, "tree_id": "6615", "top_h_m": 22.787, "H_95_Mean": 22.2926, "DBH": 42.7797, "Carbon_kg": 371.17294, "area_m2": 66.75 }, "geometry": { "type": "Polygon", "coordinates": [ [ [ 117.312338513996167, 42.408609093097731 ], [ 117.312344590296846, 42.408609076542533 ], [ 117.312344545617037, 42.408600070652717 ], [ 117.312362774516387, 42.408600020985226 ], [ 117.312362752175204, 42.408595518040315 ], [ 117.31237490477389, 42.408595484927041 ], [ 117.31237488243184, 42.408590981982144 ], [ 117.312393111328532, 42.408590932309828 ], [ 117.312393088985175, 42.408586429364917 ], [ 117.312417394178908, 42.408586363130674 ], [ 117.312417349488754, 42.40857735724088 ], [ 117.312429502083859, 42.408577324121836 ], [ 117.312429390354225, 42.408554809397302 ], [ 117.312423314058847, 42.408554825956983 ], [ 117.312423269367883, 42.408545820067147 ], [ 117.312398964189811, 42.408545886302583 ], [ 117.312398941846084, 42.408541383357644 ], [ 117.312392865551971, 42.408541399915705 ], [ 117.312392887895271, 42.408545902860638 ], [ 117.312362506422531, 42.408545985646072 ], [ 117.312362484081419, 42.408541482701125 ], [ 117.312356407787291, 42.408541499257247 ], [ 117.312356385446591, 42.408536996312286 ], [ 117.312338156565488, 42.408537045978711 ], [ 117.312338178904866, 42.408541548923687 ], [ 117.312326026316569, 42.40854158203301 ], [ 117.312326048655081, 42.408546084977971 ], [ 117.312319972360484, 42.408546101532174 ], [ 117.312319950022385, 42.408541598587206 ], [ 117.312313873728229, 42.408541615141068 ], [ 117.312313851390584, 42.408537112196086 ], [ 117.312307775096841, 42.408537128749629 ], [ 117.312307819771277, 42.408546134639586 ], [ 117.312295667182056, 42.408546167745712 ], [ 117.312295711854745, 42.408555173635662 ], [ 117.31227140667275, 42.408555239844063 ], [ 117.312271451342014, 42.40856424573402 ], [ 117.312277527638372, 42.408564229182403 ], [ 117.312277549973444, 42.408568732127371 ], [ 117.312271473676631, 42.408568748679002 ], [ 117.312271518345909, 42.408577754568938 ], [ 117.312277594643575, 42.408577738017314 ], [ 117.312277639313763, 42.408586743907215 ], [ 117.312283715612281, 42.408586727355264 ], [ 117.312283737947823, 42.408591230300217 ], [ 117.312308043143659, 42.408591164089145 ], [ 117.31230806548092, 42.408595667034085 ], [ 117.312332370678448, 42.408595600817847 ], [ 117.312332415356465, 42.408604606707691 ], [ 117.312338491656718, 42.408604590152812 ], [ 117.312338513996167, 42.408609093097731 ] ] ] } },
{ "type": "Feature", "properties": { "crown_id": 6687, "tree_id": "6693", "top_h_m": 20.471, "H_95_Mean": 21.1547, "DBH": 26.9649, "Carbon_kg": 141.95009, "area_m2": 12.25 }, "geometry": { "type": "MultiPolygon", "coordinates": [ [ [ [ 117.312331968577126, 42.408514547808643 ], [ 117.312332057932821, 42.408532559588565 ], [ 117.31236243939918, 42.40853247681121 ], [ 117.312362461740292, 42.408536979756171 ], [ 117.312368538033979, 42.408536963199737 ], [ 117.312368560375546, 42.408541466144683 ], [ 117.312386789257872, 42.408541416473419 ], [ 117.312386766915012, 42.408536913528472 ], [ 117.312398919502357, 42.408536880412704 ], [ 117.312398897158644, 42.408532377467765 ], [ 117.31238674457218, 42.408532410583533 ], [ 117.312386722229334, 42.408527907638579 ], [ 117.312380645936514, 42.408527924195987 ], [ 117.312380623594109, 42.408523421251019 ], [ 117.312374547301729, 42.408523437808093 ], [ 117.312374524959765, 42.408518934863132 ], [ 117.312368448667826, 42.408518951419879 ], [ 117.312368426326316, 42.408514448474911 ], [ 117.312362350034789, 42.408514465031345 ], [ 117.312362327693705, 42.40850996208637 ], [ 117.312356251402605, 42.408509978642471 ], [ 117.312356229061947, 42.408505475697488 ], [ 117.312344076480642, 42.408505508808723 ], [ 117.312344098820432, 42.408510011753712 ], [ 117.312338022529303, 42.408510028308847 ], [ 117.312338044868653, 42.408514531253836 ], [ 117.312331968577126, 42.408514547808643 ] ] ], [ [ [ 117.312331968577126, 42.408514547808643 ], [ 117.312331946238203, 42.408510044863661 ], [ 117.312338022529303, 42.408510028308847 ], [ 117.312338000189982, 42.40850552536385 ], [ 117.312325847608619, 42.408505558473159 ], [ 117.312325892285571, 42.408514564363138 ], [ 117.312331968577126, 42.408514547808643 ] ] ], [ [ [ 117.312332057932821, 42.408532559588565 ], [ 117.312325981639546, 42.408532576143074 ], [ 117.312326003978058, 42.408537079088042 ], [ 117.312332080271773, 42.40853706253354 ], [ 117.312332057932821, 42.408532559588565 ] ] ] ] } },
{ "type": "Feature", "properties": { "crown_id": 6708, "tree_id": "6714", "top_h_m": 15.651, "H_95_Mean": 15.3242, "DBH": 29.8845, "Carbon_kg": 144.311197, "area_m2": 33.25 }, "geometry": { "type": "MultiPolygon", "coordinates": [ [ [ [ 117.312167864049172, 42.408505988776831 ], [ 117.312167841722015, 42.408501485831756 ], [ 117.312173918012405, 42.408501469285646 ], [ 117.31217387335721, 42.408492463395504 ], [ 117.312167797067687, 42.408492479941614 ], [ 117.31216777474053, 42.408487976996533 ], [ 117.312125240716881, 42.408488092810259 ], [ 117.312125263040997, 42.408492595755355 ], [ 117.312119186751445, 42.408492612298886 ], [ 117.312119209075121, 42.408497115243968 ], [ 117.312107056495137, 42.408497148330078 ], [ 117.312107078817959, 42.408501651275174 ], [ 117.312113155108392, 42.408501634732282 ], [ 117.312113199754904, 42.40851064062246 ], [ 117.312125352337489, 42.408510607535696 ], [ 117.312125419309908, 42.40852411637092 ], [ 117.312131495602515, 42.408524099827048 ], [ 117.312131540251698, 42.408533105717169 ], [ 117.312155845425451, 42.408533039538447 ], [ 117.312155890078131, 42.408542045428533 ], [ 117.312161966372429, 42.408542028883048 ], [ 117.31216201102599, 42.408551034773112 ], [ 117.312168087321169, 42.408551018227293 ], [ 117.312168131975625, 42.408560024117349 ], [ 117.31218028456766, 42.408559991024724 ], [ 117.312180262239579, 42.408555488079713 ], [ 117.312186338535156, 42.408555471532928 ], [ 117.312186271549578, 42.408541962697853 ], [ 117.312210576726642, 42.408541896507515 ], [ 117.312210554396401, 42.408537393562483 ], [ 117.312198401808729, 42.408537426658292 ], [ 117.312198379479355, 42.408532923713281 ], [ 117.312204455772743, 42.408532907165537 ], [ 117.312204388783343, 42.408519398330426 ], [ 117.312192236199152, 42.408519431425582 ], [ 117.312192191541314, 42.408510425535482 ], [ 117.312173962667615, 42.40851047517576 ], [ 117.312173940340003, 42.408505972230707 ], [ 117.312167864049172, 42.408505988776831 ] ], [ [ 117.312180262239579, 42.408555488079713 ], [ 117.312174185943988, 42.408555504626179 ], [ 117.312174163616334, 42.408551001681154 ], [ 117.312180239911484, 42.408550985134696 ], [ 117.312180262239579, 42.408555488079713 ] ], [ [ 117.312198379479355, 42.408532923713281 ], [ 117.312192303185967, 42.408532940260692 ], [ 117.312192280857019, 42.408528437315653 ], [ 117.312198357149981, 42.408528420768249 ], [ 117.312198379479355, 42.408532923713281 ] ] ], [ [ [ 117.312173918012405, 42.408501469285646 ], [ 117.312173940340003, 42.408505972230707 ], [ 117.312180016630791, 42.408505955684277 ], [ 117.312179994302767, 42.408501452739209 ], [ 117.312173918012405, 42.408501469285646 ] ] ] ] } }
]
}
