{
"type": "FeatureCollection",
"name": "tile_22_16",
"crs": { "type": "name", "properties": { "name": "urn:ogc:def:crs:OGC:1.3:CRS84" } },
"features": [
{ "type": "Feature", "properties": { "crown_id": 8359, "tree_id": "8367", "top_h_m": 22.316, "H_95_Mean": 21.8614, "DBH": 36.089, "Carbon_kg": 260.428907, "area_m2": 35.75 }, "geometry": { "type": "Polygon", "coordinates": [ [ [ 117.3136460147484, 42.407605855964832 ], [ 117.313652090951493, 42.407605839340647 ], [ 117.313652068518891, 42.407601336395516 ], [ 117.313688525734648, 42.407601236643686 ], [ 117.313688480864201, 42.407592230753444 ], [ 117.313694557065972, 42.407592214127014 ], [ 117.313694467323415, 42.407574202346467 ], [ 117.313700543523396, 42.407574185719724 ], [ 117.313700521087355, 42.4075696827746 ], [ 117.313694444887773, 42.407569699401328 ], [ 117.31369440001653, 42.407560693511023 ], [ 117.313682247619141, 42.407560726763514 ], [ 117.313682202749661, 42.407551720873194 ], [ 117.313651821760416, 42.407551803998764 ], [ 117.313651799327857, 42.40754730105359 ], [ 117.313633570735547, 42.407547350925057 ], [ 117.313633593166799, 42.407551853870238 ], [ 117.31361536457311, 42.40755190373882 ], [ 117.313615387003068, 42.407556406683995 ], [ 117.31360931080475, 42.407556423306218 ], [ 117.313609333234268, 42.407560926251406 ], [ 117.313615409433027, 42.407560909629197 ], [ 117.313615431863013, 42.407565412574392 ], [ 117.3136093556638, 42.407565429196595 ], [ 117.313609467811531, 42.407587943922486 ], [ 117.313615544012919, 42.407587927300256 ], [ 117.313615566442891, 42.407592430245423 ], [ 117.313621642644705, 42.407592413622858 ], [ 117.313621665075146, 42.407596916568018 ], [ 117.313627741277372, 42.407596899945126 ], [ 117.313627718846504, 42.407592396999974 ], [ 117.313633795048318, 42.407592380376776 ], [ 117.313633839910921, 42.407601386267075 ], [ 117.313645992316239, 42.407601353019686 ], [ 117.3136460147484, 42.407605855964832 ] ] ] } },
{ "type": "Feature", "properties": { "crown_id": 8360, "tree_id": "8368", "top_h_m": 20.633, "H_95_Mean": 22.0016, "DBH": 29.3073, "Carbon_kg": 171.843416, "area_m2": 15.75 }, "geometry": { "type": "Polygon", "coordinates": [ [ [ 117.313737090478, 42.407592097733016 ], [ 117.313755319083086, 42.407592047845043 ], [ 117.313755296643109, 42.407587544899947 ], [ 117.313773525246845, 42.407587495009089 ], [ 117.31377350280556, 42.407582992063986 ], [ 117.313816036211051, 42.407582875640728 ], [ 117.313815991322414, 42.40757386975055 ], [ 117.313822067522295, 42.407573853117377 ], [ 117.313822000188068, 42.407560344282089 ], [ 117.313809847790878, 42.407560377548108 ], [ 117.313809825346993, 42.407555874602998 ], [ 117.313785520554291, 42.407555941131172 ], [ 117.313785565438565, 42.407564947021399 ], [ 117.313773413040437, 42.407564980283546 ], [ 117.313773435481707, 42.407569483228663 ], [ 117.313749130683675, 42.40756954974912 ], [ 117.313749153123226, 42.407574052694251 ], [ 117.313743076923245, 42.407574069323566 ], [ 117.31374312180148, 42.4075830752138 ], [ 117.313737045600632, 42.407583091842803 ], [ 117.313737090478, 42.407592097733016 ] ] ] } },
{ "type": "Feature", "properties": { "crown_id": 8405, "tree_id": "8413", "top_h_m": 24.105, "H_95_Mean": 23.069, "DBH": 32.7589, "Carbon_kg": 221.18613, "area_m2": 22.25 }, "geometry": { "type": "Polygon", "coordinates": [ [ [ 117.313730924523327, 42.407574102581215 ], [ 117.313737000723279, 42.407574085952554 ], [ 117.313736978284624, 42.40756958300743 ], [ 117.313743054484149, 42.407569566378434 ], [ 117.313743032045053, 42.407565063433317 ], [ 117.313767336841366, 42.407564996914154 ], [ 117.313767314400536, 42.407560493969022 ], [ 117.313779466797811, 42.407560460707515 ], [ 117.313779242381102, 42.407515431256172 ], [ 117.31377316618682, 42.407515447887064 ], [ 117.313773143745621, 42.407510944941897 ], [ 117.313742762776286, 42.407511028091498 ], [ 117.313742830093418, 42.407524536926999 ], [ 117.31373675389824, 42.407524553555966 ], [ 117.313736843652734, 42.407542565336591 ], [ 117.313730767455809, 42.407542581965238 ], [ 117.313730789894009, 42.407547084910398 ], [ 117.313724713696644, 42.407547101538725 ], [ 117.313724781009952, 42.407560610374162 ], [ 117.31373085720864, 42.407560593745821 ], [ 117.313730924523327, 42.407574102581215 ] ] ] } },
{ "type": "Feature", "properties": { "crown_id": 8422, "tree_id": "8430", "top_h_m": 22.345, "H_95_Mean": 22.242, "DBH": 34.0063, "Carbon_kg": 233.395178, "area_m2": 27.5 }, "geometry": { "type": "Polygon", "coordinates": [ [ [ 117.313828076386642, 42.407560327648596 ], [ 117.313840228783818, 42.407560294380644 ], [ 117.313840206337773, 42.407555791435563 ], [ 117.313852358734039, 42.407555758166332 ], [ 117.31385229139336, 42.407542249331044 ], [ 117.313846215196534, 42.407542265965809 ], [ 117.313846192750063, 42.407537763020699 ], [ 117.313840116553664, 42.407537779655151 ], [ 117.313840094107647, 42.407533276710041 ], [ 117.313834017911688, 42.407533293344166 ], [ 117.313833928129412, 42.407515281563668 ], [ 117.313852156712102, 42.407515231660383 ], [ 117.313852134265247, 42.407510728715259 ], [ 117.313858210459031, 42.407510712080182 ], [ 117.313858188011736, 42.40750620913505 ], [ 117.313852111818406, 42.407506225770135 ], [ 117.313852089371551, 42.407501722824996 ], [ 117.313846013178633, 42.40750173945974 ], [ 117.31384590094666, 42.407479224734026 ], [ 117.313839824755888, 42.407479241368435 ], [ 117.313839869647822, 42.407488247258733 ], [ 117.313833793456183, 42.40748826389283 ], [ 117.313833838347236, 42.407497269783129 ], [ 117.313827762154745, 42.407497286416913 ], [ 117.313827807044959, 42.40750629230719 ], [ 117.3138217308516, 42.407506308940654 ], [ 117.313821753296253, 42.407510811885786 ], [ 117.313791372327145, 42.407510895048276 ], [ 117.313791394769666, 42.407515397993421 ], [ 117.313785318575384, 42.407515414624967 ], [ 117.313785498112182, 42.407551438186047 ], [ 117.313815879100858, 42.407551355025056 ], [ 117.313815901545169, 42.407555857970159 ], [ 117.313828053941478, 42.407555824703508 ], [ 117.313828076386642, 42.407560327648596 ] ] ] } },
{ "type": "Feature", "properties": { "crown_id": 8428, "tree_id": "8436", "top_h_m": 22.775, "H_95_Mean": 22.83, "DBH": 36.8345, "Carbon_kg": 278.434197, "area_m2": 35.75 }, "geometry": { "type": "Polygon", "coordinates": [ [ [ 117.313712718360307, 42.407578655410433 ], [ 117.313724870761135, 42.407578622154688 ], [ 117.313724803447755, 42.407565113319301 ], [ 117.313718727248641, 42.407565129947315 ], [ 117.313718659936598, 42.407551621111885 ], [ 117.313712583738806, 42.407551637739573 ], [ 117.313712561301898, 42.407547134794427 ], [ 117.313718637499264, 42.407547118166747 ], [ 117.313718615061944, 42.407542615221587 ], [ 117.313724691258884, 42.407542598593565 ], [ 117.313724668821109, 42.407538095648412 ], [ 117.313730745017608, 42.407538079020085 ], [ 117.313730655264862, 42.407520067239432 ], [ 117.313736731459642, 42.407520050610806 ], [ 117.313736686582416, 42.407511044720458 ], [ 117.313724534194634, 42.407511077977396 ], [ 117.313724511756917, 42.407506575032222 ], [ 117.313688054596085, 42.407506674795307 ], [ 117.313688032160968, 42.407502171850105 ], [ 117.313681955967922, 42.407502188476158 ], [ 117.31368191109857, 42.407493182585732 ], [ 117.313669758714184, 42.407493215836858 ], [ 117.313669826015612, 42.407506724672494 ], [ 117.313663749822084, 42.407506741297588 ], [ 117.31366379468885, 42.407515747188 ], [ 117.313651642300101, 42.407515780437222 ], [ 117.313651687165134, 42.407524786327627 ], [ 117.313645610969886, 42.407524802951762 ], [ 117.31364565583408, 42.407533808842146 ], [ 117.313639579637936, 42.407533825465975 ], [ 117.313639624501292, 42.407542831356359 ], [ 117.31365785309228, 42.407542781483926 ], [ 117.313657875525266, 42.407547284429114 ], [ 117.313688256512322, 42.407547201301952 ], [ 117.313688301382683, 42.407556207192272 ], [ 117.313706529977452, 42.407556157312094 ], [ 117.313706597286895, 42.407569666147538 ], [ 117.313712673486449, 42.407569649520163 ], [ 117.313712718360307, 42.407578655410433 ] ] ] } },
{ "type": "Feature", "properties": { "crown_id": 8492, "tree_id": "8500", "top_h_m": 18.827, "H_95_Mean": 19.1124, "DBH": 23.3868, "Carbon_kg": 100.332928, "area_m2": 8.5 }, "geometry": { "type": "Polygon", "coordinates": [ [ [ 117.313730587950388, 42.407506558403902 ], [ 117.313742740337275, 42.407506525146331 ], [ 117.31374269545924, 42.407497519255976 ], [ 117.313736619266663, 42.407497535884922 ], [ 117.313736596828079, 42.407493032939733 ], [ 117.313724444443793, 42.407493066196643 ], [ 117.313724422006075, 42.407488563251448 ], [ 117.313712269622613, 42.407488596507079 ], [ 117.313712247185791, 42.407484093561877 ], [ 117.313706170994479, 42.407484110189202 ], [ 117.313706148558111, 42.407479607243999 ], [ 117.31370007236724, 42.407479623871005 ], [ 117.313700049931285, 42.407475120925781 ], [ 117.31369397374084, 42.407475137552453 ], [ 117.313693951305339, 42.407470634607243 ], [ 117.31368787511532, 42.407470651233588 ], [ 117.313688009725865, 42.407497668904902 ], [ 117.313694085918499, 42.407497652278529 ], [ 117.313694108354028, 42.407502155223725 ], [ 117.31373056551223, 42.407502055458728 ], [ 117.313730587950388, 42.407506558403902 ] ] ] } },
{ "type": "Feature", "properties": { "crown_id": 8493, "tree_id": "8501", "top_h_m": 22.28, "H_95_Mean": 21.9966, "DBH": 32.3067, "Carbon_kg": 209.104597, "area_m2": 23.0 }, "geometry": { "type": "Polygon", "coordinates": [ [ [ 117.313779219939462, 42.407510928311005 ], [ 117.313785296133318, 42.4075109116798 ], [ 117.313785273691238, 42.407506408734655 ], [ 117.3138156546582, 42.407506325573792 ], [ 117.313815632213974, 42.407501822628646 ], [ 117.313821708406905, 42.407501805995516 ], [ 117.313821663517572, 42.407492800105203 ], [ 117.313827739709637, 42.40749278347176 ], [ 117.313827694819466, 42.407483777581447 ], [ 117.313833771010678, 42.407483760947677 ], [ 117.31383372611964, 42.407474755057365 ], [ 117.31384587850026, 42.407474721788859 ], [ 117.313845856053888, 42.407470218843706 ], [ 117.31382762748423, 42.407470268745953 ], [ 117.31382760503918, 42.407465765800801 ], [ 117.313821528849701, 42.407465782434222 ], [ 117.313821506405091, 42.407461279489063 ], [ 117.313809354027015, 42.407461312754961 ], [ 117.313809376470758, 42.407465815700142 ], [ 117.313797224091815, 42.407465848964755 ], [ 117.313797246534705, 42.407470351909936 ], [ 117.313791170344786, 42.407470368541773 ], [ 117.313791192787249, 42.407474871486947 ], [ 117.313785116596875, 42.40747488811845 ], [ 117.313785139038927, 42.407479391063632 ], [ 117.313779062848127, 42.407479407694829 ], [ 117.31377908528971, 42.407483910640011 ], [ 117.313766932907228, 42.407483943901433 ], [ 117.313766955347972, 42.4074884468466 ], [ 117.313748726772914, 42.407488496736342 ], [ 117.313748816530719, 42.407506508517059 ], [ 117.313779197497823, 42.40750642536586 ], [ 117.313779219939462, 42.407510928311005 ] ] ] } },
{ "type": "Feature", "properties": { "crown_id": 8509, "tree_id": "8517", "top_h_m": 18.505, "H_95_Mean": 18.8088, "DBH": 33.3577, "Carbon_kg": 203.315242, "area_m2": 34.75 }, "geometry": { "type": "Polygon", "coordinates": [ [ [ 117.313651619867585, 42.407511277491999 ], [ 117.313657696061526, 42.407511260867565 ], [ 117.313657651195626, 42.407502254977139 ], [ 117.313663727388715, 42.407502238352365 ], [ 117.313663660088622, 42.407488729516707 ], [ 117.313675812472169, 42.407488696266228 ], [ 117.313675790037934, 42.407484193321018 ], [ 117.31368186622926, 42.407484176695299 ], [ 117.313681798925316, 42.407470667859634 ], [ 117.313675722735283, 42.40747068448534 ], [ 117.31367563299851, 42.40745267270438 ], [ 117.313669556810225, 42.407452689329752 ], [ 117.313669534376473, 42.407448186384507 ], [ 117.313651305812897, 42.407448236258695 ], [ 117.313651328245342, 42.407452739203954 ], [ 117.313639175868715, 42.407452772451812 ], [ 117.313639198300294, 42.407457275397078 ], [ 117.313620969734018, 42.407457325266442 ], [ 117.313621014594602, 42.407466331156982 ], [ 117.313602786025669, 42.407466381023475 ], [ 117.313602830883653, 42.407475386914008 ], [ 117.313590678502621, 42.407475420156729 ], [ 117.313590700930746, 42.407479923101995 ], [ 117.313584624739775, 42.40747993972289 ], [ 117.313584692022872, 42.407493448558668 ], [ 117.313596844407428, 42.407493415316566 ], [ 117.313596866836008, 42.407497918261811 ], [ 117.313609019221389, 42.407497885018408 ], [ 117.313609041650835, 42.407502387963653 ], [ 117.313615117843952, 42.407502371341458 ], [ 117.313615140273853, 42.407506874286682 ], [ 117.313651597435069, 42.407506774546796 ], [ 117.313651619867585, 42.407511277491999 ] ] ] } },
{ "type": "Feature", "properties": { "crown_id": 8537, "tree_id": "8545", "top_h_m": 23.24, "H_95_Mean": 22.1987, "DBH": 44.258, "Carbon_kg": 396.486763, "area_m2": 76.75 }, "geometry": { "type": "MultiPolygon", "coordinates": [ [ [ [ 117.313717964381553, 42.407412029810516 ], [ 117.313717986818745, 42.407416532755775 ], [ 117.313711910633941, 42.407416549383385 ], [ 117.313711933070692, 42.407421052328644 ], [ 117.313705856885505, 42.407421068955941 ], [ 117.313705812012856, 42.407412063065415 ], [ 117.313699735828507, 42.407412079692385 ], [ 117.313699848007957, 42.407434594418675 ], [ 117.313687695634897, 42.40743462767167 ], [ 117.313687762940006, 42.407448136507419 ], [ 117.313681686752162, 42.407448153133437 ], [ 117.313681776490682, 42.407466164914403 ], [ 117.313700005059403, 42.407466115035341 ], [ 117.313700027495344, 42.407470617980557 ], [ 117.313706103685348, 42.407470601353566 ], [ 117.313706126121716, 42.407475104298783 ], [ 117.313712202312161, 42.407475087671457 ], [ 117.313712224748969, 42.407479590616674 ], [ 117.31371830093984, 42.407479573989015 ], [ 117.313718323377103, 42.407484076934232 ], [ 117.313730475759655, 42.407484043677968 ], [ 117.313730498197785, 42.407488546623156 ], [ 117.313742650581204, 42.4074885133656 ], [ 117.313742628142208, 42.407484010420404 ], [ 117.313760856715973, 42.40748396053165 ], [ 117.313760834275683, 42.407479457586469 ], [ 117.313772986657312, 42.4074794243257 ], [ 117.313772964216156, 42.407474921380512 ], [ 117.313779040406516, 42.407474904749641 ], [ 117.313779017964933, 42.40747040180446 ], [ 117.313785094154866, 42.407470385173269 ], [ 117.313785071712843, 42.407465882228088 ], [ 117.313791147902322, 42.407465865596585 ], [ 117.313791125459858, 42.407461362651397 ], [ 117.313803277837977, 42.407461329387431 ], [ 117.313803210508013, 42.407447820551852 ], [ 117.313809286695758, 42.407447803919396 ], [ 117.313809241808286, 42.407438798028998 ], [ 117.313803165621437, 42.407438814661454 ], [ 117.313803075848298, 42.407420802880615 ], [ 117.313809152033414, 42.407420786248167 ], [ 117.313809107146014, 42.407411780357741 ], [ 117.313815183330277, 42.407411763724973 ], [ 117.313815160886151, 42.407407260779763 ], [ 117.313790856150817, 42.407407327308853 ], [ 117.313790788823667, 42.407393818473153 ], [ 117.313748255545775, 42.407393934886628 ], [ 117.313748300424479, 42.407402940777139 ], [ 117.313723995690651, 42.407403007292061 ], [ 117.313724040565887, 42.407412013182579 ], [ 117.313717964381553, 42.407412029810516 ] ] ], [ [ [ 117.313717964381553, 42.407412029810516 ], [ 117.313717941944361, 42.407407526865263 ], [ 117.313711865760467, 42.407407543492866 ], [ 117.31371188819719, 42.407412046438132 ], [ 117.313717964381553, 42.407412029810516 ] ] ] ] } }
]
}
