{
"type": "FeatureCollection",
"name": "tile_8_23",
"crs": { "type": "name", "properties": { "name": "urn:ogc:def:crs:OGC:1.3:CRS84" } },
"features": [
{ "type": "Feature", "properties": { "crown_id": 3021, "tree_id": "3022", "top_h_m": 19.462, "H_95_Mean": 20.4, "DBH": 27.046, "Carbon_kg": 139.776141, "area_m2": 13.25 }, "geometry": { "type": "Polygon", "coordinates": [ [ [ 117.315329577603805, 42.410118417557378 ], [ 117.31539034204954, 42.410118250400821 ], [ 117.31539020669608, 42.410091232746339 ], [ 117.315378053812182, 42.410091266180196 ], [ 117.315377986138145, 42.410077757352887 ], [ 117.31537190969749, 42.410077774069329 ], [ 117.315371954812633, 42.410086779954199 ], [ 117.315359801929588, 42.410086813386123 ], [ 117.315359824486308, 42.410091316328561 ], [ 117.315353748044345, 42.410091333044043 ], [ 117.315353770600638, 42.410095835986475 ], [ 117.315341617715802, 42.410095869416466 ], [ 117.315341707937534, 42.41011388118622 ], [ 117.315329555049217, 42.410113914614939 ], [ 117.315329577603805, 42.410118417557378 ] ] ] } },
{ "type": "Feature", "properties": { "crown_id": 3032, "tree_id": "3033", "top_h_m": 22.75, "H_95_Mean": 22.1846, "DBH": 30.8789, "Carbon_kg": 191.859809, "area_m2": 19.0 }, "geometry": { "type": "Polygon", "coordinates": [ [ [ 117.315463372204491, 42.410140564482269 ], [ 117.315475525097824, 42.410140531039332 ], [ 117.315475502532777, 42.410136028096986 ], [ 117.315481578978989, 42.410136011375045 ], [ 117.315481533848057, 42.410127005490331 ], [ 117.315475457402712, 42.410127022212286 ], [ 117.315475389707686, 42.41011351338517 ], [ 117.315487542595775, 42.410113479940996 ], [ 117.315487497464048, 42.41010447405624 ], [ 117.315481421020863, 42.410104490778501 ], [ 117.315481330759212, 42.41008647900896 ], [ 117.315463101434887, 42.410086529173761 ], [ 117.315463078870792, 42.410082026231358 ], [ 117.315457002429767, 42.410082042952304 ], [ 117.315456979866127, 42.410077540009901 ], [ 117.315450903425543, 42.410077556730535 ], [ 117.315450948551998, 42.410086562615341 ], [ 117.315438795669067, 42.410086596055635 ], [ 117.315438818231442, 42.410091098998045 ], [ 117.31542058890571, 42.410091149156067 ], [ 117.315420611466791, 42.410095652098477 ], [ 117.315426687909124, 42.410095635379456 ], [ 117.315426733032169, 42.410104641264255 ], [ 117.315438885918581, 42.410104607825232 ], [ 117.315438908480971, 42.410109110767628 ], [ 117.315444984924582, 42.410109094047634 ], [ 117.315445007487412, 42.410113596990016 ], [ 117.315451083931492, 42.410113580269694 ], [ 117.315451174184588, 42.410131592039185 ], [ 117.315457250630388, 42.41013157531853 ], [ 117.315457273194113, 42.410136078260898 ], [ 117.315463349640339, 42.410136061539923 ], [ 117.315463372204491, 42.410140564482269 ] ] ] } },
{ "type": "Feature", "properties": { "crown_id": 3129, "tree_id": "3130", "top_h_m": 20.173, "H_95_Mean": 21.668, "DBH": 30.222, "Carbon_kg": 181.179825, "area_m2": 18.25 }, "geometry": { "type": "MultiPolygon", "coordinates": [ [ [ [ 117.315487158976694, 42.41003692992026 ], [ 117.315487181542466, 42.410041432862684 ], [ 117.315481105105391, 42.410041449584895 ], [ 117.315481195366843, 42.410059461354571 ], [ 117.315475118928035, 42.410059478076469 ], [ 117.315475186622862, 42.410072986903693 ], [ 117.315463033742617, 42.410073020346552 ], [ 117.315463056306683, 42.410077523288955 ], [ 117.315469132747268, 42.410077506567688 ], [ 117.315469155311803, 42.410082009510091 ], [ 117.315487384634778, 42.410081959344346 ], [ 117.315487429766463, 42.410090965229124 ], [ 117.315499582650176, 42.410090931783671 ], [ 117.315499560083467, 42.410086428841289 ], [ 117.315517789407679, 42.410086378670698 ], [ 117.315517563727781, 42.410041349246782 ], [ 117.31550541085366, 42.410041382694111 ], [ 117.315505388286581, 42.410036879751686 ], [ 117.315487158976694, 42.41003692992026 ] ] ], [ [ [ 117.315487158976694, 42.41003692992026 ], [ 117.315487136410908, 42.410032426977835 ], [ 117.315481059974672, 42.410032443700047 ], [ 117.315481082540018, 42.410036946642471 ], [ 117.315487158976694, 42.41003692992026 ] ] ] ] } },
{ "type": "Feature", "properties": { "crown_id": 3130, "tree_id": "3131", "top_h_m": 19.961, "H_95_Mean": 20.9746, "DBH": 29.3317, "Carbon_kg": 167.333268, "area_m2": 17.25 }, "geometry": { "type": "Polygon", "coordinates": [ [ [ 117.315560414781615, 42.410104273364134 ], [ 117.315566491224686, 42.410104256637695 ], [ 117.315566468653188, 42.410099753695363 ], [ 117.315572545095861, 42.410099736968604 ], [ 117.315572522523922, 42.410095234026258 ], [ 117.315566446081675, 42.41009525075301 ], [ 117.315566355795724, 42.410077238983597 ], [ 117.315560279355225, 42.410077255710021 ], [ 117.315560143929034, 42.410050238055788 ], [ 117.315554067491149, 42.410050254781865 ], [ 117.315554044920589, 42.410045751839469 ], [ 117.315541892045644, 42.410045785290663 ], [ 117.31554186947595, 42.410041282348267 ], [ 117.315529716601887, 42.410041315798168 ], [ 117.315529694033046, 42.410036812855758 ], [ 117.315523617596426, 42.410036829580228 ], [ 117.315523865849073, 42.410086361946533 ], [ 117.315536018731848, 42.410086328497229 ], [ 117.315536041301172, 42.410090831439597 ], [ 117.315554270626592, 42.410090781263207 ], [ 117.315554293197224, 42.410095284205561 ], [ 117.315560369639471, 42.410095267479448 ], [ 117.315560414781615, 42.410104273364134 ] ] ] } },
{ "type": "Feature", "properties": { "crown_id": 3140, "tree_id": "3141", "top_h_m": 22.281, "H_95_Mean": 21.6562, "DBH": 34.6329, "Carbon_kg": 238.351398, "area_m2": 31.0 }, "geometry": { "type": "Polygon", "coordinates": [ [ [ 117.31534159516039, 42.410091366474028 ], [ 117.315347671602368, 42.410091349759199 ], [ 117.315347649046515, 42.410086846816746 ], [ 117.315353725488066, 42.410086830101591 ], [ 117.315353702931773, 42.410082327159145 ], [ 117.31536585581398, 42.410082293727882 ], [ 117.315365810699703, 42.410073287842998 ], [ 117.315371887139932, 42.410073271126869 ], [ 117.315371729237071, 42.410041750529658 ], [ 117.315365652799883, 42.410041767245744 ], [ 117.315365607685706, 42.410032761360796 ], [ 117.315359531249399, 42.410032778076548 ], [ 117.315359508692751, 42.410028275134067 ], [ 117.315341279385066, 42.410028325279427 ], [ 117.315341256829726, 42.410023822336932 ], [ 117.315323027523306, 42.410023872479393 ], [ 117.315323050077367, 42.410028375421881 ], [ 117.31531697364143, 42.410028392135402 ], [ 117.315316996195051, 42.410032895077904 ], [ 117.315298766885974, 42.4100329452165 ], [ 117.315298857095229, 42.410050956986524 ], [ 117.315292780657117, 42.410050973698759 ], [ 117.315292803209019, 42.410055476641247 ], [ 117.315304956086095, 42.410055443216457 ], [ 117.315304978638878, 42.410059946158952 ], [ 117.315311055077828, 42.410059929446078 ], [ 117.315311077631037, 42.410064432388545 ], [ 117.315317154070456, 42.410064415675336 ], [ 117.315317176624106, 42.410068918617817 ], [ 117.315323253063923, 42.410068901904289 ], [ 117.315323298172103, 42.41007790778923 ], [ 117.315329374612787, 42.410077891075368 ], [ 117.315329397167318, 42.41008239401782 ], [ 117.315335473608442, 42.410082377303638 ], [ 117.315335496163428, 42.410086880246091 ], [ 117.315341572604979, 42.410086863531568 ], [ 117.31534159516039, 42.410091366474028 ] ] ] } },
{ "type": "Feature", "properties": { "crown_id": 3141, "tree_id": "3142", "top_h_m": 22.453, "H_95_Mean": 23.0549, "DBH": 32.0656, "Carbon_kg": 211.776156, "area_m2": 20.5 }, "geometry": { "type": "Polygon", "coordinates": [ [ [ 117.315396283138014, 42.410091216028931 ], [ 117.315414512463803, 42.410091165874768 ], [ 117.315414489903162, 42.410086662932351 ], [ 117.315432719227616, 42.410086612775281 ], [ 117.315432696665681, 42.410082109832878 ], [ 117.315444849547731, 42.410082076393245 ], [ 117.315444736733838, 42.410059561681145 ], [ 117.315426507417257, 42.41005961184009 ], [ 117.31542646229434, 42.410050605955213 ], [ 117.315390003666252, 42.410050706264364 ], [ 117.315389981107401, 42.410046203321897 ], [ 117.315377828232215, 42.410046236755711 ], [ 117.315377963580133, 42.410073254410449 ], [ 117.315384040020362, 42.41007323769368 ], [ 117.315384107695692, 42.410086746520989 ], [ 117.315396260578694, 42.4100867130865 ], [ 117.315396283138014, 42.410091216028931 ] ] ] } },
{ "type": "Feature", "properties": { "crown_id": 3178, "tree_id": "3179", "top_h_m": 21.269, "H_95_Mean": 23.2339, "DBH": 27.8837, "Carbon_kg": 160.526113, "area_m2": 11.75 }, "geometry": { "type": "Polygon", "coordinates": [ [ [ 117.315450880862301, 42.410073053788118 ], [ 117.315456957302459, 42.410073037067491 ], [ 117.315456934738819, 42.410068534125081 ], [ 117.315469087618226, 42.410068500682883 ], [ 117.315469019924706, 42.410054991855624 ], [ 117.315475096363102, 42.410054975134059 ], [ 117.315474983538465, 42.410032460421917 ], [ 117.3154567542298, 42.410032510585644 ], [ 117.315456731666202, 42.410028007643206 ], [ 117.315444578794569, 42.410028041084068 ], [ 117.315444533669123, 42.410019035199156 ], [ 117.315432380799251, 42.410019068638725 ], [ 117.315432403361086, 42.410023571581185 ], [ 117.315438479796484, 42.410023554861567 ], [ 117.315438615170322, 42.410050572516248 ], [ 117.315432538732338, 42.410050589235894 ], [ 117.315432561294216, 42.410055092178332 ], [ 117.315450790609489, 42.410055042018435 ], [ 117.315450880862301, 42.410073053788118 ] ] ] } },
{ "type": "Feature", "properties": { "crown_id": 3199, "tree_id": "3200", "top_h_m": 22.108, "H_95_Mean": 21.9149, "DBH": 29.7203, "Carbon_kg": 176.346797, "area_m2": 16.75 }, "geometry": { "type": "Polygon", "coordinates": [ [ [ 117.315396057545001, 42.410046186604518 ], [ 117.315432516170446, 42.410046086293441 ], [ 117.31543242592295, 42.410028074523652 ], [ 117.315426349487126, 42.410028091242957 ], [ 117.315426259241448, 42.410010079473089 ], [ 117.315420182807358, 42.410010096192053 ], [ 117.315420160246404, 42.410005593249586 ], [ 117.315408007379077, 42.410005626686562 ], [ 117.315408029939164, 42.410010129629043 ], [ 117.315395877070941, 42.41001016306474 ], [ 117.31539589963019, 42.410014666007221 ], [ 117.31538982319563, 42.410014682724594 ], [ 117.315389845754439, 42.410019185667068 ], [ 117.315365540014469, 42.410019252533324 ], [ 117.315365585128632, 42.410028258418301 ], [ 117.315371661564484, 42.410028241702221 ], [ 117.315371706679528, 42.410037247587177 ], [ 117.315383859553009, 42.410037214154016 ], [ 117.315383882111419, 42.410041717096504 ], [ 117.315396034985739, 42.410041683662058 ], [ 117.315396057545001, 42.410046186604518 ] ] ] } },
{ "type": "Feature", "properties": { "crown_id": 3234, "tree_id": "3235", "top_h_m": 22.1, "H_95_Mean": 21.6712, "DBH": 30.7444, "Carbon_kg": 187.56366, "area_m2": 19.5 }, "geometry": { "type": "Polygon", "coordinates": [ [ [ 117.315511464723201, 42.410036863028189 ], [ 117.315517541159835, 42.410036846304365 ], [ 117.315517518591875, 42.410032343361955 ], [ 117.315535747900398, 42.410032293188578 ], [ 117.315535770469666, 42.410036796130974 ], [ 117.315547923342834, 42.410036762680441 ], [ 117.315547900772714, 42.410032259738031 ], [ 117.315553977208864, 42.410032243012282 ], [ 117.315553999779425, 42.410036745954685 ], [ 117.315566152652607, 42.410036712502212 ], [ 117.315566130081152, 42.410032209559809 ], [ 117.315578282953439, 42.410032176106064 ], [ 117.315578260381145, 42.410027673163675 ], [ 117.315566107509753, 42.410027706617427 ], [ 117.315566062366884, 42.410018700732607 ], [ 117.315553909497226, 42.410018734185059 ], [ 117.315553886926679, 42.410014231242648 ], [ 117.315547810492262, 42.410014247968384 ], [ 117.315547787922156, 42.410009745025974 ], [ 117.31554171148818, 42.410009761751397 ], [ 117.315541688918501, 42.410005258808965 ], [ 117.315529536051386, 42.410005292258823 ], [ 117.315529468345034, 42.409991783431508 ], [ 117.315535544777291, 42.409991766706746 ], [ 117.315535499638884, 42.409982760821862 ], [ 117.315529423207494, 42.40998277754661 ], [ 117.315529400638738, 42.409978274604171 ], [ 117.315523324207774, 42.409978291328599 ], [ 117.315523369344447, 42.409987297213505 ], [ 117.315517292912617, 42.409987313937613 ], [ 117.315517315480506, 42.409991816880073 ], [ 117.315511239048234, 42.409991833603861 ], [ 117.315511284183188, 42.41000083948876 ], [ 117.315499131316884, 42.410000872935385 ], [ 117.31549922158338, 42.410018884705146 ], [ 117.315505298018266, 42.410018867981989 ], [ 117.315505365719503, 42.410032376809269 ], [ 117.315511442155696, 42.410032360085765 ], [ 117.315511464723201, 42.410036863028189 ] ] ] } },
{ "type": "Feature", "properties": { "crown_id": 3247, "tree_id": "3248", "top_h_m": 20.109, "H_95_Mean": 20.5086, "DBH": 29.341, "Carbon_kg": 165.22985, "area_m2": 18.0 }, "geometry": { "type": "Polygon", "coordinates": [ [ [ 117.315493212847088, 42.41003241025529 ], [ 117.315499289283295, 42.410032393532447 ], [ 117.315499244150004, 42.410023387647591 ], [ 117.315493167714692, 42.410023404370435 ], [ 117.315493054883717, 42.410000889658221 ], [ 117.315486978450565, 42.410000906380731 ], [ 117.315486955884808, 42.409996403438278 ], [ 117.315468726586602, 42.409996453603867 ], [ 117.315468681457759, 42.409987447718933 ], [ 117.315438299298293, 42.409987531321796 ], [ 117.315438321860569, 42.409992034264278 ], [ 117.315432245428227, 42.409992050983888 ], [ 117.315432290551868, 42.410001056868836 ], [ 117.315426214118645, 42.410001073588127 ], [ 117.31542623668004, 42.410005576530601 ], [ 117.315432313113703, 42.410005559811317 ], [ 117.315432358237388, 42.410014565696265 ], [ 117.315450587540923, 42.410014515536432 ], [ 117.315450632667208, 42.410023521421337 ], [ 117.315462785537946, 42.410023487979835 ], [ 117.315462808101969, 42.410027990922288 ], [ 117.315493190280904, 42.410027907312866 ], [ 117.315493212847088, 42.41003241025529 ] ] ] } },
{ "type": "Feature", "properties": { "crown_id": 3334, "tree_id": "3336", "top_h_m": 21.132, "H_95_Mean": 20.5858, "DBH": 31.9063, "Carbon_kg": 196.074239, "area_m2": 24.75 }, "geometry": { "type": "MultiPolygon", "coordinates": [ [ [ [ 117.315462311694432, 42.409928926187661 ], [ 117.315462289130508, 42.40992442324513 ], [ 117.315456212704717, 42.409924439965998 ], [ 117.315456235268201, 42.409928942908515 ], [ 117.315462311694432, 42.409928926187661 ] ] ], [ [ [ 117.315505185183, 42.409996353269783 ], [ 117.315505140048927, 42.409987347384877 ], [ 117.315511216480758, 42.409987330661409 ], [ 117.315511193913295, 42.409982827718949 ], [ 117.315517270344699, 42.40998281099516 ], [ 117.315517225208936, 42.409973805110241 ], [ 117.315529378069982, 42.409973771661711 ], [ 117.315529355501212, 42.409969268719252 ], [ 117.315517202641047, 42.409969302167774 ], [ 117.315517157505283, 42.40996029628284 ], [ 117.315505004646838, 42.409960329730069 ], [ 117.31550498207983, 42.409955826787588 ], [ 117.31548675279339, 42.409955876956019 ], [ 117.31548673022769, 42.409951374013517 ], [ 117.315474577370921, 42.40995140745752 ], [ 117.315474509676477, 42.409937898630005 ], [ 117.315462356822309, 42.409937932072701 ], [ 117.315462379386233, 42.409942435015211 ], [ 117.315456302958694, 42.409942451736079 ], [ 117.315456325522192, 42.409946954678581 ], [ 117.315450249094226, 42.409946971399137 ], [ 117.315450271657284, 42.409951474341653 ], [ 117.315444195228892, 42.409951491061882 ], [ 117.315444217791509, 42.409955994004385 ], [ 117.315450294220369, 42.409955977284163 ], [ 117.315450316783455, 42.409960480226658 ], [ 117.315444240354168, 42.409960496946887 ], [ 117.315444262916841, 42.409964999889397 ], [ 117.315450339346569, 42.409964983169154 ], [ 117.31545036190964, 42.409969486111656 ], [ 117.315444285479501, 42.409969502831906 ], [ 117.315444330604848, 42.409978508716897 ], [ 117.315450407035868, 42.409978491996647 ], [ 117.315450429598968, 42.409982994939135 ], [ 117.31547473532477, 42.409982928054923 ], [ 117.31547478045448, 42.409991933939864 ], [ 117.315493009751378, 42.409991883773309 ], [ 117.315493032317562, 42.409996386715768 ], [ 117.315505185183, 42.409996353269783 ] ] ] ] } },
{ "type": "Feature", "properties": { "crown_id": 3399, "tree_id": "3402", "top_h_m": 20.509, "H_95_Mean": 20.3184, "DBH": 27.9902, "Carbon_kg": 149.430853, "area_m2": 15.25 }, "geometry": { "type": "MultiPolygon", "coordinates": [ [ [ [ 117.315523211366212, 42.409955776616265 ], [ 117.31552316622961, 42.40994677073131 ], [ 117.315517089801702, 42.409946787455411 ], [ 117.315516999530331, 42.409928775685437 ], [ 117.315510923104128, 42.409928792409183 ], [ 117.315510900536736, 42.409924289466687 ], [ 117.315504824110988, 42.409924306190128 ], [ 117.315504756410135, 42.409910797362585 ], [ 117.315498679985666, 42.409910814085691 ], [ 117.31549865741917, 42.40990631114316 ], [ 117.315492580995127, 42.409906327865947 ], [ 117.315492558429057, 42.409901824923416 ], [ 117.315480405581866, 42.409901858368009 ], [ 117.315480428147055, 42.40990636131054 ], [ 117.315486504571098, 42.4099063445884 ], [ 117.315486527136727, 42.409910847530931 ], [ 117.315474374287774, 42.409910880974877 ], [ 117.315474419417328, 42.409919886859939 ], [ 117.315468342991963, 42.409919903581432 ], [ 117.315468410685028, 42.409933412408996 ], [ 117.315480563538358, 42.409933378965661 ], [ 117.315480631234067, 42.409946887793168 ], [ 117.315492784089969, 42.40994685434854 ], [ 117.315492806656081, 42.409951357291028 ], [ 117.315511035941199, 42.409951307121652 ], [ 117.315511058508633, 42.40995581006414 ], [ 117.315523211366212, 42.409955776616265 ] ] ], [ [ [ 117.315529332932485, 42.409964765776785 ], [ 117.315529310363729, 42.409960262834325 ], [ 117.315523233934513, 42.409960279558739 ], [ 117.315523256502814, 42.409964782501206 ], [ 117.315529332932485, 42.409964765776785 ] ] ] ] } }
]
}
