{
"type": "FeatureCollection",
"name": "tile_13_23",
"crs": { "type": "name", "properties": { "name": "urn:ogc:def:crs:OGC:1.3:CRS84" } },
"features": [
{ "type": "Feature", "properties": { "crown_id": 5322, "tree_id": "5328", "top_h_m": 21.763, "H_95_Mean": 21.1383, "DBH": 38.4741, "Carbon_kg": 290.447042, "area_m2": 48.75 }, "geometry": { "type": "Polygon", "coordinates": [ [ [ 117.315294707554429, 42.409222415506854 ], [ 117.315312936628843, 42.409222365369672 ], [ 117.315312914076173, 42.40921786242653 ], [ 117.315318990433852, 42.409217845713485 ], [ 117.315318967880742, 42.409213342770336 ], [ 117.315331120595232, 42.409213309343301 ], [ 117.315331098041256, 42.409208806400159 ], [ 117.315343250754836, 42.40920877297183 ], [ 117.315343228200021, 42.409204270028695 ], [ 117.315349304556364, 42.409204253314051 ], [ 117.315349282001122, 42.409199750370917 ], [ 117.315355358357024, 42.409199733655953 ], [ 117.315355290689965, 42.409186224826506 ], [ 117.315361367044574, 42.409186208111223 ], [ 117.315361299376264, 42.409172699281747 ], [ 117.315355223022948, 42.409172715997023 ], [ 117.315355200467266, 42.40916821305386 ], [ 117.315349124114391, 42.409168229768795 ], [ 117.315349101559164, 42.409163726825625 ], [ 117.31534302520673, 42.409163743540248 ], [ 117.315343002651957, 42.40915924059707 ], [ 117.315330849947912, 42.409159274025328 ], [ 117.315330804840087, 42.409150268138944 ], [ 117.315324728488946, 42.409150284852579 ], [ 117.315324705935467, 42.409145781909395 ], [ 117.315318629584738, 42.409145798622703 ], [ 117.315318607031728, 42.409141295679504 ], [ 117.315312530681425, 42.409141312392499 ], [ 117.315312508128841, 42.409136809449286 ], [ 117.315300355429088, 42.409136842874304 ], [ 117.315300400532507, 42.409145848760737 ], [ 117.315294324181778, 42.409145865472759 ], [ 117.315294369284359, 42.409154871359185 ], [ 117.315288292932749, 42.409154888070894 ], [ 117.315288315483613, 42.409159391014093 ], [ 117.315282239131562, 42.40915940772549 ], [ 117.315282261682, 42.409163910668696 ], [ 117.315276185329481, 42.409163927379765 ], [ 117.315276162779469, 42.40915942443656 ], [ 117.315270086427404, 42.40915944114731 ], [ 117.315270108976975, 42.409163944090515 ], [ 117.315257956271935, 42.409163977511056 ], [ 117.315258001369358, 42.409172983397475 ], [ 117.31526407772273, 42.409172966687365 ], [ 117.315264100271904, 42.409177469630571 ], [ 117.315258023918062, 42.409177486340674 ], [ 117.315258046466795, 42.40918198928388 ], [ 117.315245893758259, 42.409182022703142 ], [ 117.315245916306111, 42.409186525646348 ], [ 117.315239839951403, 42.409186542355499 ], [ 117.315239862498828, 42.409191045298712 ], [ 117.315258091564232, 42.40919099517027 ], [ 117.315258136661726, 42.409200001056654 ], [ 117.315264213017713, 42.409199984346522 ], [ 117.315264167919381, 42.409190978460153 ], [ 117.315282396984728, 42.409190928327853 ], [ 117.315282442085675, 42.409199934214207 ], [ 117.315288518441662, 42.409199917502782 ], [ 117.315288608645346, 42.409217929275457 ], [ 117.315294685003053, 42.409217912563705 ], [ 117.315294707554429, 42.409222415506854 ] ], [ [ 117.315282284232438, 42.409168413611894 ], [ 117.315282261682, 42.409163910668696 ], [ 117.315288338034492, 42.409163893957299 ], [ 117.315288360585356, 42.40916839690049 ], [ 117.315282284232438, 42.409168413611894 ] ] ] } },
{ "type": "Feature", "properties": { "crown_id": 5430, "tree_id": "5436", "top_h_m": 20.297, "H_95_Mean": 19.7007, "DBH": 36.1333, "Carbon_kg": 245.48852, "area_m2": 43.5 }, "geometry": { "type": "MultiPolygon", "coordinates": [ [ [ [ 117.315488902794471, 42.409172348186779 ], [ 117.315488880229253, 42.409167845243672 ], [ 117.315501032934748, 42.409167811798653 ], [ 117.315501010368664, 42.409163308855547 ], [ 117.315525315777876, 42.409163241961657 ], [ 117.315525338345694, 42.409167744904742 ], [ 117.315531414698427, 42.409167728180478 ], [ 117.315531369561896, 42.409158722294279 ], [ 117.315537445913762, 42.409158705569688 ], [ 117.315537423345077, 42.409154202626588 ], [ 117.315519194290815, 42.409154252799404 ], [ 117.315519036319287, 42.409122732197559 ], [ 117.315512959970889, 42.40912274892117 ], [ 117.315512914837086, 42.409113743034879 ], [ 117.315506838489554, 42.409113759758171 ], [ 117.315506793356633, 42.40910475387188 ], [ 117.315500717009968, 42.40910477059483 ], [ 117.315500694443955, 42.409100267651674 ], [ 117.315488541751492, 42.409100301096608 ], [ 117.315488564316638, 42.409104804039785 ], [ 117.315476411623266, 42.40910483748344 ], [ 117.315476434187545, 42.409109340426603 ], [ 117.31546428149332, 42.409109373868972 ], [ 117.315464304056732, 42.409113876812135 ], [ 117.315446075014009, 42.409113926973291 ], [ 117.315446097576128, 42.409118429916454 ], [ 117.315440021228099, 42.409118446636207 ], [ 117.315440066351499, 42.409127452522533 ], [ 117.315433990002617, 42.409127469241966 ], [ 117.31543401256387, 42.409131972185129 ], [ 117.315427936214547, 42.409131988904242 ], [ 117.315427958775373, 42.409136491847399 ], [ 117.315421882425596, 42.409136508566185 ], [ 117.31542190498601, 42.409141011509355 ], [ 117.31544621038681, 42.409140944632256 ], [ 117.315446300635458, 42.409158956404831 ], [ 117.315464529691212, 42.409158906243597 ], [ 117.315464597381634, 42.409172415072966 ], [ 117.315488902794471, 42.409172348186779 ] ] ], [ [ [ 117.315428094140515, 42.409163509506307 ], [ 117.315428071579646, 42.409159006563158 ], [ 117.315434147931583, 42.409158989844045 ], [ 117.315434170492892, 42.409163492787179 ], [ 117.315440246845256, 42.409163476067732 ], [ 117.315440201721785, 42.409154470181456 ], [ 117.315415896315741, 42.409154537057297 ], [ 117.315415918875757, 42.409159040000446 ], [ 117.31542199522768, 42.409159023281966 ], [ 117.315422017788123, 42.409163526225115 ], [ 117.315428094140515, 42.409163509506307 ] ] ] ] } },
{ "type": "Feature", "properties": { "crown_id": 5538, "tree_id": "5544", "top_h_m": 18.38, "H_95_Mean": 18.6249, "DBH": 24.088, "Carbon_kg": 104.873357, "area_m2": 10.0 }, "geometry": { "type": "MultiPolygon", "coordinates": [ [ [ [ 117.315360893367284, 42.409091646304269 ], [ 117.315360848255267, 42.409082640417807 ], [ 117.315354771910648, 42.40908265713302 ], [ 117.315354704244001, 42.409069148303303 ], [ 117.315360780587312, 42.409069131588097 ], [ 117.315360667807454, 42.409046616871827 ], [ 117.315348515125194, 42.409046650301889 ], [ 117.315348492570095, 42.409042147358626 ], [ 117.315342416229385, 42.409042164073171 ], [ 117.315342461338673, 42.40905116995971 ], [ 117.315330308655518, 42.409051203387833 ], [ 117.315330398870699, 42.409069215160905 ], [ 117.315336475214039, 42.409069198446979 ], [ 117.315336542876778, 42.409082707276731 ], [ 117.315342619221411, 42.409082690562478 ], [ 117.315342641776098, 42.409087193505719 ], [ 117.315354794466231, 42.409087160076261 ], [ 117.315354817021785, 42.409091663019481 ], [ 117.315360893367284, 42.409091646304269 ] ] ], [ [ [ 117.315373113728882, 42.40910512170251 ], [ 117.315373091171978, 42.409100618759297 ], [ 117.315379167518316, 42.409100602043104 ], [ 117.315379144961014, 42.409096099099898 ], [ 117.31536699226919, 42.40909613253195 ], [ 117.315367037382103, 42.409105138418376 ], [ 117.315373113728882, 42.40910512170251 ] ] ] ] } },
{ "type": "Feature", "properties": { "crown_id": 5548, "tree_id": "5554", "top_h_m": 18.801, "H_95_Mean": 19.7196, "DBH": 36.7252, "Carbon_kg": 253.804833, "area_m2": 46.25 }, "geometry": { "type": "MultiPolygon", "coordinates": [ [ [ [ 117.315403495462675, 42.409105038118327 ], [ 117.315409571809425, 42.409105021400521 ], [ 117.315409549249935, 42.409100518457329 ], [ 117.315452083673961, 42.4091004014237 ], [ 117.315452061111415, 42.40909589848053 ], [ 117.315464213803082, 42.409095865039447 ], [ 117.315464100986162, 42.409073350323524 ], [ 117.315458024642496, 42.409073367044201 ], [ 117.315458002079552, 42.409068864101002 ], [ 117.315464078422764, 42.409068847380325 ], [ 117.315464055859408, 42.40906434443712 ], [ 117.315470132202179, 42.409064327716123 ], [ 117.315470087074615, 42.409055321829712 ], [ 117.315457934390764, 42.40905535527137 ], [ 117.315457911827863, 42.409050852328164 ], [ 117.315451835486357, 42.409050869048514 ], [ 117.315451812923882, 42.409046366105287 ], [ 117.315439660241765, 42.409046399545012 ], [ 117.315439615118578, 42.409037393658565 ], [ 117.315433538778365, 42.409037410377927 ], [ 117.315433516217198, 42.4090329074347 ], [ 117.315421363537652, 42.409032940872464 ], [ 117.315421408658239, 42.409041946758954 ], [ 117.315415332317599, 42.409041963477364 ], [ 117.315415354877459, 42.409046466420598 ], [ 117.315397125854162, 42.409046516573909 ], [ 117.315397148412742, 42.409051019517157 ], [ 117.315384995729659, 42.409051052951092 ], [ 117.315385018287344, 42.409055555894334 ], [ 117.31536678926139, 42.409055606042827 ], [ 117.31536687948703, 42.4090736178158 ], [ 117.315360803143292, 42.409073634531332 ], [ 117.315360825699273, 42.409078137474566 ], [ 117.315366902043451, 42.409078120759041 ], [ 117.315366947156306, 42.409087126645503 ], [ 117.315373023501351, 42.409087109929644 ], [ 117.315373046058227, 42.409091612872864 ], [ 117.315385198749155, 42.409091579440172 ], [ 117.315385221306883, 42.409096082383385 ], [ 117.315397373998678, 42.409096048949401 ], [ 117.315397396557302, 42.4091005518926 ], [ 117.315403472903625, 42.409100535175121 ], [ 117.315403495462675, 42.409105038118327 ] ] ], [ [ [ 117.315464078422764, 42.409068847380325 ], [ 117.315464100986162, 42.409073350323524 ], [ 117.3154701773298, 42.409073333602514 ], [ 117.315470199893625, 42.409077836545713 ], [ 117.315476276237689, 42.409077819824368 ], [ 117.315476231109216, 42.409068813937992 ], [ 117.315464078422764, 42.409068847380325 ] ] ] ] } },
{ "type": "Feature", "properties": { "crown_id": 5611, "tree_id": "5617", "top_h_m": 18.755, "H_95_Mean": 19.9677, "DBH": 27.7597, "Carbon_kg": 145.45541, "area_m2": 15.25 }, "geometry": { "type": "Polygon", "coordinates": [ [ [ 117.315366766704969, 42.409051103099578 ], [ 117.31537891938811, 42.409051069667569 ], [ 117.315378896830822, 42.409046566724321 ], [ 117.315391049513067, 42.409046533291033 ], [ 117.315391026954941, 42.409042030347791 ], [ 117.315409255976931, 42.409041980195447 ], [ 117.315409233417512, 42.409037477252205 ], [ 117.315415309757725, 42.409037460534122 ], [ 117.31541526463802, 42.409028454647625 ], [ 117.31542134097738, 42.409028437929223 ], [ 117.31542127329655, 42.409014929099449 ], [ 117.315354433577795, 42.409015112984079 ], [ 117.315354456133278, 42.40901961592737 ], [ 117.3153605324718, 42.409019599212186 ], [ 117.315360600139599, 42.409033108042031 ], [ 117.315366676479428, 42.409033091326528 ], [ 117.315366766704969, 42.409051103099578 ] ] ] } },
{ "type": "Feature", "properties": { "crown_id": 5636, "tree_id": "5642", "top_h_m": 17.806, "H_95_Mean": 17.3545, "DBH": 36.9465, "Carbon_kg": 238.199488, "area_m2": 60.0 }, "geometry": { "type": "Polygon", "coordinates": [ [ [ 117.315482307452413, 42.409068797216349 ], [ 117.315494460138808, 42.40906876377209 ], [ 117.315494437573264, 42.409064260828899 ], [ 117.315500513916035, 42.40906424410629 ], [ 117.315500536481991, 42.409068747049481 ], [ 117.315512689168358, 42.40906871360329 ], [ 117.315512666601506, 42.409064210660105 ], [ 117.315518742944263, 42.409064193936523 ], [ 117.315518720376971, 42.409059690993345 ], [ 117.31553087306159, 42.409059657545228 ], [ 117.315530895629735, 42.409064160488406 ], [ 117.315536971972463, 42.409064143763864 ], [ 117.315536949403878, 42.409059640820693 ], [ 117.315543025746152, 42.409059624095832 ], [ 117.315543003177154, 42.409055121152655 ], [ 117.315549079518988, 42.40905510442748 ], [ 117.315549056949578, 42.409050601484303 ], [ 117.315555133290971, 42.409050584758809 ], [ 117.315555088151243, 42.40904157887244 ], [ 117.315549011810717, 42.409041595597948 ], [ 117.315548944102446, 42.409028086768366 ], [ 117.315561096780925, 42.40902805331708 ], [ 117.315561074210649, 42.409023550373881 ], [ 117.315554997871871, 42.409023567099688 ], [ 117.315554930162364, 42.409010058270091 ], [ 117.315561006499863, 42.409010041544292 ], [ 117.315560961359353, 42.409001035657873 ], [ 117.315554885022735, 42.409001052383665 ], [ 117.315554862452927, 42.408996549440452 ], [ 117.31554270978053, 42.408996582891064 ], [ 117.31554268721159, 42.408992079947843 ], [ 117.315548763547369, 42.408992063222691 ], [ 117.315548718408635, 42.408983057336258 ], [ 117.315530489403955, 42.408983107510707 ], [ 117.315530557108133, 42.408996616340403 ], [ 117.315494099090785, 42.408996716680647 ], [ 117.315494144221717, 42.40900572256713 ], [ 117.315475915210357, 42.409005772732925 ], [ 117.315475937774536, 42.409010275676174 ], [ 117.315451632424242, 42.409010342559398 ], [ 117.315451654986703, 42.409014845502654 ], [ 117.315439502310667, 42.40901487894233 ], [ 117.315439524872218, 42.409019381885592 ], [ 117.315427372195288, 42.409019415323989 ], [ 117.315427417316727, 42.409028421210493 ], [ 117.315439569995377, 42.409028387772075 ], [ 117.31543959255697, 42.409032890715324 ], [ 117.315445668896743, 42.409032873995635 ], [ 117.315445714020797, 42.409041879882096 ], [ 117.315457866702047, 42.409041846441724 ], [ 117.315457889264948, 42.409046349384944 ], [ 117.315463965606, 42.409046332664289 ], [ 117.315463988169341, 42.409050835607509 ], [ 117.315476140852297, 42.409050802165197 ], [ 117.315476208544951, 42.4090643109948 ], [ 117.315482284887736, 42.409064294273151 ], [ 117.315482307452413, 42.409068797216349 ] ] ] } }
]
}
