{
"type": "FeatureCollection",
"name": "tile_21_4",
"crs": { "type": "name", "properties": { "name": "urn:ogc:def:crs:OGC:1.3:CRS84" } },
"features": [
{ "type": "Feature", "properties": { "crown_id": 8068, "tree_id": "8075", "top_h_m": 17.932, "H_95_Mean": 17.5798, "DBH": 26.6578, "Carbon_kg": 124.325551, "area_m2": 16.5 }, "geometry": { "type": "Polygon", "coordinates": [ [ [ 117.310797186306232, 42.407798238007885 ], [ 117.310815414976119, 42.407798188587186 ], [ 117.310815370516352, 42.407789182694778 ], [ 117.310821446738743, 42.407789166220567 ], [ 117.310821424508447, 42.407784663274356 ], [ 117.310827500730412, 42.407784646799833 ], [ 117.310827456268939, 42.407775640907396 ], [ 117.310833532490037, 42.407775624432567 ], [ 117.310833443565386, 42.407757612647679 ], [ 117.31082736734605, 42.407757629122521 ], [ 117.310827389576744, 42.40776213206874 ], [ 117.310821313356939, 42.407762148543256 ], [ 117.310821291126672, 42.40775764559703 ], [ 117.310809138687929, 42.407757678545074 ], [ 117.310809094229128, 42.407748672652609 ], [ 117.310796941792091, 42.40774870559936 ], [ 117.310796986249144, 42.407757711491854 ], [ 117.310784833810374, 42.407757744437312 ], [ 117.310784856038055, 42.407762247383573 ], [ 117.310766627378513, 42.407762296799376 ], [ 117.310766649604886, 42.407766799745623 ], [ 117.310778802045434, 42.407766766802062 ], [ 117.310778890954481, 42.407784778587015 ], [ 117.310797119620517, 42.407784729169244 ], [ 117.310797186306232, 42.407798238007885 ] ] ] } },
{ "type": "Feature", "properties": { "crown_id": 8097, "tree_id": "8104", "top_h_m": 19.389, "H_95_Mean": 19.2936, "DBH": 35.8815, "Carbon_kg": 239.081781, "area_m2": 44.0 }, "geometry": { "type": "Polygon", "coordinates": [ [ [ 117.310821491199391, 42.407798172112969 ], [ 117.310870100985468, 42.407798040307689 ], [ 117.310870078751691, 42.407793537361506 ], [ 117.310900459865636, 42.407793454972747 ], [ 117.31090043762967, 42.407788952026578 ], [ 117.310918666296686, 42.407788902589466 ], [ 117.31091868853396, 42.407793405535635 ], [ 117.310924764756706, 42.407793389055954 ], [ 117.310924675805936, 42.407775377271285 ], [ 117.310918599584909, 42.407775393750946 ], [ 117.310918443924237, 42.407743873127636 ], [ 117.310924520142237, 42.407743856647976 ], [ 117.310924431191665, 42.407725844863158 ], [ 117.310918354975414, 42.407725861342804 ], [ 117.310918332738225, 42.407721358396586 ], [ 117.310924408954037, 42.407721341916947 ], [ 117.310924386716408, 42.407716838970728 ], [ 117.310918310501037, 42.407716855450374 ], [ 117.310918243789487, 42.407703346611683 ], [ 117.31091216757541, 42.407703363090995 ], [ 117.310912212048905, 42.407712368983461 ], [ 117.31090613583396, 42.407712385462453 ], [ 117.310906158070267, 42.407716888408679 ], [ 117.310900081854882, 42.407716904887351 ], [ 117.310900126326644, 42.40772591077981 ], [ 117.310894050110377, 42.407725927258156 ], [ 117.310894072345846, 42.407730430204396 ], [ 117.310887996129139, 42.407730446682429 ], [ 117.310888040599224, 42.407739452574859 ], [ 117.310881964381636, 42.407739469052579 ], [ 117.310881986616252, 42.407743971998798 ], [ 117.310857681744139, 42.407744037906468 ], [ 117.310857726209903, 42.40775304379892 ], [ 117.310839497553161, 42.407753093226304 ], [ 117.310839630942723, 42.407780110903595 ], [ 117.310833554721214, 42.407780127378771 ], [ 117.310833599183567, 42.407789133271187 ], [ 117.310827522961176, 42.407789149746037 ], [ 117.310827545191927, 42.407793652692241 ], [ 117.310821468969067, 42.407793669166765 ], [ 117.310821491199391, 42.407798172112969 ] ], [ [ 117.31089431693627, 42.407779962612608 ], [ 117.310894250229737, 42.407766453774052 ], [ 117.310912478890245, 42.407766404337941 ], [ 117.310912545600701, 42.407779913176483 ], [ 117.31089431693627, 42.407779962612608 ] ] ] } },
{ "type": "Feature", "properties": { "crown_id": 8143, "tree_id": "8150", "top_h_m": 17.995, "H_95_Mean": 17.9933, "DBH": 26.0739, "Carbon_kg": 120.544303, "area_m2": 14.5 }, "geometry": { "type": "Polygon", "coordinates": [ [ [ 117.310815192677467, 42.407753159124972 ], [ 117.310833421334252, 42.40775310970146 ], [ 117.310833399103117, 42.40774860675522 ], [ 117.310851627758552, 42.407748557328809 ], [ 117.310851583293683, 42.40773955143635 ], [ 117.310875888164048, 42.407739485529987 ], [ 117.310875865929887, 42.407734982583754 ], [ 117.310881942147034, 42.407734966106368 ], [ 117.310881919912447, 42.407730463160142 ], [ 117.310863691262298, 42.407730512591357 ], [ 117.310863669029004, 42.40772600964511 ], [ 117.310851516596415, 42.407726042597638 ], [ 117.310851494363988, 42.407721539651391 ], [ 117.310839341932237, 42.407721572602625 ], [ 117.310839297469172, 42.407712566710117 ], [ 117.310833221254157, 42.407712583185244 ], [ 117.310833154560882, 42.407699074346439 ], [ 117.310821002133466, 42.40769910729572 ], [ 117.310821179975321, 42.407735130865824 ], [ 117.310815103758145, 42.407735147339999 ], [ 117.310815148217785, 42.4077441532325 ], [ 117.310821224435855, 42.407744136758311 ], [ 117.310821246666109, 42.40774863970455 ], [ 117.310815170447626, 42.40774865617874 ], [ 117.310815192677467, 42.407753159124972 ] ] ] } },
{ "type": "Feature", "properties": { "crown_id": 8160, "tree_id": "8167", "top_h_m": 19.802, "H_95_Mean": 20.2666, "DBH": 39.5708, "Carbon_kg": 299.813683, "area_m2": 58.75 }, "geometry": { "type": "Polygon", "coordinates": [ [ [ 117.310748376493876, 42.407757843266026 ], [ 117.310778757590953, 42.407757760909583 ], [ 117.310778735363741, 42.407753257963321 ], [ 117.310790887801659, 42.407753225018496 ], [ 117.310790843345472, 42.407744219125995 ], [ 117.310809071999714, 42.407744169706348 ], [ 117.310809005311555, 42.407730660867593 ], [ 117.310815081528332, 42.407730644393745 ], [ 117.310814881460189, 42.407690117877301 ], [ 117.310808805247333, 42.407690134351128 ], [ 117.310808760788674, 42.407681128458549 ], [ 117.310796608364669, 42.407681161405222 ], [ 117.310796563907758, 42.407672155512614 ], [ 117.310778335274364, 42.407672204930201 ], [ 117.310778313047223, 42.407667701983883 ], [ 117.310766160625775, 42.407667734927315 ], [ 117.310766182852035, 42.407672237873641 ], [ 117.310760106640871, 42.407672254344895 ], [ 117.310760128866718, 42.407676757291206 ], [ 117.310754052655113, 42.407676773762127 ], [ 117.310754119331364, 42.407690282601074 ], [ 117.310748043118465, 42.407690299071689 ], [ 117.310748087568442, 42.407699304964318 ], [ 117.310735935140869, 42.407699337904582 ], [ 117.310735957365011, 42.407703840850893 ], [ 117.310723804936544, 42.407703873789856 ], [ 117.310723849383095, 42.407712879682485 ], [ 117.310711696952879, 42.407712912620184 ], [ 117.310711874732291, 42.407748936190565 ], [ 117.310717950950874, 42.407748919721868 ], [ 117.31071792872801, 42.407744416775579 ], [ 117.310742233600564, 42.407744350897538 ], [ 117.310742255825176, 42.407748853843827 ], [ 117.310748332043758, 42.407748837373497 ], [ 117.310748376493876, 42.407757843266026 ] ] ] } },
{ "type": "Feature", "properties": { "crown_id": 8161, "tree_id": "8168", "top_h_m": 17.895, "H_95_Mean": 18.386, "DBH": 27.7536, "Carbon_kg": 138.464717, "area_m2": 17.75 }, "geometry": { "type": "Polygon", "coordinates": [ [ [ 117.310869745245284, 42.40772599316837 ], [ 117.310887973894111, 42.407725943736196 ], [ 117.310887951659112, 42.40772144078997 ], [ 117.310894027874951, 42.40772142431193 ], [ 117.310893983404029, 42.407712418419472 ], [ 117.310900059618987, 42.407712401941119 ], [ 117.310900037383121, 42.407707898994879 ], [ 117.310906113597639, 42.40770788251622 ], [ 117.310906046888732, 42.407694373677501 ], [ 117.310912123101943, 42.407694357198523 ], [ 117.31091210086521, 42.407689854252276 ], [ 117.310906024652454, 42.407689870731247 ], [ 117.310906002416147, 42.407685367785007 ], [ 117.310869545141983, 42.407685466652097 ], [ 117.310869522908334, 42.407680963705836 ], [ 117.310863446696388, 42.407680980182555 ], [ 117.310863535629366, 42.407698991967621 ], [ 117.310839230774604, 42.407699057871319 ], [ 117.31083927523764, 42.407708063763856 ], [ 117.310845351452201, 42.407708047288402 ], [ 117.310845395916147, 42.407717053180917 ], [ 117.310857548347002, 42.40771702022905 ], [ 117.310857570579842, 42.40772152317529 ], [ 117.310869723011564, 42.40772149022213 ], [ 117.310869745245284, 42.40772599316837 ] ] ] } },
{ "type": "Feature", "properties": { "crown_id": 8182, "tree_id": "8189", "top_h_m": 18.0, "H_95_Mean": 18.4705, "DBH": 41.093, "Carbon_kg": 306.234592, "area_m2": 80.75 }, "geometry": { "type": "MultiPolygon", "coordinates": [ [ [ [ 117.310650757057132, 42.407677053718523 ], [ 117.310650779275164, 42.407681556664876 ], [ 117.310632550638758, 42.407681606059285 ], [ 117.310632572855496, 42.407686109005652 ], [ 117.310626496642911, 42.407686125469816 ], [ 117.310626518859209, 42.407690628416191 ], [ 117.310614366433171, 42.407690661343551 ], [ 117.310614410864048, 42.407699667236294 ], [ 117.310608334650141, 42.407699683699505 ], [ 117.310608401295184, 42.407713192538594 ], [ 117.31062055372557, 42.407713159611838 ], [ 117.310620620373257, 42.407726668450877 ], [ 117.310651001455682, 42.407726586128341 ], [ 117.310651045891845, 42.407735592020991 ], [ 117.310669274543827, 42.407735542623577 ], [ 117.310669318982619, 42.407744548516206 ], [ 117.310675395200818, 42.407744532049755 ], [ 117.310675417420654, 42.407749034996073 ], [ 117.310681493639265, 42.407749018529273 ], [ 117.310681538079834, 42.407758024421874 ], [ 117.310687614299326, 42.407758007954762 ], [ 117.31068756985789, 42.407749002062175 ], [ 117.310705798513695, 42.407748952658963 ], [ 117.310705598515781, 42.407708426142229 ], [ 117.31071775094513, 42.407708393205169 ], [ 117.310717706499474, 42.407699387312547 ], [ 117.310729858927075, 42.407699354374216 ], [ 117.310729836703388, 42.407694851427912 ], [ 117.310741989130094, 42.407694818488295 ], [ 117.310741944680984, 42.407685812595659 ], [ 117.310748020893485, 42.407685796125371 ], [ 117.310747954218542, 42.407672287286402 ], [ 117.31075403042972, 42.407672270815794 ], [ 117.310754008204313, 42.407667767869476 ], [ 117.310760084415037, 42.407667751398556 ], [ 117.310760062189217, 42.407663248452231 ], [ 117.310753985978934, 42.407663264923144 ], [ 117.310753852626647, 42.407636247245065 ], [ 117.310759928834329, 42.407636230774173 ], [ 117.310759906608538, 42.40763172782782 ], [ 117.310753830401282, 42.407631744298719 ], [ 117.310753808175917, 42.407627241352351 ], [ 117.310735579555441, 42.407627290763102 ], [ 117.310735601779513, 42.407631793709463 ], [ 117.310729525572228, 42.407631810179076 ], [ 117.310729503348597, 42.407627307232701 ], [ 117.310723427141767, 42.407627323701995 ], [ 117.310723449364943, 42.407631826648363 ], [ 117.310717373157658, 42.407631843117322 ], [ 117.310717462048686, 42.407649854902786 ], [ 117.310699233421587, 42.407649904307775 ], [ 117.310699255643058, 42.407654407254149 ], [ 117.310687103224112, 42.407654440189191 ], [ 117.310687125444716, 42.407658943135573 ], [ 117.310674973024859, 42.407658976069335 ], [ 117.310674995244597, 42.40766347901571 ], [ 117.310681071454951, 42.407663462548989 ], [ 117.310681093675143, 42.407667965495349 ], [ 117.310675017464348, 42.407667981962071 ], [ 117.310675039684085, 42.407672484908439 ], [ 117.310668963472864, 42.407672501374847 ], [ 117.310668919034228, 42.407663495482119 ], [ 117.310656766613477, 42.407663528413948 ], [ 117.31065678883192, 42.40766803136033 ], [ 117.31066286504273, 42.407668014894561 ], [ 117.310662887261614, 42.407672517840936 ], [ 117.310656811050379, 42.407672534306698 ], [ 117.310656833268823, 42.407677037253073 ], [ 117.310650757057132, 42.407677053718523 ] ], [ [ 117.310669185666313, 42.407717530838298 ], [ 117.310669119008224, 42.407704021999308 ], [ 117.31068734765104, 42.407703972599052 ], [ 117.310687414313051, 42.407717481438027 ], [ 117.310669185666313, 42.407717530838298 ] ] ], [ [ [ 117.310650757057132, 42.407677053718523 ], [ 117.310650734839129, 42.407672550772148 ], [ 117.310644658627865, 42.407672567237263 ], [ 117.310644680845442, 42.407677070183645 ], [ 117.310650757057132, 42.407677053718523 ] ] ] ] } },
{ "type": "Feature", "properties": { "crown_id": 8237, "tree_id": "8245", "top_h_m": 16.562, "H_95_Mean": 16.5511, "DBH": 35.599, "Carbon_kg": 214.904014, "area_m2": 56.75 }, "geometry": { "type": "MultiPolygon", "coordinates": [ [ [ [ 117.310778135230265, 42.407631678413203 ], [ 117.310784211437507, 42.407631661941018 ], [ 117.310784189209983, 42.407627158994671 ], [ 117.310778113003181, 42.407627175466857 ], [ 117.310778135230265, 42.407631678413203 ] ] ], [ [ [ 117.310778135230265, 42.407631678413203 ], [ 117.310765982815795, 42.407631711356601 ], [ 117.310766027268244, 42.407640717249301 ], [ 117.31075995106012, 42.40764073372052 ], [ 117.310760039963398, 42.407658745505898 ], [ 117.310766116173255, 42.407658729034658 ], [ 117.310766138399501, 42.407663231980997 ], [ 117.310784367030365, 42.407663182565351 ], [ 117.310784389257904, 42.407667685511676 ], [ 117.310802617890019, 42.40766763609313 ], [ 117.310802662347783, 42.407676641985745 ], [ 117.310814814770907, 42.40767660903844 ], [ 117.310814859230405, 42.407685614931012 ], [ 117.31082093544282, 42.407685598456879 ], [ 117.310820979903241, 42.407694604349437 ], [ 117.310857437182847, 42.407694505497766 ], [ 117.310857348251645, 42.407676493712678 ], [ 117.310875576886161, 42.407676444282522 ], [ 117.31087559912028, 42.407680947228798 ], [ 117.310905980179882, 42.407680864838753 ], [ 117.310905957943604, 42.407676361892499 ], [ 117.310912034155081, 42.40767634541352 ], [ 117.310911989681671, 42.407667339520998 ], [ 117.310918065892267, 42.407667323041707 ], [ 117.310917999180887, 42.407653814202902 ], [ 117.310936227808753, 42.407653764763126 ], [ 117.310936205570329, 42.407649261816871 ], [ 117.310930129361495, 42.407649278297107 ], [ 117.310930107123511, 42.407644775350846 ], [ 117.31091187849826, 42.407644824789635 ], [ 117.310911900734908, 42.407649327735918 ], [ 117.310905824526046, 42.407649344214875 ], [ 117.310905846762296, 42.407653847161143 ], [ 117.310881541925042, 42.407653913073759 ], [ 117.310881519690554, 42.407649410127483 ], [ 117.310869367272758, 42.407649443081851 ], [ 117.310869322805488, 42.407640437189237 ], [ 117.310851094181373, 42.407640486618369 ], [ 117.31085104971676, 42.40763148072574 ], [ 117.310838897302403, 42.407631513676876 ], [ 117.310838919533836, 42.407636016623201 ], [ 117.310832843326224, 42.407636033098285 ], [ 117.310832821095218, 42.407631530151953 ], [ 117.310826744888004, 42.407631546626718 ], [ 117.310826767118584, 42.407636049573043 ], [ 117.310820690910944, 42.407636066047488 ], [ 117.310820646450679, 42.407627060154823 ], [ 117.310796341623586, 42.407627126049348 ], [ 117.310796408308775, 42.407640634888359 ], [ 117.310790332100666, 42.407640651361199 ], [ 117.310790309872715, 42.407636148414852 ], [ 117.310784233665046, 42.407636164887364 ], [ 117.310784255892571, 42.407640667833704 ], [ 117.310778179684476, 42.407640684305889 ], [ 117.310778135230265, 42.407631678413203 ] ], [ [ 117.310893805520635, 42.407676394849474 ], [ 117.310893783285252, 42.407671891903199 ], [ 117.310899859496303, 42.407671875424874 ], [ 117.310899881732126, 42.40767637837115 ], [ 117.310893805520635, 42.407676394849474 ] ], [ [ 117.310766071720749, 42.407649723141994 ], [ 117.310766049494504, 42.407645220195647 ], [ 117.310772125703053, 42.407645203724101 ], [ 117.310772147929711, 42.407649706670441 ], [ 117.310766071720749, 42.407649723141994 ] ], [ [ 117.310772147929711, 42.407649706670441 ], [ 117.310778224138701, 42.407649690198568 ], [ 117.310778246365814, 42.407654193144893 ], [ 117.310772170156397, 42.407654209616773 ], [ 117.310772147929711, 42.407649706670441 ] ] ] ] } },
{ "type": "Feature", "properties": { "crown_id": 8261, "tree_id": "8269", "top_h_m": 12.835, "H_95_Mean": 13.1237, "DBH": 23.3058, "Carbon_kg": 79.771075, "area_m2": 17.0 }, "geometry": { "type": "Polygon", "coordinates": [ [ [ 117.310887595899445, 42.40764939364982 ], [ 117.310899748317183, 42.407649360693505 ], [ 117.310899726081374, 42.407644857747229 ], [ 117.310905802289824, 42.407644841268585 ], [ 117.310905780053574, 42.407640338322295 ], [ 117.310936161093508, 42.407640255924321 ], [ 117.310936116616702, 42.40763125003177 ], [ 117.310930040409602, 42.407631266512006 ], [ 117.310930018171646, 42.407626763565716 ], [ 117.310917865758299, 42.407626796525221 ], [ 117.31091784352121, 42.407622293578918 ], [ 117.310923919727458, 42.407622277099328 ], [ 117.310923897489957, 42.407617774153032 ], [ 117.310911745078315, 42.407617807111883 ], [ 117.310911722841681, 42.407613304165579 ], [ 117.310893494225496, 42.40761335360142 ], [ 117.31089347199017, 42.407608850655116 ], [ 117.310887395785201, 42.407608867133064 ], [ 117.310887418020073, 42.407613370079389 ], [ 117.310881341814678, 42.407613386557031 ], [ 117.310881364049138, 42.407617889503356 ], [ 117.310869211637453, 42.407617922457689 ], [ 117.310869233871045, 42.407622425404007 ], [ 117.310863157664741, 42.407622441880697 ], [ 117.310863135431589, 42.407617938934372 ], [ 117.310857059225711, 42.407617955410743 ], [ 117.310857148156686, 42.407635967196015 ], [ 117.310875376779478, 42.407635917765923 ], [ 117.310875421247573, 42.407644923658538 ], [ 117.310887573664488, 42.407644890703523 ], [ 117.310887595899445, 42.40764939364982 ] ] ] } },
{ "type": "Feature", "properties": { "crown_id": 8301, "tree_id": "8309", "top_h_m": 9.873, "H_95_Mean": 10.3962, "DBH": 19.1633, "Carbon_kg": 46.848593, "area_m2": 12.5 }, "geometry": { "type": "Polygon", "coordinates": [ [ [ 117.310681004794446, 42.407649953709864 ], [ 117.310693157212555, 42.407649920775462 ], [ 117.31069313499151, 42.407645417829094 ], [ 117.310711363617344, 42.407645368425079 ], [ 117.310711274728035, 42.407627356639594 ], [ 117.310717350934908, 42.407627340170947 ], [ 117.310717328712144, 42.407622837224558 ], [ 117.310723404918562, 42.407622820755613 ], [ 117.3107233826954, 42.407618317809231 ], [ 117.310729458901378, 42.407618301339944 ], [ 117.310729436677775, 42.407613798393562 ], [ 117.310717284266701, 42.407613831331801 ], [ 117.310717262043951, 42.407609328385398 ], [ 117.310711185838841, 42.407609344854038 ], [ 117.31071116361656, 42.407604841907634 ], [ 117.310705087411861, 42.407604858375933 ], [ 117.310705065190021, 42.40760035542953 ], [ 117.310692912781505, 42.407600388365168 ], [ 117.310692957223466, 42.407609394257975 ], [ 117.310686881018327, 42.407609410725328 ], [ 117.310686992121148, 42.407631925457302 ], [ 117.310680915913849, 42.407631941924343 ], [ 117.310680960354134, 42.4076409478171 ], [ 117.310674884145939, 42.407640964283814 ], [ 117.310674906365662, 42.407645467230203 ], [ 117.310680982574283, 42.407645450763496 ], [ 117.310681004794446, 42.407649953709864 ] ] ] } },
{ "type": "Feature", "properties": { "crown_id": 8321, "tree_id": "8329", "top_h_m": 11.014, "H_95_Mean": 10.9767, "DBH": 16.806, "Carbon_kg": 37.132863, "area_m2": 6.75 }, "geometry": { "type": "MultiPolygon", "coordinates": [ [ [ [ 117.310844906813955, 42.407617988362503 ], [ 117.310850983019847, 42.407617971886779 ], [ 117.310850960787562, 42.40761346894044 ], [ 117.31084488458211, 42.407613485416164 ], [ 117.310844906813955, 42.407617988362503 ] ] ], [ [ [ 117.310850960787562, 42.40761346894044 ], [ 117.310875265609269, 42.407613403034368 ], [ 117.310875243375236, 42.407608900088043 ], [ 117.310881319580204, 42.40760888361072 ], [ 117.310881275111313, 42.40759987771807 ], [ 117.310869122703082, 42.407599910672374 ], [ 117.310869078235925, 42.40759090477971 ], [ 117.31086300203269, 42.407590921256372 ], [ 117.310862979799538, 42.407586418310032 ], [ 117.310856903596729, 42.407586434786367 ], [ 117.310856925829427, 42.407590937732721 ], [ 117.310850849626163, 42.407590954208743 ], [ 117.310850871858435, 42.407595457155089 ], [ 117.310844795654717, 42.407595473630792 ], [ 117.310844817886561, 42.407599976577139 ], [ 117.310838741682431, 42.407599993052536 ], [ 117.31083878614524, 42.407608998945214 ], [ 117.310850938555262, 42.407608965994122 ], [ 117.310850960787562, 42.40761346894044 ] ] ] ] } }
]
}
