{
"type": "FeatureCollection",
"name": "tile_14_23",
"crs": { "type": "name", "properties": { "name": "urn:ogc:def:crs:OGC:1.3:CRS84" } },
"features": [
{ "type": "Feature", "properties": { "crown_id": 5624, "tree_id": "5630", "top_h_m": 21.702, "H_95_Mean": 21.1856, "DBH": 31.6489, "Carbon_kg": 196.203925, "area_m2": 22.75 }, "geometry": { "type": "MultiPolygon", "coordinates": [ [ [ [ 117.315293850605855, 42.409051303664519 ], [ 117.315324232313912, 42.409051220101432 ], [ 117.315324209760547, 42.409046717158141 ], [ 117.315336362442864, 42.409046683730658 ], [ 117.315336317334456, 42.409037677844118 ], [ 117.31535454635528, 42.409037627700485 ], [ 117.315354478688775, 42.409024118870647 ], [ 117.315348402349812, 42.409024135585511 ], [ 117.315348357239699, 42.409015129698922 ], [ 117.315342280901589, 42.409015146413466 ], [ 117.315342235792357, 42.409006140526863 ], [ 117.315311854106113, 42.409006224094668 ], [ 117.315311876658541, 42.409010727037966 ], [ 117.315293647645433, 42.409010777174792 ], [ 117.315293625094299, 42.409006274231466 ], [ 117.315287548757027, 42.409006290943097 ], [ 117.315287684061275, 42.409033308602986 ], [ 117.315281607721374, 42.409033325314304 ], [ 117.31528165282198, 42.409042331200901 ], [ 117.315293805503501, 42.40904229777793 ], [ 117.315293850605855, 42.409051303664519 ] ] ], [ [ [ 117.31535454635528, 42.409037627700485 ], [ 117.315354568910806, 42.409042130643748 ], [ 117.315360645251502, 42.409042113928564 ], [ 117.315360622695565, 42.409037610985287 ], [ 117.31535454635528, 42.409037627700485 ] ] ] ] } },
{ "type": "Feature", "properties": { "crown_id": 5703, "tree_id": "5709", "top_h_m": 20.264, "H_95_Mean": 20.9622, "DBH": 28.8758, "Carbon_kg": 162.075956, "area_m2": 16.25 }, "geometry": { "type": "Polygon", "coordinates": [ [ [ 117.315366563697623, 42.409010576610129 ], [ 117.315396945385828, 42.409010493027829 ], [ 117.315396787476303, 42.408978972424819 ], [ 117.315390711141717, 42.408978989141893 ], [ 117.315390666025621, 42.408969983255297 ], [ 117.315384589691902, 42.408969999972065 ], [ 117.315384544576702, 42.408960994085426 ], [ 117.315378468243836, 42.408961010801846 ], [ 117.315378445686676, 42.408956507858534 ], [ 117.315354140356916, 42.408956574721024 ], [ 117.315354162912342, 42.408961077664351 ], [ 117.315360239245223, 42.408961060949217 ], [ 117.315360306912822, 42.40897456977919 ], [ 117.315354230578649, 42.408974586494338 ], [ 117.315354320800452, 42.408992598267581 ], [ 117.315360397136345, 42.408992581552425 ], [ 117.315360419692254, 42.408997084495731 ], [ 117.315366496028602, 42.408997067780241 ], [ 117.315366563697623, 42.409010576610129 ] ] ] } },
{ "type": "Feature", "properties": { "crown_id": 5729, "tree_id": "5735", "top_h_m": 20.53, "H_95_Mean": 21.7472, "DBH": 25.0511, "Carbon_kg": 124.391824, "area_m2": 8.75 }, "geometry": { "type": "Polygon", "coordinates": [ [ [ 117.315403021723441, 42.409010476310399 ], [ 117.31541517439868, 42.409010442874589 ], [ 117.315415106719229, 42.408996934044765 ], [ 117.315433335728116, 42.408996883888655 ], [ 117.315433268044828, 42.408983375058824 ], [ 117.315439344379783, 42.408983358339484 ], [ 117.315439276695216, 42.408969849509631 ], [ 117.315427124027849, 42.408969882947979 ], [ 117.31542714658849, 42.408974385891277 ], [ 117.315402841251966, 42.408974452764113 ], [ 117.315403021723441, 42.409010476310399 ] ] ] } },
{ "type": "Feature", "properties": { "crown_id": 5730, "tree_id": "5736", "top_h_m": 22.29, "H_95_Mean": 22.5297, "DBH": 31.4163, "Carbon_kg": 200.470992, "area_m2": 19.75 }, "geometry": { "type": "Polygon", "coordinates": [ [ [ 117.315427349634604, 42.409014912380741 ], [ 117.315433425972614, 42.409014895661699 ], [ 117.31543340341149, 42.409010392718436 ], [ 117.315445556086658, 42.409010359279399 ], [ 117.315445533524667, 42.409005856336151 ], [ 117.315469838873227, 42.40900578945422 ], [ 117.315469816309516, 42.409001286510971 ], [ 117.315488045319569, 42.409001236346143 ], [ 117.315488000189518, 42.408992230459653 ], [ 117.31552445820428, 42.408992130121348 ], [ 117.315524413069028, 42.408983124234879 ], [ 117.315494031394437, 42.408983207850909 ], [ 117.315494008828992, 42.408978704907653 ], [ 117.315487932494477, 42.408978721629886 ], [ 117.315487887364469, 42.40896971574336 ], [ 117.315451429362568, 42.408969816070005 ], [ 117.315451406800179, 42.408965313126721 ], [ 117.315445330466943, 42.408965329846701 ], [ 117.315445443276744, 42.408987844563086 ], [ 117.31543936694132, 42.40898786128276 ], [ 117.315439434625958, 42.40900137011257 ], [ 117.315421205615777, 42.409001420269668 ], [ 117.315421250736293, 42.409010426156193 ], [ 117.315427327073877, 42.409010409437471 ], [ 117.315427349634604, 42.409014912380741 ] ] ] } },
{ "type": "Feature", "properties": { "crown_id": 5738, "tree_id": "5744", "top_h_m": 21.523, "H_95_Mean": 21.4864, "DBH": 30.9194, "Carbon_kg": 188.763114, "area_m2": 20.25 }, "geometry": { "type": "Polygon", "coordinates": [ [ [ 117.315348334684657, 42.409010626755638 ], [ 117.315360487359982, 42.409010593325618 ], [ 117.315360442248164, 42.409001587439029 ], [ 117.315354365911375, 42.409001604154199 ], [ 117.315354343355892, 42.408997101210893 ], [ 117.31534826701953, 42.408997117925736 ], [ 117.315348131689447, 42.40897010026584 ], [ 117.315354208023223, 42.408970083551019 ], [ 117.315354185467768, 42.408965580607692 ], [ 117.315348109134462, 42.408965597322513 ], [ 117.315348086579462, 42.408961094379173 ], [ 117.315335933913687, 42.408961127807849 ], [ 117.315335956467806, 42.40896563075119 ], [ 117.315311651134436, 42.408965697604685 ], [ 117.315311673686807, 42.408970200548026 ], [ 117.315299521019227, 42.408970233972852 ], [ 117.31529954357076, 42.408974736916193 ], [ 117.315293467236529, 42.408974753628122 ], [ 117.315293444685423, 42.408970250684774 ], [ 117.315281292017815, 42.408970284107667 ], [ 117.315281314568054, 42.408974787051022 ], [ 117.31528739090227, 42.408974770339732 ], [ 117.315287436003615, 42.408983776226428 ], [ 117.315293512338727, 42.408983759514818 ], [ 117.315293602543179, 42.409001771288146 ], [ 117.315299678880024, 42.409001754576202 ], [ 117.315299701431584, 42.409006257519522 ], [ 117.315305777768842, 42.409006240807244 ], [ 117.315305755216841, 42.409001737863932 ], [ 117.315348289574573, 42.409001620869041 ], [ 117.315348334684657, 42.409010626755638 ] ] ] } },
{ "type": "Feature", "properties": { "crown_id": 5773, "tree_id": "5779", "top_h_m": 20.34, "H_95_Mean": 21.0044, "DBH": 21.6041, "Carbon_kg": 90.424847, "area_m2": 5.25 }, "geometry": { "type": "Polygon", "coordinates": [ [ [ 117.31539674235934, 42.408969966538223 ], [ 117.315421047694159, 42.408969899666673 ], [ 117.315421025133958, 42.408965396723374 ], [ 117.315427101467222, 42.40896538000468 ], [ 117.315427078906581, 42.408960877061396 ], [ 117.315414926240919, 42.408960910498429 ], [ 117.315414881121399, 42.408951904611804 ], [ 117.315408804789428, 42.408951921329859 ], [ 117.315408782230094, 42.408947418386532 ], [ 117.315396629567033, 42.408947451821632 ], [ 117.315396652125486, 42.408951954764959 ], [ 117.315384499461501, 42.40895198819878 ], [ 117.315384522019087, 42.408956491142099 ], [ 117.315390598351513, 42.408956474425345 ], [ 117.31539064346758, 42.408965480311977 ], [ 117.315396719800859, 42.408965463594917 ], [ 117.31539674235934, 42.408969966538223 ] ] ] } },
{ "type": "Feature", "properties": { "crown_id": 5795, "tree_id": "5801", "top_h_m": 23.35, "H_95_Mean": 23.2761, "DBH": 37.037, "Carbon_kg": 284.768738, "area_m2": 35.25 }, "geometry": { "type": "Polygon", "coordinates": [ [ [ 117.315500085163492, 42.408978688185087 ], [ 117.315530466835895, 42.408978604567451 ], [ 117.31553044426785, 42.408974101624217 ], [ 117.315512215265741, 42.408974151795746 ], [ 117.315512147565542, 42.408960642965987 ], [ 117.31550607123279, 42.408960659689171 ], [ 117.315506026100209, 42.408951653802632 ], [ 117.315512102432095, 42.408951637079454 ], [ 117.31551196703191, 42.40892461941975 ], [ 117.315505890702653, 42.40892463614292 ], [ 117.315505845570172, 42.408915630256338 ], [ 117.315499769241754, 42.408915646979167 ], [ 117.315499791807554, 42.408920149922473 ], [ 117.315493715478723, 42.408920166645004 ], [ 117.31549369291335, 42.408915663701698 ], [ 117.315475463928067, 42.408915713867344 ], [ 117.315475486492119, 42.40892021681065 ], [ 117.3154572575055, 42.408920266973396 ], [ 117.31545730263106, 42.408929272860036 ], [ 117.315451226301278, 42.408929289580307 ], [ 117.315451248863624, 42.408933792523626 ], [ 117.315414790882386, 42.408933892838533 ], [ 117.31541485856161, 42.408947401668506 ], [ 117.31542093489314, 42.408947384950153 ], [ 117.315420980013542, 42.408956390836771 ], [ 117.315433132678308, 42.408956357399077 ], [ 117.315433177800443, 42.408965363285681 ], [ 117.315439254133707, 42.408965346566347 ], [ 117.315439231572199, 42.408960843623049 ], [ 117.315457460570613, 42.40896079346313 ], [ 117.315457483133414, 42.408965296406421 ], [ 117.315493941132686, 42.408965196077872 ], [ 117.315493986263533, 42.408974201964391 ], [ 117.315500062597607, 42.408974185241838 ], [ 117.315500085163492, 42.408978688185087 ] ] ] } },
{ "type": "Feature", "properties": { "crown_id": 5835, "tree_id": "5841", "top_h_m": 21.499, "H_95_Mean": 22.0931, "DBH": 31.8159, "Carbon_kg": 203.277004, "area_m2": 21.5 }, "geometry": { "type": "Polygon", "coordinates": [ [ [ 117.315354117801519, 42.408952071777684 ], [ 117.315378423129516, 42.4089520049152 ], [ 117.315378400572357, 42.408947501971873 ], [ 117.315390553235474, 42.408947468538706 ], [ 117.315390530677476, 42.408942965595372 ], [ 117.315408759670788, 42.40894291544322 ], [ 117.315408646874275, 42.408920400726558 ], [ 117.315402570545345, 42.408920417444243 ], [ 117.315402525427658, 42.408911411557561 ], [ 117.315390372771517, 42.408911444991979 ], [ 117.315390305097623, 42.408897936161885 ], [ 117.315372076117313, 42.408897986311075 ], [ 117.315372098673961, 42.408902489254444 ], [ 117.315366022346737, 42.408902505970197 ], [ 117.315366044902973, 42.408907008913559 ], [ 117.315372121230638, 42.408906992197807 ], [ 117.315372143787286, 42.408911495141183 ], [ 117.315366067459209, 42.40891151185695 ], [ 117.315366090015445, 42.408916014800305 ], [ 117.315360013686899, 42.408916031515744 ], [ 117.315359991131118, 42.408911528572382 ], [ 117.315347838474906, 42.408911562002288 ], [ 117.315347996359549, 42.408943082605809 ], [ 117.315354072690695, 42.408943065891002 ], [ 117.315354117801519, 42.408952071777684 ] ], [ [ 117.31535395991375, 42.408920551174226 ], [ 117.315353937358367, 42.408916048230857 ], [ 117.315360013686899, 42.408916031515744 ], [ 117.315360036242737, 42.408920534459106 ], [ 117.31535395991375, 42.408920551174226 ] ] ] } },
{ "type": "Feature", "properties": { "crown_id": 5858, "tree_id": "5864", "top_h_m": 20.398, "H_95_Mean": 20.3727, "DBH": 25.4566, "Carbon_kg": 123.616473, "area_m2": 10.5 }, "geometry": { "type": "Polygon", "coordinates": [ [ [ 117.315414768322668, 42.408929389895214 ], [ 117.315445149971538, 42.408929306300266 ], [ 117.315445127409617, 42.408924803356946 ], [ 117.315451203738959, 42.408924786636994 ], [ 117.315451158614295, 42.408915780750355 ], [ 117.315457234942741, 42.408915764030077 ], [ 117.315457189817238, 42.408906758143424 ], [ 117.315445037162064, 42.408906791583625 ], [ 117.315445014600186, 42.408902288640292 ], [ 117.315402480309984, 42.408902405670844 ], [ 117.315402457751148, 42.408897902727496 ], [ 117.315396381424407, 42.408897919444847 ], [ 117.315396426541184, 42.408906925331564 ], [ 117.315408579196429, 42.408906891896507 ], [ 117.315408624314983, 42.408915897783224 ], [ 117.315414700643487, 42.408915881065205 ], [ 117.315414768322668, 42.408929389895214 ] ] ] } },
{ "type": "Feature", "properties": { "crown_id": 5929, "tree_id": "5935", "top_h_m": 22.145, "H_95_Mean": 22.1487, "DBH": 22.4198, "Carbon_kg": 100.543557, "area_m2": 5.5 }, "geometry": { "type": "Polygon", "coordinates": [ [ [ 117.31545109092734, 42.408902271920354 ], [ 117.315457167254493, 42.408902255200083 ], [ 117.315457077003543, 42.408884243426733 ], [ 117.315451000678152, 42.408884260146976 ], [ 117.315450932991311, 42.408870751316904 ], [ 117.315444856667199, 42.408870768036827 ], [ 117.31544483410535, 42.408866265093472 ], [ 117.315432681457992, 42.408866298532338 ], [ 117.315432794262875, 42.408888813249156 ], [ 117.315438870588736, 42.408888796529865 ], [ 117.315438915711596, 42.408897802416568 ], [ 117.315451068365036, 42.408897768977006 ], [ 117.31545109092734, 42.408902271920354 ] ] ] } },
{ "type": "Feature", "properties": { "crown_id": 5937, "tree_id": "5943", "top_h_m": 22.21, "H_95_Mean": 24.1528, "DBH": 25.5098, "Carbon_kg": 137.285216, "area_m2": 7.75 }, "geometry": { "type": "Polygon", "coordinates": [ [ [ 117.315505823003932, 42.408911127313033 ], [ 117.315517975659873, 42.408911093866379 ], [ 117.315517907958579, 42.408897585036449 ], [ 117.31552398428525, 42.408897568312653 ], [ 117.315524006852769, 42.408902071255966 ], [ 117.315530083179866, 42.408902054531836 ], [ 117.315530038043946, 42.408893048645218 ], [ 117.315542190696377, 42.408893015196007 ], [ 117.315542145558737, 42.408884009309389 ], [ 117.315536069233417, 42.408884026034158 ], [ 117.315536046665031, 42.408879523090846 ], [ 117.315529970340123, 42.408879539815274 ], [ 117.31552992520426, 42.408870533928628 ], [ 117.315523848880233, 42.408870550652736 ], [ 117.315523803745265, 42.408861544766069 ], [ 117.315511651098902, 42.408861578213312 ], [ 117.31551171879876, 42.408875087043313 ], [ 117.315517795123242, 42.408875070319851 ], [ 117.3155178853915, 42.40889308209313 ], [ 117.315505732739055, 42.408893115539769 ], [ 117.315505823003932, 42.408911127313033 ] ] ] } },
{ "type": "Feature", "properties": { "crown_id": 5946, "tree_id": "5952", "top_h_m": 23.468, "H_95_Mean": 22.7926, "DBH": 34.9517, "Carbon_kg": 250.250824, "area_m2": 29.25 }, "geometry": { "type": "Polygon", "coordinates": [ [ [ 117.315341739592299, 42.408907075773364 ], [ 117.315353892247643, 42.408907042344111 ], [ 117.315353869692274, 42.408902539400728 ], [ 117.315359946019498, 42.408902522685622 ], [ 117.315359923463717, 42.408898019742246 ], [ 117.315365999790515, 42.40889800302682 ], [ 117.315365977234308, 42.408893500083437 ], [ 117.315372053560637, 42.408893483367692 ], [ 117.315371940777467, 42.40887096865076 ], [ 117.315365864453284, 42.408870985366491 ], [ 117.315365774228582, 42.408852973592879 ], [ 117.315347545261218, 42.408853023738118 ], [ 117.315347522706361, 42.408848520794699 ], [ 117.315341446384338, 42.408848537509122 ], [ 117.315341423829906, 42.408844034565711 ], [ 117.315323194865115, 42.408844084707063 ], [ 117.315323217418225, 42.408848587650496 ], [ 117.315304988452084, 42.408848637788964 ], [ 117.315305168866786, 42.40888466133638 ], [ 117.315311245192305, 42.408884644623861 ], [ 117.315311290296918, 42.408893650510677 ], [ 117.315323442949705, 42.408893617084651 ], [ 117.315323465502885, 42.408898120028063 ], [ 117.315329541829684, 42.408898103314549 ], [ 117.315329564383305, 42.408902606257946 ], [ 117.315341717037811, 42.408902572829987 ], [ 117.315341739592299, 42.408907075773364 ] ] ] } },
{ "type": "Feature", "properties": { "crown_id": 5947, "tree_id": "5953", "top_h_m": 22.616, "H_95_Mean": 22.8712, "DBH": 31.6398, "Carbon_kg": 205.173348, "area_m2": 19.75 }, "geometry": { "type": "Polygon", "coordinates": [ [ [ 117.315463311271202, 42.408915747309486 ], [ 117.31546938759962, 42.408915730588589 ], [ 117.315469365036009, 42.408911227645255 ], [ 117.315499746675968, 42.408911144035876 ], [ 117.31549963384704, 42.408888629319286 ], [ 117.315511786498647, 42.408888595873293 ], [ 117.315511741365384, 42.408879589986647 ], [ 117.315505665040433, 42.408879606709796 ], [ 117.315505574775713, 42.408861594936454 ], [ 117.315450887866774, 42.408861745430187 ], [ 117.315450910429021, 42.408866248373549 ], [ 117.315456986752721, 42.408866231653313 ], [ 117.315457054440841, 42.408879740483371 ], [ 117.315463130765806, 42.408879723762809 ], [ 117.315463175892134, 42.40888872964949 ], [ 117.315469252217966, 42.408888712928594 ], [ 117.315469274781549, 42.408893215871935 ], [ 117.315463198455291, 42.408893232592831 ], [ 117.315463311271202, 42.408915747309486 ] ] ] } },
{ "type": "Feature", "properties": { "crown_id": 5971, "tree_id": "5977", "top_h_m": 21.279, "H_95_Mean": 21.4744, "DBH": 28.7335, "Carbon_kg": 162.777862, "area_m2": 15.25 }, "geometry": { "type": "Polygon", "coordinates": [ [ [ 117.315408534077889, 42.408897886009804 ], [ 117.315432839384883, 42.408897819135852 ], [ 117.315432816823872, 42.408893316192504 ], [ 117.315426740497571, 42.408893332911468 ], [ 117.315426605134306, 42.408866315251288 ], [ 117.315420528810606, 42.408866331969918 ], [ 117.315420506250504, 42.408861829026549 ], [ 117.315408353603985, 42.408861862462821 ], [ 117.315408331044765, 42.408857359519438 ], [ 117.315396178399055, 42.408857392954431 ], [ 117.315396200957409, 42.408861895897829 ], [ 117.315371895664214, 42.408861962763972 ], [ 117.315371918220848, 42.408866465707369 ], [ 117.31537799454459, 42.408866448991311 ], [ 117.315378129887009, 42.40889346665162 ], [ 117.315390282539653, 42.408893433218516 ], [ 117.315390259981712, 42.408888930275147 ], [ 117.315396336307629, 42.408888913558108 ], [ 117.315396358865996, 42.408893416501478 ], [ 117.315408511518655, 42.408893383066442 ], [ 117.315408534077889, 42.408897886009804 ] ] ] } }
]
}
