{
"type": "FeatureCollection",
"name": "tile_19_8",
"crs": { "type": "name", "properties": { "name": "urn:ogc:def:crs:OGC:1.3:CRS84" } },
"features": [
{ "type": "Feature", "properties": { "crown_id": 7592, "tree_id": "7598", "top_h_m": 21.86, "H_95_Mean": 22.0576, "DBH": 45.2322, "Carbon_kg": 412.713902, "area_m2": 84.5 }, "geometry": { "type": "Polygon", "coordinates": [ [ [ 117.311716412635562, 42.408142473718208 ], [ 117.311746793915475, 42.408142391104626 ], [ 117.311746749321927, 42.408133385213546 ], [ 117.311752825577017, 42.408133368689874 ], [ 117.311752780982644, 42.408124362798794 ], [ 117.311771009745286, 42.408124313225841 ], [ 117.311770898252902, 42.408101798498109 ], [ 117.311764822000853, 42.408101815022739 ], [ 117.311764755106793, 42.408088306186059 ], [ 117.311758678856052, 42.408088322710348 ], [ 117.311758589665772, 42.408070310928039 ], [ 117.311764665914779, 42.40807029440375 ], [ 117.311764621318801, 42.408061288512584 ], [ 117.311752468822519, 42.408061321560837 ], [ 117.311752446525418, 42.408056818615222 ], [ 117.311746370277703, 42.408056835138865 ], [ 117.311746347981014, 42.408052332193265 ], [ 117.311728119239163, 42.408052381762225 ], [ 117.311728074648457, 42.408043375871003 ], [ 117.311697693416292, 42.408043458479469 ], [ 117.311697626536755, 42.408029949642554 ], [ 117.311685474046456, 42.408029982683686 ], [ 117.311685496338768, 42.408034485629337 ], [ 117.311679420093157, 42.408034502149413 ], [ 117.311679486968799, 42.40804801098632 ], [ 117.311661258228099, 42.408048060544651 ], [ 117.311661235937521, 42.408043557599015 ], [ 117.311655159691028, 42.408043574117812 ], [ 117.311655181981166, 42.408048077063455 ], [ 117.311643029487342, 42.408048110100083 ], [ 117.311643051776613, 42.408052613045733 ], [ 117.311636975529254, 42.408052629563564 ], [ 117.311637020106943, 42.408061635454864 ], [ 117.311624867610476, 42.40806166848958 ], [ 117.311624889898482, 42.408066171435216 ], [ 117.311637042395816, 42.408066138400507 ], [ 117.311637109262421, 42.408079647237415 ], [ 117.311624956762458, 42.408079680272159 ], [ 117.311624979050492, 42.408084183217781 ], [ 117.311637131551322, 42.408084150183036 ], [ 117.311637153840209, 42.408088653128658 ], [ 117.311643230091036, 42.408088636610806 ], [ 117.31164327466972, 42.408097642502035 ], [ 117.3116493509214, 42.408097625983856 ], [ 117.31164939550095, 42.408106631875064 ], [ 117.311655471753525, 42.408106615356559 ], [ 117.311655494043734, 42.408111118302145 ], [ 117.311685875308669, 42.408111035704756 ], [ 117.31168589760108, 42.408115538650335 ], [ 117.311679821347667, 42.408115555170468 ], [ 117.311679843639638, 42.40812005811604 ], [ 117.311691996147303, 42.408120025075462 ], [ 117.311691973854465, 42.408115522129883 ], [ 117.311698050107879, 42.408115505609125 ], [ 117.311698094694421, 42.408124511500269 ], [ 117.311704170948687, 42.408124494979162 ], [ 117.311704193242406, 42.40812899792472 ], [ 117.311710269497098, 42.408128981403301 ], [ 117.311710314085417, 42.40813798729441 ], [ 117.311716390340976, 42.408137970772664 ], [ 117.311716412635562, 42.408142473718208 ] ], [ [ 117.311728520556613, 42.408133434782656 ], [ 117.31172845367027, 42.408119925945989 ], [ 117.311746682431661, 42.408119876376908 ], [ 117.311746749321927, 42.408133385213546 ], [ 117.311728520556613, 42.408133434782656 ] ], [ [ 117.311710269497098, 42.408128981403301 ], [ 117.311710247202967, 42.408124478457729 ], [ 117.311716323457219, 42.408124461936012 ], [ 117.31171634575179, 42.408128964881563 ], [ 117.311710269497098, 42.408128981403301 ] ], [ [ 117.311716301162619, 42.40811995899044 ], [ 117.311716278868062, 42.408115456044882 ], [ 117.311722355121447, 42.408115439522817 ], [ 117.311722377416444, 42.408119942468375 ], [ 117.311716301162619, 42.40811995899044 ] ], [ [ 117.311691750926414, 42.408070492673943 ], [ 117.3116916840481, 42.408056983837092 ], [ 117.311709912791358, 42.408056934273908 ], [ 117.31170997967358, 42.408070443110738 ], [ 117.311691750926414, 42.408070492673943 ] ] ] } },
{ "type": "Feature", "properties": { "crown_id": 7607, "tree_id": "7613", "top_h_m": 21.143, "H_95_Mean": 21.0705, "DBH": 40.3073, "Carbon_kg": 318.409014, "area_m2": 58.75 }, "geometry": { "type": "MultiPolygon", "coordinates": [ [ [ [ 117.311777063700561, 42.40811979375534 ], [ 117.311807444969347, 42.408119711125714 ], [ 117.311807422668267, 42.408115208180199 ], [ 117.311825651428151, 42.408115158598555 ], [ 117.311825673730553, 42.40811966154407 ], [ 117.311831749984279, 42.408119645016214 ], [ 117.311831727681437, 42.408115142070699 ], [ 117.311843880188022, 42.408115109014027 ], [ 117.311843857884313, 42.408110606068512 ], [ 117.311849934137172, 42.408110589539696 ], [ 117.311849956441279, 42.408115092485204 ], [ 117.311862108947835, 42.408115059426585 ], [ 117.311862086642833, 42.408110556481091 ], [ 117.311868162895664, 42.408110539951309 ], [ 117.311868140590221, 42.408106037005801 ], [ 117.311874216842597, 42.408106020475699 ], [ 117.311874172230887, 42.408097014584669 ], [ 117.311880248482424, 42.408096998054255 ], [ 117.311880181563581, 42.408083489217695 ], [ 117.311874105313365, 42.408083505748124 ], [ 117.311874083007552, 42.408079002802594 ], [ 117.311861930508002, 42.408079035862443 ], [ 117.311861885898068, 42.408070029971377 ], [ 117.31185580964916, 42.408070046500811 ], [ 117.311855787344641, 42.40806554355526 ], [ 117.311843634847662, 42.408065576613168 ], [ 117.3118435902404, 42.408056570722067 ], [ 117.311837513992771, 42.408056587250528 ], [ 117.311837469386376, 42.408047581359398 ], [ 117.311819240646088, 42.408047630942846 ], [ 117.311819218344183, 42.408043127997274 ], [ 117.311813142097847, 42.408043144524449 ], [ 117.311813119796412, 42.408038641578855 ], [ 117.311807043550502, 42.408038658105696 ], [ 117.311806976647503, 42.408025149268916 ], [ 117.311800900402886, 42.408025165795436 ], [ 117.311800967304563, 42.408038674632223 ], [ 117.311794891058653, 42.408038691158431 ], [ 117.311794935658909, 42.408047697049604 ], [ 117.311788859412104, 42.408047713575492 ], [ 117.31178888171182, 42.408052216521078 ], [ 117.311782805464588, 42.408052233046639 ], [ 117.311782827763864, 42.408056735992226 ], [ 117.311770675268505, 42.408056769042396 ], [ 117.311770764462196, 42.408074780824734 ], [ 117.311764688212762, 42.408074797349343 ], [ 117.311764732808768, 42.408083803240487 ], [ 117.31177080905907, 42.408083786715864 ], [ 117.311770875954437, 42.408097295552565 ], [ 117.311776952206046, 42.408097279027615 ], [ 117.311777063700561, 42.40811979375534 ] ] ], [ [ [ 117.311862108947835, 42.408115059426585 ], [ 117.311862131252823, 42.4081195623721 ], [ 117.311868207506521, 42.408119545842311 ], [ 117.311868185201064, 42.40811504289681 ], [ 117.311862108947835, 42.408115059426585 ] ] ] ] } },
{ "type": "Feature", "properties": { "crown_id": 7645, "tree_id": "7651", "top_h_m": 20.54, "H_95_Mean": 20.6336, "DBH": 35.1784, "Carbon_kg": 239.040968, "area_m2": 36.0 }, "geometry": { "type": "Polygon", "coordinates": [ [ [ 117.311867984452363, 42.408074516387153 ], [ 117.311886213200395, 42.408074466795924 ], [ 117.311886190893688, 42.408069963850402 ], [ 117.311892267142611, 42.408069947319348 ], [ 117.311892222528385, 42.408060941428289 ], [ 117.311904375024397, 42.408060908365222 ], [ 117.31190430810048, 42.40804739952862 ], [ 117.311910384347186, 42.408047382996614 ], [ 117.311910362038802, 42.408042880051084 ], [ 117.311904285792508, 42.408042896583083 ], [ 117.311904241176606, 42.408033890691989 ], [ 117.311898164931208, 42.408033907223654 ], [ 117.311898120316187, 42.408024901332553 ], [ 117.311892044071655, 42.408024917863898 ], [ 117.311891932536369, 42.408002403136038 ], [ 117.311885856293969, 42.408002419667064 ], [ 117.311885833987375, 42.40799791672147 ], [ 117.31187975774543, 42.407997933252148 ], [ 117.311879802357765, 42.408006939143327 ], [ 117.311855497386475, 42.408007005262867 ], [ 117.311855541995357, 42.408016011154047 ], [ 117.311849465751664, 42.408016027683132 ], [ 117.311849443447656, 42.408011524737539 ], [ 117.311843367204361, 42.408011541266298 ], [ 117.311843389507942, 42.408016044211898 ], [ 117.311825160776777, 42.408016093796256 ], [ 117.311825205381339, 42.40802509968745 ], [ 117.311813052892134, 42.40802513274209 ], [ 117.311813097494962, 42.408034138633262 ], [ 117.311819173740474, 42.408034122106102 ], [ 117.311819196042308, 42.408038625051695 ], [ 117.311825272288218, 42.408038608524208 ], [ 117.311825294590534, 42.40804311146978 ], [ 117.311843523329529, 42.408043061885373 ], [ 117.311843567936776, 42.408052067776495 ], [ 117.311849644183965, 42.408052051247715 ], [ 117.31184968879208, 42.408061057138823 ], [ 117.311861841288206, 42.40806102408029 ], [ 117.311861863593123, 42.408065527025826 ], [ 117.311867939841605, 42.408065510496066 ], [ 117.311867984452363, 42.408074516387153 ] ] ] } },
{ "type": "Feature", "properties": { "crown_id": 7676, "tree_id": "7682", "top_h_m": 21.273, "H_95_Mean": 21.4191, "DBH": 34.5245, "Carbon_kg": 235.312989, "area_m2": 31.25 }, "geometry": { "type": "Polygon", "coordinates": [ [ [ 117.311758522773104, 42.408056802091274 ], [ 117.311764599020819, 42.408056785566991 ], [ 117.311764576722837, 42.408052282621398 ], [ 117.311776729217328, 42.408052249571874 ], [ 117.311776706918479, 42.408047746626295 ], [ 117.311782783165313, 42.408047730101046 ], [ 117.311782760866038, 42.408043227155453 ], [ 117.311788837112402, 42.408043210629899 ], [ 117.311788792513013, 42.408034204738705 ], [ 117.311794868758511, 42.408034188212838 ], [ 117.31179480185817, 42.408020679376023 ], [ 117.311806954346523, 42.408020646323322 ], [ 117.311806932045542, 42.408016143377715 ], [ 117.311782627070528, 42.408016209481822 ], [ 117.311782604771281, 42.408011706536207 ], [ 117.311776528527943, 42.408011723061421 ], [ 117.311776506229151, 42.408007220115806 ], [ 117.31177042998624, 42.408007236640692 ], [ 117.311770407687888, 42.408002733695078 ], [ 117.311752178960461, 42.408002783267818 ], [ 117.311752201257491, 42.408007286213454 ], [ 117.31174004877164, 42.408007319260342 ], [ 117.311740071067831, 42.408011822205971 ], [ 117.311715766094323, 42.408011888295896 ], [ 117.311715743799851, 42.408007385350253 ], [ 117.311703591313943, 42.408007418393282 ], [ 117.31170354672679, 42.407998412501954 ], [ 117.311697470484688, 42.407998429022982 ], [ 117.311697537364125, 42.408011937859968 ], [ 117.31170361360752, 42.408011921338939 ], [ 117.311703747369108, 42.408038939012798 ], [ 117.311734128599085, 42.408038856402726 ], [ 117.311734173190658, 42.408047862293955 ], [ 117.311752401931187, 42.408047812724028 ], [ 117.311752424228303, 42.408052315669629 ], [ 117.311758500475563, 42.408052299145666 ], [ 117.311758522773104, 42.408056802091274 ] ] ] } },
{ "type": "Feature", "properties": { "crown_id": 7743, "tree_id": "7749", "top_h_m": 19.834, "H_95_Mean": 20.5461, "DBH": 34.2622, "Carbon_kg": 226.090093, "area_m2": 32.75 }, "geometry": { "type": "Polygon", "coordinates": [ [ [ 117.311788681014619, 42.40801169001066 ], [ 117.311800833501266, 42.408011656958621 ], [ 117.311800721998665, 42.407989142230505 ], [ 117.311788569516352, 42.407989175282538 ], [ 117.311788524917063, 42.407980169391259 ], [ 117.31178244867678, 42.407980185916792 ], [ 117.31178238177921, 42.407966677079827 ], [ 117.311788458018199, 42.407966660554322 ], [ 117.311788391119379, 42.407953151717351 ], [ 117.311739781217781, 42.407953283912391 ], [ 117.311739825810037, 42.407962289803748 ], [ 117.311721597094248, 42.407962339371586 ], [ 117.311721619389104, 42.407966842317272 ], [ 117.311715543150058, 42.407966858839245 ], [ 117.311715565444445, 42.407971361784931 ], [ 117.311709489204972, 42.407971378306584 ], [ 117.311709511498933, 42.40797588125227 ], [ 117.31171558773886, 42.407975864730602 ], [ 117.311715676916549, 42.407993876513281 ], [ 117.311709600674902, 42.407993893034948 ], [ 117.311709645262894, 42.408002898926277 ], [ 117.311721797747936, 42.408002865882608 ], [ 117.311721820042806, 42.408007368828258 ], [ 117.3117339725287, 42.408007335783296 ], [ 117.311733950232963, 42.408002832837646 ], [ 117.311746102717962, 42.408002799791419 ], [ 117.311746080421329, 42.407998296845761 ], [ 117.311776461631595, 42.407998214224541 ], [ 117.311776483930359, 42.408002717170184 ], [ 117.31178256017283, 42.408002700644964 ], [ 117.311782582472063, 42.408007203590593 ], [ 117.31178865871496, 42.408007187065046 ], [ 117.311788681014619, 42.40801169001066 ] ] ] } },
{ "type": "Feature", "properties": { "crown_id": 7768, "tree_id": "7774", "top_h_m": 21.812, "H_95_Mean": 22.2386, "DBH": 40.6517, "Carbon_kg": 334.419848, "area_m2": 55.0 }, "geometry": { "type": "Polygon", "coordinates": [ [ [ 117.311819017627528, 42.40800260148692 ], [ 117.311825093869942, 42.408002584959455 ], [ 117.311825071567696, 42.40799808201384 ], [ 117.311849376535633, 42.407998015900759 ], [ 117.311849398839641, 42.408002518846359 ], [ 117.311873703809226, 42.408002452728113 ], [ 117.311873659197744, 42.407993446836919 ], [ 117.311891887922272, 42.407993397244873 ], [ 117.311891910229306, 42.407997900190459 ], [ 117.311897986471251, 42.407997883659121 ], [ 117.311897941856316, 42.407988877767963 ], [ 117.311891865615266, 42.407988894299294 ], [ 117.311891843308217, 42.407984391353686 ], [ 117.311885767067579, 42.40798440788469 ], [ 117.311885744761, 42.407979904939104 ], [ 117.311879668520788, 42.407979921469774 ], [ 117.311879601602357, 42.407966412632938 ], [ 117.311873525363467, 42.407966429163288 ], [ 117.311873458446385, 42.407952920326423 ], [ 117.311879534683996, 42.40795290379608 ], [ 117.311879512377871, 42.407948400850458 ], [ 117.311873436140687, 42.407948417380801 ], [ 117.311873413835031, 42.407943914435158 ], [ 117.311867337598287, 42.407943930965182 ], [ 117.311867292987827, 42.407934925073896 ], [ 117.311861216751936, 42.407934941603578 ], [ 117.311861194447133, 42.407930438657935 ], [ 117.311855118211682, 42.407930455187291 ], [ 117.311855140516059, 42.407934958132948 ], [ 117.311849064280167, 42.407934974661984 ], [ 117.311849019672323, 42.40792596877067 ], [ 117.311842943437313, 42.407925985299379 ], [ 117.311842921133831, 42.407921482353721 ], [ 117.31181861619541, 42.407921548465339 ], [ 117.311818638497158, 42.407926051411003 ], [ 117.311812562262119, 42.407926067938114 ], [ 117.311812539960798, 42.407921564992442 ], [ 117.311800387491559, 42.407921598045661 ], [ 117.311800432092454, 42.407930603937025 ], [ 117.311788279621439, 42.407930636988986 ], [ 117.311788346520188, 42.407944145826001 ], [ 117.311782270283388, 42.407944162351512 ], [ 117.311782292582535, 42.407948665297184 ], [ 117.311794445057032, 42.407948632245848 ], [ 117.311794556557246, 42.407971146974127 ], [ 117.31178848031783, 42.407971163499973 ], [ 117.311788502617432, 42.407975666445616 ], [ 117.311794578857288, 42.40797564991977 ], [ 117.311794623457416, 42.407984655811049 ], [ 117.311806775938848, 42.407984622758391 ], [ 117.311806820540738, 42.407993628649649 ], [ 117.3118128967823, 42.40799361212283 ], [ 117.311812919083692, 42.407998115068445 ], [ 117.311818995325694, 42.407998098541299 ], [ 117.311819017627528, 42.40800260148692 ] ], [ [ 117.311861529019552, 42.407997982842275 ], [ 117.311861506714706, 42.407993479896682 ], [ 117.311867582956211, 42.407993463366957 ], [ 117.311867605261526, 42.407997966312557 ], [ 117.311861529019552, 42.407997982842275 ] ], [ [ 117.311800454392895, 42.407935106882704 ], [ 117.311800432092454, 42.407930603937025 ], [ 117.311806508327919, 42.407930587410576 ], [ 117.311806530628829, 42.407935090356247 ], [ 117.311800454392895, 42.407935106882704 ] ] ] } }
]
}
