{
"type": "FeatureCollection",
"name": "tile_8_14",
"crs": { "type": "name", "properties": { "name": "urn:ogc:def:crs:OGC:1.3:CRS84" } },
"features": [
{ "type": "Feature", "properties": { "crown_id": 2989, "tree_id": "2990", "top_h_m": 20.465, "H_95_Mean": 20.98, "DBH": 26.1248, "Carbon_kg": 132.525971, "area_m2": 11.0 }, "geometry": { "type": "Polygon", "coordinates": [ [ [ 117.313245424019229, 42.41013764035884 ], [ 117.313251500466905, 42.410137623755105 ], [ 117.313251455655006, 42.410128617868466 ], [ 117.313263608548581, 42.410128584660015 ], [ 117.313263586141758, 42.410124081716702 ], [ 117.313275739034452, 42.410124048506987 ], [ 117.313275694219115, 42.410115042620347 ], [ 117.313269617773642, 42.410115059225376 ], [ 117.313269595366407, 42.410110556282049 ], [ 117.313263518921374, 42.410110572886737 ], [ 117.313263451701005, 42.410097064056735 ], [ 117.313257375257251, 42.410097080661103 ], [ 117.313257397663619, 42.410101583604437 ], [ 117.313239168331023, 42.410101633415607 ], [ 117.313239145925976, 42.410097130472259 ], [ 117.313226993038441, 42.410097163678088 ], [ 117.31322697063429, 42.410092660734726 ], [ 117.313220894190934, 42.410092677337161 ], [ 117.313220961402152, 42.410106186167226 ], [ 117.313227037846815, 42.410106169564784 ], [ 117.313227082655175, 42.41011517545148 ], [ 117.313233159100676, 42.410115158848718 ], [ 117.313233181505311, 42.410119661792059 ], [ 117.313239257951238, 42.410119645188956 ], [ 117.313239302761389, 42.410128651075617 ], [ 117.313245379208212, 42.410128634472194 ], [ 117.313245424019229, 42.41013764035884 ] ] ] } },
{ "type": "Feature", "properties": { "crown_id": 3048, "tree_id": "3049", "top_h_m": 20.211, "H_95_Mean": 21.1934, "DBH": 32.5988, "Carbon_kg": 208.298993, "area_m2": 25.5 }, "geometry": { "type": "MultiPolygon", "coordinates": [ [ [ [ 117.313281815480792, 42.410124031901638 ], [ 117.313287891927118, 42.41012401529597 ], [ 117.313287869518589, 42.410119512352665 ], [ 117.313306098856245, 42.410119462533743 ], [ 117.313306054036559, 42.410110456647111 ], [ 117.313318206926581, 42.410110423432904 ], [ 117.313318184515879, 42.410105920489599 ], [ 117.313336413849541, 42.410105870665866 ], [ 117.313336391437545, 42.410101367722575 ], [ 117.313330314993422, 42.410101384330794 ], [ 117.313330225347201, 42.410083372557537 ], [ 117.31333630178959, 42.410083355949318 ], [ 117.313336256965655, 42.410074350062672 ], [ 117.313324104082625, 42.410074383278783 ], [ 117.313324036849338, 42.41006087444876 ], [ 117.313317960409137, 42.410060891056325 ], [ 117.313317937998463, 42.410056388112977 ], [ 117.313311861558702, 42.410056404720223 ], [ 117.313311906379127, 42.410065410606926 ], [ 117.313305829938457, 42.410065427213844 ], [ 117.31330585234825, 42.410069930157178 ], [ 117.31329369946603, 42.410069963370063 ], [ 117.313293677057118, 42.410065460426722 ], [ 117.313275447735052, 42.410065510243619 ], [ 117.313275492550289, 42.410074516130329 ], [ 117.313269416108739, 42.410074532735322 ], [ 117.313269460923109, 42.410083538622025 ], [ 117.31325730803826, 42.410083571831059 ], [ 117.313257352850925, 42.410092577717755 ], [ 117.313269505737537, 42.410092544508707 ], [ 117.313269572959172, 42.410106053338716 ], [ 117.313275649403778, 42.410106036733708 ], [ 117.313275671811439, 42.410110539677028 ], [ 117.313281748256486, 42.410110523071694 ], [ 117.313281815480792, 42.410124031901638 ] ], [ [ 117.313293744283897, 42.410078969256752 ], [ 117.313293721874942, 42.410074466313404 ], [ 117.313299798316493, 42.410074449707132 ], [ 117.313299820725874, 42.410078952650466 ], [ 117.313293744283897, 42.410078969256752 ] ], [ [ 117.313299820725874, 42.410078952650466 ], [ 117.313318050051777, 42.410078902829696 ], [ 117.313318117283785, 42.410092411659662 ], [ 117.313299887954003, 42.410092461480467 ], [ 117.313299820725874, 42.410078952650466 ] ] ], [ [ [ 117.313311861558702, 42.410056404720223 ], [ 117.313311816738263, 42.41004739883352 ], [ 117.31330574029937, 42.410047415440424 ], [ 117.313305785118899, 42.410056421327141 ], [ 117.313311861558702, 42.410056404720223 ] ] ] ] } },
{ "type": "Feature", "properties": { "crown_id": 3088, "tree_id": "3089", "top_h_m": 18.02, "H_95_Mean": 18.8303, "DBH": 25.3789, "Carbon_kg": 117.267525, "area_m2": 12.0 }, "geometry": { "type": "Polygon", "coordinates": [ [ [ 117.313245222369744, 42.410097113868858 ], [ 117.313251298813498, 42.410097097265151 ], [ 117.3132512091899, 42.410079085491731 ], [ 117.313263362073926, 42.410079052283351 ], [ 117.313263317260407, 42.410070046396633 ], [ 117.31326939370156, 42.410070029791967 ], [ 117.313269348887218, 42.410061023905243 ], [ 117.313263272446932, 42.410061040509909 ], [ 117.313263182820023, 42.410043028736403 ], [ 117.313257106381499, 42.410043045340736 ], [ 117.313257173600363, 42.410056554170865 ], [ 117.313251097160531, 42.410056570774891 ], [ 117.313251119566402, 42.410061073718254 ], [ 117.31322681380523, 42.410061140131127 ], [ 117.313226836209367, 42.410065643074518 ], [ 117.313220759768654, 42.410065659676931 ], [ 117.313220871787209, 42.410088174393792 ], [ 117.313233024673025, 42.410088141188616 ], [ 117.313233047077617, 42.410092644131971 ], [ 117.313245199964285, 42.410092610925503 ], [ 117.313245222369744, 42.410097113868858 ] ] ] } },
{ "type": "Feature", "properties": { "crown_id": 3097, "tree_id": "3098", "top_h_m": 20.98, "H_95_Mean": 20.9668, "DBH": 28.9926, "Carbon_kg": 163.421196, "area_m2": 16.5 }, "geometry": { "type": "Polygon", "coordinates": [ [ [ 117.313172372245077, 42.410110821918487 ], [ 117.313202754470638, 42.410110738915954 ], [ 117.313202732068191, 42.410106235972606 ], [ 117.313214884957503, 42.410106202769335 ], [ 117.313214772941009, 42.410083688052531 ], [ 117.313196543613529, 42.410083737856901 ], [ 117.313196498809589, 42.410074731970134 ], [ 117.31316611660138, 42.410074814970947 ], [ 117.313166071801788, 42.410065809084145 ], [ 117.313153918920221, 42.410065842282208 ], [ 117.313154008515951, 42.41008385405582 ], [ 117.31314793207342, 42.410083870654383 ], [ 117.313147976870425, 42.410092876541164 ], [ 117.313154053313838, 42.410092859942601 ], [ 117.313154120510717, 42.410106368772759 ], [ 117.3131662734001, 42.410106335574646 ], [ 117.313166206200634, 42.41009282674451 ], [ 117.313184435530786, 42.410092776944964 ], [ 117.313184502734174, 42.410106285775072 ], [ 117.313172349844805, 42.410106318975117 ], [ 117.313172372245077, 42.410110821918487 ] ] ] } },
{ "type": "Feature", "properties": { "crown_id": 3116, "tree_id": "3117", "top_h_m": 20.591, "H_95_Mean": 20.5753, "DBH": 32.6217, "Carbon_kg": 204.974081, "area_m2": 27.0 }, "geometry": { "type": "Polygon", "coordinates": [ [ [ 117.313348589151502, 42.410110340391732 ], [ 117.313366818486415, 42.410110290563168 ], [ 117.313366796072231, 42.410105787619877 ], [ 117.313372872516766, 42.410105771009711 ], [ 117.313372850102141, 42.41010126806642 ], [ 117.313378926546235, 42.410101251455941 ], [ 117.313378948961287, 42.410105754399211 ], [ 117.3133911018503, 42.410105721177274 ], [ 117.313391034602589, 42.410092212347429 ], [ 117.313397111045788, 42.410092195735984 ], [ 117.313397066213128, 42.410083189849416 ], [ 117.313390989770781, 42.410083206460854 ], [ 117.313390922523141, 42.410069697630938 ], [ 117.313372693200037, 42.410069747463311 ], [ 117.313372670785483, 42.410065244519998 ], [ 117.313366594344842, 42.410065261130136 ], [ 117.313366549516601, 42.410056255243475 ], [ 117.313360473076855, 42.410056271853307 ], [ 117.313360428249482, 42.410047265966632 ], [ 117.313354351810602, 42.410047282576123 ], [ 117.313354329397356, 42.410042779632768 ], [ 117.313317870766582, 42.410042879282912 ], [ 117.313317915587845, 42.410051885169636 ], [ 117.313323992027179, 42.410051868562071 ], [ 117.313324014438265, 42.410056371505426 ], [ 117.313330090878026, 42.410056354897542 ], [ 117.313330158112592, 42.410069863727564 ], [ 117.313342310994756, 42.410069830510807 ], [ 117.313342400644387, 42.410087842284092 ], [ 117.313336324201586, 42.410087858892645 ], [ 117.313336369025549, 42.410096864779263 ], [ 117.313342445469246, 42.41009684817071 ], [ 117.31334249029409, 42.410105854057321 ], [ 117.313348566738654, 42.410105837448434 ], [ 117.313348589151502, 42.410110340391732 ] ] ] } },
{ "type": "Feature", "properties": { "crown_id": 3184, "tree_id": "3185", "top_h_m": 20.44, "H_95_Mean": 21.5159, "DBH": 26.7429, "Carbon_kg": 141.009453, "area_m2": 11.5 }, "geometry": { "type": "Polygon", "coordinates": [ [ [ 117.313129590759829, 42.410061405731028 ], [ 117.3131538965213, 42.410061339338789 ], [ 117.31315378452679, 42.410038824621658 ], [ 117.313147708088607, 42.410038841220192 ], [ 117.313147685690168, 42.410034338276759 ], [ 117.313153762127897, 42.410034321678232 ], [ 117.313153739729032, 42.410029818734785 ], [ 117.313147663291716, 42.410029835333312 ], [ 117.313147640893277, 42.410025332389871 ], [ 117.313141564456387, 42.410025348988064 ], [ 117.313141519660377, 42.410016343101169 ], [ 117.313129366788317, 42.410016376296596 ], [ 117.313129389185463, 42.410020879240051 ], [ 117.313123312748971, 42.410020895837285 ], [ 117.313123357542366, 42.410029901724208 ], [ 117.31311728110505, 42.410029918321122 ], [ 117.313117370690151, 42.410047930094919 ], [ 117.313123447129229, 42.410047913497984 ], [ 117.313123491922724, 42.410056919384864 ], [ 117.313129568362669, 42.410056902787616 ], [ 117.313129590759829, 42.410061405731028 ] ] ] } },
{ "type": "Feature", "properties": { "crown_id": 3194, "tree_id": "3195", "top_h_m": 21.547, "H_95_Mean": 21.3698, "DBH": 37.1016, "Carbon_kg": 271.686946, "area_m2": 41.5 }, "geometry": { "type": "Polygon", "coordinates": [ [ [ 117.313202597653628, 42.410079218312383 ], [ 117.313214750537725, 42.410079185109154 ], [ 117.313214660924643, 42.410061173335627 ], [ 117.313220737364958, 42.410061156733541 ], [ 117.313220714961247, 42.41005665379015 ], [ 117.313245020720686, 42.410056587378577 ], [ 117.313244998315255, 42.4100520844352 ], [ 117.313251074754675, 42.410052067831508 ], [ 117.313251007537104, 42.41003855900135 ], [ 117.313238854660909, 42.410038592208394 ], [ 117.313238832255934, 42.410034089265004 ], [ 117.313208450067464, 42.410034172276966 ], [ 117.313208405261875, 42.410025166390142 ], [ 117.313196252388209, 42.41002519959266 ], [ 117.313196140378693, 42.410002684875494 ], [ 117.313190063944006, 42.410002701476259 ], [ 117.313190041542541, 42.409998198532811 ], [ 117.313183965108294, 42.40999821513325 ], [ 117.313183875504279, 42.409980203359417 ], [ 117.313171722639254, 42.409980236559313 ], [ 117.313171767439528, 42.409989242446244 ], [ 117.313177843872907, 42.409989225846459 ], [ 117.313177866273477, 42.409993728789921 ], [ 117.313165713405823, 42.40999376198917 ], [ 117.313165735805526, 42.409998264932639 ], [ 117.31315965937128, 42.409998281531792 ], [ 117.313159704169848, 42.410007287418708 ], [ 117.313147551299551, 42.41000732061606 ], [ 117.313147618494824, 42.410020829446424 ], [ 117.313153694931273, 42.410020812847904 ], [ 117.313153717330138, 42.410025315791344 ], [ 117.313159793767042, 42.410025299192498 ], [ 117.313159972961657, 42.410061322739921 ], [ 117.313172125842371, 42.410061289541225 ], [ 117.313172170642815, 42.410070295428028 ], [ 117.313202552848821, 42.410070212425616 ], [ 117.313202597653628, 42.410079218312383 ] ] ] } },
{ "type": "Feature", "properties": { "crown_id": 3244, "tree_id": "3245", "top_h_m": 20.0, "H_95_Mean": 20.17, "DBH": 24.3497, "Carbon_kg": 112.355721, "area_m2": 9.0 }, "geometry": { "type": "Polygon", "coordinates": [ [ [ 117.313348185720542, 42.410029287411881 ], [ 117.313378567906241, 42.410029204362885 ], [ 117.313378523076324, 42.410020198476182 ], [ 117.313390675948838, 42.410020165254352 ], [ 117.313390631117187, 42.410011159367649 ], [ 117.31337847824642, 42.410011192589494 ], [ 117.313378411001636, 42.4099976837594 ], [ 117.313372334567546, 42.409997700369814 ], [ 117.313372356982057, 42.410002203313184 ], [ 117.313348051243921, 42.410002269751672 ], [ 117.313348118482182, 42.410015778581801 ], [ 117.31334204204633, 42.410015795190617 ], [ 117.313342064458681, 42.410020298133993 ], [ 117.313348140894973, 42.410020281525171 ], [ 117.313348185720542, 42.410029287411881 ] ] ] } },
{ "type": "Feature", "properties": { "crown_id": 3264, "tree_id": "3265", "top_h_m": 18.37, "H_95_Mean": 19.5631, "DBH": 32.2229, "Carbon_kg": 194.077088, "area_m2": 28.25 }, "geometry": { "type": "MultiPolygon", "coordinates": [ [ [ [ 117.313244886288217, 42.41002956971824 ], [ 117.313244908693591, 42.410034072661652 ], [ 117.313257061568933, 42.410034039453947 ], [ 117.313257083975202, 42.410038542397338 ], [ 117.313269236851411, 42.410038509188354 ], [ 117.313269192037112, 42.410029503301587 ], [ 117.313244886288217, 42.41002956971824 ] ] ], [ [ [ 117.313244886288217, 42.41002956971824 ], [ 117.313244819072025, 42.410016060888026 ], [ 117.313250895507949, 42.410016044284362 ], [ 117.313250783478935, 42.409993529567267 ], [ 117.313256859912684, 42.409993512963275 ], [ 117.313256837506458, 42.409989010019849 ], [ 117.313268990373103, 42.409988976810936 ], [ 117.313268967966025, 42.40998447386751 ], [ 117.313256815100246, 42.40998450707643 ], [ 117.313256792694048, 42.409980004132997 ], [ 117.313244639829136, 42.409980037340617 ], [ 117.313244617423791, 42.409975534397184 ], [ 117.313232464559746, 42.409975567603503 ], [ 117.313232442155282, 42.409971064660056 ], [ 117.313226365723679, 42.409971081262732 ], [ 117.313226343319641, 42.409966578319285 ], [ 117.313220266888479, 42.409966594921634 ], [ 117.313220289292047, 42.409971097865089 ], [ 117.313214212860444, 42.409971114467126 ], [ 117.313214235263615, 42.409975617410588 ], [ 117.313202082399485, 42.409975650613696 ], [ 117.313202104801789, 42.409980153557157 ], [ 117.313189951936806, 42.409980186758986 ], [ 117.313190019141118, 42.409993695589364 ], [ 117.313196095574895, 42.409993678988606 ], [ 117.313196117976801, 42.409998181932053 ], [ 117.313202194411019, 42.409998165330961 ], [ 117.313202306422696, 42.410020680048135 ], [ 117.313214459295494, 42.410020646844977 ], [ 117.313214504101936, 42.410029652731808 ], [ 117.313244886288217, 42.41002956971824 ] ] ], [ [ [ 117.313269236851411, 42.410038509188354 ], [ 117.313269259258547, 42.410043012131744 ], [ 117.31328748857409, 42.410042962315849 ], [ 117.313287466165633, 42.410038459372473 ], [ 117.313269236851411, 42.410038509188354 ] ] ] ] } },
{ "type": "Feature", "properties": { "crown_id": 3265, "tree_id": "3266", "top_h_m": 17.84, "H_95_Mean": 18.7905, "DBH": 33.9443, "Carbon_kg": 210.464419, "area_m2": 37.25 }, "geometry": { "type": "Polygon", "coordinates": [ [ [ 117.31329964145111, 42.410042929103646 ], [ 117.313305717889577, 42.410042912497047 ], [ 117.313305695479826, 42.410038409553692 ], [ 117.313354306984152, 42.410038276689427 ], [ 117.313354284570906, 42.410033773746079 ], [ 117.313342131695734, 42.41003380696408 ], [ 117.313342086871032, 42.410024801077356 ], [ 117.313336010434298, 42.410024817685859 ], [ 117.313335943198595, 42.410011308855751 ], [ 117.313342019634007, 42.410011292247262 ], [ 117.313341952397039, 42.409997783417111 ], [ 117.313348028831157, 42.409997766808296 ], [ 117.313347961592939, 42.409984257978145 ], [ 117.313311502995987, 42.409984357626151 ], [ 117.313311458175733, 42.409975351739334 ], [ 117.313305381743774, 42.409975368346196 ], [ 117.313305359334095, 42.409970865402776 ], [ 117.313299282902548, 42.409970882009326 ], [ 117.313299350130322, 42.409984390839583 ], [ 117.313275044398864, 42.40998445726256 ], [ 117.313275089213931, 42.409993463149405 ], [ 117.313262936346447, 42.409993496358979 ], [ 117.3132629587531, 42.409997999302405 ], [ 117.313256882318925, 42.409998015906716 ], [ 117.313256994350141, 42.410020530623761 ], [ 117.313250917913791, 42.410020547227766 ], [ 117.313250940319605, 42.410025050171164 ], [ 117.313275246066766, 42.410024983753239 ], [ 117.313275290881904, 42.410033989640006 ], [ 117.313293520194833, 42.410033939823158 ], [ 117.313293542603716, 42.410038442766535 ], [ 117.313299619041786, 42.410038426160284 ], [ 117.31329964145111, 42.410042929103646 ] ], [ [ 117.313275223659204, 42.410020480809841 ], [ 117.313275156436546, 42.410006971979641 ], [ 117.313293385741645, 42.410006922162843 ], [ 117.31329345296821, 42.410020430993029 ], [ 117.313275223659204, 42.410020480809841 ] ] ] } },
{ "type": "Feature", "properties": { "crown_id": 3345, "tree_id": "3347", "top_h_m": 19.02, "H_95_Mean": 19.645, "DBH": 22.3287, "Carbon_kg": 92.891814, "area_m2": 6.75 }, "geometry": { "type": "Polygon", "coordinates": [ [ [ 117.313317557018266, 42.40997983807555 ], [ 117.313341862747805, 42.409979771643549 ], [ 117.313341840335539, 42.409975268700144 ], [ 117.313335763903581, 42.409975285308633 ], [ 117.313335674256209, 42.409957273534992 ], [ 117.313329597825984, 42.409957290143133 ], [ 117.313329530591801, 42.409943781312855 ], [ 117.313323454162898, 42.409943797920675 ], [ 117.31332343175194, 42.409939294977228 ], [ 117.313317355323463, 42.409939311584729 ], [ 117.313317422555031, 42.409952820415029 ], [ 117.313311346125232, 42.40995283702221 ], [ 117.313311435765627, 42.409970848795908 ], [ 117.313317512197159, 42.409970832188726 ], [ 117.313317557018266, 42.40997983807555 ] ] ] } },
{ "type": "Feature", "properties": { "crown_id": 3351, "tree_id": "3353", "top_h_m": 18.545, "H_95_Mean": 19.7094, "DBH": 35.1962, "Carbon_kg": 232.8864, "area_m2": 39.25 }, "geometry": { "type": "Polygon", "coordinates": [ [ [ 117.313123267955589, 42.410011889950361 ], [ 117.313135420826782, 42.410011856755588 ], [ 117.313135398429239, 42.410007353812112 ], [ 117.313141474864409, 42.410007337214246 ], [ 117.313141452466425, 42.410002834270784 ], [ 117.313153605335842, 42.410002801074093 ], [ 117.313153560538169, 42.409993795187162 ], [ 117.313159636972003, 42.40999377858833 ], [ 117.313159614572726, 42.409989275644875 ], [ 117.31316569100612, 42.409989259045716 ], [ 117.313165623807052, 42.409975750215303 ], [ 117.313171700239138, 42.409975733615845 ], [ 117.313171633038806, 42.409962224785403 ], [ 117.313165556608013, 42.409962241384854 ], [ 117.31316548940903, 42.409948732554376 ], [ 117.31315941297953, 42.4099487491535 ], [ 117.31315939058031, 42.409944246209989 ], [ 117.313147237722191, 42.409944279407263 ], [ 117.313147215323838, 42.409939776463744 ], [ 117.313141138895219, 42.409939793061909 ], [ 117.31314111649732, 42.409935290118391 ], [ 117.313128963640906, 42.409935323313725 ], [ 117.313128986037938, 42.409939826257236 ], [ 117.313122909609291, 42.409939842854428 ], [ 117.313122954402516, 42.409948848741472 ], [ 117.313116877972973, 42.409948865338343 ], [ 117.313116900369167, 42.409953368281869 ], [ 117.313086518219293, 42.409953451261387 ], [ 117.313086540613327, 42.409957954204927 ], [ 117.313080464182889, 42.409957970799859 ], [ 117.313080486576496, 42.409962473743391 ], [ 117.313074410145632, 42.409962490338017 ], [ 117.31307443253877, 42.409966993281536 ], [ 117.313086585401365, 42.409966960091964 ], [ 117.313086652583451, 42.409980468922505 ], [ 117.313098805448647, 42.409980435731626 ], [ 117.313098895028332, 42.4099984475056 ], [ 117.313104971462636, 42.409998430909674 ], [ 117.313104993858005, 42.41000293385315 ], [ 117.313111070292763, 42.410002917256904 ], [ 117.313111047896953, 42.409998414313414 ], [ 117.313117124331256, 42.409998397716848 ], [ 117.313117146727507, 42.410002900660324 ], [ 117.313123223162236, 42.410002884063424 ], [ 117.313123267955589, 42.410011889950361 ] ] ] } },
{ "type": "Feature", "properties": { "crown_id": 3396, "tree_id": "3399", "top_h_m": 21.305, "H_95_Mean": 22.2842, "DBH": 38.3614, "Carbon_kg": 297.892506, "area_m2": 43.75 }, "geometry": { "type": "Polygon", "coordinates": [ [ [ 117.31326286912649, 42.4099799875287 ], [ 117.313275021991345, 42.409979954319141 ], [ 117.313274999583854, 42.409975451375722 ], [ 117.313281076015841, 42.409975434770452 ], [ 117.313281098423786, 42.409979937713885 ], [ 117.313293251288627, 42.409979904502393 ], [ 117.313293184062204, 42.409966395672122 ], [ 117.313305336924415, 42.409966362459357 ], [ 117.313305247285783, 42.409948350685632 ], [ 117.313311323715141, 42.409948334078763 ], [ 117.313311256484909, 42.409934825248449 ], [ 117.313305180056844, 42.409934841855303 ], [ 117.313305135237584, 42.409925835968387 ], [ 117.313299058810387, 42.409925852574908 ], [ 117.313299013992022, 42.409916846687985 ], [ 117.313292937565691, 42.409916863294171 ], [ 117.31329291515695, 42.409912360350695 ], [ 117.313286838731045, 42.409912376956569 ], [ 117.313286816322744, 42.409907874013093 ], [ 117.313274663471773, 42.409907907223854 ], [ 117.313274641064353, 42.409903404280378 ], [ 117.313232106088918, 42.409903520507875 ], [ 117.313232128493297, 42.409908023451379 ], [ 117.313226052067776, 42.40990804005402 ], [ 117.313226096875709, 42.409917045941022 ], [ 117.313207867596503, 42.409917095747033 ], [ 117.313207889999191, 42.409921598690538 ], [ 117.313201813572348, 42.4099216152919 ], [ 117.313201858376814, 42.409930621178908 ], [ 117.313207934804524, 42.409930604577532 ], [ 117.313207979609885, 42.409939610464519 ], [ 117.313214056038461, 42.409939593862823 ], [ 117.313214078441575, 42.409944096806306 ], [ 117.313220154870592, 42.409944080204291 ], [ 117.313220177274161, 42.409948583147759 ], [ 117.313214100844718, 42.409948599749782 ], [ 117.31321412324786, 42.409953102693251 ], [ 117.31322019967773, 42.409953086091235 ], [ 117.313220244484882, 42.409962091978173 ], [ 117.313226320915618, 42.40996207537583 ], [ 117.313226298511609, 42.409957572432354 ], [ 117.3132384513722, 42.409957539226696 ], [ 117.313238473777091, 42.409962042170143 ], [ 117.313232397346354, 42.409962058773147 ], [ 117.313232419750818, 42.409966561716608 ], [ 117.313238496181967, 42.409966545113605 ], [ 117.313238518586857, 42.409971048057052 ], [ 117.313250671450035, 42.409971014850086 ], [ 117.313250693855821, 42.409975517793541 ], [ 117.313262846719837, 42.409975484585267 ], [ 117.31326286912649, 42.4099799875287 ] ], [ [ 117.313220154870592, 42.409944080204291 ], [ 117.313220087659914, 42.409930571373835 ], [ 117.313238316943, 42.409930521565855 ], [ 117.313238272133304, 42.409921515678889 ], [ 117.313244348560119, 42.409921499075601 ], [ 117.313244326154845, 42.409916996132104 ], [ 117.313274708286656, 42.409916913110813 ], [ 117.313274775509001, 42.409930421941233 ], [ 117.313268699081362, 42.409930438546141 ], [ 117.313268743895406, 42.409939444433071 ], [ 117.313250514609805, 42.409939494245883 ], [ 117.313250537015549, 42.409943997189359 ], [ 117.313220154870592, 42.409944080204291 ] ] ] } }
]
}
