{
"type": "FeatureCollection",
"name": "tile_10_23",
"crs": { "type": "name", "properties": { "name": "urn:ogc:def:crs:OGC:1.3:CRS84" } },
"features": [
{ "type": "Feature", "properties": { "crown_id": 3988, "tree_id": "3991", "top_h_m": 20.78, "H_95_Mean": 21.5728, "DBH": 30.9781, "Carbon_kg": 189.936384, "area_m2": 20.25 }, "geometry": { "type": "Polygon", "coordinates": [ [ [ 117.315321561521969, 42.409731181208869 ], [ 117.315327637929201, 42.409731164495206 ], [ 117.315327615375068, 42.409726661552476 ], [ 117.315333691781831, 42.409726644838486 ], [ 117.315333714336404, 42.409731147781223 ], [ 117.315370172779637, 42.409731047490581 ], [ 117.315370150222449, 42.409726544547866 ], [ 117.31538230303596, 42.409726511115082 ], [ 117.315382235361852, 42.409713002286907 ], [ 117.315376158956411, 42.409713019003462 ], [ 117.315376136398811, 42.409708516060711 ], [ 117.315370059993796, 42.409708532776946 ], [ 117.315370037436679, 42.409704029834202 ], [ 117.315363961032091, 42.409704046550104 ], [ 117.315363915918667, 42.409695040664609 ], [ 117.315357839514959, 42.409695057380176 ], [ 117.315357794402431, 42.40968605149466 ], [ 117.315351717999576, 42.409686068209908 ], [ 117.315351672887942, 42.409677062324384 ], [ 117.315345596485955, 42.409677079039305 ], [ 117.315345619041324, 42.409681581982078 ], [ 117.315333466236467, 42.409681615410939 ], [ 117.315333511345514, 42.409690621296477 ], [ 117.315327434942205, 42.409690638010424 ], [ 117.315327457496281, 42.409695140953197 ], [ 117.315321381092531, 42.409695157666846 ], [ 117.315321561521969, 42.409731181208869 ] ] ] } },
{ "type": "Feature", "properties": { "crown_id": 4011, "tree_id": "4014", "top_h_m": 21.53, "H_95_Mean": 21.353, "DBH": 30.4288, "Carbon_kg": 182.103091, "area_m2": 19.25 }, "geometry": { "type": "Polygon", "coordinates": [ [ [ 117.315388356884228, 42.409721991455477 ], [ 117.315406586103109, 42.409721941302934 ], [ 117.315406563543334, 42.409717438360211 ], [ 117.31541871635504, 42.409717404923569 ], [ 117.315418693794399, 42.409712901980868 ], [ 117.315424770199797, 42.409712885262067 ], [ 117.315424747638744, 42.409708382319351 ], [ 117.315430824043702, 42.409708365600224 ], [ 117.315430778920714, 42.409699359714814 ], [ 117.315436855324819, 42.409699342995374 ], [ 117.315436810200993, 42.409690337109936 ], [ 117.315418580991292, 42.409690387267261 ], [ 117.315418558430707, 42.409685884324524 ], [ 117.315400329222271, 42.409685934478958 ], [ 117.315400261544397, 42.409672425650719 ], [ 117.315375955938322, 42.409672492518737 ], [ 117.315375978495851, 42.40967699546151 ], [ 117.315369902093892, 42.40967701217771 ], [ 117.315369924650994, 42.409681515120468 ], [ 117.315363848248609, 42.409681531836348 ], [ 117.315363893361976, 42.409690537721865 ], [ 117.315369969765257, 42.409690521005963 ], [ 117.31537001487952, 42.409699526891465 ], [ 117.315376091283667, 42.409699510175244 ], [ 117.315376113841253, 42.409704013117981 ], [ 117.315382190245813, 42.409703996401447 ], [ 117.315382212803826, 42.409708499344177 ], [ 117.31538828920884, 42.409708482627316 ], [ 117.315388356884228, 42.409721991455477 ] ] ] } },
{ "type": "Feature", "properties": { "crown_id": 4059, "tree_id": "4062", "top_h_m": 21.115, "H_95_Mean": 20.5498, "DBH": 37.4515, "Carbon_kg": 270.541864, "area_m2": 46.25 }, "geometry": { "type": "Polygon", "coordinates": [ [ [ 117.315540244470839, 42.409717070486309 ], [ 117.315552397282318, 42.409717037035499 ], [ 117.315552352141935, 42.409708031150188 ], [ 117.315564504951624, 42.409707997698114 ], [ 117.315564459809536, 42.409698991812796 ], [ 117.315558383405531, 42.409699008538993 ], [ 117.315558360834942, 42.40969450559632 ], [ 117.315570513642015, 42.409694472143613 ], [ 117.315570468499089, 42.409685466258281 ], [ 117.315564392096405, 42.409685482984798 ], [ 117.31556436952539, 42.409680980042133 ], [ 117.315558293123146, 42.409680996768323 ], [ 117.315558270552557, 42.40967649382565 ], [ 117.315570423356178, 42.409676460372943 ], [ 117.31557035564181, 42.409662951544902 ], [ 117.315564279241329, 42.409662968271405 ], [ 117.315564256670328, 42.409658465328718 ], [ 117.315552103870175, 42.40965849878075 ], [ 117.315552081300041, 42.409653995838042 ], [ 117.315539928500755, 42.409654029288788 ], [ 117.315539905931487, 42.40964952634608 ], [ 117.315533829532271, 42.409649543070962 ], [ 117.315533852101083, 42.409654046013671 ], [ 117.315527775701412, 42.409654062738234 ], [ 117.315527798269812, 42.409658565680957 ], [ 117.315509569069476, 42.409658615852713 ], [ 117.315509523935319, 42.409649609967282 ], [ 117.315503447536059, 42.409649626690552 ], [ 117.315503470102712, 42.409654129633282 ], [ 117.315497393703041, 42.409654146356225 ], [ 117.315497506534157, 42.40967666106981 ], [ 117.315485353730438, 42.409676694514765 ], [ 117.315485376295811, 42.409681197457481 ], [ 117.315479299893497, 42.409681214179486 ], [ 117.315479322458444, 42.409685717122194 ], [ 117.315448940444625, 42.409685800727388 ], [ 117.315448963007398, 42.409690303670104 ], [ 117.315442886604188, 42.409690320390176 ], [ 117.315442954291257, 42.409703829218323 ], [ 117.31544903069576, 42.409703812498243 ], [ 117.315449053258561, 42.409708315440945 ], [ 117.315485511688166, 42.409708215113653 ], [ 117.315485466557362, 42.409699209228279 ], [ 117.315491542961411, 42.409699192505947 ], [ 117.315491565527239, 42.409703695448634 ], [ 117.315497641931699, 42.409703678725968 ], [ 117.315497664497983, 42.409708181668648 ], [ 117.315515893712671, 42.409708131498732 ], [ 117.315515916280248, 42.409712634441398 ], [ 117.315540221901529, 42.409712567543657 ], [ 117.315540244470839, 42.409717070486309 ] ] ] } },
{ "type": "Feature", "properties": { "crown_id": 4073, "tree_id": "4076", "top_h_m": 20.49, "H_95_Mean": 22.08, "DBH": 23.8219, "Carbon_kg": 113.410606, "area_m2": 7.0 }, "geometry": { "type": "Polygon", "coordinates": [ [ [ 117.315424634833505, 42.409685867605745 ], [ 117.315442864041842, 42.40968581744746 ], [ 117.315442841479523, 42.409681314504738 ], [ 117.315436765077166, 42.40968133122449 ], [ 117.31543669739149, 42.40966782239628 ], [ 117.315424544589391, 42.409667855834797 ], [ 117.31542452202838, 42.409663352892053 ], [ 117.315418445627756, 42.409663369610833 ], [ 117.315418423067186, 42.409658866668074 ], [ 117.315388041066171, 42.409658950257096 ], [ 117.315388086182963, 42.409667956142613 ], [ 117.315406315386198, 42.409667905990162 ], [ 117.315406337945902, 42.409672408932906 ], [ 117.315412414347406, 42.409672392214773 ], [ 117.315412436907565, 42.409676895157524 ], [ 117.315406360505634, 42.409676911875664 ], [ 117.315406383065351, 42.409681414818401 ], [ 117.315424612272452, 42.409681364663008 ], [ 117.315424634833505, 42.409685867605745 ] ] ] } },
{ "type": "Feature", "properties": { "crown_id": 4084, "tree_id": "4087", "top_h_m": 22.402, "H_95_Mean": 22.848, "DBH": 31.829, "Carbon_kg": 207.529046, "area_m2": 20.25 }, "geometry": { "type": "Polygon", "coordinates": [ [ [ 117.315448917881866, 42.409681297784672 ], [ 117.315473223491182, 42.409681230901164 ], [ 117.315473200926675, 42.409676727958455 ], [ 117.315479277328564, 42.40967671123677 ], [ 117.315479254763616, 42.409672208294054 ], [ 117.315491407566498, 42.409672174849739 ], [ 117.315491294737569, 42.409649660136125 ], [ 117.315497371136829, 42.409649643413502 ], [ 117.315497348570617, 42.409645140470772 ], [ 117.315491272171784, 42.409645157193403 ], [ 117.315491249606026, 42.409640654250666 ], [ 117.315485173207634, 42.409640670972969 ], [ 117.315485150642303, 42.409636168030232 ], [ 117.315479074244337, 42.409636184752209 ], [ 117.315479096809227, 42.409640687694953 ], [ 117.315473020410835, 42.40964070441661 ], [ 117.315472997846371, 42.409636201473852 ], [ 117.315442615856426, 42.409636285077305 ], [ 117.31544268354331, 42.409649793905572 ], [ 117.315424454345361, 42.409649844063793 ], [ 117.315424499467369, 42.409658849949309 ], [ 117.315430575867566, 42.409658833230218 ], [ 117.315430598429003, 42.409663336172954 ], [ 117.315442751230222, 42.409663302733804 ], [ 117.315442818917177, 42.409676811562008 ], [ 117.315448895319093, 42.40967679484195 ], [ 117.315448917881866, 42.409681297784672 ] ] ] } },
{ "type": "Feature", "properties": { "crown_id": 4139, "tree_id": "4142", "top_h_m": 19.61, "H_95_Mean": 20.281, "DBH": 21.5043, "Carbon_kg": 87.747012, "area_m2": 5.5 }, "geometry": { "type": "Polygon", "coordinates": [ [ [ 117.315357659064986, 42.409659033838068 ], [ 117.31536981186548, 42.409659000406634 ], [ 117.315369789308392, 42.409654497463855 ], [ 117.315375865708191, 42.409654480747669 ], [ 117.315375843150662, 42.409649977804889 ], [ 117.31538191955002, 42.409649961088377 ], [ 117.315381851876182, 42.409636452260038 ], [ 117.315345393487789, 42.409636552554225 ], [ 117.315345416043115, 42.409641055497019 ], [ 117.315351492441636, 42.409641038782127 ], [ 117.315351560108951, 42.409654547610494 ], [ 117.315357636508779, 42.409654530895274 ], [ 117.315357659064986, 42.409659033838068 ] ] ] } },
{ "type": "Feature", "properties": { "crown_id": 4169, "tree_id": "4172", "top_h_m": 21.36, "H_95_Mean": 21.1986, "DBH": 25.9405, "Carbon_kg": 131.451843, "area_m2": 10.5 }, "geometry": { "type": "Polygon", "coordinates": [ [ [ 117.315388018507761, 42.40965444731431 ], [ 117.315418400506616, 42.409654363725323 ], [ 117.315418355385489, 42.409645357839793 ], [ 117.31543658458213, 42.409645307682553 ], [ 117.315436516896597, 42.409631798854249 ], [ 117.315430440499014, 42.409631815573654 ], [ 117.315430395376197, 42.409622809688116 ], [ 117.315418242582794, 42.409622843125931 ], [ 117.315418265143308, 42.40962734606871 ], [ 117.315393959554683, 42.409627412940502 ], [ 117.315393982113463, 42.409631915883274 ], [ 117.315387905715852, 42.409631932600433 ], [ 117.315388018507761, 42.40965444731431 ] ] ] } },
{ "type": "Feature", "properties": { "crown_id": 4203, "tree_id": "4206", "top_h_m": 19.297, "H_95_Mean": 21.0184, "DBH": 22.1234, "Carbon_kg": 94.896482, "area_m2": 5.75 }, "geometry": { "type": "Polygon", "coordinates": [ [ [ 117.315339294534809, 42.409632066325976 ], [ 117.315381829318241, 42.409631949317244 ], [ 117.315381806760328, 42.409627446374451 ], [ 117.315387883157499, 42.40962742965764 ], [ 117.315387860599145, 42.409622926714839 ], [ 117.315369631408899, 42.409622976864327 ], [ 117.315369608851839, 42.409618473921505 ], [ 117.315363532455535, 42.409618490637364 ], [ 117.315363509898916, 42.409613987694556 ], [ 117.31535743350301, 42.409614004410074 ], [ 117.315357456059189, 42.409618507352889 ], [ 117.315333150473819, 42.40961857421177 ], [ 117.31533319558271, 42.409627580097407 ], [ 117.315339271979909, 42.409627563383168 ], [ 117.315339294534809, 42.409632066325976 ] ] ] } },
{ "type": "Feature", "properties": { "crown_id": 4237, "tree_id": "4240", "top_h_m": 18.62, "H_95_Mean": 20.28, "DBH": 19.8101, "Carbon_kg": 74.368726, "area_m2": 4.0 }, "geometry": { "type": "Polygon", "coordinates": [ [ [ 117.315393936995889, 42.409622909997708 ], [ 117.315412166186078, 42.409622859844362 ], [ 117.315412143625963, 42.409618356901568 ], [ 117.315430372814831, 42.409618306745323 ], [ 117.315430350253422, 42.409613803802543 ], [ 117.315418197461739, 42.40961383724035 ], [ 117.315418107219713, 42.409595825469168 ], [ 117.315412030825584, 42.409595842187585 ], [ 117.315412098505803, 42.409609351015987 ], [ 117.315399945714958, 42.409609384451855 ], [ 117.315399968274178, 42.409613887394649 ], [ 117.315387815482453, 42.409613920829244 ], [ 117.315387838040806, 42.409618423772045 ], [ 117.315393914437081, 42.4096184070549 ], [ 117.315393936995889, 42.409622909997708 ] ] ] } },
{ "type": "Feature", "properties": { "crown_id": 4239, "tree_id": "4242", "top_h_m": 23.01, "H_95_Mean": 22.2331, "DBH": 32.3789, "Carbon_kg": 211.380342, "area_m2": 22.75 }, "geometry": { "type": "Polygon", "coordinates": [ [ [ 117.315515622902069, 42.409654096186408 ], [ 117.31552169930174, 42.409654079462484 ], [ 117.315521676733795, 42.409649576519769 ], [ 117.31552775313304, 42.409649559795525 ], [ 117.315527730564654, 42.409645056852817 ], [ 117.315521654165849, 42.409645073577046 ], [ 117.315521631597917, 42.409640570634323 ], [ 117.315509478801161, 42.409640604081829 ], [ 117.315509456234111, 42.409636101139093 ], [ 117.315539838223756, 42.409636017517933 ], [ 117.315539793085307, 42.409627011632494 ], [ 117.31553371668825, 42.409627028357377 ], [ 117.315533648981898, 42.409613519529159 ], [ 117.315527572586149, 42.409613536253708 ], [ 117.315527504881146, 42.409600027425455 ], [ 117.315521428486704, 42.409600044149663 ], [ 117.315521405918801, 42.409595541206919 ], [ 117.315515329524786, 42.4095955579308 ], [ 117.315515306957323, 42.409591054988034 ], [ 117.315509230563734, 42.409591071711588 ], [ 117.315509253130742, 42.409595574654361 ], [ 117.315491023948624, 42.409595624823119 ], [ 117.315490978817209, 42.40958661893756 ], [ 117.315478826030855, 42.40958665238179 ], [ 117.315478916290232, 42.409604664152901 ], [ 117.315466763500353, 42.409604697595853 ], [ 117.315466786064363, 42.409609200538625 ], [ 117.31547893885508, 42.409609167095674 ], [ 117.315479051679446, 42.409631681809458 ], [ 117.315491204474512, 42.409631648365185 ], [ 117.315491227040269, 42.409636151307922 ], [ 117.315497303438207, 42.409636134585305 ], [ 117.315497326004404, 42.409640637528042 ], [ 117.315503402402797, 42.409640620805099 ], [ 117.315503424969435, 42.409645123747822 ], [ 117.315515577767044, 42.40964509030097 ], [ 117.315515622902069, 42.409654096186408 ] ] ] } },
{ "type": "Feature", "properties": { "crown_id": 4248, "tree_id": "4251", "top_h_m": 20.33, "H_95_Mean": 20.7075, "DBH": 26.97, "Carbon_kg": 140.220959, "area_m2": 12.75 }, "geometry": { "type": "Polygon", "coordinates": [ [ [ 117.315442593294151, 42.409631782134539 ], [ 117.315472975281921, 42.409631698531108 ], [ 117.315472885024164, 42.409613686760082 ], [ 117.315466808628329, 42.409613703481391 ], [ 117.315466831192339, 42.409618206424163 ], [ 117.315448602003599, 42.409618256586192 ], [ 117.315448534315522, 42.409604747757861 ], [ 117.315460687105428, 42.409604714316849 ], [ 117.315460664541888, 42.409600211374055 ], [ 117.315472817330885, 42.409600177931758 ], [ 117.315472749637664, 42.409586669103412 ], [ 117.315448444064842, 42.409586735986693 ], [ 117.315448466627515, 42.409591238929494 ], [ 117.315430237446549, 42.409591289088581 ], [ 117.315430260007901, 42.409595792031389 ], [ 117.3154241836138, 42.409595808750439 ], [ 117.315424251296648, 42.409609317578834 ], [ 117.315436404087436, 42.40960928414038 ], [ 117.315436494334733, 42.409627295911491 ], [ 117.315442570731889, 42.409627279191774 ], [ 117.315442593294151, 42.409631782134539 ] ] ] } },
{ "type": "Feature", "properties": { "crown_id": 4259, "tree_id": "4262", "top_h_m": 20.03, "H_95_Mean": 20.2994, "DBH": 21.2573, "Carbon_kg": 85.773502, "area_m2": 5.25 }, "geometry": { "type": "Polygon", "coordinates": [ [ [ 117.315320975127534, 42.409614104696445 ], [ 117.315351357107133, 42.409614021125272 ], [ 117.315351334551366, 42.40960951818245 ], [ 117.315357410946845, 42.409609501467258 ], [ 117.31535738839068, 42.409604998524443 ], [ 117.315351311995641, 42.409605015239634 ], [ 117.315351266884207, 42.409596009353969 ], [ 117.315345190490035, 42.409596026068833 ], [ 117.315345167934765, 42.409591523126004 ], [ 117.315326938753529, 42.409591573268671 ], [ 117.315327028969463, 42.40960958504003 ], [ 117.31532095257397, 42.409609601753615 ], [ 117.315320975127534, 42.409614104696445 ] ] ] } },
{ "type": "Feature", "properties": { "crown_id": 4271, "tree_id": "4274", "top_h_m": 20.098, "H_95_Mean": 20.52, "DBH": 25.2247, "Carbon_kg": 121.875538, "area_m2": 10.0 }, "geometry": { "type": "Polygon", "coordinates": [ [ [ 117.315375685248171, 42.409618457205355 ], [ 117.315381761644488, 42.409618440488849 ], [ 117.315381716528648, 42.409609434603254 ], [ 117.31539386931955, 42.409609401169298 ], [ 117.315393846760756, 42.409604898226505 ], [ 117.315405999550762, 42.409604864791284 ], [ 117.315405954431483, 42.409595858905668 ], [ 117.315387725249096, 42.409595909058005 ], [ 117.315387657574149, 42.409582400229539 ], [ 117.315351199217091, 42.40958250052546 ], [ 117.315351244328497, 42.409591506411132 ], [ 117.315357320722214, 42.409591489695948 ], [ 117.315357365834515, 42.409600495581614 ], [ 117.315363442229128, 42.409600478866089 ], [ 117.31536348734231, 42.409609484751748 ], [ 117.315369563737761, 42.409609468035903 ], [ 117.315369586294807, 42.409613970978704 ], [ 117.315375662690698, 42.409613954262547 ], [ 117.315375685248171, 42.409618457205355 ] ] ] } },
{ "type": "Feature", "properties": { "crown_id": 4324, "tree_id": "4327", "top_h_m": 21.55, "H_95_Mean": 21.3862, "DBH": 31.0456, "Carbon_kg": 189.793726, "area_m2": 20.75 }, "geometry": { "type": "Polygon", "coordinates": [ [ [ 117.315533581275574, 42.40960001070092 ], [ 117.31553965767003, 42.409599993976073 ], [ 117.315539635100848, 42.409595491033322 ], [ 117.315563940676824, 42.409595424130693 ], [ 117.315563850393147, 42.409577412359702 ], [ 117.315569926785386, 42.409577395633242 ], [ 117.315569904214058, 42.409572892690498 ], [ 117.315575980605857, 42.409572875963725 ], [ 117.315575890318826, 42.409554864192685 ], [ 117.315569813928747, 42.409554880919437 ], [ 117.315569836500075, 42.409559383862209 ], [ 117.315563760109555, 42.409559400588662 ], [ 117.315563737538668, 42.40955489764589 ], [ 117.315551584758509, 42.409554931097794 ], [ 117.315551607328544, 42.409559434040567 ], [ 117.315533378156957, 42.409559484216039 ], [ 117.31553340072567, 42.409563987158812 ], [ 117.315521247943735, 42.409564020607505 ], [ 117.315521270511567, 42.409568523550291 ], [ 117.315496964945893, 42.409568590443833 ], [ 117.315497010078118, 42.409577596329413 ], [ 117.315484857293512, 42.409577629774269 ], [ 117.315484879858786, 42.409582132717055 ], [ 117.315497032644259, 42.409582099272193 ], [ 117.315497077776527, 42.409591105157752 ], [ 117.315503154170145, 42.409591088434837 ], [ 117.315503131603549, 42.40958658549205 ], [ 117.315521360783038, 42.409586535321381 ], [ 117.315521383350912, 42.409591038264153 ], [ 117.315527459744501, 42.409591021539953 ], [ 117.315527482312831, 42.409595524482704 ], [ 117.315533558706818, 42.409595507758176 ], [ 117.315533581275574, 42.40960001070092 ] ] ] } },
{ "type": "Feature", "properties": { "crown_id": 4358, "tree_id": "4361", "top_h_m": 19.962, "H_95_Mean": 20.1329, "DBH": 30.3553, "Carbon_kg": 175.019781, "area_m2": 21.25 }, "geometry": { "type": "Polygon", "coordinates": [ [ [ 117.315308754677588, 42.409600629294133 ], [ 117.315314831072214, 42.409600612581201 ], [ 117.315314808519105, 42.40959610963835 ], [ 117.315320884913305, 42.409596092925099 ], [ 117.315320839806219, 42.409587087039391 ], [ 117.315345145379482, 42.409587020183167 ], [ 117.315345055158446, 42.409569008411765 ], [ 117.315332902375289, 42.409569041840506 ], [ 117.315332879820915, 42.409564538897641 ], [ 117.315326803429784, 42.409564555611524 ], [ 117.315326780875836, 42.409560052668645 ], [ 117.315320704485131, 42.409560069382209 ], [ 117.315320681931638, 42.409555566439344 ], [ 117.315308529151054, 42.409555599865492 ], [ 117.31530843894059, 42.409537588093919 ], [ 117.315302362552046, 42.409537604806502 ], [ 117.315302317447703, 42.409528598920694 ], [ 117.315296241059997, 42.409528615632944 ], [ 117.315296308715205, 42.409542124461659 ], [ 117.31529023232622, 42.409542141173596 ], [ 117.315290299980148, 42.409555650002297 ], [ 117.315284223589842, 42.409555666713906 ], [ 117.315284381446219, 42.409587187314067 ], [ 117.315290457839552, 42.409587170602435 ], [ 117.31529050294229, 42.409596176488158 ], [ 117.315308732124919, 42.409596126351289 ], [ 117.315308754677588, 42.409600629294133 ] ] ] } },
{ "type": "Feature", "properties": { "crown_id": 4359, "tree_id": "4362", "top_h_m": 22.703, "H_95_Mean": 22.4374, "DBH": 31.8552, "Carbon_kg": 205.655804, "area_m2": 21.0 }, "geometry": { "type": "Polygon", "coordinates": [ [ [ 117.315393779084488, 42.409591389398059 ], [ 117.315424161052889, 42.409591305807638 ], [ 117.315424138491963, 42.409586802864823 ], [ 117.315442367671636, 42.409586752706709 ], [ 117.315442345109417, 42.409582249763915 ], [ 117.315460574287741, 42.409582199602909 ], [ 117.315460551724229, 42.409577696660108 ], [ 117.315466628116539, 42.409577679939126 ], [ 117.315466605552587, 42.409573176996332 ], [ 117.315460529160703, 42.409573193717314 ], [ 117.315460506597191, 42.409568690774492 ], [ 117.315466582988662, 42.409568674053524 ], [ 117.315466560424724, 42.409564171110723 ], [ 117.315442254860571, 42.409564237992662 ], [ 117.315442142049648, 42.409541723278522 ], [ 117.315436065660776, 42.409541739998197 ], [ 117.315436088222498, 42.409546242941033 ], [ 117.315399629886542, 42.409546343252295 ], [ 117.315399810359793, 42.409582366794986 ], [ 117.315393733966971, 42.409582383512422 ], [ 117.315393779084488, 42.409591389398059 ] ] ] } }
]
}
