{
"type": "FeatureCollection",
"name": "tile_21_8",
"crs": { "type": "name", "properties": { "name": "urn:ogc:def:crs:OGC:1.3:CRS84" } },
"features": [
{ "type": "Feature", "properties": { "crown_id": 8253, "tree_id": "8261", "top_h_m": 16.775, "H_95_Mean": 16.8133, "DBH": 34.309, "Carbon_kg": 201.360423, "area_m2": 47.75 }, "geometry": { "type": "MultiPolygon", "coordinates": [ [ [ [ 117.311799027174601, 42.40764691835237 ], [ 117.311799116375141, 42.407664930135951 ], [ 117.311793040165284, 42.407664946661932 ], [ 117.311793062465, 42.407669449607816 ], [ 117.311799138675283, 42.407669433081836 ], [ 117.311799160975426, 42.407673936027713 ], [ 117.311805237186149, 42.407673919501406 ], [ 117.311805259486746, 42.407678422447283 ], [ 117.311811335697897, 42.407678405920642 ], [ 117.311811380299957, 42.407687411812361 ], [ 117.311823532723992, 42.407687378758119 ], [ 117.311823510422101, 42.407682875812256 ], [ 117.31182958663365, 42.407682859284648 ], [ 117.31182960893598, 42.407687362230511 ], [ 117.311835685147997, 42.407687345702577 ], [ 117.311835640542455, 42.407678339810865 ], [ 117.311841716753577, 42.407678323282617 ], [ 117.311841739056803, 42.407682826228474 ], [ 117.311853891479885, 42.407682793171006 ], [ 117.311853869175835, 42.407678290225164 ], [ 117.311859945386928, 42.407678273695943 ], [ 117.311859967691447, 42.407682776641785 ], [ 117.311878196326049, 42.407682727052212 ], [ 117.311878218631861, 42.407687229998047 ], [ 117.311890371055767, 42.407687196936706 ], [ 117.311890348749088, 42.407682693990871 ], [ 117.311896424960594, 42.407682677459725 ], [ 117.311896268810912, 42.407651156838824 ], [ 117.311890192602462, 42.407651173369956 ], [ 117.311890147989175, 42.407642167478237 ], [ 117.311884071781563, 42.407642184009042 ], [ 117.311884049475353, 42.407637681063179 ], [ 117.311871897060996, 42.407637714123808 ], [ 117.311871830145023, 42.407624205286162 ], [ 117.311859677733253, 42.407624238345491 ], [ 117.311859633124371, 42.407615232453708 ], [ 117.31185355691936, 42.407615248982879 ], [ 117.311853534615366, 42.407610746036987 ], [ 117.311835306001555, 42.407610795622574 ], [ 117.311835350606927, 42.407619801514379 ], [ 117.311829274401447, 42.407619818042278 ], [ 117.311829341308254, 42.407633326879989 ], [ 117.311811112687877, 42.407633376461746 ], [ 117.311811134988858, 42.407637879407659 ], [ 117.311792906367117, 42.407637928986532 ], [ 117.311792950966478, 42.407646934878358 ], [ 117.311799027174601, 42.40764691835237 ] ], [ [ 117.311878196326049, 42.407682727052212 ], [ 117.311878174020237, 42.40767822410637 ], [ 117.31188425023133, 42.40767820757587 ], [ 117.311884272537583, 42.407682710521698 ], [ 117.311878196326049, 42.407682727052212 ] ], [ [ 117.311811134988858, 42.407637879407659 ], [ 117.3118172111961, 42.407637862880719 ], [ 117.311817233497507, 42.407642365826625 ], [ 117.311811157289839, 42.407642382353565 ], [ 117.311811134988858, 42.407637879407659 ] ], [ [ 117.311799027174601, 42.40764691835237 ], [ 117.311799004874487, 42.407642415406478 ], [ 117.311805081082184, 42.407642398880171 ], [ 117.311805103382724, 42.407646901826077 ], [ 117.311799027174601, 42.40764691835237 ] ], [ [ 117.311817322703234, 42.407660377610192 ], [ 117.311817300401799, 42.4076558746643 ], [ 117.311823376610761, 42.407655858137026 ], [ 117.311823398912637, 42.407660361082911 ], [ 117.311817322703234, 42.407660377610192 ] ], [ [ 117.311817411909047, 42.407678389393681 ], [ 117.311817389607583, 42.40767388644781 ], [ 117.311823465818307, 42.407673869920529 ], [ 117.311823488120197, 42.407678372866393 ], [ 117.311817411909047, 42.407678389393681 ] ] ], [ [ [ 117.311859967691447, 42.407682776641785 ], [ 117.311853891479885, 42.407682793171006 ], [ 117.311853913783978, 42.407687296116855 ], [ 117.311859989995938, 42.40768727958762 ], [ 117.311859967691447, 42.407682776641785 ] ] ] ] } },
{ "type": "Feature", "properties": { "crown_id": 8340, "tree_id": "8348", "top_h_m": 20.034, "H_95_Mean": 19.9041, "DBH": 41.8521, "Carbon_kg": 332.106434, "area_m2": 75.5 }, "geometry": { "type": "Polygon", "coordinates": [ [ [ 117.311677636759896, 42.407674266486339 ], [ 117.311683712970719, 42.407674249966476 ], [ 117.311683690678819, 42.407669747020535 ], [ 117.311689766889202, 42.407669730500352 ], [ 117.311689744596904, 42.407665227554418 ], [ 117.311695820806833, 42.407665211033908 ], [ 117.311695798514094, 42.407660708087974 ], [ 117.311714027142585, 42.407660658524527 ], [ 117.311714004848525, 42.407656155578593 ], [ 117.311720081057601, 42.407656139056805 ], [ 117.3117200587631, 42.40765163611087 ], [ 117.311738287388948, 42.407651586543558 ], [ 117.311738265093155, 42.407647083597631 ], [ 117.311744341301335, 42.407647067074556 ], [ 117.311744319005143, 42.407642564128636 ], [ 117.311738242797389, 42.407642580651711 ], [ 117.311738220501624, 42.407638077705776 ], [ 117.311744296708909, 42.407638061182695 ], [ 117.311744274412717, 42.407633558236775 ], [ 117.311732121998986, 42.40763359128259 ], [ 117.311732099703661, 42.407629088336648 ], [ 117.311738175910094, 42.407629071813908 ], [ 117.311738131318592, 42.407620065922018 ], [ 117.311744207524157, 42.407620049398957 ], [ 117.311744051451029, 42.407588528777254 ], [ 117.311750127653525, 42.407588512253888 ], [ 117.311750083060389, 42.407579506361941 ], [ 117.311737930657102, 42.407579539408346 ], [ 117.31173790836138, 42.407575036462362 ], [ 117.311743984562611, 42.40757501993933 ], [ 117.31174396226649, 42.407570516993346 ], [ 117.311725733664133, 42.407570566561475 ], [ 117.311725711369306, 42.407566063615484 ], [ 117.311707482768213, 42.407566113180707 ], [ 117.311707505061733, 42.407570616126719 ], [ 117.311701428860914, 42.407570632647811 ], [ 117.311701451154008, 42.407575135593824 ], [ 117.311689298751503, 42.407575168635049 ], [ 117.31168932104373, 42.407579671581054 ], [ 117.31167716864033, 42.407579704621007 ], [ 117.311677190931675, 42.407584207567012 ], [ 117.311665038527408, 42.407584240605686 ], [ 117.311665060817873, 42.407588743551699 ], [ 117.311671137020483, 42.407588727032518 ], [ 117.311671159311416, 42.407593229978517 ], [ 117.311659006905373, 42.407593263016558 ], [ 117.311659029195425, 42.407597765962556 ], [ 117.311665105398902, 42.407597749443688 ], [ 117.311665127689395, 42.407602252389687 ], [ 117.31165905148552, 42.407602268908555 ], [ 117.311659073775587, 42.407606771854553 ], [ 117.311652997571258, 42.407606788373094 ], [ 117.311653019860913, 42.407611291319093 ], [ 117.311640867451388, 42.407611324355216 ], [ 117.311640889740147, 42.407615827301214 ], [ 117.311634813534951, 42.407615843818803 ], [ 117.311634835823313, 42.407620346764773 ], [ 117.311628759617662, 42.407620363282042 ], [ 117.311628781905583, 42.407624866228048 ], [ 117.311634858111674, 42.407624849710778 ], [ 117.311634924976772, 42.407638358548724 ], [ 117.311641001184171, 42.407638342031127 ], [ 117.311641023472987, 42.407642844977111 ], [ 117.311634947265162, 42.407642861494701 ], [ 117.311634969553552, 42.40764736444067 ], [ 117.311628893345301, 42.407647380957954 ], [ 117.31162891563325, 42.407651883903917 ], [ 117.311647144259297, 42.407651834351114 ], [ 117.311647211127138, 42.407665343188967 ], [ 117.311659363547065, 42.40766531015214 ], [ 117.311659341256927, 42.407660807206192 ], [ 117.311665417466472, 42.407660790687295 ], [ 117.311665462047657, 42.407669796579178 ], [ 117.311677614468422, 42.407669763540405 ], [ 117.311677636759896, 42.407674266486339 ] ], [ [ 117.311683668386948, 42.407665244074607 ], [ 117.311683646095048, 42.407660741128666 ], [ 117.311689722304564, 42.40766072460849 ], [ 117.311689744596904, 42.407665227554418 ], [ 117.311683668386948, 42.407665244074607 ] ] ] } },
{ "type": "Feature", "properties": { "crown_id": 8341, "tree_id": "8349", "top_h_m": 18.98, "H_95_Mean": 19.4189, "DBH": 35.6179, "Carbon_kg": 236.458605, "area_m2": 42.25 }, "geometry": { "type": "Polygon", "coordinates": [ [ [ 117.311762547628291, 42.40764251455748 ], [ 117.311768623836002, 42.40764249803312 ], [ 117.311768556942198, 42.407628989195338 ], [ 117.311774633148588, 42.407628972670672 ], [ 117.311774655446953, 42.407633475616599 ], [ 117.311805036481076, 42.407633392988366 ], [ 117.311805014180536, 42.40762889004246 ], [ 117.311823242799633, 42.407628840461662 ], [ 117.311823175894148, 42.407615331623944 ], [ 117.311829252099201, 42.407615315096365 ], [ 117.311829162890191, 42.407597303312691 ], [ 117.311823086686871, 42.407597319840256 ], [ 117.311822975177918, 42.407574805110563 ], [ 117.311816898976772, 42.407574821637787 ], [ 117.311816876675437, 42.407570318691832 ], [ 117.311780419471063, 42.40757041784839 ], [ 117.311780397172328, 42.40756591490242 ], [ 117.311774320972006, 42.407565931427371 ], [ 117.311774343270287, 42.407570434373355 ], [ 117.311768267069553, 42.407570450898 ], [ 117.311768289367421, 42.407574953843969 ], [ 117.311762213166219, 42.407574970368294 ], [ 117.311762168571363, 42.407565964476326 ], [ 117.311756092371041, 42.407565981000339 ], [ 117.311756114668029, 42.407570483946316 ], [ 117.311750038467267, 42.407570500469994 ], [ 117.311750060763814, 42.407575003415978 ], [ 117.311756136965016, 42.407574986892293 ], [ 117.311756226153065, 42.407592998676172 ], [ 117.3117501499501, 42.407593015199851 ], [ 117.31175030602634, 42.407624535821512 ], [ 117.311744229820349, 42.407624552344899 ], [ 117.311744252116526, 42.40762905529084 ], [ 117.311750328322958, 42.407629038767446 ], [ 117.311750372916222, 42.407638044659308 ], [ 117.311762525330792, 42.40763801161156 ], [ 117.311762547628291, 42.40764251455748 ] ] ] } }
]
}
