{
"type": "FeatureCollection",
"name": "tile_12_19",
"crs": { "type": "name", "properties": { "name": "urn:ogc:def:crs:OGC:1.3:CRS84" } },
"features": [
{ "type": "Feature", "properties": { "crown_id": 4833, "tree_id": "4837", "top_h_m": 21.54, "H_95_Mean": 21.2852, "DBH": 34.493, "Carbon_kg": 234.010891, "area_m2": 31.5 }, "geometry": { "type": "Polygon", "coordinates": [ [ [ 117.314329533287591, 42.409418695200095 ], [ 117.314365991553373, 42.40941859522939 ], [ 117.314365969068277, 42.409414092285985 ], [ 117.314372045445467, 42.409414075623069 ], [ 117.31437202295993, 42.409409572679664 ], [ 117.31436594658318, 42.40940958934258 ], [ 117.314365924098084, 42.409405086399168 ], [ 117.314378076850716, 42.409405053073037 ], [ 117.314377896963194, 42.409369029525692 ], [ 117.314371820590367, 42.4093690461889 ], [ 117.314371798104887, 42.409364543245459 ], [ 117.314353568987684, 42.409364593233128 ], [ 117.314353546503511, 42.409360090289688 ], [ 117.314347470131523, 42.409360106951596 ], [ 117.314347425164073, 42.409351101064679 ], [ 117.314341348792951, 42.40935111772626 ], [ 117.314341371276242, 42.409355620669729 ], [ 117.314329218533118, 42.409355653991931 ], [ 117.314329263497982, 42.409364659878854 ], [ 117.314304958008208, 42.409364726519421 ], [ 117.314305025450324, 42.409378235349799 ], [ 117.314311101824089, 42.409378218690136 ], [ 117.314311146786395, 42.409387224577038 ], [ 117.31432329953563, 42.409387191256741 ], [ 117.314323366981739, 42.409400700087048 ], [ 117.314311214229903, 42.409400733407367 ], [ 117.314311259192266, 42.409409739294233 ], [ 117.314323411945821, 42.4094097059739 ], [ 117.314323434427891, 42.409414208917326 ], [ 117.314329510805095, 42.409414192256662 ], [ 117.314329533287591, 42.409418695200095 ] ] ] } },
{ "type": "Feature", "properties": { "crown_id": 4857, "tree_id": "4861", "top_h_m": 22.19, "H_95_Mean": 23.04, "DBH": 25.5512, "Carbon_kg": 133.945187, "area_m2": 8.5 }, "geometry": { "type": "Polygon", "coordinates": [ [ [ 117.314548192887059, 42.409400083428665 ], [ 117.314554269262757, 42.409400066756106 ], [ 117.314554246764203, 42.409395563812765 ], [ 117.314560323139489, 42.40939554713988 ], [ 117.314560278141514, 42.409386541253205 ], [ 117.314566354515947, 42.409386524580015 ], [ 117.314566377015339, 42.409391027523348 ], [ 117.31457245339017, 42.409391010849824 ], [ 117.314572475890031, 42.40939551379315 ], [ 117.314578552265303, 42.409395497119299 ], [ 117.314578507264727, 42.409386491232645 ], [ 117.314590660013508, 42.409386457883997 ], [ 117.314590637512353, 42.40938195494067 ], [ 117.314584561138403, 42.409381971615147 ], [ 117.314584403633575, 42.409350451011733 ], [ 117.314578327262652, 42.409350467685876 ], [ 117.314578349762897, 42.409354970629231 ], [ 117.314572273391548, 42.409354987303054 ], [ 117.314572340891004, 42.409368496133119 ], [ 117.314566264518334, 42.409368512806623 ], [ 117.314566287017726, 42.409373015749985 ], [ 117.314554134271518, 42.409373049096047 ], [ 117.314554201767109, 42.409386557926084 ], [ 117.314548125392704, 42.409386574598628 ], [ 117.314548192887059, 42.409400083428665 ] ] ] } },
{ "type": "Feature", "properties": { "crown_id": 4881, "tree_id": "4885", "top_h_m": 24.1, "H_95_Mean": 23.9825, "DBH": 32.3538, "Carbon_kg": 220.719921, "area_m2": 19.75 }, "geometry": { "type": "Polygon", "coordinates": [ [ [ 117.314414512619877, 42.409400450143544 ], [ 117.314420588995702, 42.409400433478062 ], [ 117.314420521528731, 42.409386924647876 ], [ 117.314432674277796, 42.409386891315982 ], [ 117.314432629298082, 42.409377885429173 ], [ 117.314438705671748, 42.409377868762739 ], [ 117.314438683181464, 42.409373365819349 ], [ 117.314444759554675, 42.409373349152595 ], [ 117.314444714573284, 42.409364343265786 ], [ 117.31443863820094, 42.409364359932532 ], [ 117.314438615710671, 42.40935985698912 ], [ 117.314432539338767, 42.409359873655539 ], [ 117.314432494359139, 42.409350867768701 ], [ 117.314426417988116, 42.409350884434794 ], [ 117.314426395498742, 42.409346381491353 ], [ 117.314420319128104, 42.409346398157126 ], [ 117.314420296639199, 42.409341895213693 ], [ 117.314408143898802, 42.409341928544258 ], [ 117.314408166386883, 42.409346431487691 ], [ 117.314402090016245, 42.40934644815249 ], [ 117.314402134991525, 42.409355454039371 ], [ 117.314396058619991, 42.409355470703858 ], [ 117.314396126081647, 42.409368979534158 ], [ 117.314383973336021, 42.409369012862172 ], [ 117.314384108254231, 42.409396030522679 ], [ 117.314396261005072, 42.409395997194629 ], [ 117.314396238517816, 42.409391494251224 ], [ 117.314402314892803, 42.40939147758673 ], [ 117.3144023373805, 42.409395980530121 ], [ 117.314414490131313, 42.409395947200139 ], [ 117.314414512619877, 42.409400450143544 ] ] ] } },
{ "type": "Feature", "properties": { "crown_id": 4903, "tree_id": "4907", "top_h_m": 22.75, "H_95_Mean": 23.8087, "DBH": 31.8147, "Carbon_kg": 212.45418, "area_m2": 18.75 }, "geometry": { "type": "MultiPolygon", "coordinates": [ [ [ [ 117.314432449379524, 42.409341861881842 ], [ 117.314432471869324, 42.409346364825275 ], [ 117.314438548239949, 42.409346348158863 ], [ 117.314438525749708, 42.40934184521543 ], [ 117.314432449379524, 42.409341861881842 ] ] ], [ [ [ 117.314432449379524, 42.409341861881842 ], [ 117.314432426889752, 42.409337358938416 ], [ 117.314426350519994, 42.409337375604487 ], [ 117.314426373009368, 42.409341878547934 ], [ 117.314432449379524, 42.409341861881842 ] ] ], [ [ [ 117.314438548239949, 42.409346348158863 ], [ 117.314438593220444, 42.409355354045708 ], [ 117.314444669591893, 42.409355337378969 ], [ 117.314444692082589, 42.409359840322381 ], [ 117.314450768454478, 42.409359823655322 ], [ 117.314450858419008, 42.40937783542892 ], [ 117.314444782045385, 42.409377852095993 ], [ 117.31444480453608, 42.409382355039391 ], [ 117.314481262780447, 42.409382255032106 ], [ 117.314481240287122, 42.409377752088716 ], [ 117.31449946940792, 42.409377702080732 ], [ 117.31449931194571, 42.409346181477034 ], [ 117.314487159204589, 42.409346214815969 ], [ 117.314487136710895, 42.409341711872571 ], [ 117.314456754860188, 42.409341795214274 ], [ 117.314456777351722, 42.409346298157693 ], [ 117.314438548239949, 42.409346348158863 ] ] ], [ [ [ 117.31444480453608, 42.409382355039391 ], [ 117.314438728162017, 42.409382371706144 ], [ 117.3144387506523, 42.409386874649542 ], [ 117.314444827026804, 42.409386857982788 ], [ 117.31444480453608, 42.409382355039391 ] ] ] ] } },
{ "type": "Feature", "properties": { "crown_id": 4904, "tree_id": "4908", "top_h_m": 20.97, "H_95_Mean": 21.815, "DBH": 23.9016, "Carbon_kg": 113.364158, "area_m2": 7.25 }, "geometry": { "type": "MultiPolygon", "coordinates": [ [ [ [ 117.314529806282238, 42.409368612840929 ], [ 117.314529693798391, 42.409346098124033 ], [ 117.314517541057342, 42.409346131466201 ], [ 117.314517563553224, 42.409350634409591 ], [ 117.314505410811265, 42.409350667750488 ], [ 117.314505545781515, 42.40937768541076 ], [ 117.314529851275822, 42.409377618727646 ], [ 117.314529828779015, 42.409373115784291 ], [ 117.31452375240589, 42.409373132455549 ], [ 117.314523729909538, 42.40936862951218 ], [ 117.314529806282238, 42.409368612840929 ] ], [ [ 117.314517653536839, 42.409368646183111 ], [ 117.314517631040928, 42.409364143239735 ], [ 117.314523707413201, 42.409364126568803 ], [ 117.314523729909538, 42.40936862951218 ], [ 117.314517653536839, 42.409368646183111 ] ] ], [ [ [ 117.314548102894577, 42.409382071655287 ], [ 117.314548057898378, 42.409373065768584 ], [ 117.314541981525281, 42.409373082440808 ], [ 117.314541959027608, 42.409368579497446 ], [ 117.314535882654937, 42.409368596169351 ], [ 117.31453595014662, 42.40938210499943 ], [ 117.314548102894577, 42.409382071655287 ] ] ] ] } },
{ "type": "Feature", "properties": { "crown_id": 4905, "tree_id": "4909", "top_h_m": 21.924, "H_95_Mean": 22.0668, "DBH": 28.2056, "Carbon_kg": 159.350813, "area_m2": 13.5 }, "geometry": { "type": "Polygon", "coordinates": [ [ [ 117.314548035400307, 42.409368562825229 ], [ 117.314560188145663, 42.409368529479814 ], [ 117.314560165646725, 42.409364026536451 ], [ 117.314566242018927, 42.40936400986326 ], [ 117.314566174520792, 42.409350501033195 ], [ 117.314572250891743, 42.409350484359699 ], [ 117.314572228391938, 42.409345981416323 ], [ 117.314590457503371, 42.409345931393908 ], [ 117.314590435002259, 42.409341428450539 ], [ 117.314584358632231, 42.409341445125001 ], [ 117.314584268629616, 42.409323433351517 ], [ 117.314566039524678, 42.409323483372937 ], [ 117.314566062024014, 42.409327986316313 ], [ 117.314553909286502, 42.409328019662325 ], [ 117.314553931784985, 42.409332522605709 ], [ 117.314541779046564, 42.409332555950428 ], [ 117.314541824041797, 42.409341561837209 ], [ 117.314535747671712, 42.4093415785091 ], [ 117.314535860157704, 42.409364093225982 ], [ 117.314548012902208, 42.40936405988186 ], [ 117.314548035400307, 42.409368562825229 ] ] ] } },
{ "type": "Feature", "properties": { "crown_id": 4986, "tree_id": "4990", "top_h_m": 24.02, "H_95_Mean": 23.585, "DBH": 26.7632, "Carbon_kg": 149.10688, "area_m2": 9.75 }, "geometry": { "type": "Polygon", "coordinates": [ [ [ 117.314444602119863, 42.409341828548705 ], [ 117.314450678490033, 42.409341811881653 ], [ 117.31445065599894, 42.409337308938227 ], [ 117.314481037847472, 42.409337225598144 ], [ 117.314481015354204, 42.409332722654732 ], [ 117.314474938984944, 42.409332739323389 ], [ 117.314474849013664, 42.409314727549685 ], [ 117.314462696278596, 42.409314760886012 ], [ 117.314462651294718, 42.409305754999124 ], [ 117.314456574928045, 42.409305771666801 ], [ 117.314456529945076, 42.409296765779906 ], [ 117.314450453579255, 42.40929678244725 ], [ 117.314450498561385, 42.409305788334159 ], [ 117.314444422194683, 42.409305805001189 ], [ 117.314444467175946, 42.409314810888098 ], [ 117.314438390808419, 42.409314827554809 ], [ 117.314438435788816, 42.40932383344169 ], [ 117.314444512157237, 42.409323816774972 ], [ 117.314444534647905, 42.409328319718405 ], [ 117.314438458279028, 42.409328336385137 ], [ 117.314438503259467, 42.409337342272011 ], [ 117.31444457962921, 42.409337325605286 ], [ 117.314444602119863, 42.409341828548705 ] ] ] } },
{ "type": "Feature", "properties": { "crown_id": 5016, "tree_id": "5020", "top_h_m": 24.052, "H_95_Mean": 23.8314, "DBH": 35.9258, "Carbon_kg": 271.571906, "area_m2": 30.0 }, "geometry": { "type": "Polygon", "coordinates": [ [ [ 117.314505388316249, 42.409346164807083 ], [ 117.314511464686774, 42.409346148136798 ], [ 117.314511442191346, 42.409341645193408 ], [ 117.314523594931529, 42.409341611851886 ], [ 117.31452357243522, 42.409337108908495 ], [ 117.314529648804893, 42.409337092237266 ], [ 117.314529603811408, 42.40932808635047 ], [ 117.314541756548977, 42.40932805300703 ], [ 117.314541689056171, 42.409314544176844 ], [ 117.314535612688701, 42.409314560848721 ], [ 117.314535522700112, 42.409296549075059 ], [ 117.314517293602862, 42.409296599088698 ], [ 117.31451727110705, 42.409292096145258 ], [ 117.314499042011064, 42.409292146155991 ], [ 117.314499019516532, 42.409287643212558 ], [ 117.314492943151635, 42.409287659882146 ], [ 117.314492875669401, 42.40927415105179 ], [ 117.314480722942207, 42.409274184390007 ], [ 117.31448074543539, 42.409278687333483 ], [ 117.314462516343241, 42.409278737338383 ], [ 117.314462628802801, 42.409301252055677 ], [ 117.314468705169034, 42.409301235387694 ], [ 117.314468750153765, 42.409310241274568 ], [ 117.314480902887965, 42.409310207937601 ], [ 117.314480992860936, 42.409328219711306 ], [ 117.31448706922977, 42.409328203042335 ], [ 117.314487114217172, 42.409337208929159 ], [ 117.314493190586859, 42.409337192259855 ], [ 117.314493213080993, 42.409341695203267 ], [ 117.314505365821219, 42.409341661863685 ], [ 117.314505388316249, 42.409346164807083 ] ] ] } },
{ "type": "Feature", "properties": { "crown_id": 5051, "tree_id": "5055", "top_h_m": 21.99, "H_95_Mean": 22.0706, "DBH": 31.4128, "Carbon_kg": 198.000193, "area_m2": 20.5 }, "geometry": { "type": "Polygon", "coordinates": [ [ [ 117.314402000065755, 42.409328436378701 ], [ 117.314420229172427, 42.409328386383372 ], [ 117.314420206683508, 42.409323883439917 ], [ 117.314432359420394, 42.409323850108095 ], [ 117.314432291951078, 42.409310341277752 ], [ 117.314438368318207, 42.409310324611354 ], [ 117.314438323337811, 42.409301318724438 ], [ 117.314444399704072, 42.409301302057735 ], [ 117.314444354722838, 42.409292296170811 ], [ 117.314456507453599, 42.409292262836438 ], [ 117.314456462470631, 42.409283256949514 ], [ 117.314420004283548, 42.409283356948734 ], [ 117.314419981794686, 42.409278854005244 ], [ 117.314413905430584, 42.409278870670654 ], [ 117.314413860453755, 42.409269864783667 ], [ 117.314401707727257, 42.409269898113507 ], [ 117.314401775189907, 42.409283406943985 ], [ 117.314395698825379, 42.409283423608429 ], [ 117.314395743799608, 42.409292429495409 ], [ 117.314377514703324, 42.409292479486815 ], [ 117.314377537189159, 42.409296982430313 ], [ 117.314389689920887, 42.409296949103023 ], [ 117.314389712407618, 42.409301452046506 ], [ 117.314395788773908, 42.409301435382368 ], [ 117.314395901209693, 42.409323950099719 ], [ 117.314401977578171, 42.409323933435253 ], [ 117.314402000065755, 42.409328436378701 ] ] ] } },
{ "type": "Feature", "properties": { "crown_id": 5052, "tree_id": "5056", "top_h_m": 21.068, "H_95_Mean": 21.9955, "DBH": 25.1858, "Carbon_kg": 126.590757, "area_m2": 8.75 }, "geometry": { "type": "MultiPolygon", "coordinates": [ [ [ [ 117.314547810419711, 42.409323533391444 ], [ 117.314559963156356, 42.409323500046092 ], [ 117.31455994065746, 42.409318997102709 ], [ 117.314553864289564, 42.409319013775544 ], [ 117.314553841791096, 42.409314510832147 ], [ 117.31454776542364, 42.409314527504648 ], [ 117.314547810419711, 42.409323533391444 ] ] ], [ [ [ 117.314553841791096, 42.409314510832147 ], [ 117.314559918158551, 42.409314494159304 ], [ 117.31455994065746, 42.409318997102709 ], [ 117.314578169761106, 42.409318947082262 ], [ 117.314578124760715, 42.409309941195481 ], [ 117.314584201127701, 42.409309924521352 ], [ 117.314584178627086, 42.409305421577962 ], [ 117.314572025893938, 42.409305454925878 ], [ 117.314571935894975, 42.409287443152252 ], [ 117.31454763043557, 42.409287509844177 ], [ 117.314547675431569, 42.409296515731015 ], [ 117.314541599065848, 42.409296532403189 ], [ 117.314541666558583, 42.409310041233432 ], [ 117.314553819292641, 42.409310007888742 ], [ 117.314553841791096, 42.409314510832147 ] ] ] ] } },
{ "type": "Feature", "properties": { "crown_id": 5066, "tree_id": "5070", "top_h_m": 21.96, "H_95_Mean": 22.6927, "DBH": 36.3266, "Carbon_kg": 269.786145, "area_m2": 34.25 }, "geometry": { "type": "MultiPolygon", "coordinates": [ [ [ [ 117.314365496882303, 42.409319530473745 ], [ 117.31436547439732, 42.409315027530269 ], [ 117.314353321662054, 42.409315060855 ], [ 117.314353254209749, 42.40930155202453 ], [ 117.314371483308705, 42.409301502036968 ], [ 117.314371438337901, 42.409292496149973 ], [ 117.314359285607011, 42.409292529475323 ], [ 117.314359263122469, 42.409288026531826 ], [ 117.314353186757458, 42.409288043194024 ], [ 117.314353164273371, 42.40928354025052 ], [ 117.314341011544187, 42.409283573573923 ], [ 117.31434098906098, 42.409279070630404 ], [ 117.314334912696793, 42.40927908729163 ], [ 117.314334935179573, 42.409283590235148 ], [ 117.314316706085734, 42.409283640216877 ], [ 117.31431677353018, 42.40929714904744 ], [ 117.314322849896115, 42.409297132387174 ], [ 117.314322939823853, 42.409315144161205 ], [ 117.314316863456199, 42.409315160821478 ], [ 117.3143168859377, 42.409319663764975 ], [ 117.314310809569605, 42.409319680424922 ], [ 117.31431083205068, 42.409324183368426 ], [ 117.314335137524793, 42.409324116726673 ], [ 117.31433520497329, 42.409337625557114 ], [ 117.314341281343104, 42.409337608895861 ], [ 117.314341326309659, 42.409346614782791 ], [ 117.314353479051022, 42.40934658145931 ], [ 117.314353524019324, 42.409355587346226 ], [ 117.314359600390887, 42.409355570684006 ], [ 117.314359622875472, 42.409360073627447 ], [ 117.314377851991381, 42.409360023638818 ], [ 117.314377874477287, 42.409364526582259 ], [ 117.314390027222046, 42.409364493254884 ], [ 117.314389937274967, 42.409346481481137 ], [ 117.314396013645606, 42.409346464816977 ], [ 117.31439599115842, 42.40934196187353 ], [ 117.314389914788222, 42.409341978537697 ], [ 117.314389892301449, 42.409337475594242 ], [ 117.314395968671221, 42.409337458930082 ], [ 117.314395923696878, 42.409328453043187 ], [ 117.314389847327959, 42.409328469707319 ], [ 117.31438973489432, 42.409305954989982 ], [ 117.314383658527589, 42.409305971653787 ], [ 117.314383725986445, 42.409319480484214 ], [ 117.314365496882303, 42.409319530473745 ] ] ], [ [ [ 117.314371483308705, 42.409301502036968 ], [ 117.314371505794114, 42.409306004980451 ], [ 117.314383658527589, 42.409305971653787 ], [ 117.314383636041299, 42.409301468710318 ], [ 117.314371483308705, 42.409301502036968 ] ] ] ] } },
{ "type": "Feature", "properties": { "crown_id": 5110, "tree_id": "5114", "top_h_m": 19.88, "H_95_Mean": 20.6367, "DBH": 20.289, "Carbon_kg": 78.845643, "area_m2": 4.25 }, "geometry": { "type": "Polygon", "coordinates": [ [ [ 117.31436533948748, 42.409288009869321 ], [ 117.314389644947497, 42.409287943216043 ], [ 117.31438959997412, 42.409278937329056 ], [ 117.314395676338236, 42.409278920664946 ], [ 117.314395631364022, 42.409269914777937 ], [ 117.314371325910969, 42.409269981432452 ], [ 117.314371370881716, 42.409278987319475 ], [ 117.314359218153442, 42.409279020644817 ], [ 117.314359240637955, 42.409283523588329 ], [ 117.31436531700254, 42.409283506925824 ], [ 117.31436533948748, 42.409288009869321 ] ] ] } },
{ "type": "Feature", "properties": { "crown_id": 5128, "tree_id": "5132", "top_h_m": 20.36, "H_95_Mean": 20.36, "DBH": 19.8471, "Carbon_kg": 74.822974, "area_m2": 4.0 }, "geometry": { "type": "Polygon", "coordinates": [ [ [ 117.314426058158787, 42.409278837339521 ], [ 117.314444287251021, 42.409278787340405 ], [ 117.314444219779276, 42.409265278509963 ], [ 117.314438143416496, 42.409265295176652 ], [ 117.314438098436199, 42.409256289289658 ], [ 117.314425945712387, 42.409256322622056 ], [ 117.314425968201661, 42.409260825565561 ], [ 117.314419891839293, 42.409260842231284 ], [ 117.314419959305823, 42.409274351061754 ], [ 117.314426035669484, 42.409274334396024 ], [ 117.314426058158787, 42.409278837339521 ] ] ] } },
{ "type": "Feature", "properties": { "crown_id": 5129, "tree_id": "5133", "top_h_m": 20.56, "H_95_Mean": 21.0983, "DBH": 26.6433, "Carbon_kg": 138.33995, "area_m2": 11.75 }, "geometry": { "type": "Polygon", "coordinates": [ [ [ 117.314523347472374, 42.409292079474376 ], [ 117.314541576568274, 42.409292029459777 ], [ 117.314541464080506, 42.409269514742618 ], [ 117.314535387717399, 42.409269531414452 ], [ 117.314535297729023, 42.409251519640655 ], [ 117.31452314500622, 42.409251552983356 ], [ 117.314523167502443, 42.409256055926811 ], [ 117.314511014778745, 42.409256089268226 ], [ 117.314511059769472, 42.409265095155156 ], [ 117.314504983406749, 42.409265111825377 ], [ 117.314504960911833, 42.409260608881915 ], [ 117.314498884549536, 42.409260625551831 ], [ 117.314498997022014, 42.40928314026911 ], [ 117.314505073386499, 42.409283123599188 ], [ 117.314505095881444, 42.409287626542636 ], [ 117.314523324976108, 42.409287576530943 ], [ 117.314523347472374, 42.409292079474376 ] ] ] } },
{ "type": "Feature", "properties": { "crown_id": 5152, "tree_id": "5156", "top_h_m": 21.46, "H_95_Mean": 21.6649, "DBH": 23.6093, "Carbon_kg": 110.136622, "area_m2": 7.0 }, "geometry": { "type": "Polygon", "coordinates": [ [ [ 117.314547607937584, 42.40928300690075 ], [ 117.314577989759641, 42.409282923535052 ], [ 117.314577967259481, 42.409278420591647 ], [ 117.314584043623427, 42.409278403917547 ], [ 117.314583998622268, 42.409269398030709 ], [ 117.31457792225919, 42.409269414704795 ], [ 117.314577877258898, 42.40926040881795 ], [ 117.314541419085458, 42.409260508855731 ], [ 117.314541441582989, 42.409265011799171 ], [ 117.31454751794567, 42.409264995127018 ], [ 117.314547607937584, 42.40928300690075 ] ] ] } },
{ "type": "Feature", "properties": { "crown_id": 5165, "tree_id": "5169", "top_h_m": 21.32, "H_95_Mean": 21.7494, "DBH": 27.7422, "Carbon_kg": 152.803197, "area_m2": 13.0 }, "geometry": { "type": "Polygon", "coordinates": [ [ [ 117.314347065425125, 42.409279053968866 ], [ 117.314353141789297, 42.409279037306995 ], [ 117.314353119305224, 42.409274534363483 ], [ 117.314365272032646, 42.409274501038787 ], [ 117.314365227062765, 42.409265495151764 ], [ 117.314371303425617, 42.409265478488948 ], [ 117.314371213484179, 42.409247466714852 ], [ 117.31436513712309, 42.409247483377662 ], [ 117.314365069668384, 42.409233974547043 ], [ 117.314340764229144, 42.409234041195027 ], [ 117.314340831678635, 42.409247550025682 ], [ 117.314328678956386, 42.409247583347764 ], [ 117.314328791367956, 42.409270098065477 ], [ 117.314334867731262, 42.409270081404571 ], [ 117.314334890214013, 42.409274584348097 ], [ 117.314347042941506, 42.409274551025334 ], [ 117.314347065425125, 42.409279053968866 ] ] ] } },
{ "type": "Feature", "properties": { "crown_id": 5184, "tree_id": "5188", "top_h_m": 22.06, "H_95_Mean": 23.075, "DBH": 24.322, "Carbon_kg": 121.383964, "area_m2": 7.0 }, "geometry": { "type": "Polygon", "coordinates": [ [ [ 117.31458397612171, 42.409264895087283 ], [ 117.314590052484363, 42.40926487841287 ], [ 117.314590029983336, 42.409260375469444 ], [ 117.314596106345547, 42.409260358794704 ], [ 117.314596083844108, 42.409255855851271 ], [ 117.314590007482337, 42.40925587252601 ], [ 117.314589917478386, 42.409237860752263 ], [ 117.314577764758283, 42.409237894100748 ], [ 117.314577742258166, 42.409233391157294 ], [ 117.31456558953893, 42.409233424504485 ], [ 117.314565657036667, 42.409246933334828 ], [ 117.314547427953826, 42.409246983353221 ], [ 117.314547450451784, 42.409251486296668 ], [ 117.314541374090396, 42.409251502968829 ], [ 117.314541396587913, 42.409256005912283 ], [ 117.314583931120552, 42.409255889200423 ], [ 117.31458397612171, 42.409264895087283 ] ] ] } },
{ "type": "Feature", "properties": { "crown_id": 5204, "tree_id": "5208", "top_h_m": 20.26, "H_95_Mean": 21.2947, "DBH": 29.761, "Carbon_kg": 173.856583, "area_m2": 17.75 }, "geometry": { "type": "Polygon", "coordinates": [ [ [ 117.314377379788439, 42.409265461825797 ], [ 117.314413837965319, 42.409265361840177 ], [ 117.314413792988532, 42.409256355953154 ], [ 117.314419869350445, 42.409256339287772 ], [ 117.314419846861639, 42.409251836344268 ], [ 117.314425923223112, 42.409251819678552 ], [ 117.314425900733852, 42.409247316735048 ], [ 117.314413748011759, 42.409247350066146 ], [ 117.314413613081513, 42.409220332404999 ], [ 117.314407536723053, 42.409220349070054 ], [ 117.314407514235143, 42.409215846126507 ], [ 117.314383208803022, 42.40921591278348 ], [ 117.314383231289185, 42.409220415727027 ], [ 117.31437715493071, 42.409220432390477 ], [ 117.314377177416461, 42.409224935334016 ], [ 117.314371101057532, 42.409224951997132 ], [ 117.314371190998855, 42.409242963771312 ], [ 117.314377267359504, 42.409242947108183 ], [ 117.314377379788439, 42.409265461825797 ] ] ] } },
{ "type": "Feature", "properties": { "crown_id": 5225, "tree_id": "5229", "top_h_m": 21.336, "H_95_Mean": 21.6001, "DBH": 21.3346, "Carbon_kg": 89.636225, "area_m2": 4.75 }, "geometry": { "type": "Polygon", "coordinates": [ [ [ 117.314419801883986, 42.409242830457238 ], [ 117.314450183687029, 42.409242747125482 ], [ 117.314450161196021, 42.409238244181985 ], [ 117.31444408483587, 42.409238260848973 ], [ 117.314444039854791, 42.409229254961957 ], [ 117.314437963495493, 42.409229271628625 ], [ 117.314437918515281, 42.409220265741588 ], [ 117.314419689439958, 42.409220315739631 ], [ 117.314419801883986, 42.409242830457238 ] ] ] } },
{ "type": "Feature", "properties": { "crown_id": 5233, "tree_id": "5237", "top_h_m": 21.22, "H_95_Mean": 22.1165, "DBH": 23.6182, "Carbon_kg": 111.573478, "area_m2": 6.75 }, "geometry": { "type": "Polygon", "coordinates": [ [ [ 117.314504915921987, 42.409251602994985 ], [ 117.314517068644818, 42.409251569654209 ], [ 117.314517046149035, 42.409247066710748 ], [ 117.31452312251001, 42.409247050039895 ], [ 117.314523100013787, 42.409242547096426 ], [ 117.314510947292717, 42.409242580437819 ], [ 117.314510879806747, 42.409229071607385 ], [ 117.314504803447505, 42.409229088277584 ], [ 117.314504758457744, 42.409220082390604 ], [ 117.314498682099369, 42.409220099060491 ], [ 117.314498659604908, 42.409215596116987 ], [ 117.314492583246974, 42.409215612786547 ], [ 117.314492650729008, 42.409229121617038 ], [ 117.314486574369738, 42.409229138286285 ], [ 117.314486619356899, 42.409238144173266 ], [ 117.314480542996776, 42.409238160842186 ], [ 117.314480587983098, 42.409247166729166 ], [ 117.31450489342707, 42.409247100051509 ], [ 117.314504915921987, 42.409251602994985 ] ] ] } },
{ "type": "Feature", "properties": { "crown_id": 5240, "tree_id": "5244", "top_h_m": 21.41, "H_95_Mean": 21.9437, "DBH": 31.5225, "Carbon_kg": 198.717398, "area_m2": 21.0 }, "geometry": { "type": "Polygon", "coordinates": [ [ [ 117.314450363615094, 42.409278770673382 ], [ 117.314456439979168, 42.409278754006039 ], [ 117.314456417487719, 42.40927425106257 ], [ 117.314474646578589, 42.409274201058636 ], [ 117.314474624085832, 42.409269698115168 ], [ 117.314492853175352, 42.409269648108328 ], [ 117.31449278569319, 42.409256139277936 ], [ 117.314498862055046, 42.409256122608355 ], [ 117.314498839560571, 42.409251619664893 ], [ 117.314474534114837, 42.409251686341264 ], [ 117.314474444143912, 42.409233674567297 ], [ 117.314480520503636, 42.409233657898696 ], [ 117.314480475517342, 42.409224652011702 ], [ 117.314486551876172, 42.409224635342774 ], [ 117.314486506889025, 42.409215629455773 ], [ 117.3144743541731, 42.409215662793279 ], [ 117.314474331680387, 42.409211159849768 ], [ 117.314468255322851, 42.409211176518035 ], [ 117.314468232830606, 42.409206673574509 ], [ 117.314443927402152, 42.409206740244336 ], [ 117.314444017364252, 42.409224752018439 ], [ 117.31445009372311, 42.409224735351458 ], [ 117.314450138705055, 42.409233741238481 ], [ 117.31445621506478, 42.409233724571166 ], [ 117.314456282539041, 42.409247233401672 ], [ 117.31443805345593, 42.409247283402657 ], [ 117.314438075946072, 42.409251786346168 ], [ 117.314444152307544, 42.409251769679493 ], [ 117.31444419728868, 42.40926077556648 ], [ 117.314450273651019, 42.409260758899471 ], [ 117.314450363615094, 42.409278770673382 ] ] ] } },
{ "type": "Feature", "properties": { "crown_id": 5241, "tree_id": "5245", "top_h_m": 21.545, "H_95_Mean": 21.9006, "DBH": 27.1176, "Carbon_kg": 146.547866, "area_m2": 11.75 }, "geometry": { "type": "Polygon", "coordinates": [ [ [ 117.314529198870972, 42.409247033368707 ], [ 117.314541351592894, 42.40924700002536 ], [ 117.314541329095377, 42.409242497081898 ], [ 117.31455955817691, 42.4092424470645 ], [ 117.314559490680494, 42.409228938234122 ], [ 117.314565567039679, 42.409228921561017 ], [ 117.314565499542027, 42.409215412730617 ], [ 117.314559423184136, 42.409215429403709 ], [ 117.314559400685354, 42.409210926460233 ], [ 117.31454724797041, 42.409210959805456 ], [ 117.314547270468339, 42.409215462748946 ], [ 117.314522965036673, 42.409215529435535 ], [ 117.31452298753284, 42.409220032379025 ], [ 117.314510834816119, 42.409220065720397 ], [ 117.314510857311419, 42.40922456866388 ], [ 117.31451693367022, 42.409224551993361 ], [ 117.314517001157498, 42.409238060823803 ], [ 117.3145291538777, 42.40923802748177 ], [ 117.314529198870972, 42.409247033368707 ] ] ] } }
]
}
