{
"type": "FeatureCollection",
"name": "tile_10_10",
"crs": { "type": "name", "properties": { "name": "urn:ogc:def:crs:OGC:1.3:CRS84" } },
"features": [
{ "type": "Feature", "properties": { "crown_id": 3896, "tree_id": "3899", "top_h_m": 18.144, "H_95_Mean": 18.246, "DBH": 31.7232, "Carbon_kg": 180.463909, "area_m2": 30.25 }, "geometry": { "type": "Polygon", "coordinates": [ [ [ 117.312168106430065, 42.409780338634178 ], [ 117.312180259257673, 42.409780305540799 ], [ 117.312180192270532, 42.40976679670861 ], [ 117.312198421507986, 42.409766747066151 ], [ 117.312198399177646, 42.409762244122085 ], [ 117.312192322765583, 42.409762260669901 ], [ 117.312192255775898, 42.409748751837689 ], [ 117.31219833218664, 42.409748735289888 ], [ 117.312198198204811, 42.409721717625402 ], [ 117.31219212179667, 42.409721734173182 ], [ 117.312192099466813, 42.409717231229081 ], [ 117.312161717428225, 42.409717313963149 ], [ 117.312161739755922, 42.409721816907265 ], [ 117.312155663347752, 42.409721833453105 ], [ 117.312155685674995, 42.40972633639722 ], [ 117.312137456449165, 42.409726386032851 ], [ 117.31213743412323, 42.409721883088721 ], [ 117.31211920489865, 42.409721932721446 ], [ 117.312119316521915, 42.40974444744203 ], [ 117.31213146934266, 42.409744414353845 ], [ 117.312131491668197, 42.409748917297946 ], [ 117.312137568078981, 42.409748900753378 ], [ 117.312137590404973, 42.409753403697472 ], [ 117.312143666816198, 42.40975338715257 ], [ 117.312143689142616, 42.409757890096664 ], [ 117.312149765554281, 42.409757873551435 ], [ 117.312149832534843, 42.409771382383674 ], [ 117.312155908947801, 42.409771365838125 ], [ 117.312155931275115, 42.409775868782198 ], [ 117.312168084101884, 42.409775835690112 ], [ 117.312168106430065, 42.409780338634178 ] ] ] } },
{ "type": "Feature", "properties": { "crown_id": 3906, "tree_id": "3909", "top_h_m": 17.35, "H_95_Mean": 18.805, "DBH": 22.0744, "Carbon_kg": 88.455774, "area_m2": 7.0 }, "geometry": { "type": "Polygon", "coordinates": [ [ [ 117.312338156653325, 42.409761863433673 ], [ 117.312344233065232, 42.409761846878141 ], [ 117.312344166042962, 42.409748338046121 ], [ 117.312332013221706, 42.409748371156851 ], [ 117.31233199088183, 42.40974386821285 ], [ 117.312325914471614, 42.409743884767721 ], [ 117.312325869792758, 42.409734878879682 ], [ 117.312301564155391, 42.409734945095956 ], [ 117.312301675843941, 42.409757459816113 ], [ 117.312338134312981, 42.409757360489671 ], [ 117.312338156653325, 42.409761863433673 ] ] ] } },
{ "type": "Feature", "properties": { "crown_id": 3938, "tree_id": "3941", "top_h_m": 19.326, "H_95_Mean": 19.5315, "DBH": 26.9939, "Carbon_kg": 135.696884, "area_m2": 14.25 }, "geometry": { "type": "Polygon", "coordinates": [ [ [ 117.312240800061645, 42.409735110614115 ], [ 117.312295487746042, 42.409734961649221 ], [ 117.312295420734273, 42.409721452817081 ], [ 117.312277191510105, 42.409721502474923 ], [ 117.312277169174166, 42.409716999530858 ], [ 117.312271092766522, 42.409717016082823 ], [ 117.312271070431024, 42.409712513138757 ], [ 117.31226499402382, 42.409712529690403 ], [ 117.312264949353718, 42.40970352380225 ], [ 117.312234567321966, 42.40970360655561 ], [ 117.312234611987705, 42.409712612443784 ], [ 117.31221638276601, 42.409712662091934 ], [ 117.312216405097601, 42.409717165036035 ], [ 117.312222481505287, 42.409717148486962 ], [ 117.312222503837305, 42.409721651431042 ], [ 117.312228580245389, 42.409721634881656 ], [ 117.312228602577875, 42.409726137825729 ], [ 117.312240755394953, 42.409726104725976 ], [ 117.312240800061645, 42.409735110614115 ] ] ] } },
{ "type": "Feature", "properties": { "crown_id": 3997, "tree_id": "4000", "top_h_m": 18.406, "H_95_Mean": 19.1239, "DBH": 31.6561, "Carbon_kg": 184.759995, "area_m2": 27.5 }, "geometry": { "type": "MultiPolygon", "coordinates": [ [ [ [ 117.31231369463552, 42.409730409044414 ], [ 117.312319771044429, 42.409730392490189 ], [ 117.312319748705434, 42.409725889546152 ], [ 117.312325825113888, 42.409725872991608 ], [ 117.312325847453309, 42.409730375935645 ], [ 117.312331923862217, 42.409730359380767 ], [ 117.312331901522356, 42.409725856436737 ], [ 117.31233797793081, 42.409725839881546 ], [ 117.31233793325022, 42.409716833993478 ], [ 117.312362238880496, 42.409716767769503 ], [ 117.312362261222532, 42.409721270713533 ], [ 117.3123804904465, 42.409721221042176 ], [ 117.312380423416528, 42.409707712210114 ], [ 117.312392576229868, 42.409707679094268 ], [ 117.312392531541519, 42.409698673206215 ], [ 117.312386455135723, 42.409698689764284 ], [ 117.312386432791968, 42.409694186820261 ], [ 117.312374279981228, 42.409694219935439 ], [ 117.312374257638368, 42.409689716991402 ], [ 117.312368181233424, 42.409689733548504 ], [ 117.312368158891005, 42.409685230604452 ], [ 117.31235600608197, 42.409685263717698 ], [ 117.312355983740431, 42.409680760773632 ], [ 117.31233775452813, 42.409680810441067 ], [ 117.312337687507437, 42.409667301608856 ], [ 117.312325534701813, 42.409667334718847 ], [ 117.312325557041163, 42.409671837662934 ], [ 117.312319480637939, 42.40967185421745 ], [ 117.312319458299015, 42.40966735127337 ], [ 117.312313381896189, 42.409667367827559 ], [ 117.312313404234672, 42.409671870771639 ], [ 117.312307327831419, 42.409671887325523 ], [ 117.312307350169476, 42.409676390269595 ], [ 117.312301273765783, 42.409676406823159 ], [ 117.312301296103399, 42.409680909767232 ], [ 117.312307372507547, 42.409680893213682 ], [ 117.312307417183675, 42.409689899101828 ], [ 117.31231349358869, 42.409689882547944 ], [ 117.312313627619858, 42.409716900212288 ], [ 117.312301474804642, 42.409716933319764 ], [ 117.312301497142315, 42.40972143626383 ], [ 117.312313649958398, 42.40972140315634 ], [ 117.31231369463552, 42.409730409044414 ] ], [ [ 117.312319637010546, 42.409703374825924 ], [ 117.312319569993676, 42.409689865993748 ], [ 117.31233779920862, 42.409689816329191 ], [ 117.312337866229399, 42.409703325161345 ], [ 117.312319637010546, 42.409703374825924 ] ] ], [ [ [ 117.312319458299015, 42.40966735127337 ], [ 117.312325534701813, 42.409667334718847 ], [ 117.312325512362463, 42.40966283177476 ], [ 117.312319435960092, 42.409662848329276 ], [ 117.312319458299015, 42.40966735127337 ] ] ], [ [ [ 117.312319435960092, 42.409662848329276 ], [ 117.312319413621182, 42.409658345385196 ], [ 117.312313337219223, 42.409658361939371 ], [ 117.312313359557706, 42.409662864883465 ], [ 117.312319435960092, 42.409662848329276 ] ] ] ] } },
{ "type": "Feature", "properties": { "crown_id": 4018, "tree_id": "4021", "top_h_m": 19.165, "H_95_Mean": 19.1508, "DBH": 23.9247, "Carbon_kg": 105.163113, "area_m2": 9.25 }, "geometry": { "type": "Polygon", "coordinates": [ [ [ 117.312283245581796, 42.409716982978566 ], [ 117.312289321989425, 42.409716966425954 ], [ 117.312289277315813, 42.409707960537837 ], [ 117.312295353722561, 42.409707943984913 ], [ 117.312295376059794, 42.409712446928978 ], [ 117.312307528874157, 42.409712413822135 ], [ 117.312307439521788, 42.409694402045893 ], [ 117.312301363116333, 42.409694418599464 ], [ 117.312301318441044, 42.409685412711319 ], [ 117.31229524203647, 42.409685429264549 ], [ 117.31229519736209, 42.409676423376382 ], [ 117.312289120958383, 42.409676439929292 ], [ 117.312289143295132, 42.409680942873386 ], [ 117.312276990486836, 42.40968097597824 ], [ 117.312277012822719, 42.409685478922334 ], [ 117.312270936418145, 42.409685495474278 ], [ 117.312271048095539, 42.409708010194684 ], [ 117.312277124502302, 42.409707993642719 ], [ 117.312277146838227, 42.409712496586792 ], [ 117.31228322324543, 42.409712480034507 ], [ 117.312283245581796, 42.409716982978566 ] ] ] } },
{ "type": "Feature", "properties": { "crown_id": 4097, "tree_id": "4100", "top_h_m": 19.44, "H_95_Mean": 18.825, "DBH": 41.3682, "Carbon_kg": 313.891816, "area_m2": 80.0 }, "geometry": { "type": "MultiPolygon", "coordinates": [ [ [ [ 117.312124879456277, 42.409640863182702 ], [ 117.312124901781274, 42.409645366126895 ], [ 117.312130978182068, 42.409645349582703 ], [ 117.312130955856659, 42.409640846638517 ], [ 117.312124879456277, 42.409640863182702 ] ] ], [ [ [ 117.312124879456277, 42.409640863182702 ], [ 117.312124857131295, 42.409636360238515 ], [ 117.312130933531222, 42.409636343694331 ], [ 117.312130955856659, 42.409640846638517 ], [ 117.312137032257013, 42.409640830093998 ], [ 117.312137054582877, 42.409645333038178 ], [ 117.312130978182068, 42.409645349582703 ], [ 117.312131089809256, 42.409667864303564 ], [ 117.312118937003305, 42.409667897391664 ], [ 117.312119003977074, 42.409681406224159 ], [ 117.312131156785625, 42.409681373136046 ], [ 117.31213117911112, 42.409685876080204 ], [ 117.312137255515822, 42.409685859535657 ], [ 117.312137322493541, 42.409699368368081 ], [ 117.312131246087546, 42.409699384912635 ], [ 117.312131268413026, 42.409703887856772 ], [ 117.31213734481949, 42.409703871312225 ], [ 117.312137367145397, 42.409708374256354 ], [ 117.312131290738535, 42.409708390800908 ], [ 117.312131335389523, 42.40971739668916 ], [ 117.312143488205024, 42.409717363599725 ], [ 117.312143510531399, 42.409721866543848 ], [ 117.312149586939569, 42.409721849998633 ], [ 117.312149564612753, 42.409717347054517 ], [ 117.312155641020496, 42.40971733050899 ], [ 117.312155618693254, 42.409712827564881 ], [ 117.312204229951504, 42.4097126951891 ], [ 117.31220420762078, 42.409708192244999 ], [ 117.3122102840276, 42.409708175696586 ], [ 117.312210239365328, 42.409699169808377 ], [ 117.312216315771266, 42.409699153259638 ], [ 117.312216338102843, 42.409703656203753 ], [ 117.312222414509208, 42.409703639654694 ], [ 117.312222347513213, 42.409690130822383 ], [ 117.312216271108127, 42.409690147371428 ], [ 117.312216226445031, 42.409681141483198 ], [ 117.312210150040826, 42.409681158031923 ], [ 117.312210105378583, 42.409672152143678 ], [ 117.312191876168541, 42.409672201787906 ], [ 117.312191742189825, 42.409645184123036 ], [ 117.312197818590576, 42.409645167575285 ], [ 117.312197796260378, 42.409640664631141 ], [ 117.312203872660689, 42.409640648083091 ], [ 117.312203850330064, 42.409636145138926 ], [ 117.312209926729906, 42.409636128590542 ], [ 117.31220985973674, 42.409622619758075 ], [ 117.312215936135317, 42.409622603209385 ], [ 117.312215891472363, 42.409613597321041 ], [ 117.31219766227926, 42.409613646966136 ], [ 117.31219763994909, 42.40960914402195 ], [ 117.312173334359983, 42.409609210210888 ], [ 117.312173312031575, 42.409604707266695 ], [ 117.312167235634703, 42.409604723813125 ], [ 117.312167146322821, 42.409586712036294 ], [ 117.312154993532559, 42.409586745128159 ], [ 117.312155015859645, 42.409591248072374 ], [ 117.31214893946408, 42.409591264617838 ], [ 117.312148961790754, 42.409595767562045 ], [ 117.312130732602711, 42.409595817196475 ], [ 117.312130754928091, 42.409600320140704 ], [ 117.312124678531632, 42.409600336684875 ], [ 117.312124723181526, 42.409609342573297 ], [ 117.312130799578838, 42.409609326029127 ], [ 117.312130821904233, 42.409613828973342 ], [ 117.312118669108685, 42.409613862061384 ], [ 117.312118758406811, 42.409631873838194 ], [ 117.312112682007324, 42.409631890381739 ], [ 117.312112704331426, 42.409636393325933 ], [ 117.312118780731353, 42.409636376782395 ], [ 117.312118803055924, 42.409640879726574 ], [ 117.312124879456277, 42.409640863182702 ] ], [ [ 117.312173446002177, 42.409631724931806 ], [ 117.312173379016855, 42.409618216099268 ], [ 117.312191608211307, 42.409618166458031 ], [ 117.312191675200538, 42.409631675290555 ], [ 117.312173446002177, 42.409631724931806 ] ], [ [ 117.312143443552273, 42.409708357711487 ], [ 117.312143421225926, 42.409703854767344 ], [ 117.312149497632362, 42.409703838222157 ], [ 117.312149519959149, 42.409708341166279 ], [ 117.312143443552273, 42.409708357711487 ] ] ], [ [ [ 117.312222414509208, 42.409703639654694 ], [ 117.312222436841239, 42.409708142598781 ], [ 117.31222851324803, 42.409708126049402 ], [ 117.312228490915601, 42.409703623105308 ], [ 117.312222414509208, 42.409703639654694 ] ] ] ] } },
{ "type": "Feature", "properties": { "crown_id": 4098, "tree_id": "4101", "top_h_m": 19.666, "H_95_Mean": 20.0361, "DBH": 25.2561, "Carbon_kg": 120.469049, "area_m2": 10.5 }, "geometry": { "type": "Polygon", "coordinates": [ [ [ 117.312362060144494, 42.409680744217177 ], [ 117.312368136548599, 42.409680727660401 ], [ 117.31236809186376, 42.409671721772284 ], [ 117.31238024467018, 42.409671688657774 ], [ 117.312380199983636, 42.409662682769671 ], [ 117.312361970776607, 42.409662732440928 ], [ 117.312361881408833, 42.409644720664616 ], [ 117.31235580500821, 42.409644737221058 ], [ 117.3123557826667, 42.409640234276971 ], [ 117.312349706266531, 42.409640250833071 ], [ 117.312349683925461, 42.409635747888991 ], [ 117.312337531125976, 42.409635781000233 ], [ 117.31233759814657, 42.409649289832515 ], [ 117.312331521745506, 42.409649306387671 ], [ 117.312331544085268, 42.409653809331765 ], [ 117.312325467683763, 42.4096538258866 ], [ 117.312325490023113, 42.409658328830673 ], [ 117.312331566425044, 42.409658312275845 ], [ 117.312331588764835, 42.409662815219932 ], [ 117.312343741569563, 42.409662782109301 ], [ 117.312343808591564, 42.409676290941519 ], [ 117.312362037802529, 42.409676241273125 ], [ 117.312362060144494, 42.409680744217177 ] ] ] } },
{ "type": "Feature", "properties": { "crown_id": 4144, "tree_id": "4147", "top_h_m": 18.175, "H_95_Mean": 18.54, "DBH": 19.5665, "Carbon_kg": 68.788816, "area_m2": 4.5 }, "geometry": { "type": "Polygon", "coordinates": [ [ [ 117.31219793024168, 42.409667682296018 ], [ 117.312210083047503, 42.409667649199562 ], [ 117.312210060716396, 42.409663146255419 ], [ 117.312216137118867, 42.409663129706701 ], [ 117.312216114787347, 42.409658626762571 ], [ 117.31223434399341, 42.409658577114492 ], [ 117.312234321660597, 42.409654074170376 ], [ 117.312222168857417, 42.409654107269404 ], [ 117.312222146525471, 42.40964960432526 ], [ 117.312216070124293, 42.409649620874291 ], [ 117.312216025461296, 42.40964061498601 ], [ 117.312209949060986, 42.409640631534707 ], [ 117.312209971392051, 42.409645134478851 ], [ 117.312203894991328, 42.409645151027227 ], [ 117.312203917321952, 42.409649653971393 ], [ 117.312197840920788, 42.409649670519443 ], [ 117.31219793024168, 42.409667682296018 ] ] ] } },
{ "type": "Feature", "properties": { "crown_id": 4190, "tree_id": "4193", "top_h_m": 19.785, "H_95_Mean": 18.9838, "DBH": 36.0158, "Carbon_kg": 238.593457, "area_m2": 46.0 }, "geometry": { "type": "Polygon", "coordinates": [ [ [ 117.312228468583143, 42.409699120161214 ], [ 117.31226492701866, 42.409699020858163 ], [ 117.312264837678512, 42.409681009081801 ], [ 117.312270914082688, 42.409680992530184 ], [ 117.312270869411776, 42.409671986641989 ], [ 117.312276945815057, 42.409671970090052 ], [ 117.31227696815094, 42.409676473034153 ], [ 117.312283044554661, 42.409676456481876 ], [ 117.312283022218338, 42.409671953537789 ], [ 117.312289098621619, 42.409671936985205 ], [ 117.31228907628487, 42.409667434041104 ], [ 117.312295152687696, 42.409667417488201 ], [ 117.31229513035052, 42.4096629145441 ], [ 117.31230120675292, 42.409662897990877 ], [ 117.312301184415304, 42.409658395046783 ], [ 117.312282955209398, 42.409658444705485 ], [ 117.3122828882005, 42.409644935873146 ], [ 117.312276811799833, 42.409644952425388 ], [ 117.312276610777332, 42.409604425928165 ], [ 117.312258381587029, 42.409604475582903 ], [ 117.312258336918021, 42.409595469694565 ], [ 117.312240107730261, 42.409595519346396 ], [ 117.312240174729865, 42.409609028178913 ], [ 117.31223409833261, 42.409609044728882 ], [ 117.312234120665394, 42.409613547673054 ], [ 117.312221967870045, 42.409613580772039 ], [ 117.312222034865783, 42.409627089604513 ], [ 117.312215958466808, 42.409627106153543 ], [ 117.312216003129777, 42.409636112041852 ], [ 117.312222079529633, 42.409636095492829 ], [ 117.312222124193525, 42.409645101381116 ], [ 117.312228200594234, 42.409645084831773 ], [ 117.31222822292662, 42.409649587775924 ], [ 117.312240375728905, 42.409649554676257 ], [ 117.312240442728694, 42.409663063508617 ], [ 117.312222213521338, 42.409663113157663 ], [ 117.312222235853312, 42.409667616101785 ], [ 117.312216159450401, 42.409667632650837 ], [ 117.312216204113483, 42.409676638539082 ], [ 117.312222280517247, 42.409676621990037 ], [ 117.312222325181224, 42.409685627878268 ], [ 117.312228401585855, 42.409685611328904 ], [ 117.312228468583143, 42.409699120161214 ] ] ] } },
{ "type": "Feature", "properties": { "crown_id": 4290, "tree_id": "4293", "top_h_m": 17.71, "H_95_Mean": 17.1874, "DBH": 26.9682, "Carbon_kg": 125.572649, "area_m2": 18.0 }, "geometry": { "type": "Polygon", "coordinates": [ [ [ 117.312203716346374, 42.409609127473914 ], [ 117.312228021935383, 42.40960906127853 ], [ 117.312227999603053, 42.409604558334358 ], [ 117.312234075999854, 42.409604541784717 ], [ 117.312234009001571, 42.409591032952186 ], [ 117.312240085397065, 42.409591016402231 ], [ 117.312240063063896, 42.409586513458045 ], [ 117.312227910273762, 42.409586546557648 ], [ 117.312227843276858, 42.409573037725067 ], [ 117.31222176688307, 42.409573054274368 ], [ 117.312221789214931, 42.409577557218576 ], [ 117.312215712820731, 42.409577573767557 ], [ 117.312215690489296, 42.409573070823363 ], [ 117.312209614095536, 42.409573087372017 ], [ 117.312209591764528, 42.409568584427809 ], [ 117.312191362584471, 42.40956863407186 ], [ 117.312191384914158, 42.409573137016075 ], [ 117.312179232126539, 42.409573170110505 ], [ 117.312179254455387, 42.409577673054713 ], [ 117.312173178061144, 42.409577689601441 ], [ 117.312173289703139, 42.409600204322487 ], [ 117.312179366099571, 42.409600187775752 ], [ 117.312179388428419, 42.409604690719945 ], [ 117.312203694015778, 42.409604624529734 ], [ 117.312203716346374, 42.409609127473914 ] ] ] } },
{ "type": "Feature", "properties": { "crown_id": 4362, "tree_id": "4365", "top_h_m": 20.578, "H_95_Mean": 20.403, "DBH": 41.7948, "Carbon_kg": 336.075722, "area_m2": 71.75 }, "geometry": { "type": "Polygon", "coordinates": [ [ [ 117.312289009274622, 42.409653925208801 ], [ 117.312319391282259, 42.409653842441095 ], [ 117.312319368943363, 42.409649339496994 ], [ 117.312325445344442, 42.409649322942492 ], [ 117.312325423005078, 42.409644819998398 ], [ 117.312331499405715, 42.409644803443577 ], [ 117.312331432386443, 42.409631294611273 ], [ 117.312337508785788, 42.409631278056132 ], [ 117.312337464105426, 42.409622272167908 ], [ 117.312355693300745, 42.40962222250058 ], [ 117.312355670959292, 42.409617719556479 ], [ 117.312367823755267, 42.409617686443319 ], [ 117.312367756728278, 42.409604177610994 ], [ 117.312373833124951, 42.409604161053942 ], [ 117.312373810782191, 42.409599658109826 ], [ 117.312379887178452, 42.409599641552454 ], [ 117.31237986483525, 42.409595138608331 ], [ 117.312373788439459, 42.409595155165704 ], [ 117.312373654383023, 42.409568137500941 ], [ 117.312367577989818, 42.409568154057979 ], [ 117.31236755564754, 42.409563651113828 ], [ 117.312355402861968, 42.409563684226939 ], [ 117.312355380520543, 42.409559181282766 ], [ 117.312337151343471, 42.409559230949995 ], [ 117.312337106663264, 42.409550225061672 ], [ 117.312331030271764, 42.409550241616763 ], [ 117.312331007932116, 42.409545738672591 ], [ 117.312324931541042, 42.409545755227363 ], [ 117.312324976219486, 42.4095547611157 ], [ 117.312318899827531, 42.409554777670145 ], [ 117.312318922166327, 42.409559280614317 ], [ 117.312294616596745, 42.409559346828907 ], [ 117.312294594259683, 42.409554843884727 ], [ 117.312288517867728, 42.409554860437567 ], [ 117.312288540204335, 42.409559363381753 ], [ 117.31228246381194, 42.409559379934265 ], [ 117.312282441475745, 42.409554876990086 ], [ 117.312276365083761, 42.409554893542278 ], [ 117.312276409755256, 42.409563899430658 ], [ 117.312264256969556, 42.409563932534084 ], [ 117.312264279304458, 42.409568435478278 ], [ 117.312258202911153, 42.409568452029504 ], [ 117.312258225245614, 42.409572954973697 ], [ 117.312252148851869, 42.409572971524611 ], [ 117.312252215854002, 42.409586480357163 ], [ 117.312246139458935, 42.409586496907757 ], [ 117.312246161792558, 42.409590999851943 ], [ 117.312264390978996, 42.40959095019916 ], [ 117.312264435648871, 42.409599956087483 ], [ 117.312282664837852, 42.409599906431794 ], [ 117.312282865864233, 42.409640432929024 ], [ 117.312288942264459, 42.409640416376469 ], [ 117.312289009274622, 42.409653925208801 ] ], [ [ 117.312300827014226, 42.409586347940746 ], [ 117.312300760001676, 42.409572839108257 ], [ 117.312318989182742, 42.409572789446806 ], [ 117.312319056199215, 42.409586298279272 ], [ 117.312300827014226, 42.409586347940746 ] ] ] } }
]
}
