{
"type": "FeatureCollection",
"name": "tile_4_10",
"crs": { "type": "name", "properties": { "name": "urn:ogc:def:crs:OGC:1.3:CRS84" } },
"features": [
{ "type": "Feature", "properties": { "crown_id": 1249, "tree_id": "1250", "top_h_m": 21.64, "H_95_Mean": 21.4892, "DBH": 40.7732, "Carbon_kg": 329.684942, "area_m2": 59.25 }, "geometry": { "type": "Polygon", "coordinates": [ [ [ 117.312185462066296, 42.410829491408975 ], [ 117.312191538581359, 42.410829474861202 ], [ 117.312191516250664, 42.410824971917968 ], [ 117.312215822309113, 42.410824905723658 ], [ 117.312215777644312, 42.410815899837218 ], [ 117.312227930671753, 42.410815866738133 ], [ 117.312227908338485, 42.410811363794927 ], [ 117.312221831825212, 42.410811380344619 ], [ 117.31222178715953, 42.410802374458164 ], [ 117.312227863671978, 42.410802357908466 ], [ 117.312227819005457, 42.410793352022004 ], [ 117.312209589470783, 42.410793401670105 ], [ 117.31220954480689, 42.410784395783601 ], [ 117.312203468296204, 42.410784412332326 ], [ 117.312203423633207, 42.410775406445815 ], [ 117.312185194103705, 42.410775456090015 ], [ 117.312185127113153, 42.410761947260198 ], [ 117.312203356638761, 42.41076189761602 ], [ 117.312203311975836, 42.410752891729459 ], [ 117.31219723546819, 42.410752908277843 ], [ 117.312197190806117, 42.410743902391275 ], [ 117.312154655258439, 42.410744018220853 ], [ 117.312154632930458, 42.410739515277541 ], [ 117.312148556424049, 42.410739531823332 ], [ 117.312148534096522, 42.410735028880026 ], [ 117.312136381084571, 42.410735061970627 ], [ 117.312136425737904, 42.410744067857266 ], [ 117.312124272724205, 42.410744100946602 ], [ 117.312124295050012, 42.410748603889921 ], [ 117.312106065528113, 42.410748653521509 ], [ 117.312106087852612, 42.410753156464835 ], [ 117.312100011344882, 42.410753173008061 ], [ 117.312100033668955, 42.41075767595138 ], [ 117.312118263193483, 42.410757626320731 ], [ 117.312118307844244, 42.410766632207356 ], [ 117.312124384353268, 42.41076661566315 ], [ 117.312124451330789, 42.410780124493037 ], [ 117.312118374820471, 42.41078014103725 ], [ 117.312118419471275, 42.410789146923818 ], [ 117.312124495982502, 42.410789130379605 ], [ 117.312124562960065, 42.410802639209443 ], [ 117.312118486447574, 42.410802655753656 ], [ 117.312118508773011, 42.410807158696933 ], [ 117.312130661798889, 42.410807125608173 ], [ 117.312130684125208, 42.410811628551443 ], [ 117.312148913665297, 42.410811578915869 ], [ 117.312148935992923, 42.410816081859132 ], [ 117.312161089020492, 42.410816048767138 ], [ 117.312161111348985, 42.41082055171038 ], [ 117.312167187863196, 42.410820535163893 ], [ 117.312167210192115, 42.410825038107127 ], [ 117.312185439736055, 42.410824988465741 ], [ 117.312185462066296, 42.410829491408975 ] ], [ [ 117.312148891337671, 42.41080707597262 ], [ 117.312148869010059, 42.410802573029351 ], [ 117.312154945522551, 42.410802556483532 ], [ 117.312154967850603, 42.410807059426787 ], [ 117.312148891337671, 42.41080707597262 ] ], [ [ 117.312130460862306, 42.410766599118631 ], [ 117.312130393883535, 42.410753090288708 ], [ 117.312148623406685, 42.410753040653248 ], [ 117.312148690389364, 42.410766549483142 ], [ 117.312130460862306, 42.410766599118631 ] ] ] } },
{ "type": "Feature", "properties": { "crown_id": 1271, "tree_id": "1272", "top_h_m": 19.846, "H_95_Mean": 20.6077, "DBH": 22.1591, "Carbon_kg": 94.100637, "area_m2": 6.0 }, "geometry": { "type": "Polygon", "coordinates": [ [ [ 117.312233917850691, 42.410797838415228 ], [ 117.31223999436267, 42.41079782186489 ], [ 117.31223997202855, 42.410793318921662 ], [ 117.312270354586204, 42.410793236165176 ], [ 117.312270265241082, 42.410775224392275 ], [ 117.312239882692126, 42.410775307148718 ], [ 117.312239905026232, 42.41077981009196 ], [ 117.312233828515971, 42.410779826642283 ], [ 117.312233917850691, 42.410797838415228 ] ] ] } },
{ "type": "Feature", "properties": { "crown_id": 1272, "tree_id": "1273", "top_h_m": 20.186, "H_95_Mean": 21.0647, "DBH": 35.1373, "Carbon_kg": 241.412945, "area_m2": 34.5 }, "geometry": { "type": "Polygon", "coordinates": [ [ [ 117.312300893513097, 42.410824674002974 ], [ 117.31230697002762, 42.410824657449076 ], [ 117.312306947688668, 42.410820154505892 ], [ 117.312313024202766, 42.410820137951688 ], [ 117.312313001863416, 42.410815635008497 ], [ 117.312325154890715, 42.410815601899124 ], [ 117.312325110210253, 42.410806596012748 ], [ 117.312331186723029, 42.410806579457585 ], [ 117.312331209063672, 42.410811082400762 ], [ 117.312337285576874, 42.410811065845273 ], [ 117.312337218553637, 42.410797557015734 ], [ 117.312318989017911, 42.410797606681236 ], [ 117.31231892199861, 42.410784097851632 ], [ 117.312324998509226, 42.410784081296804 ], [ 117.312324909148515, 42.410766069523973 ], [ 117.312318832639633, 42.41076608607878 ], [ 117.312318743280727, 42.410748074305886 ], [ 117.312306590266459, 42.410748107414555 ], [ 117.312306545588783, 42.410739101528058 ], [ 117.312294392576234, 42.410739134635442 ], [ 117.31229441491422, 42.41074363757869 ], [ 117.31228833840747, 42.410743654131892 ], [ 117.312288405420134, 42.410757162961609 ], [ 117.31228232891209, 42.410757179514491 ], [ 117.312282373586342, 42.410766185400981 ], [ 117.312276297077446, 42.41076620195355 ], [ 117.312276453434421, 42.410797722556119 ], [ 117.312252147386602, 42.410797788763261 ], [ 117.312252169721603, 42.410802291706474 ], [ 117.312246093209211, 42.410802308257466 ], [ 117.312246115543786, 42.410806811200679 ], [ 117.312258268569451, 42.41080677809839 ], [ 117.312258313240321, 42.410815783984802 ], [ 117.31228261929509, 42.41081571777633 ], [ 117.312282641632279, 42.410820220719522 ], [ 117.312300871174585, 42.410820171059797 ], [ 117.312300893513097, 42.410824674002974 ] ] ] } },
{ "type": "Feature", "properties": { "crown_id": 1273, "tree_id": "1274", "top_h_m": 19.97, "H_95_Mean": 20.3545, "DBH": 36.8063, "Carbon_kg": 259.758988, "area_m2": 44.0 }, "geometry": { "type": "Polygon", "coordinates": [ [ [ 117.312379888201576, 42.410824458777235 ], [ 117.312385964716015, 42.410824442219152 ], [ 117.312385942371449, 42.410819939276017 ], [ 117.312398095399487, 42.410819906158885 ], [ 117.312398073054027, 42.410815403215743 ], [ 117.312404149567612, 42.410815386656708 ], [ 117.312404127221754, 42.410810883713559 ], [ 117.312410203734871, 42.410810867154197 ], [ 117.312410226081198, 42.410815370097346 ], [ 117.312416302594755, 42.410815353537657 ], [ 117.312416324941509, 42.410819856480799 ], [ 117.312410248427497, 42.410819873040481 ], [ 117.312410270773825, 42.410824375983609 ], [ 117.312422423802687, 42.410824342863904 ], [ 117.312422401455507, 42.410819839920784 ], [ 117.31242847796949, 42.410819823360448 ], [ 117.31242845562187, 42.410815320417314 ], [ 117.312434532135441, 42.410815303856673 ], [ 117.31243450978738, 42.410810800913538 ], [ 117.312428433274277, 42.410810817474193 ], [ 117.312428410926657, 42.410806314531051 ], [ 117.312440563952023, 42.410806281409428 ], [ 117.312440541603536, 42.410801778466293 ], [ 117.3124344650913, 42.410801795027268 ], [ 117.312434353351193, 42.410779280311516 ], [ 117.312428276841118, 42.410779296872143 ], [ 117.312428209798412, 42.410765788042646 ], [ 117.312416056780862, 42.410765821162926 ], [ 117.31241603443415, 42.410761318219748 ], [ 117.312397804909097, 42.410761367897749 ], [ 117.312397782563721, 42.410756864954557 ], [ 117.312385629547848, 42.410756898071597 ], [ 117.312385651892342, 42.41076140101481 ], [ 117.312373498875601, 42.410761434130563 ], [ 117.312373521219229, 42.410765937073762 ], [ 117.312361368201579, 42.410765970188244 ], [ 117.312361390544353, 42.410770473131436 ], [ 117.312331007997955, 42.41077055591203 ], [ 117.312331097360456, 42.410788567684833 ], [ 117.312325020849414, 42.410788584239995 ], [ 117.312325043189631, 42.410793087183194 ], [ 117.312343272723993, 42.41079303751674 ], [ 117.312343339748537, 42.410806546346286 ], [ 117.312349416261313, 42.410806529790136 ], [ 117.312349460945228, 42.410815535676491 ], [ 117.31237376699967, 42.410815469448693 ], [ 117.312373789343397, 42.410819972391849 ], [ 117.312379865857409, 42.410819955834093 ], [ 117.312379888201576, 42.410824458777235 ] ], [ [ 117.312361479915552, 42.410788484904202 ], [ 117.312361412887142, 42.410774976074649 ], [ 117.312379642416218, 42.410774926402418 ], [ 117.312379709448521, 42.41078843523195 ], [ 117.312361479915552, 42.410788484904202 ] ] ] } },
{ "type": "Feature", "properties": { "crown_id": 1327, "tree_id": "1328", "top_h_m": 23.16, "H_95_Mean": 23.2755, "DBH": 25.4771, "Carbon_kg": 133.966794, "area_m2": 8.25 }, "geometry": { "type": "Polygon", "coordinates": [ [ [ 117.312215643649978, 42.410788882177805 ], [ 117.312227796672218, 42.410788849078763 ], [ 117.3122277296725, 42.410775340249039 ], [ 117.31223380618232, 42.410775323699028 ], [ 117.312233694514063, 42.410752808982743 ], [ 117.312221541498786, 42.410752842082402 ], [ 117.31222149683326, 42.410743836195856 ], [ 117.31220326731291, 42.410743885842912 ], [ 117.312203289644373, 42.410748388786182 ], [ 117.312209366151606, 42.410748372237492 ], [ 117.312209455479206, 42.410766384010579 ], [ 117.312203378970253, 42.410766400559282 ], [ 117.312203401301716, 42.410770903502545 ], [ 117.312209477811123, 42.410770886953841 ], [ 117.312209522474973, 42.41077989284036 ], [ 117.312215598985219, 42.410779876291329 ], [ 117.312215643649978, 42.410788882177805 ] ] ] } },
{ "type": "Feature", "properties": { "crown_id": 1348, "tree_id": "1349", "top_h_m": 21.615, "H_95_Mean": 23.951, "DBH": 30.1216, "Carbon_kg": 190.953879, "area_m2": 15.0 }, "geometry": { "type": "Polygon", "coordinates": [ [ [ 117.312239860358034, 42.410770804205463 ], [ 117.312270242904816, 42.41077072144904 ], [ 117.312270198232298, 42.410761715562565 ], [ 117.312276274740768, 42.410761699010315 ], [ 117.312276230067383, 42.410752693123825 ], [ 117.312282306574986, 42.410752676571263 ], [ 117.312282261900762, 42.410743670684759 ], [ 117.31227618539404, 42.410743687237321 ], [ 117.312276140720712, 42.41073468135081 ], [ 117.312263987708988, 42.410734714454946 ], [ 117.312263943037408, 42.410725708568414 ], [ 117.312251790027389, 42.410725741671243 ], [ 117.312251812362319, 42.410730244614527 ], [ 117.312239659351405, 42.410730277716084 ], [ 117.312239681685469, 42.410734780659361 ], [ 117.31222752867366, 42.410734813759639 ], [ 117.312227595673249, 42.410748322589463 ], [ 117.312239748687645, 42.410748289489177 ], [ 117.312239860358034, 42.410770804205463 ] ] ] } },
{ "type": "Feature", "properties": { "crown_id": 1421, "tree_id": "1422", "top_h_m": 22.827, "H_95_Mean": 22.8267, "DBH": 20.6042, "Carbon_kg": 86.333488, "area_m2": 3.75 }, "geometry": { "type": "Polygon", "coordinates": [ [ [ 117.312172795461805, 42.410725956808321 ], [ 117.312178871966893, 42.410725940261244 ], [ 117.312178782648161, 42.410707928487973 ], [ 117.312172706144807, 42.410707945035028 ], [ 117.312172661486358, 42.410698939148375 ], [ 117.312160508481412, 42.410698972241526 ], [ 117.312160597794886, 42.410716984014847 ], [ 117.312154521290665, 42.410717000560943 ], [ 117.312154543618604, 42.410721503504277 ], [ 117.312172773132559, 42.410721453864994 ], [ 117.312172795461805, 42.410725956808321 ] ] ] } },
{ "type": "Feature", "properties": { "crown_id": 1427, "tree_id": "1428", "top_h_m": 20.76, "H_95_Mean": 21.83, "DBH": 18.6256, "Carbon_kg": 68.602682, "area_m2": 2.75 }, "geometry": { "type": "MultiPolygon", "coordinates": [ [ [ [ 117.312312577416506, 42.410730079087415 ], [ 117.312318653921906, 42.410730062532927 ], [ 117.312318631582215, 42.410725559589679 ], [ 117.312312555077256, 42.410725576144159 ], [ 117.312312577416506, 42.410730079087415 ] ] ], [ [ [ 117.312318631582215, 42.410725559589679 ], [ 117.312324708087175, 42.410725543034879 ], [ 117.312324663406926, 42.410716537148382 ], [ 117.312336816415083, 42.410716504037822 ], [ 117.312336794074113, 42.410712001094559 ], [ 117.312330717570447, 42.410712017650006 ], [ 117.312330695229917, 42.41070751470675 ], [ 117.312318542223494, 42.410707547816656 ], [ 117.312318564563171, 42.410712050759912 ], [ 117.312312488059519, 42.410712067314385 ], [ 117.312312510398769, 42.410716570257641 ], [ 117.312306433894662, 42.410716586811809 ], [ 117.312306456233486, 42.410721089755057 ], [ 117.312318609242539, 42.410721056646423 ], [ 117.312318631582215, 42.410725559589679 ] ] ] ] } },
{ "type": "Feature", "properties": { "crown_id": 1441, "tree_id": "1442", "top_h_m": 20.55, "H_95_Mean": 21.7249, "DBH": 26.8654, "Carbon_kg": 143.13034, "area_m2": 11.5 }, "geometry": { "type": "Polygon", "coordinates": [ [ [ 117.312282239563672, 42.410739167741511 ], [ 117.312288316069953, 42.410739151188629 ], [ 117.312288293732408, 42.410734648245388 ], [ 117.312306523249958, 42.410734598584817 ], [ 117.312306478572296, 42.410725592698327 ], [ 117.312300402067322, 42.410725609252154 ], [ 117.312300335052186, 42.410712100422366 ], [ 117.312306411555852, 42.410712083868532 ], [ 117.312306389217056, 42.410707580925262 ], [ 117.312294236210576, 42.410707614032596 ], [ 117.312294169196818, 42.410694105202758 ], [ 117.312282016192938, 42.410694138308777 ], [ 117.31228203853, 42.410698641252075 ], [ 117.312269885525225, 42.410698674356816 ], [ 117.31226990786142, 42.4107031773001 ], [ 117.312263831358564, 42.410703193851994 ], [ 117.312263920701625, 42.410721205625137 ], [ 117.312269997206201, 42.410721189073222 ], [ 117.31227004187862, 42.410730194959768 ], [ 117.312282194889477, 42.410730161855 ], [ 117.312282239563672, 42.410739167741511 ] ] ] } },
{ "type": "Feature", "properties": { "crown_id": 1453, "tree_id": "1454", "top_h_m": 23.268, "H_95_Mean": 23.7567, "DBH": 36.8361, "Carbon_kg": 285.089448, "area_m2": 33.25 }, "geometry": { "type": "Polygon", "coordinates": [ [ [ 117.312172862449628, 42.410739465638237 ], [ 117.312191091968728, 42.410739415996019 ], [ 117.31219106963816, 42.410734913052735 ], [ 117.312197146144086, 42.410734896504685 ], [ 117.312197168475123, 42.410739399447976 ], [ 117.312221474500518, 42.410739333252572 ], [ 117.312221429835034, 42.410730327366011 ], [ 117.312233582845934, 42.410730294266386 ], [ 117.31223356051234, 42.410725791323095 ], [ 117.312245713522387, 42.410725758222185 ], [ 117.312245691187911, 42.410721255278901 ], [ 117.312257844197077, 42.410721222176711 ], [ 117.31225775485575, 42.410703210403561 ], [ 117.31224560185008, 42.410703243505736 ], [ 117.31224551251232, 42.410685231732508 ], [ 117.312221206507857, 42.410685297932943 ], [ 117.312221117177145, 42.410667286159622 ], [ 117.31220288767895, 42.410667335806529 ], [ 117.312202954673069, 42.410680844636559 ], [ 117.312190801671647, 42.410680877732908 ], [ 117.312190868663208, 42.410694386562909 ], [ 117.312184792161176, 42.410694403110611 ], [ 117.312184814491289, 42.410698906053938 ], [ 117.31217873798883, 42.410698922601313 ], [ 117.312178760318488, 42.410703425544646 ], [ 117.312184836821388, 42.410703408997257 ], [ 117.312184970802093, 42.41073042665716 ], [ 117.312178894296608, 42.41073044320455 ], [ 117.31217891662628, 42.410734946147848 ], [ 117.312172840120354, 42.410734962694931 ], [ 117.312172862449628, 42.410739465638237 ] ] ] } },
{ "type": "Feature", "properties": { "crown_id": 1454, "tree_id": "1455", "top_h_m": 23.34, "H_95_Mean": 22.3275, "DBH": 37.9365, "Carbon_kg": 291.61436, "area_m2": 41.75 }, "geometry": { "type": "Polygon", "coordinates": [ [ [ 117.312330985657368, 42.410766052968818 ], [ 117.312355291692739, 42.410765986744998 ], [ 117.312355269350419, 42.410761483801799 ], [ 117.312343116333608, 42.410761516914341 ], [ 117.31234304930922, 42.410748008084688 ], [ 117.312361278830508, 42.410747958415421 ], [ 117.312361345858818, 42.410761467245052 ], [ 117.312367422367203, 42.410761450687964 ], [ 117.312367400023987, 42.410756947744758 ], [ 117.312379553039889, 42.410756914629651 ], [ 117.312379530695821, 42.410752411686438 ], [ 117.312385607203325, 42.410752395128412 ], [ 117.312385584858845, 42.410747892185199 ], [ 117.312379508351768, 42.41074790874324 ], [ 117.312379418975567, 42.410729896970388 ], [ 117.312397648491526, 42.41072984729535 ], [ 117.312397626146193, 42.41072534435213 ], [ 117.312403702651082, 42.410725327793138 ], [ 117.312403680305323, 42.410720824849925 ], [ 117.312397603800875, 42.41072084140891 ], [ 117.31239749207424, 42.41069832669276 ], [ 117.312403568576528, 42.410698310133789 ], [ 117.312403546230797, 42.410693807190547 ], [ 117.312409622732616, 42.410693790631264 ], [ 117.312409600386445, 42.410689287688022 ], [ 117.312415676887852, 42.410689271128419 ], [ 117.312415632194643, 42.410680265241922 ], [ 117.312403479193577, 42.410680298360823 ], [ 117.312403456847875, 42.410675795417568 ], [ 117.31237915084742, 42.410675861651484 ], [ 117.312379217879368, 42.410689370481258 ], [ 117.312348835372177, 42.410689453266436 ], [ 117.31234888005585, 42.410698459152961 ], [ 117.312330650548859, 42.410698508820225 ], [ 117.312330672889374, 42.410703011763481 ], [ 117.312336749392145, 42.410702995208041 ], [ 117.312336771733129, 42.410707498151311 ], [ 117.312342848236327, 42.410707481595558 ], [ 117.312342915260572, 42.410720990425297 ], [ 117.312330762251563, 42.41072102353651 ], [ 117.312330806932678, 42.410730029423 ], [ 117.312324730427292, 42.410730045978127 ], [ 117.312324752767438, 42.410734548921354 ], [ 117.312312599755785, 42.410734582030656 ], [ 117.312312644434328, 42.410743587917139 ], [ 117.312324797447715, 42.410743554807844 ], [ 117.312324886808341, 42.410761566580746 ], [ 117.312330963316768, 42.410761550025597 ], [ 117.312330985657368, 42.410766052968818 ] ] ] } },
{ "type": "Feature", "properties": { "crown_id": 1478, "tree_id": "1479", "top_h_m": 21.44, "H_95_Mean": 22.0759, "DBH": 29.7078, "Carbon_kg": 176.961812, "area_m2": 16.5 }, "geometry": { "type": "Polygon", "coordinates": [ [ [ 117.312300290375447, 42.410703094535812 ], [ 117.312324596386603, 42.410703028318594 ], [ 117.312324551706396, 42.410694022432068 ], [ 117.312342781212124, 42.41069397276577 ], [ 117.312342602481124, 42.410657949219541 ], [ 117.312330449484293, 42.410657982330676 ], [ 117.31233042714382, 42.410653479387385 ], [ 117.312300044653782, 42.410653562159574 ], [ 117.312300089330421, 42.410662568046185 ], [ 117.312306165829298, 42.410662551492393 ], [ 117.312306255184339, 42.410680563265593 ], [ 117.312300178683699, 42.410680579819392 ], [ 117.312300201022069, 42.41068508276269 ], [ 117.312294124521003, 42.410685099316176 ], [ 117.312294146858903, 42.410689602259474 ], [ 117.312300223360396, 42.410689585705981 ], [ 117.312300290375447, 42.410703094535812 ] ] ] } },
{ "type": "Feature", "properties": { "crown_id": 1527, "tree_id": "1528", "top_h_m": 21.49, "H_95_Mean": 22.2145, "DBH": 32.7268, "Carbon_kg": 215.876025, "area_m2": 23.75 }, "geometry": { "type": "Polygon", "coordinates": [ [ [ 117.312251656018034, 42.41069872401151 ], [ 117.312263809022838, 42.41069869090871 ], [ 117.312263786687097, 42.410694187965404 ], [ 117.312275939690977, 42.410694154861311 ], [ 117.312275917354384, 42.41068965191802 ], [ 117.312288070357397, 42.410689618812647 ], [ 117.312288025682463, 42.410680612926051 ], [ 117.312294102183102, 42.410680596372892 ], [ 117.312294079845202, 42.410676093429586 ], [ 117.312300156345373, 42.410676076876101 ], [ 117.312300111668733, 42.41066707098949 ], [ 117.312294035169401, 42.410667087542983 ], [ 117.312293945817899, 42.410649075769719 ], [ 117.312300022315497, 42.410649059216254 ], [ 117.312299977638915, 42.410640053329608 ], [ 117.312293901142198, 42.410640069883073 ], [ 117.312293878804326, 42.410635566939746 ], [ 117.312287802308035, 42.410635583492883 ], [ 117.312287824645452, 42.410640086436224 ], [ 117.312269595155257, 42.410640136093718 ], [ 117.312269572819162, 42.41063563315037 ], [ 117.312263496322856, 42.410635649702229 ], [ 117.312263540994209, 42.410644655588904 ], [ 117.312257464497037, 42.410644672140442 ], [ 117.312257486832294, 42.410649175083776 ], [ 117.312251410334653, 42.410649191634988 ], [ 117.312251455004329, 42.410658197521663 ], [ 117.312227149010312, 42.410658263723334 ], [ 117.312227260675854, 42.410680778440003 ], [ 117.312251566678569, 42.410680712238282 ], [ 117.312251656018034, 42.41069872401151 ] ], [ [ 117.312233314842985, 42.410676258946729 ], [ 117.312233247842357, 42.410662750116742 ], [ 117.312251477339174, 42.410662700464997 ], [ 117.312251544343695, 42.410676209294969 ], [ 117.312233314842985, 42.410676258946729 ] ] ] } },
{ "type": "Feature", "properties": { "crown_id": 1528, "tree_id": "1529", "top_h_m": 21.171, "H_95_Mean": 21.1709, "DBH": 21.1331, "Carbon_kg": 86.900384, "area_m2": 4.75 }, "geometry": { "type": "Polygon", "coordinates": [ [ [ 117.312348813030368, 42.410684950323173 ], [ 117.31237311903439, 42.41068488409568 ], [ 117.312373029660193, 42.410666872322608 ], [ 117.312366953160932, 42.410666888879952 ], [ 117.312366930817845, 42.410662385936675 ], [ 117.312348701321341, 42.410662435606774 ], [ 117.312348813030368, 42.410684950323173 ] ] ] } }
]
}
