{
"type": "FeatureCollection",
"name": "tile_1_21",
"crs": { "type": "name", "properties": { "name": "urn:ogc:def:crs:OGC:1.3:CRS84" } },
"features": [
{ "type": "Feature", "properties": { "crown_id": 27, "tree_id": "28", "top_h_m": 21.067, "H_95_Mean": 21.3842, "DBH": 28.5545, "Carbon_kg": 160.340839, "area_m2": 15.0 }, "geometry": { "type": "Polygon", "coordinates": [ [ [ 117.314868177648748, 42.411416550914389 ], [ 117.314935019920327, 42.411416367304923 ], [ 117.314934997392939, 42.411411864363338 ], [ 117.314928920823249, 42.411411881056715 ], [ 117.314928808188611, 42.411389366348757 ], [ 117.314892348783474, 42.411389466502172 ], [ 117.314892371307792, 42.411393969443793 ], [ 117.314855911899826, 42.41139406958564 ], [ 117.314855934421544, 42.411398572527268 ], [ 117.314862010989984, 42.411398555837756 ], [ 117.314862033512128, 42.411403058779378 ], [ 117.31486811008098, 42.411403042089553 ], [ 117.314868177648748, 42.411416550914389 ] ] ] } },
{ "type": "Feature", "properties": { "crown_id": 28, "tree_id": "29", "top_h_m": 19.215, "H_95_Mean": 19.6903, "DBH": 29.4752, "Carbon_kg": 162.788497, "area_m2": 19.75 }, "geometry": { "type": "Polygon", "coordinates": [ [ [ 117.314983632481045, 42.41141623374628 ], [ 117.315062627891564, 42.411416016669527 ], [ 117.315062605355038, 42.411411513728005 ], [ 117.315056528785476, 42.411411530428147 ], [ 117.315056506249419, 42.411407027486611 ], [ 117.315062582818555, 42.411407010786462 ], [ 117.315062515209092, 42.411393501961868 ], [ 117.315026055801994, 42.411393602157823 ], [ 117.315026033268126, 42.411389099216265 ], [ 117.31499565043093, 42.411389182704013 ], [ 117.314995560304183, 42.411371170937706 ], [ 117.314983407172747, 42.411371204330536 ], [ 117.314983452234358, 42.411380210213721 ], [ 117.314977375667766, 42.411380226909642 ], [ 117.31497744325894, 42.4113937357344 ], [ 117.314983519826839, 42.411393719038458 ], [ 117.314983542357666, 42.411398221980015 ], [ 117.314989618926006, 42.41139820528376 ], [ 117.314989686519837, 42.411411714108453 ], [ 117.314983609950204, 42.411411730804723 ], [ 117.314983632481045, 42.41141623374628 ] ] ] } },
{ "type": "Feature", "properties": { "crown_id": 51, "tree_id": "52", "top_h_m": 20.992, "H_95_Mean": 21.7976, "DBH": 26.6014, "Carbon_kg": 140.587199, "area_m2": 11.0 }, "geometry": { "type": "Polygon", "coordinates": [ [ [ 117.314941096490429, 42.411416350611212 ], [ 117.314977555910971, 42.41141625044223 ], [ 117.314977510850156, 42.411407244559108 ], [ 117.314983587419363, 42.411407227863158 ], [ 117.314983564888507, 42.411402724921594 ], [ 117.314977488319741, 42.411402741617543 ], [ 117.314977465789354, 42.411398238675979 ], [ 117.314971389221014, 42.411398255371594 ], [ 117.31497132163112, 42.411384746546851 ], [ 117.314940938795843, 42.411384830020104 ], [ 117.314940961323643, 42.411389332961697 ], [ 117.314934884756141, 42.411389349655387 ], [ 117.314934974865579, 42.411407361421745 ], [ 117.314941051434815, 42.411407344728048 ], [ 117.314941096490429, 42.411416350611212 ] ] ] } },
{ "type": "Feature", "properties": { "crown_id": 111, "tree_id": "112", "top_h_m": 20.566, "H_95_Mean": 20.6247, "DBH": 31.5114, "Carbon_kg": 191.427443, "area_m2": 23.5 }, "geometry": { "type": "Polygon", "coordinates": [ [ [ 117.314843871368041, 42.411416617671804 ], [ 117.314862101078575, 42.411416567604228 ], [ 117.314862056034272, 42.411407561720999 ], [ 117.314855979464966, 42.411407578410511 ], [ 117.314855956943248, 42.411403075468883 ], [ 117.314849880374368, 42.411403092158082 ], [ 117.314849812810536, 42.411389583333175 ], [ 117.314868042513268, 42.411389533264682 ], [ 117.314867929900487, 42.411367018556504 ], [ 117.31485577676969, 42.411367051935798 ], [ 117.314855731726368, 42.411358046052484 ], [ 117.314849655161822, 42.411358062741641 ], [ 117.314849632640616, 42.411353559799977 ], [ 117.314825326384167, 42.411353626553385 ], [ 117.31482530386468, 42.411349123611721 ], [ 117.314800997609879, 42.411349190359957 ], [ 117.314801065163138, 42.411362699185013 ], [ 117.314807141728139, 42.411362682498421 ], [ 117.314807231800941, 42.411380694265098 ], [ 117.314813308367675, 42.411380677578173 ], [ 117.314813330886338, 42.411385180519829 ], [ 117.314819407453513, 42.411385163832591 ], [ 117.31481945249169, 42.411394169715891 ], [ 117.314831605627759, 42.411394136340427 ], [ 117.314831628147715, 42.411398639282069 ], [ 117.314837704716183, 42.411398622593843 ], [ 117.314837727236593, 42.411403125535479 ], [ 117.314843803805473, 42.41140310884694 ], [ 117.314843871368041, 42.411416617671804 ] ] ] } },
{ "type": "Feature", "properties": { "crown_id": 112, "tree_id": "113", "top_h_m": 19.378, "H_95_Mean": 20.0936, "DBH": 25.2905, "Carbon_kg": 121.004913, "area_m2": 10.5 }, "geometry": { "type": "Polygon", "coordinates": [ [ [ 117.314874119080827, 42.411389516574538 ], [ 117.314886272215929, 42.41138948319329 ], [ 117.314886249692051, 42.411384980251661 ], [ 117.314922709094645, 42.411384880100186 ], [ 117.314922686568181, 42.411380377158579 ], [ 117.314916610001518, 42.411380393851296 ], [ 117.314916519897423, 42.411362382084803 ], [ 117.314910443332508, 42.411362398777193 ], [ 117.314910420806925, 42.411357895835565 ], [ 117.314904344242436, 42.41135791252762 ], [ 117.314904321717307, 42.411353409585978 ], [ 117.314892168589182, 42.411353442969123 ], [ 117.314892191113458, 42.411357945910773 ], [ 117.314886114548941, 42.411357962601855 ], [ 117.314886159596639, 42.41136696848514 ], [ 117.314874006465885, 42.41136700186636 ], [ 117.314874119080827, 42.411389516574538 ] ] ] } },
{ "type": "Feature", "properties": { "crown_id": 122, "tree_id": "123", "top_h_m": 20.079, "H_95_Mean": 20.0475, "DBH": 26.2863, "Carbon_kg": 130.622169, "area_m2": 12.25 }, "geometry": { "type": "Polygon", "coordinates": [ [ [ 117.315032109835556, 42.411389082517744 ], [ 117.315056416105193, 42.411389015720452 ], [ 117.315056393569165, 42.411384512778895 ], [ 117.315044240435228, 42.411384546178191 ], [ 117.315044172829744, 42.411371037353504 ], [ 117.315038096264075, 42.411371054052665 ], [ 117.315038051194648, 42.411362048169515 ], [ 117.315031974629846, 42.411362064868335 ], [ 117.315031861958531, 42.411339550160399 ], [ 117.315025785395889, 42.411339566858892 ], [ 117.315025830463512, 42.411348572742085 ], [ 117.315019753900003, 42.411348589440244 ], [ 117.315019731366618, 42.411344086498666 ], [ 117.31501365480355, 42.411344103196512 ], [ 117.315013722402398, 42.411357612021291 ], [ 117.315007645837994, 42.411357628718832 ], [ 117.315007690903073, 42.411366634602004 ], [ 117.315001614337788, 42.411366651299211 ], [ 117.315001704466255, 42.41138466306554 ], [ 117.315032087301276, 42.411384579576179 ], [ 117.315032109835556, 42.411389082517744 ] ] ] } },
{ "type": "Feature", "properties": { "crown_id": 142, "tree_id": "143", "top_h_m": 19.736, "H_95_Mean": 20.3327, "DBH": 31.8835, "Carbon_kg": 194.364563, "area_m2": 25.25 }, "geometry": { "type": "Polygon", "coordinates": [ [ [ 117.315062470136127, 42.411384496078782 ], [ 117.315068546703102, 42.411384479378334 ], [ 117.315068501629298, 42.411375473495241 ], [ 117.315074578195365, 42.411375456794474 ], [ 117.315074555658057, 42.411370953852916 ], [ 117.315086708789352, 42.411370920450423 ], [ 117.315086686251149, 42.41136641750888 ], [ 117.315092762816363, 42.411366400807147 ], [ 117.315092740277734, 42.411361897865604 ], [ 117.315098816842479, 42.411361881163558 ], [ 117.315098794303438, 42.411357378222 ], [ 117.31509271773912, 42.411357394924046 ], [ 117.315092650123304, 42.41134388609936 ], [ 117.315104803249326, 42.411343852694969 ], [ 117.315104780709873, 42.411339349753405 ], [ 117.315098704147289, 42.411339366455756 ], [ 117.315098546374216, 42.411307845864698 ], [ 117.315080316695585, 42.411307895969777 ], [ 117.315080384308658, 42.411321404794556 ], [ 117.315074307747793, 42.411321421495622 ], [ 117.315074330285043, 42.411325924437207 ], [ 117.315068253723751, 42.411325941137939 ], [ 117.315068276260604, 42.411330444079532 ], [ 117.315056123137111, 42.41133047748005 ], [ 117.315056168209054, 42.411339483363214 ], [ 117.315037938521172, 42.411339533461586 ], [ 117.315038028659927, 42.411357545227936 ], [ 117.315044105224302, 42.411357528528796 ], [ 117.315044150294597, 42.41136653441194 ], [ 117.315050226859825, 42.411366517712466 ], [ 117.315050294466587, 42.411380026537152 ], [ 117.315062447599658, 42.411379993137231 ], [ 117.315062470136127, 42.411384496078782 ] ] ] } },
{ "type": "Feature", "properties": { "crown_id": 159, "tree_id": "160", "top_h_m": 20.792, "H_95_Mean": 20.6446, "DBH": 35.6808, "Carbon_kg": 246.049019, "area_m2": 38.0 }, "geometry": { "type": "Polygon", "coordinates": [ [ [ 117.314928785661706, 42.411384863407143 ], [ 117.314934862228782, 42.411384846713787 ], [ 117.314934839701451, 42.41138034377218 ], [ 117.31497129910116, 42.411380243605258 ], [ 117.314971276571228, 42.411375740663672 ], [ 117.31497735313738, 42.411375723968057 ], [ 117.314977308076664, 42.411366718084878 ], [ 117.314995537772518, 42.411366667996106 ], [ 117.314995515240867, 42.411362165054527 ], [ 117.315001591805697, 42.411362148357632 ], [ 117.315001546741513, 42.411353142474447 ], [ 117.315007623305476, 42.411353125777232 ], [ 117.315007555707922, 42.411339616952418 ], [ 117.315013632270592, 42.411339600254898 ], [ 117.315013609737662, 42.411335097313291 ], [ 117.315007533175418, 42.411335114010811 ], [ 117.315007465577949, 42.411321605185968 ], [ 117.315001389017013, 42.411321621883168 ], [ 117.315001366484964, 42.411317118941533 ], [ 117.314995289924468, 42.411317135638392 ], [ 117.314995222329642, 42.411303626813492 ], [ 117.314989145770454, 42.411303643510024 ], [ 117.314989168301608, 42.411308146451667 ], [ 117.314964862063022, 42.411308213234612 ], [ 117.31496488459247, 42.411312716176255 ], [ 117.314952731472275, 42.411312749565795 ], [ 117.314952866643765, 42.41133976721563 ], [ 117.314940713518325, 42.411339800603926 ], [ 117.314940781101527, 42.411353309428804 ], [ 117.314934704537521, 42.411353326122473 ], [ 117.314934727064824, 42.411357829064109 ], [ 117.314928650500349, 42.411357845757458 ], [ 117.314928673027225, 42.411362348699079 ], [ 117.314922596462324, 42.411362365392101 ], [ 117.314922664041703, 42.411375874216965 ], [ 117.314928740607911, 42.411375857523929 ], [ 117.314928785661706, 42.411384863407143 ] ] ] } },
{ "type": "Feature", "properties": { "crown_id": 183, "tree_id": "184", "top_h_m": 19.99, "H_95_Mean": 20.092, "DBH": 25.2895, "Carbon_kg": 120.989571, "area_m2": 10.5 }, "geometry": { "type": "Polygon", "coordinates": [ [ [ 117.314861830812987, 42.411362532304658 ], [ 117.314880060507861, 42.411362482234274 ], [ 117.314880015461043, 42.411353476350982 ], [ 117.31488609202512, 42.411353459660205 ], [ 117.314886069501284, 42.411348956718562 ], [ 117.314898222628557, 42.411348923336071 ], [ 117.314898177579153, 42.411339917452764 ], [ 117.314892101016412, 42.411339934144166 ], [ 117.31489207849215, 42.411335431202509 ], [ 117.314879925367507, 42.411335464584347 ], [ 117.31487988032076, 42.411326458701005 ], [ 117.314861650636345, 42.411326508771332 ], [ 117.314861673158404, 42.41133101171301 ], [ 117.314849520034556, 42.411331045091622 ], [ 117.314849610119381, 42.41134905685832 ], [ 117.314855686683046, 42.411349040169156 ], [ 117.314855709204707, 42.41135354311082 ], [ 117.314861785768798, 42.411353526421351 ], [ 117.314861830812987, 42.411362532304658 ] ] ] } },
{ "type": "Feature", "properties": { "crown_id": 220, "tree_id": "221", "top_h_m": 19.23, "H_95_Mean": 19.2734, "DBH": 25.093, "Carbon_kg": 116.207865, "area_m2": 11.0 }, "geometry": { "type": "Polygon", "coordinates": [ [ [ 117.314916497371399, 42.411357879143182 ], [ 117.314922573935874, 42.41135786245048 ], [ 117.314922551409438, 42.411353359508844 ], [ 117.314928627973472, 42.411353342815822 ], [ 117.314928605446596, 42.411348839874186 ], [ 117.314934682010204, 42.411348823180845 ], [ 117.31493461442831, 42.411335314355938 ], [ 117.314946767552868, 42.411335280968302 ], [ 117.314946632384036, 42.411308263318425 ], [ 117.314940555824364, 42.411308280012385 ], [ 117.314940578352065, 42.411312782954049 ], [ 117.314928425231813, 42.41131281634101 ], [ 117.314928470285494, 42.411321822224316 ], [ 117.314910240602501, 42.411321872302366 ], [ 117.314910308179108, 42.411335381127337 ], [ 117.314904231616808, 42.411335397819386 ], [ 117.314904299192165, 42.411348906644342 ], [ 117.314910375755773, 42.411348889952286 ], [ 117.314910398281356, 42.411353392893915 ], [ 117.31491647484539, 42.411353376201546 ], [ 117.314916497371399, 42.411357879143182 ] ] ] } },
{ "type": "Feature", "properties": { "crown_id": 228, "tree_id": "229", "top_h_m": 20.71, "H_95_Mean": 20.7812, "DBH": 30.0403, "Carbon_kg": 174.621397, "area_m2": 19.25 }, "geometry": { "type": "Polygon", "coordinates": [ [ [ 117.315019686299863, 42.411335080615444 ], [ 117.315050069110882, 42.411334997121401 ], [ 117.315050024039806, 42.411325991238215 ], [ 117.315062177162446, 42.411325957838351 ], [ 117.315062154626048, 42.411321454896758 ], [ 117.315068231186928, 42.411321438196353 ], [ 117.315068208650075, 42.411316935254753 ], [ 117.315074285210528, 42.411316918554022 ], [ 117.315074240136013, 42.411307912670821 ], [ 117.315068163576427, 42.411307929371546 ], [ 117.315068141039632, 42.411303426429939 ], [ 117.31505598792134, 42.411303459830421 ], [ 117.315055965385412, 42.4112989568888 ], [ 117.315049888826692, 42.411298973588558 ], [ 117.3150498212202, 42.411285464763672 ], [ 117.315043744662802, 42.411285481463096 ], [ 117.315043789732925, 42.41129448734636 ], [ 117.315019483499739, 42.411294554140866 ], [ 117.315019506033053, 42.411299057082495 ], [ 117.315007352915572, 42.411299090477819 ], [ 117.315007375448019, 42.411303593419454 ], [ 117.315001298888845, 42.411303610116633 ], [ 117.315001343952929, 42.411312615999904 ], [ 117.31500742051297, 42.411312599302725 ], [ 117.315007443045445, 42.41131710224434 ], [ 117.315013519605955, 42.411317085546834 ], [ 117.315013587204717, 42.411330594371691 ], [ 117.315019663766506, 42.411330577673851 ], [ 117.315019686299863, 42.411335080615444 ] ] ] } },
{ "type": "Feature", "properties": { "crown_id": 256, "tree_id": "257", "top_h_m": 19.616, "H_95_Mean": 19.9249, "DBH": 30.477, "Carbon_kg": 175.356484, "area_m2": 22.0 }, "geometry": { "type": "Polygon", "coordinates": [ [ [ 117.314885979406029, 42.411330944951921 ], [ 117.314904209091679, 42.411330894877729 ], [ 117.314904141516394, 42.411317386052737 ], [ 117.31492237119808, 42.41131733597566 ], [ 117.314922326145322, 42.411308330092346 ], [ 117.314934479264679, 42.411308296706032 ], [ 117.314934434210187, 42.411299290822697 ], [ 117.314922281092535, 42.411299324208997 ], [ 117.31492219098709, 42.411281312442256 ], [ 117.314916114430005, 42.411281329134923 ], [ 117.314916091904095, 42.41127682619323 ], [ 117.314897862234076, 42.411276876269262 ], [ 117.314897839709488, 42.411272373327556 ], [ 117.314891763153241, 42.411272390018922 ], [ 117.314891808201594, 42.411281395902343 ], [ 117.314879655087353, 42.411281429284102 ], [ 117.314879677610676, 42.411285932225802 ], [ 117.314873601053122, 42.411285948916216 ], [ 117.314873668621786, 42.411299457741322 ], [ 117.314867592062939, 42.411299474431409 ], [ 117.314867704675308, 42.411321989139864 ], [ 117.314885934358429, 42.411321939068571 ], [ 117.314885979406029, 42.411330944951921 ] ] ] } },
{ "type": "Feature", "properties": { "crown_id": 312, "tree_id": "313", "top_h_m": 19.745, "H_95_Mean": 19.9739, "DBH": 30.2412, "Carbon_kg": 172.883725, "area_m2": 21.25 }, "geometry": { "type": "Polygon", "coordinates": [ [ [ 117.314964839533602, 42.411303710292955 ], [ 117.314983069211252, 42.411303660206244 ], [ 117.314983046680538, 42.411299157264594 ], [ 117.315001276356796, 42.411299107174997 ], [ 117.315001253824789, 42.411294604233355 ], [ 117.315013406941418, 42.411294570838685 ], [ 117.31501338440853, 42.411290067897042 ], [ 117.315037690639997, 42.411290001103843 ], [ 117.315037668105376, 42.411285498162208 ], [ 117.31503159154795, 42.411285514860985 ], [ 117.315031569013783, 42.41128101191935 ], [ 117.315025492456783, 42.411281028617793 ], [ 117.315025424855577, 42.411267519792844 ], [ 117.315031501411269, 42.4112675030944 ], [ 117.315031478877088, 42.411263000152744 ], [ 117.315025402321851, 42.411263016851194 ], [ 117.315025379788125, 42.41125851390953 ], [ 117.31500715012362, 42.411258564002921 ], [ 117.315007127591215, 42.41125406106125 ], [ 117.314994974482389, 42.411254094455238 ], [ 117.314994997013926, 42.411258597396909 ], [ 117.314976767349364, 42.411258647485482 ], [ 117.314976744819134, 42.411254144543783 ], [ 117.314970668264706, 42.411254161239334 ], [ 117.314970893562958, 42.411299190656045 ], [ 117.314964817004181, 42.411299207351291 ], [ 117.314964839533602, 42.411303710292955 ] ] ] } },
{ "type": "Feature", "properties": { "crown_id": 320, "tree_id": "321", "top_h_m": 19.415, "H_95_Mean": 19.7137, "DBH": 29.4918, "Carbon_kg": 163.087855, "area_m2": 19.75 }, "geometry": { "type": "Polygon", "coordinates": [ [ [ 117.314952708943693, 42.411308246624145 ], [ 117.314958785503364, 42.411308229929531 ], [ 117.314958717916426, 42.411294721104554 ], [ 117.314964794474761, 42.411294704409634 ], [ 117.314964569180887, 42.411249674992852 ], [ 117.314922033302722, 42.411249791850345 ], [ 117.314922055829044, 42.411254294792066 ], [ 117.314915979274573, 42.411254311484704 ], [ 117.314916024326365, 42.411263317368117 ], [ 117.314909947771, 42.41126333406045 ], [ 117.314909992821953, 42.411272339943864 ], [ 117.314922145934389, 42.411272306558878 ], [ 117.314922168460726, 42.411276809500578 ], [ 117.314928245017384, 42.411276792807584 ], [ 117.314928335124563, 42.411294804574325 ], [ 117.314940488241319, 42.411294771187386 ], [ 117.314940533296678, 42.411303777070714 ], [ 117.31495268641514, 42.411303743682474 ], [ 117.314952708943693, 42.411308246624145 ] ] ] } },
{ "type": "Feature", "properties": { "crown_id": 341, "tree_id": "342", "top_h_m": 19.276, "H_95_Mean": 19.8861, "DBH": 26.3222, "Carbon_kg": 130.357235, "area_m2": 12.5 }, "geometry": { "type": "MultiPolygon", "coordinates": [ [ [ [ 117.315098320984561, 42.411262816448598 ], [ 117.315098275906692, 42.411253810565334 ], [ 117.315092199352378, 42.411253827267316 ], [ 117.315092244429351, 42.411262833150587 ], [ 117.315098320984561, 42.411262816448598 ] ] ], [ [ [ 117.315055875241697, 42.411280945122307 ], [ 117.315055830169882, 42.411271939239029 ], [ 117.315074059838153, 42.411271889137886 ], [ 117.31507403730096, 42.411267386196243 ], [ 117.315080113856595, 42.411267369495228 ], [ 117.315080091318961, 42.411262866553599 ], [ 117.315086167874171, 42.411262849852243 ], [ 117.315086122798022, 42.411253843968979 ], [ 117.31506789313498, 42.411253894072026 ], [ 117.315067870598241, 42.411249391130369 ], [ 117.315049640936465, 42.411249441230503 ], [ 117.315049595865588, 42.411240435347189 ], [ 117.315037442759447, 42.41124046874566 ], [ 117.315037465294012, 42.411244971687331 ], [ 117.315031388740493, 42.411244988386095 ], [ 117.315031456342936, 42.411258497211087 ], [ 117.315037532897762, 42.411258480512323 ], [ 117.31503760050154, 42.411271989337287 ], [ 117.315031523945422, 42.411272006036057 ], [ 117.315031546479602, 42.4112765089777 ], [ 117.315037623036162, 42.41127649227893 ], [ 117.315037645570769, 42.411280995220565 ], [ 117.315055875241697, 42.411280945122307 ] ] ] ] } },
{ "type": "Feature", "properties": { "crown_id": 352, "tree_id": "353", "top_h_m": 19.863, "H_95_Mean": 20.4719, "DBH": 32.9255, "Carbon_kg": 208.218233, "area_m2": 28.25 }, "geometry": { "type": "Polygon", "coordinates": [ [ [ 117.314849407428639, 42.41130853038316 ], [ 117.314861560548124, 42.411308497004583 ], [ 117.314861492982018, 42.411294988179485 ], [ 117.314867569540468, 42.41129497148971 ], [ 117.314867501973112, 42.41128146266459 ], [ 117.314873578530239, 42.411281445974502 ], [ 117.314873556007356, 42.411276943032796 ], [ 117.31488570912073, 42.411276909651669 ], [ 117.314885664073259, 42.411267903768241 ], [ 117.314873510961647, 42.411267937149354 ], [ 117.314873488438764, 42.41126343420764 ], [ 117.314843105661765, 42.411263517654767 ], [ 117.314843038099738, 42.411250008829541 ], [ 117.314836961545609, 42.411250025517987 ], [ 117.314836939025412, 42.411245522576237 ], [ 117.314830862471723, 42.411245539264364 ], [ 117.314830839951924, 42.411241036322615 ], [ 117.314818686845413, 42.411241069697894 ], [ 117.314818709364332, 42.411245572639658 ], [ 117.314812632810643, 42.411245589326818 ], [ 117.314812655329121, 42.411250092268574 ], [ 117.314806578775006, 42.411250108955414 ], [ 117.314806646329188, 42.411263617780698 ], [ 117.314800569773752, 42.411263634467225 ], [ 117.314800614809059, 42.411272640350731 ], [ 117.314788461696395, 42.411272673722827 ], [ 117.314788484213196, 42.411277176664584 ], [ 117.314800637326698, 42.41127714329248 ], [ 117.314800682362034, 42.411286149175965 ], [ 117.314806758919659, 42.411286132489415 ], [ 117.314806803955861, 42.411295138372886 ], [ 117.314812880514353, 42.411295121686024 ], [ 117.314812903032902, 42.411299624627738 ], [ 117.314843285827408, 42.411299541188562 ], [ 117.314843308348131, 42.411304044130254 ], [ 117.314849384907461, 42.41130402744146 ], [ 117.314849407428639, 42.41130853038316 ] ], [ [ 117.314824988592477, 42.411286082427864 ], [ 117.314824921034287, 42.411272573602666 ], [ 117.314843150703155, 42.411272523538244 ], [ 117.314843218265253, 42.411286032363407 ], [ 117.314824988592477, 42.411286082427864 ] ] ] } },
{ "type": "Feature", "properties": { "crown_id": 411, "tree_id": "412", "top_h_m": 19.298, "H_95_Mean": 19.8066, "DBH": 31.4084, "Carbon_kg": 185.670066, "area_m2": 25.0 }, "geometry": { "type": "Polygon", "coordinates": [ [ [ 117.314879564994158, 42.41126341751724 ], [ 117.314897794660268, 42.411263367444135 ], [ 117.31489777213568, 42.411258864502415 ], [ 117.314891695580755, 42.411258881193767 ], [ 117.314891673056593, 42.411254378252053 ], [ 117.314897749611092, 42.411254361560687 ], [ 117.314897682037369, 42.411240852735517 ], [ 117.314903758590532, 42.411240836043845 ], [ 117.314903668490558, 42.411222824276905 ], [ 117.314891515387671, 42.411222857659901 ], [ 117.314891470339447, 42.411213851776381 ], [ 117.314885393788842, 42.411213868467385 ], [ 117.314885371265191, 42.411209365525636 ], [ 117.314854988514298, 42.411209448975839 ], [ 117.314855011035803, 42.411213951917603 ], [ 117.31484893448517, 42.411213968606681 ], [ 117.314848957006248, 42.411218471548445 ], [ 117.314836803904115, 42.411218504925642 ], [ 117.314836916505172, 42.411241019634481 ], [ 117.31484299305842, 42.411241002946028 ], [ 117.314843015579058, 42.411245505887784 ], [ 117.314849092132746, 42.411245489199018 ], [ 117.314849159696053, 42.411258998024245 ], [ 117.314879542470862, 42.411258914575527 ], [ 117.314879564994158, 42.41126341751724 ] ] ] } },
{ "type": "Feature", "properties": { "crown_id": 412, "tree_id": "413", "top_h_m": 19.38, "H_95_Mean": 19.749, "DBH": 27.013, "Carbon_kg": 136.783475, "area_m2": 14.0 }, "geometry": { "type": "Polygon", "coordinates": [ [ [ 117.315073947152158, 42.411249374429687 ], [ 117.315098253367779, 42.411249307623699 ], [ 117.315098163212113, 42.411231295857114 ], [ 117.315092086659945, 42.411231312559082 ], [ 117.315092064121501, 42.411226809617425 ], [ 117.315085987569773, 42.411226826319066 ], [ 117.315085897417688, 42.411208814552396 ], [ 117.315073744317701, 42.411208847954697 ], [ 117.315073721780564, 42.411204345013012 ], [ 117.315067645230997, 42.411204361713679 ], [ 117.315067667767707, 42.411208864655364 ], [ 117.315061591217685, 42.411208881355705 ], [ 117.315061636290238, 42.411217887239076 ], [ 117.31504948318846, 42.411217920638805 ], [ 117.315049550794711, 42.411231429463847 ], [ 117.315037397690318, 42.411231462862311 ], [ 117.315037420224883, 42.411235965803989 ], [ 117.31505564988278, 42.411235915705802 ], [ 117.315055694954523, 42.41124492158913 ], [ 117.315073924614964, 42.411244871488023 ], [ 117.315073947152158, 42.411249374429687 ] ] ] } },
{ "type": "Feature", "properties": { "crown_id": 426, "tree_id": "427", "top_h_m": 18.37, "H_95_Mean": 19.5086, "DBH": 30.2605, "Carbon_kg": 170.709592, "area_m2": 22.25 }, "geometry": { "type": "Polygon", "coordinates": [ [ [ 117.31490382616559, 42.411254344869022 ], [ 117.314909902720075, 42.411254328177023 ], [ 117.31490988019462, 42.411249825235295 ], [ 117.314915956748678, 42.411249808542983 ], [ 117.314915934222796, 42.41124530560127 ], [ 117.314958470097963, 42.411245188746044 ], [ 117.314958222280126, 42.411195656387086 ], [ 117.314939992633711, 42.411195706469755 ], [ 117.31494001516127, 42.411200209411497 ], [ 117.314909632414981, 42.411200292876167 ], [ 117.314909677465778, 42.41120929875968 ], [ 117.314903600915628, 42.41120931545165 ], [ 117.3149036234406, 42.411213818393399 ], [ 117.314897546890023, 42.41121383508505 ], [ 117.314897569414583, 42.411218338026806 ], [ 117.314909722516603, 42.411218304643178 ], [ 117.314909857669193, 42.411245322293574 ], [ 117.314903781115561, 42.411245338985566 ], [ 117.31490382616559, 42.411254344869022 ] ] ] } },
{ "type": "Feature", "properties": { "crown_id": 427, "tree_id": "428", "top_h_m": 19.39, "H_95_Mean": 19.5157, "DBH": 30.6104, "Carbon_kg": 174.748937, "area_m2": 23.25 }, "geometry": { "type": "Polygon", "coordinates": [ [ [ 117.314982821373547, 42.411254127847933 ], [ 117.314988897927975, 42.411254111151734 ], [ 117.314988875396878, 42.411249608210049 ], [ 117.315013181612784, 42.411249541422109 ], [ 117.315013204145615, 42.411254044363787 ], [ 117.315025357254413, 42.411254010967866 ], [ 117.315025289653292, 42.411240502142853 ], [ 117.31503136620637, 42.411240485444416 ], [ 117.315031343672246, 42.411235982502745 ], [ 117.315013114014263, 42.41123603259706 ], [ 117.315013023883026, 42.411218020830283 ], [ 117.315006947332108, 42.411218037527739 ], [ 117.315006857202675, 42.411200025760898 ], [ 117.314964321358218, 42.411200142633973 ], [ 117.314964546651538, 42.41124517205116 ], [ 117.314970623205099, 42.411245155355935 ], [ 117.314970645734903, 42.411249658297635 ], [ 117.314982798842877, 42.411249624906233 ], [ 117.314982821373547, 42.411254127847933 ] ] ] } },
{ "type": "Feature", "properties": { "crown_id": 460, "tree_id": "461", "top_h_m": 18.49, "H_95_Mean": 18.8521, "DBH": 25.5281, "Carbon_kg": 118.742392, "area_m2": 12.25 }, "geometry": { "type": "Polygon", "coordinates": [ [ [ 117.315019168033672, 42.411231512957585 ], [ 117.315031321138108, 42.41123147956106 ], [ 117.315031298603984, 42.411226976619375 ], [ 117.315043451707538, 42.411226943221564 ], [ 117.31504338410258, 42.411213434396501 ], [ 117.31505553720352, 42.411213400997418 ], [ 117.315055492131847, 42.411204395114048 ], [ 117.315061568681415, 42.41120437841402 ], [ 117.315061546145145, 42.41119987547232 ], [ 117.315073699243428, 42.411199842071319 ], [ 117.315073676706305, 42.411195339129634 ], [ 117.315055447060189, 42.411195389230649 ], [ 117.315055424524374, 42.411190886288949 ], [ 117.315025041782917, 42.411190969784187 ], [ 117.315025086850213, 42.4111999756676 ], [ 117.315012933751845, 42.411200009063457 ], [ 117.315013001350209, 42.411213517888584 ], [ 117.315019077900715, 42.411213501190815 ], [ 117.315019168033672, 42.411231512957585 ] ] ] } }
]
}
