{
"type": "FeatureCollection",
"name": "tile_9_12",
"crs": { "type": "name", "properties": { "name": "urn:ogc:def:crs:OGC:1.3:CRS84" } },
"features": [
{ "type": "Feature", "properties": { "crown_id": 3433, "tree_id": "3436", "top_h_m": 19.18, "H_95_Mean": 20.0279, "DBH": 23.5427, "Carbon_kg": 104.538845, "area_m2": 8.0 }, "geometry": { "type": "Polygon", "coordinates": [ [ [ 117.312861645550512, 42.409945059172401 ], [ 117.312867721979799, 42.409945042589058 ], [ 117.312867699601469, 42.409940539645426 ], [ 117.312873776030315, 42.409940523061771 ], [ 117.312873708894003, 42.409927014230867 ], [ 117.312867632466421, 42.409927030814515 ], [ 117.312867565331445, 42.409913521983562 ], [ 117.312855412478939, 42.409913555149885 ], [ 117.31285539010149, 42.409909052206231 ], [ 117.312831084398113, 42.409909118534998 ], [ 117.312831106773814, 42.409913621478665 ], [ 117.312843259626391, 42.409913588314915 ], [ 117.312843393885942, 42.409940605976843 ], [ 117.312861623172594, 42.409940556228754 ], [ 117.312861645550512, 42.409945059172401 ] ] ] } },
{ "type": "Feature", "properties": { "crown_id": 3462, "tree_id": "3465", "top_h_m": 17.93, "H_95_Mean": 17.4661, "DBH": 34.8483, "Carbon_kg": 212.525292, "area_m2": 47.25 }, "geometry": { "type": "Polygon", "coordinates": [ [ [ 117.312709846651629, 42.409967988369665 ], [ 117.312715923083232, 42.409967971794366 ], [ 117.312715878348186, 42.409958965907009 ], [ 117.312728031209645, 42.409958932755444 ], [ 117.312727986472922, 42.409949926868073 ], [ 117.312746215762445, 42.409949877138345 ], [ 117.312746193392783, 42.409945374194663 ], [ 117.312740116963369, 42.409945390771568 ], [ 117.312740049855734, 42.409931881940494 ], [ 117.312758279139999, 42.409931832208855 ], [ 117.312758256769484, 42.409927329265166 ], [ 117.312752180341818, 42.409927345842704 ], [ 117.312752135601698, 42.409918339955304 ], [ 117.312746059174899, 42.409918356532501 ], [ 117.312745992066013, 42.409904847701384 ], [ 117.312733839215028, 42.40990488085481 ], [ 117.312733794477552, 42.409895874967368 ], [ 117.312721641628286, 42.409895908119495 ], [ 117.312721596892558, 42.409886902232032 ], [ 117.312715520468771, 42.409886918807601 ], [ 117.312715498101355, 42.409882415863862 ], [ 117.312709421677994, 42.409882432439105 ], [ 117.312709376944056, 42.409873426551613 ], [ 117.312703300521562, 42.409873443126543 ], [ 117.312703322888112, 42.409877946070289 ], [ 117.312679017196388, 42.409878012366775 ], [ 117.312679061926019, 42.409887018254295 ], [ 117.312672985502203, 42.409887034827619 ], [ 117.312673030230982, 42.40989604071514 ], [ 117.312660877381589, 42.409896073860828 ], [ 117.312660899745111, 42.409900576804567 ], [ 117.3126426704697, 42.409900626520695 ], [ 117.312642692831929, 42.409905129464462 ], [ 117.312666998534212, 42.409905063175636 ], [ 117.312667043262152, 42.409914069063127 ], [ 117.312673119688583, 42.409914052490102 ], [ 117.312673164417419, 42.409923058377579 ], [ 117.312679240844687, 42.409923041804227 ], [ 117.312679375033923, 42.409950059466532 ], [ 117.312685451463821, 42.409950042892866 ], [ 117.312685496194476, 42.409959048780266 ], [ 117.312703725486713, 42.409958999057274 ], [ 117.312703747853377, 42.409963502000956 ], [ 117.312709824284539, 42.409963485425983 ], [ 117.312709846651629, 42.409967988369665 ] ] ] } },
{ "type": "Feature", "properties": { "crown_id": 3551, "tree_id": "3554", "top_h_m": 17.876, "H_95_Mean": 18.0648, "DBH": 35.6548, "Carbon_kg": 227.035976, "area_m2": 48.5 }, "geometry": { "type": "Polygon", "coordinates": [ [ [ 117.312800702268774, 42.409909201438708 ], [ 117.312812855120526, 42.409909168278183 ], [ 117.312812787997345, 42.40989565944713 ], [ 117.312831017270994, 42.409895609703959 ], [ 117.31283103964671, 42.409900112647634 ], [ 117.312824963221729, 42.409900129229015 ], [ 117.312824985596976, 42.409904632172697 ], [ 117.312861444149448, 42.409904532679569 ], [ 117.312861466527323, 42.409909035623222 ], [ 117.312873619378948, 42.409909002456274 ], [ 117.312873597000205, 42.409904499512614 ], [ 117.312879673425599, 42.409904482928646 ], [ 117.31287965104643, 42.409899979984992 ], [ 117.312897880321245, 42.409899930231191 ], [ 117.31289785794074, 42.409895427287537 ], [ 117.312910010789722, 42.409895394116724 ], [ 117.312909898883078, 42.409872879398435 ], [ 117.312903822460783, 42.409872895983973 ], [ 117.31290375531816, 42.409859387152949 ], [ 117.312891602476128, 42.409859420323073 ], [ 117.312891580096135, 42.409854917379384 ], [ 117.312885503675531, 42.409854933963963 ], [ 117.312885481295979, 42.409850431020253 ], [ 117.312879404875829, 42.409850447604519 ], [ 117.312879337738508, 42.409836938773395 ], [ 117.312873261319638, 42.409836955357314 ], [ 117.312873283698323, 42.409841458301038 ], [ 117.312848978021066, 42.409841524633514 ], [ 117.312849000398003, 42.409846027577231 ], [ 117.312842923978252, 42.409846044159551 ], [ 117.312842991107786, 42.409859552990696 ], [ 117.312836914686713, 42.409859569572696 ], [ 117.312836892310642, 42.409855066628978 ], [ 117.312824739469349, 42.409855099792004 ], [ 117.312824761844581, 42.409859602735722 ], [ 117.312812609002407, 42.409859635897476 ], [ 117.312812631376744, 42.409864138841193 ], [ 117.312818707798272, 42.409864122260473 ], [ 117.312818730173078, 42.409868625204183 ], [ 117.312806577329155, 42.409868658365298 ], [ 117.312806599703052, 42.409873161309022 ], [ 117.312800523280671, 42.409873177889096 ], [ 117.312800568027654, 42.409882183776517 ], [ 117.312794491604379, 42.409882200356279 ], [ 117.312794581096711, 42.409900212131099 ], [ 117.31280065752172, 42.409900195551323 ], [ 117.312800702268774, 42.409909201438708 ] ], [ [ 117.312806711572762, 42.409895676027539 ], [ 117.312806689198823, 42.409891173083842 ], [ 117.312812765622951, 42.409891156503434 ], [ 117.312812787997345, 42.40989565944713 ], [ 117.312806711572762, 42.409895676027539 ] ], [ [ 117.312806622076991, 42.409877664252726 ], [ 117.312806599703052, 42.409873161309022 ], [ 117.312812676125475, 42.409873144728621 ], [ 117.31281269849984, 42.409877647672324 ], [ 117.312806622076991, 42.409877664252726 ] ] ] } },
{ "type": "Feature", "properties": { "crown_id": 3621, "tree_id": "3624", "top_h_m": 15.87, "H_95_Mean": 16.0792, "DBH": 29.4641, "Carbon_kg": 144.29547, "area_m2": 28.75 }, "geometry": { "type": "Polygon", "coordinates": [ [ [ 117.312618342408626, 42.409896189860582 ], [ 117.312642648107499, 42.409896123576935 ], [ 117.312642625745269, 42.409891620633168 ], [ 117.312648702169554, 42.409891604061457 ], [ 117.31264872453221, 42.409896107005217 ], [ 117.312654800956892, 42.409896090433179 ], [ 117.312654778593824, 42.409891587489426 ], [ 117.312666931442322, 42.409891554344384 ], [ 117.312666886714439, 42.409882548456849 ], [ 117.312672963137814, 42.409882531883852 ], [ 117.312672851316009, 42.409860017165002 ], [ 117.312666774894808, 42.409860033737992 ], [ 117.312666752530873, 42.409855530794204 ], [ 117.312672828951662, 42.409855514221221 ], [ 117.312672784222997, 42.409846508333636 ], [ 117.312648478543323, 42.409846574623614 ], [ 117.312648456180739, 42.409842071679812 ], [ 117.312636303341762, 42.409842104822872 ], [ 117.312636280980016, 42.409837601879047 ], [ 117.312624128141906, 42.4098376350208 ], [ 117.312624150502756, 42.409842137964624 ], [ 117.312618074083233, 42.409842154535021 ], [ 117.312618096443657, 42.409846657478838 ], [ 117.312605943603728, 42.409846690618672 ], [ 117.312606122480346, 42.409882714169107 ], [ 117.31261827532721, 42.409882681029245 ], [ 117.312618297687649, 42.409887183973019 ], [ 117.312612221263819, 42.409887200543125 ], [ 117.312612243623846, 42.409891703486906 ], [ 117.312618320048131, 42.409891686916808 ], [ 117.312618342408626, 42.409896189860582 ] ], [ [ 117.312654756230728, 42.409887084545645 ], [ 117.31265473386766, 42.409882581601885 ], [ 117.31266081029105, 42.409882565029527 ], [ 117.312660832654572, 42.409887067973287 ], [ 117.312654756230728, 42.409887084545645 ] ] ] } },
{ "type": "Feature", "properties": { "crown_id": 3787, "tree_id": "3790", "top_h_m": 18.45, "H_95_Mean": 20.6301, "DBH": 21.9288, "Carbon_kg": 92.199133, "area_m2": 5.75 }, "geometry": { "type": "MultiPolygon", "coordinates": [ [ [ [ 117.312763729183473, 42.40980573320644 ], [ 117.312763706812675, 42.409801230262644 ], [ 117.312769783228148, 42.409801213684538 ], [ 117.312769760856909, 42.409796710740757 ], [ 117.312775837271943, 42.409796694162331 ], [ 117.312775814900277, 42.40979219121855 ], [ 117.31276973848567, 42.409792207796968 ], [ 117.312769693743235, 42.409783201909377 ], [ 117.312751464502014, 42.409783251642693 ], [ 117.312751486871932, 42.409787754586503 ], [ 117.312745410457723, 42.409787771163629 ], [ 117.312745432827199, 42.409792274107438 ], [ 117.312739356412592, 42.409792290684237 ], [ 117.312739423519787, 42.409805799515645 ], [ 117.312763729183473, 42.40980573320644 ] ] ], [ [ [ 117.312757697508303, 42.409814755671782 ], [ 117.312757675137931, 42.409810252728008 ], [ 117.312751598721576, 42.409810269305474 ], [ 117.312751621091508, 42.409814772249248 ], [ 117.312757697508303, 42.409814755671782 ] ] ] ] } },
{ "type": "Feature", "properties": { "crown_id": 3801, "tree_id": "3804", "top_h_m": 18.515, "H_95_Mean": 18.5433, "DBH": 23.0519, "Carbon_kg": 95.7312, "area_m2": 8.5 }, "geometry": { "type": "Polygon", "coordinates": [ [ [ 117.312727225951491, 42.409796826780699 ], [ 117.312733302366581, 42.409796810204533 ], [ 117.312733257629333, 42.40978780431692 ], [ 117.312739334043528, 42.409787787740434 ], [ 117.312739311674477, 42.409783284796617 ], [ 117.312745388088246, 42.409783268219819 ], [ 117.312745343349292, 42.409774262332192 ], [ 117.312739266936418, 42.409774278908984 ], [ 117.312739177460315, 42.40975626713368 ], [ 117.312733101049176, 42.409756283710152 ], [ 117.312733145786325, 42.409765289597807 ], [ 117.312708840138171, 42.409765355900468 ], [ 117.312708974339373, 42.409792373563462 ], [ 117.312727203583307, 42.409792323836889 ], [ 117.312727225951491, 42.409796826780699 ] ] ] } },
{ "type": "Feature", "properties": { "crown_id": 3802, "tree_id": "3805", "top_h_m": 21.21, "H_95_Mean": 20.2224, "DBH": 36.3663, "Carbon_kg": 252.563794, "area_m2": 42.5 }, "geometry": { "type": "MultiPolygon", "coordinates": [ [ [ [ 117.312800344292896, 42.409837154339257 ], [ 117.312806420711823, 42.409837137759204 ], [ 117.312806398337941, 42.409832634815466 ], [ 117.31280032191944, 42.409832651395512 ], [ 117.312800344292896, 42.409837154339257 ] ] ], [ [ [ 117.312806398337941, 42.409832634815466 ], [ 117.312812474756413, 42.409832618235086 ], [ 117.312812452382104, 42.40982811529134 ], [ 117.31281852880015, 42.409828098710648 ], [ 117.312818551174885, 42.409832601654387 ], [ 117.312824627593358, 42.40983258507336 ], [ 117.312824582843007, 42.409823579185883 ], [ 117.312830659260612, 42.409823562604544 ], [ 117.312830592133807, 42.409810053773313 ], [ 117.312836668550105, 42.409810037191662 ], [ 117.312836646174077, 42.409805534247901 ], [ 117.312842722589934, 42.409805517665937 ], [ 117.312842521202015, 42.409764991172025 ], [ 117.312824291966194, 42.409765040916909 ], [ 117.312824336716389, 42.409774046804486 ], [ 117.31279395465225, 42.4097741297062 ], [ 117.312793932279277, 42.40976962676239 ], [ 117.312781779454468, 42.409769659920819 ], [ 117.312781689966215, 42.409751648145566 ], [ 117.312745231502035, 42.409751747613058 ], [ 117.312745320979843, 42.409769759388375 ], [ 117.31275139739229, 42.40976974281125 ], [ 117.312751442132083, 42.409778748698891 ], [ 117.312775747785309, 42.409778682387156 ], [ 117.312775792528612, 42.409787688274768 ], [ 117.312781868942793, 42.409787671696016 ], [ 117.312781936059082, 42.409801180527367 ], [ 117.312775859643608, 42.40980119710612 ], [ 117.312775882015274, 42.409805700049901 ], [ 117.312769805599373, 42.409805716628327 ], [ 117.312769827970627, 42.409810219572108 ], [ 117.312763751554272, 42.409810236150214 ], [ 117.312763796295926, 42.409819242037777 ], [ 117.312769872713119, 42.409819225459657 ], [ 117.312769895084386, 42.409823728403431 ], [ 117.312782047919669, 42.409823695246224 ], [ 117.312782092663952, 42.409832701133737 ], [ 117.312788169082452, 42.409832684554658 ], [ 117.312788146709892, 42.409828181610905 ], [ 117.312806375964058, 42.409828131871713 ], [ 117.312806398337941, 42.409832634815466 ] ] ], [ [ [ 117.312818551174885, 42.409832601654387 ], [ 117.312812474756413, 42.409832618235086 ], [ 117.312812497130722, 42.409837121178825 ], [ 117.312818573549663, 42.409837104598125 ], [ 117.312818551174885, 42.409832601654387 ] ] ] ] } },
{ "type": "Feature", "properties": { "crown_id": 3803, "tree_id": "3806", "top_h_m": 17.422, "H_95_Mean": 17.0042, "DBH": 32.7431, "Carbon_kg": 184.494486, "area_m2": 39.0 }, "geometry": { "type": "Polygon", "coordinates": [ [ [ 117.312855009685649, 42.409832502163432 ], [ 117.312861086104093, 42.40983248558048 ], [ 117.312861063726331, 42.409827982636756 ], [ 117.31286714014432, 42.409827966053491 ], [ 117.312867117766089, 42.40982346310976 ], [ 117.312873194183666, 42.409823446526168 ], [ 117.312873171805009, 42.409818943582451 ], [ 117.312903553890578, 42.409818860659662 ], [ 117.312903486748155, 42.409805351828517 ], [ 117.312909563163927, 42.409805335243 ], [ 117.312909540782698, 42.409800832299275 ], [ 117.312915617198072, 42.409800815713432 ], [ 117.312915505289794, 42.40977830099478 ], [ 117.312909428876608, 42.409778317580603 ], [ 117.312909406495407, 42.409773814636857 ], [ 117.312903330082662, 42.409773831222353 ], [ 117.312903262940353, 42.409760322391087 ], [ 117.3128971865289, 42.409760338976248 ], [ 117.312897164148595, 42.409755836032495 ], [ 117.312891087737569, 42.409755852617323 ], [ 117.31289106535769, 42.40975134967357 ], [ 117.312866759715291, 42.409751416009691 ], [ 117.312866737337174, 42.409746913065902 ], [ 117.312854584516785, 42.409746946232033 ], [ 117.312854651648607, 42.409760455063392 ], [ 117.312848575237098, 42.409760471645981 ], [ 117.312848821382673, 42.409810004027385 ], [ 117.312842744966389, 42.409810020609676 ], [ 117.312842767342858, 42.409814523553429 ], [ 117.312836690926147, 42.4098145401354 ], [ 117.312836735678204, 42.409823546022892 ], [ 117.312842812095809, 42.409823529440914 ], [ 117.312842834472278, 42.409828032384645 ], [ 117.312854987308313, 42.409827999219708 ], [ 117.312855009685649, 42.409832502163432 ] ], [ [ 117.312891378676426, 42.409814390886019 ], [ 117.312891333916554, 42.40980538499857 ], [ 117.312897410332354, 42.409805368413714 ], [ 117.312897455093093, 42.409814374301149 ], [ 117.312891378676426, 42.409814390886019 ] ] ] } },
{ "type": "Feature", "properties": { "crown_id": 3828, "tree_id": "3831", "top_h_m": 18.976, "H_95_Mean": 19.3083, "DBH": 39.8077, "Carbon_kg": 294.87208, "area_m2": 65.75 }, "geometry": { "type": "MultiPolygon", "coordinates": [ [ [ [ 117.312709198008434, 42.409837403001461 ], [ 117.312715274427418, 42.409837386426233 ], [ 117.312715296794806, 42.409841889370014 ], [ 117.31273352605308, 42.409841839642404 ], [ 117.312733503684399, 42.409837336698629 ], [ 117.312727427265415, 42.409837353274817 ], [ 117.312727404897174, 42.409832850331043 ], [ 117.312733481315732, 42.409832833754848 ], [ 117.312733436578398, 42.409823827867292 ], [ 117.312727360160721, 42.40982384444348 ], [ 117.312727337792509, 42.409819341499691 ], [ 117.31273341420976, 42.409819324923504 ], [ 117.312733391841107, 42.409814821979715 ], [ 117.312727315424311, 42.409814838555903 ], [ 117.312727293056099, 42.409810335612107 ], [ 117.312733369472468, 42.409810319035927 ], [ 117.312733324735191, 42.409801313148336 ], [ 117.312721171904172, 42.409801346300348 ], [ 117.312721149536429, 42.40979684335656 ], [ 117.312702920291159, 42.409796893082152 ], [ 117.312702808458965, 42.409774378363018 ], [ 117.312690655633105, 42.409774411511791 ], [ 117.31269063326755, 42.409769908567945 ], [ 117.312684556855061, 42.409769925141845 ], [ 117.312684467394632, 42.409751913366428 ], [ 117.312666238162308, 42.409751963086158 ], [ 117.312666215798515, 42.409747460142292 ], [ 117.312641910157083, 42.409747526430749 ], [ 117.312642044329465, 42.409774544093992 ], [ 117.312648120742452, 42.40977452752233 ], [ 117.312648187830021, 42.409788036353902 ], [ 117.312642111415741, 42.409788052925556 ], [ 117.312642133777842, 42.409792555869394 ], [ 117.312629980948401, 42.409792589011744 ], [ 117.312630048032119, 42.409806097843287 ], [ 117.31260574236795, 42.409806164124142 ], [ 117.312605809446509, 42.409819672955678 ], [ 117.312611885863859, 42.409819656385942 ], [ 117.312611908223829, 42.409824159329787 ], [ 117.312630137477129, 42.409824109618626 ], [ 117.312630182199669, 42.40983311550626 ], [ 117.312642335036955, 42.409833082363875 ], [ 117.312642357399099, 42.409837585307692 ], [ 117.312654510237195, 42.409837552163999 ], [ 117.312654532600234, 42.409842055107809 ], [ 117.312678838278117, 42.409841988816552 ], [ 117.312678815913344, 42.409837485872757 ], [ 117.312684892332385, 42.409837469299141 ], [ 117.312684869967185, 42.409832966355339 ], [ 117.312690946385786, 42.409832949781418 ], [ 117.312690968751397, 42.409837452725206 ], [ 117.312697045170424, 42.409837436150937 ], [ 117.31269706753649, 42.409841939094733 ], [ 117.312690991117023, 42.409841955669002 ], [ 117.312691013482663, 42.409846458612776 ], [ 117.312703166322436, 42.409846425463932 ], [ 117.312703143955929, 42.409841922520151 ], [ 117.312709220375368, 42.40984190594525 ], [ 117.312709198008434, 42.409837403001461 ] ], [ [ 117.312703121589436, 42.40983741957637 ], [ 117.312703099222929, 42.409832916632574 ], [ 117.312709175641501, 42.409832900057673 ], [ 117.312709198008434, 42.409837403001461 ], [ 117.312703121589436, 42.40983741957637 ] ] ], [ [ [ 117.312709220375368, 42.40984190594525 ], [ 117.312709242742301, 42.409846408889031 ], [ 117.312703166322436, 42.409846425463932 ], [ 117.312703211055464, 42.409855431351481 ], [ 117.312709287476196, 42.409855414776565 ], [ 117.312709265109262, 42.409850911832798 ], [ 117.31271534152954, 42.409850895257556 ], [ 117.312715296794806, 42.409841889370014 ], [ 117.312709220375368, 42.40984190594525 ] ] ] ] } },
{ "type": "Feature", "properties": { "crown_id": 3846, "tree_id": "3849", "top_h_m": 20.18, "H_95_Mean": 20.15, "DBH": 23.7987, "Carbon_kg": 107.227362, "area_m2": 8.25 }, "geometry": { "type": "Polygon", "coordinates": [ [ [ 117.312800008691696, 42.4097696101827 ], [ 117.312818237928909, 42.409769560441674 ], [ 117.312818193179567, 42.409760554554097 ], [ 117.312842498825603, 42.409760488228251 ], [ 117.312842476449205, 42.409755985284463 ], [ 117.312848552860274, 42.409755968702193 ], [ 117.312848530483436, 42.409751465758404 ], [ 117.312824224840895, 42.409751532085522 ], [ 117.312824202465791, 42.409747029141712 ], [ 117.31278774400441, 42.409747128622705 ], [ 117.312787833494383, 42.409765140397965 ], [ 117.312799986318325, 42.409765107238897 ], [ 117.312800008691696, 42.4097696101827 ] ] ] } }
]
}
