{
"type": "FeatureCollection",
"name": "tile_11_9",
"crs": { "type": "name", "properties": { "name": "urn:ogc:def:crs:OGC:1.3:CRS84" } },
"features": [
{ "type": "Feature", "properties": { "crown_id": 4452, "tree_id": "4455", "top_h_m": 22.45, "H_95_Mean": 21.867, "DBH": 42.8354, "Carbon_kg": 367.928835, "area_m2": 69.5 }, "geometry": { "type": "MultiPolygon", "coordinates": [ [ [ [ 117.312112503414639, 42.409595866828013 ], [ 117.312124656206706, 42.409595833740653 ], [ 117.312124633881751, 42.409591330796424 ], [ 117.312130710277359, 42.409591314252253 ], [ 117.312130687951992, 42.409586811308031 ], [ 117.312136764347144, 42.409586794763541 ], [ 117.312136742021352, 42.409582291819319 ], [ 117.312142818416064, 42.409582275274516 ], [ 117.312142840742283, 42.409586778218745 ], [ 117.312148917137421, 42.409586761673609 ], [ 117.312148872484116, 42.409577755785158 ], [ 117.312154948878359, 42.409577739239715 ], [ 117.312154971205445, 42.409582242183944 ], [ 117.31216712399484, 42.409582209092093 ], [ 117.312167079338934, 42.409573203203635 ], [ 117.312173155732751, 42.409573186657241 ], [ 117.312173133404372, 42.409568683713005 ], [ 117.312185286191109, 42.409568650619228 ], [ 117.312185263861863, 42.409564147675006 ], [ 117.312203493040641, 42.409564098031936 ], [ 117.312203448379549, 42.409555092143499 ], [ 117.312215601163629, 42.409555059046511 ], [ 117.312215556500817, 42.409546053158081 ], [ 117.312197327327311, 42.409546102803063 ], [ 117.312197304997227, 42.409541599858812 ], [ 117.312148693871052, 42.409541732231233 ], [ 117.312148649217846, 42.409532726342704 ], [ 117.312142572827923, 42.409532742887798 ], [ 117.312142483523289, 42.409514731110718 ], [ 117.312148559911492, 42.409514714565624 ], [ 117.312148537584903, 42.409510211621338 ], [ 117.312130308421644, 42.409510261255633 ], [ 117.312130330746911, 42.409514764199912 ], [ 117.312118177970518, 42.409514797287834 ], [ 117.312118200294933, 42.40951930023212 ], [ 117.312112123906275, 42.409519316775608 ], [ 117.312112146230263, 42.409523819719887 ], [ 117.312106069841178, 42.409523836263041 ], [ 117.312106092164726, 42.409528339207341 ], [ 117.312087862996123, 42.409528388834893 ], [ 117.312087818351642, 42.409519382946307 ], [ 117.312075665574284, 42.409519416029717 ], [ 117.312075598610207, 42.409505907196781 ], [ 117.312069522222828, 42.409505923737989 ], [ 117.312069544543746, 42.409510426682303 ], [ 117.312063468155941, 42.409510443223219 ], [ 117.312063512796939, 42.409519449111833 ], [ 117.312057436408224, 42.409519465652409 ], [ 117.312057458728319, 42.40952396859673 ], [ 117.312051382339178, 42.409523985136993 ], [ 117.312051426978471, 42.409532991025614 ], [ 117.312057503368479, 42.409532974485352 ], [ 117.31205763728903, 42.409559992151081 ], [ 117.312045484503813, 42.409560025231329 ], [ 117.312045529142324, 42.409569031119908 ], [ 117.312063758322751, 42.409568981499042 ], [ 117.312063736002202, 42.409564478554763 ], [ 117.312081965181264, 42.40956442893102 ], [ 117.312082032146847, 42.409577937763792 ], [ 117.312094184935503, 42.409577904679672 ], [ 117.312094207258241, 42.40958240762393 ], [ 117.312100283652995, 42.409582391081372 ], [ 117.312100305976173, 42.409586894025615 ], [ 117.31210638237134, 42.409586877482738 ], [ 117.312106404694958, 42.409591380426981 ], [ 117.312112481090566, 42.409591363883791 ], [ 117.312112503414639, 42.409595866828013 ] ] ], [ [ [ 117.312142840742283, 42.409586778218745 ], [ 117.312136764347144, 42.409586794763541 ], [ 117.312136786672923, 42.40959129770777 ], [ 117.312142863068502, 42.40959128116296 ], [ 117.312142840742283, 42.409586778218745 ] ] ] ] } },
{ "type": "Feature", "properties": { "crown_id": 4507, "tree_id": "4510", "top_h_m": 22.396, "H_95_Mean": 22.3306, "DBH": 35.3551, "Carbon_kg": 253.023065, "area_m2": 31.75 }, "geometry": { "type": "Polygon", "coordinates": [ [ [ 117.311972567792083, 42.409560223685716 ], [ 117.311984720577428, 42.409560190613206 ], [ 117.311984675947627, 42.409551184724577 ], [ 117.31199682873121, 42.409551151650788 ], [ 117.31199665020533, 42.409515128096167 ], [ 117.311972344652048, 42.409515194242367 ], [ 117.311972277710154, 42.409501685409296 ], [ 117.311966201323102, 42.409501701945025 ], [ 117.311966179009602, 42.409497199000661 ], [ 117.31196010262299, 42.409497215536085 ], [ 117.311960057996828, 42.409488209647321 ], [ 117.311953981611097, 42.409488226182404 ], [ 117.311953914673197, 42.409474717349248 ], [ 117.311935685519856, 42.409474766952542 ], [ 117.311935707831196, 42.409479269896948 ], [ 117.311929631446304, 42.409479286430738 ], [ 117.31192976531176, 42.409506304097086 ], [ 117.311935841699238, 42.409506287563268 ], [ 117.311935997878876, 42.409537808173809 ], [ 117.31194207426941, 42.409537791639664 ], [ 117.311942141204923, 42.409551300472693 ], [ 117.31197252316403, 42.40955121779708 ], [ 117.311972567792083, 42.409560223685716 ] ] ] } },
{ "type": "Feature", "properties": { "crown_id": 4513, "tree_id": "4517", "top_h_m": 17.45, "H_95_Mean": 17.3333, "DBH": 28.1749, "Carbon_kg": 137.842031, "area_m2": 21.0 }, "geometry": { "type": "Polygon", "coordinates": [ [ [ 117.312015147174833, 42.409569113814889 ], [ 117.312033376355345, 42.409569064198863 ], [ 117.312033331718581, 42.409560058310284 ], [ 117.31203940811119, 42.409560041770966 ], [ 117.312039385792403, 42.409555538826673 ], [ 117.312051538576753, 42.409555505747093 ], [ 117.31205144929811, 42.409537493969907 ], [ 117.312045372907676, 42.409537510509857 ], [ 117.312045350588448, 42.409533007565557 ], [ 117.312033197808418, 42.409533040644469 ], [ 117.312033108535104, 42.409515028867197 ], [ 117.312027032146815, 42.40951504540616 ], [ 117.312026965193184, 42.409501536573153 ], [ 117.312020888806188, 42.409501553111788 ], [ 117.312020866488766, 42.409497050167445 ], [ 117.312014790102197, 42.409497066705761 ], [ 117.312014834736203, 42.409506072594453 ], [ 117.312008758348796, 42.409506089132442 ], [ 117.312008780665352, 42.409510592076792 ], [ 117.312002704277489, 42.409510608614468 ], [ 117.312002748909805, 42.409519614503139 ], [ 117.312008825298534, 42.409519597965463 ], [ 117.312008847615104, 42.409524100909792 ], [ 117.312002771225949, 42.409524117447482 ], [ 117.312002927439195, 42.409555638057725 ], [ 117.311990774654745, 42.409555671132154 ], [ 117.311990796970065, 42.409560174076461 ], [ 117.311996873362745, 42.40956015753941 ], [ 117.311996895678504, 42.409564660483717 ], [ 117.312002972071582, 42.409564643946339 ], [ 117.312002949755396, 42.409560141002025 ], [ 117.312009026148033, 42.409560124464321 ], [ 117.312009048464674, 42.409564627408621 ], [ 117.312015124857751, 42.409564610870596 ], [ 117.312015147174833, 42.409569113814889 ] ] ] } },
{ "type": "Feature", "properties": { "crown_id": 4525, "tree_id": "4529", "top_h_m": 19.72, "H_95_Mean": 20.135, "DBH": 23.974, "Carbon_kg": 108.777291, "area_m2": 8.5 }, "geometry": { "type": "Polygon", "coordinates": [ [ [ 117.312093917062981, 42.409523869348398 ], [ 117.312099993452094, 42.409523852805883 ], [ 117.312099971128973, 42.409519349861597 ], [ 117.312106047517631, 42.409519333318755 ], [ 117.312106025194083, 42.409514830374469 ], [ 117.312112101582301, 42.409514813831308 ], [ 117.312112079258341, 42.409510310887015 ], [ 117.312124232033895, 42.409510277799754 ], [ 117.312124120409749, 42.409487763078239 ], [ 117.312111967638558, 42.409487796165493 ], [ 117.312111989962517, 42.409492299109807 ], [ 117.312099837190416, 42.409492332195754 ], [ 117.312099859513495, 42.409496835140075 ], [ 117.312087706740513, 42.409496868224757 ], [ 117.312087729062739, 42.409501371169071 ], [ 117.312081652675786, 42.409501387710925 ], [ 117.312081719641171, 42.409514896543868 ], [ 117.312093872417634, 42.409514863459812 ], [ 117.312093917062981, 42.409523869348398 ] ] ] } },
{ "type": "Feature", "properties": { "crown_id": 4583, "tree_id": "4587", "top_h_m": 20.45, "H_95_Mean": 21.5822, "DBH": 28.4299, "Carbon_kg": 159.802555, "area_m2": 14.5 }, "geometry": { "type": "Polygon", "coordinates": [ [ [ 117.311978398725984, 42.409510674761954 ], [ 117.311996627889613, 42.409510625151817 ], [ 117.31199660557391, 42.409506122207461 ], [ 117.312002681961332, 42.409506105670111 ], [ 117.312002659645216, 42.409501602725769 ], [ 117.312008736032212, 42.4095015861881 ], [ 117.312008691399086, 42.409492580299393 ], [ 117.312020844171329, 42.409492547223095 ], [ 117.312020821853906, 42.409488044278739 ], [ 117.31200866908253, 42.409488077355029 ], [ 117.312008624449433, 42.409479071466308 ], [ 117.312002548064612, 42.40947908800397 ], [ 117.312002503432396, 42.40947008211522 ], [ 117.311996427048427, 42.409470098652555 ], [ 117.311996404732767, 42.409465595708163 ], [ 117.311984251965697, 42.409465628781867 ], [ 117.311984274280491, 42.409470131726252 ], [ 117.31195996874456, 42.409470197869759 ], [ 117.311960035683754, 42.409483706702943 ], [ 117.311966112069058, 42.409483690167519 ], [ 117.311966156696073, 42.40949269605629 ], [ 117.31197223308223, 42.409492679520547 ], [ 117.311972255396185, 42.409497182464925 ], [ 117.311978331782782, 42.409497165928876 ], [ 117.311978398725984, 42.409510674761954 ] ] ] } },
{ "type": "Feature", "properties": { "crown_id": 4644, "tree_id": "4648", "top_h_m": 20.447, "H_95_Mean": 21.0375, "DBH": 22.3769, "Carbon_kg": 97.152991, "area_m2": 6.0 }, "geometry": { "type": "Polygon", "coordinates": [ [ [ 117.31202689823958, 42.40948802774011 ], [ 117.312032974625254, 42.409488011201162 ], [ 117.312032907670414, 42.409474502368084 ], [ 117.312038984054766, 42.409474485828831 ], [ 117.312038917098661, 42.409460976995753 ], [ 117.312032840715588, 42.409460993534999 ], [ 117.312032818397327, 42.409456490590628 ], [ 117.312014589249443, 42.40945654020647 ], [ 117.312014633883337, 42.40946554609522 ], [ 117.312008557499823, 42.409465562633187 ], [ 117.312008602132906, 42.409474568521929 ], [ 117.312014678517272, 42.409474551983948 ], [ 117.312014723151222, 42.40948355787269 ], [ 117.312026875921731, 42.40948352479576 ], [ 117.31202689823958, 42.40948802774011 ] ] ] } },
{ "type": "Feature", "properties": { "crown_id": 4656, "tree_id": "4660", "top_h_m": 19.484, "H_95_Mean": 19.8473, "DBH": 23.9891, "Carbon_kg": 107.992262, "area_m2": 8.75 }, "geometry": { "type": "Polygon", "coordinates": [ [ [ 117.311935663208544, 42.409470264008142 ], [ 117.311953892360563, 42.409470214404848 ], [ 117.311953870047958, 42.409465711460449 ], [ 117.311959946431514, 42.409465694925373 ], [ 117.311959924118455, 42.409461191980981 ], [ 117.311966000501585, 42.409461175445578 ], [ 117.311965955874626, 42.409452169556786 ], [ 117.311959879492363, 42.409452186092167 ], [ 117.311959834866315, 42.409443180203354 ], [ 117.311953758484933, 42.409443196738415 ], [ 117.311953713859737, 42.409434190849559 ], [ 117.311941561098692, 42.409434223918709 ], [ 117.311941583410416, 42.409438726863144 ], [ 117.311929430648448, 42.409438759930993 ], [ 117.311929542202762, 42.409461274653111 ], [ 117.311935618585906, 42.409461258119329 ], [ 117.311935663208544, 42.409470264008142 ] ] ] } },
{ "type": "Feature", "properties": { "crown_id": 4657, "tree_id": "4661", "top_h_m": 21.27, "H_95_Mean": 21.4264, "DBH": 27.4093, "Carbon_kg": 147.816178, "area_m2": 12.75 }, "geometry": { "type": "Polygon", "coordinates": [ [ [ 117.311972099198613, 42.409465661854263 ], [ 117.311978175582155, 42.409465645318221 ], [ 117.311978153267816, 42.409461142373836 ], [ 117.312008535183296, 42.409461059688816 ], [ 117.312008490550269, 42.409452053800038 ], [ 117.312002414168049, 42.409452070337693 ], [ 117.312002391851976, 42.409447567393293 ], [ 117.311996315470168, 42.409447583930621 ], [ 117.311996248523286, 42.409434075097408 ], [ 117.312002324903773, 42.409434058560109 ], [ 117.312002302587729, 42.409429555615702 ], [ 117.311984073447547, 42.409429605226656 ], [ 117.311984051132796, 42.409425102282242 ], [ 117.311977974753177, 42.409425118818575 ], [ 117.311977930124584, 42.409416112929719 ], [ 117.311959700988268, 42.409416162536793 ], [ 117.311959812553297, 42.409438677258933 ], [ 117.311965888934239, 42.409438660723552 ], [ 117.311965933561154, 42.40944766661238 ], [ 117.311972009942963, 42.409447650076665 ], [ 117.311972099198613, 42.409465661854263 ] ] ] } },
{ "type": "Feature", "properties": { "crown_id": 4676, "tree_id": "4680", "top_h_m": 20.655, "H_95_Mean": 21.3693, "DBH": 20.9329, "Carbon_kg": 85.720765, "area_m2": 4.5 }, "geometry": { "type": "Polygon", "coordinates": [ [ [ 117.31204499348172, 42.409460960456165 ], [ 117.312063222630854, 42.409460910835499 ], [ 117.312063155669577, 42.409447402002407 ], [ 117.31205707928784, 42.409447418542939 ], [ 117.312057034647864, 42.409438412654197 ], [ 117.312038805505239, 42.409438462273854 ], [ 117.312038850142599, 42.409447468162625 ], [ 117.312032773760833, 42.409447484701879 ], [ 117.312032796079066, 42.40945198764625 ], [ 117.312038872461287, 42.409451971106996 ], [ 117.312038894779974, 42.409456474051375 ], [ 117.312044971162592, 42.409456457511801 ], [ 117.31204499348172, 42.409460960456165 ] ] ] } },
{ "type": "Feature", "properties": { "crown_id": 4720, "tree_id": "4724", "top_h_m": 22.036, "H_95_Mean": 21.444, "DBH": 36.7523, "Carbon_kg": 267.1033, "area_m2": 39.75 }, "geometry": { "type": "MultiPolygon", "coordinates": [ [ [ [ 117.312039073329643, 42.409492497606237 ], [ 117.312057302487943, 42.409492447986473 ], [ 117.31205736944807, 42.409505956819459 ], [ 117.312063445835449, 42.409505940278883 ], [ 117.312063423514971, 42.409501437334562 ], [ 117.312075576288862, 42.409501404252453 ], [ 117.312075553967503, 42.409496901308138 ], [ 117.312081630354015, 42.409496884766604 ], [ 117.31208160803223, 42.409492381822275 ], [ 117.312093760804359, 42.409492348738254 ], [ 117.312093738481707, 42.409487845793933 ], [ 117.312105891252955, 42.409487812708626 ], [ 117.31210586892945, 42.409483309764298 ], [ 117.312124098084951, 42.409483260133925 ], [ 117.312123986461003, 42.409460745412311 ], [ 117.312117910077987, 42.40946076195609 ], [ 117.312117887753658, 42.409456259011748 ], [ 117.312111811371082, 42.409456275555186 ], [ 117.312111699751625, 42.409433760833451 ], [ 117.312105623371224, 42.409433777376542 ], [ 117.312105556400923, 42.409420268543464 ], [ 117.312093403642734, 42.409420301628685 ], [ 117.312093381320167, 42.409415798684307 ], [ 117.312081228562818, 42.40941583176825 ], [ 117.312081273206203, 42.409424837657021 ], [ 117.312075196826655, 42.409424854198505 ], [ 117.312075219147914, 42.409429357142876 ], [ 117.312063066387935, 42.409429390224908 ], [ 117.312063133349156, 42.409442899058035 ], [ 117.312069209730453, 42.409442882517183 ], [ 117.312069321334761, 42.409465397238975 ], [ 117.312045015800848, 42.409465463400522 ], [ 117.312045082758289, 42.409478972233593 ], [ 117.312039006373482, 42.409478988773188 ], [ 117.312039073329643, 42.409492497606237 ] ], [ [ 117.312075375396915, 42.409460877753439 ], [ 117.312075308433037, 42.409447368920368 ], [ 117.312093537578178, 42.409447319294884 ], [ 117.312093604545979, 42.409460828127926 ], [ 117.312075375396915, 42.409460877753439 ] ] ], [ [ [ 117.312039073329643, 42.409492497606237 ], [ 117.312026920557429, 42.409492530684467 ], [ 117.312026942875306, 42.409497033628817 ], [ 117.312033019261847, 42.409497017089848 ], [ 117.312033086216772, 42.409510525922862 ], [ 117.31203916260462, 42.409510509383587 ], [ 117.312039251879682, 42.409528521160858 ], [ 117.312045328269249, 42.409528504621242 ], [ 117.312045283630852, 42.409519498732607 ], [ 117.312051360019552, 42.409519482192678 ], [ 117.312051337699927, 42.409514979248357 ], [ 117.312057414088173, 42.409514962708101 ], [ 117.31205736944807, 42.409505956819459 ], [ 117.312039140285876, 42.409506006439244 ], [ 117.312039073329643, 42.409492497606237 ] ] ] ] } },
{ "type": "Feature", "properties": { "crown_id": 4728, "tree_id": "4732", "top_h_m": 20.676, "H_95_Mean": 21.6799, "DBH": 19.7549, "Carbon_kg": 76.929681, "area_m2": 3.5 }, "geometry": { "type": "Polygon", "coordinates": [ [ [ 117.312014566932476, 42.409452037262078 ], [ 117.312026719696888, 42.409452004185198 ], [ 117.312026697379082, 42.409447501240805 ], [ 117.312020620997302, 42.409447517779412 ], [ 117.312020554045205, 42.409434008946235 ], [ 117.31203878318658, 42.409433959329483 ], [ 117.312038760867907, 42.409429456385084 ], [ 117.312008378967747, 42.409429539078069 ], [ 117.312008423600759, 42.409438544966868 ], [ 117.312002347219845, 42.409438561504494 ], [ 117.312002369535904, 42.409443064448901 ], [ 117.312008445917257, 42.409443047911275 ], [ 117.312008468233756, 42.40944755085566 ], [ 117.312014544615536, 42.409447534317692 ], [ 117.312014566932476, 42.409452037262078 ] ] ] } },
{ "type": "Feature", "properties": { "crown_id": 4768, "tree_id": "4772", "top_h_m": 21.661, "H_95_Mean": 22.16, "DBH": 21.594, "Carbon_kg": 93.247141, "area_m2": 4.75 }, "geometry": { "type": "Polygon", "coordinates": [ [ [ 117.311990127512445, 42.409425085745575 ], [ 117.312020509410488, 42.409425003057443 ], [ 117.312020464775784, 42.40941599716863 ], [ 117.31201438839706, 42.409416013706888 ], [ 117.312014343763266, 42.409407007818054 ], [ 117.31199611462965, 42.409407057430919 ], [ 117.311996136945226, 42.409411560375332 ], [ 117.311983984188586, 42.409411593448965 ], [ 117.311984028818046, 42.409420599337814 ], [ 117.311990105197268, 42.409420582801147 ], [ 117.311990127512445, 42.409425085745575 ] ] ] } },
{ "type": "Feature", "properties": { "crown_id": 4778, "tree_id": "4782", "top_h_m": 18.59, "H_95_Mean": 18.7001, "DBH": 20.1876, "Carbon_kg": 73.634235, "area_m2": 5.0 }, "geometry": { "type": "Polygon", "coordinates": [ [ [ 117.312111677427751, 42.409429257889087 ], [ 117.312123830187645, 42.409429224801912 ], [ 117.312123785538176, 42.409420218913191 ], [ 117.312129861917242, 42.409420202369127 ], [ 117.312129817266907, 42.409411196480399 ], [ 117.312123740888723, 42.409411213024455 ], [ 117.312123696239269, 42.409402207135706 ], [ 117.312099390729884, 42.409402273308714 ], [ 117.312099457698821, 42.409415782141856 ], [ 117.312111610456157, 42.409415749055981 ], [ 117.312111677427751, 42.409429257889087 ] ] ] } },
{ "type": "Feature", "properties": { "crown_id": 4804, "tree_id": "4808", "top_h_m": 22.13, "H_95_Mean": 22.8249, "DBH": 32.5952, "Carbon_kg": 217.590731, "area_m2": 22.25 }, "geometry": { "type": "Polygon", "coordinates": [ [ [ 117.312044859567038, 42.40943394278991 ], [ 117.312057012327898, 42.409433909709811 ], [ 117.31205696768798, 42.409424903821055 ], [ 117.312069120447092, 42.409424870739677 ], [ 117.312069098126287, 42.409420367795292 ], [ 117.312075174505395, 42.40942035125412 ], [ 117.312075129862905, 42.409411345365356 ], [ 117.312093358997615, 42.409411295739936 ], [ 117.312093314352524, 42.409402289851158 ], [ 117.312087237975149, 42.409402306393282 ], [ 117.312087260297275, 42.409406809337675 ], [ 117.31206903116383, 42.409406858962122 ], [ 117.312068941880653, 42.409388847184502 ], [ 117.312062865504572, 42.409388863725333 ], [ 117.312062843184222, 42.409384360780912 ], [ 117.312044614057243, 42.409384410401451 ], [ 117.3120445917382, 42.409379907457023 ], [ 117.312014209861985, 42.409379990151471 ], [ 117.312014299129473, 42.409398001929219 ], [ 117.312008222752468, 42.409398018467144 ], [ 117.312008245068924, 42.409402521411565 ], [ 117.312020397823787, 42.409402488335374 ], [ 117.312020442458461, 42.409411494224209 ], [ 117.312026518836731, 42.409411477685623 ], [ 117.312026585790079, 42.40942498651885 ], [ 117.312044814928839, 42.409424936901139 ], [ 117.312044859567038, 42.40943394278991 ] ] ] } }
]
}
