{
"type": "FeatureCollection",
"name": "tile_16_14",
"crs": { "type": "name", "properties": { "name": "urn:ogc:def:crs:OGC:1.3:CRS84" } },
"features": [
{ "type": "Feature", "properties": { "crown_id": 6393, "tree_id": "6399", "top_h_m": 20.38, "H_95_Mean": 20.58, "DBH": 24.5833, "Carbon_kg": 115.910185, "area_m2": 9.0 }, "geometry": { "type": "Polygon", "coordinates": [ [ [ 117.313134845285902, 42.408674465793304 ], [ 117.313146997898912, 42.40867443259814 ], [ 117.313146975501567, 42.40866992965362 ], [ 117.313171280725811, 42.408669863259441 ], [ 117.313171213528619, 42.408656354425908 ], [ 117.313165137223891, 42.408656371024925 ], [ 117.313165070028049, 42.408642862191364 ], [ 117.313140764814221, 42.4086429285842 ], [ 117.313140787211083, 42.408647431528742 ], [ 117.313134710907178, 42.408647448126146 ], [ 117.313134733303627, 42.408651951070667 ], [ 117.313128656999268, 42.408651967667765 ], [ 117.3131287017913, 42.408660973556827 ], [ 117.313134778096497, 42.408660956959743 ], [ 117.313134845285902, 42.408674465793304 ] ] ] } },
{ "type": "Feature", "properties": { "crown_id": 6394, "tree_id": "6400", "top_h_m": 20.18, "H_95_Mean": 21.4082, "DBH": 26.6795, "Carbon_kg": 139.920589, "area_m2": 11.5 }, "geometry": { "type": "Polygon", "coordinates": [ [ [ 117.313286775354442, 42.408678553705613 ], [ 117.313305004274895, 42.408678503888211 ], [ 117.313304981866253, 42.408674000943769 ], [ 117.31329890555989, 42.408674017549885 ], [ 117.313298838335299, 42.40866050871653 ], [ 117.313304914640369, 42.408660492110428 ], [ 117.313304847414543, 42.408646983277045 ], [ 117.313280542199465, 42.408647049699518 ], [ 117.313280497385719, 42.408638043810562 ], [ 117.313274421082824, 42.408638060415363 ], [ 117.313274443489249, 42.408642563359855 ], [ 117.313244061972398, 42.408642646379072 ], [ 117.313244084376663, 42.408647149323563 ], [ 117.313256236984273, 42.408647116116846 ], [ 117.313256259389405, 42.408651619061317 ], [ 117.313262335693651, 42.408651602457475 ], [ 117.313262380504796, 42.408660608346423 ], [ 117.313268456809894, 42.408660591742255 ], [ 117.31326850162192, 42.408669597631174 ], [ 117.313274577927885, 42.408669581026672 ], [ 117.313274600334353, 42.408674083971128 ], [ 117.313286752947135, 42.408674050761149 ], [ 117.313286775354442, 42.408678553705613 ] ] ] } },
{ "type": "Feature", "properties": { "crown_id": 6416, "tree_id": "6422", "top_h_m": 21.006, "H_95_Mean": 21.3524, "DBH": 25.1932, "Carbon_kg": 124.46204, "area_m2": 9.25 }, "geometry": { "type": "Polygon", "coordinates": [ [ [ 117.313304959457611, 42.408669497999327 ], [ 117.313317112069484, 42.408669464786136 ], [ 117.313317089659975, 42.408664961841687 ], [ 117.313329242270953, 42.408664928627211 ], [ 117.313329197450244, 42.408655922738319 ], [ 117.313359578973248, 42.408655839696507 ], [ 117.313359556560712, 42.408651336752079 ], [ 117.313353480256566, 42.40865135336108 ], [ 117.313353457844485, 42.408646850416638 ], [ 117.313341305237032, 42.408646883633672 ], [ 117.313341282825817, 42.40864238068923 ], [ 117.31333520652251, 42.40864239729725 ], [ 117.313335161700991, 42.408633391408337 ], [ 117.313310856491199, 42.408633457837219 ], [ 117.313310878900253, 42.408637960781689 ], [ 117.313304802597344, 42.408637977388103 ], [ 117.313304825005957, 42.408642480332581 ], [ 117.313310901309265, 42.40864246372616 ], [ 117.313311013354507, 42.408664978448428 ], [ 117.313304937049011, 42.408664995054878 ], [ 117.313304959457611, 42.408669497999327 ] ] ] } },
{ "type": "Feature", "properties": { "crown_id": 6426, "tree_id": "6432", "top_h_m": 20.331, "H_95_Mean": 20.9302, "DBH": 28.6235, "Carbon_kg": 159.090613, "area_m2": 15.75 }, "geometry": { "type": "Polygon", "coordinates": [ [ [ 117.313183455737828, 42.408674333004917 ], [ 117.313195608350767, 42.408674299804602 ], [ 117.313195585949941, 42.40866979686011 ], [ 117.313213814868021, 42.408669747057218 ], [ 117.313213770063797, 42.408660741168241 ], [ 117.313219846368938, 42.408660724566651 ], [ 117.313219801563889, 42.40865171867766 ], [ 117.313225877868163, 42.408651702075744 ], [ 117.313225810659304, 42.40863819324224 ], [ 117.313231886962257, 42.408638176640011 ], [ 117.313231864558887, 42.408633673695505 ], [ 117.313213635651294, 42.408633723501225 ], [ 117.313213658053371, 42.408638226445724 ], [ 117.313195429144443, 42.40863827624856 ], [ 117.313195406743674, 42.408633773304039 ], [ 117.313189330441134, 42.408633789904343 ], [ 117.313189308040791, 42.408629286959808 ], [ 117.313177155436534, 42.408629320159427 ], [ 117.313177200235458, 42.408638326048489 ], [ 117.313171123932449, 42.408638342647826 ], [ 117.313171191129584, 42.408651851481395 ], [ 117.313177267433886, 42.408651834882058 ], [ 117.313177357031847, 42.408669846660096 ], [ 117.313183433337898, 42.408669830060418 ], [ 117.313183455737828, 42.408674333004917 ] ] ] } },
{ "type": "Feature", "properties": { "crown_id": 6445, "tree_id": "6451", "top_h_m": 20.38, "H_95_Mean": 20.8137, "DBH": 24.7152, "Carbon_kg": 117.952179, "area_m2": 9.0 }, "geometry": { "type": "Polygon", "coordinates": [ [ [ 117.313359534148205, 42.408646833807637 ], [ 117.31336561045191, 42.408646817198317 ], [ 117.313365498387228, 42.408624302476078 ], [ 117.313359422085696, 42.408624319085384 ], [ 117.31335933243578, 42.408606307307522 ], [ 117.313353256135983, 42.408606323916501 ], [ 117.313353211311906, 42.408597318027539 ], [ 117.313341058714016, 42.408597351244509 ], [ 117.313341125947503, 42.408610860077957 ], [ 117.31333504964725, 42.408610876685984 ], [ 117.313335139290245, 42.408628888463873 ], [ 117.313341215592231, 42.408628871855839 ], [ 117.313341260414617, 42.408637877744766 ], [ 117.31334733671747, 42.408637861136413 ], [ 117.313347359129111, 42.408642364080869 ], [ 117.313359511735683, 42.408642330863202 ], [ 117.313359534148205, 42.408646833807637 ] ] ] } },
{ "type": "Feature", "properties": { "crown_id": 6470, "tree_id": "6476", "top_h_m": 20.499, "H_95_Mean": 20.6271, "DBH": 24.0644, "Carbon_kg": 111.182133, "area_m2": 8.25 }, "geometry": { "type": "Polygon", "coordinates": [ [ [ 117.313140742417374, 42.408638425639658 ], [ 117.31316504762944, 42.408638359246837 ], [ 117.313165025230859, 42.408633856302302 ], [ 117.313171101533428, 42.408633839703299 ], [ 117.31317107913442, 42.40862933675875 ], [ 117.313165002832278, 42.408629353357746 ], [ 117.313164935636522, 42.408615844524128 ], [ 117.313158859335672, 42.408615861122804 ], [ 117.31315881453942, 42.408606855233693 ], [ 117.313152738239438, 42.408606871832049 ], [ 117.313152715841738, 42.408602368887479 ], [ 117.313140563242655, 42.408602402083197 ], [ 117.313140608036306, 42.408611407972337 ], [ 117.313134531735869, 42.40861142456972 ], [ 117.313134621321495, 42.408629436347958 ], [ 117.313140697623652, 42.408629419750561 ], [ 117.313140742417374, 42.408638425639658 ] ] ] } },
{ "type": "Feature", "properties": { "crown_id": 6495, "tree_id": "6501", "top_h_m": 20.362, "H_95_Mean": 20.6548, "DBH": 31.5332, "Carbon_kg": 191.859871, "area_m2": 23.5 }, "geometry": { "type": "Polygon", "coordinates": [ [ [ 117.313201483046228, 42.408633756703416 ], [ 117.313207559348768, 42.408633740102474 ], [ 117.313207536947132, 42.408629237157967 ], [ 117.313225765853431, 42.408629187353213 ], [ 117.313225676241728, 42.408611175575132 ], [ 117.313231752542094, 42.40861115897291 ], [ 117.313231730138753, 42.40860665602839 ], [ 117.313219577538902, 42.408606689232492 ], [ 117.313219555136442, 42.408602186287958 ], [ 117.313213478836943, 42.408602202889519 ], [ 117.313213456434923, 42.408597699944984 ], [ 117.313201303836777, 42.40859773314714 ], [ 117.313201281435624, 42.408593230202591 ], [ 117.31318912883836, 42.408593263403461 ], [ 117.313189106438074, 42.408588760458898 ], [ 117.313183030139854, 42.408588777058853 ], [ 117.313182985340177, 42.408579771169727 ], [ 117.313176909042824, 42.408579787769341 ], [ 117.313176886643433, 42.408575284824771 ], [ 117.313170810346506, 42.408575301424058 ], [ 117.313170787947556, 42.408570798479488 ], [ 117.313152559058082, 42.408570848275446 ], [ 117.313152603853396, 42.408579854164593 ], [ 117.313146527556015, 42.408579870762615 ], [ 117.313146549953245, 42.408584373707193 ], [ 117.313152626251039, 42.408584357109191 ], [ 117.313152693444067, 42.408597865942902 ], [ 117.313158769743183, 42.408597849344567 ], [ 117.313158792141294, 42.408602352289122 ], [ 117.313164868440836, 42.40860233569046 ], [ 117.313164913237955, 42.408611341579579 ], [ 117.313170989538364, 42.408611324980576 ], [ 117.313171056735399, 42.40862483381423 ], [ 117.313195361942149, 42.408624767414992 ], [ 117.313195384342905, 42.408629270359505 ], [ 117.313201460645018, 42.408629253758903 ], [ 117.313201483046228, 42.408633756703416 ] ] ] } },
{ "type": "Feature", "properties": { "crown_id": 6496, "tree_id": "6502", "top_h_m": 21.17, "H_95_Mean": 21.0144, "DBH": 26.2969, "Carbon_kg": 134.42163, "area_m2": 11.25 }, "geometry": { "type": "Polygon", "coordinates": [ [ [ 117.313237963265209, 42.408638160037441 ], [ 117.313268344779885, 42.408638077019845 ], [ 117.313268322373929, 42.40863357407536 ], [ 117.313280474978896, 42.408633540866077 ], [ 117.313280452572045, 42.408629037921578 ], [ 117.313262223665873, 42.408629087735036 ], [ 117.313262156449269, 42.408615578901511 ], [ 117.313274309050783, 42.408615545692889 ], [ 117.313274286644386, 42.40861104274839 ], [ 117.313268210344077, 42.408611059352864 ], [ 117.313268143126237, 42.408597550519318 ], [ 117.313255990528205, 42.408597583727278 ], [ 117.31325601293328, 42.408602086671799 ], [ 117.31324993663381, 42.408602103275292 ], [ 117.313249914229175, 42.408597600330765 ], [ 117.313243837930131, 42.408597616933946 ], [ 117.313243882738561, 42.408606622823001 ], [ 117.31323780643865, 42.408606639425848 ], [ 117.3132378512462, 42.408615645314896 ], [ 117.313231774945436, 42.408615661917437 ], [ 117.313231842155517, 42.408629170750977 ], [ 117.313237918457617, 42.408629154148443 ], [ 117.313237963265209, 42.408638160037441 ] ] ] } },
{ "type": "Feature", "properties": { "crown_id": 6508, "tree_id": "6514", "top_h_m": 21.27, "H_95_Mean": 21.409, "DBH": 30.8667, "Carbon_kg": 187.71413, "area_m2": 20.25 }, "geometry": { "type": "Polygon", "coordinates": [ [ [ 117.313286596095935, 42.408642530149912 ], [ 117.313298748702621, 42.408642496938668 ], [ 117.313298703886304, 42.40863349104972 ], [ 117.313304780188759, 42.408633474443633 ], [ 117.313304757780173, 42.408628971499148 ], [ 117.313329062988231, 42.408628905071573 ], [ 117.313328950936707, 42.408606390349185 ], [ 117.313335027236533, 42.408606373741499 ], [ 117.313335004825802, 42.408601870797007 ], [ 117.313304623328762, 42.408601953832218 ], [ 117.313304600920233, 42.408597450887704 ], [ 117.313298524621246, 42.408597467493777 ], [ 117.313298412580764, 42.408574952771197 ], [ 117.313280183690281, 42.408575002587455 ], [ 117.313280206097062, 42.408579505531982 ], [ 117.313268053502526, 42.408579538741208 ], [ 117.313268075908439, 42.408584041685735 ], [ 117.313261999610731, 42.408584058289883 ], [ 117.31326204442172, 42.408593064178937 ], [ 117.31327419701887, 42.408593030970337 ], [ 117.313274264238018, 42.408606539803877 ], [ 117.313280340537887, 42.40860652319909 ], [ 117.313280362944695, 42.408611026143596 ], [ 117.313286439245005, 42.408611009538483 ], [ 117.313286506466795, 42.408624518371973 ], [ 117.313292582768398, 42.408624501766518 ], [ 117.313292605176116, 42.408629004711017 ], [ 117.313286528874073, 42.408629021316457 ], [ 117.313286596095935, 42.408642530149912 ] ] ] } },
{ "type": "Feature", "properties": { "crown_id": 6569, "tree_id": "6575", "top_h_m": 19.477, "H_95_Mean": 20.3267, "DBH": 27.6342, "Carbon_kg": 145.660187, "area_m2": 14.5 }, "geometry": { "type": "Polygon", "coordinates": [ [ [ 117.313225631435913, 42.40860216968607 ], [ 117.313231707735412, 42.408602153083855 ], [ 117.31323168533207, 42.408597650139328 ], [ 117.3132377616311, 42.408597633536793 ], [ 117.313237739227347, 42.408593130592266 ], [ 117.313243815525951, 42.408593113989404 ], [ 117.313243770717563, 42.408584108100342 ], [ 117.313231618122103, 42.408584141305703 ], [ 117.31323159571879, 42.408579638361154 ], [ 117.313225519421479, 42.408579654963354 ], [ 117.313225474615734, 42.408570649074242 ], [ 117.313219398319291, 42.408570665676116 ], [ 117.313219331112009, 42.408557156842413 ], [ 117.313213254816873, 42.40855717344396 ], [ 117.313213232414896, 42.408552670499368 ], [ 117.313207156120185, 42.408552687100588 ], [ 117.313207178521722, 42.408557190045173 ], [ 117.313188949636242, 42.4085572398469 ], [ 117.313188972036485, 42.40856174279147 ], [ 117.313176819445275, 42.408561775991018 ], [ 117.313176864244056, 42.408570781880179 ], [ 117.313182940540514, 42.408570765280572 ], [ 117.313182962940346, 42.408575268225142 ], [ 117.313189039237244, 42.408575251625209 ], [ 117.313189084037802, 42.408584257514327 ], [ 117.313195160335567, 42.408584240914074 ], [ 117.313195182736266, 42.408588743858637 ], [ 117.313207335332692, 42.408588710657128 ], [ 117.313207357734271, 42.408593213601677 ], [ 117.313219510331507, 42.408593180398881 ], [ 117.313219532733967, 42.408597683343423 ], [ 117.313225609033026, 42.408597666741535 ], [ 117.313225631435913, 42.40860216968607 ] ] ] } },
{ "type": "Feature", "properties": { "crown_id": 6581, "tree_id": "6587", "top_h_m": 21.209, "H_95_Mean": 21.5763, "DBH": 27.6377, "Carbon_kg": 150.930324, "area_m2": 13.0 }, "geometry": { "type": "Polygon", "coordinates": [ [ [ 117.313310677219206, 42.408597434281312 ], [ 117.313334982415086, 42.408597367852515 ], [ 117.313334960004354, 42.408592864908023 ], [ 117.313353188899896, 42.408592815083054 ], [ 117.313353144075876, 42.40858380919407 ], [ 117.313359220373513, 42.408583792585098 ], [ 117.313359197961063, 42.408579289640606 ], [ 117.313353121663852, 42.408579306249571 ], [ 117.313353099251856, 42.408574803305072 ], [ 117.313340946658315, 42.408574836522021 ], [ 117.313340857013856, 42.408556824743968 ], [ 117.313328704423768, 42.408556857959617 ], [ 117.313328749244249, 42.408565863848651 ], [ 117.313310520356467, 42.408565913669712 ], [ 117.313310542765407, 42.408570416614239 ], [ 117.313304466469049, 42.408570433220625 ], [ 117.313304578511691, 42.408592947943205 ], [ 117.313310654810223, 42.408592931336813 ], [ 117.313310677219206, 42.408597434281312 ] ] ] } },
{ "type": "Feature", "properties": { "crown_id": 6624, "tree_id": "6630", "top_h_m": 19.065, "H_95_Mean": 20.4495, "DBH": 28.1936, "Carbon_kg": 152.205417, "area_m2": 15.5 }, "geometry": { "type": "Polygon", "coordinates": [ [ [ 117.3132498470153, 42.408584091497175 ], [ 117.313255923313008, 42.408584074893682 ], [ 117.313255900907961, 42.40857957194914 ], [ 117.313261977205244, 42.408579555345334 ], [ 117.313261954799771, 42.408575052400799 ], [ 117.31327410739344, 42.408575019192227 ], [ 117.313274017768109, 42.408557007414061 ], [ 117.313267941472986, 42.408557024018492 ], [ 117.313267874255345, 42.408543515184824 ], [ 117.31325572166773, 42.408543548392721 ], [ 117.31325569926274, 42.408539045448158 ], [ 117.313243546675977, 42.408539078654748 ], [ 117.313243524271854, 42.408534575710163 ], [ 117.313231371685944, 42.408534608915474 ], [ 117.313231438895741, 42.40854811774922 ], [ 117.313219286307202, 42.408548150953258 ], [ 117.313219308709606, 42.408552653897843 ], [ 117.313225385004316, 42.408552637295976 ], [ 117.313225452212876, 42.408566146129679 ], [ 117.313231528508879, 42.408566129527486 ], [ 117.313231573315477, 42.408575135416605 ], [ 117.313237649612347, 42.408575118814085 ], [ 117.313237672016101, 42.408579621758633 ], [ 117.313249824610679, 42.408579588552634 ], [ 117.3132498470153, 42.408584091497175 ] ] ] } },
{ "type": "Feature", "properties": { "crown_id": 6647, "tree_id": "6653", "top_h_m": 18.707, "H_95_Mean": 18.5634, "DBH": 21.0844, "Carbon_kg": 80.027759, "area_m2": 6.0 }, "geometry": { "type": "Polygon", "coordinates": [ [ [ 117.313158612956499, 42.408566328732505 ], [ 117.313170765548591, 42.408566295534897 ], [ 117.313170653553911, 42.408543780811925 ], [ 117.313164577260039, 42.408543797410879 ], [ 117.313164554861558, 42.408539294466266 ], [ 117.31314024968772, 42.408539360858867 ], [ 117.313140316877977, 42.408552869692699 ], [ 117.313146393172744, 42.408552853095038 ], [ 117.313146437967134, 42.408561858984243 ], [ 117.313158590558416, 42.408561825787913 ], [ 117.313158612956499, 42.408566328732505 ] ] ] } },
{ "type": "Feature", "properties": { "crown_id": 6648, "tree_id": "6654", "top_h_m": 20.382, "H_95_Mean": 20.8151, "DBH": 28.0705, "Carbon_kg": 152.458507, "area_m2": 14.75 }, "geometry": { "type": "Polygon", "coordinates": [ [ [ 117.313280161283515, 42.408570499642927 ], [ 117.313298390172662, 42.408570449826676 ], [ 117.313298367764574, 42.408565946882149 ], [ 117.313304444060535, 42.408565930276097 ], [ 117.313304421652035, 42.408561427331563 ], [ 117.31332265053851, 42.408561377511482 ], [ 117.313322605718895, 42.408552371622413 ], [ 117.31333475830813, 42.408552338407425 ], [ 117.31333473589747, 42.408547835462905 ], [ 117.31334081219164, 42.40854781885492 ], [ 117.31334078978054, 42.408543315910393 ], [ 117.313322560899323, 42.408543365733351 ], [ 117.313322538489516, 42.408538862788816 ], [ 117.313310385902895, 42.408538896002497 ], [ 117.313310363493983, 42.408534393057948 ], [ 117.313298210908172, 42.40853442627035 ], [ 117.313298188500141, 42.40852992332578 ], [ 117.313279959622704, 42.408529973141952 ], [ 117.313279982029457, 42.408534476086508 ], [ 117.313273905736523, 42.40853449269126 ], [ 117.313273995361783, 42.40855250446949 ], [ 117.313280071656422, 42.408552487864739 ], [ 117.313280161283515, 42.408570499642927 ] ] ] } },
{ "type": "Feature", "properties": { "crown_id": 6727, "tree_id": "6733", "top_h_m": 20.79, "H_95_Mean": 20.5287, "DBH": 33.0437, "Carbon_kg": 210.071506, "area_m2": 28.5 }, "geometry": { "type": "Polygon", "coordinates": [ [ [ 117.313328614782833, 42.408538846181479 ], [ 117.313346843662771, 42.408538796357561 ], [ 117.31334682125123, 42.408534293413034 ], [ 117.313352897544092, 42.408534276804417 ], [ 117.313352875132139, 42.40852977385989 ], [ 117.313358951424561, 42.408529757250953 ], [ 117.313358929012182, 42.408525254306426 ], [ 117.313377157888098, 42.408525204477698 ], [ 117.313377113060781, 42.408516198588629 ], [ 117.313371036769652, 42.408516215198517 ], [ 117.313371014356434, 42.408511712253983 ], [ 117.313358861775086, 42.408511745472786 ], [ 117.313358794538033, 42.40849823663914 ], [ 117.313352718248666, 42.408498253248048 ], [ 117.313352673424845, 42.408489247358922 ], [ 117.313346597136317, 42.408489263967496 ], [ 117.313346574724861, 42.408484761022926 ], [ 117.31332226957251, 42.408484827454039 ], [ 117.313322247162773, 42.408480324509462 ], [ 117.31331009458745, 42.408480357723079 ], [ 117.313310116996291, 42.408484860667677 ], [ 117.313291888131928, 42.408484910485697 ], [ 117.313292089800086, 42.408525436986935 ], [ 117.313304242384135, 42.408525403775187 ], [ 117.31330426479262, 42.408529906719757 ], [ 117.313316417377507, 42.408529873506708 ], [ 117.31331643978686, 42.408534376451264 ], [ 117.313328592372613, 42.408534343236937 ], [ 117.313328614782833, 42.408538846181479 ] ], [ [ 117.313322471260207, 42.40852535395517 ], [ 117.313322404030913, 42.408511845121488 ], [ 117.313340632903035, 42.408511795298594 ], [ 117.313340700136223, 42.408525304132233 ], [ 117.313322471260207, 42.40852535395517 ] ] ] } },
{ "type": "Feature", "properties": { "crown_id": 6746, "tree_id": "6752", "top_h_m": 22.16, "H_95_Mean": 22.2165, "DBH": 31.0041, "Carbon_kg": 193.595357, "area_m2": 19.25 }, "geometry": { "type": "Polygon", "coordinates": [ [ [ 117.313140227290972, 42.40853485791424 ], [ 117.313146303583991, 42.40853484131658 ], [ 117.313146281186832, 42.408530338371961 ], [ 117.31315235747941, 42.408530321773974 ], [ 117.31315222309388, 42.408503304106169 ], [ 117.313158299383858, 42.408503287507884 ], [ 117.313158254587862, 42.408494281618594 ], [ 117.313146102009625, 42.408494314814838 ], [ 117.313146079612494, 42.408489811870183 ], [ 117.313133927035125, 42.408489845065134 ], [ 117.31313388224261, 42.408480839175802 ], [ 117.313115653379114, 42.408480888965798 ], [ 117.313115698169014, 42.408489894855144 ], [ 117.313109621880301, 42.408489911451177 ], [ 117.313109666669334, 42.408498917340509 ], [ 117.313103590379768, 42.408498933936215 ], [ 117.313103724744408, 42.408525951604162 ], [ 117.313109801036603, 42.408525935008441 ], [ 117.313109823431162, 42.408530437953075 ], [ 117.313140204894239, 42.408530354969614 ], [ 117.313140227290972, 42.40853485791424 ] ] ] } },
{ "type": "Feature", "properties": { "crown_id": 6747, "tree_id": "6753", "top_h_m": 20.51, "H_95_Mean": 20.6654, "DBH": 34.5574, "Carbon_kg": 230.822453, "area_m2": 33.5 }, "geometry": { "type": "Polygon", "coordinates": [ [ [ 117.313176797045898, 42.408557273046426 ], [ 117.313182873341077, 42.408557256446819 ], [ 117.31318285094126, 42.408552753502221 ], [ 117.313201079825447, 42.408552703701481 ], [ 117.313201057424351, 42.40854820075689 ], [ 117.313213210012933, 42.408548167554784 ], [ 117.313213187610955, 42.408543664610207 ], [ 117.313225340198628, 42.408543631406815 ], [ 117.313225272990152, 42.408530122573069 ], [ 117.313237425575196, 42.408530089368391 ], [ 117.313237380767816, 42.408521083479229 ], [ 117.31323130447619, 42.408521100081707 ], [ 117.313231282072948, 42.408516597137108 ], [ 117.31322520578172, 42.408516613739273 ], [ 117.313225160976131, 42.408507607850062 ], [ 117.31321908468577, 42.408507624451893 ], [ 117.313218995076355, 42.408489612673414 ], [ 117.313200766210471, 42.40848966247696 ], [ 117.313200743809446, 42.408485159532333 ], [ 117.313188591233015, 42.408485192733075 ], [ 117.313188613633187, 42.408489695677709 ], [ 117.313176461055875, 42.408489728877171 ], [ 117.313176483455166, 42.408494231821813 ], [ 117.313170407166055, 42.408494248421057 ], [ 117.313170429564948, 42.408498751365698 ], [ 117.313164353275397, 42.40849876796463 ], [ 117.313164398072288, 42.408507773853913 ], [ 117.313158321781884, 42.408507790452525 ], [ 117.313158456170058, 42.408534808120287 ], [ 117.313170608756081, 42.4085347749227 ], [ 117.313170631154989, 42.40853927786732 ], [ 117.313176707448434, 42.408539261268047 ], [ 117.313176797045898, 42.408557273046426 ] ] ] } },
{ "type": "Feature", "properties": { "crown_id": 6752, "tree_id": "6758", "top_h_m": 20.127, "H_95_Mean": 20.5677, "DBH": 32.0578, "Carbon_kg": 197.852252, "area_m2": 25.25 }, "geometry": { "type": "Polygon", "coordinates": [ [ [ 117.3132617755561, 42.408539028844366 ], [ 117.31326785184946, 42.408539012240254 ], [ 117.313267807037732, 42.408530006351121 ], [ 117.313273883330226, 42.40852998974669 ], [ 117.313273860923942, 42.40852548680212 ], [ 117.313286013508048, 42.408525453592318 ], [ 117.313285789436691, 42.408480424146447 ], [ 117.313279713148972, 42.408480440751482 ], [ 117.313279690742306, 42.408475937806877 ], [ 117.313249309305888, 42.408476020827223 ], [ 117.313249331710409, 42.408480523771843 ], [ 117.31323717913493, 42.408480556977743 ], [ 117.31323720153857, 42.408485059922363 ], [ 117.313231125250383, 42.408485076524833 ], [ 117.313231147653596, 42.408489579469453 ], [ 117.313225071364997, 42.408489596071597 ], [ 117.313225138573316, 42.408503104905456 ], [ 117.313231214863251, 42.408503088303313 ], [ 117.313231259669706, 42.40851209419251 ], [ 117.313237335960494, 42.408512077590025 ], [ 117.313237358364148, 42.408516580534631 ], [ 117.313243434655377, 42.408516563931819 ], [ 117.313243501867717, 42.408530072765586 ], [ 117.313249578160239, 42.408530056162448 ], [ 117.313249600564774, 42.408534559107032 ], [ 117.31326175315067, 42.408534525899796 ], [ 117.3132617755561, 42.408539028844366 ] ] ] } }
]
}
