{
"type": "FeatureCollection",
"name": "tile_24_19",
"crs": { "type": "name", "properties": { "name": "urn:ogc:def:crs:OGC:1.3:CRS84" } },
"features": [
{ "type": "Feature", "properties": { "crown_id": 8930, "tree_id": "8939", "top_h_m": 24.035, "H_95_Mean": 24.106, "DBH": 26.859, "Carbon_kg": 152.13805, "area_m2": 9.5 }, "geometry": { "type": "Polygon", "coordinates": [ [ [ 117.314482731369097, 42.407243323190222 ], [ 117.314494883704313, 42.407243289853078 ], [ 117.314494861211699, 42.407238786908017 ], [ 117.314513089713188, 42.407238736899892 ], [ 117.314513112207081, 42.407243239844938 ], [ 117.314519188374675, 42.407243223174923 ], [ 117.314519165880341, 42.40723872022987 ], [ 117.314525242047466, 42.407238703559528 ], [ 117.314525152068384, 42.407220691779308 ], [ 117.314519075902979, 42.407220708449636 ], [ 117.314519053408674, 42.407216205504568 ], [ 117.31451297724368, 42.407216222174583 ], [ 117.314512954749802, 42.407211719229494 ], [ 117.31450080242071, 42.407211752568543 ], [ 117.314500847406748, 42.407220758458699 ], [ 117.314494771241314, 42.40722077512774 ], [ 117.3144947937339, 42.407225278072815 ], [ 117.31447048907043, 42.407225344745775 ], [ 117.314470534052148, 42.407234350635939 ], [ 117.314482686385631, 42.407234317300095 ], [ 117.314482731369097, 42.407243323190222 ] ] ] } },
{ "type": "Feature", "properties": { "crown_id": 8958, "tree_id": "8967", "top_h_m": 25.091, "H_95_Mean": 24.9964, "DBH": 48.7232, "Carbon_kg": 516.241678, "area_m2": 89.75 }, "geometry": { "type": "MultiPolygon", "coordinates": [ [ [ [ 117.314373427803076, 42.407257132001888 ], [ 117.314385580141078, 42.407257098676311 ], [ 117.31438555765628, 42.407252595731222 ], [ 117.314397709993401, 42.407252562404366 ], [ 117.314397687507721, 42.407248059459256 ], [ 117.314409839843947, 42.407248026131136 ], [ 117.314409817357429, 42.40724352318604 ], [ 117.314415893525094, 42.407243506521496 ], [ 117.314415871038136, 42.407239003576407 ], [ 117.314428023372585, 42.407238970246354 ], [ 117.314427776006795, 42.407189437850136 ], [ 117.31443385216923, 42.407189421184647 ], [ 117.314433829681022, 42.407184918239523 ], [ 117.31444598200504, 42.407184884907601 ], [ 117.31444595951595, 42.407180381962469 ], [ 117.314452035677505, 42.407180365296028 ], [ 117.314452013188003, 42.407175862350897 ], [ 117.314458089349131, 42.407175845684129 ], [ 117.314458044369275, 42.407166839793874 ], [ 117.314464120529536, 42.407166823126794 ], [ 117.314464075548827, 42.407157817236524 ], [ 117.314470151708207, 42.407157800569124 ], [ 117.314470061745126, 42.407139788788555 ], [ 117.314457909429862, 42.407139822123 ], [ 117.314457954409647, 42.407148828013312 ], [ 117.314433649775594, 42.407148894678365 ], [ 117.314433672263746, 42.407153397623517 ], [ 117.314415443786842, 42.407153447618938 ], [ 117.314415466273729, 42.407157950564105 ], [ 117.314385085476616, 42.407158033883363 ], [ 117.314385062991917, 42.407153530938189 ], [ 117.314372910673882, 42.407153564263645 ], [ 117.314372888190093, 42.407149061318471 ], [ 117.314366812031508, 42.407149077980691 ], [ 117.31436676706474, 42.407140072090307 ], [ 117.314348538591588, 42.40714012207507 ], [ 117.314348561073658, 42.40714462502028 ], [ 117.314342484915485, 42.407144641681221 ], [ 117.314342529878786, 42.407153647571626 ], [ 117.314336453719733, 42.407153664232254 ], [ 117.314336476200936, 42.407158167177442 ], [ 117.314342552360415, 42.407158150516807 ], [ 117.314342619805402, 42.407171659352372 ], [ 117.314336543644629, 42.407171676013014 ], [ 117.31433656612586, 42.407176178958196 ], [ 117.314342642287059, 42.407176162297546 ], [ 117.314342777177188, 42.407203179968548 ], [ 117.31433670101336, 42.407203196629204 ], [ 117.314336768457196, 42.40721670546467 ], [ 117.31433069229206, 42.407216722125014 ], [ 117.314330714772922, 42.407221225070167 ], [ 117.314324638607346, 42.407221241730205 ], [ 117.314324661087767, 42.40722574467533 ], [ 117.314312508755762, 42.407225777994427 ], [ 117.314312553714856, 42.407234783884732 ], [ 117.314318629881768, 42.407234767225333 ], [ 117.314318652361749, 42.407239270170479 ], [ 117.314336880863678, 42.407239220190363 ], [ 117.31433690334498, 42.407243723135487 ], [ 117.314349055680452, 42.407243689813797 ], [ 117.314349033198269, 42.407239186868679 ], [ 117.314367261700113, 42.407239136883746 ], [ 117.314367284183604, 42.407243639828856 ], [ 117.314373360351297, 42.407243623166558 ], [ 117.314373427803076, 42.407257132001888 ] ], [ [ 117.314415871038136, 42.407239003576407 ], [ 117.314397642536406, 42.407239053569079 ], [ 117.314397575079468, 42.407225544733734 ], [ 117.314415803577276, 42.407225494741098 ], [ 117.314415871038136, 42.407239003576407 ] ] ], [ [ [ 117.314470061745126, 42.407139788788555 ], [ 117.314476137902759, 42.407139772120843 ], [ 117.314476092920387, 42.407130766230544 ], [ 117.314470016763636, 42.407130782898243 ], [ 117.314470061745126, 42.407139788788555 ] ] ] ] } },
{ "type": "Feature", "properties": { "crown_id": 8964, "tree_id": "8973", "top_h_m": 23.6, "H_95_Mean": 23.0687, "DBH": 32.6635, "Carbon_kg": 219.888111, "area_m2": 22.0 }, "geometry": { "type": "Polygon", "coordinates": [ [ [ 117.31443400958679, 42.407220941800453 ], [ 117.314446161917743, 42.407220908468489 ], [ 117.314446139428625, 42.4072164055234 ], [ 117.314464367923719, 42.40721635552304 ], [ 117.31446439041413, 42.407220858468129 ], [ 117.314488695075894, 42.407220791796462 ], [ 117.314488672583749, 42.407216288851387 ], [ 117.314494748748743, 42.407216272182666 ], [ 117.314494636285886, 42.407193757457215 ], [ 117.314500712448719, 42.407193740788188 ], [ 117.314500689955736, 42.407189237843085 ], [ 117.314494613793329, 42.407189254512119 ], [ 117.3144945913008, 42.407184751567016 ], [ 117.314488515138834, 42.407184768235716 ], [ 117.314488447662526, 42.407171259400378 ], [ 117.314476295341208, 42.407171292736798 ], [ 117.31447625035878, 42.407162286846543 ], [ 117.314470174198973, 42.407162303514269 ], [ 117.314470219180549, 42.407171309404525 ], [ 117.314464143019876, 42.407171326071925 ], [ 117.314464188000599, 42.407180331962174 ], [ 117.314458111839059, 42.407180348629261 ], [ 117.314458134329001, 42.407184851574378 ], [ 117.314452058167006, 42.407184868241146 ], [ 117.314452080656523, 42.407189371186277 ], [ 117.31443992833168, 42.407189404518839 ], [ 117.314439950820315, 42.407193907463963 ], [ 117.314433874657453, 42.407193924129771 ], [ 117.31443400958679, 42.407220941800453 ] ] ] } },
{ "type": "Feature", "properties": { "crown_id": 8973, "tree_id": "8982", "top_h_m": 23.37, "H_95_Mean": 23.8277, "DBH": 40.105, "Carbon_kg": 338.976353, "area_m2": 46.0 }, "geometry": { "type": "Polygon", "coordinates": [ [ [ 117.31453127322419, 42.407229680998768 ], [ 117.314561654055453, 42.407229597640644 ], [ 117.31456145157928, 42.407189071135136 ], [ 117.314567527741602, 42.407189054462563 ], [ 117.314567505243829, 42.407184551517503 ], [ 117.314573581405725, 42.407184534844617 ], [ 117.314573536409327, 42.407175528954461 ], [ 117.314579612570341, 42.407175512281263 ], [ 117.314579590071745, 42.407171009336182 ], [ 117.314585666232304, 42.407170992662657 ], [ 117.31458562123423, 42.4071619867725 ], [ 117.314597773553615, 42.407161953424506 ], [ 117.314597728553792, 42.407152947534328 ], [ 117.314561271600795, 42.407153047574447 ], [ 117.314561249103491, 42.407148544629351 ], [ 117.314555172945077, 42.407148561301561 ], [ 117.314555195441926, 42.407153064246664 ], [ 117.314543043124203, 42.407153097590161 ], [ 117.314543065620185, 42.407157600535264 ], [ 117.314524837142258, 42.407157650548079 ], [ 117.314524814647584, 42.407153147602955 ], [ 117.314476205376351, 42.40715328095628 ], [ 117.314476227867559, 42.407157783901411 ], [ 117.314482304026924, 42.407157767233372 ], [ 117.31448234901022, 42.407166773123627 ], [ 117.314494501330643, 42.407166739786575 ], [ 117.314494568808257, 42.407180248621913 ], [ 117.314500644969755, 42.407180231952886 ], [ 117.314500667462752, 42.407184734897989 ], [ 117.31450674362469, 42.407184718228649 ], [ 117.314506811104934, 42.40719822706393 ], [ 117.314500734941703, 42.407198243733291 ], [ 117.314500779927698, 42.407207249623461 ], [ 117.314519008420035, 42.407207199614419 ], [ 117.31451903091434, 42.407211702559493 ], [ 117.314525107078879, 42.407211685889173 ], [ 117.314525129573639, 42.407216188834248 ], [ 117.314531205738589, 42.407216172163594 ], [ 117.31453127322419, 42.407229680998768 ] ] ] } },
{ "type": "Feature", "properties": { "crown_id": 9081, "tree_id": "9092", "top_h_m": 18.934, "H_95_Mean": 18.8174, "DBH": 24.9522, "Carbon_kg": 113.281699, "area_m2": 11.25 }, "geometry": { "type": "Polygon", "coordinates": [ [ [ 117.314391139150914, 42.407153514274981 ], [ 117.314409367627889, 42.407153464283439 ], [ 117.314409345141442, 42.407148961338265 ], [ 117.314427573617067, 42.407148911343825 ], [ 117.314427551129342, 42.407144408398658 ], [ 117.314451855761689, 42.407144341734892 ], [ 117.314451833272216, 42.407139838789746 ], [ 117.314433604799291, 42.407139888788045 ], [ 117.314433559822987, 42.407130882897704 ], [ 117.314427483666222, 42.40713089956315 ], [ 117.314427461178497, 42.407126396617976 ], [ 117.31441530886579, 42.407126429947887 ], [ 117.31441528637896, 42.407121927002706 ], [ 117.314409210223019, 42.407121943667185 ], [ 117.314409232709409, 42.407126446612374 ], [ 117.314397080396645, 42.407126479940366 ], [ 117.314397102882182, 42.407130982885562 ], [ 117.314391026725346, 42.407130999549068 ], [ 117.314391049210442, 42.407135502494256 ], [ 117.31438497305318, 42.40713551915745 ], [ 117.314384995537878, 42.407140022102645 ], [ 117.314372843222458, 42.40714005542808 ], [ 117.314372865706261, 42.407144558373261 ], [ 117.314378941864419, 42.407144541710707 ], [ 117.314378964348649, 42.407149044655895 ], [ 117.314391116665789, 42.407149011329814 ], [ 117.314391139150914, 42.407153514274981 ] ] ] } },
{ "type": "Feature", "properties": { "crown_id": 9088, "tree_id": "9099", "top_h_m": 21.59, "H_95_Mean": 20.8019, "DBH": 35.4398, "Carbon_kg": 243.80307, "area_m2": 36.5 }, "geometry": { "type": "Polygon", "coordinates": [ [ [ 117.314530890806452, 42.40715313093235 ], [ 117.314536966965335, 42.407153114261412 ], [ 117.314536944469793, 42.407148611316295 ], [ 117.314549096786649, 42.407148577973473 ], [ 117.314549074290227, 42.407144075028349 ], [ 117.314567302764203, 42.407144025011689 ], [ 117.314567325261919, 42.407148527956807 ], [ 117.314597706053917, 42.407148444589254 ], [ 117.314597683554013, 42.407143941644158 ], [ 117.314609835869902, 42.407143908294898 ], [ 117.314609813369159, 42.407139405349803 ], [ 117.314603737211655, 42.407139422024592 ], [ 117.314603692211023, 42.407130416134407 ], [ 117.314597616054371, 42.40713043280887 ], [ 117.314597593554524, 42.40712592986376 ], [ 117.314591517398298, 42.40712594653791 ], [ 117.314591494898877, 42.407121443592786 ], [ 117.31457934258728, 42.407121476940105 ], [ 117.314579320088725, 42.407116973994988 ], [ 117.314561091622622, 42.40711702401353 ], [ 117.314561069125389, 42.407112521068399 ], [ 117.314548916815497, 42.407112554412471 ], [ 117.314548894319131, 42.407108051467333 ], [ 117.314536742010077, 42.407108084810126 ], [ 117.314536719514578, 42.407103581864973 ], [ 117.314518491052283, 42.40710363187673 ], [ 117.31451851354646, 42.407108134821883 ], [ 117.314500285082829, 42.407108184830754 ], [ 117.314500352561524, 42.40712169366622 ], [ 117.314494276405668, 42.407121710335204 ], [ 117.31449429889814, 42.407126213280357 ], [ 117.314488222741844, 42.407126229949021 ], [ 117.314488245233889, 42.407130732894174 ], [ 117.314482169077138, 42.407130749562526 ], [ 117.314482259043629, 42.407148761343102 ], [ 117.314530868311351, 42.40714862798724 ], [ 117.314530890806452, 42.40715313093235 ] ] ] } },
{ "type": "Feature", "properties": { "crown_id": 9119, "tree_id": "9130", "top_h_m": 20.478, "H_95_Mean": 19.8431, "DBH": 33.4324, "Carbon_kg": 210.80379, "area_m2": 31.75 }, "geometry": { "type": "Polygon", "coordinates": [ [ [ 117.314336386276125, 42.407140155396647 ], [ 117.314342462433842, 42.407140138736018 ], [ 117.314342439952242, 42.407135635790816 ], [ 117.314378896895931, 42.407135535820331 ], [ 117.314378874411688, 42.407131032875142 ], [ 117.314384950568524, 42.407131016212261 ], [ 117.314384928083882, 42.407126513267066 ], [ 117.314391004240278, 42.40712649660388 ], [ 117.314390891814867, 42.407103981877853 ], [ 117.314384815660659, 42.407103998541039 ], [ 117.314384793176032, 42.407099495595823 ], [ 117.314378717022223, 42.407099512258675 ], [ 117.314378672053863, 42.40709050636822 ], [ 117.314372595900934, 42.407090523030746 ], [ 117.314372573417202, 42.407086020085515 ], [ 117.3143664972647, 42.407086036747714 ], [ 117.314366429814811, 42.407072527911986 ], [ 117.314360353663602, 42.407072544573865 ], [ 117.314360331180751, 42.407068041628612 ], [ 117.314354255029968, 42.40706805829015 ], [ 117.314354299994818, 42.407077064180662 ], [ 117.314342147691548, 42.4070770975028 ], [ 117.314342170173106, 42.407081600448052 ], [ 117.314330017868912, 42.407081633768911 ], [ 117.314330085311028, 42.407095142604661 ], [ 117.31432400915763, 42.407095159264621 ], [ 117.314324031637895, 42.407099662209859 ], [ 117.314317955484071, 42.407099678869493 ], [ 117.314318000443762, 42.407108684759983 ], [ 117.314311924289044, 42.407108701419304 ], [ 117.31431196924791, 42.40711770730978 ], [ 117.314318045403496, 42.407117690650459 ], [ 117.31431809036323, 42.407126696540914 ], [ 117.314330242676121, 42.407126663221291 ], [ 117.314330265156869, 42.407131166166522 ], [ 117.314336341313748, 42.40713114950622 ], [ 117.314336386276125, 42.407140155396647 ] ] ] } },
{ "type": "Feature", "properties": { "crown_id": 9157, "tree_id": "9168", "top_h_m": 23.23, "H_95_Mean": 22.5031, "DBH": 40.879, "Carbon_kg": 340.572635, "area_m2": 55.0 }, "geometry": { "type": "Polygon", "coordinates": [ [ [ 117.314439658468359, 42.407135369177098 ], [ 117.314457886939977, 42.407135319177854 ], [ 117.314457864450105, 42.407130816232687 ], [ 117.314463940606885, 42.407130799565621 ], [ 117.314463918116573, 42.407126296620461 ], [ 117.314482146585519, 42.407126246617366 ], [ 117.314482124093914, 42.407121743672214 ], [ 117.314488200249798, 42.407121727003869 ], [ 117.314488155265721, 42.407112721113542 ], [ 117.314494231420738, 42.407112704444884 ], [ 117.314494186435809, 42.407103698554558 ], [ 117.314506338744053, 42.40710366521629 ], [ 117.314506293757418, 42.407094659325949 ], [ 117.314488065297638, 42.407094709332867 ], [ 117.31448804280565, 42.407090206387686 ], [ 117.314481966652821, 42.407090223056002 ], [ 117.314481921669667, 42.407081217165633 ], [ 117.314475845517705, 42.40708123383363 ], [ 117.314475823026598, 42.407076730888441 ], [ 117.314463670723512, 42.407076764223447 ], [ 117.314463580762563, 42.407058752442609 ], [ 117.314421047713765, 42.407058869104958 ], [ 117.31442107020095, 42.407063372050196 ], [ 117.314414994050665, 42.407063388714967 ], [ 117.314415016537438, 42.407067891660191 ], [ 117.314384635783782, 42.407067974979199 ], [ 117.314384658268366, 42.407072477924444 ], [ 117.314372505965991, 42.407072511249794 ], [ 117.314372550933456, 42.407081517140284 ], [ 117.314378627085503, 42.407081500477759 ], [ 117.31437864956969, 42.407086003422997 ], [ 117.314384725722192, 42.407085986760144 ], [ 117.314384770691419, 42.407094992650592 ], [ 117.314390846844759, 42.40709497598742 ], [ 117.314390869329799, 42.407099478932651 ], [ 117.314396945483594, 42.407099462269137 ], [ 117.314397057911123, 42.407121976995171 ], [ 117.314403134067078, 42.407121960331345 ], [ 117.314403111581115, 42.407117457386143 ], [ 117.31442134004763, 42.407117407392718 ], [ 117.314421362534901, 42.407121910337906 ], [ 117.314433514846741, 42.407121877007341 ], [ 117.314433537334864, 42.40712637995253 ], [ 117.314439613491217, 42.40712636328675 ], [ 117.314439658468359, 42.407135369177098 ] ], [ [ 117.314476025446879, 42.407117257395072 ], [ 117.314476002955701, 42.407112754449905 ], [ 117.314482079110718, 42.407112737781887 ], [ 117.314482101602309, 42.407117240727054 ], [ 117.314476025446879, 42.407117257395072 ] ] ] } },
{ "type": "Feature", "properties": { "crown_id": 9208, "tree_id": "9220", "top_h_m": 21.693, "H_95_Mean": 21.5859, "DBH": 33.0478, "Carbon_kg": 216.458544, "area_m2": 26.0 }, "geometry": { "type": "Polygon", "coordinates": [ [ [ 117.314494118958478, 42.407090189719035 ], [ 117.314506271264094, 42.407090156380775 ], [ 117.314506248770812, 42.407085653435601 ], [ 117.31451840107556, 42.407085620096062 ], [ 117.314518378581383, 42.407081117150895 ], [ 117.314530530885236, 42.407081083810077 ], [ 117.314530485895204, 42.407072077919715 ], [ 117.314536562046257, 42.407072061248833 ], [ 117.314536539550801, 42.407067558303652 ], [ 117.314542615701399, 42.407067541632451 ], [ 117.314542593205516, 42.407063038687276 ], [ 117.314548669355702, 42.407063022015748 ], [ 117.314548601866775, 42.407049513180198 ], [ 117.314554678015639, 42.407049496508364 ], [ 117.314554633022155, 42.407040490617987 ], [ 117.314548556874158, 42.407040507289807 ], [ 117.314548511881597, 42.407031501399416 ], [ 117.314530283440192, 42.407031551412977 ], [ 117.314530305935165, 42.407036054358187 ], [ 117.314506001344796, 42.407036121038445 ], [ 117.314506046331303, 42.407045126928864 ], [ 117.314499970182823, 42.407045143598133 ], [ 117.31449999267565, 42.407049646543342 ], [ 117.314493916526743, 42.407049663212284 ], [ 117.314493939019144, 42.407054166157486 ], [ 117.314487862869797, 42.407054182826116 ], [ 117.314487885361757, 42.407058685771325 ], [ 117.314469656912365, 42.407058735775273 ], [ 117.314469724384381, 42.407072244610887 ], [ 117.314481876686585, 42.407072211275235 ], [ 117.314481899178134, 42.407076714220437 ], [ 117.314487975329655, 42.407076697552121 ], [ 117.314488020313632, 42.407085703442498 ], [ 117.314494096466035, 42.407085686773861 ], [ 117.314494118958478, 42.407090189719035 ] ] ] } },
{ "type": "Feature", "properties": { "crown_id": 9233, "tree_id": "9245", "top_h_m": 22.195, "H_95_Mean": 21.9764, "DBH": 32.1104, "Carbon_kg": 206.439509, "area_m2": 22.5 }, "geometry": { "type": "Polygon", "coordinates": [ [ [ 117.31434212520999, 42.40707259455754 ], [ 117.314348201361199, 42.407072577896635 ], [ 117.31434815639723, 42.407063572006123 ], [ 117.314366384848228, 42.407063522021488 ], [ 117.314366407331519, 42.40706802496674 ], [ 117.314378559633042, 42.40706799164203 ], [ 117.314378537148883, 42.407063488696778 ], [ 117.31440891790038, 42.407063405379404 ], [ 117.314408895414061, 42.407058902434173 ], [ 117.31441497156392, 42.407058885769722 ], [ 117.314414949077161, 42.407054382824484 ], [ 117.314421025226594, 42.407054366159727 ], [ 117.314421002739408, 42.407049863214482 ], [ 117.314414926590416, 42.407049879879239 ], [ 117.314414904103685, 42.407045376933993 ], [ 117.314408827955134, 42.40704539359843 ], [ 117.314408648064898, 42.407009370036299 ], [ 117.314402571919814, 42.407009386700402 ], [ 117.314402594405621, 42.407013889645668 ], [ 117.314396518260125, 42.407013906309452 ], [ 117.31439654074552, 42.407018409254718 ], [ 117.314390464599555, 42.407018425918167 ], [ 117.314390487084538, 42.407022928863455 ], [ 117.314378334791741, 42.407022962189387 ], [ 117.314378357275842, 42.407027465134668 ], [ 117.314372281128996, 42.407027481797165 ], [ 117.314372303612657, 42.407031984742446 ], [ 117.314354075170797, 42.407032034727983 ], [ 117.314354210065147, 42.407059052399632 ], [ 117.31434205776533, 42.407059085721748 ], [ 117.31434212520999, 42.40707259455754 ] ] ] } },
{ "type": "Feature", "properties": { "crown_id": 9244, "tree_id": "9256", "top_h_m": 20.533, "H_95_Mean": 21.0069, "DBH": 26.5886, "Carbon_kg": 137.414799, "area_m2": 11.75 }, "geometry": { "type": "Polygon", "coordinates": [ [ [ 117.314311677015723, 42.407059169021409 ], [ 117.314335981615429, 42.407059102382327 ], [ 117.314335959134326, 42.407054599437053 ], [ 117.314348111433276, 42.407054566115583 ], [ 117.314348021505452, 42.407036554334475 ], [ 117.314341945357711, 42.407036570995359 ], [ 117.31434192287621, 42.407032068050071 ], [ 117.314329770581608, 42.407032101370874 ], [ 117.314329703139705, 42.407018592534968 ], [ 117.314305398555618, 42.407018659172664 ], [ 117.314305510950106, 42.407041173899209 ], [ 117.314311587098317, 42.407041157240251 ], [ 117.314311677015723, 42.407059169021409 ] ] ] } },
{ "type": "Feature", "properties": { "crown_id": 9249, "tree_id": "9261", "top_h_m": 23.949, "H_95_Mean": 23.7997, "DBH": 38.6029, "Carbon_kg": 313.655855, "area_m2": 39.75 }, "geometry": { "type": "Polygon", "coordinates": [ [ [ 117.314427101375983, 42.407054349494643 ], [ 117.314481786720449, 42.407054199494411 ], [ 117.314481764228915, 42.407049696549201 ], [ 117.314487840377822, 42.407049679880906 ], [ 117.314487817885876, 42.407045176935682 ], [ 117.314493894034371, 42.407045160267074 ], [ 117.31449387154197, 42.407040657321858 ], [ 117.31449994769001, 42.407040640652909 ], [ 117.314499902704398, 42.407031634762475 ], [ 117.314524207293033, 42.407031568083518 ], [ 117.314524184798501, 42.407027065138315 ], [ 117.314530260945205, 42.407027048467775 ], [ 117.314530238450232, 42.407022545522558 ], [ 117.314518086157676, 42.407022578863298 ], [ 117.314518041169492, 42.407013572972865 ], [ 117.314493736587778, 42.407013639650486 ], [ 117.31449371409542, 42.407009136705248 ], [ 117.314487637950435, 42.407009153373842 ], [ 117.314487615458518, 42.407004650428583 ], [ 117.314469387024772, 42.407004700432438 ], [ 117.314469364534176, 42.407000197487186 ], [ 117.314463288390016, 42.407000214154486 ], [ 117.31446326589986, 42.406995711209227 ], [ 117.314457189756141, 42.406995727876208 ], [ 117.31445721224587, 42.407000230821467 ], [ 117.314451136101681, 42.407000247488135 ], [ 117.314451158590984, 42.407004750433394 ], [ 117.314414701723265, 42.407004850426617 ], [ 117.314414881616969, 42.407040873988748 ], [ 117.314420957765066, 42.407040857323985 ], [ 117.314420980252223, 42.407045360269237 ], [ 117.314427056400774, 42.40704534360416 ], [ 117.314427101375983, 42.407054349494643 ] ] ] } },
{ "type": "Feature", "properties": { "crown_id": 9280, "tree_id": "9296", "top_h_m": 22.335, "H_95_Mean": 22.0873, "DBH": 29.4804, "Carbon_kg": 174.295526, "area_m2": 16.0 }, "geometry": { "type": "Polygon", "coordinates": [ [ [ 117.314335824247848, 42.407027581765341 ], [ 117.314366204982164, 42.407027498459335 ], [ 117.314366182498915, 42.407022995514033 ], [ 117.314372258645321, 42.407022978851877 ], [ 117.314372236161645, 42.407018475906597 ], [ 117.314384388453604, 42.407018442581297 ], [ 117.314384365969062, 42.407013939636016 ], [ 117.314390442114586, 42.407013922972887 ], [ 117.314390419629646, 42.407009420027606 ], [ 117.314396495774716, 42.407009403364164 ], [ 117.314396473289349, 42.407004900418876 ], [ 117.314390397144678, 42.407004917082311 ], [ 117.314390374659737, 42.407000414137016 ], [ 117.314384298515506, 42.407000430800139 ], [ 117.314384276030992, 42.406995927854844 ], [ 117.314378199887216, 42.406995944517639 ], [ 117.314378154919055, 42.406986938627014 ], [ 117.314359926490255, 42.406986988613454 ], [ 117.314359971455787, 42.406995994504086 ], [ 117.314353895311967, 42.406996011165589 ], [ 117.314353917794307, 42.407000514110898 ], [ 117.314335689361542, 42.407000564093487 ], [ 117.31433571184256, 42.407005067038803 ], [ 117.314317483408431, 42.407005117018507 ], [ 117.314317528367923, 42.407014122909146 ], [ 117.314335756804667, 42.407014072929435 ], [ 117.314335824247848, 42.407027581765341 ] ] ] } },
{ "type": "Feature", "properties": { "crown_id": 9314, "tree_id": "9331", "top_h_m": 19.23, "H_95_Mean": 19.61, "DBH": 17.7024, "Carbon_kg": 58.115896, "area_m2": 2.75 }, "geometry": { "type": "Polygon", "coordinates": [ [ [ 117.314402549433979, 42.407004883755114 ], [ 117.314408625578622, 42.407004867091032 ], [ 117.314408513147413, 42.406982352364565 ], [ 117.314402437004944, 42.406982369028633 ], [ 117.314402459490751, 42.406986871973928 ], [ 117.314384231061993, 42.406986921964233 ], [ 117.314384253546507, 42.406991424909542 ], [ 117.314390329689843, 42.406991408246434 ], [ 117.314390352174783, 42.406995911191729 ], [ 117.31439642831856, 42.406995894528293 ], [ 117.31439645080394, 42.407000397473588 ], [ 117.314402526948172, 42.407000380809826 ], [ 117.314402549433979, 42.407004883755114 ] ] ] } },
{ "type": "Feature", "properties": { "crown_id": 9315, "tree_id": "9332", "top_h_m": 20.182, "H_95_Mean": 19.8405, "DBH": 25.2914, "Carbon_kg": 120.1097, "area_m2": 10.75 }, "geometry": { "type": "Polygon", "coordinates": [ [ [ 117.314414679236592, 42.407000347481329 ], [ 117.314445059957521, 42.407000264154462 ], [ 117.314445037468658, 42.406995761209195 ], [ 117.314451113612407, 42.406995744542861 ], [ 117.314451091123118, 42.406991241597588 ], [ 117.314457167266411, 42.406991224930941 ], [ 117.314457144776711, 42.406986721985653 ], [ 117.314444992490962, 42.406986755318641 ], [ 117.314444925024446, 42.406973246482778 ], [ 117.314438848882887, 42.406973263148771 ], [ 117.314438803906114, 42.406964257258174 ], [ 117.314414499343272, 42.406964323918942 ], [ 117.314414521829889, 42.406968826864251 ], [ 117.314408445688741, 42.406968843528638 ], [ 117.314408490661179, 42.406977849419256 ], [ 117.314414566803222, 42.406977832754862 ], [ 117.314414679236592, 42.407000347481329 ] ] ] } },
{ "type": "Feature", "properties": { "crown_id": 9338, "tree_id": "9355", "top_h_m": 19.298, "H_95_Mean": 20.14, "DBH": 20.3533, "Carbon_kg": 78.214857, "area_m2": 4.5 }, "geometry": { "type": "Polygon", "coordinates": [ [ [ 117.314353827864991, 42.406982502329626 ], [ 117.31439636086246, 42.406982385692388 ], [ 117.314396338377108, 42.406977882747086 ], [ 117.314402414519151, 42.406977866083338 ], [ 117.314402369547594, 42.406968860192713 ], [ 117.314378064982861, 42.406968926845749 ], [ 117.314378087466892, 42.40697342979108 ], [ 117.314359859042014, 42.406973479777484 ], [ 117.314359881524737, 42.406977982722822 ], [ 117.314353805382666, 42.406977999384303 ], [ 117.314353827864991, 42.406982502329626 ] ] ] } },
{ "type": "Feature", "properties": { "crown_id": 9339, "tree_id": "9356", "top_h_m": 23.547, "H_95_Mean": 23.1826, "DBH": 39.646, "Carbon_kg": 325.869328, "area_m2": 46.25 }, "geometry": { "type": "Polygon", "coordinates": [ [ [ 117.314524139809436, 42.407018059247875 ], [ 117.314536292101124, 42.407018025906474 ], [ 117.314536269605725, 42.407013522961265 ], [ 117.314542345751136, 42.407013506290077 ], [ 117.314542323255296, 42.407009003344861 ], [ 117.314548399400266, 42.407008986673368 ], [ 117.314548219430378, 42.406972963111507 ], [ 117.314542143288904, 42.406972979782971 ], [ 117.314542098297338, 42.406963973892459 ], [ 117.314536022156744, 42.406963990563611 ], [ 117.314535977166059, 42.406954984673085 ], [ 117.314529901026305, 42.406955001343903 ], [ 117.314529878531417, 42.406950498398636 ], [ 117.314517726252774, 42.406950531739291 ], [ 117.314517703758739, 42.406946028794017 ], [ 117.314493399203101, 42.406946095471483 ], [ 117.314493376710843, 42.406941592526195 ], [ 117.314456919879845, 42.406941692532705 ], [ 117.314456874900543, 42.406932686642079 ], [ 117.314450798762891, 42.406932703308698 ], [ 117.314450843741326, 42.406941709199344 ], [ 117.314444767602794, 42.40694172586565 ], [ 117.314444902535641, 42.406968743537476 ], [ 117.314450978676774, 42.406968726871156 ], [ 117.314451046144555, 42.406982235707019 ], [ 117.314463198429408, 42.406982202373413 ], [ 117.314463243409705, 42.40699120826396 ], [ 117.314469319552998, 42.406991191596667 ], [ 117.31446934204358, 42.406995694541926 ], [ 117.314475418187314, 42.406995677874292 ], [ 117.314475440678336, 42.407000180819566 ], [ 117.31449366911076, 42.407000130814751 ], [ 117.314493691603104, 42.407004633759996 ], [ 117.314499767747662, 42.407004617091076 ], [ 117.314499790240447, 42.407009120036328 ], [ 117.314524094820385, 42.407009053357427 ], [ 117.314524139809436, 42.407018059247875 ] ], [ [ 117.314505798905799, 42.406995594531352 ], [ 117.314505731426237, 42.406982085695581 ], [ 117.314523959853361, 42.406982035685971 ], [ 117.314524027336844, 42.406995544521713 ], [ 117.314505798905799, 42.406995594531352 ] ], [ [ 117.314463198429408, 42.406982202373413 ], [ 117.314463175939267, 42.406977699428133 ], [ 117.314469252081267, 42.406977682760839 ], [ 117.314469274571834, 42.406982185706106 ], [ 117.314463198429408, 42.406982202373413 ] ], [ [ 117.314469184609564, 42.406964173924976 ], [ 117.314469117137932, 42.406950665089092 ], [ 117.314487345556032, 42.406950615085336 ], [ 117.314487413031571, 42.406964123921206 ], [ 117.314469184609564, 42.406964173924976 ] ] ] } },
{ "type": "Feature", "properties": { "crown_id": 9345, "tree_id": "9362", "top_h_m": 20.27, "H_95_Mean": 21.3611, "DBH": 28.4166, "Carbon_kg": 158.682511, "area_m2": 14.75 }, "geometry": { "type": "Polygon", "coordinates": [ [ [ 117.314305376076732, 42.407014156227348 ], [ 117.314311452222341, 42.40701413956841 ], [ 117.314311384784432, 42.407000630732441 ], [ 117.314329613217254, 42.407000580753703 ], [ 117.314329590736662, 42.406996077808387 ], [ 117.314347819168162, 42.406996027826771 ], [ 117.314347796686249, 42.406991524881455 ], [ 117.314353872829642, 42.40699150822028 ], [ 117.314353850347317, 42.406987005274949 ], [ 117.31434777420435, 42.406987021936132 ], [ 117.31434770675871, 42.406973513100148 ], [ 117.314353782900369, 42.406973496438972 ], [ 117.314353760418044, 42.406968993493635 ], [ 117.314335531994402, 42.406969043476174 ], [ 117.314335464551434, 42.406955534640133 ], [ 117.314329388411494, 42.406955551300328 ], [ 117.314329365930959, 42.406951048354962 ], [ 117.314317213651961, 42.406951081674372 ], [ 117.314317281091007, 42.406964590510462 ], [ 117.314311204950187, 42.406964607169698 ], [ 117.314311317346537, 42.406987121896435 ], [ 117.314305241203556, 42.406987138555358 ], [ 117.314305376076732, 42.407014156227348 ] ] ] } },
{ "type": "Feature", "properties": { "crown_id": 9384, "tree_id": "9401", "top_h_m": 20.79, "H_95_Mean": 20.5415, "DBH": 28.8238, "Carbon_kg": 159.56339, "area_m2": 16.75 }, "geometry": { "type": "Polygon", "coordinates": [ [ [ 117.314359836559248, 42.406968976832154 ], [ 117.314371988841657, 42.406968943508204 ], [ 117.314371966358067, 42.406964440562874 ], [ 117.314384118639566, 42.406964407237645 ], [ 117.314384073670638, 42.406955401346984 ], [ 117.314377997530755, 42.406955418009765 ], [ 117.314377907594704, 42.406937406228387 ], [ 117.314390059870973, 42.40693737290254 ], [ 117.314389947446656, 42.406914858175767 ], [ 117.314377795174735, 42.406914891501586 ], [ 117.314377817658709, 42.406919394446952 ], [ 117.314359589249449, 42.406919444433264 ], [ 117.314359656697505, 42.406932953269383 ], [ 117.314353580559796, 42.406932969930835 ], [ 117.314353603042065, 42.406937472876194 ], [ 117.314335374627532, 42.406937522858684 ], [ 117.314335397108479, 42.406942025804057 ], [ 117.314329320969875, 42.406942042464244 ], [ 117.31432934345041, 42.40694654540961 ], [ 117.314335419589455, 42.406946528749408 ], [ 117.31433544207043, 42.406951031694774 ], [ 117.314341518209929, 42.406951015034259 ], [ 117.314341585654205, 42.406964523870315 ], [ 117.314359814076525, 42.406964473886816 ], [ 117.314359836559248, 42.406968976832154 ] ] ] } },
{ "type": "Feature", "properties": { "crown_id": 9392, "tree_id": "9409", "top_h_m": 20.286, "H_95_Mean": 20.5835, "DBH": 27.922, "Carbon_kg": 149.842379, "area_m2": 14.75 }, "geometry": { "type": "Polygon", "coordinates": [ [ [ 117.314390194780316, 42.406964390574551 ], [ 117.314408423202522, 42.406964340583336 ], [ 117.314408400716331, 42.406959837638006 ], [ 117.314438781417735, 42.406959754312872 ], [ 117.31443866897591, 42.406937239586291 ], [ 117.314444745114017, 42.40693722292032 ], [ 117.314444722625225, 42.406932719974996 ], [ 117.314438646487588, 42.406932736640968 ], [ 117.314438623999223, 42.406928233695645 ], [ 117.314396091038503, 42.406928350348451 ], [ 117.314396158494432, 42.406941859184485 ], [ 117.314384006217281, 42.406941892510979 ], [ 117.314384051186181, 42.406950898401654 ], [ 117.314390127325623, 42.40695088173856 ], [ 117.314390194780316, 42.406964390574551 ] ] ] } },
{ "type": "Feature", "properties": { "crown_id": 9422, "tree_id": "9439", "top_h_m": 22.518, "H_95_Mean": 22.3783, "DBH": 31.0058, "Carbon_kg": 194.449526, "area_m2": 19.0 }, "geometry": { "type": "Polygon", "coordinates": [ [ [ 117.314535954670731, 42.406950481727812 ], [ 117.31454203081006, 42.406950465056674 ], [ 117.314541895835646, 42.406923447384997 ], [ 117.314529743562204, 42.406923480726924 ], [ 117.314529676077655, 42.406909971891018 ], [ 117.314523599942262, 42.406909988561495 ], [ 117.314523577447844, 42.406905485616178 ], [ 117.314505349042875, 42.406905535625654 ], [ 117.314505371535972, 42.40691003857097 ], [ 117.314487143129654, 42.406910088577568 ], [ 117.314487165621443, 42.406914591522877 ], [ 117.314481089485582, 42.406914608191109 ], [ 117.314481134468323, 42.406923614081748 ], [ 117.314462906058012, 42.406923664084495 ], [ 117.314462973528265, 42.406937172920443 ], [ 117.314499430356634, 42.406937072912008 ], [ 117.314499452849319, 42.40694157585731 ], [ 117.314523757403194, 42.406941509178566 ], [ 117.314523779897655, 42.406946012123854 ], [ 117.314535932175431, 42.406945978782538 ], [ 117.314535954670731, 42.406950481727812 ] ] ] } },
{ "type": "Feature", "properties": { "crown_id": 9434, "tree_id": "9451", "top_h_m": 23.212, "H_95_Mean": 22.6289, "DBH": 37.5128, "Carbon_kg": 287.357189, "area_m2": 39.0 }, "geometry": { "type": "Polygon", "coordinates": [ [ [ 117.314311070074751, 42.406937589497488 ], [ 117.314329298489326, 42.406937539518871 ], [ 117.31432927600882, 42.406933036573498 ], [ 117.314347504422045, 42.406932986591983 ], [ 117.314347481940231, 42.406928483646617 ], [ 117.314353558077514, 42.406928466985477 ], [ 117.314353490630779, 42.406914958149343 ], [ 117.314371719038746, 42.406914908164019 ], [ 117.314371696555199, 42.406910405218646 ], [ 117.31439600109735, 42.40691033856703 ], [ 117.314395978612083, 42.406905835621664 ], [ 117.314389902476975, 42.40690585228505 ], [ 117.314389879992135, 42.40690134933967 ], [ 117.3143777277228, 42.406901382665474 ], [ 117.314377660270949, 42.406887873829319 ], [ 117.314371584137575, 42.406887890491724 ], [ 117.314371561654056, 42.406883387546337 ], [ 117.314365485521122, 42.406883404208408 ], [ 117.314365463038044, 42.406878901263013 ], [ 117.314359386905537, 42.406878917924786 ], [ 117.314359341940275, 42.406869912033976 ], [ 117.314316809018635, 42.406870028657231 ], [ 117.314316921416619, 42.40689254338433 ], [ 117.314310845282733, 42.406892560043509 ], [ 117.314310912720288, 42.406906068879749 ], [ 117.314280532044421, 42.406906152170912 ], [ 117.314280576998456, 42.406915158061729 ], [ 117.314286653134516, 42.406915141404141 ], [ 117.314286743044391, 42.40693315318574 ], [ 117.314311047595524, 42.406933086552108 ], [ 117.314311070074751, 42.406937589497488 ] ] ] } },
{ "type": "Feature", "properties": { "crown_id": 9435, "tree_id": "9452", "top_h_m": 19.997, "H_95_Mean": 19.8274, "DBH": 29.0786, "Carbon_kg": 159.055384, "area_m2": 18.5 }, "geometry": { "type": "Polygon", "coordinates": [ [ [ 117.314444700136463, 42.406928217029673 ], [ 117.314456852410885, 42.406928183696763 ], [ 117.314456807431611, 42.406919177806095 ], [ 117.314475035840616, 42.406919127804322 ], [ 117.314474990858741, 42.406910121913683 ], [ 117.314468914723292, 42.406910138581246 ], [ 117.314468824761349, 42.406892126799896 ], [ 117.314462748627633, 42.406892143467132 ], [ 117.314462726137592, 42.406887640521781 ], [ 117.314450573870985, 42.406887673855302 ], [ 117.31445059636016, 42.40689217680066 ], [ 117.314438444092659, 42.406892210132881 ], [ 117.314438466580953, 42.40689671307824 ], [ 117.314420238178386, 42.406896763074172 ], [ 117.314420260665386, 42.406901266019531 ], [ 117.314402032261469, 42.406901316012586 ], [ 117.314402099718592, 42.406914824848663 ], [ 117.314396023582631, 42.406914841512389 ], [ 117.314396068553208, 42.406923847403107 ], [ 117.314444677647671, 42.406923714084343 ], [ 117.314444700136463, 42.406928217029673 ] ] ] } },
{ "type": "Feature", "properties": { "crown_id": 9436, "tree_id": "9453", "top_h_m": 21.52, "H_95_Mean": 21.6031, "DBH": 26.1735, "Carbon_kg": 135.347109, "area_m2": 10.5 }, "geometry": { "type": "Polygon", "coordinates": [ [ [ 117.314548084453193, 42.406945945439944 ], [ 117.314554160592053, 42.40694592876816 ], [ 117.314554115598838, 42.40693692287762 ], [ 117.314572344012802, 42.406936872860349 ], [ 117.314572321514888, 42.406932369915083 ], [ 117.314578397652454, 42.40693235324202 ], [ 117.314578240164181, 42.406900832625062 ], [ 117.31457216402967, 42.406900849298111 ], [ 117.314572186527542, 42.406905352243406 ], [ 117.314541805852784, 42.406905435603797 ], [ 117.314541828348496, 42.406909938549106 ], [ 117.314535752213089, 42.406909955220222 ], [ 117.314535797203632, 42.406918961110819 ], [ 117.314547949476179, 42.40691892776826 ], [ 117.314548084453193, 42.406945945439944 ] ] ] } },
{ "type": "Feature", "properties": { "crown_id": 9469, "tree_id": "9486", "top_h_m": 19.647, "H_95_Mean": 19.4923, "DBH": 26.8454, "Carbon_kg": 134.037154, "area_m2": 14.0 }, "geometry": { "type": "Polygon", "coordinates": [ [ [ 117.314474968367819, 42.406905618968338 ], [ 117.314499272907881, 42.406905552294845 ], [ 117.314499250415238, 42.406901049349521 ], [ 117.31451140268436, 42.406901016010828 ], [ 117.31451131271028, 42.406883004229528 ], [ 117.314517388843115, 42.406882987559705 ], [ 117.314517321361322, 42.406869478723692 ], [ 117.31446263617751, 42.406869628740353 ], [ 117.314462703647564, 42.406883137576422 ], [ 117.314468779780427, 42.406883120909193 ], [ 117.314468802270881, 42.406887623854551 ], [ 117.314474878404184, 42.406887607186995 ], [ 117.314474968367819, 42.406905618968338 ] ] ] } },
{ "type": "Feature", "properties": { "crown_id": 9475, "tree_id": "9492", "top_h_m": 22.31, "H_95_Mean": 21.9025, "DBH": 29.2448, "Carbon_kg": 170.649345, "area_m2": 15.75 }, "geometry": { "type": "MultiPolygon", "coordinates": [ [ [ [ 117.314529653582838, 42.406905468945709 ], [ 117.314535729717818, 42.40690545227492 ], [ 117.314535707222547, 42.406900949329611 ], [ 117.314566087895187, 42.406900865970826 ], [ 117.314566065397742, 42.406896363025538 ], [ 117.314584293799939, 42.406896313006399 ], [ 117.314584271301229, 42.406891810061111 ], [ 117.314578195167584, 42.406891826734487 ], [ 117.3145781726693, 42.406887323789178 ], [ 117.314572096536082, 42.406887340462205 ], [ 117.314572006544708, 42.406869328680955 ], [ 117.31452339749282, 42.406869462053571 ], [ 117.314523487470311, 42.406887473834907 ], [ 117.31451741133705, 42.406887490505042 ], [ 117.3145174788189, 42.406900999341005 ], [ 117.314529631088007, 42.4069009660004 ], [ 117.314529653582838, 42.406905468945709 ] ] ], [ [ [ 117.314584293799939, 42.406896313006399 ], [ 117.314584316298692, 42.406900815951701 ], [ 117.314590392433189, 42.40690079927802 ], [ 117.314590369934024, 42.406896296332725 ], [ 117.314584293799939, 42.406896313006399 ] ] ] ] } },
{ "type": "Feature", "properties": { "crown_id": 9544, "tree_id": "9561", "top_h_m": 18.68, "H_95_Mean": 18.8851, "DBH": 27.4786, "Carbon_kg": 137.880411, "area_m2": 16.25 }, "geometry": { "type": "Polygon", "coordinates": [ [ [ 117.314383781373081, 42.406896863057355 ], [ 117.314414162044173, 42.406896779738844 ], [ 117.314414139557627, 42.406892276793471 ], [ 117.314432367958901, 42.406892226798519 ], [ 117.314432345471062, 42.406887723853153 ], [ 117.314444497737668, 42.406887690521572 ], [ 117.314444475248962, 42.406883187576199 ], [ 117.314456627514701, 42.406883154243346 ], [ 117.314456560045954, 42.406869645407262 ], [ 117.314365418071915, 42.406869895372218 ], [ 117.31436544055498, 42.406874398317626 ], [ 117.314371516687046, 42.406874381655548 ], [ 117.314371539170537, 42.40687888460095 ], [ 117.314377615303044, 42.406878867938531 ], [ 117.314377637787004, 42.406883370883932 ], [ 117.314383713919938, 42.4068833542212 ], [ 117.314383781373081, 42.406896863057355 ] ] ] } }
]
}
