{
"type": "FeatureCollection",
"name": "tile_4_2",
"crs": { "type": "name", "properties": { "name": "urn:ogc:def:crs:OGC:1.3:CRS84" } },
"features": [
{ "type": "Feature", "properties": { "crown_id": 1239, "tree_id": "1240", "top_h_m": 17.65, "H_95_Mean": 17.8153, "DBH": 32.3821, "Carbon_kg": 185.459283, "area_m2": 34.25 }, "geometry": { "type": "MultiPolygon", "coordinates": [ [ [ [ 117.310338223449023, 42.410839009945256 ], [ 117.310344299966061, 42.410838993495389 ], [ 117.310344277767499, 42.41083449055138 ], [ 117.310350354284111, 42.410834474101193 ], [ 117.310350309886147, 42.410825468213169 ], [ 117.310356386401892, 42.410825451762676 ], [ 117.310356364202448, 42.41082094881866 ], [ 117.310362440717768, 42.410820932367834 ], [ 117.310362418517911, 42.410816429423818 ], [ 117.310356342003047, 42.410816445874644 ], [ 117.310356319803674, 42.410811942930629 ], [ 117.310362396318098, 42.410811926479802 ], [ 117.310362351918442, 42.410802920591756 ], [ 117.310368428431971, 42.410802904140631 ], [ 117.31036845063224, 42.410807407084654 ], [ 117.310374527146209, 42.410807390633188 ], [ 117.310374460544153, 42.410793881801112 ], [ 117.310368384031477, 42.410793898252564 ], [ 117.310368361831237, 42.410789395308541 ], [ 117.310362285318973, 42.410789411759666 ], [ 117.310362218719575, 42.410775902927533 ], [ 117.310356142208647, 42.410775919378324 ], [ 117.310356164408006, 42.410780422322375 ], [ 117.310350087896609, 42.410780438772854 ], [ 117.310350065697676, 42.410775935828802 ], [ 117.310331836164792, 42.410775985178297 ], [ 117.31033179176957, 42.410766979290173 ], [ 117.310325715259467, 42.410766995739351 ], [ 117.310325693062296, 42.410762492795278 ], [ 117.310319616552633, 42.410762509244122 ], [ 117.310319594355903, 42.41075800630005 ], [ 117.310313517846637, 42.410758022748581 ], [ 117.310313540042941, 42.410762525692661 ], [ 117.310307463533277, 42.410762542140873 ], [ 117.310307485729112, 42.41076704508496 ], [ 117.310301409218994, 42.410767061532852 ], [ 117.310301431414459, 42.410771564476931 ], [ 117.310295354903872, 42.410771580924497 ], [ 117.310295377098882, 42.410776083868569 ], [ 117.310283224076869, 42.410776116762769 ], [ 117.310283246271013, 42.410780619706848 ], [ 117.310301475805332, 42.410780570365084 ], [ 117.310301498000797, 42.41078507330915 ], [ 117.310307574512649, 42.410785056861236 ], [ 117.31030753012088, 42.410776050973098 ], [ 117.310325759653821, 42.410776001627482 ], [ 117.310325826245403, 42.410789510459658 ], [ 117.31030759670854, 42.410789559805309 ], [ 117.310307618904446, 42.41079406274936 ], [ 117.310313695417165, 42.410794046301135 ], [ 117.310313762006189, 42.410807555133275 ], [ 117.310295532464096, 42.410807604477021 ], [ 117.310295554659149, 42.410812107421073 ], [ 117.310289478144668, 42.410812123868347 ], [ 117.310289500339294, 42.410816626812398 ], [ 117.310283423824359, 42.410816643259352 ], [ 117.310283446018545, 42.410821146203411 ], [ 117.310295599049255, 42.410821113309161 ], [ 117.310295643439389, 42.410830119197236 ], [ 117.310313872988004, 42.410830069853453 ], [ 117.310313895184393, 42.410834572797476 ], [ 117.31031997170102, 42.41083455634891 ], [ 117.310319949504219, 42.410830053404872 ], [ 117.310326026020391, 42.410830036955979 ], [ 117.310326048217661, 42.410834539900009 ], [ 117.310338201250886, 42.410834507001248 ], [ 117.310338223449023, 42.410839009945256 ] ] ], [ [ [ 117.310356386401892, 42.410825451762676 ], [ 117.310356408601294, 42.410829954706685 ], [ 117.310362485117452, 42.410829938255858 ], [ 117.31036246291761, 42.41082543531185 ], [ 117.310356386401892, 42.410825451762676 ] ] ] ] } },
{ "type": "Feature", "properties": { "crown_id": 1240, "tree_id": "1241", "top_h_m": 19.71, "H_95_Mean": 20.7432, "DBH": 27.1274, "Carbon_kg": 142.019831, "area_m2": 13.0 }, "geometry": { "type": "MultiPolygon", "coordinates": [ [ [ [ 117.310398988619241, 42.410838845432096 ], [ 117.310411141653233, 42.410838812525604 ], [ 117.31041111944991, 42.410834309581624 ], [ 117.31040504293334, 42.410834326035037 ], [ 117.310404998527559, 42.410825320147055 ], [ 117.310392845496168, 42.410825353052893 ], [ 117.310392867698198, 42.41082985599688 ], [ 117.310398944214327, 42.410829839544128 ], [ 117.310398988619241, 42.410838845432096 ] ] ], [ [ [ 117.310404998527559, 42.410825320147055 ], [ 117.310411075043234, 42.410825303693656 ], [ 117.310411097246558, 42.410829806637636 ], [ 117.310417173762687, 42.410829790183918 ], [ 117.310417151558923, 42.410825287239931 ], [ 117.310423228074598, 42.410825270785871 ], [ 117.310423250278788, 42.410829773729873 ], [ 117.310429326794889, 42.410829757275501 ], [ 117.310429260181024, 42.41081624844356 ], [ 117.31045356624017, 42.410816182622895 ], [ 117.310453521827483, 42.41080717673492 ], [ 117.310447445313571, 42.410807193190564 ], [ 117.310447356489945, 42.410789181414586 ], [ 117.310435203465602, 42.410789214324893 ], [ 117.310435136850529, 42.41077570549286 ], [ 117.310422983828758, 42.41077573840186 ], [ 117.31042309484954, 42.410798253121932 ], [ 117.310417018336452, 42.410798269575963 ], [ 117.310417107151409, 42.410816281351963 ], [ 117.310398877606971, 42.410816330712144 ], [ 117.3103988998094, 42.410820833656132 ], [ 117.310404976324662, 42.41082081720306 ], [ 117.310404998527559, 42.410825320147055 ] ] ] ] } },
{ "type": "Feature", "properties": { "crown_id": 1244, "tree_id": "1245", "top_h_m": 17.45, "H_95_Mean": 18.8199, "DBH": 22.6695, "Carbon_kg": 93.371569, "area_m2": 7.75 }, "geometry": { "type": "Polygon", "coordinates": [ [ [ 117.310265172086702, 42.410812189654223 ], [ 117.310283401630173, 42.410812140315294 ], [ 117.310283379436001, 42.410807637371249 ], [ 117.310289455950041, 42.410807620924302 ], [ 117.310289433755457, 42.410803117980244 ], [ 117.310307663296257, 42.41080306863747 ], [ 117.310307641100337, 42.410798565693419 ], [ 117.310301564587178, 42.410798582141332 ], [ 117.310301520196262, 42.410789576253208 ], [ 117.310295443683941, 42.410789592700802 ], [ 117.310295421488917, 42.410785089756729 ], [ 117.310271115441395, 42.410785155543827 ], [ 117.310271159827977, 42.41079416143198 ], [ 117.31026508331523, 42.410794177877946 ], [ 117.310265061122351, 42.410789674933874 ], [ 117.310258984610016, 42.410789691379513 ], [ 117.310259028994892, 42.410798697267687 ], [ 117.310265105508094, 42.410798680822026 ], [ 117.310265172086702, 42.410812189654223 ] ] ] } },
{ "type": "Feature", "properties": { "crown_id": 1281, "tree_id": "1282", "top_h_m": 20.643, "H_95_Mean": 20.447, "DBH": 26.943, "Carbon_kg": 138.894265, "area_m2": 13.0 }, "geometry": { "type": "MultiPolygon", "coordinates": [ [ [ [ 117.310210261566553, 42.410767308212584 ], [ 117.310210372511193, 42.410789822933125 ], [ 117.310222525535949, 42.410789790046664 ], [ 117.310222614295228, 42.410807801823019 ], [ 117.310234767323408, 42.41080776893525 ], [ 117.310234656369971, 42.410785254214815 ], [ 117.310240732881894, 42.410785237770455 ], [ 117.310240688499675, 42.410776231882252 ], [ 117.310234611988633, 42.410776248326613 ], [ 117.310234589797972, 42.410771745382519 ], [ 117.310222436776741, 42.410771778270252 ], [ 117.310222414586946, 42.410767275326144 ], [ 117.310210261566553, 42.410767308212584 ] ] ], [ [ [ 117.310210261566553, 42.410767308212584 ], [ 117.310210194999826, 42.41075379938021 ], [ 117.310216271508736, 42.410753782937157 ], [ 117.310216204940744, 42.410740274104754 ], [ 117.310210128433141, 42.4107402905478 ], [ 117.310210106244256, 42.410735787603663 ], [ 117.310197953229945, 42.410735820488782 ], [ 117.31019797541795, 42.410740323432925 ], [ 117.310185822402715, 42.410740356316765 ], [ 117.310185888964199, 42.410753865149204 ], [ 117.310198041982019, 42.41075383226535 ], [ 117.310198108546118, 42.410767341097738 ], [ 117.310210261566553, 42.410767308212584 ] ] ], [ [ [ 117.310222614295228, 42.410807801823019 ], [ 117.310216537781102, 42.410807818266427 ], [ 117.310216559970513, 42.410812321210507 ], [ 117.310222636485037, 42.410812304767099 ], [ 117.310222614295228, 42.410807801823019 ] ] ] ] } },
{ "type": "Feature", "properties": { "crown_id": 1332, "tree_id": "1333", "top_h_m": 19.618, "H_95_Mean": 19.6177, "DBH": 20.3827, "Carbon_kg": 77.233079, "area_m2": 4.75 }, "geometry": { "type": "MultiPolygon", "coordinates": [ [ [ [ 117.310246742819189, 42.410771712493485 ], [ 117.310246654053117, 42.410753700717059 ], [ 117.310234501035367, 42.410753733606064 ], [ 117.310234478844734, 42.410749230661949 ], [ 117.310222325827851, 42.410749263549654 ], [ 117.310222348017604, 42.410753766493784 ], [ 117.310228424526485, 42.410753750050084 ], [ 117.310228491097121, 42.410767258882437 ], [ 117.310240644117499, 42.410767225994057 ], [ 117.310240666308587, 42.410771728938165 ], [ 117.310246742819189, 42.410771712493485 ] ] ], [ [ [ 117.310246898160031, 42.410803233102101 ], [ 117.310246853776917, 42.410794227213948 ], [ 117.310252930289678, 42.410794210768934 ], [ 117.310252841521773, 42.410776198992586 ], [ 117.310246765010731, 42.410776215437586 ], [ 117.310246831585346, 42.410789724269868 ], [ 117.310240755073011, 42.410789740714542 ], [ 117.310240821646374, 42.410803249546802 ], [ 117.310246898160031, 42.410803233102101 ] ] ] ] } },
{ "type": "Feature", "properties": { "crown_id": 1347, "tree_id": "1348", "top_h_m": 21.76, "H_95_Mean": 22.415, "DBH": 20.4282, "Carbon_kg": 83.945058, "area_m2": 3.75 }, "geometry": { "type": "Polygon", "coordinates": [ [ [ 117.310435070235542, 42.410762196660798 ], [ 117.310441146745106, 42.410762180205822 ], [ 117.310441124539707, 42.410757677261792 ], [ 117.310453277557968, 42.41075764435088 ], [ 117.310453210939116, 42.410744135518797 ], [ 117.3104471344313, 42.410744151974406 ], [ 117.310447112225461, 42.410739649030369 ], [ 117.310441035718057, 42.41073966548565 ], [ 117.310441013512644, 42.410735162541613 ], [ 117.310434937005681, 42.410735178996575 ], [ 117.310434981415611, 42.410744184884649 ], [ 117.310428904907766, 42.410744201339291 ], [ 117.310428949316872, 42.41075320722738 ], [ 117.310435025825569, 42.410753190772731 ], [ 117.310435070235542, 42.410762196660798 ] ] ] } },
{ "type": "Feature", "properties": { "crown_id": 1353, "tree_id": "1354", "top_h_m": 21.251, "H_95_Mean": 22.5269, "DBH": 41.0896, "Carbon_kg": 344.333396, "area_m2": 56.0 }, "geometry": { "type": "MultiPolygon", "coordinates": [ [ [ [ 117.310386724577313, 42.410816363617322 ], [ 117.310392801092135, 42.410816347164896 ], [ 117.310392778890133, 42.410811844220888 ], [ 117.310386702375737, 42.410811860673313 ], [ 117.310386724577313, 42.410816363617322 ] ] ], [ [ [ 117.310392778890133, 42.410811844220888 ], [ 117.310411008433277, 42.410811794861679 ], [ 117.310410919620082, 42.410793783085651 ], [ 117.31041699613273, 42.410793766631954 ], [ 117.310416885114165, 42.410771251911846 ], [ 117.310429038135098, 42.410771219003507 ], [ 117.310428971521418, 42.410757710171417 ], [ 117.310422895012252, 42.410757726625746 ], [ 117.310422806195831, 42.410739714849569 ], [ 117.310428882703249, 42.410739698395254 ], [ 117.310428860498703, 42.410735195451203 ], [ 117.310410630977742, 42.410735244813189 ], [ 117.310410542164902, 42.410717233036927 ], [ 117.310398389154372, 42.410717265943283 ], [ 117.310398344749743, 42.41070826005511 ], [ 117.310380115236512, 42.410708309412215 ], [ 117.310380181839619, 42.410721818244483 ], [ 117.310355875816711, 42.410721884049472 ], [ 117.310355898016013, 42.410726386993559 ], [ 117.310343745003678, 42.410726419894125 ], [ 117.310343767202085, 42.410730922838226 ], [ 117.310331614188868, 42.410730955737513 ], [ 117.310331702979184, 42.410748967513875 ], [ 117.310325626470828, 42.410748983963039 ], [ 117.310325670865126, 42.410757989851199 ], [ 117.310331747374363, 42.410757973402021 ], [ 117.31033176957196, 42.410762476346086 ], [ 117.310337846081623, 42.410762459896603 ], [ 117.310337890477726, 42.410771465784734 ], [ 117.310368273030306, 42.410771383532371 ], [ 117.310368339630983, 42.410784892364504 ], [ 117.310374416142793, 42.410784875913059 ], [ 117.310374438343473, 42.410789378857089 ], [ 117.310380514855709, 42.410789362405318 ], [ 117.310380603660178, 42.410807374181402 ], [ 117.310392756688103, 42.410807341276879 ], [ 117.310392778890133, 42.410811844220888 ] ] ] ] } },
{ "type": "Feature", "properties": { "crown_id": 1395, "tree_id": "1396", "top_h_m": 20.51, "H_95_Mean": 21.2464, "DBH": 39.1162, "Carbon_kg": 301.206916, "area_m2": 51.5 }, "geometry": { "type": "Polygon", "coordinates": [ [ [ 117.310258962417606, 42.41078518843544 ], [ 117.310265038929515, 42.410785171989794 ], [ 117.310265016736679, 42.410780669045714 ], [ 117.310277169759573, 42.410780636153461 ], [ 117.310277125372153, 42.410771630265288 ], [ 117.310289278393313, 42.410771597371756 ], [ 117.310289256198743, 42.410767094427676 ], [ 117.310295332708876, 42.410767077980417 ], [ 117.310295310513894, 42.41076257503633 ], [ 117.310301387023586, 42.410762558588772 ], [ 117.310301364828149, 42.410758055644671 ], [ 117.3103074413374, 42.410758039196793 ], [ 117.310307419141537, 42.410753536252713 ], [ 117.310319572159159, 42.41075350335597 ], [ 117.310319527765714, 42.410744497467803 ], [ 117.310325604273658, 42.410744481018952 ], [ 117.310325515485104, 42.410726469242576 ], [ 117.310319438978908, 42.410726485691406 ], [ 117.310319416782221, 42.410721982747305 ], [ 117.310307263770682, 42.410722015643998 ], [ 117.310307174987457, 42.410704003867515 ], [ 117.310276792467207, 42.410704086103578 ], [ 117.310276770273575, 42.410699583159442 ], [ 117.310270693769951, 42.410699599605671 ], [ 117.310270671576774, 42.410695096661527 ], [ 117.310258518570365, 42.410695129553055 ], [ 117.310258562954999, 42.410704135441343 ], [ 117.310240333442749, 42.410704184776229 ], [ 117.310240311251746, 42.410699681832064 ], [ 117.31023423474808, 42.410699698276375 ], [ 117.310234256938656, 42.410704201220533 ], [ 117.310228180434564, 42.410704217664531 ], [ 117.310228269195193, 42.410722229441134 ], [ 117.310222192689338, 42.41072224588482 ], [ 117.310222214879076, 42.410726748828964 ], [ 117.310210061866513, 42.410726781715361 ], [ 117.310210084055385, 42.410731284659519 ], [ 117.310216160562106, 42.41073126821648 ], [ 117.310216182751404, 42.410735771160617 ], [ 117.31022225925858, 42.410735754717251 ], [ 117.310222303638085, 42.410744760605517 ], [ 117.310240533162116, 42.41074471127348 ], [ 117.310240555353175, 42.410749214217617 ], [ 117.310252708370044, 42.410749181327965 ], [ 117.310252819329804, 42.410771696048492 ], [ 117.310258895840406, 42.410771679603172 ], [ 117.310258962417606, 42.41078518843544 ] ] ] } },
{ "type": "Feature", "properties": { "crown_id": 1435, "tree_id": "1436", "top_h_m": 21.577, "H_95_Mean": 21.8969, "DBH": 26.8134, "Carbon_kg": 143.239066, "area_m2": 11.25 }, "geometry": { "type": "Polygon", "coordinates": [ [ [ 117.310331591991286, 42.410726452793419 ], [ 117.310337668497496, 42.410726436343928 ], [ 117.310337646299487, 42.410721933399842 ], [ 117.310349799310984, 42.410721900499915 ], [ 117.310349777112108, 42.410717397555814 ], [ 117.310374083133297, 42.410717331752132 ], [ 117.310374038732121, 42.410708325863943 ], [ 117.310367962227687, 42.410708342315338 ], [ 117.310367917827406, 42.410699336427136 ], [ 117.310361841323839, 42.410699352878211 ], [ 117.310361819124154, 42.410694849934103 ], [ 117.310331436608479, 42.410694932184626 ], [ 117.310331481003544, 42.410703938072871 ], [ 117.310313251491465, 42.410703987419332 ], [ 117.31031331808019, 42.410717496251699 ], [ 117.310325471090849, 42.410717463354366 ], [ 117.310325493287991, 42.410721966298475 ], [ 117.310331569793746, 42.410721949849304 ], [ 117.310331591991286, 42.410726452793419 ] ] ] } },
{ "type": "Feature", "properties": { "crown_id": 1457, "tree_id": "1458", "top_h_m": 20.72, "H_95_Mean": 21.1716, "DBH": 27.2546, "Carbon_kg": 145.109111, "area_m2": 12.75 }, "geometry": { "type": "Polygon", "coordinates": [ [ [ 117.310416685281083, 42.410730725415462 ], [ 117.310428838294186, 42.410730692507144 ], [ 117.310428771680648, 42.410717183674969 ], [ 117.310434848185892, 42.410717167220355 ], [ 117.310434825980934, 42.410712664276289 ], [ 117.310446978990527, 42.410712631366067 ], [ 117.310446934578934, 42.410703625477936 ], [ 117.310440858074998, 42.410703641933196 ], [ 117.310440835869656, 42.410699138989123 ], [ 117.310416529855644, 42.410699204806953 ], [ 117.31041650765205, 42.410694701862866 ], [ 117.310410431148966, 42.410694718316506 ], [ 117.310410408945771, 42.410690215372419 ], [ 117.310386102935141, 42.410690281183768 ], [ 117.310386080733736, 42.410685778239667 ], [ 117.310361774724754, 42.410685844045872 ], [ 117.31036179692444, 42.410690346989981 ], [ 117.31036787342714, 42.41069033053892 ], [ 117.310367895627252, 42.410694833483035 ], [ 117.310373972130392, 42.410694817031633 ], [ 117.31037401653154, 42.410703822919842 ], [ 117.310404399051379, 42.410703740658015 ], [ 117.310404443456875, 42.410712746546182 ], [ 117.31041659646651, 42.410712713639185 ], [ 117.310416640873797, 42.410721719527324 ], [ 117.310422717379467, 42.410721703073342 ], [ 117.310422739583558, 42.410726206017401 ], [ 117.310416663077433, 42.410726222471389 ], [ 117.310416685281083, 42.410730725415462 ] ] ] } },
{ "type": "Feature", "properties": { "crown_id": 1543, "tree_id": "1544", "top_h_m": 22.295, "H_95_Mean": 21.9873, "DBH": 25.7206, "Carbon_kg": 132.037794, "area_m2": 9.5 }, "geometry": { "type": "Polygon", "coordinates": [ [ [ 117.310337490913668, 42.410690412791041 ], [ 117.310355720421782, 42.410690363440736 ], [ 117.310355676023249, 42.410681357552498 ], [ 117.310379982030511, 42.410681291747593 ], [ 117.310379915427561, 42.410667782915226 ], [ 117.310373838927049, 42.410667799366934 ], [ 117.310373727924414, 42.41064528464625 ], [ 117.310361574927754, 42.410645317548664 ], [ 117.310361641526711, 42.410658826381088 ], [ 117.310355565027081, 42.410658842831822 ], [ 117.310355631624759, 42.410672351664239 ], [ 117.310331325620908, 42.410672417463964 ], [ 117.31033137001593, 42.410681423352237 ], [ 117.31033744651775, 42.410681406902782 ], [ 117.310337490913668, 42.410690412791041 ] ] ] } },
{ "type": "Feature", "properties": { "crown_id": 1571, "tree_id": "1572", "top_h_m": 19.303, "H_95_Mean": 20.2559, "DBH": 27.3402, "Carbon_kg": 142.259813, "area_m2": 14.0 }, "geometry": { "type": "Polygon", "coordinates": [ [ [ 117.310228113864127, 42.410690708832014 ], [ 117.310234190366927, 42.410690692388044 ], [ 117.31023412379524, 42.410677183555521 ], [ 117.31024627679821, 42.410677150666601 ], [ 117.310246254606795, 42.410672647722421 ], [ 117.310252331107833, 42.410672631277478 ], [ 117.310252308915992, 42.410668128333306 ], [ 117.310258385416603, 42.410668111888043 ], [ 117.310258363224321, 42.410663608943871 ], [ 117.310264439724463, 42.410663592498295 ], [ 117.310264350953659, 42.41064558072155 ], [ 117.310258274455236, 42.410645597167118 ], [ 117.310258230070744, 42.41063659127871 ], [ 117.310252153573174, 42.410636607723958 ], [ 117.310252175764987, 42.410641110668152 ], [ 117.310246099267005, 42.410641127113081 ], [ 117.310246121458377, 42.410645630057289 ], [ 117.310233968461503, 42.410645662946166 ], [ 117.310234012842528, 42.410654668834567 ], [ 117.310221859843892, 42.410654701722173 ], [ 117.310221904223212, 42.410663707610574 ], [ 117.310203674722615, 42.410663756939577 ], [ 117.310203696910975, 42.410668259883785 ], [ 117.310209773411628, 42.410668243441094 ], [ 117.310209817789257, 42.410677249329488 ], [ 117.310215894290749, 42.410677232886485 ], [ 117.310215938669259, 42.410686238774844 ], [ 117.310228091673977, 42.410686205887849 ], [ 117.310228113864127, 42.410690708832014 ] ] ] } },
{ "type": "Feature", "properties": { "crown_id": 1572, "tree_id": "1573", "top_h_m": 20.97, "H_95_Mean": 21.7322, "DBH": 34.6903, "Carbon_kg": 239.644302, "area_m2": 31.0 }, "geometry": { "type": "Polygon", "coordinates": [ [ [ 117.310453011082856, 42.410703609022349 ], [ 117.310465164090658, 42.410703576110208 ], [ 117.310465075262286, 42.410685564333939 ], [ 117.310440769253603, 42.410685630156891 ], [ 117.310440591611041, 42.410649606604089 ], [ 117.310458821107147, 42.41064955723742 ], [ 117.310458798900541, 42.410645054293312 ], [ 117.310452722402275, 42.410645070749183 ], [ 117.310452700196123, 42.410640567805068 ], [ 117.310440547200457, 42.410640600715844 ], [ 117.310440524995172, 42.410636097771729 ], [ 117.31041014250809, 42.410636180043021 ], [ 117.3104101647112, 42.410640682987157 ], [ 117.310379782221801, 42.410640765250413 ], [ 117.310379893226596, 42.410663279971104 ], [ 117.310385969726653, 42.410663263519083 ], [ 117.310386058532316, 42.410681275295552 ], [ 117.310392135034093, 42.410681258843212 ], [ 117.310392157235967, 42.41068576178732 ], [ 117.310416463244806, 42.410685695974671 ], [ 117.310416485448414, 42.410690198918765 ], [ 117.310422561951057, 42.410690182464798 ], [ 117.310422584155091, 42.410694685408892 ], [ 117.310446890167341, 42.41069461958979 ], [ 117.310446912373138, 42.410699122533856 ], [ 117.310452988876619, 42.410699106078276 ], [ 117.310453011082856, 42.410703609022349 ] ] ] } }
]
}
