{
"type": "FeatureCollection",
"name": "tile_3_17",
"crs": { "type": "name", "properties": { "name": "urn:ogc:def:crs:OGC:1.3:CRS84" } },
"features": [
{ "type": "Feature", "properties": { "crown_id": 929, "tree_id": "930", "top_h_m": 21.68, "H_95_Mean": 21.8233, "DBH": 33.937, "Carbon_kg": 229.83953, "area_m2": 28.25 }, "geometry": { "type": "Polygon", "coordinates": [ [ [ 117.314021602616549, 42.411031614690081 ], [ 117.314027679150044, 42.411031598044922 ], [ 117.314027521914952, 42.411000077448911 ], [ 117.314033598445405, 42.411000060803438 ], [ 117.314033575982833, 42.410995557861142 ], [ 117.314039652512847, 42.410995541215357 ], [ 117.314039630049834, 42.41099103827306 ], [ 117.314045706579435, 42.410991021626948 ], [ 117.314045684115982, 42.410986518684652 ], [ 117.314069990232511, 42.410986452097006 ], [ 117.314069967767367, 42.410981949154724 ], [ 117.314063891238661, 42.410981965802108 ], [ 117.314063868773943, 42.410977462859819 ], [ 117.314057792245677, 42.410977479506869 ], [ 117.3140577697814, 42.410972976564572 ], [ 117.31405169325356, 42.410972993211317 ], [ 117.314051670789709, 42.410968490268999 ], [ 117.314033441207513, 42.410968540207293 ], [ 117.314033396282426, 42.410959534322643 ], [ 117.314015166702774, 42.410959584258009 ], [ 117.314015189163996, 42.410964087200341 ], [ 117.314009112637009, 42.410964103844826 ], [ 117.314009090176214, 42.410959600902494 ], [ 117.314003013649653, 42.410959617546645 ], [ 117.314003036110009, 42.410964120488991 ], [ 117.313996959583022, 42.410964137132815 ], [ 117.313996982042923, 42.410968640075168 ], [ 117.313990905515496, 42.41096865671868 ], [ 117.313990927974999, 42.410973159661012 ], [ 117.313984851447088, 42.410973176304211 ], [ 117.313984896365255, 42.410982182188881 ], [ 117.313978819836478, 42.410982198831768 ], [ 117.313978842295143, 42.410986701774092 ], [ 117.313972765765925, 42.410986718416659 ], [ 117.313972788224163, 42.410991221358984 ], [ 117.313966711694519, 42.41099123800123 ], [ 117.313966734152288, 42.410995740943555 ], [ 117.313972810682358, 42.410995724301316 ], [ 117.313972833140582, 42.41100022724364 ], [ 117.313997139262582, 42.411000160671428 ], [ 117.31399716172254, 42.411004663613745 ], [ 117.314009314784386, 42.411004630325692 ], [ 117.314009404627782, 42.411022642094871 ], [ 117.314021557693067, 42.411022608805531 ], [ 117.314021602616549, 42.411031614690081 ] ] ] } },
{ "type": "Feature", "properties": { "crown_id": 950, "tree_id": "951", "top_h_m": 18.93, "H_95_Mean": 19.4218, "DBH": 29.2832, "Carbon_kg": 159.358967, "area_m2": 19.75 }, "geometry": { "type": "Polygon", "coordinates": [ [ [ 117.313875563749306, 42.410991487596228 ], [ 117.313881640279021, 42.410991470958812 ], [ 117.313881617827306, 42.410986968016438 ], [ 117.31391200047365, 42.410986884824567 ], [ 117.313912022927525, 42.410991387766927 ], [ 117.313960635164847, 42.410991254643157 ], [ 117.313960590250176, 42.410982248758479 ], [ 117.313954513721399, 42.410982265400072 ], [ 117.313954468807594, 42.410973259515373 ], [ 117.313936239223835, 42.410973309438198 ], [ 117.313936216768255, 42.410968806495845 ], [ 117.313930140240757, 42.410968823136137 ], [ 117.313930095330463, 42.41095981725141 ], [ 117.313887559643916, 42.410959933724421 ], [ 117.313887582096015, 42.410964436666831 ], [ 117.313875429041801, 42.410964469941938 ], [ 117.313875473944279, 42.410973475826708 ], [ 117.313863320888316, 42.410973509100543 ], [ 117.313863343338681, 42.410978012042932 ], [ 117.313869419867117, 42.410977995406164 ], [ 117.313869464768743, 42.410987001290934 ], [ 117.313875541298032, 42.410986984653839 ], [ 117.313875563749306, 42.410991487596228 ] ] ] } },
{ "type": "Feature", "properties": { "crown_id": 983, "tree_id": "984", "top_h_m": 18.91, "H_95_Mean": 18.6807, "DBH": 29.7268, "Carbon_kg": 160.525267, "area_m2": 22.5 }, "geometry": { "type": "Polygon", "coordinates": [ [ [ 117.314082188222827, 42.410995424685829 ], [ 117.314094341282768, 42.410995391388774 ], [ 117.314094318815862, 42.410990888446491 ], [ 117.314118624933968, 42.410990821848543 ], [ 117.314118579996673, 42.410981815963993 ], [ 117.314124656525323, 42.41098179931371 ], [ 117.314124566649042, 42.410963787544603 ], [ 117.314130643175972, 42.410963770894 ], [ 117.314130598237, 42.410954765009429 ], [ 117.314124521710966, 42.410954781660017 ], [ 117.314124499241927, 42.410950278717721 ], [ 117.314106269665118, 42.410950328667582 ], [ 117.314106247197373, 42.410945825725271 ], [ 117.314100170672191, 42.410945842374574 ], [ 117.314100148204901, 42.410941339432256 ], [ 117.314081918630635, 42.410941389378223 ], [ 117.314081941096632, 42.410945892320555 ], [ 117.314075864571436, 42.410945908968557 ], [ 117.314075887036992, 42.410950411910875 ], [ 117.314069810511342, 42.410950428558571 ], [ 117.314069877906746, 42.410963937385525 ], [ 117.314063801379802, 42.410963954032887 ], [ 117.31406384630921, 42.410972959917508 ], [ 117.314069922837035, 42.410972943270124 ], [ 117.314069945302194, 42.410977446212421 ], [ 117.314076021830431, 42.410977429564717 ], [ 117.314076089227243, 42.410990938391585 ], [ 117.314082165756787, 42.410990921743547 ], [ 117.314082188222827, 42.410995424685829 ] ] ] } },
{ "type": "Feature", "properties": { "crown_id": 1065, "tree_id": "1066", "top_h_m": 20.74, "H_95_Mean": 20.2256, "DBH": 32.8113, "Carbon_kg": 205.290263, "area_m2": 28.5 }, "geometry": { "type": "Polygon", "coordinates": [ [ [ 117.313942293295739, 42.410968789855225 ], [ 117.313948369823237, 42.410968773214286 ], [ 117.313948347366761, 42.410964270271926 ], [ 117.313960500420862, 42.410964236989088 ], [ 117.313960477963548, 42.410959734046713 ], [ 117.313954401436931, 42.410959750688306 ], [ 117.313954378980085, 42.410955247745932 ], [ 117.313972608558572, 42.410955197820243 ], [ 117.313972541184057, 42.410941688993155 ], [ 117.313978617708912, 42.410941672350617 ], [ 117.313978550333147, 42.410928163523515 ], [ 117.313984626856694, 42.410928146880664 ], [ 117.313984604397689, 42.410923643938283 ], [ 117.313978527874582, 42.410923660581126 ], [ 117.313978505416003, 42.410919157638752 ], [ 117.313972428893337, 42.410919174281268 ], [ 117.31397238397706, 42.410910168396498 ], [ 117.313978460498859, 42.410910151753974 ], [ 117.313978415581772, 42.410901145869182 ], [ 117.313948032976995, 42.410901229078526 ], [ 117.313948010520633, 42.410896726136109 ], [ 117.313941934000098, 42.410896742777012 ], [ 117.313941956456034, 42.410901245719423 ], [ 117.313917650372105, 42.410901312279812 ], [ 117.313917695280523, 42.41091031816466 ], [ 117.313923771802379, 42.410910301525043 ], [ 117.313923996349132, 42.410955330948994 ], [ 117.313936149401513, 42.410955297668743 ], [ 117.313936194312674, 42.410964303553484 ], [ 117.313942270839718, 42.410964286912865 ], [ 117.313942293295739, 42.410968789855225 ] ], [ [ 117.313966307455246, 42.410910185038695 ], [ 117.313966284997562, 42.410905682096292 ], [ 117.313972361518935, 42.410905665454088 ], [ 117.31397238397706, 42.410910168396498 ], [ 117.313966307455246, 42.410910185038695 ] ] ] } },
{ "type": "Feature", "properties": { "crown_id": 1079, "tree_id": "1080", "top_h_m": 18.863, "H_95_Mean": 18.9083, "DBH": 31.9192, "Carbon_kg": 186.612385, "area_m2": 29.0 }, "geometry": { "type": "Polygon", "coordinates": [ [ [ 117.313869307613103, 42.410955480694213 ], [ 117.313887537191818, 42.410955430782046 ], [ 117.313887514739733, 42.41095092783965 ], [ 117.313893591265526, 42.410950911201617 ], [ 117.313893613718051, 42.410955414144006 ], [ 117.313917919822927, 42.410955347588647 ], [ 117.313917717734753, 42.410914821107077 ], [ 117.313911641212442, 42.410914837746375 ], [ 117.313911551397339, 42.410896825976678 ], [ 117.313917627917903, 42.410896809337395 ], [ 117.313917605463715, 42.410892306394963 ], [ 117.313887222863045, 42.41089238958817 ], [ 117.313887245315073, 42.410896892530609 ], [ 117.313881168794481, 42.410896909168287 ], [ 117.313881191246068, 42.410901412110732 ], [ 117.313875114725064, 42.410901428748083 ], [ 117.313875137176211, 42.410905931690529 ], [ 117.313850831090321, 42.410905998236764 ], [ 117.313850898438616, 42.410919507064094 ], [ 117.313856974961411, 42.410919490428014 ], [ 117.313857042311056, 42.410932999255309 ], [ 117.313863118835158, 42.410932982618895 ], [ 117.313863141285495, 42.410937485561313 ], [ 117.313869217809994, 42.410937468924566 ], [ 117.313869262711535, 42.4109464748094 ], [ 117.313875339236901, 42.410946458172347 ], [ 117.313875361688133, 42.410950961114736 ], [ 117.313869285162312, 42.410950977751803 ], [ 117.313869307613103, 42.410955480694213 ] ] ] } },
{ "type": "Feature", "properties": { "crown_id": 1080, "tree_id": "1081", "top_h_m": 17.495, "H_95_Mean": 17.4079, "DBH": 33.7527, "Carbon_kg": 198.880506, "area_m2": 42.0 }, "geometry": { "type": "MultiPolygon", "coordinates": [ [ [ [ 117.314039495271956, 42.410964020619197 ], [ 117.31405772485283, 42.410963970679951 ], [ 117.314057702388567, 42.410959467737641 ], [ 117.314063778915084, 42.410959451090577 ], [ 117.314063711521015, 42.410945942263623 ], [ 117.314069788046226, 42.410945925616254 ], [ 117.314069765581095, 42.410941422673922 ], [ 117.314075842105879, 42.410941406026232 ], [ 117.314075819640323, 42.410936903083915 ], [ 117.314087972688966, 42.410936869787584 ], [ 117.314087927756162, 42.410927863902927 ], [ 117.3140818512327, 42.410927880551263 ], [ 117.314081783834837, 42.410914371724239 ], [ 117.314087860356977, 42.410914355075917 ], [ 117.314087748025102, 42.410891840364172 ], [ 117.314081671505122, 42.41089185701248 ], [ 117.314081649039196, 42.410887354070105 ], [ 117.314075572519656, 42.410887370718093 ], [ 117.31407555005417, 42.410882867775726 ], [ 117.314069473535042, 42.41088288442338 ], [ 117.314069451069997, 42.410878381481005 ], [ 117.314063374551296, 42.410878398128339 ], [ 117.314063352086706, 42.410873895185958 ], [ 117.314057275568445, 42.410873911832951 ], [ 117.314057298032594, 42.41087841477534 ], [ 117.314051221513893, 42.410878431422034 ], [ 117.314051288905148, 42.410891940249165 ], [ 117.314045212385125, 42.410891956895547 ], [ 117.314045234848464, 42.410896459837915 ], [ 117.314020928766624, 42.410896526420188 ], [ 117.314020951228201, 42.41090102936257 ], [ 117.314008798186407, 42.410901062651789 ], [ 117.314008820647132, 42.410905565594177 ], [ 117.314002744125759, 42.4109055822383 ], [ 117.314002789046356, 42.410914588123063 ], [ 117.313996712524144, 42.410914604766873 ], [ 117.313996734984002, 42.410919107709248 ], [ 117.314002811506668, 42.410919091065438 ], [ 117.314002856427294, 42.41092809695018 ], [ 117.314015009474346, 42.410928063661579 ], [ 117.314015031935526, 42.410932566603933 ], [ 117.31400895541158, 42.410932583248389 ], [ 117.314009000333101, 42.41094158913311 ], [ 117.314015076857928, 42.410941572488632 ], [ 117.314015099319136, 42.410946075430992 ], [ 117.314021175844402, 42.410946058786188 ], [ 117.314021198306037, 42.410950561728534 ], [ 117.314033351357395, 42.410950528437979 ], [ 117.314033373819896, 42.410955031380304 ], [ 117.314039450346002, 42.410955014734547 ], [ 117.314039495271956, 42.410964020619197 ] ], [ [ 117.314039405420118, 42.410946008849884 ], [ 117.314039338031279, 42.410932500022859 ], [ 117.314057567603058, 42.410932450083678 ], [ 117.314057634995805, 42.410945958910673 ], [ 117.314039405420118, 42.410946008849884 ] ] ], [ [ [ 117.314063352086706, 42.410873895185958 ], [ 117.314069428604952, 42.410873878538617 ], [ 117.314069406139922, 42.410869375596249 ], [ 117.314063329622087, 42.410869392243569 ], [ 117.314063352086706, 42.410873895185958 ] ] ] ] } },
{ "type": "Feature", "properties": { "crown_id": 1141, "tree_id": "1142", "top_h_m": 17.25, "H_95_Mean": 17.1932, "DBH": 26.9726, "Carbon_kg": 125.639015, "area_m2": 18.0 }, "geometry": { "type": "Polygon", "coordinates": [ [ [ 117.313923704438452, 42.410896792697777 ], [ 117.313935857479549, 42.410896759417589 ], [ 117.313935835024068, 42.410892256475172 ], [ 117.313954064584365, 42.410892206552475 ], [ 117.313954087041168, 42.410896709494892 ], [ 117.313984469643714, 42.410896626283943 ], [ 117.313984447184751, 42.410892123341554 ], [ 117.313978370664671, 42.410892139984377 ], [ 117.313978348206149, 42.410887637041967 ], [ 117.31398442472576, 42.410887620399137 ], [ 117.313984402266797, 42.410883117456741 ], [ 117.313990478785996, 42.410883100813592 ], [ 117.313990456326607, 42.410878597871182 ], [ 117.313984379807849, 42.410878614514331 ], [ 117.313984312430989, 42.410865105687073 ], [ 117.313978235913538, 42.410865122329881 ], [ 117.313978258372032, 42.410869625272305 ], [ 117.313972181854155, 42.410869641914807 ], [ 117.313972159396059, 42.410865138972383 ], [ 117.313960006361128, 42.410865172256408 ], [ 117.313959983903914, 42.410860669313962 ], [ 117.313947830869822, 42.410860702596686 ], [ 117.313947853326141, 42.410865205539125 ], [ 117.313941776808662, 42.41086522218 ], [ 117.313941731896875, 42.410856216295109 ], [ 117.313935655380263, 42.410856232935664 ], [ 117.313935677835715, 42.410860735878117 ], [ 117.313923524801567, 42.410860769158262 ], [ 117.313923704438452, 42.410896792697777 ] ] ] } },
{ "type": "Feature", "properties": { "crown_id": 1150, "tree_id": "1151", "top_h_m": 20.471, "H_95_Mean": 20.1343, "DBH": 31.8962, "Carbon_kg": 193.395754, "area_m2": 25.75 }, "geometry": { "type": "Polygon", "coordinates": [ [ [ 117.313850808640908, 42.410901495294311 ], [ 117.313869038204018, 42.410901445385136 ], [ 117.313869015753298, 42.410896942442683 ], [ 117.313875092273875, 42.410896925805652 ], [ 117.313875069822728, 42.410892422863206 ], [ 117.313881146342908, 42.410892406225848 ], [ 117.313881123891321, 42.410887903283395 ], [ 117.313917583009513, 42.410887803452532 ], [ 117.313917470738659, 42.410865288740311 ], [ 117.313911394221122, 42.410865305379581 ], [ 117.313911371767404, 42.410860802437128 ], [ 117.313899218733241, 42.410860835714701 ], [ 117.313899241186093, 42.410865338657153 ], [ 117.313893164668571, 42.410865355295471 ], [ 117.313893097311308, 42.410851846468063 ], [ 117.313887020795079, 42.410851863106032 ], [ 117.313886998343122, 42.410847360163551 ], [ 117.313874845311489, 42.41084739343853 ], [ 117.313874822860384, 42.410842890496049 ], [ 117.313868746345022, 42.410842907133045 ], [ 117.313868768795672, 42.410847410075533 ], [ 117.313850539248193, 42.410847459984623 ], [ 117.313850584146948, 42.410856465869607 ], [ 117.313844507630236, 42.410856482505331 ], [ 117.313844642323943, 42.410883500160203 ], [ 117.313850718843256, 42.410883483524472 ], [ 117.313850808640908, 42.410901495294311 ] ] ] } },
{ "type": "Feature", "properties": { "crown_id": 1192, "tree_id": "1193", "top_h_m": 17.27, "H_95_Mean": 17.2421, "DBH": 33.903, "Carbon_kg": 199.536838, "area_m2": 43.5 }, "geometry": { "type": "Polygon", "coordinates": [ [ [ 117.314002699205176, 42.410896576353522 ], [ 117.314014852246146, 42.410896543064958 ], [ 117.314014829785009, 42.410892040122562 ], [ 117.31403913586513, 42.410891973541595 ], [ 117.314039113402245, 42.410887470599206 ], [ 117.314045189921799, 42.410887453953166 ], [ 117.31404512253188, 42.410873945126006 ], [ 117.314051199050169, 42.410873928479639 ], [ 117.314051176586432, 42.41086942553725 ], [ 117.314057253104252, 42.410869408890576 ], [ 117.314057230640103, 42.410864905948181 ], [ 117.314069383674877, 42.410864872653853 ], [ 117.31406936120986, 42.410860369711472 ], [ 117.3140754377268, 42.410860353063825 ], [ 117.314075370330471, 42.410846844236644 ], [ 117.314069293814825, 42.410846860884284 ], [ 117.314069248884806, 42.410837854999464 ], [ 117.314063172370027, 42.410837871646777 ], [ 117.314063149905465, 42.410833368704367 ], [ 117.314057073391112, 42.410833385351353 ], [ 117.314057050927005, 42.410828882408929 ], [ 117.314063127440917, 42.41082886576195 ], [ 117.314063082511822, 42.410819859877108 ], [ 117.314057005998777, 42.41081987652408 ], [ 117.314057028462884, 42.410824379466519 ], [ 117.314050951949397, 42.410824396113163 ], [ 117.314050929485717, 42.410819893170732 ], [ 117.314020546920389, 42.410819976399168 ], [ 117.314020569381881, 42.410824479341613 ], [ 117.314008416354866, 42.410824512630739 ], [ 117.314008438815478, 42.410829015573185 ], [ 117.314002362301522, 42.410829032217258 ], [ 117.314002384761721, 42.410833535159703 ], [ 117.31399023173293, 42.410833568446904 ], [ 117.313990321570344, 42.410851580216658 ], [ 117.313972092021856, 42.410851630145082 ], [ 117.313972114479924, 42.410856133087506 ], [ 117.313978190996522, 42.410856116445018 ], [ 117.31397821345503, 42.410860619387456 ], [ 117.313984289972041, 42.410860602744656 ], [ 117.313984267513106, 42.41085609980221 ], [ 117.313990344029691, 42.410856083159075 ], [ 117.313990433867204, 42.410874094928758 ], [ 117.313996510385522, 42.410874078285303 ], [ 117.31399657776501, 42.410887587112519 ], [ 117.314002654284636, 42.410887570468731 ], [ 117.314002699205176, 42.410896576353522 ] ] ] } }
]
}
