{
"type": "FeatureCollection",
"name": "tile_6_5",
"crs": { "type": "name", "properties": { "name": "urn:ogc:def:crs:OGC:1.3:CRS84" } },
"features": [
{ "type": "Feature", "properties": { "crown_id": 1997, "tree_id": "1998", "top_h_m": 21.225, "H_95_Mean": 21.3072, "DBH": 39.218, "Carbon_kg": 303.301118, "area_m2": 51.75 }, "geometry": { "type": "Polygon", "coordinates": [ [ [ 117.311078045424779, 42.410530800504937 ], [ 117.311120580832778, 42.410530685075294 ], [ 117.311120558578921, 42.41052618213137 ], [ 117.311126635065321, 42.410526165640135 ], [ 117.311126568302527, 42.410512656808358 ], [ 117.311132644787619, 42.41051264031681 ], [ 117.311132600278228, 42.410503634428956 ], [ 117.311144753246666, 42.410503601444901 ], [ 117.311144641968951, 42.410481086725213 ], [ 117.311156794933027, 42.410481053739893 ], [ 117.311156772676625, 42.410476550795948 ], [ 117.311138543231849, 42.410476600273441 ], [ 117.311138476466581, 42.410463091441564 ], [ 117.311132399986278, 42.410463107933417 ], [ 117.311132355477014, 42.41045410204547 ], [ 117.311126278997577, 42.41045411853699 ], [ 117.311126256743393, 42.410449615593016 ], [ 117.311095874348283, 42.41044969804576 ], [ 117.311095807592253, 42.410436189213762 ], [ 117.311089731114521, 42.410436205703348 ], [ 117.311089708862951, 42.410431702759332 ], [ 117.311077555908355, 42.410431735737504 ], [ 117.311077511406978, 42.410422729849472 ], [ 117.31107143493054, 42.410422746338071 ], [ 117.311071457180788, 42.410427249282087 ], [ 117.311053227750108, 42.410427298745972 ], [ 117.311053249999048, 42.410431801689995 ], [ 117.311047173521729, 42.410431818177315 ], [ 117.311047195770243, 42.410436321121331 ], [ 117.311053272248017, 42.410436304634018 ], [ 117.31105333899491, 42.410449813466066 ], [ 117.311059415473963, 42.410449796978419 ], [ 117.311059571219957, 42.410481317586367 ], [ 117.311053494737848, 42.410481334074042 ], [ 117.311053516986846, 42.41048583701803 ], [ 117.31106566995193, 42.410485804042366 ], [ 117.311065714451701, 42.410494809930299 ], [ 117.311071790935117, 42.410494793441984 ], [ 117.311071746434465, 42.410485787554052 ], [ 117.311089975882041, 42.410485738087168 ], [ 117.311090020385308, 42.4104947439751 ], [ 117.311096096868695, 42.410494727485485 ], [ 117.311096163624896, 42.410508236317341 ], [ 117.311084010655506, 42.410508269296258 ], [ 117.311084077409177, 42.410521778128086 ], [ 117.311078000923175, 42.410521794617075 ], [ 117.311078045424779, 42.410530800504937 ] ], [ [ 117.311114482092506, 42.410526198622286 ], [ 117.311114459839104, 42.410521695678362 ], [ 117.311120536325092, 42.410521679187447 ], [ 117.311120558578921, 42.41052618213137 ], [ 117.311114482092506, 42.410526198622286 ] ], [ [ 117.311059393224568, 42.41044529403441 ], [ 117.311059326476396, 42.410431785202356 ], [ 117.311077555908355, 42.410431735737504 ], [ 117.311077622660434, 42.410445244569537 ], [ 117.311059393224568, 42.41044529403441 ] ] ] } },
{ "type": "Feature", "properties": { "crown_id": 2111, "tree_id": "2112", "top_h_m": 18.12, "H_95_Mean": 19.826, "DBH": 31.5036, "Carbon_kg": 186.914273, "area_m2": 25.25 }, "geometry": { "type": "Polygon", "coordinates": [ [ [ 117.310956293265434, 42.410486100776943 ], [ 117.310962369748069, 42.410486084294433 ], [ 117.310962347505566, 42.410481581350403 ], [ 117.310968423987745, 42.41048156486756 ], [ 117.310968446230689, 42.410486067811597 ], [ 117.310974522713309, 42.410486051328427 ], [ 117.310974500469939, 42.410481548384404 ], [ 117.311041341773603, 42.410481367048405 ], [ 117.311041364021733, 42.410485869992399 ], [ 117.311047440504296, 42.410485853505371 ], [ 117.31104739600714, 42.410476847617403 ], [ 117.311053472488823, 42.410476831130048 ], [ 117.311053361243893, 42.410454316410068 ], [ 117.311047284764371, 42.410454332897402 ], [ 117.311047218018771, 42.410440824065354 ], [ 117.311041141540557, 42.410440840552361 ], [ 117.311041097044367, 42.410431834664308 ], [ 117.311035020567047, 42.410431851150982 ], [ 117.3110349983194, 42.410427348206952 ], [ 117.311022845365557, 42.410427381179318 ], [ 117.311022867612337, 42.410431884123362 ], [ 117.311010714657613, 42.410431917094449 ], [ 117.311010736903526, 42.410436420038486 ], [ 117.311004660425724, 42.410436436523554 ], [ 117.311004682671211, 42.410440939467591 ], [ 117.310998606192939, 42.410440955952339 ], [ 117.310998672928136, 42.410454464784436 ], [ 117.311004749407672, 42.410454448299681 ], [ 117.311004727162185, 42.410449945355658 ], [ 117.311022956599473, 42.410449895899475 ], [ 117.311023023339914, 42.41046340473153 ], [ 117.311029099820317, 42.410463388245475 ], [ 117.311029166562093, 42.410476897077494 ], [ 117.311010937116961, 42.410476946534686 ], [ 117.311010870379093, 42.410463437702653 ], [ 117.31100479389869, 42.410463454187742 ], [ 117.311004816144205, 42.410467957131758 ], [ 117.310986586701645, 42.41046800658507 ], [ 117.310986542213215, 42.41045900069701 ], [ 117.310980465733209, 42.410459017180806 ], [ 117.310980487976991, 42.410463520124843 ], [ 117.310962258535653, 42.410463569574283 ], [ 117.310962280778142, 42.41046807251832 ], [ 117.310950127816341, 42.410468105483012 ], [ 117.310950150057948, 42.410472608427042 ], [ 117.310944073576607, 42.410472624908913 ], [ 117.310944118058984, 42.410481630796973 ], [ 117.310950194541192, 42.41048161431511 ], [ 117.31095017229957, 42.410477111371073 ], [ 117.310956248781324, 42.410477094888883 ], [ 117.310956293265434, 42.410486100776943 ] ], [ [ 117.310980532464541, 42.410472526012889 ], [ 117.310980510220759, 42.410468023068873 ], [ 117.310986586701645, 42.41046800658507 ], [ 117.310986608945854, 42.410472509529086 ], [ 117.310980532464541, 42.410472526012889 ] ] ] } },
{ "type": "Feature", "properties": { "crown_id": 2112, "tree_id": "2113", "top_h_m": 20.87, "H_95_Mean": 21.6624, "DBH": 26.3667, "Carbon_kg": 137.591163, "area_m2": 10.75 }, "geometry": { "type": "Polygon", "coordinates": [ [ [ 117.311144597457911, 42.410472080837316 ], [ 117.311156750420253, 42.410472047852004 ], [ 117.311156728163866, 42.410467544908059 ], [ 117.311162804644582, 42.41046752841492 ], [ 117.311162760130955, 42.410458522527009 ], [ 117.311168836610804, 42.410458506033564 ], [ 117.311168814353564, 42.410454003089605 ], [ 117.311156661394733, 42.410454036076189 ], [ 117.311156572369313, 42.410436024300303 ], [ 117.31112618998084, 42.410436106761054 ], [ 117.311126167726684, 42.410431603817074 ], [ 117.311120091249407, 42.410431620308259 ], [ 117.311120068995677, 42.41042711736425 ], [ 117.311107916041991, 42.410427150345654 ], [ 117.311107960547702, 42.410436156233644 ], [ 117.311101884069984, 42.410436172723863 ], [ 117.311101928574857, 42.410445178611859 ], [ 117.311132310967764, 42.410445096157524 ], [ 117.311132333222389, 42.410449599101504 ], [ 117.3111384097014, 42.410449582609665 ], [ 117.31113845421153, 42.410458588497598 ], [ 117.311144530691394, 42.410458572005439 ], [ 117.311144597457911, 42.410472080837316 ] ] ] } },
{ "type": "Feature", "properties": { "crown_id": 2118, "tree_id": "2119", "top_h_m": 20.15, "H_95_Mean": 20.0925, "DBH": 29.6623, "Carbon_kg": 166.861598, "area_m2": 19.5 }, "geometry": { "type": "Polygon", "coordinates": [ [ [ 117.310925821892738, 42.410468171408532 ], [ 117.310931898373653, 42.410468154927628 ], [ 117.310931876133324, 42.410463651983576 ], [ 117.310956182055193, 42.410463586056785 ], [ 117.310956159813173, 42.410459083112748 ], [ 117.310974389253218, 42.410459033664274 ], [ 117.310974367009891, 42.41045453072023 ], [ 117.310962214050733, 42.410454563686201 ], [ 117.310962169565826, 42.410445557798099 ], [ 117.3109560930871, 42.410445574280601 ], [ 117.310956026361097, 42.410432065448418 ], [ 117.310974255793298, 42.410432016 ], [ 117.310974300279923, 42.410441021888097 ], [ 117.310980376758195, 42.41044100540465 ], [ 117.310980443489456, 42.410454514236775 ], [ 117.310992596448557, 42.410454481268879 ], [ 117.310992507470075, 42.410436469492723 ], [ 117.310998583947907, 42.410436453008295 ], [ 117.31099856170286, 42.410431950064257 ], [ 117.311004638180236, 42.410431933579524 ], [ 117.311004615934777, 42.410427430635458 ], [ 117.310998539457827, 42.410427447120199 ], [ 117.310998517212809, 42.410422944176155 ], [ 117.3109742113067, 42.41042301011187 ], [ 117.31097418906343, 42.410418507167812 ], [ 117.310955959635123, 42.410418556616207 ], [ 117.310955981877086, 42.410423059560273 ], [ 117.310949905400548, 42.410423076042441 ], [ 117.310949927642127, 42.410427578986507 ], [ 117.310943851165121, 42.410427595468342 ], [ 117.310943873406259, 42.410432098412429 ], [ 117.31093779692884, 42.41043211489395 ], [ 117.31093781916951, 42.410436617838023 ], [ 117.310925666213791, 42.410436650800087 ], [ 117.310925688453622, 42.410441153744159 ], [ 117.310919611975308, 42.410441170224729 ], [ 117.310919723172361, 42.410463684945043 ], [ 117.310925799652864, 42.410463668464473 ], [ 117.310925821892738, 42.410468171408532 ] ] ] } },
{ "type": "Feature", "properties": { "crown_id": 2189, "tree_id": "2190", "top_h_m": 20.256, "H_95_Mean": 20.8307, "DBH": 31.9174, "Carbon_kg": 197.589021, "area_m2": 24.25 }, "geometry": { "type": "MultiPolygon", "coordinates": [ [ [ [ 117.311162849158222, 42.410476534302816 ], [ 117.311168925639805, 42.41047651780935 ], [ 117.311168903382551, 42.410472014865405 ], [ 117.311162826901395, 42.410472031358864 ], [ 117.311162849158222, 42.410476534302816 ] ] ], [ [ [ 117.311168903382551, 42.410472014865405 ], [ 117.31119928578822, 42.410471932393278 ], [ 117.311199241269364, 42.41046292650541 ], [ 117.311205317749611, 42.410462910010018 ], [ 117.311205295489771, 42.410458407066081 ], [ 117.31122352492919, 42.410458357578001 ], [ 117.311223458145747, 42.410444848746195 ], [ 117.311229534624246, 42.410444832249532 ], [ 117.311229512362686, 42.410440329305594 ], [ 117.311217359406555, 42.410440362298594 ], [ 117.311217337145848, 42.410435859354649 ], [ 117.311211260668216, 42.410435875850666 ], [ 117.311211238407978, 42.410431372906714 ], [ 117.311174779544686, 42.410431471876031 ], [ 117.311174757287034, 42.41042696893205 ], [ 117.311168680810241, 42.410426985425801 ], [ 117.31116861403865, 42.410413476593853 ], [ 117.311156461087648, 42.410413509580366 ], [ 117.311156416575031, 42.410404503692384 ], [ 117.311132110676439, 42.410404569661559 ], [ 117.311132155185575, 42.410413575549576 ], [ 117.31112607871006, 42.410413592041067 ], [ 117.311126145472514, 42.410427100873072 ], [ 117.311132221949336, 42.410427084381574 ], [ 117.311132244203961, 42.410431587325569 ], [ 117.311162626590203, 42.410431504863219 ], [ 117.311162715617371, 42.410449516639105 ], [ 117.311174868575307, 42.410449483651888 ], [ 117.311174935348319, 42.410462992483744 ], [ 117.311168858868044, 42.410463008977523 ], [ 117.311168903382551, 42.410472014865405 ] ], [ [ 117.311180967312367, 42.410453970101749 ], [ 117.311180900538062, 42.410440461269872 ], [ 117.311199129972337, 42.410440411785679 ], [ 117.31119919675055, 42.410453920617535 ], [ 117.311180967312367, 42.410453970101749 ] ] ] ] } },
{ "type": "Feature", "properties": { "crown_id": 2221, "tree_id": "2222", "top_h_m": 19.84, "H_95_Mean": 20.279, "DBH": 21.9907, "Carbon_kg": 91.787799, "area_m2": 6.0 }, "geometry": { "type": "Polygon", "coordinates": [ [ [ 117.311041074796321, 42.410427331720278 ], [ 117.311047151273215, 42.410427315233285 ], [ 117.311047129024701, 42.410422812289255 ], [ 117.311065358454073, 42.41042276282635 ], [ 117.311065336204265, 42.410418259882327 ], [ 117.311083565632302, 42.41041821041653 ], [ 117.311083543381187, 42.4104137074725 ], [ 117.311065313954472, 42.41041375693829 ], [ 117.311065291704665, 42.41040925399426 ], [ 117.311059215229534, 42.410409270482198 ], [ 117.3110591707308, 42.410400264594131 ], [ 117.311053094256522, 42.410400281081742 ], [ 117.311053072007596, 42.410395778137683 ], [ 117.311046995533729, 42.410395794624989 ], [ 117.311047017782229, 42.410400297569048 ], [ 117.311040941307922, 42.410400314056012 ], [ 117.311040985804041, 42.410409319944115 ], [ 117.311034909328853, 42.410409336430767 ], [ 117.311034931576472, 42.410413839374819 ], [ 117.311041008052101, 42.41041382288816 ], [ 117.311041074796321, 42.410427331720278 ] ] ] } },
{ "type": "Feature", "properties": { "crown_id": 2235, "tree_id": "2236", "top_h_m": 18.28, "H_95_Mean": 18.5538, "DBH": 19.848, "Carbon_kg": 70.829188, "area_m2": 4.75 }, "geometry": { "type": "Polygon", "coordinates": [ [ [ 117.311010692411699, 42.410427414150405 ], [ 117.311016768888635, 42.410427397665025 ], [ 117.311016746642281, 42.410422894720973 ], [ 117.311034976071753, 42.4104228452629 ], [ 117.311034953824119, 42.410418342318863 ], [ 117.31102280087201, 42.410418375291236 ], [ 117.311022778625258, 42.410413872347185 ], [ 117.311028855100872, 42.410413855861165 ], [ 117.311028832853694, 42.410409352917114 ], [ 117.311022756378492, 42.410409369403126 ], [ 117.311022711885002, 42.410400363515016 ], [ 117.311016635410681, 42.410400380000702 ], [ 117.311016657657007, 42.410404882944768 ], [ 117.311004504707469, 42.41040491591518 ], [ 117.311004526952928, 42.410409418859246 ], [ 117.310998450477712, 42.410409435343972 ], [ 117.310998494967777, 42.410418441232096 ], [ 117.311004571443831, 42.41041842474737 ], [ 117.31100459368929, 42.410422927691414 ], [ 117.3110106701658, 42.410422911206361 ], [ 117.311010692411699, 42.410427414150405 ] ] ] } },
{ "type": "Feature", "properties": { "crown_id": 2267, "tree_id": "2268", "top_h_m": 19.23, "H_95_Mean": 19.5634, "DBH": 28.3778, "Carbon_kg": 150.228239, "area_m2": 17.25 }, "geometry": { "type": "Polygon", "coordinates": [ [ [ 117.311095785340257, 42.410431686269753 ], [ 117.311101861817562, 42.410431669779861 ], [ 117.311101817312718, 42.41042266389185 ], [ 117.311120046741948, 42.410422614420249 ], [ 117.311119979980802, 42.410409105588222 ], [ 117.31112605645589, 42.410409089097058 ], [ 117.311126011947621, 42.410400083209034 ], [ 117.311132088421871, 42.41040006671755 ], [ 117.311132066167289, 42.410395563773527 ], [ 117.311125989693508, 42.410395580265003 ], [ 117.311125967439366, 42.410391077320995 ], [ 117.311107738019274, 42.410391126793492 ], [ 117.311107715766454, 42.410386623849469 ], [ 117.311095562820555, 42.410386656829516 ], [ 117.31109554056863, 42.410382153885479 ], [ 117.311077311151053, 42.410382203353144 ], [ 117.311077333401684, 42.410386706297196 ], [ 117.311065180455756, 42.410386739274031 ], [ 117.311065269454886, 42.410404751050216 ], [ 117.311071345929591, 42.410404734561943 ], [ 117.31107136817981, 42.410409237505981 ], [ 117.311089597605218, 42.410409188039246 ], [ 117.311089664359841, 42.410422696871301 ], [ 117.311083587883417, 42.410422713360553 ], [ 117.311083610134546, 42.410427216304569 ], [ 117.311095763088261, 42.410427183325744 ], [ 117.311095785340257, 42.410431686269753 ] ] ] } },
{ "type": "Feature", "properties": { "crown_id": 2291, "tree_id": "2292", "top_h_m": 19.225, "H_95_Mean": 19.225, "DBH": 18.3072, "Carbon_kg": 61.462084, "area_m2": 3.25 }, "geometry": { "type": "Polygon", "coordinates": [ [ [ 117.311028810606501, 42.410404849973062 ], [ 117.311034887081249, 42.410404833486723 ], [ 117.311034842586011, 42.410395827598606 ], [ 117.311040919059892, 42.410395811111954 ], [ 117.311040896811846, 42.410391308167902 ], [ 117.311022667391541, 42.410391357626878 ], [ 117.311022622898079, 42.41038235173874 ], [ 117.311016546425506, 42.410382368224418 ], [ 117.311016568671775, 42.410386871168498 ], [ 117.311010492198761, 42.41038688765385 ], [ 117.311010514444618, 42.410391390597923 ], [ 117.31099836149771, 42.410391423567681 ], [ 117.310998383742714, 42.410395926511754 ], [ 117.311004460216594, 42.410395910027034 ], [ 117.311004482462039, 42.410400412971121 ], [ 117.31101055893636, 42.410400396486068 ], [ 117.311010536690489, 42.410395893541995 ], [ 117.311028766112145, 42.410395844084938 ], [ 117.311028810606501, 42.410404849973062 ] ] ] } },
{ "type": "Feature", "properties": { "crown_id": 2326, "tree_id": "2327", "top_h_m": 19.719, "H_95_Mean": 20.6965, "DBH": 31.9876, "Carbon_kg": 197.708658, "area_m2": 24.75 }, "geometry": { "type": "Polygon", "coordinates": [ [ [ 117.311138164896093, 42.410400050225739 ], [ 117.311156394318701, 42.410400000748382 ], [ 117.311156194012185, 42.410359474252189 ], [ 117.311162270482455, 42.410359457759121 ], [ 117.31116224822577, 42.410354954815084 ], [ 117.311156171755925, 42.410354971308152 ], [ 117.311156149499652, 42.410350468364115 ], [ 117.311119690683043, 42.41035056731576 ], [ 117.311119646175769, 42.410341561427629 ], [ 117.311113569707175, 42.41034157791843 ], [ 117.311113614213582, 42.410350583806569 ], [ 117.31110146127466, 42.410350616787234 ], [ 117.311101483526983, 42.410355119731292 ], [ 117.311089330587166, 42.410355152710672 ], [ 117.311089352838664, 42.410359655654744 ], [ 117.311083276368308, 42.41035967214394 ], [ 117.311083298619337, 42.41036417508802 ], [ 117.311077222148555, 42.410364191576903 ], [ 117.311077288900435, 42.410377700409086 ], [ 117.311083365372511, 42.410377683920196 ], [ 117.311083343121453, 42.410373180976137 ], [ 117.311089419593117, 42.410373164486913 ], [ 117.311089441844601, 42.410377667430971 ], [ 117.311101594788767, 42.410377634451571 ], [ 117.311101617041146, 42.410382137395608 ], [ 117.311113769986164, 42.410382104414921 ], [ 117.311113792239411, 42.410386607358959 ], [ 117.311132021658182, 42.410386557885488 ], [ 117.311132043912721, 42.410391060829511 ], [ 117.311138120386076, 42.410391044337707 ], [ 117.311138164896093, 42.410400050225739 ] ] ] } },
{ "type": "Feature", "properties": { "crown_id": 2358, "tree_id": "2359", "top_h_m": 20.64, "H_95_Mean": 21.2132, "DBH": 28.0729, "Carbon_kg": 154.203008, "area_m2": 14.25 }, "geometry": { "type": "Polygon", "coordinates": [ [ [ 117.310980265539513, 42.410418490684364 ], [ 117.310992418491693, 42.410418457716503 ], [ 117.310992351757932, 42.410404948884306 ], [ 117.310998428232708, 42.410404932399906 ], [ 117.310998405987718, 42.410400429455834 ], [ 117.310992329513368, 42.410400445940226 ], [ 117.310992262779678, 42.410386937107994 ], [ 117.311004415725733, 42.410386904138882 ], [ 117.311004393480317, 42.410382401194802 ], [ 117.311010469952919, 42.410382384709777 ], [ 117.311010447707076, 42.410377881765683 ], [ 117.311022600651341, 42.410377848794653 ], [ 117.311022578404632, 42.410373345850573 ], [ 117.311016501932926, 42.410373362336252 ], [ 117.311016479686657, 42.410368859392158 ], [ 117.311010403215363, 42.410368875877516 ], [ 117.311010358723692, 42.410359869989328 ], [ 117.310998205782866, 42.410359902959037 ], [ 117.310998183537905, 42.410355400014936 ], [ 117.310986030597917, 42.410355432983359 ], [ 117.310986097330201, 42.41036894181569 ], [ 117.310980020858878, 42.410368958299422 ], [ 117.310980065346243, 42.410377964187617 ], [ 117.310973988874053, 42.410377980671036 ], [ 117.310974055603793, 42.410391489503318 ], [ 117.3109619026568, 42.410391522469219 ], [ 117.310961969383996, 42.410405031301487 ], [ 117.31097412233359, 42.410404998335586 ], [ 117.31097410009032, 42.410400495391514 ], [ 117.310980176564669, 42.410400478908066 ], [ 117.310980221052077, 42.410409484796226 ], [ 117.310986297527307, 42.410409468312459 ], [ 117.310986319771459, 42.410413971256524 ], [ 117.310980243295802, 42.410413987740291 ], [ 117.310980265539513, 42.410418490684364 ] ] ] } },
{ "type": "Feature", "properties": { "crown_id": 2359, "tree_id": "2360", "top_h_m": 20.441, "H_95_Mean": 20.7472, "DBH": 18.1826, "Carbon_kg": 63.416567, "area_m2": 2.75 }, "geometry": { "type": "Polygon", "coordinates": [ [ [ 117.311162381765996, 42.41038197247925 ], [ 117.311168458238456, 42.410381955985848 ], [ 117.311168435981301, 42.410377453041825 ], [ 117.311174512453334, 42.410377436548096 ], [ 117.311174490195725, 42.410372933604087 ], [ 117.311186643138882, 42.41037290061567 ], [ 117.311186598622001, 42.410363894727631 ], [ 117.311162292739169, 42.410363960703151 ], [ 117.311162381765996, 42.41038197247925 ] ] ] } },
{ "type": "Feature", "properties": { "crown_id": 2374, "tree_id": "2375", "top_h_m": 19.63, "H_95_Mean": 20.8416, "DBH": 29.8784, "Carbon_kg": 173.026549, "area_m2": 18.75 }, "geometry": { "type": "Polygon", "coordinates": [ [ [ 117.311046973285272, 42.410391291680931 ], [ 117.311059126232109, 42.410391258706014 ], [ 117.311059081733433, 42.410382252817904 ], [ 117.311071234678522, 42.410382219841715 ], [ 117.311071145677772, 42.410364208065474 ], [ 117.311065069206961, 42.41036422455371 ], [ 117.311065046957225, 42.41035972160963 ], [ 117.311046817546099, 42.410359771072429 ], [ 117.311046795297671, 42.410355268128342 ], [ 117.311040718827726, 42.410355284615292 ], [ 117.311040652083747, 42.410341775782996 ], [ 117.31102242267778, 42.4103418252419 ], [ 117.311022378184447, 42.410332819353684 ], [ 117.311016301716634, 42.410332835839327 ], [ 117.311016257224182, 42.410323829951082 ], [ 117.311010180757236, 42.410323846436405 ], [ 117.311010225248822, 42.410332852324657 ], [ 117.311004148781009, 42.410332868809661 ], [ 117.311004260007905, 42.410355383530245 ], [ 117.311016412947851, 42.410355350559882 ], [ 117.311016457440374, 42.410364356448071 ], [ 117.311022533911213, 42.410364339962406 ], [ 117.311022556157923, 42.4103688429065 ], [ 117.311028632629188, 42.410368826420502 ], [ 117.311028721617802, 42.410386838196814 ], [ 117.311046951036815, 42.410386788736872 ], [ 117.311046973285272, 42.410391291680931 ] ] ] } },
{ "type": "Feature", "properties": { "crown_id": 2433, "tree_id": "2434", "top_h_m": 19.73, "H_95_Mean": 20.1801, "DBH": 20.9331, "Carbon_kg": 82.867946, "area_m2": 5.0 }, "geometry": { "type": "Polygon", "coordinates": [ [ [ 117.310961702475538, 42.41035099597223 ], [ 117.310979931884262, 42.410350946522982 ], [ 117.310979865153342, 42.410337437690593 ], [ 117.310973788685075, 42.410337454173991 ], [ 117.31097376644189, 42.410332951229854 ], [ 117.310967689974049, 42.410332967712932 ], [ 117.310967645488546, 42.410323961824652 ], [ 117.310961569021572, 42.410323978307382 ], [ 117.310961591263876, 42.41032848125154 ], [ 117.310955514796476, 42.410328497733964 ], [ 117.310955537038353, 42.410333000678108 ], [ 117.310949460570512, 42.41033301716022 ], [ 117.310949527294895, 42.410346525992651 ], [ 117.310961680233206, 42.410346493028094 ], [ 117.310961702475538, 42.41035099597223 ] ] ] } },
{ "type": "Feature", "properties": { "crown_id": 2434, "tree_id": "2435", "top_h_m": 22.65, "H_95_Mean": 22.65, "DBH": 21.5161, "Carbon_kg": 93.775649, "area_m2": 4.5 }, "geometry": { "type": "Polygon", "coordinates": [ [ [ 117.311125744898433, 42.410346047880566 ], [ 117.311156127243436, 42.410345965420071 ], [ 117.311156104987177, 42.410341462476012 ], [ 117.311162181455728, 42.410341445982951 ], [ 117.311162159199043, 42.410336943038899 ], [ 117.311150006262821, 42.410336976024688 ], [ 117.311149984007031, 42.410332473080636 ], [ 117.311143907539346, 42.410332489573051 ], [ 117.311143885283983, 42.410327986628985 ], [ 117.311131732349452, 42.410328019612848 ], [ 117.31113175460392, 42.410332522556907 ], [ 117.311119601668508, 42.410332555539483 ], [ 117.311119623922139, 42.410337058483556 ], [ 117.311125700390278, 42.41033704199242 ], [ 117.311125744898433, 42.410346047880566 ] ] ] } },
{ "type": "Feature", "properties": { "crown_id": 2454, "tree_id": "2455", "top_h_m": 20.7, "H_95_Mean": 20.7473, "DBH": 35.2701, "Carbon_kg": 241.080806, "area_m2": 36.0 }, "geometry": { "type": "Polygon", "coordinates": [ [ [ 117.311071123427595, 42.410359705121394 ], [ 117.311077199897952, 42.41035968863283 ], [ 117.311077177647348, 42.410355185688758 ], [ 117.311083254117278, 42.410355169199875 ], [ 117.311083231866235, 42.410350666255809 ], [ 117.311095384805199, 42.410350633277083 ], [ 117.311095362553289, 42.410346130333004 ], [ 117.311107515491358, 42.410346097352999 ], [ 117.311107470985831, 42.410337091464832 ], [ 117.311113547453999, 42.410337074974358 ], [ 117.311113480694431, 42.410323566142132 ], [ 117.311101327760724, 42.410323599122755 ], [ 117.311101283256107, 42.410314593234567 ], [ 117.311095206790128, 42.410314609724395 ], [ 117.31109518453826, 42.410310106780301 ], [ 117.311076955141544, 42.410310156247832 ], [ 117.311076977392119, 42.410314659191954 ], [ 117.311083053858127, 42.410314642703085 ], [ 117.31108312061113, 42.410328151535388 ], [ 117.31106489120917, 42.410328201001022 ], [ 117.31106482446009, 42.41031469216869 ], [ 117.311058747994068, 42.4103147086566 ], [ 117.311058681246308, 42.410301199824232 ], [ 117.31107691064048, 42.410301150359615 ], [ 117.31107688838992, 42.410296647415493 ], [ 117.311082964854194, 42.410296630926638 ], [ 117.311082920352263, 42.4102876250384 ], [ 117.311052538035199, 42.410287707479398 ], [ 117.31105249353763, 42.410278701591118 ], [ 117.311040340612522, 42.410278734565253 ], [ 117.311040385108356, 42.410287740453541 ], [ 117.311034308644892, 42.410287756940136 ], [ 117.311034375387379, 42.410301265772553 ], [ 117.311028298922622, 42.410301282258828 ], [ 117.311028321169715, 42.410305785202965 ], [ 117.311022244704532, 42.410305801688921 ], [ 117.311022266951156, 42.410310304633065 ], [ 117.311016190485532, 42.4103103211187 ], [ 117.31101621273173, 42.41031482406283 ], [ 117.311010136265679, 42.410314840548146 ], [ 117.311010158511451, 42.410319343492283 ], [ 117.311022311444447, 42.410319310521324 ], [ 117.311022355937752, 42.410328316409561 ], [ 117.311028432405138, 42.410328299923592 ], [ 117.31102847689931, 42.410337305811822 ], [ 117.311046706303998, 42.410337256351959 ], [ 117.311046773049227, 42.410350765184255 ], [ 117.311052849518745, 42.410350748696985 ], [ 117.311052871767615, 42.410355251641072 ], [ 117.311071101177433, 42.410355202177328 ], [ 117.311071123427595, 42.410359705121394 ] ] ] } },
{ "type": "Feature", "properties": { "crown_id": 2501, "tree_id": "2502", "top_h_m": 20.007, "H_95_Mean": 20.7778, "DBH": 32.6161, "Carbon_kg": 206.093541, "area_m2": 26.5 }, "geometry": { "type": "MultiPolygon", "coordinates": [ [ [ [ 117.310973699712349, 42.410319442397437 ], [ 117.310973744198719, 42.410328448285732 ], [ 117.31097982066612, 42.410328431802341 ], [ 117.310979842909717, 42.410332934746464 ], [ 117.310985919377558, 42.410332918262753 ], [ 117.31098598610977, 42.410346427095135 ], [ 117.310992062578904, 42.410346410611091 ], [ 117.310992084823397, 42.410350913555192 ], [ 117.310998161292957, 42.410350897070821 ], [ 117.310998050068278, 42.410328382350222 ], [ 117.31100412653565, 42.410328365865546 ], [ 117.31100408204496, 42.410319359977272 ], [ 117.310973699712349, 42.410319442397437 ] ] ], [ [ [ 117.310973699712349, 42.410319442397437 ], [ 117.310973632982865, 42.41030593356497 ], [ 117.310961480052384, 42.410305966530771 ], [ 117.310961457810095, 42.410301463586613 ], [ 117.310949304880481, 42.410301496551114 ], [ 117.310949282639072, 42.410296993606941 ], [ 117.31094320617467, 42.410297010088698 ], [ 117.310943072728918, 42.410269992423572 ], [ 117.310936996267117, 42.410270008904995 ], [ 117.310937040748172, 42.410279014793396 ], [ 117.31092488782285, 42.410279047755296 ], [ 117.310924910062511, 42.410283550699482 ], [ 117.310912757136308, 42.410283583660096 ], [ 117.310912979524431, 42.410328613101932 ], [ 117.310906903056974, 42.410328629581784 ], [ 117.310906925295384, 42.410333132525949 ], [ 117.310900848827472, 42.410333149005474 ], [ 117.310900871065456, 42.410337651949639 ], [ 117.310913024002119, 42.410337618990255 ], [ 117.310913046240969, 42.410342121934413 ], [ 117.310943428584693, 42.410342039530299 ], [ 117.310943384102657, 42.410333033642004 ], [ 117.310925154699049, 42.410333083085419 ], [ 117.310925087979911, 42.410319574252938 ], [ 117.310943317379639, 42.410319524809537 ], [ 117.310943361861618, 42.410328530697853 ], [ 117.310949438329047, 42.410328514216069 ], [ 117.31094941608761, 42.410324011271918 ], [ 117.310955492554612, 42.410323994789813 ], [ 117.310955470312734, 42.410319491845662 ], [ 117.310973699712349, 42.410319442397437 ] ] ] ] } },
{ "type": "Feature", "properties": { "crown_id": 2537, "tree_id": "2538", "top_h_m": 21.15, "H_95_Mean": 21.095, "DBH": 25.049, "Carbon_kg": 122.15102, "area_m2": 9.25 }, "geometry": { "type": "Polygon", "coordinates": [ [ [ 117.311119579414907, 42.410328052595418 ], [ 117.311125655882179, 42.410328036104289 ], [ 117.311125633628123, 42.410323533160202 ], [ 117.311137786561801, 42.410323500177 ], [ 117.311137764306878, 42.410318997232928 ], [ 117.311143840773269, 42.410318980740833 ], [ 117.311143818517934, 42.410314477796767 ], [ 117.311155971449836, 42.410314444811647 ], [ 117.311155949193633, 42.410309941867574 ], [ 117.311162025659129, 42.410309925374527 ], [ 117.311162003402501, 42.41030542243044 ], [ 117.311168079867556, 42.410305405937081 ], [ 117.311168035353461, 42.410296400048928 ], [ 117.311161958889244, 42.410296416542288 ], [ 117.311161936632629, 42.410291913598201 ], [ 117.311143707241314, 42.410291963076332 ], [ 117.311143729496621, 42.410296466020434 ], [ 117.311125500103955, 42.410296515495681 ], [ 117.311125566866011, 42.410310024327963 ], [ 117.311119490400472, 42.41031004081907 ], [ 117.311119579414907, 42.410328052595418 ] ] ] } }
]
}
