{
"type": "FeatureCollection",
"name": "tile_4_22",
"crs": { "type": "name", "properties": { "name": "urn:ogc:def:crs:OGC:1.3:CRS84" } },
"features": [
{ "type": "Feature", "properties": { "crown_id": 1225, "tree_id": "1226", "top_h_m": 16.6, "H_95_Mean": 17.167, "DBH": 27.1437, "Carbon_kg": 127.135784, "area_m2": 18.5 }, "geometry": { "type": "Polygon", "coordinates": [ [ [ 117.315260313332772, 42.41084809473481 ], [ 117.315272466362885, 42.410848061312947 ], [ 117.315272443811807, 42.410843558371084 ], [ 117.315284596841067, 42.410843524947943 ], [ 117.315284574289123, 42.410839022006058 ], [ 117.31529065080332, 42.410839005294022 ], [ 117.315290628250949, 42.410834502352131 ], [ 117.315302781278433, 42.410834468927071 ], [ 117.315302758725196, 42.410829965985194 ], [ 117.315308835238497, 42.410829949272177 ], [ 117.315308812684847, 42.410825446330314 ], [ 117.315296659659111, 42.410825479755992 ], [ 117.315296637106329, 42.410820976814115 ], [ 117.315290560593908, 42.410820993526471 ], [ 117.315290492936896, 42.410807484700761 ], [ 117.315284416425754, 42.410807501412798 ], [ 117.31528443897767, 42.41081200435471 ], [ 117.315278362466074, 42.410812021066413 ], [ 117.315278317363166, 42.410803015182601 ], [ 117.315260087831035, 42.410803065315783 ], [ 117.315260110381161, 42.410807568257702 ], [ 117.315247957358864, 42.410807601678222 ], [ 117.315247979908122, 42.410812104620135 ], [ 117.31523582688493, 42.410812138039375 ], [ 117.315235917078638, 42.41083014980704 ], [ 117.315241993591997, 42.410830133097569 ], [ 117.315242016140857, 42.410834636039475 ], [ 117.315248092654642, 42.410834619329684 ], [ 117.315248137753272, 42.410843625213481 ], [ 117.315260290782561, 42.410843591792919 ], [ 117.315260313332772, 42.41084809473481 ] ] ] } },
{ "type": "Feature", "properties": { "crown_id": 1343, "tree_id": "1344", "top_h_m": 19.08, "H_95_Mean": 19.6246, "DBH": 35.9056, "Carbon_kg": 241.826356, "area_m2": 42.75 }, "geometry": { "type": "MultiPolygon", "coordinates": [ [ [ [ 117.315101985856273, 42.41078098497195 ], [ 117.315108062364956, 42.410780968269606 ], [ 117.315108084904224, 42.410785471211604 ], [ 117.315126314431538, 42.410785421102617 ], [ 117.315126336972099, 42.4107899240446 ], [ 117.315132413481649, 42.410789907340963 ], [ 117.315132390940619, 42.410785404398972 ], [ 117.315138467449728, 42.410785387695007 ], [ 117.315138489991156, 42.410789890636991 ], [ 117.31516887253872, 42.410789807112323 ], [ 117.315168849995104, 42.410785304170361 ], [ 117.315174926504156, 42.410785287464456 ], [ 117.315174949048213, 42.410789790406426 ], [ 117.315181025557706, 42.410789773700195 ], [ 117.315181003013208, 42.41078527075824 ], [ 117.315193156031327, 42.41078523734484 ], [ 117.315193088395304, 42.410771728518924 ], [ 117.315187011887545, 42.41077174522578 ], [ 117.315186966797768, 42.410762739341813 ], [ 117.315199119811524, 42.410762705927795 ], [ 117.315198916899917, 42.410722179449834 ], [ 117.315162457882124, 42.410722279687896 ], [ 117.315162435339019, 42.410717776745869 ], [ 117.315156358836475, 42.410717793451084 ], [ 117.315156403921804, 42.410726799335144 ], [ 117.31515032741838, 42.410726816040047 ], [ 117.315150372502856, 42.410735821924092 ], [ 117.315132142989953, 42.410735872036867 ], [ 117.315132210612788, 42.410749380862931 ], [ 117.315113981095919, 42.410749430972835 ], [ 117.31511409379425, 42.410771945682917 ], [ 117.315120170302052, 42.410771928979933 ], [ 117.315120192842187, 42.410776431921938 ], [ 117.315101963317446, 42.410776482029945 ], [ 117.315101985856273, 42.41078098497195 ] ], [ [ 117.315168849995104, 42.410785304170361 ], [ 117.315162773486051, 42.410785320875931 ], [ 117.315162750942861, 42.41078081793394 ], [ 117.315168827451515, 42.41078080122837 ], [ 117.315168849995104, 42.410785304170361 ] ] ], [ [ [ 117.315101985856273, 42.41078098497195 ], [ 117.315095909347576, 42.410781001673989 ], [ 117.315095931885978, 42.410785504616008 ], [ 117.315102008395087, 42.410785487913969 ], [ 117.315101985856273, 42.41078098497195 ] ] ] ] } },
{ "type": "Feature", "properties": { "crown_id": 1344, "tree_id": "1345", "top_h_m": 22.57, "H_95_Mean": 21.5676, "DBH": 37.6622, "Carbon_kg": 281.554451, "area_m2": 43.25 }, "geometry": { "type": "Polygon", "coordinates": [ [ [ 117.31524791226029, 42.410798595794368 ], [ 117.315253988770579, 42.410798579084265 ], [ 117.31525396622088, 42.410794076142345 ], [ 117.31526611924059, 42.4107940427212 ], [ 117.315266074139458, 42.410785036837353 ], [ 117.31527215064844, 42.410785020126298 ], [ 117.315272173199432, 42.410789523068217 ], [ 117.31527824970884, 42.410789506356849 ], [ 117.315278227157421, 42.410785003414922 ], [ 117.315284303666374, 42.410784986703234 ], [ 117.315284213458938, 42.410766974935498 ], [ 117.31529636647339, 42.41076694151117 ], [ 117.315296343920679, 42.410762438569229 ], [ 117.3152902674139, 42.410762455281564 ], [ 117.315290222309358, 42.410753449397681 ], [ 117.315284145803432, 42.410753466109675 ], [ 117.315284078147968, 42.410739957283802 ], [ 117.315271925138731, 42.410739990706816 ], [ 117.315271902587796, 42.410735487764846 ], [ 117.315259749579369, 42.410735521186574 ], [ 117.315259727029314, 42.41073101824459 ], [ 117.315205038495165, 42.41073116862637 ], [ 117.315205218864577, 42.410767192162275 ], [ 117.315199142357287, 42.410767208869771 ], [ 117.315199209994574, 42.410780717695673 ], [ 117.315205286503172, 42.41078070098817 ], [ 117.315205309049389, 42.410785203930139 ], [ 117.315211385558413, 42.410785187222316 ], [ 117.315211408105057, 42.410789690164265 ], [ 117.315217484614521, 42.410789673456101 ], [ 117.315217462067451, 42.410785170514153 ], [ 117.315223538576475, 42.410785153805691 ], [ 117.315223561123986, 42.410789656747625 ], [ 117.315229637633422, 42.410789640038836 ], [ 117.315229660181387, 42.41079414298077 ], [ 117.315247889711003, 42.410794092852441 ], [ 117.31524791226029, 42.410798595794368 ] ] ] } },
{ "type": "Feature", "properties": { "crown_id": 1415, "tree_id": "1416", "top_h_m": 21.04, "H_95_Mean": 21.2567, "DBH": 30.3638, "Carbon_kg": 180.835818, "area_m2": 19.25 }, "geometry": { "type": "Polygon", "coordinates": [ [ [ 117.315113958556282, 42.410744928030809 ], [ 117.315126111566656, 42.410744894624536 ], [ 117.315126043945128, 42.410731385798442 ], [ 117.315144273456752, 42.410731335686641 ], [ 117.315144228373157, 42.410722329802589 ], [ 117.315150304876155, 42.410722313098013 ], [ 117.315150259791693, 42.410713307213939 ], [ 117.315144183289561, 42.4107133239185 ], [ 117.315144138206009, 42.410704318034419 ], [ 117.3151259087022, 42.410704368146185 ], [ 117.315125886161738, 42.410699865204123 ], [ 117.315113733160032, 42.410699898610332 ], [ 117.315113688080842, 42.410690892726201 ], [ 117.31508330558087, 42.410690976236083 ], [ 117.315083418268003, 42.410713490946463 ], [ 117.315089494770191, 42.410713474245121 ], [ 117.315089539845957, 42.410722480129238 ], [ 117.315095616348984, 42.410722463427568 ], [ 117.3150956388873, 42.410726966369623 ], [ 117.315107791894249, 42.410726932965304 ], [ 117.315107814433432, 42.410731435907351 ], [ 117.315113890937354, 42.410731419204701 ], [ 117.315113958556282, 42.410744928030809 ] ] ] } },
{ "type": "Feature", "properties": { "crown_id": 1416, "tree_id": "1417", "top_h_m": 22.323, "H_95_Mean": 23.1832, "DBH": 40.1878, "Carbon_kg": 334.912345, "area_m2": 48.75 }, "geometry": { "type": "MultiPolygon", "coordinates": [ [ [ [ 117.315277956540612, 42.410730968111544 ], [ 117.315277979091988, 42.410735471053513 ], [ 117.315284055596152, 42.410735454341847 ], [ 117.31528403304435, 42.41073095139987 ], [ 117.315277956540612, 42.410730968111544 ] ] ], [ [ [ 117.315277956540612, 42.410730968111544 ], [ 117.315277933989222, 42.410726465169567 ], [ 117.315290086995859, 42.410726431745935 ], [ 117.315290064443644, 42.410721928803959 ], [ 117.315296140946515, 42.410721912091653 ], [ 117.315296118393832, 42.410717409149683 ], [ 117.315302194896276, 42.410717392437064 ], [ 117.315302172343195, 42.410712889495088 ], [ 117.31530824884517, 42.410712872782149 ], [ 117.315308226291663, 42.410708369840172 ], [ 117.315314302793212, 42.410708353126921 ], [ 117.315314280239278, 42.410703850184944 ], [ 117.315326433241495, 42.410703816757447 ], [ 117.31532645579631, 42.410708319699424 ], [ 117.315332532297859, 42.410708302985199 ], [ 117.3153325548531, 42.410712805927169 ], [ 117.315350784358998, 42.410712755782534 ], [ 117.315350761802421, 42.410708252840585 ], [ 117.315356838303956, 42.410708236125075 ], [ 117.315356815746952, 42.410703733183105 ], [ 117.315338586243698, 42.410703783328685 ], [ 117.315338563688016, 42.41069928038673 ], [ 117.31532641068668, 42.410699313815492 ], [ 117.315326388131865, 42.410694810873501 ], [ 117.315314235131382, 42.410694844300977 ], [ 117.315314167469609, 42.410681335475026 ], [ 117.315302014471712, 42.410681368901194 ], [ 117.315301991918673, 42.410676865959189 ], [ 117.31527160942602, 42.410676949518958 ], [ 117.315271586875141, 42.410672446576946 ], [ 117.31524120438452, 42.410672530128636 ], [ 117.315241181835844, 42.410668027186624 ], [ 117.315235105338132, 42.410668043895988 ], [ 117.315235195531187, 42.410686055664108 ], [ 117.315229119031741, 42.410686072373167 ], [ 117.315229141579593, 42.410690575315193 ], [ 117.315223065079692, 42.41069059202394 ], [ 117.315223087627103, 42.410695094965952 ], [ 117.315217011126776, 42.410695111674372 ], [ 117.31521705622076, 42.410704117558424 ], [ 117.315210979719566, 42.410704134266524 ], [ 117.315211024812683, 42.410713140150563 ], [ 117.315204948310594, 42.410713156858343 ], [ 117.315205015949033, 42.410726665684372 ], [ 117.315265780982585, 42.41072649859192 ], [ 117.31526580353308, 42.410731001533897 ], [ 117.315277956540612, 42.410730968111544 ] ] ], [ [ [ 117.315302194896276, 42.410717392437064 ], [ 117.315302217449386, 42.410721895379041 ], [ 117.315308293952228, 42.410721878666074 ], [ 117.315308339059314, 42.410730884549999 ], [ 117.315320492066775, 42.410730851123134 ], [ 117.315320424403552, 42.410717342297261 ], [ 117.315314347901136, 42.410717359010853 ], [ 117.315314325347188, 42.410712856068884 ], [ 117.31530824884517, 42.410712872782149 ], [ 117.31530827139872, 42.410717375724126 ], [ 117.315302194896276, 42.410717392437064 ] ] ] ] } },
{ "type": "Feature", "properties": { "crown_id": 1490, "tree_id": "1491", "top_h_m": 21.332, "H_95_Mean": 21.8199, "DBH": 28.5774, "Carbon_kg": 162.527514, "area_m2": 14.5 }, "geometry": { "type": "MultiPolygon", "coordinates": [ [ [ [ 117.315168489298046, 42.410713257098308 ], [ 117.315168511841563, 42.410717760040342 ], [ 117.315174588344107, 42.41071774333448 ], [ 117.315174565800149, 42.410713240392454 ], [ 117.315168489298046, 42.410713257098308 ] ] ], [ [ [ 117.315168489298046, 42.410713257098308 ], [ 117.315168444211011, 42.410704251214241 ], [ 117.31516236770976, 42.410704267919769 ], [ 117.31516230008053, 42.410690759093633 ], [ 117.315156223580587, 42.410690775798834 ], [ 117.315156201037965, 42.410686272856772 ], [ 117.315150124538448, 42.410686289561646 ], [ 117.315150056911918, 42.410672780735439 ], [ 117.315137903915456, 42.410672814144213 ], [ 117.315137836291569, 42.410659305317971 ], [ 117.315131759794653, 42.410659322021864 ], [ 117.315131804876373, 42.410668327906038 ], [ 117.315113575382966, 42.410668378015792 ], [ 117.315113620462085, 42.410677383899959 ], [ 117.315089314467343, 42.410677450708484 ], [ 117.315089359543038, 42.410686456592671 ], [ 117.315119742040807, 42.410686373081184 ], [ 117.315119787120835, 42.410695378965322 ], [ 117.315131940121674, 42.410695345558459 ], [ 117.315131962662576, 42.410699848500528 ], [ 117.315150192165049, 42.41069979838781 ], [ 117.315150237249469, 42.410708804271898 ], [ 117.315156313751146, 42.410708787567025 ], [ 117.315156336293796, 42.410713290509051 ], [ 117.315168489298046, 42.410713257098308 ] ] ] ] } },
{ "type": "Feature", "properties": { "crown_id": 1510, "tree_id": "1511", "top_h_m": 21.891, "H_95_Mean": 21.9768, "DBH": 35.0896, "Carbon_kg": 246.865141, "area_m2": 31.75 }, "geometry": { "type": "MultiPolygon", "coordinates": [ [ [ [ 117.315180642302266, 42.41071322368628 ], [ 117.315186718804341, 42.410713206979779 ], [ 117.315186651169867, 42.410699698153692 ], [ 117.315198804171445, 42.410699664739745 ], [ 117.315198781625767, 42.410695161797705 ], [ 117.31521093462645, 42.410695128382478 ], [ 117.315210912079905, 42.410690625440452 ], [ 117.315216988579792, 42.410690608732345 ], [ 117.315216966032821, 42.410686105790326 ], [ 117.315223042532281, 42.410686089081906 ], [ 117.31522301998487, 42.41068158613988 ], [ 117.315229096483904, 42.410681569431141 ], [ 117.315229051388243, 42.410672563547081 ], [ 117.315222974890105, 42.410672580255799 ], [ 117.315222952342694, 42.410668077313765 ], [ 117.31522902884042, 42.41066806060504 ], [ 117.315229006292611, 42.410663557662993 ], [ 117.31522292979534, 42.410663574371725 ], [ 117.31522288470056, 42.410654568487615 ], [ 117.315210731707751, 42.410654601904092 ], [ 117.315210709161221, 42.410650098962023 ], [ 117.315168173689187, 42.410650215909527 ], [ 117.315168151145741, 42.410645712967444 ], [ 117.315143845163334, 42.41064577978748 ], [ 117.315143957871967, 42.410668294497917 ], [ 117.315156110867505, 42.410668261088517 ], [ 117.315156178495329, 42.410681769914717 ], [ 117.315162254994419, 42.410681753209523 ], [ 117.315162277537482, 42.410686256151571 ], [ 117.315168354036985, 42.410686239446051 ], [ 117.315168421667494, 42.410699748272201 ], [ 117.315174498168304, 42.410699731566353 ], [ 117.315174543256205, 42.41070873745042 ], [ 117.315180619757854, 42.410708720744253 ], [ 117.315180642302266, 42.41071322368628 ] ] ], [ [ [ 117.315210709161221, 42.410650098962023 ], [ 117.315222862153206, 42.410650065545568 ], [ 117.315222839605852, 42.410645562603506 ], [ 117.315210686614762, 42.410645596019968 ], [ 117.315210709161221, 42.410650098962023 ] ] ] ] } },
{ "type": "Feature", "properties": { "crown_id": 1560, "tree_id": "1561", "top_h_m": 21.94, "H_95_Mean": 22.4031, "DBH": 32.1213, "Carbon_kg": 208.943812, "area_m2": 21.75 }, "geometry": { "type": "Polygon", "coordinates": [ [ [ 117.315308068417167, 42.410676849246272 ], [ 117.315326297912705, 42.410676799105573 ], [ 117.315326140029342, 42.410645278511545 ], [ 117.315277528065522, 42.410645412213483 ], [ 117.31527750551426, 42.410640909271436 ], [ 117.31524104654379, 42.410641009534338 ], [ 117.315241069092451, 42.410645512476393 ], [ 117.315234992596913, 42.41064552918575 ], [ 117.315235037693384, 42.410654535069852 ], [ 117.315241114189789, 42.410654518360488 ], [ 117.315241136738479, 42.410659021302536 ], [ 117.315247213235295, 42.410659004592844 ], [ 117.315247258333514, 42.410668010476918 ], [ 117.315277640821961, 42.410667926923608 ], [ 117.315277663373237, 42.410672429865635 ], [ 117.315308045863702, 42.410672346304274 ], [ 117.315308068417167, 42.410676849246272 ] ] ] } }
]
}
