{
"type": "FeatureCollection",
"name": "tile_13_4",
"crs": { "type": "name", "properties": { "name": "urn:ogc:def:crs:OGC:1.3:CRS84" } },
"features": [
{ "type": "Feature", "properties": { "crown_id": 5299, "tree_id": "5305", "top_h_m": 20.784, "H_95_Mean": 21.1543, "DBH": 32.0656, "Carbon_kg": 201.269239, "area_m2": 24.0 }, "geometry": { "type": "Polygon", "coordinates": [ [ [ 117.310719252865695, 42.409243914161003 ], [ 117.310743558317128, 42.409243848280816 ], [ 117.31074346941368, 42.409225836500418 ], [ 117.310749545774783, 42.409225820029569 ], [ 117.310749523548495, 42.409221317084473 ], [ 117.310743447187818, 42.409221333555294 ], [ 117.310743336058621, 42.409198818829694 ], [ 117.310737259700119, 42.409198835300209 ], [ 117.310737104122495, 42.409167314684204 ], [ 117.310731027767019, 42.409167331154364 ], [ 117.310731049991958, 42.409171834099524 ], [ 117.310724973636042, 42.409171850569372 ], [ 117.310724995860539, 42.409176353514525 ], [ 117.310700690435112, 42.409176419390704 ], [ 117.310700712657876, 42.409180922335857 ], [ 117.310694636301065, 42.409180938804091 ], [ 117.310694747412768, 42.409203453529877 ], [ 117.310700823771754, 42.409203437061628 ], [ 117.310700845994546, 42.409207940006759 ], [ 117.310706922353958, 42.40920792353819 ], [ 117.310707033470152, 42.409230438263833 ], [ 117.310713109831724, 42.409230421794916 ], [ 117.31071313205544, 42.409234924740019 ], [ 117.310719208417424, 42.409234908270797 ], [ 117.310719252865695, 42.409243914161003 ] ] ] } },
{ "type": "Feature", "properties": { "crown_id": 5300, "tree_id": "5306", "top_h_m": 21.707, "H_95_Mean": 22.0463, "DBH": 39.0902, "Carbon_kg": 307.451121, "area_m2": 48.0 }, "geometry": { "type": "MultiPolygon", "coordinates": [ [ [ [ 117.310883292425501, 42.409238966424667 ], [ 117.310901521512378, 42.409238916988926 ], [ 117.31090149927519, 42.409234414043894 ], [ 117.310937957446185, 42.409234315163729 ], [ 117.310937912966665, 42.409225309273687 ], [ 117.310931836605718, 42.40922532575452 ], [ 117.310931814366398, 42.409220822809495 ], [ 117.310919661645343, 42.409220855770165 ], [ 117.310919483737862, 42.409184832209775 ], [ 117.310913407380809, 42.409184848689605 ], [ 117.310913362904856, 42.409175842799471 ], [ 117.31090728654867, 42.409175859278967 ], [ 117.310907264311126, 42.409171356333886 ], [ 117.310901187955366, 42.409171372813084 ], [ 117.310901232429572, 42.409180378703233 ], [ 117.310876927002994, 42.409180444616787 ], [ 117.310876949238363, 42.409184947561876 ], [ 117.310852643809952, 42.409185013470271 ], [ 117.310852621576331, 42.409180510525168 ], [ 117.310822239792913, 42.409180592903418 ], [ 117.310822217561437, 42.409176089958301 ], [ 117.310810064848894, 42.40917612290734 ], [ 117.310810109310069, 42.409185128797574 ], [ 117.310816185667221, 42.409185112323208 ], [ 117.310816230129291, 42.409194118213421 ], [ 117.310822306487282, 42.40919410173872 ], [ 117.310822395413197, 42.409212113519089 ], [ 117.310816319053473, 42.409212129993797 ], [ 117.310816363515599, 42.409221135883961 ], [ 117.310822439876205, 42.40922111940926 ], [ 117.310822484339212, 42.409230125299409 ], [ 117.310846789785103, 42.409230059397331 ], [ 117.310846767551851, 42.409225556452277 ], [ 117.310858920273887, 42.409225523499323 ], [ 117.310858898039783, 42.409221020554256 ], [ 117.310877127121486, 42.409220971122423 ], [ 117.310877149356926, 42.409225474067469 ], [ 117.310883225717916, 42.40922545758955 ], [ 117.310883292425501, 42.409238966424667 ] ] ], [ [ [ 117.310937957446185, 42.409234315163729 ], [ 117.310937979685974, 42.409238818108747 ], [ 117.310950132410483, 42.409238785146115 ], [ 117.310950110169827, 42.409234282201098 ], [ 117.310937957446185, 42.409234315163729 ] ] ] ] } },
{ "type": "Feature", "properties": { "crown_id": 5355, "tree_id": "5361", "top_h_m": 21.39, "H_95_Mean": 21.0659, "DBH": 34.7382, "Carbon_kg": 235.926208, "area_m2": 33.0 }, "geometry": { "type": "Polygon", "coordinates": [ [ [ 117.310779905351794, 42.409221234725429 ], [ 117.310810287154951, 42.409221152358349 ], [ 117.310810220463097, 42.409207643523089 ], [ 117.310816296822424, 42.409207627048708 ], [ 117.310816252360326, 42.409198621158509 ], [ 117.31081017600188, 42.40919863763289 ], [ 117.310810131540677, 42.409189631742677 ], [ 117.310804055183084, 42.409189648216717 ], [ 117.310803988492637, 42.409176139381373 ], [ 117.310797912136337, 42.409176155855086 ], [ 117.310797867676925, 42.409167149964837 ], [ 117.310791791321506, 42.409167166438223 ], [ 117.310791769092248, 42.409162663493092 ], [ 117.310785692737255, 42.409162679966144 ], [ 117.310785670508437, 42.409158177021013 ], [ 117.310773517799305, 42.409158209966165 ], [ 117.31077349557134, 42.409153707021012 ], [ 117.310749190154766, 42.409153772907437 ], [ 117.310749234607201, 42.40916277879775 ], [ 117.310755310962236, 42.409162762326623 ], [ 117.310755333188894, 42.409167265271783 ], [ 117.310743180477971, 42.409167298213724 ], [ 117.310743313832802, 42.409194315884577 ], [ 117.310749390190864, 42.409194299413734 ], [ 117.310749501322206, 42.409216814139356 ], [ 117.310779883123331, 42.409216731780326 ], [ 117.310779905351794, 42.409221234725429 ] ] ] } },
{ "type": "Feature", "properties": { "crown_id": 5438, "tree_id": "5444", "top_h_m": 20.805, "H_95_Mean": 21.3431, "DBH": 36.8474, "Carbon_kg": 267.7502, "area_m2": 40.5 }, "geometry": { "type": "Polygon", "coordinates": [ [ [ 117.310858697933, 42.409180494048556 ], [ 117.310870850646339, 42.409180461094358 ], [ 117.31087082841141, 42.409175958149277 ], [ 117.310895133836269, 42.409175892237023 ], [ 117.31089508936293, 42.409166886346867 ], [ 117.310907242073597, 42.409166853388818 ], [ 117.310907219836082, 42.409162350443729 ], [ 117.310913296190961, 42.409162333964233 ], [ 117.310913273953005, 42.409157831019137 ], [ 117.310907197598581, 42.409157847498641 ], [ 117.310907130886036, 42.40914433866336 ], [ 117.310901054532906, 42.409144355142516 ], [ 117.310901032295845, 42.409139852197413 ], [ 117.310876726884885, 42.40913991811086 ], [ 117.310876704649587, 42.40913541516575 ], [ 117.310864551944945, 42.409135448120537 ], [ 117.3108645297105, 42.409130945175399 ], [ 117.310852377006739, 42.409130978128907 ], [ 117.310852354773161, 42.409126475183768 ], [ 117.31083412571877, 42.40912652461158 ], [ 117.310834103486485, 42.409122021666441 ], [ 117.310821950784401, 42.409122054616695 ], [ 117.31082190632165, 42.409113048726368 ], [ 117.310809753621257, 42.409113081675336 ], [ 117.31080977585178, 42.409117584620518 ], [ 117.31080369950115, 42.409117601094515 ], [ 117.310803721731233, 42.409122104039675 ], [ 117.310809798082289, 42.40912208756567 ], [ 117.310809820312812, 42.409126590510823 ], [ 117.310797667609833, 42.409126623458519 ], [ 117.310797734298802, 42.409140132293992 ], [ 117.310791657946012, 42.409140148767356 ], [ 117.310791680175228, 42.409144651712509 ], [ 117.310797756528501, 42.409144635239144 ], [ 117.310797778758158, 42.409149138184283 ], [ 117.310803855111843, 42.409149121710584 ], [ 117.310803899572079, 42.409158127600861 ], [ 117.310797823217527, 42.409158144074574 ], [ 117.31079784544724, 42.409162647019699 ], [ 117.310803921802204, 42.409162630546 ], [ 117.310803966262483, 42.409171636436248 ], [ 117.310816118974174, 42.40917160348787 ], [ 117.310816074512147, 42.409162597597629 ], [ 117.310822150867111, 42.409162581122949 ], [ 117.310822173098558, 42.409167084068066 ], [ 117.310828249453948, 42.409167067593081 ], [ 117.310828293917695, 42.409176073483302 ], [ 117.310858675698952, 42.409175991103453 ], [ 117.310858697933, 42.409180494048556 ] ], [ [ 117.310889013007611, 42.409166902825397 ], [ 117.310888990771389, 42.409162399880309 ], [ 117.310895067126296, 42.409162383401764 ], [ 117.31089508936293, 42.409166886346867 ], [ 117.310889013007611, 42.409166902825397 ] ], [ [ 117.310809998157183, 42.409162614071967 ], [ 117.310809975926617, 42.409158111126843 ], [ 117.31081605228114, 42.409158094652483 ], [ 117.310816074512147, 42.409162597597629 ], [ 117.310809998157183, 42.409162614071967 ] ], [ [ 117.310822128635678, 42.409158078177825 ], [ 117.310822061941423, 42.409144569342423 ], [ 117.310840291001057, 42.409144519916509 ], [ 117.310840357699249, 42.409158028751889 ], [ 117.310822128635678, 42.409158078177825 ] ] ] } },
{ "type": "Feature", "properties": { "crown_id": 5496, "tree_id": "5502", "top_h_m": 21.747, "H_95_Mean": 21.4824, "DBH": 34.2843, "Carbon_kg": 232.430285, "area_m2": 30.25 }, "geometry": { "type": "Polygon", "coordinates": [ [ [ 117.310882781001879, 42.40913539868788 ], [ 117.310901010058771, 42.409135349252303 ], [ 117.310900987821711, 42.409130846307193 ], [ 117.310907064173577, 42.409130829828023 ], [ 117.310907019698632, 42.409121823937795 ], [ 117.310913096049603, 42.409121807458327 ], [ 117.310913051573792, 42.409112801568078 ], [ 117.310919127923896, 42.409112785088276 ], [ 117.310919083447246, 42.409103779198034 ], [ 117.310931236145706, 42.409103746237484 ], [ 117.310931191667322, 42.409094740347228 ], [ 117.310894733577101, 42.409094839224984 ], [ 117.310894711340552, 42.409090336279831 ], [ 117.31088863499258, 42.409090352758334 ], [ 117.310888612756457, 42.409085849813174 ], [ 117.310876460061422, 42.409085882769197 ], [ 117.310876482296678, 42.409090385714357 ], [ 117.310858253252775, 42.40909043514597 ], [ 117.310858231018813, 42.409085932200803 ], [ 117.310852154671252, 42.409085948677365 ], [ 117.310852132437759, 42.409081445732198 ], [ 117.310833903396372, 42.409081495159938 ], [ 117.3108339478608, 42.409090501050287 ], [ 117.310827871512814, 42.40909051752557 ], [ 117.310827893744616, 42.409095020470751 ], [ 117.31082181739616, 42.4090950369457 ], [ 117.310821884090259, 42.409108545781208 ], [ 117.310827960440008, 42.409108529306252 ], [ 117.310828004903627, 42.409117535196572 ], [ 117.310840157604844, 42.409117502245664 ], [ 117.310840179837541, 42.40912200519081 ], [ 117.310858408890624, 42.409121955762046 ], [ 117.310858431124615, 42.409126458707178 ], [ 117.310870583827509, 42.409126425753044 ], [ 117.310870606062394, 42.409130928698183 ], [ 117.310882758766141, 42.409130895742742 ], [ 117.310882781001879, 42.40913539868788 ] ], [ [ 117.310858386656633, 42.409117452816893 ], [ 117.310858319954676, 42.409103943981457 ], [ 117.310876549002501, 42.409103894549816 ], [ 117.310876615708352, 42.409117403385238 ], [ 117.310858386656633, 42.409117452816893 ] ] ] } },
{ "type": "Feature", "properties": { "crown_id": 5509, "tree_id": "5515", "top_h_m": 21.985, "H_95_Mean": 22.1464, "DBH": 40.0887, "Carbon_kg": 324.352743, "area_m2": 52.5 }, "geometry": { "type": "MultiPolygon", "coordinates": [ [ [ [ 117.310743024897548, 42.409135777597562 ], [ 117.310749101249968, 42.40913576112677 ], [ 117.310749079023793, 42.409131258181581 ], [ 117.310761231727739, 42.409131225239037 ], [ 117.310761209500683, 42.40912672229387 ], [ 117.310773362203761, 42.409126689350039 ], [ 117.31077331774793, 42.409117683459684 ], [ 117.310779394098589, 42.409117666987292 ], [ 117.310779349641919, 42.409108661096937 ], [ 117.310785425991696, 42.409108644624226 ], [ 117.310785403762921, 42.409104141679045 ], [ 117.310791480112258, 42.409104125206014 ], [ 117.310791435653883, 42.409095119315637 ], [ 117.310797512002367, 42.409095102842294 ], [ 117.310797489772725, 42.409090599897112 ], [ 117.31079141342471, 42.409090616370456 ], [ 117.310791391195536, 42.409086113425253 ], [ 117.310797467543111, 42.409086096951924 ], [ 117.310797445313511, 42.409081594006722 ], [ 117.310791368966349, 42.409081610480058 ], [ 117.310791302278872, 42.409068101644436 ], [ 117.310736615165908, 42.409068249889906 ], [ 117.310736592940671, 42.409063746944675 ], [ 117.310718363904229, 42.409063796354026 ], [ 117.310718341680285, 42.409059293408774 ], [ 117.310712265335255, 42.409059309877918 ], [ 117.310712243111752, 42.409054806932666 ], [ 117.310706166767119, 42.409054823401476 ], [ 117.310706144544071, 42.40905032045621 ], [ 117.310700068199864, 42.409050336924707 ], [ 117.310700112645122, 42.409059342815226 ], [ 117.310687959954961, 42.409059375751241 ], [ 117.310687982176731, 42.409063878696507 ], [ 117.310681905831217, 42.409063895164039 ], [ 117.310682016937903, 42.409086409890293 ], [ 117.31069416963328, 42.409086376954896 ], [ 117.310694258522204, 42.40910438873582 ], [ 117.310700334871626, 42.409104372267613 ], [ 117.310700379316998, 42.409113378158054 ], [ 117.310730761068356, 42.409113295812205 ], [ 117.310730827742958, 42.409126804647798 ], [ 117.310736904094512, 42.409126788177652 ], [ 117.310736926319819, 42.40913129112284 ], [ 117.310743002671813, 42.409131274652381 ], [ 117.310743024897548, 42.409135777597562 ] ] ], [ [ [ 117.310785425991696, 42.409108644624226 ], [ 117.310785448220457, 42.409113147569414 ], [ 117.310791524570675, 42.409113131096376 ], [ 117.310791502341473, 42.409108628151188 ], [ 117.310785425991696, 42.409108644624226 ] ] ] ] } },
{ "type": "Feature", "properties": { "crown_id": 5571, "tree_id": "5577", "top_h_m": 21.016, "H_95_Mean": 21.6013, "DBH": 36.6382, "Carbon_kg": 266.584501, "area_m2": 38.75 }, "geometry": { "type": "MultiPolygon", "coordinates": [ [ [ [ 117.310845989391424, 42.409067953372883 ], [ 117.310852065737222, 42.409067936896655 ], [ 117.310852110204223, 42.409076942787024 ], [ 117.310858186550917, 42.409076926310455 ], [ 117.31085820878485, 42.409081429255643 ], [ 117.310864285131956, 42.409081412778768 ], [ 117.310864307366344, 42.409085915723935 ], [ 117.310870383713876, 42.409085899246726 ], [ 117.310870361479061, 42.409081396301566 ], [ 117.310894666867412, 42.40908133038954 ], [ 117.310894689103975, 42.409085833334693 ], [ 117.310900765451478, 42.409085816855871 ], [ 117.310900787688496, 42.409090319801017 ], [ 117.310949398471863, 42.409090187958888 ], [ 117.310949309509994, 42.409072176178356 ], [ 117.310961462202286, 42.409072143214615 ], [ 117.310961439960977, 42.409067640269491 ], [ 117.31095536361525, 42.409067656751517 ], [ 117.310955341374367, 42.409063153806372 ], [ 117.310961417719668, 42.409063137324338 ], [ 117.310961395478344, 42.4090586343792 ], [ 117.310949242788624, 42.409058667342919 ], [ 117.310949220548181, 42.409054164397766 ], [ 117.310943144203776, 42.409054180879131 ], [ 117.31094312196376, 42.409049677933979 ], [ 117.310930969275759, 42.409049710895758 ], [ 117.310930947036638, 42.409045207950584 ], [ 117.310918794349476, 42.40904524091107 ], [ 117.310918772111222, 42.409040737965888 ], [ 117.31088231405225, 42.409040836839587 ], [ 117.310882336287889, 42.40904533978479 ], [ 117.310864107257046, 42.409045389217297 ], [ 117.310864129491392, 42.409049892162486 ], [ 117.310858053147342, 42.409049908639346 ], [ 117.310858075381248, 42.409054411584549 ], [ 117.310845922692238, 42.409054444537304 ], [ 117.310845989391424, 42.409067953372883 ] ] ], [ [ [ 117.310845989391424, 42.409067953372883 ], [ 117.310839913045584, 42.409067969848792 ], [ 117.310839957510865, 42.409076975739168 ], [ 117.310846033857558, 42.409076959263253 ], [ 117.310845989391424, 42.409067953372883 ] ] ], [ [ [ 117.310961417719668, 42.409063137324338 ], [ 117.310961439960977, 42.409067640269491 ], [ 117.310967516306675, 42.409067623787145 ], [ 117.31096749406494, 42.409063120841999 ], [ 117.310961417719668, 42.409063137324338 ] ] ] ] } }
]
}
