{
"type": "FeatureCollection",
"name": "tile_7_16",
"crs": { "type": "name", "properties": { "name": "urn:ogc:def:crs:OGC:1.3:CRS84" } },
"features": [
{ "type": "Feature", "properties": { "crown_id": 2560, "tree_id": "2561", "top_h_m": 17.88, "H_95_Mean": 17.6466, "DBH": 20.5795, "Carbon_kg": 73.963032, "area_m2": 6.0 }, "geometry": { "type": "Polygon", "coordinates": [ [ [ 117.313774882910423, 42.410298300577274 ], [ 117.31379311229901, 42.410298250680732 ], [ 117.313793067409378, 42.410289244794818 ], [ 117.313799143871364, 42.410289228162 ], [ 117.31379909898088, 42.410280222276079 ], [ 117.313811251903104, 42.410280189009491 ], [ 117.313811229456988, 42.410275686066527 ], [ 117.313805152996323, 42.410275702699984 ], [ 117.313805108105001, 42.410266696814048 ], [ 117.313792955185392, 42.410266730079975 ], [ 117.31379300007498, 42.410275735965925 ], [ 117.313774770692888, 42.410275785862432 ], [ 117.313774882910423, 42.410298300577274 ] ] ] } },
{ "type": "Feature", "properties": { "crown_id": 2634, "tree_id": "2635", "top_h_m": 17.78, "H_95_Mean": 17.9583, "DBH": 23.9712, "Carbon_kg": 101.636213, "area_m2": 10.5 }, "geometry": { "type": "MultiPolygon", "coordinates": [ [ [ [ 117.313616805145259, 42.410280721120344 ], [ 117.313616827577462, 42.410285224063394 ], [ 117.313622904039136, 42.410285207439912 ], [ 117.313622881606506, 42.410280704496877 ], [ 117.313616805145259, 42.410280721120344 ] ] ], [ [ [ 117.313616805145259, 42.410280721120344 ], [ 117.313616782713055, 42.410276218177309 ], [ 117.313622859173876, 42.410276201553835 ], [ 117.313622881606506, 42.410280704496877 ], [ 117.313641110990261, 42.410280654624536 ], [ 117.313640998820645, 42.410258139909331 ], [ 117.313634922361572, 42.410258156533743 ], [ 117.313634877494636, 42.410249150647637 ], [ 117.313610571661755, 42.410249217142095 ], [ 117.313610594093504, 42.410253720085166 ], [ 117.313598441176168, 42.410253753330473 ], [ 117.313598463607022, 42.410258256273544 ], [ 117.313586310688805, 42.410258289517564 ], [ 117.31358633311882, 42.410262792460628 ], [ 117.313598486037904, 42.410262759216607 ], [ 117.313598508468772, 42.410267262159664 ], [ 117.31360458492874, 42.410267245537163 ], [ 117.313604607360048, 42.410271748480234 ], [ 117.313610683820457, 42.410271731857407 ], [ 117.313610728683983, 42.410280737743506 ], [ 117.313616805145259, 42.410280721120344 ] ] ] ] } },
{ "type": "Feature", "properties": { "crown_id": 2657, "tree_id": "2658", "top_h_m": 17.22, "H_95_Mean": 17.2396, "DBH": 29.7644, "Carbon_kg": 153.471602, "area_m2": 26.25 }, "geometry": { "type": "MultiPolygon", "coordinates": [ [ [ [ 117.313635146696598, 42.410303185964104 ], [ 117.313641223160005, 42.410303169339649 ], [ 117.313641200726053, 42.410298666396628 ], [ 117.313635124263058, 42.410298683021075 ], [ 117.313635146696598, 42.410303185964104 ] ] ], [ [ [ 117.313641200726053, 42.410298666396628 ], [ 117.313653353652001, 42.410298633146766 ], [ 117.313653331217182, 42.410294130203752 ], [ 117.313659407679722, 42.410294113578345 ], [ 117.313659385244449, 42.410289610635324 ], [ 117.313665461706563, 42.410289594009598 ], [ 117.313665484142248, 42.410294096952605 ], [ 117.31367156060476, 42.410294080326558 ], [ 117.313671515732537, 42.410285074440516 ], [ 117.313683668655841, 42.41028504118745 ], [ 117.313683601344891, 42.410271532358408 ], [ 117.313689677805243, 42.410271515731402 ], [ 117.313689700242634, 42.410276018674409 ], [ 117.313695776703426, 42.410276002047084 ], [ 117.313695799141243, 42.410280504990091 ], [ 117.313714028524828, 42.410280455106147 ], [ 117.313714006085689, 42.410275952163147 ], [ 117.313707929624925, 42.410275968791446 ], [ 117.313707907186213, 42.410271465848439 ], [ 117.313701830725904, 42.410271482476411 ], [ 117.313701808287632, 42.410266979533397 ], [ 117.313707884747529, 42.410266962905425 ], [ 117.313707862308817, 42.410262459962411 ], [ 117.313695709389904, 42.410262493218028 ], [ 117.313695642076439, 42.410248984388936 ], [ 117.313689565618304, 42.410249001016261 ], [ 117.313689543180914, 42.410244498073219 ], [ 117.313677390265454, 42.410244531326889 ], [ 117.313677367828944, 42.410240028383853 ], [ 117.313671291371648, 42.410240045010191 ], [ 117.313671246499538, 42.410231039124085 ], [ 117.313665170043109, 42.410231055750096 ], [ 117.31366514760748, 42.410226552807039 ], [ 117.313659071151477, 42.410226569432737 ], [ 117.313659138457027, 42.410240078261921 ], [ 117.313646985542391, 42.410240111512366 ], [ 117.313647030411033, 42.410249117398465 ], [ 117.313640953952842, 42.410249134023225 ], [ 117.31364097638675, 42.410253636966281 ], [ 117.313647052845369, 42.410253620341528 ], [ 117.313647209885872, 42.410285140942797 ], [ 117.313628980500837, 42.410285190816118 ], [ 117.313629025366993, 42.410294196702182 ], [ 117.313641178292102, 42.410294163453607 ], [ 117.313641200726053, 42.410298666396628 ] ] ], [ [ [ 117.313683668655841, 42.41028504118745 ], [ 117.31368369109282, 42.410289544130464 ], [ 117.313695844016962, 42.410289510876098 ], [ 117.313695821579117, 42.410285007933098 ], [ 117.313683668655841, 42.41028504118745 ] ] ], [ [ [ 117.31367156060476, 42.410294080326558 ], [ 117.3136715830409, 42.410298583269551 ], [ 117.313677659503853, 42.410298566643171 ], [ 117.313677637067286, 42.410294063700171 ], [ 117.31367156060476, 42.410294080326558 ] ] ], [ [ [ 117.313665484142248, 42.410294096952605 ], [ 117.313659407679722, 42.410294113578345 ], [ 117.313659430114981, 42.410298616521345 ], [ 117.313665506577934, 42.410298599895611 ], [ 117.313665484142248, 42.410294096952605 ] ] ] ] } },
{ "type": "Feature", "properties": { "crown_id": 2658, "tree_id": "2659", "top_h_m": 19.45, "H_95_Mean": 19.2639, "DBH": 32.4165, "Carbon_kg": 194.651901, "area_m2": 29.75 }, "geometry": { "type": "Polygon", "coordinates": [ [ [ 117.313823427272268, 42.41028465868456 ], [ 117.313853809579811, 42.410284575509216 ], [ 117.313853719783239, 42.410266563737437 ], [ 117.313859796243008, 42.410266547101415 ], [ 117.313859751343884, 42.410257541215508 ], [ 117.31387798072052, 42.410257491305508 ], [ 117.313877935818795, 42.410248485419608 ], [ 117.313871859360802, 42.410248502056596 ], [ 117.313871769559199, 42.410230490284725 ], [ 117.313853540190337, 42.410230540193716 ], [ 117.313853495292179, 42.410221534307745 ], [ 117.313841342381352, 42.41022156757878 ], [ 117.313841319933147, 42.410217064635795 ], [ 117.313829167023144, 42.410217097905523 ], [ 117.31382921191782, 42.410226103791523 ], [ 117.313817059006098, 42.410226137059979 ], [ 117.313817148792026, 42.41024414883195 ], [ 117.313798919419156, 42.410244198732251 ], [ 117.313799009199982, 42.410262210504193 ], [ 117.313811162118711, 42.410262177237627 ], [ 117.313811207010886, 42.410271183123569 ], [ 117.313817283471124, 42.410271166489807 ], [ 117.313817328364195, 42.410280172375714 ], [ 117.313823404825285, 42.41028015574161 ], [ 117.313823427272268, 42.41028465868456 ] ] ] } },
{ "type": "Feature", "properties": { "crown_id": 2670, "tree_id": "2671", "top_h_m": 17.8, "H_95_Mean": 18.3724, "DBH": 30.4578, "Carbon_kg": 166.929439, "area_m2": 25.5 }, "geometry": { "type": "Polygon", "coordinates": [ [ [ 117.313744433272007, 42.410284874902786 ], [ 117.313768739118331, 42.410284808379899 ], [ 117.313768671789148, 42.410271299550963 ], [ 117.313786901169934, 42.410271249655452 ], [ 117.313786856281212, 42.410262243769481 ], [ 117.313792932740597, 42.410262227137004 ], [ 117.313792820516767, 42.410239712422054 ], [ 117.31378066760233, 42.410239745686653 ], [ 117.313780645158459, 42.41023524274366 ], [ 117.313750262874493, 42.410235325899542 ], [ 117.313750240432782, 42.410230822956507 ], [ 117.313738087520036, 42.4102308562166 ], [ 117.313738065079221, 42.410226353273572 ], [ 117.31373198862326, 42.410226369903135 ], [ 117.313732033504067, 42.410235375789206 ], [ 117.313725957047225, 42.410235392418443 ], [ 117.313726069247139, 42.410257907133555 ], [ 117.313719992788137, 42.410257923762487 ], [ 117.313720015227716, 42.410262426705501 ], [ 117.313713938768245, 42.410262443334112 ], [ 117.313713961207398, 42.410266946277126 ], [ 117.313726114127135, 42.410266913019562 ], [ 117.313726136567141, 42.410271415962569 ], [ 117.313744365948025, 42.410271366073822 ], [ 117.313744433272007, 42.410284874902786 ] ], [ [ 117.31372609168713, 42.410262410076562 ], [ 117.313726069247139, 42.410257907133555 ], [ 117.313732145706155, 42.41025789050429 ], [ 117.313732168146572, 42.410262393447304 ], [ 117.31372609168713, 42.410262410076562 ] ] ] } },
{ "type": "Feature", "properties": { "crown_id": 2704, "tree_id": "2705", "top_h_m": 17.044, "H_95_Mean": 16.8912, "DBH": 24.714, "Carbon_kg": 104.237666, "area_m2": 13.25 }, "geometry": { "type": "Polygon", "coordinates": [ [ [ 117.313568081311431, 42.410258339381173 ], [ 117.31357415777056, 42.410258322760285 ], [ 117.313574135341426, 42.410253819817214 ], [ 117.313592364717493, 42.410253769952639 ], [ 117.313592342287052, 42.410249267009554 ], [ 117.313604495203535, 42.410249233764901 ], [ 117.313604472772255, 42.410244730821837 ], [ 117.313640931518947, 42.410244631080154 ], [ 117.313640886651157, 42.410235625194026 ], [ 117.313653039564954, 42.410235591944243 ], [ 117.313652972260726, 42.410222083115038 ], [ 117.313646895805135, 42.410222099740082 ], [ 117.313646873370814, 42.410217596797011 ], [ 117.313640796915678, 42.410217613421736 ], [ 117.31364081934953, 42.410222116364814 ], [ 117.313616513527123, 42.410222182860494 ], [ 117.313616535959241, 42.410226685803593 ], [ 117.313610459503181, 42.410226702426698 ], [ 117.313610481934901, 42.41023120536979 ], [ 117.313604405478415, 42.410231221992582 ], [ 117.313604427909695, 42.410235724935667 ], [ 117.313598351452754, 42.410235741558154 ], [ 117.313598373883607, 42.410240244501232 ], [ 117.313567991596685, 42.410240327608818 ], [ 117.313568036454058, 42.410249333495003 ], [ 117.313561959995795, 42.410249350115556 ], [ 117.313561982424048, 42.410253853058641 ], [ 117.313568058882751, 42.410253836438102 ], [ 117.313568081311431, 42.410258339381173 ] ] ] } },
{ "type": "Feature", "properties": { "crown_id": 2730, "tree_id": "2731", "top_h_m": 18.135, "H_95_Mean": 17.7609, "DBH": 27.9672, "Carbon_kg": 137.773263, "area_m2": 19.5 }, "geometry": { "type": "Polygon", "coordinates": [ [ [ 117.313798896973964, 42.410239695789258 ], [ 117.313811049888358, 42.410239662522713 ], [ 117.313810982550194, 42.410226153693728 ], [ 117.313804906094319, 42.410226170327149 ], [ 117.31380483875752, 42.410212661498115 ], [ 117.313798762302909, 42.410212678131224 ], [ 117.313798672522324, 42.410194666359118 ], [ 117.313786519616627, 42.41019469962432 ], [ 117.313786542060882, 42.410199202567362 ], [ 117.313762236247655, 42.410199269093923 ], [ 117.313762258690176, 42.410203772036958 ], [ 117.31373795287513, 42.41020383855836 ], [ 117.313737975315945, 42.410208341501409 ], [ 117.313731898861718, 42.410208358130966 ], [ 117.313731966182871, 42.410221866960093 ], [ 117.313744119093883, 42.410221833700653 ], [ 117.313744141535139, 42.410226336643696 ], [ 117.313756294447018, 42.410226303382956 ], [ 117.313756316889169, 42.410230806325977 ], [ 117.313786699170919, 42.410230723168503 ], [ 117.31378672161523, 42.410235226111517 ], [ 117.313798874528786, 42.410235192846265 ], [ 117.313798896973964, 42.410239695789258 ] ] ] } },
{ "type": "Feature", "properties": { "crown_id": 2783, "tree_id": "2784", "top_h_m": 18.09, "H_95_Mean": 18.4122, "DBH": 23.4798, "Carbon_kg": 98.93047, "area_m2": 9.25 }, "geometry": { "type": "Polygon", "coordinates": [ [ [ 117.313622567550169, 42.41021766329397 ], [ 117.313634720460513, 42.410217630046127 ], [ 117.313634698027073, 42.410213127103042 ], [ 117.313652927391246, 42.410213077228882 ], [ 117.313652949825979, 42.410217580171967 ], [ 117.313659026281115, 42.410217563546595 ], [ 117.313658891670201, 42.410190545888085 ], [ 117.313652815217679, 42.410190562513435 ], [ 117.31365279278296, 42.410186059570336 ], [ 117.313628486974494, 42.410186126068517 ], [ 117.313628509407465, 42.41019062901163 ], [ 117.313622432954887, 42.410190645635367 ], [ 117.313622567550169, 42.41021766329397 ] ] ] } },
{ "type": "Feature", "properties": { "crown_id": 2797, "tree_id": "2798", "top_h_m": 17.77, "H_95_Mean": 17.6783, "DBH": 33.0248, "Carbon_kg": 192.073835, "area_m2": 37.5 }, "geometry": { "type": "Polygon", "coordinates": [ [ [ 117.313701763411089, 42.410257973647361 ], [ 117.313713916329135, 42.410257940391105 ], [ 117.313713893890011, 42.410253437448077 ], [ 117.313719970348586, 42.410253420819473 ], [ 117.313719903029934, 42.410239911990388 ], [ 117.31370167365813, 42.410239961875241 ], [ 117.313701628781644, 42.410230955989149 ], [ 117.313707705238059, 42.410230939361199 ], [ 117.313707727676714, 42.410235442304241 ], [ 117.31371380413357, 42.410235425675964 ], [ 117.313713759255378, 42.410226419789879 ], [ 117.313719835711353, 42.410226403161289 ], [ 117.313719858150876, 42.410230906104324 ], [ 117.313725934607263, 42.410230889475407 ], [ 117.313725889727351, 42.41022188358933 ], [ 117.313713736816283, 42.410221916846837 ], [ 117.313713714377215, 42.410217413903787 ], [ 117.313719790832309, 42.410217397275197 ], [ 117.313719768392801, 42.41021289433214 ], [ 117.313725844847454, 42.410212877703238 ], [ 117.313725822407505, 42.410208374760188 ], [ 117.313719745953307, 42.410208391389098 ], [ 117.313719723513799, 42.410203888446034 ], [ 117.313731876421357, 42.410203855187909 ], [ 117.313731853980997, 42.410199352244859 ], [ 117.313737930434328, 42.41019933561531 ], [ 117.313737885552754, 42.410190329729204 ], [ 117.31373180910029, 42.410190346358732 ], [ 117.313731719338904, 42.410172334586456 ], [ 117.313725642888173, 42.41017235121565 ], [ 117.313725620448281, 42.410167848272579 ], [ 117.313707391097353, 42.410167898158257 ], [ 117.313707413535937, 42.410172401101342 ], [ 117.313689184183644, 42.410172450984135 ], [ 117.313689161746353, 42.410167948041043 ], [ 117.313683085296006, 42.410167964667984 ], [ 117.313683107732857, 42.410172467611083 ], [ 117.313677031282069, 42.410172484237719 ], [ 117.313677053718493, 42.410176987180819 ], [ 117.313670977267265, 42.410177003807128 ], [ 117.313671022139275, 42.410186009693319 ], [ 117.313664945687194, 42.410186026319309 ], [ 117.313665125171866, 42.410222049863982 ], [ 117.313671201627443, 42.410222033237957 ], [ 117.313671224063484, 42.410226536181014 ], [ 117.313677300519487, 42.410226519554683 ], [ 117.313677345392449, 42.410235525440797 ], [ 117.313683421849319, 42.410235508814132 ], [ 117.313683444286255, 42.410240011757175 ], [ 117.313695597200834, 42.410239978502872 ], [ 117.313695619638651, 42.410244481445915 ], [ 117.313701696096359, 42.41024446481827 ], [ 117.313701763411089, 42.410257973647361 ] ], [ [ 117.313707794992752, 42.410248951133347 ], [ 117.313707772554068, 42.410244448190312 ], [ 117.313713849011776, 42.41024443156202 ], [ 117.313713871450901, 42.410248934505049 ], [ 117.313707794992752, 42.410248951133347 ] ] ] } },
{ "type": "Feature", "properties": { "crown_id": 2847, "tree_id": "2848", "top_h_m": 17.695, "H_95_Mean": 17.6563, "DBH": 24.4762, "Carbon_kg": 104.939925, "area_m2": 11.75 }, "geometry": { "type": "Polygon", "coordinates": [ [ [ 117.313744006887688, 42.410199318985448 ], [ 117.313756159794323, 42.410199285724744 ], [ 117.313756137352229, 42.410194782781694 ], [ 117.313780443163751, 42.410194716256441 ], [ 117.313780420719922, 42.410190213313399 ], [ 117.313792573624781, 42.410190180048851 ], [ 117.313792528735391, 42.410181174162766 ], [ 117.313786452283821, 42.410181190795193 ], [ 117.313786429839581, 42.41017668785215 ], [ 117.31376820048618, 42.410176737747499 ], [ 117.313768133157382, 42.410163228918307 ], [ 117.313755980257682, 42.410163262180248 ], [ 117.313755957815644, 42.410158759237177 ], [ 117.313749881366221, 42.410158775867664 ], [ 117.313749903807832, 42.410163278810749 ], [ 117.313743827357996, 42.41016329544091 ], [ 117.31374387224038, 42.410172301327066 ], [ 117.313737795789635, 42.410172317956913 ], [ 117.313737863111953, 42.410185826786133 ], [ 117.313743939563992, 42.410185810156271 ], [ 117.313744006887688, 42.410199318985448 ] ] ] } },
{ "type": "Feature", "properties": { "crown_id": 2848, "tree_id": "2849", "top_h_m": 20.87, "H_95_Mean": 20.2864, "DBH": 34.7076, "Carbon_kg": 230.313623, "area_m2": 35.25 }, "geometry": { "type": "MultiPolygon", "coordinates": [ [ [ [ 117.313859549298073, 42.410217014728758 ], [ 117.313859594197098, 42.410226020614729 ], [ 117.313865670652959, 42.410226003978408 ], [ 117.313865625753067, 42.410216998092451 ], [ 117.313859549298073, 42.410217014728758 ] ] ], [ [ [ 117.313859549298073, 42.410217014728758 ], [ 117.313859392151656, 42.410185494127759 ], [ 117.313871545055491, 42.410185460854834 ], [ 117.31387143280385, 42.410162946139749 ], [ 117.3138653563541, 42.410162962776354 ], [ 117.313865333904218, 42.410158459833333 ], [ 117.31385925745488, 42.410158476469611 ], [ 117.313859235005452, 42.410153973526583 ], [ 117.313853158556554, 42.410153990162534 ], [ 117.31385309120958, 42.4101404813334 ], [ 117.313847014761976, 42.410140497969039 ], [ 117.313847037210536, 42.410145000912081 ], [ 117.313834884314446, 42.410145034182385 ], [ 117.313834906762139, 42.410149537125442 ], [ 117.313828830313668, 42.410149553760107 ], [ 117.313828852760935, 42.410154056703163 ], [ 117.313822776312023, 42.410154073337509 ], [ 117.313822798758864, 42.410158576280566 ], [ 117.313816722309497, 42.410158592914591 ], [ 117.313816744755897, 42.410163095857634 ], [ 117.31381066830609, 42.410163112491354 ], [ 117.313810713198052, 42.410172118377446 ], [ 117.313792483846015, 42.410172168276674 ], [ 117.31379250629071, 42.410176671219716 ], [ 117.313798582741825, 42.410176654586969 ], [ 117.313798650077189, 42.41019016341609 ], [ 117.313804726529611, 42.410190146783002 ], [ 117.313804816311915, 42.410208158555108 ], [ 117.313810892766057, 42.410208141921693 ], [ 117.313810960104149, 42.410221650750728 ], [ 117.313823113015033, 42.410221617482918 ], [ 117.313823068121252, 42.410212611596897 ], [ 117.313847373939495, 42.410212545057441 ], [ 117.313847396388127, 42.410217048000433 ], [ 117.313859549298073, 42.410217014728758 ] ] ] ] } },
{ "type": "Feature", "properties": { "crown_id": 2889, "tree_id": "2890", "top_h_m": 19.316, "H_95_Mean": 19.3163, "DBH": 26.3532, "Carbon_kg": 128.439268, "area_m2": 13.25 }, "geometry": { "type": "Polygon", "coordinates": [ [ [ 117.313628464541537, 42.410181623125396 ], [ 117.313664923251608, 42.410181523376217 ], [ 117.313664878380493, 42.410172517490011 ], [ 117.313670954831281, 42.410172500864022 ], [ 117.313670932395311, 42.410167997920922 ], [ 117.313677008845673, 42.410167981294613 ], [ 117.313676986409249, 42.4101634783515 ], [ 117.313689139309076, 42.410163445097929 ], [ 117.313689094434523, 42.410154439211723 ], [ 117.313676941536428, 42.41015447246528 ], [ 117.313676963972824, 42.410158975408393 ], [ 117.313658734624383, 42.410159025286333 ], [ 117.313658689754192, 42.410150019400085 ], [ 117.313652613305564, 42.410150036025414 ], [ 117.313652590870902, 42.410145533082279 ], [ 117.313634361526297, 42.410145582956318 ], [ 117.313634406393007, 42.410154588842602 ], [ 117.313616177045731, 42.41015463871377 ], [ 117.313616199477806, 42.410159141656905 ], [ 117.313628352376853, 42.410159108409786 ], [ 117.313628464541537, 42.410181623125396 ] ] ] } },
{ "type": "Feature", "properties": { "crown_id": 2919, "tree_id": "2920", "top_h_m": 17.913, "H_95_Mean": 17.8416, "DBH": 21.1192, "Carbon_kg": 78.432677, "area_m2": 6.5 }, "geometry": { "type": "Polygon", "coordinates": [ [ [ 117.313695238196686, 42.41016793141376 ], [ 117.31370131464702, 42.410167914786172 ], [ 117.313701292208862, 42.410163411843065 ], [ 117.313725598008403, 42.410163345329487 ], [ 117.313725485809016, 42.410140830613997 ], [ 117.313719409361312, 42.410140847242864 ], [ 117.313719386921889, 42.410136344299758 ], [ 117.313707234027362, 42.410136377556519 ], [ 117.313707278904445, 42.410145383442753 ], [ 117.313695126008142, 42.410145416698221 ], [ 117.313695238196686, 42.41016793141376 ] ] ] } },
{ "type": "Feature", "properties": { "crown_id": 2934, "tree_id": "2935", "top_h_m": 17.95, "H_95_Mean": 19.5375, "DBH": 23.452, "Carbon_kg": 102.218865, "area_m2": 8.25 }, "geometry": { "type": "MultiPolygon", "coordinates": [ [ [ [ 117.313731696898586, 42.410167831643371 ], [ 117.31373777334889, 42.410167815013835 ], [ 117.313737728467373, 42.410158809127672 ], [ 117.313743804916783, 42.410158792497818 ], [ 117.313743782475612, 42.410154289554747 ], [ 117.313762011822547, 42.410154239663292 ], [ 117.313761966937591, 42.410145233777129 ], [ 117.313755890489475, 42.410145250407929 ], [ 117.313755800721381, 42.410127238635539 ], [ 117.313725418489469, 42.410127321784671 ], [ 117.313725463369167, 42.410136327670891 ], [ 117.313731539816445, 42.410136311041711 ], [ 117.313731696898586, 42.410167831643371 ] ] ], [ [ [ 117.313762011822547, 42.410154239663292 ], [ 117.313762034265054, 42.410158742606363 ], [ 117.313768110714435, 42.410158725975236 ], [ 117.31376808827153, 42.410154223032166 ], [ 117.313762011822547, 42.410154239663292 ] ] ] ] } },
{ "type": "Feature", "properties": { "crown_id": 2942, "tree_id": "2943", "top_h_m": 18.88, "H_95_Mean": 19.3776, "DBH": 31.2418, "Carbon_kg": 181.32673, "area_m2": 25.5 }, "geometry": { "type": "Polygon", "coordinates": [ [ [ 117.313774254493936, 42.410172218172981 ], [ 117.313786407395327, 42.410172184909101 ], [ 117.313786384951101, 42.410167681966037 ], [ 117.31380461430183, 42.410167632067797 ], [ 117.313804569410763, 42.410158626181683 ], [ 117.31381064586013, 42.410158609548297 ], [ 117.31381062341417, 42.410154106605241 ], [ 117.313816699863096, 42.410154089971527 ], [ 117.31381667741671, 42.410149587028485 ], [ 117.313822753865196, 42.410149570394459 ], [ 117.313822731418369, 42.410145067451396 ], [ 117.313828807866415, 42.410145050817043 ], [ 117.313828762971923, 42.41013604493093 ], [ 117.313822686524745, 42.410136061565275 ], [ 117.313822596737538, 42.410118049792963 ], [ 117.313798290955731, 42.410118116327062 ], [ 117.31379824606563, 42.410109110440878 ], [ 117.31377394028722, 42.410109176969783 ], [ 117.313773962730508, 42.410113679912904 ], [ 117.313767886285476, 42.410113696544329 ], [ 117.313767953614104, 42.410127205373634 ], [ 117.313761877167735, 42.410127222004746 ], [ 117.313761944495113, 42.410140730834037 ], [ 117.313768020942803, 42.41014071420291 ], [ 117.313768065828597, 42.410149720089095 ], [ 117.31377414227714, 42.410149703457634 ], [ 117.313774254493936, 42.410172218172981 ] ] ] } },
{ "type": "Feature", "properties": { "crown_id": 2969, "tree_id": "2970", "top_h_m": 19.033, "H_95_Mean": 19.4887, "DBH": 23.9551, "Carbon_kg": 106.528951, "area_m2": 9.0 }, "geometry": { "type": "Polygon", "coordinates": [ [ [ 117.313616154613683, 42.410150135770621 ], [ 117.31362830751101, 42.410150102523509 ], [ 117.313628262645167, 42.410141096637219 ], [ 117.313652568436254, 42.410141030139137 ], [ 117.313652501132339, 42.410127521309718 ], [ 117.313646424685899, 42.410127537934706 ], [ 117.313646379817513, 42.410118532048401 ], [ 117.313634226926311, 42.410118565297417 ], [ 117.313634204492999, 42.410114062354253 ], [ 117.313628128047839, 42.410114078978268 ], [ 117.313628105614953, 42.41010957603509 ], [ 117.313622029170219, 42.410109592658792 ], [ 117.313622096467554, 42.410123101488296 ], [ 117.313609943575443, 42.410123134734746 ], [ 117.313609988438614, 42.410132140621066 ], [ 117.313616064885537, 42.410132123998018 ], [ 117.313616154613683, 42.410150135770621 ] ] ] } },
{ "type": "Feature", "properties": { "crown_id": 2992, "tree_id": "2993", "top_h_m": 20.07, "H_95_Mean": 19.9271, "DBH": 29.9291, "Carbon_kg": 169.071745, "area_m2": 20.5 }, "geometry": { "type": "Polygon", "coordinates": [ [ [ 117.313664788638349, 42.41015450571755 ], [ 117.313670865087403, 42.410154489091575 ], [ 117.313670842651433, 42.410149986148461 ], [ 117.31368907199726, 42.410149936268617 ], [ 117.313689027122734, 42.410140930382362 ], [ 117.313701180018185, 42.410140897127533 ], [ 117.313701135141955, 42.410131891241299 ], [ 117.313719364482481, 42.410131841356645 ], [ 117.313719229846072, 42.410104823697885 ], [ 117.313670618292079, 42.410104956717063 ], [ 117.313670663163904, 42.410113962603376 ], [ 117.313652433828494, 42.410114012480257 ], [ 117.313652478697719, 42.410123018366569 ], [ 117.313658555143746, 42.410123001741248 ], [ 117.313658667319118, 42.410145516456957 ], [ 117.313664743767276, 42.410145499831302 ], [ 117.313664788638349, 42.41015450571755 ] ] ] } }
]
}
