{
"type": "FeatureCollection",
"name": "tile_13_22",
"crs": { "type": "name", "properties": { "name": "urn:ogc:def:crs:OGC:1.3:CRS84" } },
"features": [
{ "type": "Feature", "properties": { "crown_id": 5270, "tree_id": "5275", "top_h_m": 23.953, "H_95_Mean": 24.0582, "DBH": 31.174, "Carbon_kg": 205.180282, "area_m2": 17.0 }, "geometry": { "type": "Polygon", "coordinates": [ [ [ 117.315154996398633, 42.409231805682083 ], [ 117.315161072757732, 42.409231788977401 ], [ 117.31516105021592, 42.409227286034209 ], [ 117.315173202933281, 42.4092272526239 ], [ 117.315173180390602, 42.409222749680708 ], [ 117.315185333107067, 42.409222716269113 ], [ 117.315185265476444, 42.40920920743951 ], [ 117.315173112762579, 42.409209240851077 ], [ 117.315173090219901, 42.409204737907856 ], [ 117.315167013863402, 42.409204754613157 ], [ 117.315166991321163, 42.409200251669937 ], [ 117.315160914965105, 42.40920026837491 ], [ 117.315160892423322, 42.409195765431676 ], [ 117.315154816067661, 42.409195782136329 ], [ 117.315154770984961, 42.409186776249861 ], [ 117.315136541920594, 42.409186826361847 ], [ 117.315136519380573, 42.409182323418605 ], [ 117.315130443026192, 42.409182340121966 ], [ 117.315130465565787, 42.409186843065214 ], [ 117.315124389211007, 42.409186859768234 ], [ 117.315124411750162, 42.40919136271151 ], [ 117.315118335394928, 42.409191379414217 ], [ 117.315118357933656, 42.409195882357473 ], [ 117.315124434289331, 42.409195865654759 ], [ 117.31512450190688, 42.409209374484476 ], [ 117.315130578263862, 42.409209357781435 ], [ 117.315130668422427, 42.409227369554337 ], [ 117.315154973857219, 42.409227302738884 ], [ 117.315154996398633, 42.409231805682083 ] ] ] } },
{ "type": "Feature", "properties": { "crown_id": 5321, "tree_id": "5327", "top_h_m": 21.825, "H_95_Mean": 21.3797, "DBH": 38.1071, "Carbon_kg": 286.809911, "area_m2": 46.0 }, "geometry": { "type": "Polygon", "coordinates": [ [ [ 117.315191364377341, 42.409213693676435 ], [ 117.315203517092058, 42.409213660262935 ], [ 117.315203472002381, 42.409204654376524 ], [ 117.315221701071764, 42.409204604253866 ], [ 117.315221678525631, 42.409200101310667 ], [ 117.315227754881661, 42.40920008460246 ], [ 117.315227732335089, 42.409195581659276 ], [ 117.315233808690692, 42.40919556495075 ], [ 117.31523374104971, 42.409182056121125 ], [ 117.315239817403992, 42.4091820394123 ], [ 117.315239794856581, 42.409177536469095 ], [ 117.315245871210394, 42.409177519759943 ], [ 117.315245781019044, 42.409159507987084 ], [ 117.315239704666965, 42.409159524696214 ], [ 117.315239682119582, 42.409155021752994 ], [ 117.315233605767901, 42.409155038461805 ], [ 117.315233583220945, 42.409150535518577 ], [ 117.315209277815953, 42.4091506023506 ], [ 117.315209255270744, 42.409146099407351 ], [ 117.315203178919916, 42.409146116114563 ], [ 117.315203156375148, 42.409141613171307 ], [ 117.315184927323941, 42.40914166329096 ], [ 117.315184949867415, 42.409146166234216 ], [ 117.315178873516572, 42.409146182940127 ], [ 117.315178850973538, 42.409141679996864 ], [ 117.315154545571815, 42.409141746817276 ], [ 117.315154613195702, 42.409155255647086 ], [ 117.315148536843978, 42.409155272351391 ], [ 117.315148559384838, 42.409159775294661 ], [ 117.315142483032659, 42.409159791998647 ], [ 117.315142550653988, 42.409173300828421 ], [ 117.315136474300502, 42.409173317532094 ], [ 117.315136496840537, 42.409177820475357 ], [ 117.315142573194464, 42.409177803771684 ], [ 117.315142595734926, 42.409182306714932 ], [ 117.315160824797985, 42.409182256601966 ], [ 117.315160869881524, 42.409191262488449 ], [ 117.315166946236715, 42.409191245783475 ], [ 117.315166968778939, 42.409195748726709 ], [ 117.315173045134586, 42.409195732021416 ], [ 117.31517306767725, 42.409200234964629 ], [ 117.315179144033308, 42.409200218259016 ], [ 117.315179166576414, 42.409204721202236 ], [ 117.315191319289397, 42.40920468779003 ], [ 117.315191364377341, 42.409213693676435 ] ] ] } },
{ "type": "Feature", "properties": { "crown_id": 5378, "tree_id": "5384", "top_h_m": 22.024, "H_95_Mean": 21.81, "DBH": 35.8525, "Carbon_kg": 256.643044, "area_m2": 35.0 }, "geometry": { "type": "Polygon", "coordinates": [ [ [ 117.315087976155169, 42.409195965866239 ], [ 117.315112281577981, 42.409195899059867 ], [ 117.315112236501349, 42.409186893173349 ], [ 117.315118312856185, 42.409186876470962 ], [ 117.315118290317457, 42.409182373527706 ], [ 117.315124366671839, 42.409182356824992 ], [ 117.31512434413267, 42.409177853881729 ], [ 117.315130420486597, 42.409177837178703 ], [ 117.315130375407421, 42.409168831292178 ], [ 117.315136451760495, 42.409168814588838 ], [ 117.315136384140459, 42.409155305759043 ], [ 117.315130307788692, 42.409155322462375 ], [ 117.315130217630482, 42.409137310689239 ], [ 117.315118064930431, 42.409137344094923 ], [ 117.315118019853088, 42.409128338208333 ], [ 117.315087638107229, 42.409128421716893 ], [ 117.315087615570732, 42.409123918773581 ], [ 117.315075462873196, 42.409123952174753 ], [ 117.315075507944456, 42.409132958061384 ], [ 117.315069431594807, 42.409132974761491 ], [ 117.315069476665201, 42.409141980648123 ], [ 117.315063400314685, 42.409141997347909 ], [ 117.315063558058213, 42.409173517951032 ], [ 117.315075710765313, 42.409173484551097 ], [ 117.315075778372361, 42.409186993380942 ], [ 117.315081854727197, 42.409186976680473 ], [ 117.315081877263339, 42.40919147962375 ], [ 117.315087953618601, 42.409191462922962 ], [ 117.315087976155169, 42.409195965866239 ] ] ] } },
{ "type": "Feature", "properties": { "crown_id": 5507, "tree_id": "5513", "top_h_m": 19.96, "H_95_Mean": 19.9752, "DBH": 30.6907, "Carbon_kg": 178.108905, "area_m2": 22.5 }, "geometry": { "type": "Polygon", "coordinates": [ [ [ 117.315075440337594, 42.409119449231412 ], [ 117.315087593034235, 42.409119415830254 ], [ 117.315087570497766, 42.409114912886928 ], [ 117.315124028584975, 42.409114812675739 ], [ 117.31512393842867, 42.409096800902468 ], [ 117.315117862082559, 42.409096817605125 ], [ 117.31511783954393, 42.409092314661798 ], [ 117.31511176319826, 42.409092331364135 ], [ 117.315111740660058, 42.409087828420802 ], [ 117.315093511624269, 42.409087878525867 ], [ 117.315093489087403, 42.409083375582526 ], [ 117.315081336397697, 42.409083408984287 ], [ 117.315081291325697, 42.409074403097577 ], [ 117.315069138637725, 42.409074436498031 ], [ 117.315069161172858, 42.4090789394414 ], [ 117.315044855795136, 42.409079006238471 ], [ 117.315044878328521, 42.409083509181841 ], [ 117.315038801983633, 42.409083525880312 ], [ 117.315038824516591, 42.409088028823682 ], [ 117.315044900861906, 42.409088012125217 ], [ 117.315044990995574, 42.409106023898644 ], [ 117.315057143689671, 42.409105990500727 ], [ 117.31505718875826, 42.409114996387416 ], [ 117.315075417801978, 42.409114946288092 ], [ 117.315075440337594, 42.409119449231412 ] ] ] } },
{ "type": "Feature", "properties": { "crown_id": 5508, "tree_id": "5514", "top_h_m": 19.969, "H_95_Mean": 20.5897, "DBH": 41.0821, "Carbon_kg": 326.378854, "area_m2": 66.0 }, "geometry": { "type": "MultiPolygon", "coordinates": [ [ [ [ 117.315233357751723, 42.409105506086064 ], [ 117.315239434098601, 42.409105489377261 ], [ 117.315239456645941, 42.409109992320538 ], [ 117.315245532993259, 42.409109975611422 ], [ 117.315245555541026, 42.409114478554685 ], [ 117.315233402845536, 42.409114511972582 ], [ 117.315233425392435, 42.409119014915845 ], [ 117.31524557808882, 42.409118981497933 ], [ 117.315245600636587, 42.409123484441196 ], [ 117.315251676985213, 42.409123467731753 ], [ 117.315251654436992, 42.409118964788497 ], [ 117.315257730785191, 42.409118948078742 ], [ 117.315257753333825, 42.409123451021983 ], [ 117.315263829682451, 42.409123434311908 ], [ 117.315263852231539, 42.409127937255143 ], [ 117.315276004929615, 42.409127903834012 ], [ 117.315275982379632, 42.409123400890778 ], [ 117.315288135076813, 42.409123367468354 ], [ 117.315288157627649, 42.409127870411574 ], [ 117.315282081278625, 42.409127887122949 ], [ 117.315282103829034, 42.409132390066183 ], [ 117.31528818017847, 42.409132373354801 ], [ 117.31528820272932, 42.409136876298021 ], [ 117.315294279079225, 42.409136859586312 ], [ 117.315294256527935, 42.409132356643106 ], [ 117.315330714624523, 42.409132256366149 ], [ 117.315330669516769, 42.409123250479716 ], [ 117.31534282221385, 42.409123217051501 ], [ 117.315342799659106, 42.409118714108281 ], [ 117.315354952355321, 42.409118680678787 ], [ 117.315354929799724, 42.409114177735589 ], [ 117.315361006147384, 42.409114161020348 ], [ 117.315360983591347, 42.409109658077142 ], [ 117.315354907244114, 42.409109674792361 ], [ 117.315354884688546, 42.409105171849163 ], [ 117.31536096103531, 42.409105155133936 ], [ 117.315360915923293, 42.409096149247489 ], [ 117.315348763231455, 42.409096182677608 ], [ 117.315348740676313, 42.409091679734381 ], [ 117.315336587985314, 42.409091713163207 ], [ 117.315336565431039, 42.409087210219965 ], [ 117.315330489085966, 42.409087226933906 ], [ 117.315330421424505, 42.409073718104153 ], [ 117.315324345080725, 42.40907373481776 ], [ 117.315324254867278, 42.409055723044702 ], [ 117.315287796814971, 42.409055823319456 ], [ 117.315287751713484, 42.409046817432873 ], [ 117.31526952268986, 42.409046867565891 ], [ 117.315269545239303, 42.409051370509196 ], [ 117.315263468897655, 42.40905138721957 ], [ 117.315263513995674, 42.409060393106159 ], [ 117.315257437653159, 42.409060409816192 ], [ 117.31525748275034, 42.409069415702788 ], [ 117.315251406406929, 42.409069432412522 ], [ 117.315251428955108, 42.409073935355806 ], [ 117.315245352611257, 42.409073952065214 ], [ 117.315245375158995, 42.409078455008505 ], [ 117.315233222470425, 42.40907848842636 ], [ 117.315233245017296, 42.409082991369651 ], [ 117.315227168672592, 42.409083008078099 ], [ 117.315227191219009, 42.409087511021397 ], [ 117.315233267564167, 42.409087494312942 ], [ 117.315233357751723, 42.409105506086064 ] ], [ [ 117.315251428955108, 42.409073935355806 ], [ 117.31526965798659, 42.409073885225638 ], [ 117.315269725635005, 42.409087394055462 ], [ 117.315251496599629, 42.409087444185658 ], [ 117.315251428955108, 42.409073935355806 ] ] ], [ [ [ 117.315233357751723, 42.409105506086064 ], [ 117.315221205057938, 42.409105539502654 ], [ 117.315221227603971, 42.409110042445924 ], [ 117.315215151256609, 42.409110059153747 ], [ 117.315215196347822, 42.409119065040294 ], [ 117.315221272696036, 42.409119048332457 ], [ 117.315221250149975, 42.409114545389201 ], [ 117.315233402845536, 42.409114511972582 ], [ 117.315233357751723, 42.409105506086064 ] ] ] ] } },
{ "type": "Feature", "properties": { "crown_id": 5547, "tree_id": "5553", "top_h_m": 20.758, "H_95_Mean": 21.7109, "DBH": 22.953, "Carbon_kg": 104.183659, "area_m2": 6.25 }, "geometry": { "type": "Polygon", "coordinates": [ [ [ 117.315129924616841, 42.40907877242617 ], [ 117.31514207730558, 42.40907873901925 ], [ 117.315142032224898, 42.409069733132597 ], [ 117.315148108568394, 42.409069716428661 ], [ 117.315148131109154, 42.409074219371988 ], [ 117.315160283796999, 42.409074185963156 ], [ 117.315160261255343, 42.40906968301983 ], [ 117.315166337598825, 42.409069666314934 ], [ 117.315166315056771, 42.409065163371586 ], [ 117.315172391399798, 42.409065146666379 ], [ 117.31517236885729, 42.409060643723045 ], [ 117.315166292514704, 42.409060660428253 ], [ 117.315166247430568, 42.409051654541592 ], [ 117.315148018405338, 42.409051704655283 ], [ 117.315148063486859, 42.409060710541979 ], [ 117.315135910801601, 42.40906074394951 ], [ 117.315135933341509, 42.409065246892858 ], [ 117.315129856998425, 42.40906526359614 ], [ 117.315129879537906, 42.409069766539496 ], [ 117.315123803194382, 42.409069783242458 ], [ 117.315123825733423, 42.409074286185799 ], [ 117.315129902077373, 42.409074269482836 ], [ 117.315129924616841, 42.40907877242617 ] ] ] } },
{ "type": "Feature", "properties": { "crown_id": 5555, "tree_id": "5561", "top_h_m": 21.269, "H_95_Mean": 21.5458, "DBH": 37.3608, "Carbon_kg": 276.865946, "area_m2": 42.0 }, "geometry": { "type": "Polygon", "coordinates": [ [ [ 117.315178670629464, 42.40910565645062 ], [ 117.315184746976414, 42.409105639744745 ], [ 117.315184724432996, 42.409101136801439 ], [ 117.31519080077949, 42.409101120095229 ], [ 117.315190823323334, 42.409105623038535 ], [ 117.315215128711003, 42.409105556210477 ], [ 117.315215106165425, 42.409101053267186 ], [ 117.315227258858357, 42.409101019851228 ], [ 117.315227213765468, 42.409092013964674 ], [ 117.315221137419869, 42.409092030672809 ], [ 117.315221069781842, 42.409078521842936 ], [ 117.315227146126148, 42.409078505134815 ], [ 117.315227123579731, 42.40907400219151 ], [ 117.31523927626742, 42.409073968774308 ], [ 117.315239253720137, 42.40906946583101 ], [ 117.315245330063547, 42.409069449121922 ], [ 117.315245307515809, 42.409064946178624 ], [ 117.315251383858779, 42.409064929469224 ], [ 117.315251338762494, 42.409055923582621 ], [ 117.315257415104583, 42.409055906872908 ], [ 117.315257392555992, 42.40905140392961 ], [ 117.315251316214344, 42.409051420639322 ], [ 117.315251293666222, 42.40904691769601 ], [ 117.315245217324971, 42.409046934405403 ], [ 117.315245172229581, 42.409037928518785 ], [ 117.315208714187307, 42.409038028768364 ], [ 117.315208691642241, 42.409033525825024 ], [ 117.315172233602382, 42.409033626062993 ], [ 117.315172211059931, 42.40902912311963 ], [ 117.315166134720357, 42.409029139824831 ], [ 117.315166224888529, 42.409047151598237 ], [ 117.315172301229822, 42.409047134893022 ], [ 117.315172346314796, 42.409056140779718 ], [ 117.315178422656956, 42.409056124074176 ], [ 117.31517849028576, 42.409069632904163 ], [ 117.315172413942292, 42.409069649609705 ], [ 117.315172436484815, 42.409074152553025 ], [ 117.315166360140893, 42.409074169258254 ], [ 117.315166382682989, 42.409078672201566 ], [ 117.315154229994278, 42.409078705611059 ], [ 117.315154275076736, 42.409087711497705 ], [ 117.315160351421952, 42.409087694793122 ], [ 117.315160328880296, 42.409083191849795 ], [ 117.315166405225085, 42.409083175144886 ], [ 117.315166427767181, 42.409087678088206 ], [ 117.315172504112368, 42.409087661382976 ], [ 117.315172549197442, 42.409096667269587 ], [ 117.315178625543524, 42.409096650564031 ], [ 117.315178670629464, 42.40910565645062 ] ] ] } },
{ "type": "Feature", "properties": { "crown_id": 5590, "tree_id": "5596", "top_h_m": 21.87, "H_95_Mean": 22.1662, "DBH": 30.2197, "Carbon_kg": 183.604094, "area_m2": 17.5 }, "geometry": { "type": "Polygon", "coordinates": [ [ [ 117.315123915889629, 42.409092297959148 ], [ 117.315129992235313, 42.409092281256157 ], [ 117.315129947156322, 42.409083275369497 ], [ 117.315123870811505, 42.409083292072467 ], [ 117.315123848272464, 42.40907878912914 ], [ 117.315117771928087, 42.409078805831797 ], [ 117.315117726850872, 42.409069799945101 ], [ 117.315105574163852, 42.409069833349427 ], [ 117.315105529088385, 42.40906082746271 ], [ 117.315099452745741, 42.409060844164379 ], [ 117.315099430208463, 42.409056341221017 ], [ 117.315093353866246, 42.409056357922367 ], [ 117.315093308792569, 42.409047352035621 ], [ 117.315087232451191, 42.409047368736644 ], [ 117.315087142305643, 42.409029356963103 ], [ 117.315068913286723, 42.409029407064196 ], [ 117.315068980891965, 42.409042915894389 ], [ 117.315062904551013, 42.409042932594112 ], [ 117.315062972155005, 42.409056441424291 ], [ 117.315056895812759, 42.4090564581237 ], [ 117.315056918346997, 42.409060961067077 ], [ 117.315044765661597, 42.409060994464951 ], [ 117.315044833261737, 42.409074503295109 ], [ 117.315063062293731, 42.409074453197789 ], [ 117.315063039759039, 42.40906995025442 ], [ 117.31508734513325, 42.40906988345349 ], [ 117.315087390206116, 42.409078889340208 ], [ 117.315099542894927, 42.409078855937807 ], [ 117.315099565432234, 42.409083358881155 ], [ 117.315117794466687, 42.409083308775124 ], [ 117.31511781700533, 42.409087811718472 ], [ 117.315123893350574, 42.409087795015814 ], [ 117.315123915889629, 42.409092297959148 ] ] ] } },
{ "type": "Feature", "properties": { "crown_id": 5599, "tree_id": "5605", "top_h_m": 23.826, "H_95_Mean": 23.9491, "DBH": 32.9481, "Carbon_kg": 228.778999, "area_m2": 21.25 }, "geometry": { "type": "Polygon", "coordinates": [ [ [ 117.315111627969216, 42.409065313704069 ], [ 117.31512378065537, 42.409065280299103 ], [ 117.315123758116329, 42.409060777355755 ], [ 117.315129834458986, 42.409060760652793 ], [ 117.315129811919519, 42.409056257709445 ], [ 117.315141964603924, 42.40905622430256 ], [ 117.315141919523271, 42.409047218415857 ], [ 117.315160148547221, 42.409047168303132 ], [ 117.315160058380783, 42.409029156529698 ], [ 117.31514790570165, 42.409029189938494 ], [ 117.315147883160932, 42.409024686995124 ], [ 117.315135730482623, 42.40902472040262 ], [ 117.31513568540295, 42.409015714515853 ], [ 117.315123532726375, 42.409015747922048 ], [ 117.315123555265345, 42.409020250865439 ], [ 117.315105326249153, 42.409020300972323 ], [ 117.315105303711462, 42.409015798028925 ], [ 117.315080998358198, 42.409015864833577 ], [ 117.315081043430055, 42.409024870720387 ], [ 117.315093196108435, 42.40902483731869 ], [ 117.315093286255717, 42.409042849092238 ], [ 117.315099362596655, 42.409042832390902 ], [ 117.31509940767117, 42.409051838277655 ], [ 117.315105484012989, 42.409051821575986 ], [ 117.31510550655068, 42.409056324519348 ], [ 117.315111582892882, 42.409056307817352 ], [ 117.315111627969216, 42.409065313704069 ] ] ] } },
{ "type": "Feature", "properties": { "crown_id": 5610, "tree_id": "5616", "top_h_m": 20.2, "H_95_Mean": 20.34, "DBH": 22.2549, "Carbon_kg": 94.191127, "area_m2": 6.25 }, "geometry": { "type": "Polygon", "coordinates": [ [ [ 117.315257370007444, 42.409046900986297 ], [ 117.315263446348638, 42.409046884276258 ], [ 117.315263423799649, 42.409042381332952 ], [ 117.315275576481213, 42.409042347911907 ], [ 117.315275508831618, 42.409028839081984 ], [ 117.315281585171093, 42.409028822370999 ], [ 117.315281494970009, 42.409010810597721 ], [ 117.315269342294528, 42.40901084401937 ], [ 117.315269409942729, 42.40902435284935 ], [ 117.3152511809256, 42.409024402979433 ], [ 117.315251203473707, 42.409028905922746 ], [ 117.315245127134233, 42.409028922632125 ], [ 117.3152451496819, 42.409033425575473 ], [ 117.315251226021829, 42.409033408866073 ], [ 117.315251271118072, 42.409042414752697 ], [ 117.315257347458854, 42.409042398042992 ], [ 117.315257370007444, 42.409046900986297 ] ] ] } }
]
}
