{
"type": "FeatureCollection",
"name": "tile_12_21",
"crs": { "type": "name", "properties": { "name": "urn:ogc:def:crs:OGC:1.3:CRS84" } },
"features": [
{ "type": "Feature", "properties": { "crown_id": 4813, "tree_id": "4817", "top_h_m": 23.42, "H_95_Mean": 23.6625, "DBH": 29.8212, "Carbon_kg": 185.798561, "area_m2": 14.75 }, "geometry": { "type": "Polygon", "coordinates": [ [ [ 117.315028226553139, 42.409398765303976 ], [ 117.315040379303753, 42.409398731907643 ], [ 117.315040356770439, 42.409394228964516 ], [ 117.315082891394411, 42.409394112067218 ], [ 117.315082823785346, 42.409380603237885 ], [ 117.315076747411808, 42.409380619938453 ], [ 117.315076724875894, 42.409376116995332 ], [ 117.315070648502811, 42.409376133695574 ], [ 117.315070625967337, 42.409371630752446 ], [ 117.315064549594666, 42.409371647452367 ], [ 117.31506448198958, 42.409358138622956 ], [ 117.315052329246825, 42.409358172021811 ], [ 117.315052351780977, 42.409362674964967 ], [ 117.315046275409145, 42.409362691663915 ], [ 117.315046297942871, 42.409367194607057 ], [ 117.315021992453808, 42.409367261399652 ], [ 117.315022014985772, 42.409371764342808 ], [ 117.315015938613072, 42.40937178104015 ], [ 117.315015961144638, 42.409376283983299 ], [ 117.315022037517792, 42.40937626728595 ], [ 117.315022060049785, 42.409380770229106 ], [ 117.315028136423336, 42.409380753531437 ], [ 117.315028226553139, 42.409398765303976 ] ] ] } },
{ "type": "Feature", "properties": { "crown_id": 4824, "tree_id": "4828", "top_h_m": 23.61, "H_95_Mean": 22.6841, "DBH": 31.5176, "Carbon_kg": 202.592685, "area_m2": 19.75 }, "geometry": { "type": "Polygon", "coordinates": [ [ [ 117.314839881434835, 42.409403785725594 ], [ 117.314876339690215, 42.409403685592629 ], [ 117.314876272125431, 42.40939017676304 ], [ 117.314888424874596, 42.409390143382815 ], [ 117.314888402352153, 42.409385640439623 ], [ 117.314882325978004, 42.409385657129882 ], [ 117.314882258411998, 42.409372148300264 ], [ 117.314876182039171, 42.409372164990202 ], [ 117.31487615951761, 42.409367662046989 ], [ 117.314870083145195, 42.409367678736608 ], [ 117.314870015581874, 42.409354169906912 ], [ 117.314857862839645, 42.409354203285162 ], [ 117.314857840319419, 42.409349700341927 ], [ 117.314851763948724, 42.409349717030565 ], [ 117.314851786468537, 42.4093542199738 ], [ 117.314833557355144, 42.409354270037781 ], [ 117.314833602392156, 42.409363275924278 ], [ 117.314827526020139, 42.409363292611637 ], [ 117.314827571056284, 42.409372298498113 ], [ 117.314833647429168, 42.409372281810754 ], [ 117.314833737503292, 42.409390293583648 ], [ 117.314839813877896, 42.409390276895969 ], [ 117.314839881434835, 42.409403785725594 ] ] ] } },
{ "type": "Feature", "properties": { "crown_id": 4836, "tree_id": "4840", "top_h_m": 23.212, "H_95_Mean": 23.6989, "DBH": 29.5788, "Carbon_kg": 182.93346, "area_m2": 14.25 }, "geometry": { "type": "Polygon", "coordinates": [ [ [ 117.314937058396879, 42.409394512792225 ], [ 117.314973516646532, 42.409394412628373 ], [ 117.314973449060943, 42.409380903798898 ], [ 117.314985601808189, 42.409380870408377 ], [ 117.314985534220028, 42.40936736157888 ], [ 117.314967305103082, 42.409367411664149 ], [ 117.314967282575012, 42.409362908720958 ], [ 117.314949053459301, 42.409362958803314 ], [ 117.314949075986078, 42.409367461746513 ], [ 117.314918694124287, 42.409367545210685 ], [ 117.314918716648904, 42.40937204815387 ], [ 117.314912640276106, 42.409372064845734 ], [ 117.314912662800253, 42.409376567788932 ], [ 117.314918739173521, 42.409376551097068 ], [ 117.314918761698124, 42.409381054040267 ], [ 117.314924838071789, 42.409381037348069 ], [ 117.314924860596832, 42.409385540291247 ], [ 117.31493701334503, 42.409385506905885 ], [ 117.314937058396879, 42.409394512792225 ] ] ] } },
{ "type": "Feature", "properties": { "crown_id": 4906, "tree_id": "4910", "top_h_m": 21.668, "H_95_Mean": 21.629, "DBH": 25.1687, "Carbon_kg": 125.167442, "area_m2": 9.0 }, "geometry": { "type": "Polygon", "coordinates": [ [ [ 117.314882235890011, 42.409367645357058 ], [ 117.314912617751929, 42.409367561902549 ], [ 117.314912550179457, 42.409354053072924 ], [ 117.314906473808392, 42.409354069764461 ], [ 117.314906428760978, 42.409345063878014 ], [ 117.314900352390765, 42.409345080569231 ], [ 117.314900329867513, 42.409340577626004 ], [ 117.314888177127941, 42.409340611007451 ], [ 117.314888154605569, 42.409336108064224 ], [ 117.314882078236195, 42.409336124754454 ], [ 117.314882100758169, 42.409340627697688 ], [ 117.314863871648768, 42.409340677766487 ], [ 117.314863916690072, 42.40934968365297 ], [ 117.314876069431435, 42.409349650274088 ], [ 117.314876136996062, 42.409363159103755 ], [ 117.314882213368023, 42.409363142413831 ], [ 117.314882235890011, 42.409367645357058 ] ] ] } },
{ "type": "Feature", "properties": { "crown_id": 4921, "tree_id": "4925", "top_h_m": 21.2, "H_95_Mean": 22.1016, "DBH": 26.1265, "Carbon_kg": 136.689681, "area_m2": 10.0 }, "geometry": { "type": "MultiPolygon", "coordinates": [ [ [ [ 117.314997709494875, 42.409371831130251 ], [ 117.315009862240345, 42.40937179773718 ], [ 117.315009839709219, 42.409367294794016 ], [ 117.314997686964645, 42.409367328187095 ], [ 117.314997709494875, 42.409371831130251 ] ] ], [ [ [ 117.315009839709219, 42.409367294794016 ], [ 117.315015916081521, 42.409367278096994 ], [ 117.315015893549955, 42.409362775153824 ], [ 117.315040199037313, 42.409362708362544 ], [ 117.315040176504056, 42.409358205419387 ], [ 117.315046252875433, 42.409358188720759 ], [ 117.315046230341736, 42.409353685777617 ], [ 117.315052306712673, 42.409353669078669 ], [ 117.315052284178549, 42.409349166135506 ], [ 117.31503405506696, 42.409349216231377 ], [ 117.315034010001298, 42.409340210345029 ], [ 117.31502793363164, 42.409340227043003 ], [ 117.31502795616403, 42.409344729986174 ], [ 117.314997574313466, 42.409344813471208 ], [ 117.314997596843696, 42.409349316414399 ], [ 117.314973291361397, 42.409349383196641 ], [ 117.314973358946887, 42.409362892026202 ], [ 117.314991588062526, 42.409362841939974 ], [ 117.314991543002918, 42.409353836053619 ], [ 117.3150097721159, 42.409353785964512 ], [ 117.315009839709219, 42.409367294794016 ] ] ] ] } },
{ "type": "Feature", "properties": { "crown_id": 4930, "tree_id": "4934", "top_h_m": 21.6, "H_95_Mean": 22.3914, "DBH": 27.0975, "Carbon_kg": 148.259797, "area_m2": 11.25 }, "geometry": { "type": "Polygon", "coordinates": [ [ [ 117.314918671599699, 42.409363042267465 ], [ 117.314942977087398, 42.409362975496798 ], [ 117.314942954561076, 42.409358472553606 ], [ 117.314955107304002, 42.409358439166333 ], [ 117.314955084776827, 42.409353936223134 ], [ 117.314949008405776, 42.409353952916938 ], [ 117.314948940825531, 42.40934044408732 ], [ 117.314942864455816, 42.409340460780783 ], [ 117.314942841929494, 42.409335957837563 ], [ 117.314936765560205, 42.409335974530713 ], [ 117.314936697982631, 42.409322465701045 ], [ 117.314918468878574, 42.409322515778499 ], [ 117.314918491403134, 42.409327018721733 ], [ 117.314912415034669, 42.409327035413568 ], [ 117.314912437558789, 42.409331538356817 ], [ 117.314906361189884, 42.409331555048325 ], [ 117.314906406237284, 42.409340560934794 ], [ 117.314912482607056, 42.409340544243271 ], [ 117.314912527655338, 42.409349550129704 ], [ 117.314918604025948, 42.409349533437847 ], [ 117.314918671599699, 42.409363042267465 ] ] ] } },
{ "type": "Feature", "properties": { "crown_id": 4961, "tree_id": "4965", "top_h_m": 22.45, "H_95_Mean": 22.6591, "DBH": 30.0754, "Carbon_kg": 184.2222, "area_m2": 16.5 }, "geometry": { "type": "Polygon", "coordinates": [ [ [ 117.314961183675479, 42.409358422472224 ], [ 117.314967260046942, 42.409358405777773 ], [ 117.314967192462774, 42.409344896948191 ], [ 117.314991497943339, 42.40934483016725 ], [ 117.314991475413564, 42.409340327224065 ], [ 117.315003628152922, 42.409340293831661 ], [ 117.315003560560996, 42.409326785002101 ], [ 117.315009636929403, 42.409326768305426 ], [ 117.315009614398321, 42.409322265362228 ], [ 117.315003538030382, 42.409322282058895 ], [ 117.31500351549974, 42.409317779115696 ], [ 117.314985286397189, 42.409317829203779 ], [ 117.314985308926509, 42.409322332146978 ], [ 117.31496707982258, 42.409322382232162 ], [ 117.314967057294567, 42.409317879288956 ], [ 117.314960980927026, 42.409317895983364 ], [ 117.314960958399439, 42.409313393040151 ], [ 117.314948805665196, 42.409313426428014 ], [ 117.31494878313849, 42.409308923484772 ], [ 117.314942706771802, 42.409308940178221 ], [ 117.314942684245537, 42.409304437234987 ], [ 117.314936607879275, 42.409304453928101 ], [ 117.3149366304051, 42.409308956871342 ], [ 117.314924477671696, 42.409308990256619 ], [ 117.314924522721626, 42.409317996143095 ], [ 117.314942751824361, 42.409317946064675 ], [ 117.3149428194032, 42.40933145489435 ], [ 117.314948895772091, 42.409331438200901 ], [ 117.314948918298811, 42.409335941144121 ], [ 117.314954994668099, 42.409335924450332 ], [ 117.314955062249638, 42.409349433279942 ], [ 117.314961138620234, 42.40934941658584 ], [ 117.314961183675479, 42.409358422472224 ] ] ] } },
{ "type": "Feature", "properties": { "crown_id": 4962, "tree_id": "4966", "top_h_m": 23.63, "H_95_Mean": 24.4335, "DBH": 24.7517, "Carbon_kg": 130.072307, "area_m2": 6.75 }, "geometry": { "type": "Polygon", "coordinates": [ [ [ 117.315040108904242, 42.409344696589912 ], [ 117.315052261644396, 42.40934466319235 ], [ 117.315052126439696, 42.409317645533321 ], [ 117.315027820969775, 42.409317712327095 ], [ 117.315027866034498, 42.409326718213464 ], [ 117.315015713297768, 42.409326751608418 ], [ 117.315015735829277, 42.409331254551617 ], [ 117.315009659460472, 42.409331271248618 ], [ 117.315009704522623, 42.409340277134987 ], [ 117.315021857261968, 42.409340243740651 ], [ 117.315021834730018, 42.409335740797466 ], [ 117.315040063837714, 42.409335690703571 ], [ 117.315040108904242, 42.409344696589912 ] ] ] } },
{ "type": "Feature", "properties": { "crown_id": 5028, "tree_id": "5032", "top_h_m": 21.381, "H_95_Mean": 21.6714, "DBH": 30.3304, "Carbon_kg": 182.508921, "area_m2": 18.5 }, "geometry": { "type": "Polygon", "coordinates": [ [ [ 117.314833534836637, 42.40934976709454 ], [ 117.314845687578043, 42.409349733718884 ], [ 117.31484566505867, 42.409345230775621 ], [ 117.314857817799179, 42.409345197398686 ], [ 117.314857772758742, 42.409336191512196 ], [ 117.314863849128102, 42.409336174823245 ], [ 117.314863759045551, 42.409318163050216 ], [ 117.314851606310285, 42.409318196427776 ], [ 117.314851561270757, 42.409309190541229 ], [ 117.314845484903984, 42.409309207229519 ], [ 117.314845417346078, 42.409295698399681 ], [ 117.314821111884143, 42.409295765149587 ], [ 117.314821134401697, 42.409300268092878 ], [ 117.314815058035748, 42.409300284779562 ], [ 117.314815103070032, 42.409309290666144 ], [ 117.314809026703216, 42.409309307352501 ], [ 117.314809071736633, 42.409318313239083 ], [ 117.314815148104316, 42.409318296552719 ], [ 117.314815238172969, 42.409336308325834 ], [ 117.314821314542385, 42.409336291639129 ], [ 117.314821359577621, 42.409345297525654 ], [ 117.31483351231816, 42.409345264151291 ], [ 117.314833534836637, 42.40934976709454 ] ] ] } },
{ "type": "Feature", "properties": { "crown_id": 5029, "tree_id": "5033", "top_h_m": 20.95, "H_95_Mean": 20.8964, "DBH": 28.9464, "Carbon_kg": 162.573035, "area_m2": 16.5 }, "geometry": { "type": "Polygon", "coordinates": [ [ [ 117.31486992549749, 42.409336158133961 ], [ 117.314876001866836, 42.409336141444378 ], [ 117.314875979345317, 42.409331638501129 ], [ 117.314894208452074, 42.409331588430419 ], [ 117.3148942309749, 42.409336091373653 ], [ 117.314900307344246, 42.40933607468277 ], [ 117.314900262297741, 42.409327068796294 ], [ 117.314906338666219, 42.409327052105091 ], [ 117.314906316142526, 42.409322549161857 ], [ 117.314912392510564, 42.409322532470341 ], [ 117.314912369986459, 42.409318029527093 ], [ 117.314918446354042, 42.409318012835257 ], [ 117.314918378780433, 42.409304504005519 ], [ 117.314906226047867, 42.409304537388863 ], [ 117.314906203524217, 42.409300034445621 ], [ 117.314900127158367, 42.409300051136796 ], [ 117.314900104635157, 42.409295548193533 ], [ 117.314894028269705, 42.409295564884395 ], [ 117.314894005746922, 42.409291061941119 ], [ 117.314887929381939, 42.409291078631654 ], [ 117.314887906859582, 42.40928657568837 ], [ 117.314881830495025, 42.409286592378592 ], [ 117.314881853016928, 42.409291095321862 ], [ 117.314875776651903, 42.409291112011758 ], [ 117.314875799173393, 42.409295614955035 ], [ 117.314869722807941, 42.409295631644611 ], [ 117.314869745328963, 42.409300134587887 ], [ 117.314851516231272, 42.409300184654683 ], [ 117.314851538751029, 42.40930468759796 ], [ 117.314857615117361, 42.409304670909329 ], [ 117.314857660157742, 42.409313676795897 ], [ 117.314869812892113, 42.40931364341769 ], [ 117.31486992549749, 42.409336158133961 ] ] ] } },
{ "type": "Feature", "properties": { "crown_id": 5038, "tree_id": "5042", "top_h_m": 21.93, "H_95_Mean": 21.9086, "DBH": 23.2856, "Carbon_kg": 107.825331, "area_m2": 6.5 }, "geometry": { "type": "Polygon", "coordinates": [ [ [ 117.314973133662122, 42.409317862594222 ], [ 117.314979210029662, 42.40931784589916 ], [ 117.314979187500768, 42.409313342955947 ], [ 117.314991340234954, 42.409313309564872 ], [ 117.314991272645713, 42.409299800735219 ], [ 117.314979119914142, 42.40929983412628 ], [ 117.31497907485641, 42.409290828239818 ], [ 117.314972998491498, 42.409290844934866 ], [ 117.314972975963073, 42.409286341991624 ], [ 117.314966899598573, 42.409286358686337 ], [ 117.314966922126558, 42.409290861629572 ], [ 117.314960845761632, 42.409290878323979 ], [ 117.314960890816721, 42.409299884210455 ], [ 117.314954814450928, 42.409299900904543 ], [ 117.314954791923796, 42.409295397961309 ], [ 117.314948715558401, 42.409295414655062 ], [ 117.314948760611799, 42.409304420541531 ], [ 117.31495483697806, 42.409304403847777 ], [ 117.314954859505193, 42.409308906791004 ], [ 117.314967012238554, 42.409308873402509 ], [ 117.314967034766539, 42.409313376345736 ], [ 117.314973111133668, 42.409313359651009 ], [ 117.314973133662122, 42.409317862594222 ] ] ] } },
{ "type": "Feature", "properties": { "crown_id": 5053, "tree_id": "5057", "top_h_m": 23.216, "H_95_Mean": 22.6062, "DBH": 31.968, "Carbon_kg": 208.046414, "area_m2": 21.0 }, "geometry": { "type": "Polygon", "coordinates": [ [ [ 117.315015690766259, 42.409322248665234 ], [ 117.315021767134198, 42.409322231967906 ], [ 117.315021722070355, 42.40931322608153 ], [ 117.3150521039056, 42.409313142590136 ], [ 117.315052058837423, 42.40930413670376 ], [ 117.315058135203586, 42.409304120004521 ], [ 117.315058090134556, 42.409295114118144 ], [ 117.315052013769261, 42.40929513081737 ], [ 117.315051968701113, 42.409286124930958 ], [ 117.315045892336684, 42.409286141629877 ], [ 117.315045869803058, 42.409281638686664 ], [ 117.315039793439041, 42.409281655385243 ], [ 117.315039748372669, 42.409272649498803 ], [ 117.315027595646399, 42.409272682894986 ], [ 117.315027573114079, 42.409268179951759 ], [ 117.315015420388633, 42.40926821334665 ], [ 117.315015465451523, 42.409277219233111 ], [ 117.315003312724343, 42.409277252626737 ], [ 117.3150033352549, 42.409281755569971 ], [ 117.314991182526839, 42.409281788962296 ], [ 117.314991205056543, 42.409286291905531 ], [ 117.314985128692058, 42.409286308601217 ], [ 117.314985173750642, 42.409295314487679 ], [ 117.314997326481333, 42.409295281095972 ], [ 117.314997416602054, 42.409313292868845 ], [ 117.315009569336198, 42.409313259475823 ], [ 117.315009591867252, 42.409317762419029 ], [ 117.31501566823475, 42.409317745722035 ], [ 117.315015690766259, 42.409322248665234 ] ] ] } },
{ "type": "Feature", "properties": { "crown_id": 5112, "tree_id": "5116", "top_h_m": 20.79, "H_95_Mean": 20.8071, "DBH": 26.1737, "Carbon_kg": 132.376898, "area_m2": 11.25 }, "geometry": { "type": "MultiPolygon", "coordinates": [ [ [ [ 117.314851493711544, 42.409295681711392 ], [ 117.314863646442475, 42.40929564833386 ], [ 117.31486362392188, 42.409291145390576 ], [ 117.314869700286891, 42.409291128701327 ], [ 117.31486967776587, 42.409286625758043 ], [ 117.314875754130455, 42.409286609068474 ], [ 117.314875731608993, 42.40928210612519 ], [ 117.314881807973137, 42.409282089435308 ], [ 117.314881740407472, 42.409268580605442 ], [ 117.314851358593245, 42.409268664051616 ], [ 117.314851381112945, 42.409273166994915 ], [ 117.314820999296401, 42.409273250433039 ], [ 117.314821089366575, 42.409291262206281 ], [ 117.314851471191801, 42.4092911787681 ], [ 117.314851493711544, 42.409295681711392 ] ] ], [ [ [ 117.314881740407472, 42.409268580605442 ], [ 117.314887816770323, 42.409268563915241 ], [ 117.314887794248008, 42.409264060971957 ], [ 117.314881717885612, 42.409264077662144 ], [ 117.314881740407472, 42.409268580605442 ] ] ] ] } },
{ "type": "Feature", "properties": { "crown_id": 5113, "tree_id": "5117", "top_h_m": 20.358, "H_95_Mean": 20.423, "DBH": 26.928, "Carbon_kg": 138.642118, "area_m2": 13.0 }, "geometry": { "type": "Polygon", "coordinates": [ [ [ 117.314924455146723, 42.409304487313378 ], [ 117.314930531513014, 42.409304470620889 ], [ 117.314930508987615, 42.409299967677654 ], [ 117.314942661719272, 42.409299934291738 ], [ 117.314942616666755, 42.409290928405248 ], [ 117.314948693031724, 42.409290911711807 ], [ 117.314948670505046, 42.409286408768565 ], [ 117.314942594140518, 42.409286425461985 ], [ 117.314942571614282, 42.409281922518737 ], [ 117.31493649525018, 42.409281939211844 ], [ 117.314936472724398, 42.409277436268589 ], [ 117.314930396360737, 42.409277452961369 ], [ 117.314930351310011, 42.40926844707483 ], [ 117.314924274947202, 42.409268463767283 ], [ 117.314924252422287, 42.409263960823999 ], [ 117.314906023335183, 42.409264010899427 ], [ 117.314906045858777, 42.409268513842711 ], [ 117.314893893133146, 42.40926854722472 ], [ 117.314893915655887, 42.409273050168004 ], [ 117.314887839292624, 42.409273066858525 ], [ 117.314887884337267, 42.409282072745107 ], [ 117.314893960701397, 42.409282056054572 ], [ 117.314893983224167, 42.409286558997849 ], [ 117.314900059588723, 42.409286542306994 ], [ 117.314900082111933, 42.409291045250264 ], [ 117.31490615847693, 42.409291028559082 ], [ 117.314906181000566, 42.409295531502352 ], [ 117.314912257365989, 42.40929551481085 ], [ 117.314912279890066, 42.409300017754113 ], [ 117.314924432621751, 42.409299984370122 ], [ 117.314924455146723, 42.409304487313378 ] ] ] } },
{ "type": "Feature", "properties": { "crown_id": 5143, "tree_id": "5147", "top_h_m": 19.935, "H_95_Mean": 20.9269, "DBH": 22.3211, "Carbon_kg": 96.364425, "area_m2": 6.0 }, "geometry": { "type": "MultiPolygon", "coordinates": [ [ [ [ 117.314954566652844, 42.40925036852871 ], [ 117.314960643013862, 42.409250351834658 ], [ 117.314960597958859, 42.409241345948104 ], [ 117.314954521598708, 42.409241362642149 ], [ 117.314954566652844, 42.40925036852871 ] ] ], [ [ [ 117.314954566652844, 42.40925036852871 ], [ 117.314948490291798, 42.409250385222443 ], [ 117.314948512818418, 42.409254888165719 ], [ 117.314942436456946, 42.409254904859125 ], [ 117.314942458983154, 42.409259407802409 ], [ 117.314930306259313, 42.409259441188269 ], [ 117.314930328784655, 42.409263944131553 ], [ 117.314936405147023, 42.409263927438772 ], [ 117.314936450198587, 42.409272933325319 ], [ 117.314942526561822, 42.409272916632219 ], [ 117.314942549088045, 42.409277419575474 ], [ 117.314948625451706, 42.409277402882054 ], [ 117.314948647978383, 42.409281905825317 ], [ 117.314954724342456, 42.409281889131563 ], [ 117.31495474686956, 42.409286392074819 ], [ 117.31496082323406, 42.409286375380738 ], [ 117.314960733123939, 42.409268363607715 ], [ 117.314966809486691, 42.409268346913336 ], [ 117.314966786958735, 42.409263843970081 ], [ 117.314954634234056, 42.409263877358519 ], [ 117.314954566652844, 42.40925036852871 ] ] ] ] } },
{ "type": "Feature", "properties": { "crown_id": 5153, "tree_id": "5157", "top_h_m": 21.32, "H_95_Mean": 22.255, "DBH": 29.2222, "Carbon_kg": 172.000243, "area_m2": 15.25 }, "geometry": { "type": "Polygon", "coordinates": [ [ [ 117.314966877070603, 42.409281855743096 ], [ 117.314985106162794, 42.409281805657983 ], [ 117.314985083633502, 42.409277302714735 ], [ 117.314997236360725, 42.409277269323063 ], [ 117.314997213830594, 42.409272766379807 ], [ 117.315009366556936, 42.40927273298685 ], [ 117.315009321494912, 42.409263727100374 ], [ 117.315015397857195, 42.409263710403408 ], [ 117.315015352794362, 42.409254704516933 ], [ 117.315009276432932, 42.409254721213884 ], [ 117.315009231370965, 42.40924571532738 ], [ 117.315003155010402, 42.409245732024004 ], [ 117.315003109949345, 42.409236726137472 ], [ 117.314990957229952, 42.409236759529747 ], [ 117.314990934700276, 42.409232256586485 ], [ 117.31498485834102, 42.409232273282129 ], [ 117.314984880870242, 42.409236776225406 ], [ 117.314978804510545, 42.409236792920737 ], [ 117.314978827039326, 42.409241295864014 ], [ 117.31496667431901, 42.409241329253724 ], [ 117.314966741902822, 42.409254838083548 ], [ 117.314960665541378, 42.409254854777934 ], [ 117.314960688068879, 42.409259357721197 ], [ 117.314972840792677, 42.409259324332119 ], [ 117.314972908377868, 42.409272833161879 ], [ 117.314966832014662, 42.409272849856592 ], [ 117.314966877070603, 42.409281855743096 ] ] ] } },
{ "type": "Feature", "properties": { "crown_id": 5187, "tree_id": "5191", "top_h_m": 19.401, "H_95_Mean": 19.3878, "DBH": 23.1818, "Carbon_kg": 99.405837, "area_m2": 8.0 }, "geometry": { "type": "Polygon", "coordinates": [ [ [ 117.314893870610405, 42.409264044281436 ], [ 117.314899946972787, 42.409264027590588 ], [ 117.314899924449634, 42.409259524647304 ], [ 117.3149242298974, 42.409259457880722 ], [ 117.314924207372485, 42.409254954937438 ], [ 117.314936360095459, 42.409254921552225 ], [ 117.314936337569705, 42.409250418608934 ], [ 117.314942413930751, 42.409250401915841 ], [ 117.314942391404529, 42.409245898972571 ], [ 117.314948467765149, 42.409245882279158 ], [ 117.314948445238528, 42.409241379335874 ], [ 117.31493021615799, 42.409241429415125 ], [ 117.314930193632662, 42.40923692647182 ], [ 117.314899811833826, 42.409237009930791 ], [ 117.314899901926438, 42.409255021703999 ], [ 117.314893825564937, 42.409255038394839 ], [ 117.314893870610405, 42.409264044281436 ] ] ] } },
{ "type": "Feature", "properties": { "crown_id": 5206, "tree_id": "5210", "top_h_m": 23.4, "H_95_Mean": 23.6408, "DBH": 34.5803, "Carbon_kg": 250.270707, "area_m2": 26.25 }, "geometry": { "type": "Polygon", "coordinates": [ [ [ 117.314833129504606, 42.409268714115441 ], [ 117.314845282230365, 42.409268680739878 ], [ 117.314845259711092, 42.409264177796565 ], [ 117.314875641523187, 42.409264094352025 ], [ 117.314875619001754, 42.409259591408734 ], [ 117.314887771725708, 42.409259558028651 ], [ 117.314887726681121, 42.409250552142048 ], [ 117.31489380304221, 42.409250535451541 ], [ 117.314893757996757, 42.409241529564923 ], [ 117.314881605276312, 42.409241562945603 ], [ 117.314881582754481, 42.40923706000229 ], [ 117.314875506394685, 42.409237076692165 ], [ 117.314875461351875, 42.409228070805504 ], [ 117.314869384992932, 42.409228087495045 ], [ 117.314869362471981, 42.409223584551697 ], [ 117.314863286113493, 42.40922360124091 ], [ 117.314863218551935, 42.409210092410888 ], [ 117.314857142194739, 42.40921010909976 ], [ 117.314857119674656, 42.409205606156405 ], [ 117.314844966961118, 42.409205639533198 ], [ 117.314844989480306, 42.409210142476546 ], [ 117.314832836765873, 42.40921017585206 ], [ 117.314832881802531, 42.409219181738756 ], [ 117.31482680544444, 42.409219198426037 ], [ 117.31482689551612, 42.409237210199436 ], [ 117.314820819156267, 42.409237226886404 ], [ 117.31482084167375, 42.409241729829745 ], [ 117.314814765313471, 42.409241746516379 ], [ 117.314814787830556, 42.409246249459727 ], [ 117.314820864191262, 42.409246232773086 ], [ 117.314820886708773, 42.409250735716412 ], [ 117.314826963069933, 42.409250719029451 ], [ 117.314827008105823, 42.409259724916105 ], [ 117.314833084467836, 42.409259708228809 ], [ 117.314833129504606, 42.409268714115441 ] ] ] } },
{ "type": "Feature", "properties": { "crown_id": 5284, "tree_id": "5290", "top_h_m": 23.29, "H_95_Mean": 22.7302, "DBH": 35.867, "Carbon_kg": 263.207777, "area_m2": 32.5 }, "geometry": { "type": "Polygon", "coordinates": [ [ [ 117.314887659114277, 42.409237043312118 ], [ 117.314893735474044, 42.409237026621618 ], [ 117.314893712951346, 42.409232523678298 ], [ 117.314936247466676, 42.40923240683577 ], [ 117.314936269992415, 42.409236909779068 ], [ 117.314960575431371, 42.40923684300482 ], [ 117.314960507848937, 42.409223334174939 ], [ 117.31496658420734, 42.409223317480581 ], [ 117.314966494095756, 42.409205305707381 ], [ 117.314972570452426, 42.409205289012711 ], [ 117.314972525395802, 42.409196283126093 ], [ 117.314978601751605, 42.40919626643111 ], [ 117.314978579222839, 42.40919176348779 ], [ 117.314929968379744, 42.409191897038667 ], [ 117.314929990905028, 42.409196399982008 ], [ 117.314899609125746, 42.409196483440844 ], [ 117.314899586602664, 42.409191980497489 ], [ 117.314881357536322, 42.409192030568924 ], [ 117.314881380058111, 42.409196533512279 ], [ 117.314875303702223, 42.409196550202111 ], [ 117.314875326223586, 42.409201053145466 ], [ 117.314863173510929, 42.409201086524178 ], [ 117.314863196031453, 42.40920558946754 ], [ 117.314869272388194, 42.409205572778333 ], [ 117.314869339951045, 42.40921908160837 ], [ 117.314875416309107, 42.409219064918844 ], [ 117.314875438830484, 42.409223567862171 ], [ 117.314881515188986, 42.409223551172325 ], [ 117.314881560232635, 42.409232557058971 ], [ 117.314887636592005, 42.409232540368798 ], [ 117.314887659114277, 42.409237043312118 ] ], [ [ 117.314899721741298, 42.409218998157513 ], [ 117.314899654171938, 42.409205489327526 ], [ 117.31491788324216, 42.409205439253164 ], [ 117.314917950815399, 42.409218948083137 ], [ 117.314899721741298, 42.409218998157513 ] ] ] } },
{ "type": "Feature", "properties": { "crown_id": 5285, "tree_id": "5291", "top_h_m": 21.692, "H_95_Mean": 22.1679, "DBH": 34.944, "Carbon_kg": 246.061769, "area_m2": 30.75 }, "geometry": { "type": "Polygon", "coordinates": [ [ [ 117.315033649476774, 42.409268163253827 ], [ 117.315039725839512, 42.409268146555583 ], [ 117.315039703306311, 42.409263643612348 ], [ 117.31504577966858, 42.409263626913777 ], [ 117.315045689534216, 42.40924561514084 ], [ 117.315027460452626, 42.409245665235552 ], [ 117.315027392855782, 42.4092321564058 ], [ 117.315039545574265, 42.409232123009659 ], [ 117.315039523041136, 42.409227620066396 ], [ 117.315033446682321, 42.409227636764633 ], [ 117.315033334018935, 42.40920512204827 ], [ 117.315039410375547, 42.409205105350061 ], [ 117.31503936530936, 42.409196099463507 ], [ 117.315051518020837, 42.409196066066116 ], [ 117.315051495486884, 42.409191563122839 ], [ 117.315039342776245, 42.409191596520223 ], [ 117.315039320243159, 42.409187093576918 ], [ 117.315033243888294, 42.40918711027512 ], [ 117.315033198823002, 42.409178104388531 ], [ 117.315027122469004, 42.409178121086413 ], [ 117.315027145001196, 42.409182624029711 ], [ 117.315014992292262, 42.409182657424509 ], [ 117.315015014823615, 42.409187160367814 ], [ 117.315002862113815, 42.409187193761326 ], [ 117.315002884644272, 42.409191696704625 ], [ 117.314996808288925, 42.409191713400908 ], [ 117.314996830818984, 42.409196216344206 ], [ 117.314984678107407, 42.409196249735793 ], [ 117.314984700636572, 42.409200752679098 ], [ 117.314978624280343, 42.409200769374415 ], [ 117.314978669337862, 42.409209775261019 ], [ 117.314972592980752, 42.409209791956023 ], [ 117.314972683094112, 42.409227803729202 ], [ 117.314966606735254, 42.409227820423872 ], [ 117.314966651791096, 42.409236826310448 ], [ 117.314972728150821, 42.409236809615756 ], [ 117.314972705622466, 42.409232306672479 ], [ 117.314978781981722, 42.409232289977474 ], [ 117.314978759452941, 42.409227787034183 ], [ 117.314996988529458, 42.409227736947237 ], [ 117.314997011059546, 42.4092322398905 ], [ 117.315009163778072, 42.409232206497592 ], [ 117.315009208839996, 42.40924121238411 ], [ 117.315015285200118, 42.409241195687166 ], [ 117.315015330262938, 42.40925020157367 ], [ 117.315021406623927, 42.409250184876399 ], [ 117.315021474219492, 42.409263693706137 ], [ 117.315033626944057, 42.409263660310593 ], [ 117.315033649476774, 42.409268163253827 ] ] ] } }
]
}
