{
"type": "FeatureCollection",
"name": "tile_21_22",
"crs": { "type": "name", "properties": { "name": "urn:ogc:def:crs:OGC:1.3:CRS84" } },
"features": [
{ "type": "Feature", "properties": { "crown_id": 8094, "tree_id": "8101", "top_h_m": 21.797, "H_95_Mean": 22.0944, "DBH": 34.1354, "Carbon_kg": 234.260097, "area_m2": 28.25 }, "geometry": { "type": "Polygon", "coordinates": [ [ [ 117.315238926718095, 42.407790613082945 ], [ 117.31524500293807, 42.407790596374284 ], [ 117.315244935298011, 42.407777087541355 ], [ 117.315269240172697, 42.407777020703513 ], [ 117.315269217624262, 42.407772517759213 ], [ 117.315281370060717, 42.407772484338352 ], [ 117.315281257314382, 42.407749969616809 ], [ 117.315287333530421, 42.40774995290591 ], [ 117.315287310980708, 42.407745449961595 ], [ 117.31529338719632, 42.40774543325039 ], [ 117.315293364646209, 42.407740930306062 ], [ 117.315287288431037, 42.407740947017274 ], [ 117.315287265881366, 42.407736444072953 ], [ 117.315281189666649, 42.407736460783831 ], [ 117.315281144568161, 42.407727454895173 ], [ 117.31527506835431, 42.407727471605725 ], [ 117.315275045805507, 42.407722968661396 ], [ 117.31525074095174, 42.407723035500403 ], [ 117.315250831139949, 42.407741047277774 ], [ 117.315244754924763, 42.407741063986741 ], [ 117.31524480001805, 42.407750069875419 ], [ 117.315226571369806, 42.407750120000379 ], [ 117.315226593915156, 42.407754622944715 ], [ 117.315208365265576, 42.407754673066776 ], [ 117.315208410353677, 42.407763678955462 ], [ 117.315202334136259, 42.407763695662169 ], [ 117.31520235667989, 42.407768198606526 ], [ 117.315196280462047, 42.407768215312913 ], [ 117.315196303005223, 42.407772718257263 ], [ 117.315202379223535, 42.407772701550861 ], [ 117.315202401767152, 42.40777720449519 ], [ 117.315220630423269, 42.407777154374052 ], [ 117.315220652968222, 42.407781657318374 ], [ 117.315232805406453, 42.407781623902672 ], [ 117.315232827952286, 42.407786126846979 ], [ 117.315238904171835, 42.407786110138652 ], [ 117.315238926718095, 42.407790613082945 ] ] ] } },
{ "type": "Feature", "properties": { "crown_id": 8102, "tree_id": "8109", "top_h_m": 20.959, "H_95_Mean": 21.8401, "DBH": 32.1074, "Carbon_kg": 205.642537, "area_m2": 22.75 }, "geometry": { "type": "MultiPolygon", "coordinates": [ [ [ [ 117.31508695361066, 42.407777521861767 ], [ 117.31509302982947, 42.407777505161164 ], [ 117.315093007293669, 42.407773002216778 ], [ 117.315086931075285, 42.407773018917382 ], [ 117.31508695361066, 42.407777521861767 ] ] ], [ [ [ 117.315093007293669, 42.407773002216778 ], [ 117.315147693258794, 42.407772851896858 ], [ 117.315147670719085, 42.407768348952501 ], [ 117.315141594501199, 42.407768365655997 ], [ 117.315141526883394, 42.407754856822891 ], [ 117.315135450666787, 42.407754873526059 ], [ 117.315135292895093, 42.407723352915326 ], [ 117.315104911827277, 42.407723436426245 ], [ 117.315104934363902, 42.407727939370659 ], [ 117.315098858149867, 42.407727956071881 ], [ 117.31509890322225, 42.407736961960701 ], [ 117.31508675079246, 42.407736995362193 ], [ 117.31508677332782, 42.407741498306592 ], [ 117.315074620897121, 42.407741531706804 ], [ 117.315074688500545, 42.407755040540039 ], [ 117.315080764717194, 42.407755023840089 ], [ 117.3150807872521, 42.407759526784488 ], [ 117.315092939686267, 42.407759493383615 ], [ 117.315093007293669, 42.407773002216778 ] ] ] ] } },
{ "type": "Feature", "properties": { "crown_id": 8116, "tree_id": "8123", "top_h_m": 21.186, "H_95_Mean": 22.1548, "DBH": 36.8924, "Carbon_kg": 274.401132, "area_m2": 38.0 }, "geometry": { "type": "Polygon", "coordinates": [ [ [ 117.31515379201727, 42.407777338137407 ], [ 117.315159868236037, 42.407777321433237 ], [ 117.315159845695447, 42.407772818488894 ], [ 117.315190226786953, 42.407772734963345 ], [ 117.315190181701439, 42.407763729074645 ], [ 117.315196257918856, 42.40776371236857 ], [ 117.315196235375666, 42.407759209424228 ], [ 117.315202311592643, 42.407759192717826 ], [ 117.315202266505437, 42.407750186829148 ], [ 117.315220495153724, 42.407750136708053 ], [ 117.315220472608829, 42.407745633763689 ], [ 117.31523870125578, 42.407745583639723 ], [ 117.315238656163373, 42.407736577751038 ], [ 117.315244732378133, 42.407736561042398 ], [ 117.315244664738273, 42.407723052209349 ], [ 117.315220359884378, 42.407723119041911 ], [ 117.315220382429246, 42.407727621986275 ], [ 117.315214306215339, 42.407727638693615 ], [ 117.315214283670883, 42.407723135749251 ], [ 117.315196055030412, 42.40772318586933 ], [ 117.315196032487265, 42.407718682924951 ], [ 117.315189956274182, 42.407718699631005 ], [ 117.31518991118881, 42.407709693742234 ], [ 117.315165606339946, 42.407709760563165 ], [ 117.315165628880891, 42.407714263507565 ], [ 117.315159552668248, 42.407714280211998 ], [ 117.315159575208753, 42.407718783156398 ], [ 117.315141346569419, 42.407718833267779 ], [ 117.315141504344126, 42.407750353878512 ], [ 117.315147580560264, 42.407750337175031 ], [ 117.315147648179362, 42.40776384600813 ], [ 117.315153724396822, 42.407763829304315 ], [ 117.31515379201727, 42.407777338137407 ] ] ] } },
{ "type": "Feature", "properties": { "crown_id": 8156, "tree_id": "8163", "top_h_m": 21.01, "H_95_Mean": 21.059, "DBH": 30.8199, "Carbon_kg": 185.32532, "area_m2": 20.75 }, "geometry": { "type": "Polygon", "coordinates": [ [ [ 117.315104889290652, 42.407718933481839 ], [ 117.315135270356308, 42.407718849970919 ], [ 117.315135247817523, 42.407714347026513 ], [ 117.315153476455563, 42.407714296916119 ], [ 117.315153453915485, 42.407709793971705 ], [ 117.31515953012773, 42.407709777267605 ], [ 117.315159462506188, 42.407696268434371 ], [ 117.315153386295265, 42.407696285138478 ], [ 117.315153363755201, 42.407691782194064 ], [ 117.315141211334193, 42.407691815601289 ], [ 117.315141166255813, 42.407682809712441 ], [ 117.315104708997879, 42.407682909926358 ], [ 117.315104686461311, 42.407678406981915 ], [ 117.315092534042847, 42.407678440383968 ], [ 117.315092556578563, 42.407682943328432 ], [ 117.315080404159175, 42.407682976729205 ], [ 117.315080449228859, 42.407691982618118 ], [ 117.315086525439398, 42.407691965917877 ], [ 117.315086615580569, 42.407709977695646 ], [ 117.31509269179287, 42.407709960995078 ], [ 117.3150927143286, 42.407714463939506 ], [ 117.315104866754027, 42.407714430537411 ], [ 117.315104889290652, 42.407718933481839 ] ], [ [ 117.315092579114264, 42.407687446272888 ], [ 117.315092556578563, 42.407682943328432 ], [ 117.315098632788235, 42.407682926627565 ], [ 117.315098655324377, 42.407687429572 ], [ 117.315092579114264, 42.407687446272888 ] ] ] } },
{ "type": "Feature", "properties": { "crown_id": 8168, "tree_id": "8175", "top_h_m": 24.16, "H_95_Mean": 26.834, "DBH": 40.7681, "Carbon_kg": 375.876268, "area_m2": 39.5 }, "geometry": { "type": "Polygon", "coordinates": [ [ [ 117.315202108700333, 42.407718666218585 ], [ 117.315262870830708, 42.407718499137189 ], [ 117.315262758091208, 42.40769598441539 ], [ 117.31526883430206, 42.407695967705493 ], [ 117.315268744108806, 42.407677955928001 ], [ 117.315250515481509, 42.407678006056692 ], [ 117.315250470387497, 42.407669000167914 ], [ 117.315244394179274, 42.407669016876824 ], [ 117.315244349086157, 42.40766001098801 ], [ 117.31522004425662, 42.407660077820445 ], [ 117.315220021711795, 42.407655574876017 ], [ 117.315207869297865, 42.407655608290305 ], [ 117.315207914385738, 42.40766461417914 ], [ 117.315201838177899, 42.407664630885812 ], [ 117.315201905808422, 42.407678139719046 ], [ 117.315177600971779, 42.407678206542485 ], [ 117.315177646055346, 42.407687212431327 ], [ 117.315171569845319, 42.407687229136386 ], [ 117.315171592386676, 42.407691732080799 ], [ 117.315165516176179, 42.407691748785538 ], [ 117.315165583799001, 42.407705257618773 ], [ 117.315195964857892, 42.407705174091802 ], [ 117.315196009944131, 42.407714179980566 ], [ 117.315202086156759, 42.4077141632742 ], [ 117.315202108700333, 42.407718666218585 ] ] ] } },
{ "type": "Feature", "properties": { "crown_id": 8199, "tree_id": "8206", "top_h_m": 22.862, "H_95_Mean": 23.0196, "DBH": 29.8158, "Carbon_kg": 182.729338, "area_m2": 15.5 }, "geometry": { "type": "Polygon", "coordinates": [ [ [ 117.315147265005095, 42.407687295953409 ], [ 117.315165493635263, 42.407687245841124 ], [ 117.315165471094346, 42.407682742896711 ], [ 117.315171547303962, 42.407682726191965 ], [ 117.315171502221261, 42.407673720303123 ], [ 117.315195807056199, 42.407673653480977 ], [ 117.315195739426969, 42.407660144647714 ], [ 117.315201815634381, 42.407660127941377 ], [ 117.31520177054739, 42.407651122052535 ], [ 117.315195694340844, 42.407651138758865 ], [ 117.315195649254761, 42.407642132869974 ], [ 117.315177420637681, 42.407642182987011 ], [ 117.315177443179422, 42.407646685931468 ], [ 117.315165290767141, 42.407646719341223 ], [ 117.315165335848917, 42.407655725230114 ], [ 117.315159259641902, 42.407655741934505 ], [ 117.315159282182378, 42.407660244878947 ], [ 117.315141053559984, 42.407660294990222 ], [ 117.315141098638321, 42.407669300879128 ], [ 117.31513502242997, 42.40766931758224 ], [ 117.315135067507427, 42.407678323471124 ], [ 117.315147219925848, 42.40767829006456 ], [ 117.315147265005095, 42.407687295953409 ] ] ] } },
{ "type": "Feature", "properties": { "crown_id": 8233, "tree_id": "8241", "top_h_m": 22.852, "H_95_Mean": 22.7958, "DBH": 29.4292, "Carbon_kg": 176.95993, "area_m2": 15.0 }, "geometry": { "type": "Polygon", "coordinates": [ [ [ 117.315274842866629, 42.407682442162162 ], [ 117.315286995285675, 42.407682408740776 ], [ 117.315286950186476, 42.407673402852033 ], [ 117.315293026395111, 42.407673386140857 ], [ 117.315292958745047, 42.407659877307722 ], [ 117.31531118736703, 42.407659827172296 ], [ 117.315311142264392, 42.407650821283532 ], [ 117.315323294677285, 42.407650787858323 ], [ 117.315323249572927, 42.407641781969559 ], [ 117.315311097161768, 42.407641815394754 ], [ 117.315311074610477, 42.407637312450376 ], [ 117.31530499840531, 42.407637329162476 ], [ 117.31530497585446, 42.407632826218084 ], [ 117.315298899649747, 42.407632842929893 ], [ 117.315298922200171, 42.407637345874285 ], [ 117.31528676978985, 42.407637379296908 ], [ 117.315286792339393, 42.407641882241307 ], [ 117.315280716133785, 42.407641898952143 ], [ 117.315280738682929, 42.40764640189655 ], [ 117.315274662476867, 42.407646418607058 ], [ 117.315274685025571, 42.407650921551458 ], [ 117.315262532612607, 42.40765095497153 ], [ 117.315262555160444, 42.407655457915922 ], [ 117.315256478953501, 42.407655474625486 ], [ 117.315256501500912, 42.407659977569871 ], [ 117.315250425293542, 42.407659994279101 ], [ 117.315250447840526, 42.407664497223514 ], [ 117.315256524048337, 42.407664480514278 ], [ 117.315256569143159, 42.407673486403063 ], [ 117.315274797769163, 42.407673436273413 ], [ 117.315274842866629, 42.407682442162162 ] ] ] } },
{ "type": "Feature", "properties": { "crown_id": 8239, "tree_id": "8247", "top_h_m": 22.099, "H_95_Mean": 22.3139, "DBH": 37.9256, "Carbon_kg": 291.340501, "area_m2": 41.75 }, "geometry": { "type": "Polygon", "coordinates": [ [ [ 117.315110762670557, 42.407678390280402 ], [ 117.315128991298238, 42.407678340173923 ], [ 117.315128923683332, 42.40766483134059 ], [ 117.315134999891228, 42.407664814637798 ], [ 117.315134954813786, 42.407655808748892 ], [ 117.315153183434873, 42.407655758638583 ], [ 117.315153160894866, 42.407651255694141 ], [ 117.31515923710144, 42.40765123899007 ], [ 117.315159214561007, 42.407646736045621 ], [ 117.315147062148696, 42.407646769453436 ], [ 117.315147017069577, 42.407637763564516 ], [ 117.315140940864282, 42.407637780267933 ], [ 117.315140873246904, 42.407624271434514 ], [ 117.31513479704293, 42.407624288137612 ], [ 117.315134751965573, 42.407615282248635 ], [ 117.315110447153018, 42.407615349057778 ], [ 117.315110492226893, 42.407624354946755 ], [ 117.315092263614815, 42.407624405050235 ], [ 117.315092241079185, 42.407619902105736 ], [ 117.315086164875595, 42.407619918806262 ], [ 117.315086187410785, 42.407624421750761 ], [ 117.315074035002709, 42.407624455150824 ], [ 117.315074057537046, 42.407628958095323 ], [ 117.315061905128076, 42.407628991494114 ], [ 117.315061927661532, 42.40763349443862 ], [ 117.315019394226937, 42.407633611324229 ], [ 117.315019439287809, 42.407642617213277 ], [ 117.315025515493645, 42.407642600516283 ], [ 117.315025538024514, 42.40764710346081 ], [ 117.315031614230776, 42.407647086763497 ], [ 117.315031636762114, 42.407651589708003 ], [ 117.315043789175462, 42.407651556312416 ], [ 117.315043856772064, 42.407665065145892 ], [ 117.315049932980031, 42.407665048447612 ], [ 117.315049955512691, 42.40766955139209 ], [ 117.315056031721099, 42.407669534693476 ], [ 117.315056009188041, 42.407665031749012 ], [ 117.315062085396008, 42.407665015050071 ], [ 117.315062107929492, 42.407669517994542 ], [ 117.315074260346307, 42.407669484595715 ], [ 117.315074282880687, 42.407673987540178 ], [ 117.315098587715951, 42.407673920738652 ], [ 117.315098565179824, 42.407669417794189 ], [ 117.315104641388203, 42.407669401093003 ], [ 117.315104663924771, 42.407673904037459 ], [ 117.315110740133548, 42.407673887335946 ], [ 117.315110762670557, 42.407678390280402 ] ], [ [ 117.315068094002157, 42.40765148951737 ], [ 117.315068026400382, 42.407637980683887 ], [ 117.315086255016425, 42.407637930584251 ], [ 117.315086322622093, 42.407651439417705 ], [ 117.315068094002157, 42.40765148951737 ] ], [ [ 117.31509847503537, 42.407651406016321 ], [ 117.315098407427101, 42.40763789718288 ], [ 117.315116636043058, 42.407637847078412 ], [ 117.315116703655264, 42.407651355911831 ], [ 117.31509847503537, 42.407651406016321 ] ], [ [ 117.315037690437023, 42.407647070065863 ], [ 117.315037667905287, 42.407642567121364 ], [ 117.315043744111094, 42.407642550423397 ], [ 117.315043766643285, 42.407647053367917 ], [ 117.315037690437023, 42.407647070065863 ] ] ] } },
{ "type": "Feature", "properties": { "crown_id": 8251, "tree_id": "8259", "top_h_m": 24.15, "H_95_Mean": 23.7148, "DBH": 29.1788, "Carbon_kg": 178.052299, "area_m2": 13.5 }, "geometry": { "type": "Polygon", "coordinates": [ [ [ 117.315226097918782, 42.407655558168408 ], [ 117.315250402746571, 42.407655491334715 ], [ 117.315250380199586, 42.407650988390301 ], [ 117.315256456406104, 42.407650971681072 ], [ 117.315256433858707, 42.407646468736672 ], [ 117.315268586270832, 42.407646435317254 ], [ 117.315268563722555, 42.407641932372847 ], [ 117.315274639928177, 42.407641915662651 ], [ 117.315274617379472, 42.407637412718238 ], [ 117.315280693584668, 42.407637396007729 ], [ 117.315280671035538, 42.40763289306333 ], [ 117.315262442421286, 42.407632943193875 ], [ 117.315262419873491, 42.407628440249461 ], [ 117.315256343669162, 42.407628456958996 ], [ 117.31525632112178, 42.407623954014554 ], [ 117.3152380925101, 42.407624004141233 ], [ 117.315238115056161, 42.407628507085668 ], [ 117.315232038851804, 42.407628523793917 ], [ 117.315232016306183, 42.407624020849475 ], [ 117.31522594010228, 42.407624037557405 ], [ 117.315225985192669, 42.407633043446282 ], [ 117.315219908987885, 42.407633060153891 ], [ 117.315219931532667, 42.407637563098326 ], [ 117.31520777912219, 42.407637596512572 ], [ 117.315207801666091, 42.407642099457014 ], [ 117.31520172546044, 42.407642116163657 ], [ 117.315201748003901, 42.407646619108093 ], [ 117.31520782421002, 42.407646602401449 ], [ 117.31520784675395, 42.407651105345877 ], [ 117.315226075373531, 42.407651055223994 ], [ 117.315226097918782, 42.407655558168408 ] ] ] } },
{ "type": "Feature", "properties": { "crown_id": 8270, "tree_id": "8278", "top_h_m": 23.233, "H_95_Mean": 23.3009, "DBH": 30.1105, "Carbon_kg": 187.731588, "area_m2": 15.75 }, "geometry": { "type": "Polygon", "coordinates": [ [ [ 117.315153115814866, 42.407642249805221 ], [ 117.315171344431974, 42.407642199692049 ], [ 117.315171321890674, 42.407637696747607 ], [ 117.315201702916951, 42.407637613219208 ], [ 117.315201680373477, 42.407633110274773 ], [ 117.315213832783087, 42.407633076861174 ], [ 117.31521381023876, 42.407628573916725 ], [ 117.315219886443117, 42.407628557209442 ], [ 117.315219841353581, 42.407619551320565 ], [ 117.315213765150091, 42.407619568027833 ], [ 117.315213742605764, 42.407615065083391 ], [ 117.315189437793492, 42.40761513190926 ], [ 117.315189415250913, 42.407610628964797 ], [ 117.315159034237624, 42.407610712489877 ], [ 117.315159056778043, 42.407615215434362 ], [ 117.315140828168708, 42.407615265545559 ], [ 117.315140850707792, 42.407619768490036 ], [ 117.315146926911368, 42.407619751786626 ], [ 117.315146994530011, 42.407633260620052 ], [ 117.315153070734851, 42.407633243916308 ], [ 117.315153115814866, 42.407642249805221 ] ] ] } },
{ "type": "Feature", "properties": { "crown_id": 8298, "tree_id": "8306", "top_h_m": 22.302, "H_95_Mean": 23.103, "DBH": 31.0395, "Carbon_kg": 198.584028, "area_m2": 18.0 }, "geometry": { "type": "MultiPolygon", "coordinates": [ [ [ [ 117.315250041995682, 42.407583444223761 ], [ 117.315250109636366, 42.407596953057123 ], [ 117.315244033435093, 42.407596969766004 ], [ 117.315244078528025, 42.407605975654903 ], [ 117.315250154730194, 42.407605958946021 ], [ 117.315250222370949, 42.407619467779341 ], [ 117.315262374777888, 42.407619434360605 ], [ 117.315262397325682, 42.407623937305033 ], [ 117.315268473529557, 42.407623920595171 ], [ 117.315268496077806, 42.407628423539592 ], [ 117.315286724690722, 42.407628373408095 ], [ 117.315286747240265, 42.407632876352501 ], [ 117.315292823445006, 42.407632859641353 ], [ 117.315292800895037, 42.407628356696939 ], [ 117.315298877099309, 42.407628339985472 ], [ 117.315298764347304, 42.407605825263403 ], [ 117.315286611943066, 42.407605858685983 ], [ 117.315286476646008, 42.407578841019344 ], [ 117.315268248047431, 42.40757889115077 ], [ 117.31526827059561, 42.407583394095226 ], [ 117.315250041995682, 42.407583444223761 ] ] ], [ [ [ 117.315250041995682, 42.407583444223761 ], [ 117.315250019448783, 42.407578941279297 ], [ 117.315243943249243, 42.407578957988157 ], [ 117.315243965795702, 42.407583460932628 ], [ 117.315250041995682, 42.407583444223761 ] ] ] ] } },
{ "type": "Feature", "properties": { "crown_id": 8319, "tree_id": "8327", "top_h_m": 23.327, "H_95_Mean": 23.089, "DBH": 32.0879, "Carbon_kg": 212.258571, "area_m2": 20.5 }, "geometry": { "type": "Polygon", "coordinates": [ [ [ 117.315074012468372, 42.407619952206311 ], [ 117.315080088672005, 42.407619935506446 ], [ 117.315080066137227, 42.40761543256194 ], [ 117.315098294746718, 42.407615382460406 ], [ 117.315098317282789, 42.407619885404905 ], [ 117.315104393486379, 42.407619868703748 ], [ 117.315104348413385, 42.407610862814742 ], [ 117.315134729426916, 42.407610779304143 ], [ 117.315134571656387, 42.407579258692621 ], [ 117.315122419257079, 42.407579292097786 ], [ 117.315122396719318, 42.407574789153266 ], [ 117.315110244320849, 42.40757482255713 ], [ 117.315110266857758, 42.407579325501672 ], [ 117.315092038258726, 42.407579375605067 ], [ 117.315092060794299, 42.407583878549602 ], [ 117.315061679793629, 42.40758396204884 ], [ 117.315061702327043, 42.407588464993388 ], [ 117.315067778527634, 42.407588448294185 ], [ 117.315067868663107, 42.407606460072309 ], [ 117.315073944865404, 42.407606443372764 ], [ 117.315074012468372, 42.407619952206311 ] ] ] } }
]
}
