{
"type": "FeatureCollection",
"name": "tile_12_10",
"crs": { "type": "name", "properties": { "name": "urn:ogc:def:crs:OGC:1.3:CRS84" } },
"features": [
{ "type": "Feature", "properties": { "crown_id": 4861, "tree_id": "4865", "top_h_m": 20.025, "H_95_Mean": 21.4299, "DBH": 25.2364, "Carbon_kg": 125.160476, "area_m2": 9.25 }, "geometry": { "type": "Polygon", "coordinates": [ [ [ 117.312178383635114, 42.409402058227613 ], [ 117.312184460012389, 42.409402041680671 ], [ 117.312184415354295, 42.40939303579195 ], [ 117.312190491730718, 42.409393019244682 ], [ 117.312190469401216, 42.409388516300325 ], [ 117.312208698529133, 42.409388466656594 ], [ 117.312208676198352, 42.409383963712237 ], [ 117.312202599822825, 42.409383980260472 ], [ 117.312202488171167, 42.409361465538645 ], [ 117.312172106304303, 42.409361548274902 ], [ 117.31217228492963, 42.409397571829899 ], [ 117.312178361306479, 42.40939755528327 ], [ 117.312178383635114, 42.409402058227613 ] ] ] } },
{ "type": "Feature", "properties": { "crown_id": 4886, "tree_id": "4890", "top_h_m": 21.452, "H_95_Mean": 21.0615, "DBH": 38.4585, "Carbon_kg": 289.585637, "area_m2": 49.0 }, "geometry": { "type": "Polygon", "coordinates": [ [ [ 117.312233160360719, 42.409419921070729 ], [ 117.312263542255565, 42.4094198383182 ], [ 117.312263519920847, 42.4094153353739 ], [ 117.312281749056396, 42.409415285718509 ], [ 117.312281771392406, 42.409419788662817 ], [ 117.312300000529234, 42.409419739004534 ], [ 117.312299978191888, 42.409415236060248 ], [ 117.312293901813391, 42.409415252613321 ], [ 117.312293879476513, 42.409410749669028 ], [ 117.312287803098442, 42.409410766221782 ], [ 117.312287691416216, 42.409388251500239 ], [ 117.31228161504032, 42.409388268052666 ], [ 117.312281592704323, 42.409383765108338 ], [ 117.312287669079794, 42.409383748555918 ], [ 117.312287646743371, 42.409379245611596 ], [ 117.312281570368327, 42.409379262164016 ], [ 117.312281481024414, 42.409361250386674 ], [ 117.312269328277822, 42.409361283490519 ], [ 117.312269305942721, 42.409356780546162 ], [ 117.312263229569865, 42.409356797097608 ], [ 117.312263184900544, 42.409347791208887 ], [ 117.312251032156524, 42.409347824310792 ], [ 117.312251009822745, 42.409343321366421 ], [ 117.312220627964777, 42.409343404115518 ], [ 117.312220583301595, 42.40933439822674 ], [ 117.312196277818614, 42.409334464420198 ], [ 117.312196322478314, 42.409343470308997 ], [ 117.312190246106681, 42.409343486856564 ], [ 117.312190313094987, 42.40935699568972 ], [ 117.312208542213767, 42.409356946046039 ], [ 117.312208653867572, 42.409379460767887 ], [ 117.312214730242658, 42.409379444219326 ], [ 117.312214797236322, 42.409392953052382 ], [ 117.312208720859928, 42.409392969600944 ], [ 117.312208810183108, 42.409410981378308 ], [ 117.312233115695605, 42.4094109151821 ], [ 117.312233160360719, 42.409419921070729 ] ], [ [ 117.312220940607702, 42.409406445336522 ], [ 117.312220873612702, 42.409392936503508 ], [ 117.312239102741842, 42.409392886854924 ], [ 117.312239169740735, 42.409406395687917 ], [ 117.312220940607702, 42.409406445336522 ] ] ] } },
{ "type": "Feature", "properties": { "crown_id": 4914, "tree_id": "4918", "top_h_m": 21.85, "H_95_Mean": 22.4452, "DBH": 31.3607, "Carbon_kg": 199.313092, "area_m2": 19.75 }, "geometry": { "type": "Polygon", "coordinates": [ [ [ 117.31236666196034, 42.409383533345164 ], [ 117.312378814711138, 42.409383500230987 ], [ 117.312378792368179, 42.409378997286709 ], [ 117.312384868743138, 42.409378980729144 ], [ 117.312384891086509, 42.409383483673409 ], [ 117.312409196587993, 42.409383417439912 ], [ 117.312409174242859, 42.409378914495647 ], [ 117.312415250617804, 42.409378897936463 ], [ 117.312415094199082, 42.409347377326483 ], [ 117.312409017827207, 42.409347393885646 ], [ 117.31240899548213, 42.409342890941346 ], [ 117.312402919110667, 42.409342907500182 ], [ 117.312402874421409, 42.409333901611561 ], [ 117.312390721680217, 42.409333934728252 ], [ 117.312390744023986, 42.409338437672588 ], [ 117.312372514910876, 42.409338487345217 ], [ 117.312372559595815, 42.409347493233845 ], [ 117.312366483223883, 42.409347509790742 ], [ 117.312366505565933, 42.40935201273507 ], [ 117.312360429193589, 42.409352029291654 ], [ 117.312360473876794, 42.409361035180275 ], [ 117.312366550250033, 42.409361018623684 ], [ 117.312366572592083, 42.409365521567999 ], [ 117.312360496218417, 42.40936553812459 ], [ 117.312360563243303, 42.409379046957483 ], [ 117.312366639618276, 42.409379030400885 ], [ 117.31236666196034, 42.409383533345164 ] ], [ [ 117.312384868743138, 42.409378980729144 ], [ 117.312384846399766, 42.409374477784851 ], [ 117.31239092277427, 42.40937446122696 ], [ 117.312390945118068, 42.409378964171246 ], [ 117.312384868743138, 42.409378980729144 ] ] ] } },
{ "type": "Feature", "properties": { "crown_id": 5045, "tree_id": "5049", "top_h_m": 22.61, "H_95_Mean": 22.772, "DBH": 32.6535, "Carbon_kg": 218.07635, "area_m2": 22.5 }, "geometry": { "type": "Polygon", "coordinates": [ [ [ 117.312159841921215, 42.409339066645138 ], [ 117.31219022377725, 42.409338983912164 ], [ 117.312190179118417, 42.409329978023351 ], [ 117.312208408229395, 42.409329928379719 ], [ 117.312208363567962, 42.40932092249092 ], [ 117.312196210829057, 42.409320955586985 ], [ 117.312196188499229, 42.409316452642571 ], [ 117.31219011213021, 42.409316469190124 ], [ 117.312190045142032, 42.409302960356861 ], [ 117.312135357832346, 42.40930310927024 ], [ 117.312135335506895, 42.409298606325777 ], [ 117.312129259139567, 42.409298622870104 ], [ 117.312129214489516, 42.409289616981184 ], [ 117.312110985390063, 42.409289666612189 ], [ 117.312111097008724, 42.409312181334499 ], [ 117.312117173377388, 42.409312164791146 ], [ 117.312117218025733, 42.409321170680037 ], [ 117.312123294395249, 42.40932115413635 ], [ 117.312123316719891, 42.409325657080785 ], [ 117.312129393089819, 42.409325640536778 ], [ 117.312129370764765, 42.409321137592343 ], [ 117.312153676242758, 42.409321071413082 ], [ 117.312153720896376, 42.409330077301938 ], [ 117.31215979726673, 42.409330060756304 ], [ 117.312159841921215, 42.409339066645138 ] ] ] } },
{ "type": "Feature", "properties": { "crown_id": 5046, "tree_id": "5050", "top_h_m": 20.1, "H_95_Mean": 20.862, "DBH": 40.888, "Carbon_kg": 325.800273, "area_m2": 63.25 }, "geometry": { "type": "Polygon", "coordinates": [ [ [ 117.312305898206134, 42.409383698896725 ], [ 117.312324127332445, 42.409383649234641 ], [ 117.312324104993422, 42.409379146290334 ], [ 117.312336257743411, 42.40937911318067 ], [ 117.312336213063602, 42.409370107292062 ], [ 117.312342289437737, 42.409370090736743 ], [ 117.312342267097421, 42.409365587792429 ], [ 117.312348343471086, 42.409365571236805 ], [ 117.312348365811829, 42.409370074181119 ], [ 117.312354442185949, 42.409370057625168 ], [ 117.312354330480034, 42.409347542903596 ], [ 117.31236040685198, 42.409347526347339 ], [ 117.312360384510384, 42.409343023403018 ], [ 117.312366460881861, 42.409343006846427 ], [ 117.312366371513775, 42.409324995069127 ], [ 117.312372447883519, 42.409324978512231 ], [ 117.312372380856203, 42.409311469679224 ], [ 117.312366304487782, 42.409311486236106 ], [ 117.312366259803781, 42.409302480347414 ], [ 117.312360183436226, 42.409302496903969 ], [ 117.312360161094659, 42.409297993959619 ], [ 117.31234800836036, 42.40929802707177 ], [ 117.312347963679031, 42.409289021183028 ], [ 117.312323658213856, 42.409289087403437 ], [ 117.312323635874918, 42.409284584459058 ], [ 117.312311483143191, 42.409284617567323 ], [ 117.312311438467077, 42.409275611678531 ], [ 117.31228713300699, 42.409275677891181 ], [ 117.312287267024914, 42.40930269555755 ], [ 117.312281190657274, 42.409302712109934 ], [ 117.312281369344646, 42.409338735664932 ], [ 117.312275292973524, 42.409338752216996 ], [ 117.31227533764455, 42.409347758105703 ], [ 117.312269261272533, 42.409347774657462 ], [ 117.312269283607634, 42.409352277601819 ], [ 117.312275359980063, 42.40935226105006 ], [ 117.31227538231559, 42.409356763994403 ], [ 117.312287535061316, 42.409356730889918 ], [ 117.312287624406949, 42.409374742667268 ], [ 117.312293700781524, 42.409374726114528 ], [ 117.31229365610784, 42.409365720225871 ], [ 117.312299732481549, 42.409365703672819 ], [ 117.312299777156113, 42.409374709561476 ], [ 117.312311929905263, 42.409374676454398 ], [ 117.312311952243419, 42.409379179398712 ], [ 117.312305875868404, 42.409379195952425 ], [ 117.312305898206134, 42.409383698896725 ] ], [ [ 117.312287378706657, 42.409325210279441 ], [ 117.312287311697602, 42.40931170144632 ], [ 117.312305540803109, 42.409311651787256 ], [ 117.312305607816072, 42.409325160620341 ], [ 117.312287378706657, 42.409325210279441 ] ] ] } },
{ "type": "Feature", "properties": { "crown_id": 5091, "tree_id": "5095", "top_h_m": 22.809, "H_95_Mean": 23.2332, "DBH": 23.6983, "Carbon_kg": 115.658465, "area_m2": 6.25 }, "geometry": { "type": "Polygon", "coordinates": [ [ [ 117.312141411874222, 42.409298589781145 ], [ 117.312183946445373, 42.409298473959645 ], [ 117.31218390178752, 42.409289468070767 ], [ 117.312177825421074, 42.409289484617659 ], [ 117.312177780764102, 42.40928047872876 ], [ 117.312153475301827, 42.409280544913088 ], [ 117.312153497628557, 42.409285047857544 ], [ 117.312141344896546, 42.409285080947775 ], [ 117.312141367222409, 42.409289583892239 ], [ 117.312135290855977, 42.409289600436871 ], [ 117.312135313181429, 42.409294103381335 ], [ 117.312141389548302, 42.409294086836695 ], [ 117.312141411874222, 42.409298589781145 ] ] ] } },
{ "type": "Feature", "properties": { "crown_id": 5092, "tree_id": "5096", "top_h_m": 22.19, "H_95_Mean": 21.7009, "DBH": 36.0925, "Carbon_kg": 259.347024, "area_m2": 36.25 }, "geometry": { "type": "MultiPolygon", "coordinates": [ [ [ [ 117.312202242537992, 42.409311933150299 ], [ 117.312202264868262, 42.409316436094706 ], [ 117.31221441760627, 42.409316402997995 ], [ 117.312214484599693, 42.409329911831207 ], [ 117.312226637340316, 42.409329878733175 ], [ 117.312226682004365, 42.40933888462196 ], [ 117.312257063860116, 42.409338801871264 ], [ 117.312257086194322, 42.409343304815643 ], [ 117.312269238937461, 42.409343271713091 ], [ 117.31226919426733, 42.40933426582437 ], [ 117.312275270638025, 42.409334249272625 ], [ 117.312275091954149, 42.409298225717578 ], [ 117.312281168321377, 42.409298209165541 ], [ 117.312281034306096, 42.409271191499116 ], [ 117.312299263399893, 42.409271141841096 ], [ 117.312299196388395, 42.409257633007869 ], [ 117.312293120025117, 42.409257649560864 ], [ 117.312293142361838, 42.409262152505271 ], [ 117.312274913270642, 42.409262202162317 ], [ 117.312274957941483, 42.409271208051152 ], [ 117.312244576118403, 42.409271290806487 ], [ 117.312244643118177, 42.409284799639757 ], [ 117.312226414020358, 42.409284849289115 ], [ 117.312226436352333, 42.409289352233536 ], [ 117.312220359985943, 42.409289368782673 ], [ 117.312220382317491, 42.409293871727101 ], [ 117.312214305950661, 42.409293888275919 ], [ 117.312214328281769, 42.409298391220347 ], [ 117.312220404649025, 42.409298374671522 ], [ 117.312220471643698, 42.409311883504756 ], [ 117.312202242537992, 42.409311933150299 ] ] ], [ [ [ 117.312202242537992, 42.409311933150299 ], [ 117.312202197877482, 42.409302927261457 ], [ 117.312196121509771, 42.409302943809315 ], [ 117.312196166169414, 42.409311949698157 ], [ 117.312202242537992, 42.409311933150299 ] ] ] ] } },
{ "type": "Feature", "properties": { "crown_id": 5147, "tree_id": "5151", "top_h_m": 20.13, "H_95_Mean": 20.2613, "DBH": 28.5259, "Carbon_kg": 154.99284, "area_m2": 16.5 }, "geometry": { "type": "Polygon", "coordinates": [ [ [ 117.312329712240796, 42.409284567904436 ], [ 117.31234186497251, 42.409284534794239 ], [ 117.312341820292076, 42.409275528905482 ], [ 117.312347896657059, 42.409275512349907 ], [ 117.312347829635115, 42.409262003516744 ], [ 117.312335676907765, 42.40926203662756 ], [ 117.312335542869263, 42.40923501896112 ], [ 117.31232946650816, 42.409235035516033 ], [ 117.312329399490295, 42.409221526682742 ], [ 117.312311170410922, 42.409221576345523 ], [ 117.312311192748922, 42.409226079289965 ], [ 117.3123051163887, 42.409226095843565 ], [ 117.312305339764464, 42.409271125287781 ], [ 117.312317492493605, 42.40927109218017 ], [ 117.312317537170586, 42.409280098068955 ], [ 117.312329689901446, 42.409280064960058 ], [ 117.312329712240796, 42.409284567904436 ] ] ] } },
{ "type": "Feature", "properties": { "crown_id": 5181, "tree_id": "5185", "top_h_m": 22.124, "H_95_Mean": 22.1546, "DBH": 34.7126, "Carbon_kg": 242.702552, "area_m2": 30.0 }, "geometry": { "type": "Polygon", "coordinates": [ [ [ 117.312190022812658, 42.409298457412433 ], [ 117.312202175547242, 42.409298424317036 ], [ 117.312202153216973, 42.409293921372615 ], [ 117.312208229583817, 42.40929390482443 ], [ 117.31220820725315, 42.409289401880002 ], [ 117.312214283619554, 42.409289385331498 ], [ 117.312214261288446, 42.40928488238707 ], [ 117.312220337654409, 42.409284865838252 ], [ 117.312220315322861, 42.409280362893817 ], [ 117.312238544419415, 42.409280313245439 ], [ 117.312238477420948, 42.409266804412148 ], [ 117.312232401056733, 42.409266820961932 ], [ 117.312232356391974, 42.409257815073047 ], [ 117.312220203665291, 42.409257848171613 ], [ 117.312220136670803, 42.409244339338251 ], [ 117.312214060308776, 42.409244355887047 ], [ 117.312213926322528, 42.409217338220216 ], [ 117.312207849963087, 42.409217354768664 ], [ 117.312207827632491, 42.409212851824179 ], [ 117.312189598555435, 42.409212901467605 ], [ 117.31218957622616, 42.409208398523099 ], [ 117.312183499867558, 42.40920841507026 ], [ 117.312183544525254, 42.409217420959287 ], [ 117.312171391806316, 42.409217454052651 ], [ 117.312171414134284, 42.409221956997143 ], [ 117.312177490494193, 42.409221940450621 ], [ 117.312177579807937, 42.409239952228582 ], [ 117.31217150344628, 42.409239968775118 ], [ 117.312171525774275, 42.409244471719596 ], [ 117.312177602136373, 42.409244455173052 ], [ 117.312177624464795, 42.40924895811753 ], [ 117.312183700827319, 42.409248941570659 ], [ 117.312183879458573, 42.409284965126339 ], [ 117.31218995582455, 42.409284948579121 ], [ 117.312190022812658, 42.409298457412433 ] ] ] } },
{ "type": "Feature", "properties": { "crown_id": 5182, "tree_id": "5186", "top_h_m": 20.243, "H_95_Mean": 20.4875, "DBH": 30.2301, "Carbon_kg": 175.369581, "area_m2": 20.25 }, "geometry": { "type": "Polygon", "coordinates": [ [ [ 117.312366237461816, 42.409297977403057 ], [ 117.312372313828945, 42.409297960846189 ], [ 117.31237229148654, 42.409293457901839 ], [ 117.312378367853228, 42.40929344134463 ], [ 117.312378345510396, 42.409288938400273 ], [ 117.312390498242891, 42.409288905284924 ], [ 117.312390386524399, 42.409266390563118 ], [ 117.312384310160326, 42.409266407120938 ], [ 117.312384243130623, 42.409252898287811 ], [ 117.312390319493403, 42.409252881729991 ], [ 117.312390252462421, 42.409239372896835 ], [ 117.312378099739462, 42.409239406012126 ], [ 117.312378077396687, 42.409234903067741 ], [ 117.312372001035641, 42.409234919624893 ], [ 117.312371978693307, 42.409230416680494 ], [ 117.312365902332701, 42.409230433237333 ], [ 117.312365924674594, 42.40923493618174 ], [ 117.312359848313548, 42.409234952738259 ], [ 117.312359870655001, 42.409239455682673 ], [ 117.312341641570498, 42.409239505350293 ], [ 117.312341730931237, 42.409257517127912 ], [ 117.312353883657721, 42.409257484016464 ], [ 117.312353995363111, 42.409279998738384 ], [ 117.312347918997716, 42.409280015294279 ], [ 117.312347941338359, 42.409284518238664 ], [ 117.312354017704209, 42.409284501682755 ], [ 117.312354062386405, 42.409293507571476 ], [ 117.312366215119809, 42.4092934744587 ], [ 117.312366237461816, 42.409297977403057 ] ] ] } },
{ "type": "Feature", "properties": { "crown_id": 5264, "tree_id": "5269", "top_h_m": 21.952, "H_95_Mean": 22.146, "DBH": 40.4284, "Carbon_kg": 329.912569, "area_m2": 54.25 }, "geometry": { "type": "Polygon", "coordinates": [ [ [ 117.312244553785149, 42.409266787862059 ], [ 117.312268859241897, 42.40926672165844 ], [ 117.312268814571922, 42.409257715769598 ], [ 117.312287043661826, 42.409257666113525 ], [ 117.312287021325531, 42.409253163169112 ], [ 117.312293097688382, 42.409253146616436 ], [ 117.312293075351675, 42.409248643672008 ], [ 117.3122991517141, 42.409248627119027 ], [ 117.312299084702687, 42.40923511828575 ], [ 117.312293008341598, 42.409235134838724 ], [ 117.312292986004891, 42.409230631894268 ], [ 117.3122869096442, 42.409230648446929 ], [ 117.312286887307948, 42.409226145502494 ], [ 117.312292963668213, 42.40922612894984 ], [ 117.312292896658164, 42.409212620116499 ], [ 117.312280743940278, 42.409212653221452 ], [ 117.312280721604495, 42.409208150276989 ], [ 117.312286797963012, 42.409208133724675 ], [ 117.312286753290579, 42.409199127835748 ], [ 117.312280676932915, 42.409199144388054 ], [ 117.312280654597117, 42.409194641443584 ], [ 117.312274578239922, 42.409194657995577 ], [ 117.312274533569237, 42.409185652106615 ], [ 117.312268457212895, 42.409185668658267 ], [ 117.312268434877993, 42.40918116571379 ], [ 117.312262358522062, 42.409181182265129 ], [ 117.312262336187629, 42.409176679320623 ], [ 117.312231954410109, 42.409176762072455 ], [ 117.312231887413276, 42.409163253238923 ], [ 117.312225811059079, 42.409163269788309 ], [ 117.312225788727233, 42.409158766843795 ], [ 117.312219712373462, 42.409158783392854 ], [ 117.312219667710693, 42.409149777503799 ], [ 117.312213591357761, 42.409149794052546 ], [ 117.31221372534354, 42.409176811719689 ], [ 117.312225878054591, 42.40917677862187 ], [ 117.312225945050145, 42.409190287455374 ], [ 117.312219868693319, 42.409190304004468 ], [ 117.312219913356174, 42.409199309893467 ], [ 117.312201684283067, 42.409199359538817 ], [ 117.312201706613209, 42.409203862483317 ], [ 117.312195630255033, 42.409203879031118 ], [ 117.312195652584748, 42.409208381975631 ], [ 117.312213881660497, 42.409208332331225 ], [ 117.312213903991506, 42.409212835275717 ], [ 117.31221998035052, 42.409212818726942 ], [ 117.312220114339311, 42.409239836393787 ], [ 117.312226190700926, 42.409239819844672 ], [ 117.312226257696707, 42.409253328678041 ], [ 117.312238410422523, 42.409253295578829 ], [ 117.312238455088121, 42.409262301467706 ], [ 117.312244531451881, 42.409262284917617 ], [ 117.312244553785149, 42.409266787862059 ] ] ] } }
]
}
