{
"type": "FeatureCollection",
"name": "tile_14_20",
"crs": { "type": "name", "properties": { "name": "urn:ogc:def:crs:OGC:1.3:CRS84" } },
"features": [
{ "type": "Feature", "properties": { "crown_id": 5653, "tree_id": "5659", "top_h_m": 21.706, "H_95_Mean": 22.0061, "DBH": 34.4531, "Carbon_kg": 238.110546, "area_m2": 29.5 }, "geometry": { "type": "Polygon", "coordinates": [ [ [ 117.314722651959897, 42.409048370208573 ], [ 117.314740880984914, 42.409048320162512 ], [ 117.314740858473286, 42.409043817218979 ], [ 117.314746934814508, 42.409043800536317 ], [ 117.314746912302468, 42.409039297592784 ], [ 117.314752988643221, 42.409039280909802 ], [ 117.314752966130754, 42.409034777966284 ], [ 117.314759042471081, 42.409034761282975 ], [ 117.314759019958174, 42.409030258339435 ], [ 117.314765096298075, 42.40903024165582 ], [ 117.314765073784741, 42.409025738712295 ], [ 117.314777226463676, 42.409025705344085 ], [ 117.314777203949475, 42.409021202400552 ], [ 117.314771127610427, 42.409021219084813 ], [ 117.314771105096668, 42.409016716141274 ], [ 117.314765028758089, 42.409016732825201 ], [ 117.314765006244741, 42.409012229881661 ], [ 117.314752853568407, 42.409012263248556 ], [ 117.314752808543503, 42.409003257361455 ], [ 117.314746732206203, 42.409003274044409 ], [ 117.314746687182193, 42.408994268157272 ], [ 117.314722381836376, 42.408994334885868 ], [ 117.314722404346668, 42.408998837829458 ], [ 117.314716328009766, 42.408998854510791 ], [ 117.314716350519589, 42.409003357454374 ], [ 117.314698121507547, 42.409003407496492 ], [ 117.314698166524636, 42.409012413383643 ], [ 117.314692090186412, 42.409012430063711 ], [ 117.314692112694516, 42.409016933007294 ], [ 117.314686036355866, 42.409016949687036 ], [ 117.314686081371249, 42.409025955574187 ], [ 117.314680005031704, 42.40902597225363 ], [ 117.314680027538955, 42.409030475197184 ], [ 117.314673951198984, 42.409030491876301 ], [ 117.314673973705808, 42.409034994819876 ], [ 117.314680050046221, 42.409034978140767 ], [ 117.3146800725535, 42.409039481084328 ], [ 117.314667919871795, 42.409039514442227 ], [ 117.314667942378207, 42.409044017385796 ], [ 117.314692247743309, 42.409043950668682 ], [ 117.314692225235163, 42.409039447725121 ], [ 117.314704377916826, 42.409039414364635 ], [ 117.314704332898813, 42.40903040847752 ], [ 117.314710409238771, 42.409030391796804 ], [ 117.31471047676709, 42.409043900627459 ], [ 117.314722629449577, 42.409043867265027 ], [ 117.314722651959897, 42.409048370208573 ] ], [ [ 117.314686103878941, 42.409030458517755 ], [ 117.314686081371249, 42.409025955574187 ], [ 117.314692157710766, 42.40902593889443 ], [ 117.314692180218884, 42.409030441837992 ], [ 117.314686103878941, 42.409030458517755 ] ] ] } },
{ "type": "Feature", "properties": { "crown_id": 5675, "tree_id": "5681", "top_h_m": 22.519, "H_95_Mean": 23.3899, "DBH": 32.1821, "Carbon_kg": 215.157776, "area_m2": 20.25 }, "geometry": { "type": "Polygon", "coordinates": [ [ [ 117.314625362982326, 42.409035128241186 ], [ 117.314643592003691, 42.409035078210614 ], [ 117.31464354699439, 42.409026072323442 ], [ 117.314637470654787, 42.409026089000605 ], [ 117.314637425646382, 42.409017083113419 ], [ 117.314631349307675, 42.409017099790269 ], [ 117.31463128179638, 42.409003590959458 ], [ 117.314619129121567, 42.409003624312177 ], [ 117.314619039110056, 42.40898561253767 ], [ 117.31460688643871, 42.408985645889089 ], [ 117.314606841434724, 42.408976640001804 ], [ 117.314600765099883, 42.408976656677012 ], [ 117.314600742598344, 42.408972153733373 ], [ 117.314582513595155, 42.408972203757074 ], [ 117.314582603596165, 42.408990215531681 ], [ 117.314576527260002, 42.408990232205618 ], [ 117.314576549759821, 42.40899473514925 ], [ 117.314582626096424, 42.408994718475313 ], [ 117.314582693597231, 42.409008227306217 ], [ 117.314588769935114, 42.40900821063196 ], [ 117.314588814936556, 42.409017216519189 ], [ 117.31459489127532, 42.409017199844598 ], [ 117.314594936277643, 42.409026205731834 ], [ 117.314607088956862, 42.409026172381665 ], [ 117.314607111458898, 42.409030675325262 ], [ 117.314625340478983, 42.409030625297589 ], [ 117.314625362982326, 42.409035128241186 ] ] ] } },
{ "type": "Feature", "properties": { "crown_id": 5676, "tree_id": "5682", "top_h_m": 22.451, "H_95_Mean": 22.6684, "DBH": 27.255, "Carbon_kg": 151.096527, "area_m2": 11.25 }, "geometry": { "type": "Polygon", "coordinates": [ [ [ 117.314649668344117, 42.40903506153311 ], [ 117.31466182102497, 42.409035028177129 ], [ 117.314661798518998, 42.409030525233547 ], [ 117.314667874859012, 42.409030508555084 ], [ 117.314667852352613, 42.409026005611508 ], [ 117.314673928692159, 42.409025988932733 ], [ 117.314673906185334, 42.40902148598915 ], [ 117.314679982524439, 42.409021469310048 ], [ 117.31467993750995, 42.409012463422883 ], [ 117.314686013848203, 42.409012446743461 ], [ 117.314685991340511, 42.409007943799892 ], [ 117.314692067678322, 42.409007927120136 ], [ 117.31469204517019, 42.409003424176554 ], [ 117.31467381615812, 42.409003474214813 ], [ 117.314673793651323, 42.408998971271203 ], [ 117.314667717314379, 42.408998987949971 ], [ 117.314667694808037, 42.408994485006367 ], [ 117.314655542135, 42.408994518362952 ], [ 117.314655564640475, 42.408999021306556 ], [ 117.314643411966586, 42.408999054661841 ], [ 117.314643434471193, 42.409003557605452 ], [ 117.31463735813378, 42.409003574282615 ], [ 117.314637403142171, 42.409012580169829 ], [ 117.314643479480438, 42.409012563492652 ], [ 117.314643524489725, 42.409021569379853 ], [ 117.314649600828858, 42.409021552702356 ], [ 117.314649668344117, 42.40903506153311 ] ] ] } },
{ "type": "Feature", "properties": { "crown_id": 5692, "tree_id": "5698", "top_h_m": 21.12, "H_95_Mean": 21.7495, "DBH": 26.4168, "Carbon_kg": 138.446797, "area_m2": 10.75 }, "geometry": { "type": "Polygon", "coordinates": [ [ [ 117.314783280288481, 42.409021185715972 ], [ 117.314795432966505, 42.409021152345836 ], [ 117.314795365419997, 42.409007643515245 ], [ 117.314789289082299, 42.409007660200459 ], [ 117.314789131477013, 42.408976139595602 ], [ 117.314770902472986, 42.408976189649252 ], [ 117.314770947500435, 42.408985195536403 ], [ 117.31475271849375, 42.408985245587189 ], [ 117.31475278603105, 42.408998754417887 ], [ 117.314758862367924, 42.408998737734599 ], [ 117.314758907393696, 42.409007743621721 ], [ 117.314771060069148, 42.40900771025418 ], [ 117.314771082582908, 42.409012213197727 ], [ 117.314777158921061, 42.409012196513473 ], [ 117.314777181435261, 42.409016699457013 ], [ 117.31478325777384, 42.409016682772432 ], [ 117.314783280288481, 42.409021185715972 ] ] ] } },
{ "type": "Feature", "properties": { "crown_id": 5710, "tree_id": "5716", "top_h_m": 21.82, "H_95_Mean": 22.374, "DBH": 30.8974, "Carbon_kg": 193.059845, "area_m2": 18.75 }, "geometry": { "type": "Polygon", "coordinates": [ [ [ 117.314801464273643, 42.409012129773238 ], [ 117.314843998640427, 42.409012012965434 ], [ 117.31484393108353, 42.408998504134864 ], [ 117.314837854746742, 42.408998520822664 ], [ 117.314837787191195, 42.408985011992065 ], [ 117.314831710855699, 42.408985028679531 ], [ 117.314831575747334, 42.408958011018221 ], [ 117.314825499414439, 42.408958027705346 ], [ 117.31482552193205, 42.408962530648907 ], [ 117.31481336926538, 42.40896256402219 ], [ 117.314813391782124, 42.408967066965758 ], [ 117.314783010113189, 42.408967150393337 ], [ 117.314782987598619, 42.408962647449762 ], [ 117.314776911265241, 42.4089626641343 ], [ 117.314776956293514, 42.408971670021458 ], [ 117.314795185296219, 42.408971619966835 ], [ 117.314795342904517, 42.409003140571713 ], [ 117.314801419241775, 42.409003123886173 ], [ 117.314801464273643, 42.409012129773238 ] ] ] } },
{ "type": "Feature", "properties": { "crown_id": 5727, "tree_id": "5733", "top_h_m": 22.343, "H_95_Mean": 22.78, "DBH": 24.1751, "Carbon_kg": 119.001786, "area_m2": 7.0 }, "geometry": { "type": "Polygon", "coordinates": [ [ [ 117.314625182955652, 42.408999104692363 ], [ 117.314637335629598, 42.408999071339004 ], [ 117.314637313125431, 42.408994568395386 ], [ 117.314649465798482, 42.408994535040755 ], [ 117.31464933076829, 42.408967517379033 ], [ 117.314631101766523, 42.408967567410457 ], [ 117.31463112427025, 42.408972070354089 ], [ 117.31461897160149, 42.408972103706766 ], [ 117.31461899410435, 42.408976606650405 ], [ 117.314612917769537, 42.408976623326261 ], [ 117.314612940271957, 42.408981126269893 ], [ 117.31462509294245, 42.408981092917855 ], [ 117.314625182955652, 42.408999104692363 ] ] ] } },
{ "type": "Feature", "properties": { "crown_id": 5737, "tree_id": "5743", "top_h_m": 23.748, "H_95_Mean": 23.8226, "DBH": 29.3796, "Carbon_kg": 181.015439, "area_m2": 13.75 }, "geometry": { "type": "Polygon", "coordinates": [ [ [ 117.314679869988254, 42.408998954592121 ], [ 117.314710251672849, 42.408998871191827 ], [ 117.314710229163452, 42.408994368248244 ], [ 117.314716305499914, 42.408994351567216 ], [ 117.314716282990105, 42.408989848623641 ], [ 117.31471020665407, 42.408989865304648 ], [ 117.314710161635304, 42.408980859417468 ], [ 117.314704085300136, 42.408980876098155 ], [ 117.314704040282265, 42.408971870210955 ], [ 117.314691887613634, 42.408971903571363 ], [ 117.314691865105587, 42.408967400627759 ], [ 117.314667559770029, 42.408967467344702 ], [ 117.314667537263716, 42.40896296440107 ], [ 117.314661460930225, 42.408962981079497 ], [ 117.314661438424366, 42.408958478135865 ], [ 117.314655362091301, 42.408958494813973 ], [ 117.314655519629525, 42.408990015419342 ], [ 117.314673748637745, 42.408989965384009 ], [ 117.314673771144527, 42.408994468327613 ], [ 117.314679847481045, 42.408994451648525 ], [ 117.314679869988254, 42.408998954592121 ] ] ] } },
{ "type": "Feature", "properties": { "crown_id": 5781, "tree_id": "5787", "top_h_m": 21.359, "H_95_Mean": 21.3653, "DBH": 26.1952, "Carbon_kg": 134.688711, "area_m2": 10.75 }, "geometry": { "type": "Polygon", "coordinates": [ [ [ 117.314734511998182, 42.408989798578652 ], [ 117.314746664670196, 42.408989765213704 ], [ 117.314746619646215, 42.408980759326539 ], [ 117.314764848651592, 42.40898070927674 ], [ 117.314764803625039, 42.408971703389597 ], [ 117.314770879959298, 42.408971686705691 ], [ 117.314770834931878, 42.408962680818526 ], [ 117.314764758598486, 42.408962697502432 ], [ 117.314764691058699, 42.408949188671663 ], [ 117.314752538394544, 42.40894922203848 ], [ 117.314752515882148, 42.408944719094876 ], [ 117.31474643955049, 42.408944735777801 ], [ 117.314746394526637, 42.40893572989058 ], [ 117.314740318195817, 42.408935746573178 ], [ 117.314740430753375, 42.408958261291225 ], [ 117.314734354420423, 42.408958277973518 ], [ 117.314734511998182, 42.408989798578652 ] ] ] } },
{ "type": "Feature", "properties": { "crown_id": 5792, "tree_id": "5798", "top_h_m": 21.603, "H_95_Mean": 22.9529, "DBH": 23.0625, "Carbon_kg": 108.706371, "area_m2": 5.75 }, "geometry": { "type": "Polygon", "coordinates": [ [ [ 117.314570360926325, 42.408972237104607 ], [ 117.314576437260726, 42.408972220431004 ], [ 117.314576414760921, 42.408967717487343 ], [ 117.31460072009682, 42.40896765078972 ], [ 117.314600652592219, 42.408954141958745 ], [ 117.314594576259566, 42.408954158633627 ], [ 117.314594553758468, 42.408949655689952 ], [ 117.314570248429519, 42.40894972238624 ], [ 117.314570270928868, 42.408954225329929 ], [ 117.314564194596187, 42.408954242003198 ], [ 117.314564262092986, 42.408967750834215 ], [ 117.314570338426961, 42.408967734160939 ], [ 117.314570360926325, 42.408972237104607 ] ] ] } },
{ "type": "Feature", "properties": { "crown_id": 5793, "tree_id": "5799", "top_h_m": 23.25, "H_95_Mean": 23.3327, "DBH": 31.6218, "Carbon_kg": 207.37403, "area_m2": 19.0 }, "geometry": { "type": "Polygon", "coordinates": [ [ [ 117.314606818932731, 42.408972137058157 ], [ 117.314612895267103, 42.408972120382622 ], [ 117.314612872764712, 42.408967617438982 ], [ 117.314625025432576, 42.408967584086945 ], [ 117.314625002929318, 42.408963081143298 ], [ 117.31464930826327, 42.408963014435393 ], [ 117.314649105718402, 42.408922487942519 ], [ 117.314661258377512, 42.40892245458668 ], [ 117.314661235871682, 42.408917951643026 ], [ 117.314655159542568, 42.408917968321092 ], [ 117.314655137037164, 42.408913465377431 ], [ 117.314649060708462, 42.408913482055191 ], [ 117.314649083213425, 42.408917984998858 ], [ 117.314618701567696, 42.408918068382818 ], [ 117.314618746573274, 42.408927074270174 ], [ 117.31461267024325, 42.408927090945994 ], [ 117.314612692745598, 42.40893159388969 ], [ 117.314600540084655, 42.408931627240385 ], [ 117.314600630090681, 42.408949639015084 ], [ 117.314606706422893, 42.40894962233989 ], [ 117.314606818932731, 42.408972137058157 ] ] ] } },
{ "type": "Feature", "properties": { "crown_id": 5815, "tree_id": "5821", "top_h_m": 23.411, "H_95_Mean": 24.0243, "DBH": 37.7963, "Carbon_kg": 302.26146, "area_m2": 36.0 }, "geometry": { "type": "Polygon", "coordinates": [ [ [ 117.314722359326112, 42.408989831942293 ], [ 117.314728435662147, 42.408989815260625 ], [ 117.314728255576782, 42.408953791711873 ], [ 117.314734331909321, 42.408953775029907 ], [ 117.31473421935398, 42.408931260311839 ], [ 117.314740295684331, 42.408931243629567 ], [ 117.314740273172845, 42.408926740685928 ], [ 117.314734196842892, 42.408926757368199 ], [ 117.314734106798724, 42.408908745593664 ], [ 117.314728030470533, 42.408908762275601 ], [ 117.314728007959928, 42.408904259331962 ], [ 117.314721931632164, 42.408904276013565 ], [ 117.314721954142328, 42.408908778957219 ], [ 117.314715877814137, 42.40890879563851 ], [ 117.314715900323861, 42.408913298582171 ], [ 117.314709823995202, 42.408913315263149 ], [ 117.314709846504527, 42.408917818206788 ], [ 117.314667312200811, 42.40891793496462 ], [ 117.314667357213352, 42.408926940851934 ], [ 117.314655204553375, 42.408926974208427 ], [ 117.314655339585883, 42.408953991870334 ], [ 117.314667492251075, 42.408953958513813 ], [ 117.314667514757389, 42.408958461457438 ], [ 117.314673591090425, 42.408958444778698 ], [ 117.314673613597179, 42.408962947722323 ], [ 117.314697918930946, 42.408962881004101 ], [ 117.314697941439462, 42.408967383947719 ], [ 117.314710094107198, 42.408967350586664 ], [ 117.314710139125907, 42.408976356473872 ], [ 117.314716215460649, 42.408976339792858 ], [ 117.314716260480282, 42.408985345680044 ], [ 117.314722336815876, 42.40898532899871 ], [ 117.314722359326112, 42.408989831942293 ] ] ] } },
{ "type": "Feature", "properties": { "crown_id": 5816, "tree_id": "5822", "top_h_m": 22.664, "H_95_Mean": 22.8282, "DBH": 26.1798, "Carbon_kg": 139.90345, "area_m2": 9.5 }, "geometry": { "type": "Polygon", "coordinates": [ [ [ 117.314789063931983, 42.40896263076489 ], [ 117.314795140265346, 42.408962614079691 ], [ 117.314795050203614, 42.408944602305375 ], [ 117.314801126535215, 42.408944585619871 ], [ 117.314801104019381, 42.408940082676288 ], [ 117.314795027688191, 42.408940099361786 ], [ 117.314794960141981, 42.408926590531003 ], [ 117.314770654822411, 42.408926657269745 ], [ 117.314770677336071, 42.408931160213363 ], [ 117.314752448345047, 42.408931210264036 ], [ 117.314752493369767, 42.408940216151265 ], [ 117.314758569700999, 42.40894019946802 ], [ 117.314758592213806, 42.408944702411624 ], [ 117.314770744877094, 42.40894466904416 ], [ 117.314770812418175, 42.40895817787495 ], [ 117.314789041416958, 42.408958127821315 ], [ 117.314789063931983, 42.40896263076489 ] ] ] } },
{ "type": "Feature", "properties": { "crown_id": 5833, "tree_id": "5839", "top_h_m": 22.435, "H_95_Mean": 22.6801, "DBH": 26.7814, "Carbon_kg": 145.895966, "area_m2": 10.5 }, "geometry": { "type": "Polygon", "coordinates": [ [ [ 117.314570225930183, 42.408945219442565 ], [ 117.314594531257384, 42.408945152746284 ], [ 117.314594441253107, 42.408927140971564 ], [ 117.314606593913197, 42.408927107621508 ], [ 117.314606571411275, 42.408922604677826 ], [ 117.314612647740873, 42.408922588002319 ], [ 117.314612602736176, 42.408913582114948 ], [ 117.314600450078686, 42.408913615465629 ], [ 117.314600427577233, 42.408909112521918 ], [ 117.314576122263972, 42.408909179219407 ], [ 117.314576167263439, 42.408918185106828 ], [ 117.31456401460504, 42.40891821845365 ], [ 117.314564082101683, 42.408931727284759 ], [ 117.31457015843219, 42.408931710611498 ], [ 117.314570225930183, 42.408945219442565 ] ] ] } },
{ "type": "Feature", "properties": { "crown_id": 5918, "tree_id": "5924", "top_h_m": 23.51, "H_95_Mean": 23.8585, "DBH": 36.8385, "Carbon_kg": 285.8489, "area_m2": 33.0 }, "geometry": { "type": "Polygon", "coordinates": [ [ [ 117.314618679064907, 42.408913565439128 ], [ 117.314636908051057, 42.408913515409729 ], [ 117.314636885546975, 42.408909012466047 ], [ 117.314642961875251, 42.408908995788927 ], [ 117.314642939370728, 42.408904492845252 ], [ 117.314655092026413, 42.408904459490074 ], [ 117.314655114531789, 42.408908962433742 ], [ 117.314661190860036, 42.40890894575567 ], [ 117.314661213365866, 42.408913448699352 ], [ 117.314703747666584, 42.408913331943801 ], [ 117.314703725157685, 42.40890882900014 ], [ 117.314709801485918, 42.408908812319481 ], [ 117.314709778976621, 42.408904309375835 ], [ 117.314715855304414, 42.408904292694864 ], [ 117.314715832794676, 42.408899789751203 ], [ 117.314727985449338, 42.408899756388315 ], [ 117.314727940428185, 42.408890750500994 ], [ 117.314697558795828, 42.408890833905808 ], [ 117.314697513779024, 42.408881828018451 ], [ 117.314691437453391, 42.408881844698449 ], [ 117.314691369929534, 42.408868335867389 ], [ 117.314679217280897, 42.40886836922639 ], [ 117.314679172266764, 42.408859363338991 ], [ 117.314654866972887, 42.408859430053106 ], [ 117.314654889478206, 42.408863932996816 ], [ 117.314642736830365, 42.408863966351944 ], [ 117.314642781839311, 42.408872972239358 ], [ 117.314636705514502, 42.408872988916457 ], [ 117.314636728018556, 42.408877491860167 ], [ 117.314630651693307, 42.408877508536932 ], [ 117.31463067419692, 42.408882011480642 ], [ 117.314624597871244, 42.408882028157088 ], [ 117.314624732890422, 42.408909045819279 ], [ 117.314618656562132, 42.408909062495432 ], [ 117.314618679064907, 42.408913565439128 ] ] ] } },
{ "type": "Feature", "properties": { "crown_id": 5935, "tree_id": "5941", "top_h_m": 21.871, "H_95_Mean": 21.869, "DBH": 32.0362, "Carbon_kg": 204.884644, "area_m2": 22.5 }, "geometry": { "type": "Polygon", "coordinates": [ [ [ 117.314606503905537, 42.408909095846752 ], [ 117.314612580233828, 42.408909079171245 ], [ 117.314612557731479, 42.408904576227556 ], [ 117.314618634059343, 42.408904559551743 ], [ 117.314618499042822, 42.40887754188951 ], [ 117.314624575368057, 42.408877525213377 ], [ 117.314624552864899, 42.40887302226966 ], [ 117.314630629189708, 42.408873005593215 ], [ 117.314630606686094, 42.408868502649504 ], [ 117.314636683010477, 42.408868485972739 ], [ 117.314636660506437, 42.408863983029029 ], [ 117.314624507858568, 42.408864016382225 ], [ 117.314624462852251, 42.408855010494769 ], [ 117.314612310206115, 42.408855043846664 ], [ 117.31461228770381, 42.408850540902939 ], [ 117.314575829767847, 42.408850640950881 ], [ 117.314575852267524, 42.408855143894634 ], [ 117.314581928590627, 42.408855127220775 ], [ 117.314581996090979, 42.40886863605202 ], [ 117.314575919766554, 42.408868652725879 ], [ 117.314575942266245, 42.40887315566961 ], [ 117.31456986594138, 42.408873172343164 ], [ 117.314569888440658, 42.408877675286902 ], [ 117.31457596476595, 42.408877658613356 ], [ 117.314576099764238, 42.408904676275696 ], [ 117.314606481403615, 42.408904592903056 ], [ 117.314606503905537, 42.408909095846752 ] ] ] } },
{ "type": "Feature", "properties": { "crown_id": 5953, "tree_id": "5959", "top_h_m": 23.906, "H_95_Mean": 23.7059, "DBH": 37.7602, "Carbon_kg": 299.308638, "area_m2": 36.75 }, "geometry": { "type": "Polygon", "coordinates": [ [ [ 117.314746349502769, 42.408926724003344 ], [ 117.3147645784925, 42.40892667395363 ], [ 117.314764555979295, 42.408922171010005 ], [ 117.314776708638206, 42.408922137641937 ], [ 117.314776596067816, 42.408899622923826 ], [ 117.314770519740534, 42.408899639608016 ], [ 117.314770452199667, 42.408886130777091 ], [ 117.314764375873665, 42.40888614746094 ], [ 117.314764330847311, 42.408877141573655 ], [ 117.314758254522204, 42.408877158257184 ], [ 117.314758232009467, 42.408872655313516 ], [ 117.314752155684758, 42.408872671996726 ], [ 117.314752133172462, 42.408868169053072 ], [ 117.314746056848207, 42.40886818573594 ], [ 117.314745989312641, 42.408854676904923 ], [ 117.314733836666704, 42.408854710269708 ], [ 117.314733769133809, 42.408841201438634 ], [ 117.314739845455492, 42.408841184756419 ], [ 117.314739777921332, 42.408827675925323 ], [ 117.314733701600971, 42.408827692607538 ], [ 117.314733724111917, 42.408832195551241 ], [ 117.314721571470287, 42.408832228914704 ], [ 117.314721593980366, 42.408836731858408 ], [ 117.31471551765911, 42.40883674853967 ], [ 117.314715540168763, 42.408841251483373 ], [ 117.314697311203659, 42.4088413015252 ], [ 117.314697333712019, 42.408845804468918 ], [ 117.314691257389882, 42.408845821148887 ], [ 117.31469130240572, 42.408854827036301 ], [ 117.314685226082716, 42.40885484371595 ], [ 117.314685271097716, 42.408863849603357 ], [ 117.314697423745486, 42.408863816243716 ], [ 117.314697491270621, 42.408877325074776 ], [ 117.314703567595814, 42.408877308394466 ], [ 117.314703612613457, 42.408886314281823 ], [ 117.314733994243625, 42.40888623087541 ], [ 117.314734084287693, 42.408904242650024 ], [ 117.314740160615457, 42.408904225967753 ], [ 117.314740250661345, 42.40892223774231 ], [ 117.314746326990829, 42.408922221059711 ], [ 117.314746349502769, 42.408926724003344 ] ] ] } },
{ "type": "Feature", "properties": { "crown_id": 5965, "tree_id": "5971", "top_h_m": 23.433, "H_95_Mean": 23.5126, "DBH": 38.8117, "Carbon_kg": 314.816635, "area_m2": 41.5 }, "geometry": { "type": "Polygon", "coordinates": [ [ [ 117.314782784967676, 42.408922120957413 ], [ 117.314794937626587, 42.408922087587399 ], [ 117.314794915111179, 42.408917584643802 ], [ 117.314813144098196, 42.408917534586365 ], [ 117.314813031514802, 42.408895019868304 ], [ 117.314819107841615, 42.408895003181868 ], [ 117.314819040290331, 42.408881494351014 ], [ 117.31482511661585, 42.408881477664259 ], [ 117.314825071580799, 42.408872471776995 ], [ 117.314831147905437, 42.408872455089927 ], [ 117.314831125387514, 42.408867952146309 ], [ 117.314837201711697, 42.4088679354589 ], [ 117.314837111638226, 42.408849923684365 ], [ 117.314831035315777, 42.408849940371745 ], [ 117.314830990279944, 42.408840934484431 ], [ 117.314812761315153, 42.408840984544632 ], [ 117.314812738798551, 42.408836481600972 ], [ 117.31480666247738, 42.408836498287059 ], [ 117.314806684993542, 42.408841001230719 ], [ 117.314764150742121, 42.408841118024306 ], [ 117.314764128228987, 42.408836615080624 ], [ 117.31475197558656, 42.408836648447313 ], [ 117.314751953074321, 42.408832145503624 ], [ 117.31474587675352, 42.408832162186492 ], [ 117.314745944288987, 42.408845671017559 ], [ 117.314739867966878, 42.408845687700108 ], [ 117.314739890478279, 42.40885019064379 ], [ 117.314752043123349, 42.408850157278373 ], [ 117.314752110660194, 42.40886366610939 ], [ 117.314758186984008, 42.408863649426202 ], [ 117.314758209496745, 42.408868152369855 ], [ 117.314764285820999, 42.408868135686333 ], [ 117.314764308334148, 42.408872638629994 ], [ 117.314770384658843, 42.408872621946145 ], [ 117.31477042968605, 42.408881627833445 ], [ 117.314776506011597, 42.408881611149276 ], [ 117.314776573553758, 42.40889511998018 ], [ 117.314782649880613, 42.408895103295677 ], [ 117.314782784967676, 42.408922120957413 ] ] ] } }
]
}
