{
"type": "FeatureCollection",
"name": "tile_1_15",
"crs": { "type": "name", "properties": { "name": "urn:ogc:def:crs:OGC:1.3:CRS84" } },
"features": [
{ "type": "Feature", "properties": { "crown_id": 21, "tree_id": "22", "top_h_m": 19.25, "H_95_Mean": 19.5282, "DBH": 28.247, "Carbon_kg": 148.677455, "area_m2": 17.0 }, "geometry": { "type": "Polygon", "coordinates": [ [ [ 117.313488796087398, 42.411420331245623 ], [ 117.313567791514373, 42.411420115198908 ], [ 117.31356776908477, 42.411415612256746 ], [ 117.313555615943102, 42.411415645498238 ], [ 117.313555526228285, 42.411397633729507 ], [ 117.31354337309007, 42.411397666969691 ], [ 117.313543305806633, 42.411384158143093 ], [ 117.313537229238804, 42.411384174762702 ], [ 117.313537251666176, 42.411388677704906 ], [ 117.313519021961397, 42.411388727561778 ], [ 117.313519044387462, 42.411393230503982 ], [ 117.313506891250043, 42.411393263740301 ], [ 117.313506913675241, 42.411397766682519 ], [ 117.313488683967776, 42.411397816534588 ], [ 117.313488796087398, 42.411420331245623 ] ] ] } },
{ "type": "Feature", "properties": { "crown_id": 43, "tree_id": "44", "top_h_m": 20.233, "H_95_Mean": 20.8197, "DBH": 29.2289, "Carbon_kg": 165.426511, "area_m2": 17.25 }, "geometry": { "type": "Polygon", "coordinates": [ [ [ 117.313379417802452, 42.411420630297364 ], [ 117.313452336659267, 42.411420430941135 ], [ 117.313452314237949, 42.411415927998924 ], [ 117.313446237667023, 42.411415944613701 ], [ 117.313446147983498, 42.411397932844793 ], [ 117.313440071414291, 42.41139794945925 ], [ 117.313440026573446, 42.411388943574757 ], [ 117.313433950005106, 42.411388960188894 ], [ 117.313433905165141, 42.411379954304394 ], [ 117.313409598895191, 42.411380020757662 ], [ 117.31340962131344, 42.411384523699923 ], [ 117.313403544745512, 42.41138454031244 ], [ 117.313403589581156, 42.411393546196969 ], [ 117.313397513012333, 42.41139356280916 ], [ 117.313397602681917, 42.411411574578167 ], [ 117.313379372970246, 42.411411624412871 ], [ 117.313379417802452, 42.411420630297364 ] ] ] } },
{ "type": "Feature", "properties": { "crown_id": 100, "tree_id": "101", "top_h_m": 18.79, "H_95_Mean": 19.2211, "DBH": 33.1281, "Carbon_kg": 203.092647, "area_m2": 32.5 }, "geometry": { "type": "MultiPolygon", "coordinates": [ [ [ [ 117.313555481370912, 42.41138862784512 ], [ 117.313561557939153, 42.411388611224552 ], [ 117.313561670084795, 42.411411125935473 ], [ 117.313573823225596, 42.411411092693335 ], [ 117.313573868085641, 42.411420098577672 ], [ 117.313610327513146, 42.411419998843506 ], [ 117.313610282647915, 42.411410992959212 ], [ 117.313622435788616, 42.411410959711922 ], [ 117.31362232362126, 42.41138844500113 ], [ 117.31362840018943, 42.411388428377023 ], [ 117.313628332887774, 42.411374919550511 ], [ 117.313640486021498, 42.411374886301331 ], [ 117.313640463586751, 42.41137038335917 ], [ 117.313628310453893, 42.411370416608335 ], [ 117.313628288020013, 42.41136591366616 ], [ 117.313622211454017, 42.411365930290252 ], [ 117.313622189020563, 42.411361427348069 ], [ 117.313591806192633, 42.411361510463728 ], [ 117.313591828623885, 42.411366013405924 ], [ 117.313573598925757, 42.411366063271458 ], [ 117.313573576495799, 42.411361560329269 ], [ 117.313561423364561, 42.411361593571336 ], [ 117.31356149065185, 42.411375102397955 ], [ 117.313555414084902, 42.411375119018516 ], [ 117.313555481370912, 42.41138862784512 ] ] ], [ [ [ 117.313555481370912, 42.41138862784512 ], [ 117.313549404802671, 42.411388644465369 ], [ 117.313549427230924, 42.411393147407559 ], [ 117.313555503799591, 42.41139313078731 ], [ 117.313555481370912, 42.41138862784512 ] ] ] ] } },
{ "type": "Feature", "properties": { "crown_id": 120, "tree_id": "121", "top_h_m": 19.96, "H_95_Mean": 19.954, "DBH": 31.0208, "Carbon_kg": 181.876773, "area_m2": 23.5 }, "geometry": { "type": "MultiPolygon", "coordinates": [ [ [ [ 117.313470521528103, 42.411411375210399 ], [ 117.313470543950743, 42.41141587815261 ], [ 117.313476620521655, 42.411415861536547 ], [ 117.313476598098589, 42.411411358594329 ], [ 117.313470521528103, 42.411411375210399 ] ] ], [ [ [ 117.313470521528103, 42.411411375210399 ], [ 117.313470499105478, 42.411406872268195 ], [ 117.313476575675523, 42.411406855652118 ], [ 117.313476598098589, 42.411411358594329 ], [ 117.313482674669061, 42.411411341977939 ], [ 117.313482584975134, 42.411393330209073 ], [ 117.313500814681319, 42.411393280357977 ], [ 117.313500792256562, 42.411388777415759 ], [ 117.313494715688265, 42.411388794033108 ], [ 117.31349462599097, 42.411370782264193 ], [ 117.31348854942442, 42.411370798881208 ], [ 117.313488504576668, 42.411361792996736 ], [ 117.313482428010985, 42.411361809613425 ], [ 117.313482338317286, 42.411343797844403 ], [ 117.313476261753323, 42.411343814460743 ], [ 117.313476284176318, 42.411348317403025 ], [ 117.313458054483092, 42.41134836725017 ], [ 117.31345807690478, 42.411352870192438 ], [ 117.313452000339936, 42.411352886807506 ], [ 117.313452045182444, 42.411361892692028 ], [ 117.313439892051008, 42.411361925921227 ], [ 117.313440004153009, 42.411384440632524 ], [ 117.313446080720922, 42.411384424018074 ], [ 117.313446125562649, 42.411393429902553 ], [ 117.313452202131387, 42.411393413287776 ], [ 117.313452269395313, 42.411406922114466 ], [ 117.313464422535432, 42.411406888883945 ], [ 117.313464444957631, 42.411411391826157 ], [ 117.313470521528103, 42.411411375210399 ] ] ], [ [ [ 117.313476620521655, 42.411415861536547 ], [ 117.313476642944707, 42.411420364478744 ], [ 117.31348271951606, 42.411420347862354 ], [ 117.313482697092553, 42.411415844920135 ], [ 117.313476620521655, 42.411415861536547 ] ] ] ] } },
{ "type": "Feature", "properties": { "crown_id": 157, "tree_id": "158", "top_h_m": 20.011, "H_95_Mean": 19.821, "DBH": 30.7515, "Carbon_kg": 178.003018, "area_m2": 23.0 }, "geometry": { "type": "Polygon", "coordinates": [ [ [ 117.313506868824845, 42.411388760798097 ], [ 117.313512945393114, 42.411388744180094 ], [ 117.313512922967476, 42.41138424123789 ], [ 117.313531152670976, 42.411384191381984 ], [ 117.313531130244044, 42.411379688439773 ], [ 117.313549359946194, 42.411379638580968 ], [ 117.31354931508973, 42.411370632696546 ], [ 117.313555391656237, 42.411370616076319 ], [ 117.313555369227586, 42.4113661131341 ], [ 117.313549292661506, 42.411366129754335 ], [ 117.313549247805099, 42.411357123869905 ], [ 117.313555324370284, 42.411357107249671 ], [ 117.313555301941648, 42.411352604307446 ], [ 117.313530995682555, 42.411352670786421 ], [ 117.313530950828749, 42.411343664901942 ], [ 117.313524874264843, 42.411343681520883 ], [ 117.313524829411946, 42.411334675636382 ], [ 117.313518752848893, 42.411334692254989 ], [ 117.31351868557087, 42.411321183428214 ], [ 117.313506532447377, 42.411321216664447 ], [ 117.313506577297616, 42.411330222548983 ], [ 117.313500500735003, 42.411330239166617 ], [ 117.313500523159703, 42.411334742108878 ], [ 117.313494446596621, 42.411334758726198 ], [ 117.31349446902091, 42.411339261668452 ], [ 117.313488392457401, 42.411339278285453 ], [ 117.313488482152806, 42.41135729005449 ], [ 117.313494558718048, 42.411357273437474 ], [ 117.313494603566667, 42.411366279321967 ], [ 117.313500680132762, 42.411366262704625 ], [ 117.313500769831791, 42.411384274473548 ], [ 117.313506846399648, 42.411384257855872 ], [ 117.313506868824845, 42.411388760798097 ] ] ] } },
{ "type": "Feature", "properties": { "crown_id": 167, "tree_id": "168", "top_h_m": 17.721, "H_95_Mean": 18.615, "DBH": 28.6027, "Carbon_kg": 148.216592, "area_m2": 19.5 }, "geometry": { "type": "Polygon", "coordinates": [ [ [ 117.313409576476957, 42.411375517815401 ], [ 117.313433882745159, 42.411375451362133 ], [ 117.313433793065329, 42.411357439593068 ], [ 117.313445946195898, 42.41135740636453 ], [ 117.313445901354271, 42.41134840047998 ], [ 117.313451977918703, 42.411348383865246 ], [ 117.313451955497442, 42.411343880922956 ], [ 117.31344587893345, 42.411343897537712 ], [ 117.313445834091851, 42.411334891653148 ], [ 117.313439757528755, 42.41133490826757 ], [ 117.313439735108389, 42.411330405325288 ], [ 117.313433658545691, 42.411330421939375 ], [ 117.313433636125794, 42.411325918997072 ], [ 117.313427559563522, 42.411325935610847 ], [ 117.313427537144022, 42.411321432668544 ], [ 117.313421460582205, 42.411321449281992 ], [ 117.31342148300125, 42.411325952224303 ], [ 117.313403253314419, 42.411326002062701 ], [ 117.313403275732156, 42.411330505005019 ], [ 117.313397199169444, 42.411330521617174 ], [ 117.313397221586754, 42.411335024559484 ], [ 117.313391145023601, 42.411335041171327 ], [ 117.313391212274269, 42.411348549998245 ], [ 117.313397288838743, 42.411348533386395 ], [ 117.313397378508128, 42.411366545155545 ], [ 117.313403455074322, 42.411366528543361 ], [ 117.313403477492102, 42.411371031485629 ], [ 117.313409554058737, 42.411371014873126 ], [ 117.313409576476957, 42.411375517815401 ] ] ] } },
{ "type": "Feature", "properties": { "crown_id": 241, "tree_id": "242", "top_h_m": 18.379, "H_95_Mean": 18.166, "DBH": 29.8243, "Carbon_kg": 158.939904, "area_m2": 24.0 }, "geometry": { "type": "Polygon", "coordinates": [ [ [ 117.313458032061433, 42.411343864307895 ], [ 117.31347018518936, 42.411343831076792 ], [ 117.313470162766833, 42.411339328134524 ], [ 117.313482315893864, 42.411339294902135 ], [ 117.313482293470472, 42.411334791959874 ], [ 117.313488370033554, 42.411334775343192 ], [ 117.31348834760972, 42.411330272400924 ], [ 117.313494424172362, 42.41133025578393 ], [ 117.313494401748102, 42.411325752841655 ], [ 117.313500478310289, 42.411325736224349 ], [ 117.313500366186886, 42.411303221512959 ], [ 117.31349428962686, 42.411303238130252 ], [ 117.313494267202628, 42.411298735187977 ], [ 117.313476037523785, 42.411298785037928 ], [ 117.313476015100875, 42.411294282095625 ], [ 117.313469938541701, 42.411294298711631 ], [ 117.313469916119217, 42.411289795769321 ], [ 117.313457763001693, 42.411289829000367 ], [ 117.31345778542331, 42.411294331942678 ], [ 117.313439555745717, 42.411294381786838 ], [ 117.313439578166026, 42.411298884729149 ], [ 117.313427425046726, 42.411298917956977 ], [ 117.313427492305095, 42.41131242678393 ], [ 117.31343356886606, 42.411312410170169 ], [ 117.313433613705854, 42.411321416054783 ], [ 117.313439690267685, 42.411321399440681 ], [ 117.313439712688023, 42.41132590238297 ], [ 117.313445789250281, 42.411325885768569 ], [ 117.313445811671087, 42.411330388710859 ], [ 117.313451888233743, 42.411330372096124 ], [ 117.313451933076209, 42.411339377980681 ], [ 117.313458009639746, 42.41133936136562 ], [ 117.313458032061433, 42.411343864307895 ] ] ] } },
{ "type": "Feature", "properties": { "crown_id": 255, "tree_id": "256", "top_h_m": 18.583, "H_95_Mean": 19.3276, "DBH": 31.2034, "Carbon_kg": 180.601622, "area_m2": 25.5 }, "geometry": { "type": "Polygon", "coordinates": [ [ [ 117.313537049819999, 42.411348151224928 ], [ 117.313561356077329, 42.411348084744681 ], [ 117.313561288790154, 42.411334575917991 ], [ 117.31356736535318, 42.411334559297131 ], [ 117.313567342923676, 42.411330056354885 ], [ 117.313573419486275, 42.411330039733706 ], [ 117.313573397056331, 42.411325536791466 ], [ 117.313579473618475, 42.41132552016996 ], [ 117.313579451188133, 42.411321017227735 ], [ 117.313573374626429, 42.411321033849227 ], [ 117.313573284906852, 42.41130302208024 ], [ 117.313567208346882, 42.411303038701398 ], [ 117.313567185917435, 42.411298535759144 ], [ 117.313561109357892, 42.411298552379982 ], [ 117.313561086928871, 42.411294049437721 ], [ 117.313555010369768, 42.411294066058232 ], [ 117.313554943084071, 42.411280557231407 ], [ 117.313536713410627, 42.411280607090994 ], [ 117.313536735837886, 42.41128511003329 ], [ 117.313530659279621, 42.411285126652515 ], [ 117.313530681706453, 42.411289629594791 ], [ 117.313524605147748, 42.411289646213689 ], [ 117.313524627574139, 42.411294149155985 ], [ 117.313518551015022, 42.411294165774571 ], [ 117.313518573440973, 42.411298668716839 ], [ 117.313512496881387, 42.411298685335112 ], [ 117.313512519306926, 42.411303188277394 ], [ 117.313506442746899, 42.411303204895333 ], [ 117.313506465172026, 42.411307707837622 ], [ 117.313512541732479, 42.411307691219662 ], [ 117.313512564158017, 42.411312194161951 ], [ 117.313518640718897, 42.411312177543685 ], [ 117.31351866314489, 42.411316680485946 ], [ 117.31352473970621, 42.411316663867353 ], [ 117.313524806985498, 42.411330172694136 ], [ 117.313530883548111, 42.411330156075209 ], [ 117.313530928401875, 42.411339161959695 ], [ 117.313537004965355, 42.411339145340442 ], [ 117.313537049819999, 42.411348151224928 ] ] ] } },
{ "type": "Feature", "properties": { "crown_id": 295, "tree_id": "296", "top_h_m": 18.734, "H_95_Mean": 19.2722, "DBH": 30.5952, "Carbon_kg": 173.282478, "area_m2": 23.75 }, "geometry": { "type": "Polygon", "coordinates": [ [ [ 117.313385046044004, 42.411330554840532 ], [ 117.313391122606717, 42.411330538229024 ], [ 117.313391100189847, 42.411326035286699 ], [ 117.313397176752133, 42.411326018674863 ], [ 117.313397154334837, 42.411321515732553 ], [ 117.313415384020374, 42.411321465895114 ], [ 117.31341536160177, 42.411316962952796 ], [ 117.313421438163161, 42.411316946339682 ], [ 117.3134213933251, 42.41130794045506 ], [ 117.313415316764562, 42.411307957068153 ], [ 117.313415294345987, 42.41130345412585 ], [ 117.313421370906084, 42.411303437512736 ], [ 117.313421326068038, 42.4112944316281 ], [ 117.313433479186486, 42.411294398400905 ], [ 117.313433434346749, 42.411285392516263 ], [ 117.313427357788399, 42.411285409130009 ], [ 117.313427312949528, 42.411276403245338 ], [ 117.313421236392045, 42.411276419858751 ], [ 117.313421213973058, 42.411271916916405 ], [ 117.313409060858945, 42.411271950142265 ], [ 117.31340908327708, 42.411276453084632 ], [ 117.313390853604545, 42.411276502921012 ], [ 117.313390876021373, 42.411281005863366 ], [ 117.313366569789537, 42.411281072307389 ], [ 117.313366704280128, 42.411308089961494 ], [ 117.313360627719547, 42.411308106571717 ], [ 117.313360650134243, 42.411312609514063 ], [ 117.313372803256271, 42.411312576293305 ], [ 117.313372870502931, 42.411326085120272 ], [ 117.313378947065246, 42.411326068509403 ], [ 117.313378924649257, 42.411321565567086 ], [ 117.313385001211117, 42.411321548955897 ], [ 117.313385046044004, 42.411330554840532 ] ] ] } },
{ "type": "Feature", "properties": { "crown_id": 296, "tree_id": "297", "top_h_m": 19.24, "H_95_Mean": 19.9386, "DBH": 32.5155, "Carbon_kg": 199.880479, "area_m2": 28.25 }, "geometry": { "type": "Polygon", "coordinates": [ [ [ 117.313585527749822, 42.411321000605909 ], [ 117.313603757434905, 42.411320950738521 ], [ 117.3136037350028, 42.411316447796295 ], [ 117.313615888125284, 42.411316414549766 ], [ 117.313615843259413, 42.411307408665301 ], [ 117.313634072940502, 42.411307358793103 ], [ 117.313634050506238, 42.41130285585087 ], [ 117.313627973946353, 42.411302872475261 ], [ 117.31362786177742, 42.411280357764056 ], [ 117.313621785219667, 42.411280374388113 ], [ 117.313621717919659, 42.411266865561338 ], [ 117.313609564806768, 42.411266898808442 ], [ 117.313609542374323, 42.411262395866181 ], [ 117.313603465818289, 42.411262412489258 ], [ 117.31360344338627, 42.411257909546983 ], [ 117.313591290275085, 42.411257942792169 ], [ 117.313591312706208, 42.411262445734437 ], [ 117.313560929925956, 42.41126252884176 ], [ 117.313561064499879, 42.411289546495446 ], [ 117.313567141058556, 42.411289529874608 ], [ 117.313567163487974, 42.411294032816883 ], [ 117.313573240047077, 42.411294016195725 ], [ 117.313573262476964, 42.411298519137986 ], [ 117.313579339036508, 42.411298502516495 ], [ 117.313579428757791, 42.411316514285488 ], [ 117.313585505319054, 42.41131649766367 ], [ 117.313585527749822, 42.411321000605909 ] ] ] } },
{ "type": "Feature", "properties": { "crown_id": 359, "tree_id": "360", "top_h_m": 17.982, "H_95_Mean": 18.1122, "DBH": 31.7455, "Carbon_kg": 179.934679, "area_m2": 30.75 }, "geometry": { "type": "Polygon", "coordinates": [ [ [ 117.313500343762215, 42.411298718570684 ], [ 117.313506420321801, 42.411298701953044 ], [ 117.313506397896703, 42.411294199010769 ], [ 117.313512474455862, 42.411294182392822 ], [ 117.313512452030324, 42.411289679450526 ], [ 117.313518528589057, 42.411289662832282 ], [ 117.313518506163092, 42.411285159889985 ], [ 117.313524582721357, 42.411285143271414 ], [ 117.313524560294951, 42.411280640329117 ], [ 117.313530636852789, 42.411280623710212 ], [ 117.313530614425986, 42.411276120767923 ], [ 117.313542767540753, 42.411276087529167 ], [ 117.313542745113097, 42.411271584586871 ], [ 117.313524515442211, 42.411271634444518 ], [ 117.313524470589471, 42.411262628559911 ], [ 117.313506240921171, 42.411262678414637 ], [ 117.313506196071046, 42.411253672529995 ], [ 117.313500119515808, 42.411253689147593 ], [ 117.313500074666607, 42.411244683262936 ], [ 117.313493998112207, 42.4112446998802 ], [ 117.313493953263887, 42.411235693995522 ], [ 117.313463570496253, 42.411235777077003 ], [ 117.313463548074267, 42.411231274134636 ], [ 117.313451394968055, 42.411231307364972 ], [ 117.313451439810294, 42.411240313249685 ], [ 117.313445363256307, 42.411240329864377 ], [ 117.313445430518371, 42.411253838691437 ], [ 117.31345150707368, 42.411253822076738 ], [ 117.313451574337094, 42.411267330903769 ], [ 117.31345765089371, 42.411267314288736 ], [ 117.313457695736886, 42.411276320173393 ], [ 117.313463772294327, 42.411276303558054 ], [ 117.313463794716384, 42.411280806500372 ], [ 117.313457718158475, 42.411280823115732 ], [ 117.313457740580077, 42.411285326058049 ], [ 117.313469893696734, 42.411285292827003 ], [ 117.313469871274265, 42.4112807898847 ], [ 117.313475947832117, 42.4112807732687 ], [ 117.313475992677965, 42.411289779153321 ], [ 117.313482069236684, 42.411289762536988 ], [ 117.313482091660063, 42.411294265479299 ], [ 117.313500321337543, 42.411294215628374 ], [ 117.313500343762215, 42.411298718570684 ] ], [ [ 117.313506375471604, 42.411289696068465 ], [ 117.313506353046535, 42.411285193126169 ], [ 117.313512429604799, 42.411285176508237 ], [ 117.313512452030324, 42.411289679450526 ], [ 117.313506375471604, 42.411289696068465 ] ] ] } },
{ "type": "Feature", "properties": { "crown_id": 366, "tree_id": "367", "top_h_m": 17.981, "H_95_Mean": 18.6357, "DBH": 27.4124, "Carbon_kg": 136.137076, "area_m2": 16.5 }, "geometry": { "type": "Polygon", "coordinates": [ [ [ 117.313366547374457, 42.411276569365036 ], [ 117.313384777047048, 42.4112765195325 ], [ 117.313384754630675, 42.411272016590132 ], [ 117.313402984301874, 42.411271966754725 ], [ 117.313402961884208, 42.411267463812372 ], [ 117.313409038440838, 42.411267447199926 ], [ 117.313409016022717, 42.411262944257572 ], [ 117.313421169135097, 42.411262911031713 ], [ 117.313421146716138, 42.411258408089367 ], [ 117.313408993604611, 42.411258441315205 ], [ 117.313408971186547, 42.411253938372845 ], [ 117.313415047741856, 42.411253921760078 ], [ 117.313415025323323, 42.411249418817718 ], [ 117.313408948768441, 42.411249435430477 ], [ 117.313408903932256, 42.411240429545728 ], [ 117.313384597716151, 42.411240495993525 ], [ 117.313384575299807, 42.411235993051143 ], [ 117.313354192531705, 42.411236076103613 ], [ 117.313354282188413, 42.411254087873203 ], [ 117.313360358743779, 42.41125407126335 ], [ 117.31336038115839, 42.411258574205732 ], [ 117.313366457714196, 42.411258557595545 ], [ 117.313366547374457, 42.411276569365036 ] ] ] } },
{ "type": "Feature", "properties": { "crown_id": 420, "tree_id": "421", "top_h_m": 18.302, "H_95_Mean": 18.0561, "DBH": 31.0134, "Carbon_kg": 171.354489, "area_m2": 28.25 }, "geometry": { "type": "Polygon", "coordinates": [ [ [ 117.31354882167004, 42.411271567967013 ], [ 117.313554898226968, 42.411271551346836 ], [ 117.31355485336988, 42.41126254546225 ], [ 117.313548776813803, 42.411262562082428 ], [ 117.313548754385735, 42.411258059140131 ], [ 117.313560907496992, 42.411258025899471 ], [ 117.313560885068028, 42.411253522957161 ], [ 117.313554808512819, 42.411253539577658 ], [ 117.31355478608431, 42.411249036635354 ], [ 117.313560862639065, 42.411249020014864 ], [ 117.313560750494361, 42.411226505303297 ], [ 117.313554673941766, 42.41122652192378 ], [ 117.313554629084777, 42.411217516039123 ], [ 117.313548552533049, 42.411217532659272 ], [ 117.31354850767697, 42.411208526774608 ], [ 117.31353635457522, 42.411208560013918 ], [ 117.313536332148061, 42.411204057071572 ], [ 117.313530255597641, 42.411204073690747 ], [ 117.313530233170908, 42.411199570748394 ], [ 117.313524156620886, 42.41119958736725 ], [ 117.313524179047178, 42.411204090309603 ], [ 117.31351810249673, 42.411204106928125 ], [ 117.313518124922595, 42.411208609870485 ], [ 117.313512048371706, 42.411208626488694 ], [ 117.313512070797159, 42.411213129431061 ], [ 117.313505994245816, 42.411213146048944 ], [ 117.313506016670814, 42.411217648991297 ], [ 117.313499940119058, 42.411217665608859 ], [ 117.313499962543631, 42.41122216855122 ], [ 117.313481732886999, 42.411222218402017 ], [ 117.313481755310264, 42.41122672134437 ], [ 117.313475678757626, 42.411226737960668 ], [ 117.313475701180465, 42.411231240903021 ], [ 117.313500007392804, 42.411231174435919 ], [ 117.313500052241992, 42.411240180320597 ], [ 117.313506128795922, 42.411240163703013 ], [ 117.31350617364599, 42.41124916958767 ], [ 117.313512250200802, 42.411249152969759 ], [ 117.313512295051794, 42.411258158854402 ], [ 117.313530524718772, 42.411258108998716 ], [ 117.313530569572379, 42.411267114883323 ], [ 117.313548799241929, 42.411267065024724 ], [ 117.31354882167004, 42.411271567967013 ] ] ] } },
{ "type": "Feature", "properties": { "crown_id": 438, "tree_id": "439", "top_h_m": 17.324, "H_95_Mean": 17.4089, "DBH": 28.5742, "Carbon_kg": 142.173165, "area_m2": 22.0 }, "geometry": { "type": "Polygon", "coordinates": [ [ [ 117.313566984052613, 42.411258009278647 ], [ 117.313585213719463, 42.411257959414257 ], [ 117.313585191288766, 42.411253456471975 ], [ 117.31360342095428, 42.411253406604693 ], [ 117.313603398522261, 42.411248903662411 ], [ 117.313609475076987, 42.411248887039356 ], [ 117.313609273185293, 42.411208360558675 ], [ 117.313603196634489, 42.411208377181708 ], [ 117.313603174202541, 42.411203874239391 ], [ 117.313597097652163, 42.411203890862097 ], [ 117.313597052789149, 42.411194884977455 ], [ 117.313590976239638, 42.411194901599842 ], [ 117.313590998670691, 42.411199404542174 ], [ 117.313572769020809, 42.411199454407416 ], [ 117.313572791450582, 42.411203957349748 ], [ 117.313560638349756, 42.411203990591652 ], [ 117.313560660778663, 42.411208493533984 ], [ 117.31355458422783, 42.411208510154459 ], [ 117.313554606656297, 42.411213013096791 ], [ 117.313560683207584, 42.411212996476323 ], [ 117.313560728065411, 42.411222002360979 ], [ 117.313566804617579, 42.411221985740177 ], [ 117.313566984052613, 42.411258009278647 ] ] ] } },
{ "type": "Feature", "properties": { "crown_id": 508, "tree_id": "509", "top_h_m": 18.18, "H_95_Mean": 18.5059, "DBH": 33.4624, "Carbon_kg": 202.648168, "area_m2": 36.25 }, "geometry": { "type": "Polygon", "coordinates": [ [ [ 117.313342039424441, 42.41123610932236 ], [ 117.313348115978073, 42.411236092713153 ], [ 117.313348093564343, 42.41123158977075 ], [ 117.313390629436654, 42.411231473497288 ], [ 117.31339065185341, 42.411235976439684 ], [ 117.313402804960603, 42.411235943215779 ], [ 117.313402782542965, 42.411231440273404 ], [ 117.313408859096114, 42.411231423660979 ], [ 117.313408791841937, 42.411217914833806 ], [ 117.313420944945605, 42.411217881608003 ], [ 117.313420900107786, 42.411208875723219 ], [ 117.313433053209707, 42.411208842496144 ], [ 117.313433030789923, 42.411204339553748 ], [ 117.313426954239389, 42.411204356167445 ], [ 117.313426909400718, 42.41119535028264 ], [ 117.313432985950385, 42.411195333668942 ], [ 117.313432963530602, 42.411190830726554 ], [ 117.313439040079842, 42.411190814112537 ], [ 117.313439017659647, 42.411186311170127 ], [ 117.313432941110847, 42.411186327784129 ], [ 117.313432918691092, 42.411181824841726 ], [ 117.313426842142761, 42.411181841455409 ], [ 117.313426819723432, 42.411177338512999 ], [ 117.313366054243986, 42.411177504632121 ], [ 117.313366099073932, 42.411186510516998 ], [ 117.313360022525075, 42.41118652712715 ], [ 117.313360067354182, 42.411195533012034 ], [ 117.31334791425472, 42.411195566231363 ], [ 117.313347936668421, 42.411200069173802 ], [ 117.313335783568107, 42.411200102391852 ], [ 117.313335828393747, 42.411209108276722 ], [ 117.313341904944792, 42.411209091667857 ], [ 117.313341949771328, 42.411218097552705 ], [ 117.313335873219387, 42.411218114161571 ], [ 117.313335940457947, 42.411231622988844 ], [ 117.313342017011152, 42.411231606379957 ], [ 117.313342039424441, 42.41123610932236 ] ], [ [ 117.313354147703393, 42.411227070218807 ], [ 117.313354080460968, 42.41121356139157 ], [ 117.313372310115312, 42.41121351156108 ], [ 117.313372377361674, 42.411227020388303 ], [ 117.313354147703393, 42.411227070218807 ] ], [ [ 117.313414823556812, 42.411208892336283 ], [ 117.313414801138336, 42.411204389393873 ], [ 117.31342087768887, 42.411204372780816 ], [ 117.313420900107786, 42.411208875723219 ], [ 117.313414823556812, 42.411208892336283 ] ] ] } }
]
}
