{
"type": "FeatureCollection",
"name": "tile_17_18",
"crs": { "type": "name", "properties": { "name": "urn:ogc:def:crs:OGC:1.3:CRS84" } },
"features": [
{ "type": "Feature", "properties": { "crown_id": 6807, "tree_id": "6813", "top_h_m": 22.593, "H_95_Mean": 22.0299, "DBH": 36.4143, "Carbon_kg": 266.388852, "area_m2": 36.5 }, "geometry": { "type": "Polygon", "coordinates": [ [ [ 117.314063711459255, 42.408509816652412 ], [ 117.314094092909613, 42.408509733416182 ], [ 117.314094047979751, 42.408500727527702 ], [ 117.314112276847268, 42.408500677582111 ], [ 117.314112231914805, 42.408491671693639 ], [ 117.314124384491407, 42.408491638394985 ], [ 117.31412436202433, 42.408487135450748 ], [ 117.314142590887869, 42.408487085500354 ], [ 117.31414256841947, 42.408482582556132 ], [ 117.314148644706876, 42.408482565905352 ], [ 117.314148622238065, 42.408478062961116 ], [ 117.314172927385897, 42.408477996354812 ], [ 117.314172994797573, 42.40849150518747 ], [ 117.314185147374076, 42.408491471882371 ], [ 117.314185079959771, 42.408477963049734 ], [ 117.314179003672848, 42.408477979702432 ], [ 117.314178936259893, 42.40846447086976 ], [ 117.314166783688592, 42.408464504174177 ], [ 117.314166738748398, 42.408455498285704 ], [ 117.314154586178816, 42.408455531588828 ], [ 117.314154563709593, 42.408451028644571 ], [ 117.314142411140864, 42.408451061946415 ], [ 117.31414243360922, 42.408455564890666 ], [ 117.314105975900333, 42.408455664788441 ], [ 117.314105998366088, 42.408460167732713 ], [ 117.314099922080828, 42.408460184381219 ], [ 117.314099944546143, 42.408464687325484 ], [ 117.314093868260443, 42.408464703973678 ], [ 117.314093890725331, 42.408469206917943 ], [ 117.314081738153007, 42.408469240213357 ], [ 117.314081760617071, 42.408473743157622 ], [ 117.314069608043852, 42.408473776451743 ], [ 117.314069630507035, 42.408478279396022 ], [ 117.314057477932963, 42.408478312688864 ], [ 117.314057612706861, 42.408505330354444 ], [ 117.314063688996498, 42.408505313708169 ], [ 117.314063711459255, 42.408509816652412 ] ] ] } },
{ "type": "Feature", "properties": { "crown_id": 6817, "tree_id": "6823", "top_h_m": 21.499, "H_95_Mean": 21.5377, "DBH": 24.7513, "Carbon_kg": 120.716534, "area_m2": 8.5 }, "geometry": { "type": "Polygon", "coordinates": [ [ [ 117.31419122366232, 42.408491455229331 ], [ 117.314215528815211, 42.408491388613989 ], [ 117.314215506341611, 42.408486885669788 ], [ 117.314239811492698, 42.408486819049301 ], [ 117.314239766542002, 42.408477813160907 ], [ 117.314215461394397, 42.40847787978138 ], [ 117.31421539397364, 42.408464370948757 ], [ 117.314185012545522, 42.408464454217068 ], [ 117.314185057488359, 42.408473460105519 ], [ 117.314191133774855, 42.408473443452486 ], [ 117.31419122366232, 42.408491455229331 ] ] ] } },
{ "type": "Feature", "properties": { "crown_id": 6882, "tree_id": "6888", "top_h_m": 23.65, "H_95_Mean": 24.1035, "DBH": 38.4507, "Carbon_kg": 313.511584, "area_m2": 38.25 }, "geometry": { "type": "Polygon", "coordinates": [ [ [ 117.314251964068205, 42.408486785737118 ], [ 117.314258040355938, 42.408486769080547 ], [ 117.314258017879297, 42.408482266136367 ], [ 117.314276246741215, 42.408482216164721 ], [ 117.314276201785319, 42.408473210276355 ], [ 117.314282278071744, 42.408473193618512 ], [ 117.314282255593355, 42.408468690674333 ], [ 117.314294408165324, 42.408468657357673 ], [ 117.314294385686082, 42.408464154413487 ], [ 117.314288309400553, 42.408464171071969 ], [ 117.314288241964178, 42.408450662239403 ], [ 117.31427608939569, 42.408450695555402 ], [ 117.31427606691777, 42.408446192611201 ], [ 117.314269990633946, 42.408446209268718 ], [ 117.314269968156481, 42.40844170632451 ], [ 117.314251739306286, 42.408441756295112 ], [ 117.314251716830128, 42.408437253350897 ], [ 117.31423956426417, 42.408437286663009 ], [ 117.314239519313617, 42.408428280774537 ], [ 117.314209137902978, 42.408428364049193 ], [ 117.314209115429875, 42.408423861104943 ], [ 117.314203039148182, 42.408423877758899 ], [ 117.314203016675506, 42.408419374814649 ], [ 117.314196940394226, 42.408419391468286 ], [ 117.314197007810947, 42.408432900301058 ], [ 117.314178778963168, 42.408432950260043 ], [ 117.314178801434124, 42.4084374532043 ], [ 117.314172725151082, 42.408437469856665 ], [ 117.314172747621598, 42.408441972800908 ], [ 117.314154518771161, 42.408442022756063 ], [ 117.314154541240384, 42.40844652570032 ], [ 117.314160617524294, 42.408446509048929 ], [ 117.314160639993958, 42.408451011993179 ], [ 117.314172792562644, 42.408450978689409 ], [ 117.314172837503705, 42.408459984577888 ], [ 117.314221447785215, 42.40845985134991 ], [ 117.314221515207265, 42.408473360182548 ], [ 117.314245820353108, 42.408473293560803 ], [ 117.314245865304656, 42.408482299449183 ], [ 117.314251941591991, 42.408482282792932 ], [ 117.314251964068205, 42.408486785737118 ] ] ] } },
{ "type": "Feature", "properties": { "crown_id": 6889, "tree_id": "6895", "top_h_m": 21.79, "H_95_Mean": 22.3487, "DBH": 29.4031, "Carbon_kg": 174.586323, "area_m2": 15.5 }, "geometry": { "type": "Polygon", "coordinates": [ [ [ 117.314081715689014, 42.408464737269078 ], [ 117.314087791974714, 42.408464720621552 ], [ 117.314087769510252, 42.408460217677259 ], [ 117.314093845795554, 42.408460201029399 ], [ 117.314093823330651, 42.408455698085135 ], [ 117.314099899615499, 42.408455681436948 ], [ 117.314099877150198, 42.408451178492676 ], [ 117.314136334856499, 42.408451078596833 ], [ 117.314136312388584, 42.408446575652583 ], [ 117.31414846495646, 42.408446542351392 ], [ 117.314148420018881, 42.408437536462863 ], [ 117.31413019116971, 42.408437586414145 ], [ 117.314130146234774, 42.408428580525587 ], [ 117.314124069952555, 42.408428597175366 ], [ 117.314124025018529, 42.408419591286787 ], [ 117.314117948737191, 42.408419607936246 ], [ 117.314117926270598, 42.408415104991946 ], [ 117.3141118499897, 42.40841512164107 ], [ 117.31411187245584, 42.40841962458537 ], [ 117.314093643611756, 42.408419674530805 ], [ 117.314093666076602, 42.408424177475105 ], [ 117.314087589794823, 42.408424194122951 ], [ 117.314087679652488, 42.408442205900137 ], [ 117.314081603368948, 42.40844222254767 ], [ 117.314081715689014, 42.408464737269078 ] ] ] } },
{ "type": "Feature", "properties": { "crown_id": 6910, "tree_id": "6916", "top_h_m": 23.443, "H_95_Mean": 23.0312, "DBH": 33.9891, "Carbon_kg": 238.015566, "area_m2": 25.75 }, "geometry": { "type": "Polygon", "coordinates": [ [ [ 117.314154496301938, 42.408437519811798 ], [ 117.314166648868053, 42.408437486508696 ], [ 117.314166626397977, 42.408432983564431 ], [ 117.314172702680565, 42.408432966912407 ], [ 117.314172680210078, 42.408428463968136 ], [ 117.314190909056549, 42.408428414010118 ], [ 117.314190841641164, 42.408414905177338 ], [ 117.314196917922004, 42.408414888524021 ], [ 117.314196850505368, 42.40840137969122 ], [ 117.314209003064434, 42.408401346383663 ], [ 117.314208913172166, 42.408383334606555 ], [ 117.314214989449951, 42.408383317952286 ], [ 117.314214966976465, 42.408378815008007 ], [ 117.314196738144389, 42.408378864969812 ], [ 117.31419671567221, 42.408374362025505 ], [ 117.314190639395264, 42.408374378678793 ], [ 117.31419066186703, 42.408378881623108 ], [ 117.314178509312256, 42.408378914928711 ], [ 117.314178531783128, 42.408383417873011 ], [ 117.314154226671846, 42.408383484480375 ], [ 117.314154249140984, 42.408387987424689 ], [ 117.314148172862716, 42.408388004075718 ], [ 117.314148195331427, 42.408392507020025 ], [ 117.314142119052718, 42.408392523670756 ], [ 117.314142141520989, 42.408397026615056 ], [ 117.314148217800152, 42.408397009964325 ], [ 117.314148285206343, 42.408410518797204 ], [ 117.314123980084517, 42.408410585398201 ], [ 117.314124002551523, 42.408415088342494 ], [ 117.31413007883242, 42.40841507169273 ], [ 117.314130123767313, 42.408424077581309 ], [ 117.314136200049077, 42.40842406093121 ], [ 117.314136244984866, 42.408433066819775 ], [ 117.314154473832744, 42.408433016867534 ], [ 117.314154496301938, 42.408437519811798 ] ], [ [ 117.314178621666727, 42.408401429650169 ], [ 117.314178554254028, 42.408387920817297 ], [ 117.314196783088747, 42.408387870858384 ], [ 117.314196850505368, 42.40840137969122 ], [ 117.314178621666727, 42.408401429650169 ] ] ] } },
{ "type": "Feature", "properties": { "crown_id": 6911, "tree_id": "6917", "top_h_m": 21.37, "H_95_Mean": 22.145, "DBH": 25.2665, "Carbon_kg": 127.921097, "area_m2": 8.75 }, "geometry": { "type": "MultiPolygon", "coordinates": [ [ [ [ 117.314294363206869, 42.408459651469286 ], [ 117.314300439491959, 42.408459634810477 ], [ 117.314300394532651, 42.408450628922104 ], [ 117.314306470816888, 42.408450612262975 ], [ 117.314306403376662, 42.408437103430394 ], [ 117.314288174527832, 42.408437153406794 ], [ 117.314288129570315, 42.408428147518372 ], [ 117.314282053288252, 42.408428164176534 ], [ 117.314282075766585, 42.408432667120749 ], [ 117.314275999484053, 42.408432683778578 ], [ 117.314276044439879, 42.408441689666986 ], [ 117.314282120723234, 42.408441673009165 ], [ 117.314282143201595, 42.408446175953372 ], [ 117.314294295769201, 42.40844614263672 ], [ 117.314294363206869, 42.408459651469286 ] ] ], [ [ [ 117.314306403376662, 42.408437103430394 ], [ 117.314312479659563, 42.408437086770959 ], [ 117.314312457179071, 42.408432583826766 ], [ 117.314330686026494, 42.408432533846515 ], [ 117.314330641062881, 42.408423527958121 ], [ 117.314336717344489, 42.408423511297393 ], [ 117.314336672380051, 42.408414505408999 ], [ 117.314306290976361, 42.408414588709363 ], [ 117.314306403376662, 42.408437103430394 ] ] ] ] } },
{ "type": "Feature", "properties": { "crown_id": 6920, "tree_id": "6926", "top_h_m": 23.314, "H_95_Mean": 23.447, "DBH": 23.2948, "Carbon_kg": 112.330699, "area_m2": 5.75 }, "geometry": { "type": "Polygon", "coordinates": [ [ [ 117.314215191711583, 42.408423844450674 ], [ 117.314239496838312, 42.408423777830322 ], [ 117.314239474363035, 42.408419274886086 ], [ 117.314233398081811, 42.408419291541648 ], [ 117.314233353132153, 42.408410285653147 ], [ 117.314227276851767, 42.40841030230839 ], [ 117.314227209428608, 42.408396793475617 ], [ 117.31422113314953, 42.408396810130526 ], [ 117.314221088201677, 42.408387804241976 ], [ 117.314215011923451, 42.408387820896571 ], [ 117.314215101817467, 42.408405832673651 ], [ 117.314202949257535, 42.408405865981862 ], [ 117.314202994202844, 42.408414871870391 ], [ 117.314209070483699, 42.408414855216435 ], [ 117.314209092956787, 42.408419358160685 ], [ 117.314215169238039, 42.408419341506423 ], [ 117.314215191711583, 42.408423844450674 ] ] ] } },
{ "type": "Feature", "properties": { "crown_id": 6940, "tree_id": "6946", "top_h_m": 24.609, "H_95_Mean": 24.6985, "DBH": 31.6795, "Carbon_kg": 215.259564, "area_m2": 17.25 }, "geometry": { "type": "Polygon", "coordinates": [ [ [ 117.314257793113086, 42.40843723669434 ], [ 117.314269945679015, 42.408437203380288 ], [ 117.314269900724099, 42.408428197491865 ], [ 117.31427597700619, 42.408428180834349 ], [ 117.314275954528284, 42.408423677890134 ], [ 117.314288107091585, 42.408423644574164 ], [ 117.314288084612826, 42.408419141629942 ], [ 117.314282008331617, 42.408419158288091 ], [ 117.314281918418402, 42.408401146511167 ], [ 117.31427584213894, 42.408401163168975 ], [ 117.314275797183228, 42.408392157280495 ], [ 117.31426364462601, 42.408392190595137 ], [ 117.314263622149028, 42.40838768765088 ], [ 117.314251469592662, 42.408387720964242 ], [ 117.314251447116575, 42.408383218019978 ], [ 117.314233218283277, 42.408383267987581 ], [ 117.314233240758085, 42.408387770931853 ], [ 117.314227164479874, 42.408387787587074 ], [ 117.314227186954227, 42.408392290531346 ], [ 117.314233263232879, 42.40839227387611 ], [ 117.314233330657316, 42.40840578270889 ], [ 117.314239406937261, 42.408405766053335 ], [ 117.314239451887786, 42.408414771941835 ], [ 117.314245528168584, 42.40841475528596 ], [ 117.314245618071439, 42.408432767062891 ], [ 117.314257770636516, 42.408432733750125 ], [ 117.314257793113086, 42.40843723669434 ] ] ] } },
{ "type": "Feature", "properties": { "crown_id": 6954, "tree_id": "6960", "top_h_m": 21.554, "H_95_Mean": 22.5982, "DBH": 24.7238, "Carbon_kg": 123.919639, "area_m2": 7.75 }, "geometry": { "type": "Polygon", "coordinates": [ [ [ 117.314294160894022, 42.408419124971481 ], [ 117.314300237175217, 42.408419108312692 ], [ 117.314300192215995, 42.408410102424256 ], [ 117.314324497337239, 42.408410035785906 ], [ 117.314324474855908, 42.408405532841691 ], [ 117.31431839857602, 42.408405549501751 ], [ 117.314318308652432, 42.408387537724849 ], [ 117.314281850983548, 42.40838763767843 ], [ 117.314281895940127, 42.408396643566931 ], [ 117.314287972219148, 42.408396626908797 ], [ 117.314288062134082, 42.408414638685734 ], [ 117.314294138414823, 42.408414622027259 ], [ 117.314294160894022, 42.408419124971481 ] ] ] } },
{ "type": "Feature", "properties": { "crown_id": 6960, "tree_id": "6966", "top_h_m": 20.264, "H_95_Mean": 21.016, "DBH": 22.1222, "Carbon_kg": 94.8797, "area_m2": 5.75 }, "geometry": { "type": "Polygon", "coordinates": [ [ [ 117.31409362114691, 42.408415171586498 ], [ 117.314105773708789, 42.408415138289868 ], [ 117.314105751243076, 42.408410635345561 ], [ 117.314111827523561, 42.40841061869677 ], [ 117.314111805057422, 42.408406115752463 ], [ 117.314105728777363, 42.408406132401247 ], [ 117.314105706311679, 42.408401629456954 ], [ 117.314099630032061, 42.408401646105425 ], [ 117.314099607566817, 42.40839714316111 ], [ 117.314105683846009, 42.408397126512632 ], [ 117.314105661380324, 42.408392623568318 ], [ 117.314099585101559, 42.408392640216775 ], [ 117.314099562636343, 42.40838813727246 ], [ 117.314093486358018, 42.40838815392059 ], [ 117.314093463893201, 42.408383650976262 ], [ 117.314087387615302, 42.408383667624086 ], [ 117.314087410079694, 42.408388170568415 ], [ 117.314075257523015, 42.408388203863083 ], [ 117.314075279986511, 42.408392706807419 ], [ 117.314081356265291, 42.408392690160241 ], [ 117.314081446121094, 42.408410701937541 ], [ 117.314093598682106, 42.40841066864219 ], [ 117.31409362114691, 42.408415171586498 ] ] ] } },
{ "type": "Feature", "properties": { "crown_id": 6981, "tree_id": "6987", "top_h_m": 22.17, "H_95_Mean": 22.4554, "DBH": 24.4427, "Carbon_kg": 120.643188, "area_m2": 7.5 }, "geometry": { "type": "Polygon", "coordinates": [ [ [ 117.314117881337481, 42.408406099103338 ], [ 117.314142186457602, 42.408406032503649 ], [ 117.314142163989288, 42.408401529559349 ], [ 117.314136087709699, 42.408401546209753 ], [ 117.314136020306137, 42.408388037376838 ], [ 117.314142096584433, 42.408388020726434 ], [ 117.314142051647877, 42.40837901483782 ], [ 117.314117746538187, 42.408379081437459 ], [ 117.31411772407165, 42.408374578493131 ], [ 117.314111647794647, 42.408374595142213 ], [ 117.314111670260758, 42.408379098086563 ], [ 117.314099517705856, 42.408379131383796 ], [ 117.314099540171085, 42.408383634328132 ], [ 117.314105616448984, 42.408383617679661 ], [ 117.31410563891464, 42.408388120623989 ], [ 117.314111715192965, 42.408388103975213 ], [ 117.314111782591311, 42.408401612808156 ], [ 117.314117858870901, 42.408401596159038 ], [ 117.314117881337481, 42.408406099103338 ] ] ] } },
{ "type": "Feature", "properties": { "crown_id": 7009, "tree_id": "7015", "top_h_m": 23.089, "H_95_Mean": 22.9285, "DBH": 27.2437, "Carbon_kg": 151.992463, "area_m2": 11.0 }, "geometry": { "type": "Polygon", "coordinates": [ [ [ 117.314148127925293, 42.408378998187111 ], [ 117.314172433034869, 42.408378931581034 ], [ 117.314172410564439, 42.408374428636726 ], [ 117.314184563118332, 42.408374395331762 ], [ 117.314184540647034, 42.408369892387469 ], [ 117.314190616923526, 42.408369875734493 ], [ 117.314190571980077, 42.4083608698459 ], [ 117.314184495704424, 42.408360886498855 ], [ 117.314184473233141, 42.408356383554519 ], [ 117.314148015581807, 42.408356483465496 ], [ 117.314147993113153, 42.408351980521168 ], [ 117.314141916838338, 42.408351997171863 ], [ 117.314141961774823, 42.408361003060527 ], [ 117.314129809223459, 42.408361036360972 ], [ 117.314129831690849, 42.408365539305301 ], [ 117.314117679138604, 42.40836557260446 ], [ 117.314117701605127, 42.408370075548795 ], [ 117.31412377788169, 42.408370058899379 ], [ 117.314123800348639, 42.408374561843701 ], [ 117.314148105456582, 42.408374495242796 ], [ 117.314148127925293, 42.408378998187111 ] ] ] } },
{ "type": "Feature", "properties": { "crown_id": 7021, "tree_id": "7027", "top_h_m": 24.625, "H_95_Mean": 24.2584, "DBH": 40.387, "Carbon_kg": 347.459558, "area_m2": 45.75 }, "geometry": { "type": "Polygon", "coordinates": [ [ [ 117.314269698427225, 42.408387670993726 ], [ 117.314275774705379, 42.408387654336238 ], [ 117.314275752227559, 42.408383151392002 ], [ 117.314318286171556, 42.40838303478062 ], [ 117.314318241209818, 42.40837402889214 ], [ 117.314348622593911, 42.408373945588664 ], [ 117.314348600110847, 42.408369442644442 ], [ 117.314342523834483, 42.408369459305767 ], [ 117.314342501351874, 42.408364956361538 ], [ 117.314336425075936, 42.408364973022557 ], [ 117.314336357629486, 42.408351464189806 ], [ 117.314324205080183, 42.408351497510843 ], [ 117.31432416011765, 42.408342491622314 ], [ 117.314312007570052, 42.408342524942064 ], [ 117.314311962609281, 42.408333519053514 ], [ 117.314287657517553, 42.408333585689107 ], [ 117.314287679996212, 42.4083380886334 ], [ 117.314257298629244, 42.408338171920654 ], [ 117.314257276152773, 42.408333668976361 ], [ 117.314239047333828, 42.408333718944846 ], [ 117.314239114759374, 42.40834722777776 ], [ 117.314233038485099, 42.408347244433287 ], [ 117.314233060959836, 42.408351747377587 ], [ 117.314202679586145, 42.408351830650396 ], [ 117.314202702058722, 42.408356333594703 ], [ 117.314196625783524, 42.408356350248297 ], [ 117.314196693200017, 42.408369859081219 ], [ 117.314202769476537, 42.408369842427611 ], [ 117.314202791949143, 42.408374345371904 ], [ 117.314221020779897, 42.408374295409146 ], [ 117.314221065727722, 42.408383301297704 ], [ 117.314227142005507, 42.408383284642809 ], [ 117.314227119531154, 42.408378781698524 ], [ 117.31425750091779, 42.408378698419199 ], [ 117.314257523394318, 42.408383201363456 ], [ 117.314269675949816, 42.408383168049482 ], [ 117.314269698427225, 42.408387670993726 ] ], [ [ 117.314245280936206, 42.408365222899064 ], [ 117.314245213509281, 42.4083517140662 ], [ 117.314263442333427, 42.408351664096728 ], [ 117.314263509764231, 42.408365172929564 ], [ 117.314245280936206, 42.408365222899064 ] ] ] } },
{ "type": "Feature", "properties": { "crown_id": 7061, "tree_id": "7067", "top_h_m": 24.138, "H_95_Mean": 23.9497, "DBH": 38.5275, "Carbon_kg": 313.585444, "area_m2": 39.0 }, "geometry": { "type": "Polygon", "coordinates": [ [ [ 117.314099427844994, 42.408361119606425 ], [ 117.314123732947778, 42.408361053010708 ], [ 117.314123710480828, 42.408356550066372 ], [ 117.314135863031339, 42.408356516766581 ], [ 117.314135818095735, 42.408347510877896 ], [ 117.31414797064447, 42.408347477576839 ], [ 117.314147880769823, 42.408329465799447 ], [ 117.314160033315076, 42.408329432497112 ], [ 117.314160010845555, 42.408324929552755 ], [ 117.314166087117755, 42.408324912901108 ], [ 117.314166064647793, 42.408320409956772 ], [ 117.314178217191255, 42.408320376652512 ], [ 117.314178172249669, 42.408311370763812 ], [ 117.314184248520519, 42.408311354111206 ], [ 117.314184226049278, 42.408306851166856 ], [ 117.314190302319716, 42.40830683451393 ], [ 117.314190279848034, 42.408302331569573 ], [ 117.314202432387987, 42.408302298262754 ], [ 117.314202342497936, 42.40828428648534 ], [ 117.314184113693187, 42.408284336445035 ], [ 117.314184091221989, 42.408279833500664 ], [ 117.314165862418534, 42.408279883457467 ], [ 117.314165884888411, 42.408284386401846 ], [ 117.314159808620161, 42.408284403053464 ], [ 117.314159831089611, 42.408288905997843 ], [ 117.314153754820907, 42.408288922649149 ], [ 117.314153777289945, 42.408293425593534 ], [ 117.314147701020801, 42.408293442244521 ], [ 117.314147723489413, 42.408297945188899 ], [ 117.314135570950242, 42.408297978489912 ], [ 117.314135593417987, 42.408302481434283 ], [ 117.314123440877907, 42.408302514734011 ], [ 117.314123463344785, 42.408307017678396 ], [ 117.314111310803824, 42.408307050976831 ], [ 117.314111355735889, 42.408316056865608 ], [ 117.314099203193152, 42.408316090162771 ], [ 117.314099225658325, 42.408320593107149 ], [ 117.314093149386508, 42.408320609755258 ], [ 117.314093171851255, 42.408325112699636 ], [ 117.314087095579012, 42.408325129347418 ], [ 117.314087207900556, 42.408347644069288 ], [ 117.31409936044939, 42.408347610773369 ], [ 117.314099427844994, 42.408361119606425 ] ], [ [ 117.314153889635236, 42.408315940315383 ], [ 117.31415382222805, 42.408302431482277 ], [ 117.314172051038071, 42.408302381527371 ], [ 117.314172118449164, 42.408315890360441 ], [ 117.314153889635236, 42.408315940315383 ] ] ] } },
{ "type": "Feature", "properties": { "crown_id": 7062, "tree_id": "7068", "top_h_m": 26.057, "H_95_Mean": 25.7485, "DBH": 33.0047, "Carbon_kg": 239.622437, "area_m2": 18.75 }, "geometry": { "type": "Polygon", "coordinates": [ [ [ 117.314154069387939, 42.408351963870146 ], [ 117.314196603311387, 42.408351847303997 ], [ 117.314196580839237, 42.408347344359676 ], [ 117.314226962210782, 42.408347261088487 ], [ 117.314226939736486, 42.408342758144173 ], [ 117.314233016010334, 42.40834274148898 ], [ 117.31423294858611, 42.408329232656044 ], [ 117.314226872313554, 42.408329249311244 ], [ 117.314226849839244, 42.408324746366915 ], [ 117.314208621022843, 42.408324796330561 ], [ 117.314208598549868, 42.408320293386232 ], [ 117.314202522278151, 42.408320310040125 ], [ 117.314202454860549, 42.408306801207104 ], [ 117.31419637859014, 42.408306817860684 ], [ 117.314196401062233, 42.408311320805026 ], [ 117.314190324791383, 42.408311337458287 ], [ 117.31419034726305, 42.408315840402622 ], [ 117.314184270991774, 42.408315857055555 ], [ 117.314184315934256, 42.408324862944241 ], [ 117.314172163389912, 42.408324896249141 ], [ 117.314172185860301, 42.408329399193484 ], [ 117.314166109587674, 42.408329415845458 ], [ 117.314166132057636, 42.408333918789801 ], [ 117.314153979511545, 42.408333952092782 ], [ 117.314154069387939, 42.408351963870146 ] ] ] } },
{ "type": "Feature", "properties": { "crown_id": 7109, "tree_id": "7115", "top_h_m": 21.065, "H_95_Mean": 21.585, "DBH": 21.8846, "Carbon_kg": 94.315565, "area_m2": 5.25 }, "geometry": { "type": "Polygon", "coordinates": [ [ [ 117.314263352425726, 42.408333652319556 ], [ 117.3142815812446, 42.408333602347199 ], [ 117.314281536288192, 42.408324596458613 ], [ 117.314269383744019, 42.408324629773823 ], [ 117.314269293834727, 42.408306617996587 ], [ 117.31426321756436, 42.408306634653698 ], [ 117.314263195087477, 42.40830213170937 ], [ 117.314257118817551, 42.408302148366168 ], [ 117.314257141293993, 42.408306651310482 ], [ 117.31425106502364, 42.408306667966947 ], [ 117.314251177403747, 42.40832918268854 ], [ 117.31426332994883, 42.408329149375248 ], [ 117.314263352425726, 42.408333652319556 ] ] ] } }
]
}
