{
"type": "FeatureCollection",
"name": "tile_21_1",
"crs": { "type": "name", "properties": { "name": "urn:ogc:def:crs:OGC:1.3:CRS84" } },
"features": [
{ "type": "Feature", "properties": { "crown_id": 8060, "tree_id": "8067", "top_h_m": 19.795, "H_95_Mean": 19.7816, "DBH": 41.9765, "Carbon_kg": 332.881312, "area_m2": 77.25 }, "geometry": { "type": "MultiPolygon", "coordinates": [ [ [ [ 117.310128557724056, 42.407750515687084 ], [ 117.31013463394315, 42.407750499249296 ], [ 117.310134611761981, 42.407745996302751 ], [ 117.310128535543328, 42.407746012740546 ], [ 117.310128557724056, 42.407750515687084 ] ] ], [ [ [ 117.310128513362628, 42.407741509794008 ], [ 117.3101224371444, 42.407741526231469 ], [ 117.310122459324688, 42.407746029178007 ], [ 117.310128535543328, 42.407746012740546 ], [ 117.310128513362628, 42.407741509794008 ] ] ], [ [ [ 117.310007210717941, 42.407786867947848 ], [ 117.310013286940588, 42.40778685151647 ], [ 117.310013309113103, 42.407791354463015 ], [ 117.310007232890015, 42.407791370894401 ], [ 117.310007277234206, 42.407800376787492 ], [ 117.3100194296821, 42.407800343924414 ], [ 117.310019451855069, 42.407804846870945 ], [ 117.31002552807945, 42.407804830438927 ], [ 117.31002555025286, 42.407809333385451 ], [ 117.310037702702488, 42.407809300520434 ], [ 117.310037747051055, 42.407818306413489 ], [ 117.310043823276729, 42.407818289980476 ], [ 117.310043867626177, 42.407827295873503 ], [ 117.310068172532283, 42.40782723013826 ], [ 117.310068150355804, 42.407822727191764 ], [ 117.310080302807975, 42.407822694322221 ], [ 117.310080280630629, 42.407818191375718 ], [ 117.310086356856289, 42.407818174940473 ], [ 117.310086334678516, 42.407813671993964 ], [ 117.310092410903707, 42.407813655558385 ], [ 117.310092366547337, 42.407804649665394 ], [ 117.310104518995971, 42.407804616793285 ], [ 117.310104496816919, 42.407800113846797 ], [ 117.310110573040802, 42.407800097410252 ], [ 117.310110528681861, 42.407791091517247 ], [ 117.310116604904835, 42.407791075080389 ], [ 117.310116582724945, 42.407786572133894 ], [ 117.310122658947506, 42.407786555696717 ], [ 117.310122636767176, 42.407782052750214 ], [ 117.310140865433539, 42.407782003436786 ], [ 117.310140843251915, 42.407777500490276 ], [ 117.310146919473567, 42.407777484051827 ], [ 117.310146941655645, 42.40778198699833 ], [ 117.310153017877738, 42.407781970559554 ], [ 117.310152973512743, 42.407772964666556 ], [ 117.310159049733969, 42.407772948227461 ], [ 117.310159027551052, 42.407768445280958 ], [ 117.310152951330267, 42.407768461720046 ], [ 117.310152840417885, 42.407745946987454 ], [ 117.310146764199246, 42.407745963426208 ], [ 117.310146786381281, 42.40775046637274 ], [ 117.310140710162216, 42.407750482811181 ], [ 117.31014077670703, 42.407763991650739 ], [ 117.310122548045882, 42.407764040964132 ], [ 117.31012248150499, 42.407750532124552 ], [ 117.310116405285896, 42.407750548561694 ], [ 117.310116383106035, 42.407746045615148 ], [ 117.310110306887381, 42.407746062051977 ], [ 117.310110329066816, 42.40775056499853 ], [ 117.310104252847694, 42.407750581435032 ], [ 117.310104275026688, 42.40775508438157 ], [ 117.310098198807168, 42.407755100817752 ], [ 117.310098243164305, 42.407764106710829 ], [ 117.310092166943889, 42.407764123146698 ], [ 117.310092144765761, 42.40775962020016 ], [ 117.310079992325768, 42.407759653070912 ], [ 117.310079947971261, 42.407750647177821 ], [ 117.310073871752138, 42.407750663612717 ], [ 117.310073893928958, 42.407755166559269 ], [ 117.310061741489832, 42.407755199428102 ], [ 117.310061719313879, 42.407750696481536 ], [ 117.310037414437289, 42.407750762215301 ], [ 117.310037370088878, 42.40774175632216 ], [ 117.31002521765231, 42.407741789187099 ], [ 117.310025239825634, 42.407746292133673 ], [ 117.310031316044373, 42.407746275701363 ], [ 117.310031338218124, 42.407750778647944 ], [ 117.310025261998987, 42.407750795080268 ], [ 117.310025284172312, 42.407755298026835 ], [ 117.310013131733115, 42.40775533089051 ], [ 117.310013153905601, 42.407759833837083 ], [ 117.31000707768554, 42.407759850268434 ], [ 117.310007033341464, 42.407750844375279 ], [ 117.309994880903076, 42.407750877237014 ], [ 117.309994858731912, 42.407746374290426 ], [ 117.309988782513145, 42.407746390720796 ], [ 117.309988760342421, 42.407741887774208 ], [ 117.309976607905767, 42.40774192063401 ], [ 117.309976674415367, 42.407755429473795 ], [ 117.309964521976056, 42.407755462332311 ], [ 117.30996454414506, 42.407759965278913 ], [ 117.309970620365149, 42.407759948849808 ], [ 117.309970664704039, 42.407768954742984 ], [ 117.309976740924981, 42.407768938313559 ], [ 117.30997676309488, 42.407773441260147 ], [ 117.30998891553763, 42.40777340840031 ], [ 117.309988937708397, 42.407777911346876 ], [ 117.310007166373779, 42.407777862054715 ], [ 117.310007210717941, 42.407786867947848 ] ], [ [ 117.310007144201705, 42.407773359108148 ], [ 117.310019296644413, 42.407773326245106 ], [ 117.310019318817353, 42.407777829191666 ], [ 117.310007166373779, 42.407777862054715 ], [ 117.310007144201705, 42.407773359108148 ] ], [ [ 117.309982750634987, 42.407755413044065 ], [ 117.309988826854607, 42.407755396613979 ], [ 117.309988849025373, 42.407759899560574 ], [ 117.309982772805313, 42.407759915990638 ], [ 117.309982750634987, 42.407755413044065 ] ] ], [ [ [ 117.310104230668713, 42.407746078488486 ], [ 117.310098154450031, 42.407746094924654 ], [ 117.3100981766286, 42.4077505978712 ], [ 117.310104252847694, 42.407750581435032 ], [ 117.310104230668713, 42.407746078488486 ] ] ] ] } },
{ "type": "Feature", "properties": { "crown_id": 8067, "tree_id": "8074", "top_h_m": 9.77, "H_95_Mean": 10.6967, "DBH": 19.8313, "Carbon_kg": 51.051471, "area_m2": 13.5 }, "geometry": { "type": "Polygon", "coordinates": [ [ [ 117.309928264155801, 42.407796087419527 ], [ 117.309940416602998, 42.407796054564827 ], [ 117.309940394435699, 42.407791551618253 ], [ 117.309946470658829, 42.40779153519042 ], [ 117.309946492826569, 42.407796038136993 ], [ 117.309952569050154, 42.40779602170884 ], [ 117.309952546881973, 42.407791518762266 ], [ 117.309976851774493, 42.407791453046428 ], [ 117.30997680743468, 42.407782447153295 ], [ 117.309982883656929, 42.407782430723529 ], [ 117.309982861486574, 42.407777927776962 ], [ 117.309970709042958, 42.407777960636153 ], [ 117.309970686873498, 42.407773457689565 ], [ 117.309964610652116, 42.407773474118677 ], [ 117.309964566314065, 42.407764468225508 ], [ 117.30995849009355, 42.407764484654294 ], [ 117.309958467924972, 42.407759981707692 ], [ 117.309946315484794, 42.407760014564282 ], [ 117.309946337652491, 42.407764517510884 ], [ 117.309934185211404, 42.407764550366196 ], [ 117.309934207378248, 42.407769053312798 ], [ 117.309915978715281, 42.407769102593349 ], [ 117.309916023046384, 42.407778108486553 ], [ 117.309922099268249, 42.40777809206002 ], [ 117.309922143600218, 42.407787097953211 ], [ 117.30992821982295, 42.407787081526358 ], [ 117.309928264155801, 42.407796087419527 ] ] ] } },
{ "type": "Feature", "properties": { "crown_id": 8107, "tree_id": "8114", "top_h_m": 10.66, "H_95_Mean": 11.6151, "DBH": 17.9162, "Carbon_kg": 43.67902, "area_m2": 7.75 }, "geometry": { "type": "Polygon", "coordinates": [ [ [ 117.309891651667471, 42.407764665349639 ], [ 117.30992810899086, 42.407764566793368 ], [ 117.309928086824456, 42.407760063846752 ], [ 117.309940239264677, 42.407760030992094 ], [ 117.309940217097406, 42.407755528045485 ], [ 117.309952369536731, 42.407755495189548 ], [ 117.309952325200484, 42.407746489296329 ], [ 117.309946248981703, 42.407746505724454 ], [ 117.309946226814006, 42.407742002777837 ], [ 117.309940150595651, 42.407742019205642 ], [ 117.309940172762893, 42.407746522152259 ], [ 117.309903715449977, 42.407746620712331 ], [ 117.309903759779274, 42.407755626605578 ], [ 117.309891607339878, 42.407755659456377 ], [ 117.309891651667471, 42.407764665349639 ] ] ] } },
{ "type": "Feature", "properties": { "crown_id": 8129, "tree_id": "8136", "top_h_m": 9.59, "H_95_Mean": 10.6344, "DBH": 17.1385, "Carbon_kg": 37.911358, "area_m2": 7.75 }, "geometry": { "type": "Polygon", "coordinates": [ [ [ 117.309891585176089, 42.407751156509747 ], [ 117.309897661395354, 42.407751140084521 ], [ 117.309897617066952, 42.407742134191245 ], [ 117.309903693285335, 42.4077421177657 ], [ 117.309903648956052, 42.407733111872425 ], [ 117.309921877608645, 42.407733062593856 ], [ 117.309921921940514, 42.407742068487124 ], [ 117.309934074377267, 42.40774203563312 ], [ 117.309933941376471, 42.407715017953336 ], [ 117.309927865160716, 42.40771503438048 ], [ 117.309927909493425, 42.407724040273756 ], [ 117.309921833276775, 42.40772405670058 ], [ 117.309921811110854, 42.407719553753935 ], [ 117.309897506245974, 42.407719619458021 ], [ 117.309897484081773, 42.407715116511355 ], [ 117.30989140786599, 42.407715132936566 ], [ 117.309891585176089, 42.407751156509747 ] ], [ [ 117.309915779225619, 42.407728576073737 ], [ 117.309915757060125, 42.407724073127099 ], [ 117.309921833276775, 42.40772405670058 ], [ 117.309921855442695, 42.407728559647218 ], [ 117.309915779225619, 42.407728576073737 ] ] ] } },
{ "type": "Feature", "properties": { "crown_id": 8147, "tree_id": "8154", "top_h_m": 7.808, "H_95_Mean": 8.1837, "DBH": 15.9859, "Carbon_kg": 28.219098, "area_m2": 10.0 }, "geometry": { "type": "MultiPolygon", "coordinates": [ [ [ [ 117.30999472570501, 42.407719356610805 ], [ 117.310012954353454, 42.407719307317777 ], [ 117.31001293218101, 42.407714804371167 ], [ 117.310006855965312, 42.407714820802489 ], [ 117.31000683379331, 42.407710317855873 ], [ 117.310000757578024, 42.407710334286875 ], [ 117.3100007797496, 42.407714837233513 ], [ 117.309994703533874, 42.407714853664181 ], [ 117.30999472570501, 42.407719356610805 ] ] ], [ [ [ 117.30999472570501, 42.407719356610805 ], [ 117.309976497056539, 42.407719405900934 ], [ 117.309976541396225, 42.407728411794167 ], [ 117.309970465179163, 42.407728428223571 ], [ 117.30997050951801, 42.407737434116804 ], [ 117.309988738171683, 42.407737384827605 ], [ 117.309988716000987, 42.407732881881003 ], [ 117.309994792218447, 42.407732865450633 ], [ 117.309994836560747, 42.407741871343823 ], [ 117.310000912779074, 42.407741854913127 ], [ 117.310000890607483, 42.407737351966539 ], [ 117.310013043043242, 42.407737319104157 ], [ 117.310013020870784, 42.407732816157583 ], [ 117.310019097088215, 42.40773279972592 ], [ 117.310019074915317, 42.407728296779318 ], [ 117.310025151132322, 42.407728280347335 ], [ 117.310025128958998, 42.407723777400733 ], [ 117.310019052742462, 42.407723793832709 ], [ 117.310019030569563, 42.407719290886114 ], [ 117.310012954353454, 42.407719307317777 ], [ 117.310012976525883, 42.407723810264379 ], [ 117.309994747876146, 42.407723859557414 ], [ 117.30999472570501, 42.407719356610805 ] ] ], [ [ [ 117.31000683379331, 42.407710317855873 ], [ 117.310018986223824, 42.407710284992895 ], [ 117.310018941878113, 42.407701279099676 ], [ 117.310012865663737, 42.407701295531325 ], [ 117.310012887836137, 42.407705798477942 ], [ 117.310006811621307, 42.407705814909257 ], [ 117.31000683379331, 42.407710317855873 ] ] ], [ [ [ 117.310019030569563, 42.407719290886114 ], [ 117.310025106785702, 42.407719274454138 ], [ 117.310025128958998, 42.407723777400733 ], [ 117.310031205175576, 42.40772376096843 ], [ 117.310031183001811, 42.407719258021842 ], [ 117.310037259217935, 42.407719241589227 ], [ 117.310037237043758, 42.407714738642625 ], [ 117.310019008396694, 42.407714787939511 ], [ 117.310019030569563, 42.407719290886114 ] ] ], [ [ [ 117.310025151132322, 42.407728280347335 ], [ 117.310025173305661, 42.407732783293923 ], [ 117.310031249523064, 42.407732766861628 ], [ 117.310031227349313, 42.407728263915025 ], [ 117.310025151132322, 42.407728280347335 ] ] ], [ [ [ 117.310013043043242, 42.407737319104157 ], [ 117.310013065215699, 42.40774182205076 ], [ 117.310019141433997, 42.407741805619096 ], [ 117.310019119261113, 42.407737302672501 ], [ 117.310013043043242, 42.407737319104157 ] ] ] ] } },
{ "type": "Feature", "properties": { "crown_id": 8151, "tree_id": "8158", "top_h_m": 8.1, "H_95_Mean": 8.9347, "DBH": 16.1724, "Carbon_kg": 30.426251, "area_m2": 8.75 }, "geometry": { "type": "MultiPolygon", "coordinates": [ [ [ [ 117.309952125687573, 42.407705962776689 ], [ 117.309958201902475, 42.407705946348266 ], [ 117.309958179733954, 42.407701443401628 ], [ 117.309964255948387, 42.407701426972878 ], [ 117.309964233779468, 42.40769692402624 ], [ 117.309952081351426, 42.407696956883392 ], [ 117.309952125687573, 42.407705962776689 ] ] ], [ [ [ 117.309952125687573, 42.407705962776689 ], [ 117.309939973257812, 42.407705995632583 ], [ 117.309940061926696, 42.407724007419141 ], [ 117.309952214359939, 42.407723974563233 ], [ 117.309952258696129, 42.407732980456494 ], [ 117.30994618247864, 42.407732996884604 ], [ 117.309946204646323, 42.407737499831228 ], [ 117.309952280864238, 42.407737483403096 ], [ 117.309952303032375, 42.40774198634972 ], [ 117.30995837925073, 42.407741969921275 ], [ 117.309958357082166, 42.407737466974659 ], [ 117.309964433300081, 42.407737450545895 ], [ 117.309964411131105, 42.407732947599278 ], [ 117.309958334913617, 42.407732964028035 ], [ 117.309958246239503, 42.407714952241534 ], [ 117.309988627318162, 42.407714870094559 ], [ 117.309988605147481, 42.407710367147921 ], [ 117.309994681362753, 42.407710350717572 ], [ 117.309994637020509, 42.407701344824318 ], [ 117.309964255948387, 42.407701426972878 ], [ 117.309964278117334, 42.407705929919516 ], [ 117.309958201902475, 42.407705946348266 ], [ 117.309958224070982, 42.407710449294903 ], [ 117.309952147855654, 42.407710465723326 ], [ 117.309952125687573, 42.407705962776689 ] ], [ [ 117.309970376501582, 42.407710416437077 ], [ 117.309970354332208, 42.407705913490446 ], [ 117.309976430547067, 42.407705897061042 ], [ 117.309976452716882, 42.40771040000768 ], [ 117.309970376501582, 42.407710416437077 ] ] ] ] } },
{ "type": "Feature", "properties": { "crown_id": 8217, "tree_id": "8225", "top_h_m": 17.434, "H_95_Mean": 18.2199, "DBH": 33.7335, "Carbon_kg": 204.082061, "area_m2": 38.5 }, "geometry": { "type": "MultiPolygon", "coordinates": [ [ [ [ 117.310086002012696, 42.407746127796052 ], [ 117.310092078231378, 42.407746111360524 ], [ 117.310092033875137, 42.407737105467405 ], [ 117.310085957657336, 42.407737121902933 ], [ 117.310086002012696, 42.407746127796052 ] ] ], [ [ [ 117.310092033875137, 42.407737105467405 ], [ 117.310098110092952, 42.407737089031556 ], [ 117.310098087914412, 42.407732586084997 ], [ 117.310116316566493, 42.407732536775519 ], [ 117.310116294386646, 42.40772803382896 ], [ 117.310098065735872, 42.407728083138437 ], [ 117.310098043557346, 42.40772358019187 ], [ 117.310091967340853, 42.407723596627712 ], [ 117.310091945162753, 42.407719093681145 ], [ 117.310073716514538, 42.407719142986728 ], [ 117.310073738691315, 42.407723645933316 ], [ 117.310061586258286, 42.4077236788021 ], [ 117.310061630610122, 42.407732684695247 ], [ 117.31006770682751, 42.407732668261019 ], [ 117.31006772900389, 42.407737171207593 ], [ 117.31007988143952, 42.407737138338149 ], [ 117.310079859262274, 42.407732635391582 ], [ 117.310092011697051, 42.407732602520838 ], [ 117.310092033875137, 42.407737105467405 ] ] ], [ [ [ 117.310091945162753, 42.407719093681145 ], [ 117.310098021378806, 42.407719077245311 ], [ 117.310097977021769, 42.407710071352156 ], [ 117.310091900806597, 42.40771008778799 ], [ 117.310091945162753, 42.407719093681145 ] ] ], [ [ [ 117.310097977021769, 42.407710071352156 ], [ 117.310104053236969, 42.407710054915995 ], [ 117.310104075415921, 42.407714557862569 ], [ 117.310110151631548, 42.407714541426095 ], [ 117.31011012945217, 42.407710038479514 ], [ 117.310128358097685, 42.40770998916814 ], [ 117.310128335917014, 42.407705486221573 ], [ 117.310134412131745, 42.407705469783814 ], [ 117.310134367769521, 42.407696463890666 ], [ 117.3101525964111, 42.407696414575454 ], [ 117.310152574228681, 42.407691911628895 ], [ 117.310158650442077, 42.407691895189842 ], [ 117.310158628259259, 42.407687392243275 ], [ 117.310164704472214, 42.40768737580391 ], [ 117.310164660105698, 42.407678369910776 ], [ 117.310170736317787, 42.407678353471105 ], [ 117.310170714134102, 42.407673850524517 ], [ 117.310182866557398, 42.407673817644195 ], [ 117.31018282218831, 42.407664811751054 ], [ 117.310188898399076, 42.407664795310403 ], [ 117.310188854029121, 42.407655789417248 ], [ 117.31016454918948, 42.407655855177858 ], [ 117.310164504823021, 42.407646849284667 ], [ 117.310140199986762, 42.407646915040104 ], [ 117.310140177805295, 42.407642412093494 ], [ 117.310128025388011, 42.407642444969269 ], [ 117.31012809192984, 42.407655953809112 ], [ 117.310109863299971, 42.407656003120394 ], [ 117.310109885479278, 42.40766050606701 ], [ 117.310103809268895, 42.407660522503463 ], [ 117.310103831447762, 42.407665025450072 ], [ 117.31009775523691, 42.407665041886204 ], [ 117.310097777415379, 42.407669544832814 ], [ 117.310103853626657, 42.407669528396674 ], [ 117.310103942342309, 42.407687540183083 ], [ 117.310110018555307, 42.407687523746617 ], [ 117.310110085093413, 42.40770103258636 ], [ 117.310097932664775, 42.407701065458994 ], [ 117.310097977021769, 42.407710071352156 ] ], [ [ 117.310158539527961, 42.407669380456973 ], [ 117.310158517345158, 42.407664877510392 ], [ 117.310164593555953, 42.407664861071034 ], [ 117.310164615739197, 42.407669364017615 ], [ 117.310158539527961, 42.407669380456973 ] ] ] ] } },
{ "type": "Feature", "properties": { "crown_id": 8227, "tree_id": "8235", "top_h_m": 19.74, "H_95_Mean": 19.6591, "DBH": 34.1308, "Carbon_kg": 218.565869, "area_m2": 35.0 }, "geometry": { "type": "MultiPolygon", "coordinates": [ [ [ [ 117.310049345125037, 42.407705699883223 ], [ 117.310061497554614, 42.40770566701574 ], [ 117.310061519730539, 42.407710169962343 ], [ 117.31005544351531, 42.407710186396237 ], [ 117.310055487866251, 42.407719192289427 ], [ 117.310067640298442, 42.407719159421283 ], [ 117.31006761812209, 42.407714656474703 ], [ 117.310079770553401, 42.40771462360528 ], [ 117.310079748376182, 42.407710120658699 ], [ 117.310085824591383, 42.407710104223504 ], [ 117.310085802413752, 42.407705601276916 ], [ 117.310091878628526, 42.407705584841409 ], [ 117.31009183427237, 42.407696578948233 ], [ 117.310103986700156, 42.407696546076252 ], [ 117.310103964521232, 42.407692043129671 ], [ 117.31009788830778, 42.407692059565811 ], [ 117.310097799593848, 42.407674047779423 ], [ 117.310091723382129, 42.407674064215236 ], [ 117.310091679026073, 42.407665058322017 ], [ 117.310085602815221, 42.407665074757503 ], [ 117.310085580637619, 42.407660571810879 ], [ 117.310079504427208, 42.407660588246053 ], [ 117.310079460072899, 42.407651582352798 ], [ 117.310061231444195, 42.407651631656336 ], [ 117.310061209268355, 42.407647128709691 ], [ 117.310049056850076, 42.407647161577103 ], [ 117.310049079025049, 42.407651664523755 ], [ 117.310036926605846, 42.40765169738988 ], [ 117.310036948779967, 42.407656200336532 ], [ 117.310030872569939, 42.407656216769112 ], [ 117.31003093909095, 42.40766972560904 ], [ 117.310018786668266, 42.407669758473254 ], [ 117.310018808841079, 42.407674261419899 ], [ 117.310012732629303, 42.407674277851527 ], [ 117.310012754801704, 42.407678780798172 ], [ 117.310018831013934, 42.407678764366537 ], [ 117.31001889753243, 42.407692273206429 ], [ 117.310024973745954, 42.40769225677446 ], [ 117.310024995919221, 42.407696759721091 ], [ 117.310037148347121, 42.407696726856194 ], [ 117.310037126172958, 42.407692223909578 ], [ 117.310043202386481, 42.40769220747665 ], [ 117.310043246735646, 42.407701213369876 ], [ 117.310049322950007, 42.407701196936621 ], [ 117.310049345125037, 42.407705699883223 ] ] ], [ [ [ 117.310049345125037, 42.407705699883223 ], [ 117.310043268910249, 42.407705716316485 ], [ 117.310043291084853, 42.407710219263073 ], [ 117.310049367300067, 42.407710202829819 ], [ 117.310049345125037, 42.407705699883223 ] ] ], [ [ [ 117.310055487866251, 42.407719192289427 ], [ 117.310049411650155, 42.407719208723023 ], [ 117.310049433825213, 42.407723711669597 ], [ 117.310055510041735, 42.407723695236008 ], [ 117.310055487866251, 42.407719192289427 ] ] ] ] } },
{ "type": "Feature", "properties": { "crown_id": 8240, "tree_id": "8248", "top_h_m": 20.366, "H_95_Mean": 20.9465, "DBH": 33.209, "Carbon_kg": 214.73867, "area_m2": 28.0 }, "geometry": { "type": "Polygon", "coordinates": [ [ [ 117.309891319211062, 42.407697121149894 ], [ 117.309897395425111, 42.40769710472469 ], [ 117.309897373260966, 42.40769260177801 ], [ 117.309903449474589, 42.4076925853525 ], [ 117.309903427310019, 42.407688082405826 ], [ 117.309927732162691, 42.407688016700526 ], [ 117.309927687830083, 42.4076790108072 ], [ 117.309933764042356, 42.407678994380063 ], [ 117.309933741875625, 42.40767449143339 ], [ 117.309939818087486, 42.407674475005955 ], [ 117.309939773753143, 42.407665469112601 ], [ 117.309945849964123, 42.407665452684839 ], [ 117.309945783461345, 42.40765194384479 ], [ 117.309933631041986, 42.407651976699974 ], [ 117.309933542375177, 42.40763396491316 ], [ 117.309927466167224, 42.407633981340275 ], [ 117.309927421834729, 42.407624975446844 ], [ 117.309921345627643, 42.407624991873611 ], [ 117.30992132346185, 42.407620488926888 ], [ 117.309903094841886, 42.407620538205258 ], [ 117.309903072677358, 42.407616035258535 ], [ 117.309890920264905, 42.407616068109157 ], [ 117.309891319211062, 42.407697121149894 ] ] ] } },
{ "type": "Feature", "properties": { "crown_id": 8252, "tree_id": "8260", "top_h_m": 19.545, "H_95_Mean": 19.9519, "DBH": 27.2686, "Carbon_kg": 140.249917, "area_m2": 14.25 }, "geometry": { "type": "MultiPolygon", "coordinates": [ [ [ [ 117.310000646720312, 42.407687819553743 ], [ 117.310012799146506, 42.407687786691447 ], [ 117.310012776974091, 42.407683283744809 ], [ 117.310006700761434, 42.407683300176117 ], [ 117.310006634245553, 42.407669791336183 ], [ 117.310012710456917, 42.407669774904882 ], [ 117.310012688284559, 42.407665271958244 ], [ 117.310024840706376, 42.407665239094676 ], [ 117.310024774186644, 42.40765173025472 ], [ 117.310030850396245, 42.40765171382246 ], [ 117.310030828222594, 42.407647210875808 ], [ 117.310042980640929, 42.407647178010329 ], [ 117.310042958466383, 42.40764267506367 ], [ 117.310036882257677, 42.407642691496562 ], [ 117.310036860083585, 42.40763818854991 ], [ 117.310030783875277, 42.407638204982497 ], [ 117.310030695180728, 42.407620193195811 ], [ 117.310024618974154, 42.407620209628057 ], [ 117.310024596800986, 42.407615706681376 ], [ 117.310018520594838, 42.407615723113288 ], [ 117.31001854276758, 42.407620226059969 ], [ 117.310012466561034, 42.407620242491568 ], [ 117.310012555250367, 42.407638254278282 ], [ 117.310006479042045, 42.407638270709569 ], [ 117.310006523385894, 42.407647276602908 ], [ 117.310000447176705, 42.407647293033861 ], [ 117.310000535862713, 42.407665304820512 ], [ 117.309994459651762, 42.407665321251173 ], [ 117.309994503993906, 42.407674327144491 ], [ 117.309988427782116, 42.407674343574818 ], [ 117.309988472123422, 42.407683349468122 ], [ 117.310000624548763, 42.407683316607105 ], [ 117.310000646720312, 42.407687819553743 ] ] ], [ [ [ 117.310024596800986, 42.407615706681376 ], [ 117.310030673007091, 42.407615690249138 ], [ 117.31003062865986, 42.407606684355763 ], [ 117.31001847624934, 42.407606717219913 ], [ 117.310018498422082, 42.407611220166608 ], [ 117.310024574627789, 42.407611203734696 ], [ 117.310024596800986, 42.407615706681376 ] ] ] ] } },
{ "type": "Feature", "properties": { "crown_id": 8264, "tree_id": "8272", "top_h_m": 20.321, "H_95_Mean": 20.2504, "DBH": 32.1422, "Carbon_kg": 197.082854, "area_m2": 26.25 }, "geometry": { "type": "Polygon", "coordinates": [ [ [ 117.309976319698052, 42.407683382327846 ], [ 117.309982395910751, 42.407683365898151 ], [ 117.309982329400086, 42.407669857058195 ], [ 117.309988405611463, 42.407669840628159 ], [ 117.309988361270186, 42.407660834734855 ], [ 117.309994437480697, 42.407660818304528 ], [ 117.309994348796451, 42.407642806517842 ], [ 117.310000425005214, 42.407642790087216 ], [ 117.310000380662274, 42.407633784193855 ], [ 117.310006456870141, 42.407633767762889 ], [ 117.31000636818257, 42.40761575597616 ], [ 117.310012444388704, 42.407615739544887 ], [ 117.310012377871757, 42.407602230704804 ], [ 117.310000225462076, 42.407602263567021 ], [ 117.310000203290656, 42.407597760620305 ], [ 117.30998197467737, 42.407597809911195 ], [ 117.309982019017639, 42.40760681580462 ], [ 117.309975942812372, 42.407606832234279 ], [ 117.309976009321474, 42.407620341074399 ], [ 117.309963856908254, 42.407620373932758 ], [ 117.309963879077131, 42.407624876879453 ], [ 117.309957802870073, 42.407624893308167 ], [ 117.309957825038495, 42.407629396254869 ], [ 117.309951748831011, 42.407629412683249 ], [ 117.309951815334998, 42.407642921523347 ], [ 117.309945739126192, 42.407642937951415 ], [ 117.309945716958623, 42.407638435004714 ], [ 117.309939640750258, 42.407638451432454 ], [ 117.30993968508453, 42.407647457325851 ], [ 117.309951837503007, 42.407647424470035 ], [ 117.309951881839027, 42.40765643036341 ], [ 117.309964034259252, 42.407656397506287 ], [ 117.309964056428115, 42.407660900452967 ], [ 117.309970132638654, 42.407660884023912 ], [ 117.309970221316007, 42.407678895810569 ], [ 117.309976297528252, 42.407678879381201 ], [ 117.309976319698052, 42.407683382327846 ] ] ] } },
{ "type": "Feature", "properties": { "crown_id": 8284, "tree_id": "8292", "top_h_m": 19.84, "H_95_Mean": 19.718, "DBH": 33.2642, "Carbon_kg": 207.892587, "area_m2": 31.5 }, "geometry": { "type": "Polygon", "coordinates": [ [ [ 117.310091656848059, 42.407660555375401 ], [ 117.31009773305847, 42.407660538939588 ], [ 117.310097710880015, 42.407656035992972 ], [ 117.310103787089986, 42.407656019556839 ], [ 117.310103764911119, 42.40765151661023 ], [ 117.31012199353971, 42.407651467299921 ], [ 117.310121926999173, 42.407637958460057 ], [ 117.310128003207396, 42.40763794202266 ], [ 117.310127981026795, 42.407633439076029 ], [ 117.310121904818999, 42.407633455513434 ], [ 117.310121860458693, 42.407624449620165 ], [ 117.310115784251764, 42.40762446605725 ], [ 117.310115762072044, 42.407619963110612 ], [ 117.310109685865555, 42.407619979547363 ], [ 117.310109641507012, 42.407610973654073 ], [ 117.310097489095753, 42.407611006526601 ], [ 117.31009746691737, 42.407606503579927 ], [ 117.310079238301753, 42.4076065528863 ], [ 117.310079193947558, 42.407597546992953 ], [ 117.310054889130129, 42.40759761273025 ], [ 117.310054933480828, 42.40760661862361 ], [ 117.310042781070365, 42.407606651490333 ], [ 117.31004282541933, 42.407615657383687 ], [ 117.310036749213211, 42.407615673816572 ], [ 117.310036837909493, 42.407633685603258 ], [ 117.310042914117361, 42.407633669170366 ], [ 117.310042936291865, 42.407638172117018 ], [ 117.310049012500158, 42.407638155683792 ], [ 117.310049034675117, 42.407642658630451 ], [ 117.310067263301249, 42.407642609328853 ], [ 117.310067285477501, 42.407647112275505 ], [ 117.310085514104898, 42.407647062971002 ], [ 117.310085558460045, 42.407656068864256 ], [ 117.31009163467003, 42.407656052428777 ], [ 117.310091656848059, 42.407660555375401 ] ] ] } }
]
}
