{
"type": "FeatureCollection",
"name": "tile_3_24",
"crs": { "type": "name", "properties": { "name": "urn:ogc:def:crs:OGC:1.3:CRS84" } },
"features": [
{ "type": "Feature", "properties": { "crown_id": 877, "tree_id": "878", "top_h_m": 18.873, "H_95_Mean": 20.0484, "DBH": 26.424, "Carbon_kg": 132.008462, "area_m2": 12.5 }, "geometry": { "type": "Polygon", "coordinates": [ [ [ 117.315868868564607, 42.411026539726059 ], [ 117.315887098160388, 42.411026489495853 ], [ 117.315887052970055, 42.411017483612888 ], [ 117.31589312950112, 42.411017466868856 ], [ 117.31589310690552, 42.411012963927384 ], [ 117.315905259966726, 42.411012930438346 ], [ 117.315905214773821, 42.411003924555374 ], [ 117.315911291303564, 42.411003907810375 ], [ 117.315911268706657, 42.41099940486891 ], [ 117.315899115648065, 42.41099943835858 ], [ 117.315899070456055, 42.410990432475586 ], [ 117.315892993927605, 42.410990449219931 ], [ 117.315892926140961, 42.410976940395422 ], [ 117.315880773086661, 42.41097697388313 ], [ 117.315880840870719, 42.410990482707646 ], [ 117.315874764342283, 42.410990499451032 ], [ 117.315874786936533, 42.410995002392546 ], [ 117.315868710407656, 42.410995019135605 ], [ 117.31586873300148, 42.410999522077105 ], [ 117.315862656472135, 42.410999538819851 ], [ 117.315862701658972, 42.41100854470286 ], [ 117.315856625128774, 42.411008561445279 ], [ 117.315856647721745, 42.411013064386765 ], [ 117.315862724252383, 42.411013047644353 ], [ 117.315862769439235, 42.411022053527319 ], [ 117.315868845970726, 42.411022036784566 ], [ 117.315868868564607, 42.411026539726059 ] ] ] } },
{ "type": "Feature", "properties": { "crown_id": 919, "tree_id": "920", "top_h_m": 17.048, "H_95_Mean": 17.1333, "DBH": 25.6919, "Carbon_kg": 113.670461, "area_m2": 15.0 }, "geometry": { "type": "Polygon", "coordinates": [ [ [ 117.31569861275986, 42.411004493693667 ], [ 117.315735071939216, 42.41100439328455 ], [ 117.315735049354942, 42.410999890342993 ], [ 117.315741125884401, 42.410999873607025 ], [ 117.315741103299686, 42.410995370665461 ], [ 117.315735026770668, 42.410995387401435 ], [ 117.315734936433628, 42.410977375635156 ], [ 117.315728859906343, 42.410977392370796 ], [ 117.315728837322553, 42.41097288942921 ], [ 117.315704531215133, 42.410972956368546 ], [ 117.315704508633075, 42.410968453426953 ], [ 117.315698432106643, 42.410968470160974 ], [ 117.315698454688274, 42.410972973102574 ], [ 117.315692378161401, 42.410972989836274 ], [ 117.315692400742606, 42.410977492777889 ], [ 117.315686324215278, 42.41097750951127 ], [ 117.31568634679607, 42.41098201245287 ], [ 117.315680270268317, 42.410982029185924 ], [ 117.31568031542902, 42.410991035069124 ], [ 117.315674238900385, 42.410991051801865 ], [ 117.31567428406025, 42.411000057685044 ], [ 117.315698590178201, 42.410999990752089 ], [ 117.31569861275986, 42.411004493693667 ] ] ] } },
{ "type": "Feature", "properties": { "crown_id": 920, "tree_id": "921", "top_h_m": 16.57, "H_95_Mean": 16.6818, "DBH": 24.8016, "Carbon_kg": 104.211945, "area_m2": 13.75 }, "geometry": { "type": "MultiPolygon", "coordinates": [ [ [ [ 117.315741193638544, 42.411013382431683 ], [ 117.315765499761469, 42.411013315484517 ], [ 117.315765477175006, 42.411008812542981 ], [ 117.315795859826395, 42.41100872885179 ], [ 117.31579576947189, 42.41099071708566 ], [ 117.315789692943369, 42.410990733824526 ], [ 117.315789670355201, 42.410986230882976 ], [ 117.315783593827106, 42.410986247621523 ], [ 117.315783571239379, 42.410981744679979 ], [ 117.315771418184042, 42.410981778156106 ], [ 117.315771395597167, 42.410977275214549 ], [ 117.315741012960899, 42.410977358899189 ], [ 117.315741035545585, 42.410981861840767 ], [ 117.315747112073282, 42.410981845104473 ], [ 117.315747134658409, 42.410986348046045 ], [ 117.315741058130271, 42.410986364782325 ], [ 117.315741080714986, 42.410990867723889 ], [ 117.31574715724355, 42.410990850987602 ], [ 117.315747179828691, 42.410995353929167 ], [ 117.315753256357681, 42.410995337192553 ], [ 117.315753278943248, 42.410999840134103 ], [ 117.315747202413846, 42.410999856870717 ], [ 117.315747224998987, 42.411004359812274 ], [ 117.315741148469115, 42.411004376548568 ], [ 117.315741193638544, 42.411013382431683 ] ], [ [ 117.315783661590331, 42.410999756446166 ], [ 117.315783639002589, 42.410995253504623 ], [ 117.315789715531551, 42.41099523676607 ], [ 117.315789738119747, 42.410999739707606 ], [ 117.315783661590331, 42.410999756446166 ] ] ], [ [ [ 117.315795859826395, 42.41100872885179 ], [ 117.315795882415017, 42.411013231793319 ], [ 117.315801958945727, 42.411013215054112 ], [ 117.315801936356664, 42.411008712112597 ], [ 117.315795859826395, 42.41100872885179 ] ] ] ] } },
{ "type": "Feature", "properties": { "crown_id": 921, "tree_id": "922", "top_h_m": 15.93, "H_95_Mean": 16.6136, "DBH": 22.1924, "Carbon_kg": 83.093406, "area_m2": 9.0 }, "geometry": { "type": "Polygon", "coordinates": [ [ [ 117.315917367833279, 42.411003891065064 ], [ 117.315929520892709, 42.411003857573455 ], [ 117.315929475696336, 42.410994851690504 ], [ 117.315941628754018, 42.410994818197629 ], [ 117.31594158355594, 42.410985812314664 ], [ 117.315935507027987, 42.410985829061268 ], [ 117.315935439232192, 42.410972320236795 ], [ 117.315911133125468, 42.410972387219935 ], [ 117.315911110528617, 42.410967884278435 ], [ 117.315898957476108, 42.410967917768062 ], [ 117.315899047860071, 42.410985929534085 ], [ 117.315905124388053, 42.410985912789421 ], [ 117.315905169580944, 42.410994918672408 ], [ 117.31591732263864, 42.410994885182106 ], [ 117.315917367833279, 42.411003891065064 ] ] ] } },
{ "type": "Feature", "properties": { "crown_id": 933, "tree_id": "934", "top_h_m": 18.786, "H_95_Mean": 18.9168, "DBH": 30.2424, "Carbon_kg": 167.425421, "area_m2": 23.5 }, "geometry": { "type": "Polygon", "coordinates": [ [ [ 117.315844472068321, 42.411008594929157 ], [ 117.315850548598547, 42.411008578187371 ], [ 117.315850526005988, 42.411004075245863 ], [ 117.315856602535789, 42.411004058503771 ], [ 117.315856557349846, 42.410995052620756 ], [ 117.315862633878751, 42.410995035878344 ], [ 117.315862611285368, 42.410990532936829 ], [ 117.315868687813804, 42.41099051619409 ], [ 117.31586866521998, 42.41098601325259 ], [ 117.315874741748019, 42.410985996509524 ], [ 117.315874673965268, 42.41097248768498 ], [ 117.315868597438552, 42.410972504428024 ], [ 117.315868574844728, 42.410968001486509 ], [ 117.315844268739554, 42.410968068455468 ], [ 117.315844246147492, 42.410963565513931 ], [ 117.315838169621614, 42.410963582255363 ], [ 117.315838124438372, 42.410954576372262 ], [ 117.315832047913361, 42.41095459311336 ], [ 117.315832070504541, 42.41095909605491 ], [ 117.315825993979075, 42.410959112795702 ], [ 117.315826016569844, 42.410963615737259 ], [ 117.315807786992139, 42.410963665957681 ], [ 117.315807854760521, 42.410977174782339 ], [ 117.315801778233308, 42.410977191521837 ], [ 117.315801913767572, 42.411004209171061 ], [ 117.315844449476231, 42.411004091987643 ], [ 117.315844472068321, 42.411008594929157 ] ] ] } },
{ "type": "Feature", "properties": { "crown_id": 934, "tree_id": "935", "top_h_m": 19.81, "H_95_Mean": 19.777, "DBH": 28.7355, "Carbon_kg": 155.061965, "area_m2": 17.75 }, "geometry": { "type": "Polygon", "coordinates": [ [ [ 117.315996362719261, 42.411003673346592 ], [ 117.316002439248905, 42.411003656596769 ], [ 117.316002416645517, 42.410999153655325 ], [ 117.316020646233127, 42.41099910340391 ], [ 117.316020623628418, 42.41099460046248 ], [ 117.316008470570893, 42.410994633963732 ], [ 117.316008425363236, 42.410985628080837 ], [ 117.316014501891146, 42.410985611330375 ], [ 117.316014479286892, 42.410981108388924 ], [ 117.316020555814362, 42.410981091638149 ], [ 117.316020533209681, 42.410976588696691 ], [ 117.316002303628565, 42.410976638948064 ], [ 117.316002281025206, 42.410972136006599 ], [ 117.315977974918709, 42.410972203003908 ], [ 117.315977952317098, 42.410967700062436 ], [ 117.315971875790893, 42.410967716810958 ], [ 117.315971853189694, 42.410963213869472 ], [ 117.315953623612387, 42.410963264113086 ], [ 117.315953646212265, 42.410967767054579 ], [ 117.31594756968606, 42.410967783801809 ], [ 117.315947592285497, 42.410972286743295 ], [ 117.315941515758865, 42.410972303490219 ], [ 117.315941560956915, 42.410981309373192 ], [ 117.315947637484442, 42.410981292626268 ], [ 117.315947705282866, 42.410994801450705 ], [ 117.315972011398117, 42.410994734459791 ], [ 117.315972033999344, 42.410999237401235 ], [ 117.315996340116286, 42.410999170405155 ], [ 117.315996362719261, 42.411003673346592 ] ] ] } },
{ "type": "Feature", "properties": { "crown_id": 957, "tree_id": "958", "top_h_m": 18.24, "H_95_Mean": 18.4354, "DBH": 27.2713, "Carbon_kg": 133.870059, "area_m2": 16.5 }, "geometry": { "type": "Polygon", "coordinates": [ [ [ 117.315564906528465, 42.411000358819571 ], [ 117.315577059587639, 42.411000325365343 ], [ 117.315577037014663, 42.410995822423715 ], [ 117.315595266602074, 42.410995772239943 ], [ 117.315595198879265, 42.410982263415058 ], [ 117.315583045823615, 42.410982296871211 ], [ 117.315582978103478, 42.410968788046269 ], [ 117.31556474852384, 42.410968838228065 ], [ 117.315564703379721, 42.410959832344737 ], [ 117.315552550328349, 42.410959865797643 ], [ 117.315552527757177, 42.410955362855965 ], [ 117.31554645123191, 42.410955379581935 ], [ 117.315546428661165, 42.41095087664025 ], [ 117.315534275611512, 42.410950910091216 ], [ 117.315534230471755, 42.410941904207853 ], [ 117.315528153947781, 42.410941920932835 ], [ 117.315528244225561, 42.410959932699591 ], [ 117.315534320751254, 42.410959915974594 ], [ 117.315534411030853, 42.410977927741264 ], [ 117.315540487558295, 42.410977911015941 ], [ 117.315540510128628, 42.410982413957584 ], [ 117.315546586656524, 42.410982397231933 ], [ 117.315546609227283, 42.41098690017359 ], [ 117.315552685755577, 42.410986883447592 ], [ 117.315552730898062, 42.410995889330884 ], [ 117.31556488395637, 42.41099585587795 ], [ 117.315564906528465, 42.411000358819571 ] ] ] } },
{ "type": "Feature", "properties": { "crown_id": 984, "tree_id": "985", "top_h_m": 18.627, "H_95_Mean": 19.1879, "DBH": 25.7439, "Carbon_kg": 122.041985, "area_m2": 12.25 }, "geometry": { "type": "Polygon", "coordinates": [ [ [ 117.315643811101694, 42.410982129577569 ], [ 117.315655964157258, 42.410982096114978 ], [ 117.315655941578655, 42.410977593173378 ], [ 117.315662018106011, 42.410977576441596 ], [ 117.315662040685041, 42.410982079383203 ], [ 117.315668117212809, 42.410982062651101 ], [ 117.315668049474397, 42.410968553826272 ], [ 117.315661972947936, 42.410968570558367 ], [ 117.315661905210902, 42.41095506173351 ], [ 117.315655828685735, 42.410955078465278 ], [ 117.315655806107159, 42.410950575523643 ], [ 117.315643653057677, 42.410950608986205 ], [ 117.315643630479983, 42.410946106044555 ], [ 117.315625400907038, 42.410946156235966 ], [ 117.315625333177891, 42.410932647411009 ], [ 117.31561925665487, 42.410932664140823 ], [ 117.315619346958684, 42.410950675907443 ], [ 117.315625423483439, 42.410950659177608 ], [ 117.315625491212657, 42.410964168002522 ], [ 117.31561941468658, 42.410964184732364 ], [ 117.315619459838544, 42.410973190615636 ], [ 117.315625536365488, 42.410973173885793 ], [ 117.315625558941903, 42.410977676827429 ], [ 117.315643788523985, 42.410977626635962 ], [ 117.315643811101694, 42.410982129577569 ] ] ] } },
{ "type": "Feature", "properties": { "crown_id": 993, "tree_id": "994", "top_h_m": 20.46, "H_95_Mean": 20.2779, "DBH": 33.9146, "Carbon_kg": 219.776231, "area_m2": 32.25 }, "geometry": { "type": "Polygon", "coordinates": [ [ [ 117.315734913849397, 42.41097287269357 ], [ 117.315765296483505, 42.410972789010543 ], [ 117.315765115792317, 42.410936765477892 ], [ 117.315777268838985, 42.410936732002469 ], [ 117.315777223664497, 42.410927726119276 ], [ 117.315783300186951, 42.410927709381085 ], [ 117.315783277599266, 42.410923206439499 ], [ 117.315789354121293, 42.410923189700988 ], [ 117.315789263768949, 42.41090517793458 ], [ 117.31578318724867, 42.41090519467307 ], [ 117.315783142073386, 42.410896188789835 ], [ 117.315770989034547, 42.410896222265855 ], [ 117.315771034208083, 42.410905228149105 ], [ 117.315758881167511, 42.410905261623853 ], [ 117.315758903753419, 42.41090976456546 ], [ 117.315752827232686, 42.410909781302358 ], [ 117.315752849818153, 42.410914284243979 ], [ 117.315728543733442, 42.410914351188332 ], [ 117.315728588900924, 42.410923357071596 ], [ 117.315722512378869, 42.410923373806874 ], [ 117.315722534962205, 42.410927876748488 ], [ 117.315710381917171, 42.410927910218106 ], [ 117.315710404499654, 42.410932413159728 ], [ 117.315716481022577, 42.410932396425082 ], [ 117.315716548771292, 42.410945905249932 ], [ 117.315710472247048, 42.410945921984592 ], [ 117.315710494829517, 42.410950424926199 ], [ 117.315716571354216, 42.410950408191539 ], [ 117.315716639102988, 42.410963917016339 ], [ 117.315710562576982, 42.410963933750999 ], [ 117.315710585159479, 42.410968436692599 ], [ 117.315734891265137, 42.410968369751991 ], [ 117.315734913849397, 42.41097287269357 ] ] ] } },
{ "type": "Feature", "properties": { "crown_id": 994, "tree_id": "995", "top_h_m": 18.29, "H_95_Mean": 18.5394, "DBH": 27.5558, "Carbon_kg": 137.155314, "area_m2": 17.0 }, "geometry": { "type": "Polygon", "coordinates": [ [ [ 117.315789647767033, 42.410981727941433 ], [ 117.315795724294688, 42.410981711202574 ], [ 117.3157956791175, 42.410972705319466 ], [ 117.315801755644259, 42.410972688580287 ], [ 117.315801687877226, 42.410959179755629 ], [ 117.315819917453624, 42.410959129536167 ], [ 117.315819894863324, 42.410954626594602 ], [ 117.315825971388335, 42.410954609854151 ], [ 117.31582590361613, 42.410941101029465 ], [ 117.315819827092412, 42.410941117769923 ], [ 117.315819804502112, 42.410936614828344 ], [ 117.315813727978835, 42.410936631568461 ], [ 117.315813705388976, 42.410932128626897 ], [ 117.315807628866111, 42.410932145366694 ], [ 117.315807606276707, 42.410927642425115 ], [ 117.31578937670939, 42.410927692642581 ], [ 117.315789399297486, 42.410932195584174 ], [ 117.315783322774621, 42.410932212322685 ], [ 117.315783367949976, 42.410941218205863 ], [ 117.315771214902469, 42.41094125168194 ], [ 117.315771373010307, 42.41097277227297 ], [ 117.315777449537109, 42.410972755535077 ], [ 117.31577747212441, 42.410977258476649 ], [ 117.315789625178851, 42.410977224999883 ], [ 117.315789647767033, 42.410981727941433 ] ] ] } },
{ "type": "Feature", "properties": { "crown_id": 995, "tree_id": "996", "top_h_m": 18.341, "H_95_Mean": 18.955, "DBH": 24.1328, "Carbon_kg": 106.366374, "area_m2": 9.75 }, "geometry": { "type": "Polygon", "coordinates": [ [ [ 117.315917187054879, 42.410967867533138 ], [ 117.315941493159826, 42.410967800548711 ], [ 117.315941470560816, 42.410963297607218 ], [ 117.315947547086608, 42.410963280860315 ], [ 117.315947524487171, 42.410958777918829 ], [ 117.315953601012509, 42.410958761171599 ], [ 117.315953555812754, 42.410949755288591 ], [ 117.315935326239298, 42.410949805529292 ], [ 117.315935303640742, 42.41094530258777 ], [ 117.31592315059261, 42.410945336079955 ], [ 117.315923127994921, 42.410940833138433 ], [ 117.315917051471288, 42.410940849884042 ], [ 117.315917028874054, 42.410936346942506 ], [ 117.315898799304421, 42.41093639717738 ], [ 117.315898844496289, 42.410945403060452 ], [ 117.31590492102039, 42.410945386315809 ], [ 117.315905011405974, 42.410963398081897 ], [ 117.315917164457602, 42.410963364591623 ], [ 117.315917187054879, 42.410967867533138 ] ] ] } },
{ "type": "Feature", "properties": { "crown_id": 996, "tree_id": "997", "top_h_m": 19.51, "H_95_Mean": 19.8092, "DBH": 29.2663, "Carbon_kg": 161.043952, "area_m2": 19.0 }, "geometry": { "type": "Polygon", "coordinates": [ [ [ 117.316008357551794, 42.410972119256456 ], [ 117.316014434078411, 42.410972102506008 ], [ 117.316014388869959, 42.410963096623078 ], [ 117.316026541921403, 42.410963063121208 ], [ 117.316026474106124, 42.41094955429682 ], [ 117.316020397581696, 42.410949571047901 ], [ 117.316020329767795, 42.410936062223463 ], [ 117.316008176721539, 42.410936095724651 ], [ 117.316008108910282, 42.41092258690017 ], [ 117.316002032388454, 42.410922603650263 ], [ 117.316002009785137, 42.410918100708756 ], [ 117.315989856742348, 42.410918134207996 ], [ 117.315989879344798, 42.410922637149511 ], [ 117.315983802822942, 42.410922653898645 ], [ 117.315983848026974, 42.410931659781653 ], [ 117.315977771504251, 42.410931676530481 ], [ 117.315977816707431, 42.410940682413496 ], [ 117.315965663660251, 42.410940715910186 ], [ 117.315965708861697, 42.41094972179318 ], [ 117.315959632337226, 42.410949738541042 ], [ 117.315959677537847, 42.410958744424043 ], [ 117.315977907113862, 42.410958694179463 ], [ 117.315977929715473, 42.410963197120957 ], [ 117.315984006241223, 42.410963180372107 ], [ 117.315984028843289, 42.410967683313579 ], [ 117.316008334947995, 42.410967616314998 ], [ 117.316008357551794, 42.410972119256456 ] ] ] } },
{ "type": "Feature", "properties": { "crown_id": 1006, "tree_id": "1007", "top_h_m": 20.66, "H_95_Mean": 20.4361, "DBH": 29.902, "Carbon_kg": 171.29982, "area_m2": 19.5 }, "geometry": { "type": "Polygon", "coordinates": [ [ [ 117.315880750491971, 42.410972470941616 ], [ 117.315892903545404, 42.410972437453907 ], [ 117.315892835758774, 42.41095892862937 ], [ 117.315898912284169, 42.410958911885032 ], [ 117.315898867092244, 42.410949906001981 ], [ 117.31589279056773, 42.410949922746305 ], [ 117.315892654994698, 42.41092290509706 ], [ 117.315874425428902, 42.410922955328047 ], [ 117.315874402834737, 42.410918452386483 ], [ 117.315868326313236, 42.410918469129491 ], [ 117.315868371500727, 42.410927475012627 ], [ 117.315862294978359, 42.410927491755324 ], [ 117.315862317571671, 42.410931994696888 ], [ 117.315838011480366, 42.410932061664468 ], [ 117.315838056663551, 42.410941067547597 ], [ 117.315831980139833, 42.410941084288687 ], [ 117.315832025322194, 42.410950090171802 ], [ 117.315844178371336, 42.410950056689288 ], [ 117.315844223555416, 42.410959062572381 ], [ 117.315850300080868, 42.410959045830637 ], [ 117.315850322673356, 42.410963548772166 ], [ 117.315874628776783, 42.410963481801929 ], [ 117.315874651371033, 42.410967984743458 ], [ 117.315880727897323, 42.410967968000087 ], [ 117.315880750491971, 42.410972470941616 ] ] ] } },
{ "type": "Feature", "properties": { "crown_id": 1042, "tree_id": "1043", "top_h_m": 19.77, "H_95_Mean": 20.7705, "DBH": 35.1619, "Carbon_kg": 239.750944, "area_m2": 35.5 }, "geometry": { "type": "Polygon", "coordinates": [ [ [ 117.315589099777625, 42.410977777201659 ], [ 117.315607329359779, 42.41097772701599 ], [ 117.315607306784671, 42.410973224074354 ], [ 117.315613383311614, 42.410973207345158 ], [ 117.315613315584983, 42.410959698520244 ], [ 117.315619392110591, 42.410959681790729 ], [ 117.315619369534645, 42.410955178849086 ], [ 117.315613293009449, 42.410955195578595 ], [ 117.315613157556342, 42.410928177928653 ], [ 117.315619234078937, 42.410928161199159 ], [ 117.315619166351141, 42.410914652374146 ], [ 117.315613089829867, 42.410914669103626 ], [ 117.315613044678898, 42.410905663220262 ], [ 117.315594815117606, 42.41090571340677 ], [ 117.31559479254345, 42.41090121046507 ], [ 117.315570486463386, 42.410901277375899 ], [ 117.315570531608259, 42.410910283259305 ], [ 117.315564455087369, 42.410910299986213 ], [ 117.315564477659365, 42.410914802927905 ], [ 117.315558401138048, 42.410914819654494 ], [ 117.315558423709632, 42.4109193225962 ], [ 117.315552347187847, 42.410919339322461 ], [ 117.315552369759004, 42.410923842264175 ], [ 117.315546293236793, 42.41092385899011 ], [ 117.315546383519688, 42.410941870756893 ], [ 117.315540306995715, 42.410941887482537 ], [ 117.315540329566019, 42.410946390424215 ], [ 117.315552482614791, 42.410946356972623 ], [ 117.315552505185977, 42.410950859914294 ], [ 117.315558581710803, 42.410950843188012 ], [ 117.315558604282415, 42.410955346129683 ], [ 117.315570757332907, 42.410955312676137 ], [ 117.315570802477879, 42.410964318559465 ], [ 117.315589032056195, 42.410964268376723 ], [ 117.315589099777625, 42.410977777201659 ] ] ] } },
{ "type": "Feature", "properties": { "crown_id": 1043, "tree_id": "1044", "top_h_m": 21.168, "H_95_Mean": 21.3133, "DBH": 35.7225, "Carbon_kg": 251.323051, "area_m2": 36.0 }, "geometry": { "type": "MultiPolygon", "coordinates": [ [ [ [ 117.315674171160651, 42.410977542977079 ], [ 117.315680247687979, 42.410977526244338 ], [ 117.315680225107641, 42.410973023302731 ], [ 117.315674148580754, 42.410973040035465 ], [ 117.315674171160651, 42.410977542977079 ] ] ], [ [ [ 117.315680225107641, 42.410973023302731 ], [ 117.315686301634514, 42.410973006569662 ], [ 117.31568627905375, 42.410968503628069 ], [ 117.315692355580211, 42.410968486894681 ], [ 117.315692332999006, 42.410963983953074 ], [ 117.315704486051004, 42.41096395048536 ], [ 117.315704463468947, 42.410959447543753 ], [ 117.315710539994484, 42.410959430809406 ], [ 117.315710517412015, 42.410954927867799 ], [ 117.315704440886876, 42.410954944602132 ], [ 117.315704373140761, 42.410941435777303 ], [ 117.315710449664564, 42.410941419042977 ], [ 117.315710427082095, 42.410936916101356 ], [ 117.315704350558718, 42.410936932835675 ], [ 117.315704260230632, 42.410918921069161 ], [ 117.315692107187331, 42.410918954536847 ], [ 117.315692084606212, 42.410914451595197 ], [ 117.315686008084967, 42.410914468328542 ], [ 117.315685940342888, 42.410900959503593 ], [ 117.315673787303027, 42.410900992969289 ], [ 117.315673764723229, 42.410896490027632 ], [ 117.315667688203717, 42.410896506760004 ], [ 117.315667665624346, 42.41089200381834 ], [ 117.315655512586176, 42.41089203728211 ], [ 117.315655580321717, 42.410905546107138 ], [ 117.315637350760525, 42.410905596300417 ], [ 117.315637328183328, 42.410901093358731 ], [ 117.315631251663362, 42.410901110089178 ], [ 117.315631296816932, 42.410910115972534 ], [ 117.315625220296084, 42.410910132702661 ], [ 117.315625310601533, 42.410928144469345 ], [ 117.3156313871241, 42.410928127739204 ], [ 117.31563145485454, 42.410941636564175 ], [ 117.315649684426162, 42.410941586371798 ], [ 117.315649707004283, 42.410946089313448 ], [ 117.31566186005287, 42.410946055850246 ], [ 117.315661882631886, 42.410950558791875 ], [ 117.315667959156613, 42.410950542059794 ], [ 117.315668026894954, 42.410964050884658 ], [ 117.315674103420974, 42.410964034152251 ], [ 117.315674126000857, 42.410968537093865 ], [ 117.315680202527318, 42.410968520361124 ], [ 117.315680225107641, 42.410973023302731 ] ] ] ] } },
{ "type": "Feature", "properties": { "crown_id": 1044, "tree_id": "1045", "top_h_m": 19.985, "H_95_Mean": 20.0286, "DBH": 28.2585, "Carbon_kg": 151.042996, "area_m2": 16.25 }, "geometry": { "type": "Polygon", "coordinates": [ [ [ 117.315941380164787, 42.410945285841194 ], [ 117.31595960973695, 42.410945235599549 ], [ 117.315959564536357, 42.410936229716526 ], [ 117.315971717582684, 42.410936196220483 ], [ 117.315971672380385, 42.410927190337468 ], [ 117.315977748902668, 42.410927173588973 ], [ 117.315977703699531, 42.410918167705944 ], [ 117.315971627178115, 42.410918184454431 ], [ 117.315971604576987, 42.410913681512909 ], [ 117.315959451535008, 42.410913715008924 ], [ 117.315959428934747, 42.410909212067388 ], [ 117.315953352414169, 42.410909228814909 ], [ 117.315953329814363, 42.410904725873372 ], [ 117.315941176774089, 42.41090475936744 ], [ 117.315941199373029, 42.410909262308977 ], [ 117.315935122852451, 42.410909279055531 ], [ 117.315935145450979, 42.410913781997074 ], [ 117.315922992408929, 42.410913815489216 ], [ 117.315923015006589, 42.41091831843076 ], [ 117.315910861963673, 42.410918351921623 ], [ 117.315910884560438, 42.41092285486318 ], [ 117.315898731516626, 42.410922888352758 ], [ 117.315898754112538, 42.410927391294301 ], [ 117.315904830634906, 42.410927374549672 ], [ 117.31590485323126, 42.410931877491201 ], [ 117.315923082799571, 42.410931827255382 ], [ 117.31592310539726, 42.410936330196904 ], [ 117.315929181920438, 42.410936313450989 ], [ 117.315929204518554, 42.410940816392511 ], [ 117.315941357565805, 42.410940782899694 ], [ 117.315941380164787, 42.410945285841194 ] ] ] } },
{ "type": "Feature", "properties": { "crown_id": 1067, "tree_id": "1068", "top_h_m": 17.53, "H_95_Mean": 17.6667, "DBH": 28.3461, "Carbon_kg": 141.116608, "area_m2": 20.75 }, "geometry": { "type": "Polygon", "coordinates": [ [ [ 117.315825881025418, 42.410936598087893 ], [ 117.315831957548696, 42.410936581347123 ], [ 117.315831912366363, 42.410927575463987 ], [ 117.315856218455977, 42.4109275084977 ], [ 117.315856195863091, 42.410923005556128 ], [ 117.315862272385019, 42.410922988813766 ], [ 117.315862227198394, 42.410913982930623 ], [ 117.315868303719483, 42.410913966187934 ], [ 117.315868281125745, 42.410909463246362 ], [ 117.315862204605111, 42.410909479989051 ], [ 117.315862159418515, 42.41090047410588 ], [ 117.315856082898748, 42.410900490848249 ], [ 117.31585606030589, 42.410895987906656 ], [ 117.315849983786535, 42.410896004648684 ], [ 117.315849961194132, 42.410891501707098 ], [ 117.315825655118431, 42.410891568672014 ], [ 117.315825632527762, 42.410887065730407 ], [ 117.315813479490743, 42.410887099210932 ], [ 117.315813502080545, 42.410891602152539 ], [ 117.315807425561587, 42.410891618892315 ], [ 117.315807448150963, 42.410896121833929 ], [ 117.315801371631579, 42.410896138573378 ], [ 117.315801416809464, 42.410905144456613 ], [ 117.315795340289199, 42.410905161195757 ], [ 117.315795430643306, 42.410923172962164 ], [ 117.315813660209272, 42.410923122743732 ], [ 117.315813682799131, 42.410927625685318 ], [ 117.315819759321542, 42.410927608945201 ], [ 117.315819781911827, 42.410932111886773 ], [ 117.315825858434664, 42.410932095146329 ], [ 117.315825881025418, 42.410936598087893 ] ] ] } },
{ "type": "Feature", "properties": { "crown_id": 1083, "tree_id": "1084", "top_h_m": 17.49, "H_95_Mean": 17.9269, "DBH": 25.3058, "Carbon_kg": 113.246302, "area_m2": 13.0 }, "geometry": { "type": "Polygon", "coordinates": [ [ [ 117.316038694972818, 42.41096302961806 ], [ 117.316044771498539, 42.410963012866013 ], [ 117.316044409796774, 42.410890965802281 ], [ 117.316032256759243, 42.410890999305991 ], [ 117.316032234153795, 42.410886496364476 ], [ 117.316026157635477, 42.410886513115855 ], [ 117.316026248055579, 42.410904524881914 ], [ 117.316020171535499, 42.410904541632966 ], [ 117.316020261953909, 42.410922553398983 ], [ 117.31601418543211, 42.410922570149737 ], [ 117.316014230640462, 42.410931576032723 ], [ 117.316026383685823, 42.410931542530896 ], [ 117.316026451501045, 42.410945051355348 ], [ 117.316032528025019, 42.410945034603941 ], [ 117.316032595841563, 42.410958543428343 ], [ 117.316038672366858, 42.410958526676609 ], [ 117.316038694972818, 42.41096302961806 ] ] ] } },
{ "type": "Feature", "properties": { "crown_id": 1116, "tree_id": "1117", "top_h_m": 19.341, "H_95_Mean": 19.6086, "DBH": 31.5761, "Carbon_kg": 186.561628, "area_m2": 26.0 }, "geometry": { "type": "Polygon", "coordinates": [ [ [ 117.315880479356224, 42.410918435643147 ], [ 117.315904785442171, 42.410918368666572 ], [ 117.315904762845832, 42.410913865725021 ], [ 117.315916915887911, 42.410913832234804 ], [ 117.315916893290677, 42.410909329293261 ], [ 117.315929046331874, 42.410909295801765 ], [ 117.315929023733801, 42.410904792860215 ], [ 117.315935100253952, 42.410904776113988 ], [ 117.315935077655439, 42.41090027317243 ], [ 117.315953307214542, 42.410900222931822 ], [ 117.315953262014943, 42.410891217048729 ], [ 117.315947185496114, 42.410891233795923 ], [ 117.315947140297382, 42.410882227912801 ], [ 117.31594106377942, 42.410882244659661 ], [ 117.315941041180508, 42.410877741718096 ], [ 117.315934964662986, 42.410877758464629 ], [ 117.315934942064501, 42.410873255523057 ], [ 117.315910635996048, 42.410873322505971 ], [ 117.315910590802574, 42.410864316622799 ], [ 117.315898437770059, 42.410864350112313 ], [ 117.315898460365915, 42.410868853053898 ], [ 117.315892383849203, 42.410868869798172 ], [ 117.315892406444632, 42.410873372739772 ], [ 117.31588632992748, 42.410873389483726 ], [ 117.315886352522497, 42.410877892425304 ], [ 117.315880276004918, 42.410877909168953 ], [ 117.315880298599481, 42.410882412110539 ], [ 117.315874222081462, 42.41088242885386 ], [ 117.315874289863899, 42.41089593767861 ], [ 117.315868213344558, 42.410895954421619 ], [ 117.315868258532021, 42.410904960304784 ], [ 117.315874335052229, 42.410904943561775 ], [ 117.315874380240558, 42.410913949444918 ], [ 117.315880456761619, 42.410913932701575 ], [ 117.315880479356224, 42.410918435643147 ] ], [ [ 117.315941131576196, 42.41089575348434 ], [ 117.31594110897727, 42.410891250542782 ], [ 117.315947185496114, 42.410891233795923 ], [ 117.31594720809548, 42.410895736737466 ], [ 117.315941131576196, 42.41089575348434 ] ] ] } },
{ "type": "Feature", "properties": { "crown_id": 1117, "tree_id": "1118", "top_h_m": 18.57, "H_95_Mean": 19.0869, "DBH": 29.4135, "Carbon_kg": 159.145653, "area_m2": 20.75 }, "geometry": { "type": "Polygon", "coordinates": [ [ [ 117.316008086306539, 42.410918083958656 ], [ 117.316014162827912, 42.410918067208236 ], [ 117.316014072411249, 42.410900055442191 ], [ 117.316020148930889, 42.410900038691459 ], [ 117.316020035907997, 42.410877523983842 ], [ 117.316013959390546, 42.410877540734568 ], [ 117.316013936786419, 42.410873037793024 ], [ 117.315989630718221, 42.410873104792678 ], [ 117.315989608115842, 42.410868601851128 ], [ 117.315977455082589, 42.410868635349011 ], [ 117.315977500285626, 42.410877641232119 ], [ 117.315959270733089, 42.410877691476564 ], [ 117.315959293333307, 42.410882194418114 ], [ 117.315953216815345, 42.410882211165614 ], [ 117.315953239415137, 42.410886714107185 ], [ 117.31595931593354, 42.410886697359672 ], [ 117.315959406334485, 42.410904709125859 ], [ 117.315965482854622, 42.410904692378018 ], [ 117.31596550545531, 42.410909195319547 ], [ 117.315977658496394, 42.4109091618229 ], [ 117.315977681097948, 42.410913664764429 ], [ 117.316008063702796, 42.410913581017155 ], [ 117.316008086306539, 42.410918083958656 ] ] ] } },
{ "type": "Feature", "properties": { "crown_id": 1133, "tree_id": "1134", "top_h_m": 18.686, "H_95_Mean": 18.9671, "DBH": 33.1128, "Carbon_kg": 201.313456, "area_m2": 33.25 }, "geometry": { "type": "Polygon", "coordinates": [ [ [ 117.31571035933473, 42.410923407276485 ], [ 117.315716435856814, 42.410923390541832 ], [ 117.315716413273933, 42.410918887600204 ], [ 117.315722489795562, 42.410918870865231 ], [ 117.315722444628932, 42.410909864981974 ], [ 117.315746750711952, 42.410909798038929 ], [ 117.315746728126911, 42.410905295097301 ], [ 117.315752804647204, 42.41090527836073 ], [ 117.315752782061736, 42.410900775419101 ], [ 117.31576493510147, 42.410900741945014 ], [ 117.315764889928815, 42.41089173606175 ], [ 117.315758813409815, 42.410891752798946 ], [ 117.315758790823935, 42.410887249857318 ], [ 117.315752714305361, 42.410887266594195 ], [ 117.315752623963604, 42.410869254827595 ], [ 117.315746547446764, 42.410869271564138 ], [ 117.31574652486178, 42.410864768622488 ], [ 117.31571614227974, 42.410864852300364 ], [ 117.31571611969693, 42.4108603493587 ], [ 117.315679660600921, 42.410860449761508 ], [ 117.315679638020711, 42.410855946819808 ], [ 117.315673561505122, 42.410855963552478 ], [ 117.315673629244444, 42.410869472377563 ], [ 117.315667552727547, 42.410869489109913 ], [ 117.315667643044975, 42.410887500876662 ], [ 117.315673719563591, 42.41088748414429 ], [ 117.315673742143403, 42.410891987085961 ], [ 117.315679818662474, 42.410891970353269 ], [ 117.315679841242712, 42.410896473294933 ], [ 117.315691994281693, 42.410896439828576 ], [ 117.315692062025065, 42.410909948653547 ], [ 117.315698138545841, 42.410909931919868 ], [ 117.315698161127429, 42.410914434861517 ], [ 117.315710314169834, 42.410914401393214 ], [ 117.31571035933473, 42.410923407276485 ] ], [ [ 117.315704169902645, 42.410900909302583 ], [ 117.315704102156687, 42.410887400477627 ], [ 117.315722331712479, 42.410887350273747 ], [ 117.315722399462331, 42.410900859098703 ], [ 117.315704169902645, 42.410900909302583 ] ] ] } },
{ "type": "Feature", "properties": { "crown_id": 1162, "tree_id": "1163", "top_h_m": 19.603, "H_95_Mean": 19.8645, "DBH": 34.109, "Carbon_kg": 219.630645, "area_m2": 34.25 }, "geometry": { "type": "MultiPolygon", "coordinates": [ [ [ [ 117.31558232347777, 42.410838202736919 ], [ 117.315582346051002, 42.410842705678675 ], [ 117.315576269536635, 42.410842722406187 ], [ 117.315576337255038, 42.410856231231428 ], [ 117.315570260739378, 42.410856247958627 ], [ 117.315570396173726, 42.410883265609023 ], [ 117.315576472692015, 42.410883248881809 ], [ 117.31557649526485, 42.41088775182353 ], [ 117.315588648302267, 42.410887718368137 ], [ 117.315588693449712, 42.41089672425155 ], [ 117.315600846488834, 42.410896690794857 ], [ 117.315600869063445, 42.410901193736549 ], [ 117.315619098623415, 42.410901143549097 ], [ 117.315619121199319, 42.410905646490775 ], [ 117.315625197719726, 42.410905629760975 ], [ 117.315625152567037, 42.410896623877605 ], [ 117.315643382125657, 42.410896573686273 ], [ 117.315643404703295, 42.410901076627965 ], [ 117.315649481223247, 42.410901059896872 ], [ 117.315649413489027, 42.410887551071831 ], [ 117.31566156652633, 42.410887517608707 ], [ 117.315661476210664, 42.410869505841958 ], [ 117.315649323176828, 42.410869539305061 ], [ 117.315649300598807, 42.410865036363354 ], [ 117.315637147565837, 42.410865069825164 ], [ 117.315637124988655, 42.410860566883457 ], [ 117.315618895440466, 42.410860617073752 ], [ 117.315618872864619, 42.410856114132038 ], [ 117.315612796349001, 42.410856130861482 ], [ 117.315612773773566, 42.410851627919762 ], [ 117.31560669725836, 42.410851644648879 ], [ 117.315606674683394, 42.410847141707151 ], [ 117.315594521653836, 42.41084717516442 ], [ 117.315594408783369, 42.410824660455688 ], [ 117.31558833227075, 42.410824677183825 ], [ 117.315588399991711, 42.410838186009101 ], [ 117.31558232347777, 42.410838202736919 ] ] ], [ [ [ 117.31558232347777, 42.410838202736919 ], [ 117.315582300904566, 42.410833699795162 ], [ 117.315576224391052, 42.410833716522674 ], [ 117.315576246963857, 42.410838219464438 ], [ 117.31558232347777, 42.410838202736919 ] ] ] ] } },
{ "type": "Feature", "properties": { "crown_id": 1163, "tree_id": "1164", "top_h_m": 17.77, "H_95_Mean": 17.8634, "DBH": 27.1725, "Carbon_kg": 130.439879, "area_m2": 17.25 }, "geometry": { "type": "Polygon", "coordinates": [ [ [ 117.315789241180852, 42.410900674992952 ], [ 117.31579531770069, 42.410900658254143 ], [ 117.315795272523687, 42.410891652370907 ], [ 117.315801349042644, 42.410891635631771 ], [ 117.315801326453709, 42.410887132690156 ], [ 117.315807402972226, 42.4108871159507 ], [ 117.315807380382878, 42.410882613009079 ], [ 117.315825609937093, 42.410882562788785 ], [ 117.315825564755784, 42.410873556905557 ], [ 117.315819488238589, 42.410873573645972 ], [ 117.31581946564836, 42.410869070704344 ], [ 117.315813389131591, 42.410869087444432 ], [ 117.315813343952044, 42.410860081561168 ], [ 117.315782961372463, 42.410860165256757 ], [ 117.315782938784878, 42.410855662315107 ], [ 117.315758632722861, 42.410855729265769 ], [ 117.315758655308713, 42.410860232207426 ], [ 117.315752578792768, 42.410860248944282 ], [ 117.315752601378193, 42.410864751885946 ], [ 117.315758677894564, 42.410864735149076 ], [ 117.315758768238041, 42.410882746915668 ], [ 117.31576484475616, 42.410882730178471 ], [ 117.31576486734248, 42.410887233120121 ], [ 117.315770943861025, 42.410887216382591 ], [ 117.315770966447801, 42.410891719324219 ], [ 117.315789196004701, 42.410891669109716 ], [ 117.315789241180852, 42.410900674992952 ] ] ] } },
{ "type": "Feature", "properties": { "crown_id": 1169, "tree_id": "1170", "top_h_m": 17.049, "H_95_Mean": 17.291, "DBH": 27.8794, "Carbon_kg": 134.748889, "area_m2": 20.25 }, "geometry": { "type": "Polygon", "coordinates": [ [ [ 117.315856037713033, 42.41089148496507 ], [ 117.315868190750848, 42.41089145148004 ], [ 117.315868122969732, 42.410877942655247 ], [ 117.315874199487311, 42.41087792591226 ], [ 117.315874176893189, 42.410873422970667 ], [ 117.315880253410342, 42.410873406227353 ], [ 117.315880230815779, 42.41086890328576 ], [ 117.315886307332491, 42.410868886542133 ], [ 117.315886284737502, 42.410864383600526 ], [ 117.315892361253788, 42.410864366856579 ], [ 117.315892338658358, 42.410859863914979 ], [ 117.315904491690034, 42.410859830426119 ], [ 117.315904469093738, 42.410855327484526 ], [ 117.315886239547538, 42.410855377717326 ], [ 117.315886216952578, 42.410850874775711 ], [ 117.315874063922607, 42.410850908262617 ], [ 117.315874018734434, 42.410841902379389 ], [ 117.315867942220322, 42.410841919122362 ], [ 117.315867919626655, 42.410837416180733 ], [ 117.315861843112955, 42.410837432923387 ], [ 117.315861865706196, 42.410841935865008 ], [ 117.315855789192057, 42.410841952607335 ], [ 117.315855811784857, 42.410846455548956 ], [ 117.315843658755696, 42.41084648903265 ], [ 117.315843681347644, 42.410850991974286 ], [ 117.315831528317617, 42.410851025456694 ], [ 117.315831573499736, 42.410860031339958 ], [ 117.315819420467946, 42.410860064821087 ], [ 117.315819443058146, 42.410864567762722 ], [ 117.315825519574489, 42.410864551022314 ], [ 117.315825542165129, 42.410869053963935 ], [ 117.315831618681884, 42.410869037223208 ], [ 117.31583170904625, 42.410887048989665 ], [ 117.315856015120204, 42.410886982023477 ], [ 117.315856037713033, 42.41089148496507 ] ] ] } },
{ "type": "Feature", "properties": { "crown_id": 1170, "tree_id": "1171", "top_h_m": 17.395, "H_95_Mean": 17.4918, "DBH": 21.3229, "Carbon_kg": 79.033841, "area_m2": 7.0 }, "geometry": { "type": "Polygon", "coordinates": [ [ [ 117.316038310672141, 42.410886479612792 ], [ 117.316044387190459, 42.410886462860773 ], [ 117.316044183733837, 42.410845936386984 ], [ 117.316025954190621, 42.410845986642009 ], [ 117.316026022005516, 42.410859495466646 ], [ 117.316019945489785, 42.410859512217677 ], [ 117.316020013303444, 42.410873021042299 ], [ 117.316026089820483, 42.410873004291261 ], [ 117.316026135030469, 42.410882010174319 ], [ 117.316038288066267, 42.410881976671256 ], [ 117.316038310672141, 42.410886479612792 ] ] ] } },
{ "type": "Feature", "properties": { "crown_id": 1218, "tree_id": "1219", "top_h_m": 20.494, "H_95_Mean": 20.4641, "DBH": 34.2643, "Carbon_kg": 225.583829, "area_m2": 33.0 }, "geometry": { "type": "Polygon", "coordinates": [ [ [ 117.315655377115263, 42.41086501963197 ], [ 117.315667530148204, 42.410864986168221 ], [ 117.315667462410204, 42.410851477343122 ], [ 117.315673538925367, 42.410851460610772 ], [ 117.315673471186116, 42.410837951785652 ], [ 117.315667394672246, 42.410837968517995 ], [ 117.31566730435506, 42.410819956751105 ], [ 117.315679457379275, 42.41081992328612 ], [ 117.315679367058706, 42.410801911519194 ], [ 117.315667214037944, 42.410801944984144 ], [ 117.315667191458672, 42.410797442042409 ], [ 117.315655038438791, 42.410797475506058 ], [ 117.315655061017182, 42.410801978447822 ], [ 117.315642907996406, 42.410802011910199 ], [ 117.315642930573915, 42.410806514851956 ], [ 117.315612548019701, 42.410806598502283 ], [ 117.31561257059505, 42.410811101444047 ], [ 117.315606494083767, 42.41081111817315 ], [ 117.315606471508843, 42.410806615231387 ], [ 117.315600394997958, 42.410806631960163 ], [ 117.31560044014698, 42.410815637843704 ], [ 117.315606516658704, 42.410815621114921 ], [ 117.315606561808579, 42.410824626998426 ], [ 117.31560048529596, 42.410824643727224 ], [ 117.315600575594075, 42.410842655494207 ], [ 117.315612728622753, 42.410842622036292 ], [ 117.315612751198174, 42.410847124978027 ], [ 117.315618827712925, 42.410847108248589 ], [ 117.315618850288786, 42.410851611190303 ], [ 117.315624926803963, 42.410851594460546 ], [ 117.315624949380265, 42.410856097402259 ], [ 117.315643178927118, 42.410856047211013 ], [ 117.315643201504713, 42.410860550152726 ], [ 117.315655354536815, 42.410860516690271 ], [ 117.315655377115263, 42.41086501963197 ] ] ] } },
{ "type": "Feature", "properties": { "crown_id": 1219, "tree_id": "1220", "top_h_m": 17.414, "H_95_Mean": 17.5503, "DBH": 30.594, "Carbon_kg": 163.937909, "area_m2": 28.25 }, "geometry": { "type": "Polygon", "coordinates": [ [ [ 117.315722196212903, 42.410860332623756 ], [ 117.315740425760836, 42.41086028241704 ], [ 117.315740403176278, 42.410855779475369 ], [ 117.315752556207343, 42.410855746002625 ], [ 117.31575248845111, 42.410842237177611 ], [ 117.3157464119369, 42.41084225391414 ], [ 117.315746389351929, 42.410837750972462 ], [ 117.315740312838145, 42.410837767708671 ], [ 117.315740290253629, 42.410833264766978 ], [ 117.315746366766987, 42.410833248030769 ], [ 117.315746299012147, 42.410819739205699 ], [ 117.315734145988031, 42.410819772677762 ], [ 117.315734123403956, 42.410815269736062 ], [ 117.315728046892332, 42.41081528647161 ], [ 117.315728024308711, 42.410810783529897 ], [ 117.315709794775103, 42.410810833734594 ], [ 117.31570977219279, 42.41080633079288 ], [ 117.315691542660431, 42.410806380994678 ], [ 117.315691520079412, 42.410801878052943 ], [ 117.315685443569052, 42.410801894786225 ], [ 117.315685556471976, 42.410824409494865 ], [ 117.315673403446894, 42.410824442960497 ], [ 117.315673448606361, 42.410833448843938 ], [ 117.315679525119776, 42.410833432111282 ], [ 117.315679615440501, 42.410851443878101 ], [ 117.315685691955665, 42.410851427145111 ], [ 117.315685714536286, 42.410855930086818 ], [ 117.315722173629666, 42.410855829682085 ], [ 117.315722196212903, 42.410860332623756 ] ] ] } },
{ "type": "Feature", "properties": { "crown_id": 1220, "tree_id": "1221", "top_h_m": 22.582, "H_95_Mean": 22.2526, "DBH": 40.5682, "Carbon_kg": 333.16082, "area_m2": 54.5 }, "geometry": { "type": "MultiPolygon", "coordinates": [ [ [ [ 117.315861730146935, 42.410814918215173 ], [ 117.315861752740147, 42.410819421156823 ], [ 117.31586782925207, 42.410819404414184 ], [ 117.315867897033002, 42.410832913239098 ], [ 117.31587397354626, 42.410832896496132 ], [ 117.31587399614034, 42.41083739943776 ], [ 117.315880072654025, 42.410837382694474 ], [ 117.315880117843065, 42.410846388577717 ], [ 117.315892270872141, 42.41084635509015 ], [ 117.315892293467542, 42.410850858031765 ], [ 117.315910523012406, 42.410850807798006 ], [ 117.315910568205851, 42.410859813681206 ], [ 117.315916644721682, 42.410859796935974 ], [ 117.31591668991598, 42.410868802819145 ], [ 117.315928842949333, 42.410868769327699 ], [ 117.315928820351317, 42.41086426638612 ], [ 117.315934896867546, 42.410864249639907 ], [ 117.315934919466031, 42.410868752581479 ], [ 117.315940995982686, 42.41086873583496 ], [ 117.315941018581597, 42.410873238776531 ], [ 117.315947095098693, 42.410873222029679 ], [ 117.315947117698045, 42.41087772497125 ], [ 117.315953194215567, 42.410877708224064 ], [ 117.315953171615789, 42.410873205282499 ], [ 117.315971401167033, 42.410873155039035 ], [ 117.315971355964891, 42.410864149155913 ], [ 117.315977432481063, 42.410864132407454 ], [ 117.315977409879579, 42.410859629465897 ], [ 117.315983486395325, 42.410859612717111 ], [ 117.315983418589539, 42.41084610389241 ], [ 117.31597126556062, 42.410846137389633 ], [ 117.315971197757506, 42.410832628564883 ], [ 117.315965121244332, 42.410832645312993 ], [ 117.315965053442554, 42.410819136488222 ], [ 117.31597112995442, 42.410819119740104 ], [ 117.315971084752391, 42.410810113856897 ], [ 117.315958931730393, 42.410810147352791 ], [ 117.315958909130259, 42.410805644411163 ], [ 117.315952832619701, 42.410805661158626 ], [ 117.315952810020008, 42.410801158217012 ], [ 117.315946733509861, 42.410801174964149 ], [ 117.315946756109128, 42.41080567790577 ], [ 117.31594067959854, 42.410805694652581 ], [ 117.3159406569997, 42.410801191710966 ], [ 117.315934580489554, 42.410801208457457 ], [ 117.315934603087953, 42.410805711399078 ], [ 117.31592852657738, 42.410805728145242 ], [ 117.315928503979407, 42.410801225203613 ], [ 117.315910274448939, 42.410801275440186 ], [ 117.315910229255621, 42.410792269556893 ], [ 117.315885923218374, 42.410792336534463 ], [ 117.315885945813292, 42.410796839476113 ], [ 117.315873792793752, 42.410796872962976 ], [ 117.315873837981854, 42.410805878846297 ], [ 117.315879914492484, 42.410805862103018 ], [ 117.315879937086976, 42.410810365044654 ], [ 117.315873860575905, 42.410810381787932 ], [ 117.315873883169957, 42.410814884729575 ], [ 117.315861730146935, 42.410814918215173 ] ], [ [ 117.315898279599196, 42.410832829521048 ], [ 117.315898211811756, 42.410819320696177 ], [ 117.315916441347497, 42.410819270461509 ], [ 117.31591650913883, 42.410832779286359 ], [ 117.315898279599196, 42.410832829521048 ] ] ], [ [ [ 117.315861730146935, 42.410814918215173 ], [ 117.315861684960566, 42.410805912331867 ], [ 117.315855608449937, 42.410805929074165 ], [ 117.31585565363541, 42.410814934957479 ], [ 117.315861730146935, 42.410814918215173 ] ] ] ] } },
{ "type": "Feature", "properties": { "crown_id": 1221, "tree_id": "1222", "top_h_m": 17.812, "H_95_Mean": 18.6229, "DBH": 26.2677, "Carbon_kg": 124.871391, "area_m2": 14.0 }, "geometry": { "type": "Polygon", "coordinates": [ [ [ 117.315995684632455, 42.410868585101703 ], [ 117.31600783766568, 42.410868551601872 ], [ 117.316007815062008, 42.410864048660329 ], [ 117.316013891578166, 42.410864031909938 ], [ 117.31601384636997, 42.41085502602683 ], [ 117.31601992288526, 42.410855009276133 ], [ 117.316019809862624, 42.410832494568332 ], [ 117.316013733349493, 42.410832511319029 ], [ 117.316013710745409, 42.410828008377457 ], [ 117.316007634232719, 42.410828025127834 ], [ 117.316007611629104, 42.410823522186256 ], [ 117.315995458604561, 42.410823555686022 ], [ 117.315995436001799, 42.410819052744436 ], [ 117.315989359489976, 42.41081906949384 ], [ 117.315989336887625, 42.410814566552233 ], [ 117.315977183864817, 42.410814600050067 ], [ 117.315977229067727, 42.41082360593326 ], [ 117.315971152555434, 42.410823622681704 ], [ 117.315971175156463, 42.410828125623297 ], [ 117.315977251669196, 42.410828108874853 ], [ 117.315977319473618, 42.41084161769961 ], [ 117.315989472501656, 42.410841584201755 ], [ 117.315989585513478, 42.41086409890957 ], [ 117.31599566202965, 42.410864082160145 ], [ 117.315995684632455, 42.410868585101703 ] ] ] } }
]
}
