{
"type": "FeatureCollection",
"name": "tile_5_6",
"crs": { "type": "name", "properties": { "name": "urn:ogc:def:crs:OGC:1.3:CRS84" } },
"features": [
{ "type": "Feature", "properties": { "crown_id": 1548, "tree_id": "1549", "top_h_m": 19.286, "H_95_Mean": 20.275, "DBH": 23.2898, "Carbon_kg": 103.032399, "area_m2": 7.5 }, "geometry": { "type": "Polygon", "coordinates": [ [ [ 117.311394713213247, 42.410669533906805 ], [ 117.311400789713332, 42.41066951740099 ], [ 117.311400767439338, 42.410665014457308 ], [ 117.311418996938244, 42.410664964937943 ], [ 117.311418930112396, 42.410651456106876 ], [ 117.311412853614044, 42.410651472613644 ], [ 117.311412786789546, 42.410637963782541 ], [ 117.311400633795486, 42.410637996795089 ], [ 117.311400656069452, 42.41064249973882 ], [ 117.311394579571967, 42.410642516244614 ], [ 117.311394601845521, 42.410647019188325 ], [ 117.31138852534761, 42.410647035693792 ], [ 117.311388547620709, 42.410651538637502 ], [ 117.311376394623991, 42.410651571647492 ], [ 117.31137643916847, 42.410660577534912 ], [ 117.311382515667702, 42.41066056103007 ], [ 117.311382537940389, 42.410665063973767 ], [ 117.311394690939707, 42.410665030963116 ], [ 117.311394713213247, 42.410669533906805 ] ] ] } },
{ "type": "Feature", "properties": { "crown_id": 1611, "tree_id": "1612", "top_h_m": 20.37, "H_95_Mean": 21.6245, "DBH": 21.346, "Carbon_kg": 89.792725, "area_m2": 4.75 }, "geometry": { "type": "Polygon", "coordinates": [ [ [ 117.311303565711469, 42.410669781455354 ], [ 117.311315718711768, 42.410669748453067 ], [ 117.311315629640148, 42.41065173667814 ], [ 117.311321706138571, 42.410651720176531 ], [ 117.311321683870233, 42.410647217232786 ], [ 117.311327760368201, 42.410647200730857 ], [ 117.31132773809945, 42.410642697787118 ], [ 117.311315585104396, 42.410642730790649 ], [ 117.311315562836512, 42.41063822784691 ], [ 117.311303409842267, 42.410638260849161 ], [ 117.311303454376301, 42.410647266736653 ], [ 117.311297377878319, 42.410647283237303 ], [ 117.311297422411499, 42.410656289124809 ], [ 117.311303498910348, 42.410656272624152 ], [ 117.311303565711469, 42.410669781455354 ] ] ] } },
{ "type": "Feature", "properties": { "crown_id": 1655, "tree_id": "1656", "top_h_m": 21.796, "H_95_Mean": 21.5029, "DBH": 37.0363, "Carbon_kg": 271.720089, "area_m2": 40.75 }, "geometry": { "type": "MultiPolygon", "coordinates": [ [ [ [ 117.311224415379357, 42.41063847533237 ], [ 117.311224393117996, 42.410633972388581 ], [ 117.31121831662125, 42.410633988885031 ], [ 117.311218338882156, 42.410638491828813 ], [ 117.311224415379357, 42.41063847533237 ] ] ], [ [ [ 117.311273250005243, 42.410683372786636 ], [ 117.311273227740344, 42.410678869842904 ], [ 117.311303610245545, 42.410678787342796 ], [ 117.3113035879785, 42.410674284399079 ], [ 117.311297511477889, 42.410674300899736 ], [ 117.311297444678075, 42.410660792068541 ], [ 117.311291368178786, 42.410660808568871 ], [ 117.311291279114172, 42.410642796793873 ], [ 117.311297355611728, 42.410642780293557 ], [ 117.311297311078604, 42.410633774406037 ], [ 117.311303387575293, 42.410633757905394 ], [ 117.311303298507312, 42.410615746130333 ], [ 117.311291145517416, 42.41061577913127 ], [ 117.311291078719108, 42.410602270299925 ], [ 117.311285002225475, 42.4106022867999 ], [ 117.311284979959808, 42.410597783856105 ], [ 117.311272826973351, 42.410597816855088 ], [ 117.31127280470858, 42.410593313911278 ], [ 117.311260651722961, 42.410593346908961 ], [ 117.311260673986894, 42.410597849852785 ], [ 117.31125459749363, 42.410597866351139 ], [ 117.311254686547613, 42.410615878126336 ], [ 117.311242533557646, 42.410615911122115 ], [ 117.311242578082911, 42.410624917009713 ], [ 117.311230425091168, 42.41062495000422 ], [ 117.311230469614728, 42.410633955891804 ], [ 117.311242622608219, 42.410633922897283 ], [ 117.311242689396195, 42.41064743172862 ], [ 117.311224459902064, 42.410647481219939 ], [ 117.311224548947564, 42.410665492995022 ], [ 117.311230625447365, 42.410665476498238 ], [ 117.311230647709181, 42.410669979442005 ], [ 117.311242800709607, 42.410669946447442 ], [ 117.311242822972318, 42.410674449391209 ], [ 117.311254975973583, 42.410674416395352 ], [ 117.311255020500738, 42.410683422282851 ], [ 117.311273250005243, 42.410683372786636 ] ], [ [ 117.311254864655808, 42.410651901676573 ], [ 117.311273094151161, 42.410651852180422 ], [ 117.311273160945731, 42.410665361011674 ], [ 117.311254931446456, 42.410665410507846 ], [ 117.311254864655808, 42.410651901676573 ] ] ] ] } },
{ "type": "Feature", "properties": { "crown_id": 1677, "tree_id": "1678", "top_h_m": 21.525, "H_95_Mean": 21.618, "DBH": 31.0087, "Carbon_kg": 190.550462, "area_m2": 20.25 }, "geometry": { "type": "Polygon", "coordinates": [ [ [ 117.311327849443273, 42.410665212505776 ], [ 117.311358231941725, 42.410665129991216 ], [ 117.311358187399847, 42.410656124103795 ], [ 117.311370340397445, 42.410656091095724 ], [ 117.311370229038459, 42.410633576377116 ], [ 117.311364152541856, 42.410633592881304 ], [ 117.311364063456494, 42.410615581106342 ], [ 117.311351910466712, 42.410615614113716 ], [ 117.311351888196228, 42.410611111169963 ], [ 117.311345811701784, 42.410611127673157 ], [ 117.311345767161754, 42.410602121785637 ], [ 117.311321461187291, 42.410602187795213 ], [ 117.311321483455572, 42.410606690738994 ], [ 117.311327559949618, 42.410606674237073 ], [ 117.311327582218325, 42.410611177180833 ], [ 117.311321505723825, 42.410611193682755 ], [ 117.311321527992121, 42.410615696626515 ], [ 117.311315451497208, 42.410615713128117 ], [ 117.311315473765063, 42.410620216071877 ], [ 117.311309397269667, 42.410620232573152 ], [ 117.311309464071954, 42.410633741404439 ], [ 117.311321617065303, 42.410633708401555 ], [ 117.311321639333613, 42.410638211345301 ], [ 117.311333792327801, 42.410638178341117 ], [ 117.311333747789462, 42.410629172453632 ], [ 117.311351977278093, 42.410629122944961 ], [ 117.311352044089546, 42.41064263177617 ], [ 117.311333814596978, 42.410642681284862 ], [ 117.31133385913536, 42.410651687172326 ], [ 117.311327782636965, 42.410651703674588 ], [ 117.31132780490573, 42.410656206618327 ], [ 117.311321728406881, 42.410656223120263 ], [ 117.311321750675219, 42.410660726063995 ], [ 117.311327827174495, 42.410660709562052 ], [ 117.311327849443273, 42.410665212505776 ] ], [ [ 117.311315496032904, 42.410624719015644 ], [ 117.311315473765063, 42.410620216071877 ], [ 117.311321550260402, 42.410620199570275 ], [ 117.311321572528712, 42.410624702514049 ], [ 117.311315496032904, 42.410624719015644 ] ] ] } },
{ "type": "Feature", "properties": { "crown_id": 1682, "tree_id": "1683", "top_h_m": 20.627, "H_95_Mean": 22.6, "DBH": 20.8513, "Carbon_kg": 87.912463, "area_m2": 4.0 }, "geometry": { "type": "Polygon", "coordinates": [ [ [ 117.311206141367677, 42.410629518933163 ], [ 117.31122437085665, 42.410629469444793 ], [ 117.311224326333956, 42.41062046355718 ], [ 117.311236479324833, 42.410620430563327 ], [ 117.311236457062634, 42.410615927619531 ], [ 117.31123038056765, 42.410615944116621 ], [ 117.311230358305878, 42.410611441172811 ], [ 117.311212128822149, 42.410611490662127 ], [ 117.3112121510826, 42.410615993605944 ], [ 117.311193921597521, 42.410616043092354 ], [ 117.311193943856694, 42.410620546036185 ], [ 117.311206096847599, 42.410620513045551 ], [ 117.311206141367677, 42.410629518933163 ] ] ] } },
{ "type": "Feature", "properties": { "crown_id": 1702, "tree_id": "1703", "top_h_m": 21.02, "H_95_Mean": 21.1498, "DBH": 33.1287, "Carbon_kg": 214.917718, "area_m2": 27.25 }, "geometry": { "type": "Polygon", "coordinates": [ [ [ 117.311376372351759, 42.410647068703781 ], [ 117.31138244884967, 42.410647052198946 ], [ 117.311382426577012, 42.410642549255229 ], [ 117.311388503074483, 42.410642532750082 ], [ 117.311388480801398, 42.410638029806357 ], [ 117.311394557298442, 42.41063801330089 ], [ 117.311394535024917, 42.410633510357172 ], [ 117.311430994004468, 42.41063341131759 ], [ 117.311430971728342, 42.41062890837388 ], [ 117.311424895232193, 42.410628924881287 ], [ 117.311424828405151, 42.410615416050135 ], [ 117.311430904899979, 42.410615399542742 ], [ 117.31143079351952, 42.410592884824112 ], [ 117.311406487548822, 42.410592950851694 ], [ 117.311406465274487, 42.410588447907955 ], [ 117.311394312289977, 42.410588480919799 ], [ 117.311394267743054, 42.410579475032286 ], [ 117.311388191251666, 42.410579491537725 ], [ 117.311388235797722, 42.410588497425252 ], [ 117.311370006320914, 42.410588546939643 ], [ 117.311370028592634, 42.410593049883403 ], [ 117.311357875607186, 42.410593082891403 ], [ 117.31135792014895, 42.410602088778923 ], [ 117.311351843655345, 42.410602105282443 ], [ 117.311351865925786, 42.410606608226196 ], [ 117.311357942419832, 42.410606591722683 ], [ 117.311357964690714, 42.410611094666443 ], [ 117.311370117679616, 42.410611061658422 ], [ 117.311370206766696, 42.410629073433384 ], [ 117.311376283262874, 42.41062905692889 ], [ 117.311376372351759, 42.410647068703781 ] ] ] } },
{ "type": "Feature", "properties": { "crown_id": 1715, "tree_id": "1716", "top_h_m": 19.2, "H_95_Mean": 20.6075, "DBH": 22.6207, "Carbon_kg": 98.092682, "area_m2": 6.5 }, "geometry": { "type": "Polygon", "coordinates": [ [ [ 117.311193899338363, 42.410611540148537 ], [ 117.311206052327577, 42.410611507157924 ], [ 117.311206030067524, 42.410607004214114 ], [ 117.311224259549988, 42.410606954725765 ], [ 117.311224215027337, 42.410597948838124 ], [ 117.311218138534088, 42.410597965334553 ], [ 117.311218094012347, 42.410588959446912 ], [ 117.311212017519935, 42.410588975943007 ], [ 117.311212039780358, 42.410593478886852 ], [ 117.31118165731607, 42.410593561362539 ], [ 117.311181635057807, 42.410589058418694 ], [ 117.311175558565367, 42.410589074912863 ], [ 117.311175625338848, 42.410602583744399 ], [ 117.311181701832609, 42.410602567250216 ], [ 117.311181724090872, 42.410607070194054 ], [ 117.311193877079219, 42.410607037204727 ], [ 117.311193899338363, 42.410611540148537 ] ] ] } },
{ "type": "Feature", "properties": { "crown_id": 1794, "tree_id": "1795", "top_h_m": 21.828, "H_95_Mean": 22.1578, "DBH": 38.8642, "Carbon_kg": 304.787112, "area_m2": 46.5 }, "geometry": { "type": "Polygon", "coordinates": [ [ [ 117.311236434800435, 42.410611424675729 ], [ 117.311248587789564, 42.410611391680597 ], [ 117.311248498737342, 42.410593379905372 ], [ 117.311254575230166, 42.41059336340733 ], [ 117.311254552966687, 42.410588860463527 ], [ 117.311266705951411, 42.410588827466491 ], [ 117.311266661422749, 42.410579821578857 ], [ 117.311272737914251, 42.410579805079855 ], [ 117.311272693384709, 42.410570799192222 ], [ 117.311278769875344, 42.410570782692915 ], [ 117.311278680814624, 42.410552770917619 ], [ 117.311272604325737, 42.410552787416925 ], [ 117.311272515266822, 42.410534775641544 ], [ 117.311260362292529, 42.410534808639163 ], [ 117.311260317764848, 42.410525802751458 ], [ 117.311242088305974, 42.410525852245449 ], [ 117.3112421105685, 42.41053035518933 ], [ 117.311236034081759, 42.410530371686676 ], [ 117.311236056343859, 42.410534874630542 ], [ 117.311223903369523, 42.410534907624303 ], [ 117.311223925630756, 42.41053941056817 ], [ 117.311217849143119, 42.41053942706457 ], [ 117.311217893664761, 42.410548432952304 ], [ 117.311199664199236, 42.410548482439573 ], [ 117.311199708718277, 42.410557488327306 ], [ 117.311181479250124, 42.410557537811691 ], [ 117.311181501508358, 42.410562040755565 ], [ 117.31116327203884, 42.41056209023705 ], [ 117.311163294295753, 42.410566593180938 ], [ 117.311157217805473, 42.41056660967412 ], [ 117.311157262318488, 42.410575615561868 ], [ 117.311169415300768, 42.410575582575149 ], [ 117.311169459815531, 42.410584588462868 ], [ 117.311181612799544, 42.410584555474848 ], [ 117.311181590541295, 42.410580052531003 ], [ 117.311199820015986, 42.410580003046569 ], [ 117.311199864535098, 42.410589008934259 ], [ 117.311205941027524, 42.410588992438797 ], [ 117.311205918767527, 42.410584489494951 ], [ 117.311224148243454, 42.410584440006652 ], [ 117.311224192766048, 42.410593445894307 ], [ 117.311230269258871, 42.410593429397558 ], [ 117.311230336044105, 42.410606938229002 ], [ 117.31123641253825, 42.410606921731919 ], [ 117.311236434800435, 42.410611424675729 ] ] ] } },
{ "type": "Feature", "properties": { "crown_id": 1821, "tree_id": "1822", "top_h_m": 22.23, "H_95_Mean": 21.9294, "DBH": 33.0451, "Carbon_kg": 218.453302, "area_m2": 25.25 }, "geometry": { "type": "Polygon", "coordinates": [ [ [ 117.311297199745823, 42.410611259687194 ], [ 117.311315429229353, 42.410611210184349 ], [ 117.31131536242583, 42.410597701353019 ], [ 117.311351821384918, 42.410597602338683 ], [ 117.311351754573622, 42.410584093507367 ], [ 117.31134567808175, 42.410584110010547 ], [ 117.311345655811778, 42.410579607066772 ], [ 117.311333502828916, 42.410579640072179 ], [ 117.311333436021584, 42.410566131240785 ], [ 117.311327359531433, 42.410566147742998 ], [ 117.311327314994131, 42.410557141855392 ], [ 117.311321238504846, 42.410557158357285 ], [ 117.311321193968425, 42.410548152469651 ], [ 117.311315117480007, 42.410548168971211 ], [ 117.311315139747791, 42.410552671915035 ], [ 117.311284757303497, 42.410552754417985 ], [ 117.311284868631589, 42.410575269137091 ], [ 117.311278792140527, 42.410575285636725 ], [ 117.311278836670937, 42.410584291524351 ], [ 117.311272760179008, 42.410584308023672 ], [ 117.31127278244378, 42.410588810967482 ], [ 117.311278858936134, 42.410588794468161 ], [ 117.311278881201375, 42.410593297411957 ], [ 117.311291034186937, 42.410593264412341 ], [ 117.311291056453015, 42.41059776735613 ], [ 117.311297132946237, 42.410597750855828 ], [ 117.311297199745823, 42.410611259687194 ] ] ] } },
{ "type": "Feature", "properties": { "crown_id": 1822, "tree_id": "1823", "top_h_m": 21.686, "H_95_Mean": 22.2818, "DBH": 38.5835, "Carbon_kg": 301.359644, "area_m2": 44.75 }, "geometry": { "type": "Polygon", "coordinates": [ [ [ 117.311357853336332, 42.410588579947635 ], [ 117.311363929828616, 42.410588563443795 ], [ 117.311363907557336, 42.410584060500021 ], [ 117.311382137032851, 42.410584010986597 ], [ 117.311382092487676, 42.410575005099076 ], [ 117.311394245469586, 42.410574972088519 ], [ 117.311394223196132, 42.410570469144751 ], [ 117.311400299686667, 42.410570452639 ], [ 117.311400277412787, 42.410565949695219 ], [ 117.311388124432611, 42.410565982706409 ], [ 117.311388057613613, 42.410552473875079 ], [ 117.311394134102386, 42.410552457369647 ], [ 117.311393978188519, 42.410520936763085 ], [ 117.311387901702773, 42.410520953268495 ], [ 117.311387745792175, 42.410489432661727 ], [ 117.311363439861353, 42.410489498680057 ], [ 117.311363462132533, 42.410494001623888 ], [ 117.311357385649359, 42.410494018127679 ], [ 117.311357430190881, 42.410503024015362 ], [ 117.31135135370684, 42.410503040518826 ], [ 117.311351375977196, 42.410507543462657 ], [ 117.311333146523737, 42.410507592971115 ], [ 117.311333213330855, 42.410521101802651 ], [ 117.31132713684508, 42.410521118304828 ], [ 117.311327159113702, 42.410525621248659 ], [ 117.311315006141214, 42.410525654252062 ], [ 117.311315028408956, 42.4105301571959 ], [ 117.3113089519223, 42.410530173697126 ], [ 117.311308974189615, 42.410534676640957 ], [ 117.31131505067674, 42.410534660139731 ], [ 117.311315095212265, 42.410543666027394 ], [ 117.311327248188178, 42.410543633023963 ], [ 117.311327292725494, 42.410552638911597 ], [ 117.311333369214324, 42.410552622409391 ], [ 117.311333413752493, 42.410561628296996 ], [ 117.311339490242176, 42.410561611794471 ], [ 117.3113395570508, 42.41057512062585 ], [ 117.311351710032781, 42.410575087619804 ], [ 117.311351732303208, 42.410579590563593 ], [ 117.311357808794625, 42.410579574060094 ], [ 117.311357853336332, 42.410588579947635 ] ], [ [ 117.311339467972672, 42.410557108850661 ], [ 117.311339401164133, 42.410543600019253 ], [ 117.311357630627967, 42.41054355050975 ], [ 117.311357697440428, 42.410557059341151 ], [ 117.311339467972672, 42.410557108850661 ] ] ] } },
{ "type": "Feature", "properties": { "crown_id": 1869, "tree_id": "1870", "top_h_m": 20.813, "H_95_Mean": 21.9293, "DBH": 28.5169, "Carbon_kg": 162.314192, "area_m2": 14.25 }, "geometry": { "type": "Polygon", "coordinates": [ [ [ 117.311406353902854, 42.410565933189147 ], [ 117.31143065986312, 42.410565867161644 ], [ 117.311430637587051, 42.410561364217877 ], [ 117.311442790566289, 42.410561331202182 ], [ 117.311442701458674, 42.410543319427141 ], [ 117.311454854434416, 42.410543286410189 ], [ 117.311454809878896, 42.410534280522647 ], [ 117.311448733391899, 42.410534297031276 ], [ 117.311448711114579, 42.410529794087502 ], [ 117.311406175708512, 42.41052990963891 ], [ 117.311406153434248, 42.410525406695101 ], [ 117.311400076948075, 42.410525423201157 ], [ 117.31140021059116, 42.41055244086391 ], [ 117.311406287079933, 42.410552424357846 ], [ 117.311406353902854, 42.410565933189147 ] ] ] } },
{ "type": "Feature", "properties": { "crown_id": 1883, "tree_id": "1884", "top_h_m": 19.221, "H_95_Mean": 19.2211, "DBH": 18.6583, "Carbon_kg": 63.853286, "area_m2": 3.5 }, "geometry": { "type": "Polygon", "coordinates": [ [ [ 117.31127865854944, 42.41054826797378 ], [ 117.311309040991617, 42.410548185472443 ], [ 117.31130899645693, 42.410539179584795 ], [ 117.311302919969378, 42.410539196085708 ], [ 117.31130289770249, 42.410534693141862 ], [ 117.311278591753975, 42.410534759142251 ], [ 117.31127865854944, 42.41054826797378 ] ] ] } },
{ "type": "Feature", "properties": { "crown_id": 2006, "tree_id": "2007", "top_h_m": 22.74, "H_95_Mean": 22.3031, "DBH": 39.6686, "Carbon_kg": 318.865558, "area_m2": 49.75 }, "geometry": { "type": "Polygon", "coordinates": [ [ [ 117.311266416515409, 42.410530289196657 ], [ 117.311302875435601, 42.410530190198024 ], [ 117.311302853168712, 42.410525687254186 ], [ 117.31130892965497, 42.41052567075328 ], [ 117.311308907387655, 42.410521167809442 ], [ 117.311321060359276, 42.410521134806679 ], [ 117.311321038091094, 42.410516631862841 ], [ 117.311314961605731, 42.410516648364379 ], [ 117.311314850267109, 42.410494133645109 ], [ 117.311320926750312, 42.410494117143585 ], [ 117.311320904482159, 42.410489614199726 ], [ 117.311333057447669, 42.410489581195719 ], [ 117.311333035178649, 42.41048507825186 ], [ 117.311369494072451, 42.410484979232109 ], [ 117.311369449529209, 42.410475973344411 ], [ 117.311339067122105, 42.410476055861643 ], [ 117.311339000313808, 42.410462547030022 ], [ 117.31134507679397, 42.410462530527226 ], [ 117.311345009984436, 42.410449021695598 ], [ 117.311338933505596, 42.410449038198379 ], [ 117.311338911236192, 42.410444535254484 ], [ 117.311332834757806, 42.410444551756953 ], [ 117.311332812488857, 42.410440048813044 ], [ 117.311326736010869, 42.410440065315186 ], [ 117.311326713742361, 42.410435562371291 ], [ 117.311320637264828, 42.410435578873106 ], [ 117.31132065953291, 42.410440081817008 ], [ 117.311290277142973, 42.410440164321251 ], [ 117.311290321674775, 42.410449170209077 ], [ 117.311284245195921, 42.410449186708966 ], [ 117.311284267461417, 42.410453689652876 ], [ 117.311272114502771, 42.410453722651688 ], [ 117.311272181296673, 42.410467231483416 ], [ 117.311266104816042, 42.410467247982346 ], [ 117.311266127080259, 42.410471750926256 ], [ 117.311260050599188, 42.410471767424866 ], [ 117.311260095126755, 42.410480773312663 ], [ 117.311266171608679, 42.410480756814046 ], [ 117.311266216137142, 42.410489762701822 ], [ 117.311272292619933, 42.410489746202884 ], [ 117.311272426208021, 42.41051676386612 ], [ 117.311254196751761, 42.410516813362044 ], [ 117.311254219015154, 42.41052131630591 ], [ 117.311266371986861, 42.410521283308945 ], [ 117.311266416515409, 42.410530289196657 ] ] ] } },
{ "type": "Feature", "properties": { "crown_id": 2007, "tree_id": "2008", "top_h_m": 22.57, "H_95_Mean": 22.5701, "DBH": 18.462, "Carbon_kg": 68.735784, "area_m2": 2.5 }, "geometry": { "type": "Polygon", "coordinates": [ [ [ 117.311320971286605, 42.410503123031305 ], [ 117.311345277222799, 42.410503057021963 ], [ 117.311345254952911, 42.41049855407811 ], [ 117.311351331436526, 42.410498537574981 ], [ 117.311351286895885, 42.41048953168729 ], [ 117.311339133930417, 42.410489564693229 ], [ 117.31133915619985, 42.410494067637075 ], [ 117.311327003233487, 42.410494100641742 ], [ 117.311327025502081, 42.410498603585594 ], [ 117.311320949018437, 42.410498620087438 ], [ 117.311320971286605, 42.410503123031305 ] ] ] } },
{ "type": "Feature", "properties": { "crown_id": 2016, "tree_id": "2017", "top_h_m": 21.85, "H_95_Mean": 22.7126, "DBH": 24.3606, "Carbon_kg": 120.637735, "area_m2": 7.25 }, "geometry": { "type": "Polygon", "coordinates": [ [ [ 117.311242066043434, 42.41052134930159 ], [ 117.311248142529308, 42.41052133280391 ], [ 117.311248098003375, 42.410512326916162 ], [ 117.311266327458327, 42.410512277421212 ], [ 117.311266238401345, 42.41049426564571 ], [ 117.311260161918128, 42.410494282144334 ], [ 117.311260117390532, 42.410485276256559 ], [ 117.311254040908139, 42.410485292754856 ], [ 117.311254063171518, 42.410489795698751 ], [ 117.311235833723046, 42.410489845191719 ], [ 117.311235900509232, 42.410503354023412 ], [ 117.311229824025105, 42.410503370520431 ], [ 117.31122984628675, 42.410507873464326 ], [ 117.311235922771303, 42.410507856967293 ], [ 117.311235967295488, 42.410516862855062 ], [ 117.311242043780908, 42.410516846357709 ], [ 117.311242066043434, 42.41052134930159 ] ] ] } },
{ "type": "Feature", "properties": { "crown_id": 2042, "tree_id": "2043", "top_h_m": 21.283, "H_95_Mean": 20.5258, "DBH": 32.5065, "Carbon_kg": 203.228063, "area_m2": 26.75 }, "geometry": { "type": "Polygon", "coordinates": [ [ [ 117.311199641939737, 42.410543979495699 ], [ 117.311211794915863, 42.410543946504511 ], [ 117.311211750395117, 42.410534940616763 ], [ 117.311217826882313, 42.410534924120689 ], [ 117.311217804621521, 42.410530421176816 ], [ 117.311229957595017, 42.410530388183716 ], [ 117.311229935333358, 42.410525885239842 ], [ 117.311236011819659, 42.410525868742809 ], [ 117.311235989557559, 42.410521365798942 ], [ 117.311229913071685, 42.410521382295968 ], [ 117.311229868548395, 42.410512376408207 ], [ 117.311223792063387, 42.410512392904906 ], [ 117.311223747540964, 42.41050338701713 ], [ 117.311211594572669, 42.410503420009569 ], [ 117.311211572312331, 42.410498917065645 ], [ 117.311205495828617, 42.410498933561385 ], [ 117.311205406789085, 42.410480921785727 ], [ 117.311199330307076, 42.410480938281133 ], [ 117.311199308047648, 42.410476435337209 ], [ 117.311175002121374, 42.410476501315557 ], [ 117.311175024379068, 42.410481004259495 ], [ 117.311162871415064, 42.410481037246747 ], [ 117.311162893671892, 42.410485540190692 ], [ 117.311150740706964, 42.410485573176658 ], [ 117.311150807474888, 42.410499082008457 ], [ 117.31115688395866, 42.410499065515623 ], [ 117.311156906215089, 42.410503568459561 ], [ 117.311150829730863, 42.410503584952387 ], [ 117.311150851986866, 42.410508087896311 ], [ 117.311138699017576, 42.410508120881019 ], [ 117.311138721272712, 42.410512623824943 ], [ 117.311144797757791, 42.410512607332741 ], [ 117.311144820013354, 42.410517110276658 ], [ 117.31117520244085, 42.410517027810847 ], [ 117.311175224698601, 42.410521530754757 ], [ 117.311187377670421, 42.410521497766169 ], [ 117.31118739992904, 42.410526000710057 ], [ 117.311199552901741, 42.410525967720183 ], [ 117.311199641939737, 42.410543979495699 ] ], [ [ 117.311187377670421, 42.410521497766169 ], [ 117.31118731089461, 42.410507988934462 ], [ 117.311205540348411, 42.41050793944919 ], [ 117.311205607128159, 42.410521448280868 ], [ 117.311187377670421, 42.410521497766169 ] ] ] } }
]
}
