{
"type": "FeatureCollection",
"name": "tile_23_5",
"crs": { "type": "name", "properties": { "name": "urn:ogc:def:crs:OGC:1.3:CRS84" } },
"features": [
{ "type": "Feature", "properties": { "crown_id": 8755, "tree_id": "8764", "top_h_m": 18.08, "H_95_Mean": 18.8486, "DBH": 41.1577, "Carbon_kg": 310.911253, "area_m2": 78.25 }, "geometry": { "type": "Polygon", "coordinates": [ [ [ 117.311038166380968, 42.407378804823601 ], [ 117.311050318746325, 42.407378771851512 ], [ 117.311050296499943, 42.40737426890508 ], [ 117.311044220317697, 42.407374285391278 ], [ 117.311044198071784, 42.407369782444839 ], [ 117.311068502798989, 42.40736971649811 ], [ 117.311068480551313, 42.407365213551664 ], [ 117.311074556732663, 42.407365197064173 ], [ 117.311074356500086, 42.407324670546132 ], [ 117.311068280322644, 42.407324687033594 ], [ 117.311068258075039, 42.407320184087141 ], [ 117.311062181898009, 42.407320200574283 ], [ 117.311062048415096, 42.407293182895373 ], [ 117.31105597224068, 42.407293199382174 ], [ 117.311055949994, 42.407288696435678 ], [ 117.31106202616796, 42.407288679948877 ], [ 117.311061981673703, 42.407279674055879 ], [ 117.311055905500609, 42.407279690542666 ], [ 117.311055861007247, 42.407270684649653 ], [ 117.311049784835006, 42.40727070113612 ], [ 117.311049762588752, 42.407266198189589 ], [ 117.311043686416937, 42.407266214675751 ], [ 117.311043641925352, 42.407257208782688 ], [ 117.311037565754404, 42.407257225268502 ], [ 117.311037587999763, 42.407261728215033 ], [ 117.311031511828375, 42.407261744700534 ], [ 117.311031467338523, 42.407252738807458 ], [ 117.311019314997466, 42.407252771777479 ], [ 117.31101938172965, 42.407266280617094 ], [ 117.311007229385979, 42.407266313585843 ], [ 117.311007251629164, 42.407270816532382 ], [ 117.311001175456894, 42.40727083301627 ], [ 117.311001242185213, 42.40728434185587 ], [ 117.311007318358804, 42.407284325371975 ], [ 117.311007340602032, 42.407288828318492 ], [ 117.311013416776035, 42.407288811834256 ], [ 117.311013483507026, 42.407302320673807 ], [ 117.310995254981052, 42.407302370125542 ], [ 117.310995232738691, 42.407297867179032 ], [ 117.31098308038888, 42.407297900145224 ], [ 117.310983058147386, 42.4072933971987 ], [ 117.310976981972928, 42.407293413681316 ], [ 117.310976937490835, 42.407284407788246 ], [ 117.310970861317202, 42.407284424270543 ], [ 117.310970883557829, 42.407288927217081 ], [ 117.310964807383783, 42.407288943699051 ], [ 117.310964829623956, 42.407293446645575 ], [ 117.310958753449469, 42.407293463127239 ], [ 117.31095879792899, 42.407302469020308 ], [ 117.310964874104343, 42.407302452538644 ], [ 117.31096491858473, 42.407311458431707 ], [ 117.310970994760964, 42.407311441949716 ], [ 117.310971017001592, 42.407315944896233 ], [ 117.310964940824945, 42.407315961378217 ], [ 117.310965007545605, 42.407329470217768 ], [ 117.310971083723544, 42.40732945373577 ], [ 117.310971061482903, 42.40732495078926 ], [ 117.310977137660444, 42.407324934306942 ], [ 117.310977182142608, 42.407333940199948 ], [ 117.310971105964228, 42.407333956682265 ], [ 117.310971128204912, 42.407338459628768 ], [ 117.310983280562525, 42.407338426663806 ], [ 117.310983302804075, 42.407342929610287 ], [ 117.310971150445553, 42.407342962575264 ], [ 117.310971172686237, 42.407347465521752 ], [ 117.310977248865939, 42.407347449039428 ], [ 117.310977271107049, 42.407351951985916 ], [ 117.310995499647404, 42.407351902537002 ], [ 117.310995521889836, 42.407356405483469 ], [ 117.311001598070376, 42.407356388999851 ], [ 117.311001642556135, 42.407365394892786 ], [ 117.311025947281706, 42.407365328955066 ], [ 117.311025969526327, 42.407369831901526 ], [ 117.311032045708146, 42.407369815416281 ], [ 117.311032067953207, 42.40737431836272 ], [ 117.31103814413548, 42.407374301877169 ], [ 117.311038166380968, 42.407378804823601 ] ], [ [ 117.311025947281706, 42.407365328955066 ], [ 117.311025925037114, 42.407360826008613 ], [ 117.311032001218067, 42.407360809523382 ], [ 117.311032023463113, 42.407365312469828 ], [ 117.311025947281706, 42.407365328955066 ] ], [ [ 117.310995499647404, 42.407351902537002 ], [ 117.310995477405001, 42.407347399590513 ], [ 117.311001553584674, 42.407347383106909 ], [ 117.311001575827518, 42.407351886053377 ], [ 117.310995499647404, 42.407351902537002 ] ] ] } },
{ "type": "Feature", "properties": { "crown_id": 8803, "tree_id": "8812", "top_h_m": 20.78, "H_95_Mean": 19.6953, "DBH": 41.0258, "Carbon_kg": 317.039882, "area_m2": 71.25 }, "geometry": { "type": "Polygon", "coordinates": [ [ [ 117.311135407555682, 42.407383043957168 ], [ 117.31114755992175, 42.407383010974769 ], [ 117.311147537668433, 42.407378508028366 ], [ 117.311141461485832, 42.407378524519736 ], [ 117.311141416980064, 42.407369518626943 ], [ 117.311147493161783, 42.407369502135587 ], [ 117.31114747090848, 42.407364999189198 ], [ 117.311165699452332, 42.407364949713198 ], [ 117.311165721706942, 42.40736945265958 ], [ 117.311171797888633, 42.407369436166945 ], [ 117.311171753378545, 42.40736043027416 ], [ 117.311177829559398, 42.407360413781191 ], [ 117.311177762792994, 42.40734690494201 ], [ 117.311171686613463, 42.407346921434957 ], [ 117.311171619848437, 42.407333412595726 ], [ 117.311177696026661, 42.407333396102786 ], [ 117.311177651515791, 42.407324390209936 ], [ 117.311183727693134, 42.407324373716676 ], [ 117.311183705437259, 42.407319870770266 ], [ 117.311177629260357, 42.407319887263533 ], [ 117.311177584749515, 42.407310881370677 ], [ 117.311135051517056, 42.407310996814438 ], [ 117.311135007012325, 42.407301990921532 ], [ 117.311122854661875, 42.407302023902552 ], [ 117.311122832410391, 42.407297520956099 ], [ 117.311116756235592, 42.407297537446119 ], [ 117.311116733984562, 42.407293034499645 ], [ 117.311110657810204, 42.407293050989352 ], [ 117.311110524306599, 42.407266033310442 ], [ 117.311116600478357, 42.407266016820763 ], [ 117.311116578227328, 42.407261513874268 ], [ 117.311104425884693, 42.407261546853313 ], [ 117.311104448134827, 42.407266049799809 ], [ 117.311080143447754, 42.407266115754048 ], [ 117.311080165696168, 42.407270618700551 ], [ 117.311061937179474, 42.407270668162859 ], [ 117.311061959426581, 42.407275171109362 ], [ 117.311068035599263, 42.407275154622248 ], [ 117.31106823582742, 42.407315681140659 ], [ 117.311074312003996, 42.407315664653204 ], [ 117.311074334252055, 42.407320167599671 ], [ 117.311080410429028, 42.407320151111882 ], [ 117.311080632914027, 42.40736518057637 ], [ 117.311086709095349, 42.407365164088226 ], [ 117.311086686846409, 42.407360661141801 ], [ 117.311092763027304, 42.407360644653345 ], [ 117.311092785276685, 42.407365147599783 ], [ 117.311104937639342, 42.407365114621911 ], [ 117.311104959889619, 42.407369617568314 ], [ 117.311111036071381, 42.407369601078891 ], [ 117.311111058322084, 42.407374104025301 ], [ 117.311104982139881, 42.407374120514731 ], [ 117.311105004390157, 42.407378623461142 ], [ 117.311135385303217, 42.407378541010772 ], [ 117.311135407555682, 42.407383043957168 ] ], [ [ 117.311116889742024, 42.407324555124859 ], [ 117.311116822988794, 42.407311046285507 ], [ 117.311135051517056, 42.407310996814438 ], [ 117.311135118274208, 42.407324505653762 ], [ 117.311116889742024, 42.407324555124859 ] ] ] } },
{ "type": "Feature", "properties": { "crown_id": 8831, "tree_id": "8840", "top_h_m": 20.33, "H_95_Mean": 20.5556, "DBH": 32.6069, "Carbon_kg": 204.670703, "area_m2": 27.0 }, "geometry": { "type": "Polygon", "coordinates": [ [ [ 117.311141105440342, 42.407306477376977 ], [ 117.311177562494095, 42.407306378424245 ], [ 117.311177540238688, 42.407301875477806 ], [ 117.311183616413871, 42.407301858984553 ], [ 117.311183549646387, 42.407288350145222 ], [ 117.311189625820234, 42.40728833365165 ], [ 117.311189559051485, 42.407274824812319 ], [ 117.311183482878931, 42.40727484130587 ], [ 117.311183460623127, 42.40727033835941 ], [ 117.311177384451, 42.407270354852642 ], [ 117.311177339940258, 42.407261348959715 ], [ 117.311171263768998, 42.407261365452619 ], [ 117.311171219259151, 42.407252359559656 ], [ 117.31115906691835, 42.4072523925445 ], [ 117.311159089172378, 42.407256895490981 ], [ 117.311146936830681, 42.407256928474524 ], [ 117.311146914577492, 42.407252425528043 ], [ 117.31114083840707, 42.407252442019328 ], [ 117.311140860659805, 42.407256944965823 ], [ 117.311122632147217, 42.407256994437759 ], [ 117.311122698901556, 42.407270503277239 ], [ 117.311116622729372, 42.407270519767252 ], [ 117.311116711733504, 42.407288531553178 ], [ 117.311122787907422, 42.407288515063151 ], [ 117.311122810158921, 42.407293018009618 ], [ 117.31112888633325, 42.407293001519271 ], [ 117.311128908585175, 42.407297504465753 ], [ 117.31114106093473, 42.407297471484078 ], [ 117.311141105440342, 42.407306477376977 ] ] ] } },
{ "type": "Feature", "properties": { "crown_id": 8912, "tree_id": "8921", "top_h_m": 19.58, "H_95_Mean": 20.6192, "DBH": 40.4951, "Carbon_kg": 317.316492, "area_m2": 62.25 }, "geometry": { "type": "MultiPolygon", "coordinates": [ [ [ [ 117.310922274165279, 42.407289059063821 ], [ 117.310922296402424, 42.407293562010381 ], [ 117.310928372576925, 42.407293545530656 ], [ 117.310928350339353, 42.407289042584111 ], [ 117.310922274165279, 42.407289059063821 ] ] ], [ [ [ 117.310922274165279, 42.407289059063821 ], [ 117.310922251928133, 42.407284556117261 ], [ 117.310928328101781, 42.407284539637558 ], [ 117.310928350339353, 42.407289042584111 ], [ 117.310934426513441, 42.407289026104074 ], [ 117.310934448751468, 42.407293529050619 ], [ 117.310940524925954, 42.407293512570263 ], [ 117.310940502687515, 42.40728900962371 ], [ 117.310958731209723, 42.407288960180693 ], [ 117.310958708969963, 42.407284457234155 ], [ 117.310964785143582, 42.407284440752505 ], [ 117.310964762903424, 42.40727993780596 ], [ 117.310976915249768, 42.407279904841715 ], [ 117.310976826285668, 42.407261893055512 ], [ 117.310982902457098, 42.407261876572925 ], [ 117.310982880215647, 42.407257373626365 ], [ 117.310970727873652, 42.407257406591228 ], [ 117.310970705633082, 42.407252903644668 ], [ 117.310964629462489, 42.407252920126616 ], [ 117.310964473781638, 42.407221399500564 ], [ 117.310958397614101, 42.407221415982164 ], [ 117.31095837537444, 42.407216913035562 ], [ 117.310946223040219, 42.407216945997824 ], [ 117.310946200801425, 42.407212443051215 ], [ 117.310940124634755, 42.407212459531841 ], [ 117.310940057919694, 42.407198950691999 ], [ 117.310933981754317, 42.407198967172292 ], [ 117.310934003992216, 42.407203470118915 ], [ 117.310927927826413, 42.407203486598917 ], [ 117.310927883351468, 42.40719448070567 ], [ 117.310915731021524, 42.407194513664663 ], [ 117.310915753258129, 42.407199016611294 ], [ 117.310903600927318, 42.407199049569016 ], [ 117.310903623163043, 42.407203552515647 ], [ 117.310897546997211, 42.407203568994021 ], [ 117.310897569232509, 42.407208071940666 ], [ 117.310891493066222, 42.40720808841872 ], [ 117.310891537535966, 42.407217094311989 ], [ 117.310885461368812, 42.407217110789723 ], [ 117.310885483603258, 42.407221613736354 ], [ 117.310873331268056, 42.407221646690878 ], [ 117.310873442436048, 42.407244161423996 ], [ 117.310879518605816, 42.40724414494688 ], [ 117.310879563073925, 42.407253150840091 ], [ 117.31088563924456, 42.407253134362655 ], [ 117.310885683713551, 42.407262140255853 ], [ 117.310891759885067, 42.407262123778096 ], [ 117.310891804354938, 42.407271129671265 ], [ 117.310897880527321, 42.407271113193168 ], [ 117.310897902762704, 42.407275616139742 ], [ 117.310903978935514, 42.407275599661318 ], [ 117.310904001171323, 42.407280102607906 ], [ 117.310910077344573, 42.407280086129148 ], [ 117.310910121817088, 42.407289092022289 ], [ 117.310922274165279, 42.407289059063821 ] ] ], [ [ [ 117.310927883351468, 42.40719448070567 ], [ 117.310933959516404, 42.407194464225682 ], [ 117.310933937278506, 42.407189961279059 ], [ 117.310927861113996, 42.407189977759032 ], [ 117.310927883351468, 42.40719448070567 ] ] ], [ [ [ 117.310927861113996, 42.407189977759032 ], [ 117.310927838876552, 42.407185474812394 ], [ 117.310921762712439, 42.407185491292054 ], [ 117.310921784949485, 42.407189994238699 ], [ 117.310927861113996, 42.407189977759032 ] ] ] ] } }
]
}
