{
"type": "FeatureCollection",
"name": "tile_22_1",
"crs": { "type": "name", "properties": { "name": "urn:ogc:def:crs:OGC:1.3:CRS84" } },
"features": [
{ "type": "Feature", "properties": { "crown_id": 8356, "tree_id": "8364", "top_h_m": 19.14, "H_95_Mean": 19.415, "DBH": 29.9257, "Carbon_kg": 166.450126, "area_m2": 21.5 }, "geometry": { "type": "MultiPolygon", "coordinates": [ [ [ [ 117.310079038708125, 42.407566026366155 ], [ 117.310079060885172, 42.407570529312849 ], [ 117.31007298468343, 42.407570545747639 ], [ 117.310073006860037, 42.407575048694333 ], [ 117.310066930657868, 42.40757506512881 ], [ 117.310066952834049, 42.407579568075505 ], [ 117.310073029036673, 42.407579551641028 ], [ 117.310073051213308, 42.407584054587709 ], [ 117.310066975010244, 42.407584071022193 ], [ 117.310066997186453, 42.407588573968873 ], [ 117.310073073389944, 42.407588557534396 ], [ 117.31007309556658, 42.407593060481098 ], [ 117.310085247974399, 42.407593027611156 ], [ 117.310085292329418, 42.407602033504489 ], [ 117.310103520943713, 42.407601984197171 ], [ 117.310103543122565, 42.407606487143831 ], [ 117.310115695532943, 42.40760645427067 ], [ 117.310115739892339, 42.40761546016396 ], [ 117.310121816098402, 42.407615443726897 ], [ 117.310121838278548, 42.407619946673542 ], [ 117.310127914485008, 42.407619930236152 ], [ 117.310127892304436, 42.407615427289514 ], [ 117.310140044716505, 42.40761539441376 ], [ 117.310140022535066, 42.407610891467122 ], [ 117.310146098740674, 42.407610875028773 ], [ 117.310146010013199, 42.407592863242201 ], [ 117.310139933809353, 42.407592879680536 ], [ 117.310139911627928, 42.407588376733877 ], [ 117.310121683017627, 42.407588426046978 ], [ 117.3101215942972, 42.407570414260299 ], [ 117.310091213288644, 42.407570496442297 ], [ 117.310091191110715, 42.407565993495609 ], [ 117.310079038708125, 42.407566026366155 ] ] ], [ [ [ 117.310079038708125, 42.407566026366155 ], [ 117.310078994354043, 42.407557020472744 ], [ 117.310072918153608, 42.407557036907534 ], [ 117.310072962506823, 42.407566042800937 ], [ 117.310079038708125, 42.407566026366155 ] ] ] ] } },
{ "type": "Feature", "properties": { "crown_id": 8367, "tree_id": "8375", "top_h_m": 19.77, "H_95_Mean": 20.2895, "DBH": 35.5077, "Carbon_kg": 241.161576, "area_m2": 38.5 }, "geometry": { "type": "Polygon", "coordinates": [ [ [ 117.309939618583115, 42.407633948485753 ], [ 117.309945694791068, 42.407633932058019 ], [ 117.309945650455944, 42.407624926164594 ], [ 117.309951726663016, 42.407624909736541 ], [ 117.309951704495035, 42.407620406789832 ], [ 117.309957780701666, 42.407620390361451 ], [ 117.309957758533244, 42.407615887414742 ], [ 117.309969910945597, 42.407615854557029 ], [ 117.309969844437788, 42.407602345716903 ], [ 117.309975920642657, 42.407602329287563 ], [ 117.309975876303284, 42.407593323394124 ], [ 117.309981952507258, 42.407593306964479 ], [ 117.309981930337131, 42.407588804017756 ], [ 117.30996370172646, 42.407588853305732 ], [ 117.309963590882447, 42.407566338572039 ], [ 117.309933209875382, 42.407566420712158 ], [ 117.309933143375559, 42.407552911871861 ], [ 117.309914914775149, 42.407552961152042 ], [ 117.309914936940473, 42.407557464098836 ], [ 117.309902784539304, 42.40755749695068 ], [ 117.309902806703747, 42.40756199989746 ], [ 117.309896730502729, 42.407562016322913 ], [ 117.309896752666745, 42.407566519269679 ], [ 117.309890676465258, 42.407566535694812 ], [ 117.309890853774036, 42.407602559268923 ], [ 117.309896929978976, 42.407602542843769 ], [ 117.309896952143006, 42.407607045790527 ], [ 117.30989087593764, 42.407607062215675 ], [ 117.309890898101273, 42.407611565162412 ], [ 117.309909126718665, 42.407611515885996 ], [ 117.309909148883605, 42.407616018832734 ], [ 117.309927377502248, 42.407615969553405 ], [ 117.309927399668496, 42.407620472500128 ], [ 117.309933475875141, 42.407620456073033 ], [ 117.309933520208489, 42.407629461966472 ], [ 117.309939596416001, 42.407629445539044 ], [ 117.309939618583115, 42.407633948485753 ] ], [ [ 117.309927288837343, 42.407597957766477 ], [ 117.3099272223387, 42.407584448926244 ], [ 117.309945450948192, 42.407584399644072 ], [ 117.309945517450743, 42.407597908484284 ], [ 117.309927288837343, 42.407597957766477 ] ] ] } },
{ "type": "Feature", "properties": { "crown_id": 8409, "tree_id": "8417", "top_h_m": 19.897, "H_95_Mean": 19.948, "DBH": 35.0446, "Carbon_kg": 232.518062, "area_m2": 37.75 }, "geometry": { "type": "Polygon", "coordinates": [ [ [ 117.310152086217045, 42.407592846803524 ], [ 117.31015816242089, 42.407592830364536 ], [ 117.310158095872751, 42.407579321524594 ], [ 117.310176324480352, 42.407579272205716 ], [ 117.310176302296341, 42.407574769259078 ], [ 117.310182378498411, 42.407574752818796 ], [ 117.310182356313987, 42.407570249872144 ], [ 117.310188432515631, 42.407570233431557 ], [ 117.31018832159134, 42.407547718698275 ], [ 117.310200473990264, 42.407547685816155 ], [ 117.310200385247441, 42.40752967402949 ], [ 117.310182156654236, 42.407529723352134 ], [ 117.310182134469841, 42.407525220405446 ], [ 117.310176058272532, 42.4075252368457 ], [ 117.310176124824423, 42.407538745685748 ], [ 117.310151820029944, 42.407538811443516 ], [ 117.310151797847709, 42.407534308496821 ], [ 117.310133569253082, 42.407534357811748 ], [ 117.310133547072141, 42.407529854865047 ], [ 117.310121394676585, 42.407529887740061 ], [ 117.310121416856632, 42.407534390686763 ], [ 117.31010318826192, 42.407534439996866 ], [ 117.31010323261944, 42.407543445890298 ], [ 117.310097156420326, 42.407543462326352 ], [ 117.31009720077698, 42.40755246821977 ], [ 117.310085048377005, 42.407552501090933 ], [ 117.310085092731939, 42.407561506984337 ], [ 117.310097245133647, 42.407561474113173 ], [ 117.310097267312017, 42.407565977059861 ], [ 117.310127648318385, 42.407565894876264 ], [ 117.310127737040517, 42.407583906662936 ], [ 117.310145965649497, 42.407583857348889 ], [ 117.310145987831348, 42.407588360295534 ], [ 117.310152064034767, 42.407588343856879 ], [ 117.310152086217045, 42.407592846803524 ] ] ] } },
{ "type": "Feature", "properties": { "crown_id": 8420, "tree_id": "8428", "top_h_m": 19.09, "H_95_Mean": 19.4367, "DBH": 34.8484, "Carbon_kg": 226.398009, "area_m2": 38.75 }, "geometry": { "type": "Polygon", "coordinates": [ [ [ 117.309988006540706, 42.407588787587791 ], [ 117.309994082744254, 42.407588771157492 ], [ 117.30999403840228, 42.407579765264053 ], [ 117.3099879621996, 42.407579781694345 ], [ 117.309987940029075, 42.407575278747615 ], [ 117.310012244838006, 42.407575213024543 ], [ 117.310012222665748, 42.407570710077827 ], [ 117.310018298867533, 42.40757069364625 ], [ 117.310018254522134, 42.407561687752811 ], [ 117.310024330723053, 42.407561671320913 ], [ 117.310024308549927, 42.40755716837419 ], [ 117.310036460950869, 42.407557135509464 ], [ 117.310036438776876, 42.407552632562734 ], [ 117.310030362576839, 42.407552648995257 ], [ 117.310030251709151, 42.407530134261556 ], [ 117.310024175511273, 42.407530150693752 ], [ 117.310024153338176, 42.407525647746994 ], [ 117.310018077140739, 42.407525664178863 ], [ 117.31001809931341, 42.407530167125614 ], [ 117.310012023115505, 42.407530183557164 ], [ 117.310011956598871, 42.407516674716888 ], [ 117.309987651812506, 42.407516740439824 ], [ 117.309987629642023, 42.407512237493037 ], [ 117.309981553445866, 42.407512253922967 ], [ 117.309981575615907, 42.407516756869732 ], [ 117.309975499419309, 42.407516773299349 ], [ 117.309975477249694, 42.407512270352569 ], [ 117.309969401053522, 42.407512286781852 ], [ 117.309969423222682, 42.407516789728639 ], [ 117.309963347026056, 42.407516806157588 ], [ 117.309963369194804, 42.407521309104375 ], [ 117.30995121680067, 42.407521341961349 ], [ 117.309951283304315, 42.407534850801696 ], [ 117.309945207105926, 42.407534867229707 ], [ 117.309945229273382, 42.40753937017648 ], [ 117.309939153074595, 42.407539386604164 ], [ 117.309939263909754, 42.407561901338021 ], [ 117.309969644914617, 42.407561819196303 ], [ 117.309969755760761, 42.407584333930004 ], [ 117.309987984370153, 42.407584284641068 ], [ 117.309988006540706, 42.407588787587791 ] ], [ [ 117.309957426007657, 42.407548343213683 ], [ 117.309957359502661, 42.407534834373372 ], [ 117.309975588097743, 42.40753478508644 ], [ 117.309975654606632, 42.40754829392673 ], [ 117.309957426007657, 42.407548343213683 ] ] ] } },
{ "type": "Feature", "properties": { "crown_id": 8445, "tree_id": "8453", "top_h_m": 19.645, "H_95_Mean": 19.9899, "DBH": 26.1113, "Carbon_kg": 128.656264, "area_m2": 12.0 }, "geometry": { "type": "Polygon", "coordinates": [ [ [ 117.309902740210447, 42.407548491057113 ], [ 117.309933121208942, 42.407548408925088 ], [ 117.309933054709177, 42.407534900084748 ], [ 117.309939130907551, 42.407534883657391 ], [ 117.309939108740565, 42.407530380710604 ], [ 117.309945184938485, 42.407530364282913 ], [ 117.30994511843619, 42.407516855442552 ], [ 117.309957270829429, 42.407516822586238 ], [ 117.309957248661149, 42.407512319639451 ], [ 117.309963324857335, 42.407512303210808 ], [ 117.309963280519895, 42.407503297317213 ], [ 117.309957204324576, 42.407503313745842 ], [ 117.309957182156282, 42.407498810799041 ], [ 117.309951105961389, 42.40749882722735 ], [ 117.309951128129242, 42.407503330174158 ], [ 117.309945051933923, 42.407503346602148 ], [ 117.30994507410135, 42.407507849548956 ], [ 117.309932921709802, 42.407507882403976 ], [ 117.309932943876333, 42.407512385350778 ], [ 117.309926867680119, 42.407512401777801 ], [ 117.309926889846238, 42.407516904724616 ], [ 117.309920813649597, 42.407516921151313 ], [ 117.309920835815291, 42.407521424098114 ], [ 117.309914759618209, 42.407521440524505 ], [ 117.30991482611401, 42.407534949364894 ], [ 117.309908749915607, 42.407534965790973 ], [ 117.309908772080462, 42.407539468737774 ], [ 117.309890543483931, 42.407539518014062 ], [ 117.30989056564745, 42.40754402096087 ], [ 117.309902718046018, 42.407543988110326 ], [ 117.309902740210447, 42.407548491057113 ] ] ] } },
{ "type": "Feature", "properties": { "crown_id": 8464, "tree_id": "8472", "top_h_m": 17.72, "H_95_Mean": 18.5945, "DBH": 28.1039, "Carbon_kg": 142.960007, "area_m2": 18.25 }, "geometry": { "type": "Polygon", "coordinates": [ [ [ 117.310157874045913, 42.407534292057861 ], [ 117.310170026442279, 42.407534259178981 ], [ 117.310169959891724, 42.407520750338918 ], [ 117.310176036088592, 42.407520733899005 ], [ 117.310175947352846, 42.407502722112199 ], [ 117.310169871157711, 42.407502738552104 ], [ 117.310169804607241, 42.407489229711949 ], [ 117.310157652219573, 42.407489262590786 ], [ 117.310157630036954, 42.407484759644042 ], [ 117.310139401456681, 42.407484808959865 ], [ 117.310139379275384, 42.40748030601312 ], [ 117.310133303082381, 42.407480322451086 ], [ 117.310133325263237, 42.407484825397823 ], [ 117.310109020489463, 42.407484891146446 ], [ 117.3101090426686, 42.407489394093204 ], [ 117.310115118862498, 42.407489377656525 ], [ 117.31011516322161, 42.407498383550006 ], [ 117.310121239416375, 42.407498367113 ], [ 117.310121261596393, 42.40750287005973 ], [ 117.31012733779157, 42.407502853622411 ], [ 117.310127359972029, 42.407507356569141 ], [ 117.310139512363236, 42.407507323693508 ], [ 117.310139623269933, 42.407529838427067 ], [ 117.310157851863238, 42.407529789111173 ], [ 117.310157874045913, 42.407534292057861 ] ] ] } },
{ "type": "Feature", "properties": { "crown_id": 8470, "tree_id": "8478", "top_h_m": 19.58, "H_95_Mean": 19.7535, "DBH": 25.3886, "Carbon_kg": 120.72767, "area_m2": 11.0 }, "geometry": { "type": "Polygon", "coordinates": [ [ [ 117.309890521320369, 42.407535015067268 ], [ 117.309902673717204, 42.407534982216731 ], [ 117.309902651552804, 42.407530479269937 ], [ 117.309908727750781, 42.407530462844178 ], [ 117.309908661256273, 42.407516954003768 ], [ 117.309914737452942, 42.407516937577704 ], [ 117.30991471528769, 42.407512434630895 ], [ 117.309920791483904, 42.407512418204504 ], [ 117.309920769318239, 42.407507915257703 ], [ 117.309926845514013, 42.407507898831 ], [ 117.309926823347894, 42.407503395884184 ], [ 117.309938975738575, 42.407503363029818 ], [ 117.309938953571603, 42.407498860082995 ], [ 117.309945029766496, 42.40749884365534 ], [ 117.309945007599097, 42.407494340708524 ], [ 117.309951083793564, 42.407494324280542 ], [ 117.309951061625725, 42.407489821333741 ], [ 117.309920680655537, 42.40748990347042 ], [ 117.309920702821202, 42.407494406417243 ], [ 117.309914626626721, 42.407494422843612 ], [ 117.30991464879196, 42.407498925790428 ], [ 117.309890344012231, 42.407498991492716 ], [ 117.309890521320369, 42.407535015067268 ] ] ] } },
{ "type": "Feature", "properties": { "crown_id": 8471, "tree_id": "8479", "top_h_m": 18.11, "H_95_Mean": 18.7996, "DBH": 21.8656, "Carbon_kg": 86.76278, "area_m2": 6.75 }, "geometry": { "type": "Polygon", "coordinates": [ [ [ 117.310103166083181, 42.407529937050164 ], [ 117.310115318478793, 42.407529904177075 ], [ 117.310115296299173, 42.407525401230366 ], [ 117.310133524891242, 42.407525351918352 ], [ 117.310133458348531, 42.407511843078204 ], [ 117.310121305956429, 42.407511875953197 ], [ 117.310121283776411, 42.407507373006474 ], [ 117.310115207580793, 42.407507389443474 ], [ 117.310115185401202, 42.407502886496744 ], [ 117.310109109205996, 42.40750290293343 ], [ 117.310109131385161, 42.40750740588016 ], [ 117.310096978993897, 42.407507438752575 ], [ 117.310097001172181, 42.407511941699305 ], [ 117.310090924976123, 42.407511958135032 ], [ 117.310090969331824, 42.407520964028492 ], [ 117.310097045528764, 42.407520947592758 ], [ 117.310097067707076, 42.407525450539488 ], [ 117.310103143904456, 42.407525434103441 ], [ 117.310103166083181, 42.407529937050164 ] ] ] } },
{ "type": "Feature", "properties": { "crown_id": 8525, "tree_id": "8533", "top_h_m": 19.24, "H_95_Mean": 19.86, "DBH": 29.302, "Carbon_kg": 161.684874, "area_m2": 19.0 }, "geometry": { "type": "Polygon", "coordinates": [ [ [ 117.309890321848727, 42.407494488545879 ], [ 117.30990855043224, 42.407494439269662 ], [ 117.309908528267428, 42.40748993632284 ], [ 117.309914604461483, 42.40748991989679 ], [ 117.309914582296273, 42.407485416949953 ], [ 117.3099449632643, 42.407485334814886 ], [ 117.309944918929517, 42.407476328921248 ], [ 117.309938842736813, 42.407476345348897 ], [ 117.30993882056984, 42.407471842402074 ], [ 117.309932744377548, 42.407471858829396 ], [ 117.309932677878052, 42.407458349988872 ], [ 117.309926601687053, 42.407458366415867 ], [ 117.309926557354927, 42.407449360522165 ], [ 117.309920481164795, 42.407449376948826 ], [ 117.309920458999201, 42.407444874001968 ], [ 117.309914382809467, 42.407444890428316 ], [ 117.309914360644314, 42.407440387481451 ], [ 117.309908284455048, 42.407440403907479 ], [ 117.309908240125566, 42.407431398013721 ], [ 117.309902163937167, 42.407431414439408 ], [ 117.309902119608594, 42.407422408545642 ], [ 117.309889967233502, 42.407422441396058 ], [ 117.309890122377496, 42.407453962024213 ], [ 117.309908350949271, 42.407453912748061 ], [ 117.309908417443552, 42.407467421588628 ], [ 117.309890188867854, 42.407467470864795 ], [ 117.309890321848727, 42.407494488545879 ] ] ] } },
{ "type": "Feature", "properties": { "crown_id": 8526, "tree_id": "8534", "top_h_m": 18.975, "H_95_Mean": 20.1924, "DBH": 34.9434, "Carbon_kg": 232.837715, "area_m2": 36.5 }, "geometry": { "type": "Polygon", "coordinates": [ [ [ 117.310078794760926, 42.407516493952237 ], [ 117.310084870957454, 42.407516477517156 ], [ 117.310084826602605, 42.407507471623681 ], [ 117.310090902798265, 42.407507455188288 ], [ 117.310090880620407, 42.407502952241551 ], [ 117.310103033010833, 42.407502919369783 ], [ 117.310103010832108, 42.407498416423039 ], [ 117.310109087026873, 42.407498399986686 ], [ 117.310109064847722, 42.407493897039949 ], [ 117.310102988653412, 42.407493913476301 ], [ 117.310102922117309, 42.407480404636047 ], [ 117.310115074503358, 42.407480371763029 ], [ 117.310115052323823, 42.407475868816285 ], [ 117.310108976131218, 42.407475885252943 ], [ 117.310108909593879, 42.407462376412646 ], [ 117.310096757211326, 42.407462409285017 ], [ 117.310096712854872, 42.407453403391465 ], [ 117.310066331902675, 42.407453485566691 ], [ 117.310066309726622, 42.407448982619883 ], [ 117.310042004966519, 42.407449048354259 ], [ 117.310042027140838, 42.407453551301074 ], [ 117.310035950950365, 42.40745356773386 ], [ 117.310035973124229, 42.407458070680654 ], [ 117.310023820742416, 42.407458103545281 ], [ 117.31002390943452, 42.407476115332479 ], [ 117.310017833241844, 42.407476131764319 ], [ 117.310017877587043, 42.407485137657901 ], [ 117.310023953780586, 42.40748512122606 ], [ 117.310023975953627, 42.40748962417284 ], [ 117.310030052147582, 42.407489607740686 ], [ 117.310030096494572, 42.407498613634232 ], [ 117.310048325079009, 42.407498564335782 ], [ 117.310048347253812, 42.407503067282548 ], [ 117.310060499644294, 42.407503034415299 ], [ 117.310060543995647, 42.407512040308802 ], [ 117.310078772583935, 42.407511991005514 ], [ 117.310078794760926, 42.407516493952237 ] ], [ [ 117.310066487135146, 42.407485006194143 ], [ 117.310066420606915, 42.407471497353825 ], [ 117.310084649183452, 42.407471448049634 ], [ 117.31008471571559, 42.407484956889924 ], [ 117.310066487135146, 42.407485006194143 ] ] ] } },
{ "type": "Feature", "properties": { "crown_id": 8552, "tree_id": "8560", "top_h_m": 18.6, "H_95_Mean": 19.0678, "DBH": 34.4164, "Carbon_kg": 218.288968, "area_m2": 38.25 }, "geometry": { "type": "MultiPolygon", "coordinates": [ [ [ [ 117.309938731902108, 42.407453830614713 ], [ 117.309938798402897, 42.407467339455231 ], [ 117.309944874594763, 42.407467323027582 ], [ 117.309944896762133, 42.407471825974426 ], [ 117.309950972954439, 42.407471809546443 ], [ 117.309951017290075, 42.407480815440096 ], [ 117.30996924586951, 42.407480766154244 ], [ 117.309969223700378, 42.407476263207428 ], [ 117.309975299893082, 42.40747624677816 ], [ 117.309975366401758, 42.407489755618599 ], [ 117.309969290207761, 42.407489772047867 ], [ 117.309969312376921, 42.407494274994662 ], [ 117.309981464765784, 42.407494242135797 ], [ 117.30998144259577, 42.407489739188996 ], [ 117.309993594983752, 42.407489706328853 ], [ 117.309993572812886, 42.407485203382045 ], [ 117.309999649006429, 42.407485186951497 ], [ 117.309999671177749, 42.407489689898291 ], [ 117.310005747371733, 42.407489673467417 ], [ 117.310005725199971, 42.407485170520623 ], [ 117.310011801393529, 42.407485154089429 ], [ 117.310011734877037, 42.407471645249032 ], [ 117.310017811069258, 42.407471628817518 ], [ 117.31001772237893, 42.407453617030285 ], [ 117.310029874759877, 42.407453584166326 ], [ 117.310029852586453, 42.407449081219511 ], [ 117.310035928776486, 42.407449064787045 ], [ 117.310035884428771, 42.407440058893421 ], [ 117.310023732050411, 42.407440091758026 ], [ 117.310023709877413, 42.407435588811204 ], [ 117.310017633688673, 42.407435605243009 ], [ 117.310017589343573, 42.40742659934935 ], [ 117.310011513155672, 42.407426615780835 ], [ 117.31001149098357, 42.407422112833999 ], [ 117.309999338608677, 42.407422145695996 ], [ 117.309999316437427, 42.407417642749145 ], [ 117.309993240250407, 42.407417659179679 ], [ 117.309993262421187, 42.407422162126515 ], [ 117.309987186233727, 42.407422178556722 ], [ 117.309987208404095, 42.407426681503559 ], [ 117.30997505602825, 42.407426714362998 ], [ 117.309975078197766, 42.407431217309842 ], [ 117.30996900200941, 42.407431233739075 ], [ 117.309969024178486, 42.407435736685933 ], [ 117.309962947989703, 42.407435753114846 ], [ 117.309962970158338, 42.40744025606169 ], [ 117.309956893969101, 42.407440272490298 ], [ 117.309956938305518, 42.407449278383986 ], [ 117.30994478592531, 42.407449311240228 ], [ 117.309944808092681, 42.407453814187072 ], [ 117.309938731902108, 42.407453830614713 ] ] ], [ [ [ 117.309938731902108, 42.407453830614713 ], [ 117.309938709735192, 42.407449327667855 ], [ 117.30993263354506, 42.407449344095163 ], [ 117.309932655711535, 42.407453847042021 ], [ 117.309938731902108, 42.407453830614713 ] ] ] ] } },
{ "type": "Feature", "properties": { "crown_id": 8591, "tree_id": "8600", "top_h_m": 20.355, "H_95_Mean": 20.7493, "DBH": 34.557, "Carbon_kg": 231.370866, "area_m2": 33.25 }, "geometry": { "type": "Polygon", "coordinates": [ [ [ 117.310102811223928, 42.407457889902219 ], [ 117.310108887414799, 42.40745787346588 ], [ 117.310108843056597, 42.407448867572334 ], [ 117.310114919246587, 42.407448851135676 ], [ 117.31011487488756, 42.407439845242124 ], [ 117.310120951076655, 42.407439828805153 ], [ 117.310120884536857, 42.407426319964799 ], [ 117.310133036912418, 42.407426287089905 ], [ 117.310133014731633, 42.407421784143125 ], [ 117.310120862356911, 42.407421817018005 ], [ 117.310120840177007, 42.407417314071203 ], [ 117.310114763990072, 42.407417330508167 ], [ 117.310114697451652, 42.407403821667742 ], [ 117.310102545080355, 42.407403854540675 ], [ 117.310102522901772, 42.407399351593845 ], [ 117.310096446716571, 42.407399368029836 ], [ 117.310096424538401, 42.407394865083006 ], [ 117.310090348353611, 42.407394881518663 ], [ 117.310090370531341, 42.407399384465499 ], [ 117.310084294346126, 42.407399400900822 ], [ 117.310084338700733, 42.407408406794481 ], [ 117.310060033956333, 42.407408472532616 ], [ 117.310060011780763, 42.407403969585793 ], [ 117.310023554666614, 42.407404068183332 ], [ 117.310023599012538, 42.40741307407702 ], [ 117.310029675199104, 42.407413057644902 ], [ 117.310029697372514, 42.407417560591746 ], [ 117.310023621185508, 42.407417577023878 ], [ 117.310023665531446, 42.407426582917545 ], [ 117.310029741719319, 42.407426566485412 ], [ 117.310029786066167, 42.407435572379065 ], [ 117.310041938443646, 42.407435539513827 ], [ 117.310041982792228, 42.407444545407458 ], [ 117.310072363740176, 42.407444463238697 ], [ 117.310072385916627, 42.407448966185484 ], [ 117.310102766866621, 42.407448884008659 ], [ 117.310102811223928, 42.407457889902219 ] ], [ [ 117.310078373399037, 42.407430937963568 ], [ 117.310078306868377, 42.407417429123143 ], [ 117.310096535429238, 42.407417379817105 ], [ 117.310096601963821, 42.407430888657508 ], [ 117.310078373399037, 42.407430937963568 ] ] ] } },
{ "type": "Feature", "properties": { "crown_id": 8598, "tree_id": "8607", "top_h_m": 16.765, "H_95_Mean": 16.8475, "DBH": 20.7464, "Carbon_kg": 73.144458, "area_m2": 6.75 }, "geometry": { "type": "Polygon", "coordinates": [ [ [ 117.310163484400249, 42.407439713737354 ], [ 117.310169560589316, 42.407439697297804 ], [ 117.310169538405887, 42.407435194351045 ], [ 117.310175614594499, 42.407435177911182 ], [ 117.310175636778354, 42.407439680857941 ], [ 117.31018171296742, 42.407439664417751 ], [ 117.310181690783125, 42.407435161470993 ], [ 117.310187766971737, 42.407435145030483 ], [ 117.310187744787015, 42.407430642083725 ], [ 117.31018166859883, 42.407430658524227 ], [ 117.310181624230296, 42.407421652630703 ], [ 117.310175548042963, 42.407421669070878 ], [ 117.310175503675325, 42.407412663177325 ], [ 117.310151198929489, 42.407412728934808 ], [ 117.310151243293674, 42.407421734828368 ], [ 117.31013909091898, 42.407421767705195 ], [ 117.31013911310022, 42.407426270651968 ], [ 117.310151265475781, 42.407426237775162 ], [ 117.310151287657888, 42.407430740721935 ], [ 117.310157363846088, 42.407430724283032 ], [ 117.310157386028621, 42.407435227229811 ], [ 117.310163462217247, 42.407435210790595 ], [ 117.310163484400249, 42.407439713737354 ] ] ] } }
]
}
