{
"type": "FeatureCollection",
"name": "tile_23_3",
"crs": { "type": "name", "properties": { "name": "urn:ogc:def:crs:OGC:1.3:CRS84" } },
"features": [
{ "type": "Feature", "properties": { "crown_id": 8604, "tree_id": "8613", "top_h_m": 19.47, "H_95_Mean": 19.4274, "DBH": 35.4062, "Carbon_kg": 233.695014, "area_m2": 41.25 }, "geometry": { "type": "Polygon", "coordinates": [ [ [ 117.310412585946821, 42.407434536505242 ], [ 117.310473347830794, 42.407434371963276 ], [ 117.310473325625637, 42.407429869016632 ], [ 117.310479401813581, 42.407429852560675 ], [ 117.310479335196888, 42.407416343720755 ], [ 117.31048541138351, 42.407416327264471 ], [ 117.310485344765553, 42.407402818424529 ], [ 117.310491420950882, 42.407402801967926 ], [ 117.31049135433166, 42.407389293127956 ], [ 117.310497430515667, 42.407389276671054 ], [ 117.310497408308834, 42.407384773724388 ], [ 117.310491332125267, 42.407384790181297 ], [ 117.31049128771248, 42.407375784287964 ], [ 117.310466982981609, 42.407375850112345 ], [ 117.310466960776992, 42.40737134716565 ], [ 117.310454808412388, 42.407371380075908 ], [ 117.310454830616152, 42.407375883022588 ], [ 117.310448754433423, 42.407375899477238 ], [ 117.310448776636775, 42.407380402423925 ], [ 117.31039409098797, 42.407380550501266 ], [ 117.310394135386829, 42.407389556394691 ], [ 117.310400211570936, 42.407389539942933 ], [ 117.310400322570388, 42.407412054676392 ], [ 117.310406398756626, 42.407412038224301 ], [ 117.310406487558055, 42.407430050010994 ], [ 117.310412563746027, 42.407430033558576 ], [ 117.310412585946821, 42.407434536505242 ] ], [ [ 117.310424649517032, 42.407416491812775 ], [ 117.31042458291212, 42.407402982972748 ], [ 117.310442811468192, 42.407402933611657 ], [ 117.310442878077026, 42.40741644245167 ], [ 117.310424649517032, 42.407416491812775 ] ] ] } },
{ "type": "Feature", "properties": { "crown_id": 8605, "tree_id": "8614", "top_h_m": 19.138, "H_95_Mean": 19.4162, "DBH": 28.9886, "Carbon_kg": 156.117585, "area_m2": 19.0 }, "geometry": { "type": "Polygon", "coordinates": [ [ [ 117.310601014428286, 42.40744753516006 ], [ 117.310625319186528, 42.407447469307165 ], [ 117.310625252538472, 42.407433960467472 ], [ 117.310631328726714, 42.407433944003458 ], [ 117.31063130651026, 42.407429441056877 ], [ 117.31063738269809, 42.407429424592536 ], [ 117.310637338264343, 42.407420418699409 ], [ 117.310649490638198, 42.407420385769768 ], [ 117.310649357331911, 42.40739336809029 ], [ 117.310612900225934, 42.407393466875227 ], [ 117.310612944656128, 42.407402472768439 ], [ 117.310594716100482, 42.407402522156573 ], [ 117.310594804955713, 42.407420533942975 ], [ 117.310600881142662, 42.407420517480581 ], [ 117.310600969999726, 42.407438529266905 ], [ 117.310607046188437, 42.40743851280417 ], [ 117.310607068403129, 42.407443015750751 ], [ 117.31060099221402, 42.407443032213479 ], [ 117.310601014428286, 42.40744753516006 ] ] ] } },
{ "type": "Feature", "properties": { "crown_id": 8655, "tree_id": "8664", "top_h_m": 20.642, "H_95_Mean": 19.9998, "DBH": 35.5576, "Carbon_kg": 239.796743, "area_m2": 39.75 }, "geometry": { "type": "MultiPolygon", "coordinates": [ [ [ [ 117.310576487544751, 42.407402571541802 ], [ 117.310582563730009, 42.407402555080388 ], [ 117.310582608155883, 42.407411560973593 ], [ 117.31058868434198, 42.407411544511845 ], [ 117.310588617701882, 42.407398035672024 ], [ 117.310606846256249, 42.407397986284856 ], [ 117.310606801826935, 42.407388980391644 ], [ 117.310673639849654, 42.407388799280632 ], [ 117.310673550971984, 42.407370787494266 ], [ 117.310679627154101, 42.407370771027708 ], [ 117.310679604934236, 42.407366268081113 ], [ 117.310685681115928, 42.407366251614228 ], [ 117.310685592234847, 42.407348239827819 ], [ 117.310697744594705, 42.407348206893111 ], [ 117.310697722373604, 42.407343703946495 ], [ 117.310691646194101, 42.407343720414012 ], [ 117.310691623973426, 42.407339217467388 ], [ 117.31068554779435, 42.407339233934579 ], [ 117.310685503353866, 42.407330228041339 ], [ 117.310667274819252, 42.407330277440941 ], [ 117.310667297038179, 42.407334780387579 ], [ 117.310649068502229, 42.407334829784297 ], [ 117.310649046284581, 42.407330326837659 ], [ 117.310630817749868, 42.407330376231464 ], [ 117.310630862182549, 42.407339382124754 ], [ 117.31062478600343, 42.407339398588718 ], [ 117.31062480821933, 42.407343901535356 ], [ 117.310618732039785, 42.407343917999007 ], [ 117.310618754255245, 42.407348420945645 ], [ 117.310612678075259, 42.407348437408977 ], [ 117.310612700290292, 42.407352940355615 ], [ 117.31060662410988, 42.40735295681862 ], [ 117.310606690753715, 42.407366465658527 ], [ 117.310600614571982, 42.407366482121226 ], [ 117.310600681214595, 42.407379990961104 ], [ 117.31058852884847, 42.407380023885544 ], [ 117.310588573275169, 42.407389029778791 ], [ 117.310582497091218, 42.407389046240532 ], [ 117.310582541517078, 42.407398052133772 ], [ 117.310576465332261, 42.407398068595192 ], [ 117.310576487544751, 42.407402571541802 ] ], [ [ 117.310637116095975, 42.407375389233472 ], [ 117.310637049445575, 42.407361880393609 ], [ 117.310655277989383, 42.407361830998788 ], [ 117.310655344643706, 42.407375339838616 ], [ 117.310637116095975, 42.407375389233472 ] ] ], [ [ [ 117.310576487544751, 42.407402571541802 ], [ 117.310570411359535, 42.40740258800291 ], [ 117.310570433571584, 42.407407090949526 ], [ 117.310576509757269, 42.407407074488425 ], [ 117.310576487544751, 42.407402571541802 ] ] ] ] } },
{ "type": "Feature", "properties": { "crown_id": 8684, "tree_id": "8693", "top_h_m": 18.633, "H_95_Mean": 18.6714, "DBH": 21.3664, "Carbon_kg": 82.482222, "area_m2": 6.25 }, "geometry": { "type": "Polygon", "coordinates": [ [ [ 117.310570366935394, 42.407393582109655 ], [ 117.310576443119785, 42.407393565648569 ], [ 117.310576398694806, 42.407384559755307 ], [ 117.310582474878331, 42.407384543293901 ], [ 117.310582430452527, 42.407375537400647 ], [ 117.310594582817757, 42.407375504476853 ], [ 117.310594516176479, 42.407361995636947 ], [ 117.310600592357787, 42.407361979174588 ], [ 117.31060054792944, 42.407352973281306 ], [ 117.310594471748999, 42.407352989743657 ], [ 117.31059444953523, 42.407348486797019 ], [ 117.31058837335523, 42.407348503259058 ], [ 117.31058839556853, 42.40735300620571 ], [ 117.31057624320762, 42.407353039128822 ], [ 117.310576376482359, 42.407380056808684 ], [ 117.310564224116206, 42.407380089730538 ], [ 117.310564268539423, 42.407389095623813 ], [ 117.310570344723345, 42.407389079163039 ], [ 117.310570366935394, 42.407393582109655 ] ] ] } },
{ "type": "Feature", "properties": { "crown_id": 8707, "tree_id": "8716", "top_h_m": 18.29, "H_95_Mean": 18.423, "DBH": 32.3999, "Carbon_kg": 189.384974, "area_m2": 32.25 }, "geometry": { "type": "MultiPolygon", "coordinates": [ [ [ [ 117.310509582883668, 42.407389243756271 ], [ 117.310521735251655, 42.407389210840194 ], [ 117.310521713043059, 42.407384707893549 ], [ 117.31051563685952, 42.407384724351743 ], [ 117.310515614651379, 42.407380221405091 ], [ 117.310527767017632, 42.407380188488375 ], [ 117.310527611554789, 42.407348667861712 ], [ 117.310533687734846, 42.407348651402899 ], [ 117.310533576687945, 42.407326136669468 ], [ 117.310521424332151, 42.407326169586753 ], [ 117.310521379915173, 42.407317163693349 ], [ 117.310515303738143, 42.407317180151516 ], [ 117.310515281530087, 42.407312677204793 ], [ 117.310509205353483, 42.407312693662632 ], [ 117.310509227561113, 42.407317196609341 ], [ 117.310478846675835, 42.407317278893665 ], [ 117.310478891086731, 42.407326284787111 ], [ 117.310472814908778, 42.40732630124301 ], [ 117.310472837113807, 42.407330804189741 ], [ 117.310460684757061, 42.407330837100588 ], [ 117.310460706961223, 42.407335340047304 ], [ 117.310466783140029, 42.407335323592044 ], [ 117.310466849753851, 42.40734883243217 ], [ 117.310472925933965, 42.407348815976569 ], [ 117.310472992549123, 42.40736232481666 ], [ 117.310479068730558, 42.407362308360732 ], [ 117.310479090936042, 42.407366811307426 ], [ 117.310473014754209, 42.407366827763347 ], [ 117.310473036959266, 42.407371330710035 ], [ 117.310497341688375, 42.407371264884389 ], [ 117.310497386102, 42.407380270777715 ], [ 117.310503462285141, 42.407380254320493 ], [ 117.310503484492401, 42.40738475726716 ], [ 117.310509560675968, 42.407384740809619 ], [ 117.310509582883668, 42.407389243756271 ] ] ], [ [ [ 117.310527767017632, 42.407380188488375 ], [ 117.310527789226626, 42.407384691435027 ], [ 117.310533865410179, 42.4073846749762 ], [ 117.310533843200744, 42.407380172029541 ], [ 117.310527767017632, 42.407380188488375 ] ] ] ] } },
{ "type": "Feature", "properties": { "crown_id": 8708, "tree_id": "8717", "top_h_m": 18.79, "H_95_Mean": 18.755, "DBH": 29.5242, "Carbon_kg": 158.70002, "area_m2": 21.75 }, "geometry": { "type": "MultiPolygon", "coordinates": [ [ [ [ 117.310546039987543, 42.407389145004203 ], [ 117.310558192355472, 42.407389112084267 ], [ 117.310558125721954, 42.40737560324434 ], [ 117.310570278087241, 42.40737557032314 ], [ 117.310570144815159, 42.407348552643242 ], [ 117.310582297175188, 42.40734851972077 ], [ 117.310582274962329, 42.407344016774111 ], [ 117.310600503501078, 42.407343967388002 ], [ 117.310600525715245, 42.407348470334661 ], [ 117.310606601895245, 42.407348453871968 ], [ 117.310606579680652, 42.40734395092533 ], [ 117.310612655860211, 42.407343934462325 ], [ 117.310612633645178, 42.407339431515673 ], [ 117.310618709824311, 42.407339415052355 ], [ 117.310618687608837, 42.407334912105703 ], [ 117.310582230536625, 42.407335010880786 ], [ 117.310582208323751, 42.40733050793412 ], [ 117.310570055967204, 42.40733054085657 ], [ 117.310570033755198, 42.407326037909883 ], [ 117.310539652865842, 42.407326120210335 ], [ 117.31053978612475, 42.407353137890432 ], [ 117.310533709944252, 42.407353154349579 ], [ 117.310533754363064, 42.407362160242911 ], [ 117.310539830544428, 42.407362143783757 ], [ 117.31053985275426, 42.407366646730424 ], [ 117.31053377657247, 42.407366663189578 ], [ 117.31053382099131, 42.407375669082889 ], [ 117.310539897173967, 42.407375652623735 ], [ 117.310539919383828, 42.407380155570387 ], [ 117.31054599556694, 42.407380139110906 ], [ 117.310546039987543, 42.407389145004203 ] ] ], [ [ [ 117.310618687608837, 42.407334912105703 ], [ 117.310624763787516, 42.407334895642073 ], [ 117.310624741571644, 42.407330392695421 ], [ 117.310618665393392, 42.407330409159059 ], [ 117.310618687608837, 42.407334912105703 ] ] ] ] } },
{ "type": "Feature", "properties": { "crown_id": 8789, "tree_id": "8798", "top_h_m": 20.79, "H_95_Mean": 20.2129, "DBH": 41.2694, "Carbon_kg": 325.806182, "area_m2": 69.5 }, "geometry": { "type": "Polygon", "coordinates": [ [ [ 117.31058828450206, 42.407330491472408 ], [ 117.310612589215111, 42.407330425622369 ], [ 117.310612567000106, 42.407325922675703 ], [ 117.310655100244745, 42.407325807425764 ], [ 117.310655122462805, 42.407330310372409 ], [ 117.310661198641029, 42.407330293906831 ], [ 117.310661176422542, 42.407325790960194 ], [ 117.310667252600311, 42.407325774494304 ], [ 117.310667119286848, 42.40729875681442 ], [ 117.310661043111679, 42.407298773280296 ], [ 117.310660976456305, 42.40728526444029 ], [ 117.310648824108554, 42.407285297371054 ], [ 117.310648735238289, 42.407267285584325 ], [ 117.310642659066119, 42.407267302049206 ], [ 117.310642592414766, 42.407253793209115 ], [ 117.310648668585614, 42.407253776744227 ], [ 117.310648624150545, 42.407244770850816 ], [ 117.310642547980564, 42.407244787315697 ], [ 117.31064252576347, 42.407240284368974 ], [ 117.310636449593929, 42.407240300833536 ], [ 117.31063642737729, 42.407235797886806 ], [ 117.310624275039032, 42.40723583081494 ], [ 117.310624341686406, 42.40724933965511 ], [ 117.310612189345548, 42.407249372581973 ], [ 117.310612211560482, 42.407253875528674 ], [ 117.310593983047866, 42.407253924916574 ], [ 117.310594005261493, 42.40725842786329 ], [ 117.310600081432796, 42.407258411400981 ], [ 117.310600103646891, 42.407262914347697 ], [ 117.310594027475119, 42.407262930810013 ], [ 117.310594071902401, 42.407271936703438 ], [ 117.310587995729776, 42.407271953165427 ], [ 117.310588017943005, 42.407276456112143 ], [ 117.310569789423795, 42.407276505496199 ], [ 117.310569811635716, 42.407281008442922 ], [ 117.310551583115156, 42.407281057824079 ], [ 117.31055164974704, 42.407294566664227 ], [ 117.310539497397357, 42.407294599583409 ], [ 117.310539519607119, 42.407299102530139 ], [ 117.310527367256569, 42.407299135448035 ], [ 117.310527411674357, 42.40730814134146 ], [ 117.310521335498223, 42.407308157799932 ], [ 117.310521357706691, 42.407312660746648 ], [ 117.31052743388328, 42.407312644288169 ], [ 117.310527478301125, 42.407321650181586 ], [ 117.310576087720662, 42.407321518502144 ], [ 117.310576109933066, 42.407326021448824 ], [ 117.310588262288761, 42.407325988525734 ], [ 117.31058828450206, 42.407330491472408 ] ] ] } },
{ "type": "Feature", "properties": { "crown_id": 8821, "tree_id": "8830", "top_h_m": 20.14, "H_95_Mean": 19.9648, "DBH": 35.4123, "Carbon_kg": 237.579632, "area_m2": 39.25 }, "geometry": { "type": "Polygon", "coordinates": [ [ [ 117.310442434019023, 42.407326383517706 ], [ 117.310466738730838, 42.407326317698605 ], [ 117.310466716526264, 42.407321814751874 ], [ 117.310472792703777, 42.407321798296302 ], [ 117.310472748293748, 42.407312792402841 ], [ 117.310503129176865, 42.407312710120145 ], [ 117.310503106969691, 42.407308207173415 ], [ 117.310497030793499, 42.407308223630594 ], [ 117.310497008586765, 42.407303720683878 ], [ 117.310490932411042, 42.407303737140737 ], [ 117.310490910204734, 42.407299234193992 ], [ 117.310496986380031, 42.40729921773714 ], [ 117.310496919759885, 42.407285708896929 ], [ 117.310490843585853, 42.40728572535378 ], [ 117.310490821379574, 42.407281222407036 ], [ 117.310496897553179, 42.407281205950184 ], [ 117.310496875346459, 42.407276703003447 ], [ 117.310490799173323, 42.407276719460278 ], [ 117.310490754760778, 42.407267713566775 ], [ 117.310478602416225, 42.407267746479491 ], [ 117.310478580210841, 42.407263243532718 ], [ 117.310472504038984, 42.407263259988596 ], [ 117.310472481834026, 42.407258757041816 ], [ 117.310448177148288, 42.407258822862062 ], [ 117.310448199351512, 42.407263325808856 ], [ 117.310442123179627, 42.407263342263107 ], [ 117.31044214538241, 42.40726784520988 ], [ 117.310417840693091, 42.407267911023716 ], [ 117.310417862894127, 42.407272413970496 ], [ 117.310405710548594, 42.407272446875488 ], [ 117.310405732748762, 42.407276949822283 ], [ 117.31041180892197, 42.407276933369943 ], [ 117.310411831122607, 42.40728143631673 ], [ 117.310399678775312, 42.407281469221076 ], [ 117.310399767574367, 42.407299481008195 ], [ 117.310405843749763, 42.407299464556168 ], [ 117.310405821549537, 42.407294961609402 ], [ 117.310411897724507, 42.407294945157055 ], [ 117.310411919925144, 42.407299448103814 ], [ 117.31041799610054, 42.407299431651154 ], [ 117.310418018301633, 42.40730393459792 ], [ 117.310411942125796, 42.407303951050586 ], [ 117.310411964326448, 42.407308453997345 ], [ 117.310418040502711, 42.407308437544671 ], [ 117.310418062703803, 42.407312940491437 ], [ 117.310442367410502, 42.407312874677508 ], [ 117.310442434019023, 42.407326383517706 ] ], [ [ 117.31046048491983, 42.407290310579945 ], [ 117.310460418307514, 42.40727680173967 ], [ 117.310478646827022, 42.407276752373001 ], [ 117.310478713443231, 42.407290261213262 ], [ 117.31046048491983, 42.407290310579945 ] ] ] } },
{ "type": "Feature", "properties": { "crown_id": 8867, "tree_id": "8876", "top_h_m": 18.7, "H_95_Mean": 19.1378, "DBH": 34.4766, "Carbon_kg": 219.534503, "area_m2": 38.25 }, "geometry": { "type": "MultiPolygon", "coordinates": [ [ [ [ 117.310509160938267, 42.407303687769186 ], [ 117.310509183145868, 42.407308190715902 ], [ 117.310515259322059, 42.407308174258084 ], [ 117.310515237113989, 42.407303671311354 ], [ 117.310509160938267, 42.407303687769186 ] ] ], [ [ [ 117.310509160938267, 42.407303687769186 ], [ 117.310509138730666, 42.407299184822463 ], [ 117.31050306255537, 42.407299201279962 ], [ 117.31050308476253, 42.407303704226685 ], [ 117.310509160938267, 42.407303687769186 ] ] ], [ [ [ 117.310515237113989, 42.407303671311354 ], [ 117.310521313289726, 42.407303654853223 ], [ 117.310521268872805, 42.40729464895977 ], [ 117.310533421222516, 42.40729461604252 ], [ 117.310533399013181, 42.407290113095804 ], [ 117.310545551361997, 42.407290080177269 ], [ 117.310545484731421, 42.407276571337093 ], [ 117.310563713250701, 42.407276521956902 ], [ 117.310563646616274, 42.40726301311674 ], [ 117.310581875131589, 42.407262963733665 ], [ 117.310581897344377, 42.407267466680388 ], [ 117.310587973516576, 42.407267450218718 ], [ 117.310587884663761, 42.407249438431826 ], [ 117.310606113175112, 42.407249389044907 ], [ 117.310606090960619, 42.407244886098191 ], [ 117.310618243300638, 42.407244853171989 ], [ 117.310618110008548, 42.407217835491579 ], [ 117.310605957673772, 42.407217868417753 ], [ 117.310605913244856, 42.407208862524257 ], [ 117.310593760911786, 42.407208895449131 ], [ 117.310593738698216, 42.407204392502365 ], [ 117.3105876625321, 42.407204408964326 ], [ 117.310587706958387, 42.407213414857843 ], [ 117.310581630791404, 42.407213431319491 ], [ 117.310581653004121, 42.407217934266249 ], [ 117.310575576836712, 42.407217950727564 ], [ 117.310575665685889, 42.407235962514591 ], [ 117.310569589516717, 42.407235978975592 ], [ 117.310569633940489, 42.407244984869095 ], [ 117.310563557770436, 42.407245001329784 ], [ 117.310563579981903, 42.407249504276528 ], [ 117.31055750381141, 42.40724952073689 ], [ 117.310557481600398, 42.407245017790153 ], [ 117.31053317692016, 42.407245083628403 ], [ 117.310533221338716, 42.407254089521906 ], [ 117.310514992825901, 42.407254138897223 ], [ 117.31051505944987, 42.407267647737491 ], [ 117.310502907105317, 42.407267680652772 ], [ 117.310502995933888, 42.407285692439764 ], [ 117.310509072107891, 42.407285675982266 ], [ 117.310509116523065, 42.407294681875733 ], [ 117.310515192697935, 42.407294665417908 ], [ 117.310515237113989, 42.407303671311354 ] ] ] ] } },
{ "type": "Feature", "properties": { "crown_id": 8911, "tree_id": "8920", "top_h_m": 18.305, "H_95_Mean": 18.475, "DBH": 23.1838, "Carbon_kg": 96.627293, "area_m2": 8.75 }, "geometry": { "type": "Polygon", "coordinates": [ [ [ 117.310484656382684, 42.407263227076527 ], [ 117.31049680872637, 42.407263194163178 ], [ 117.310496786519678, 42.407258691216413 ], [ 117.310502862691081, 42.407258674759262 ], [ 117.310502884898199, 42.407263177706028 ], [ 117.310508961070042, 42.407263161248537 ], [ 117.310508894447366, 42.407249652408268 ], [ 117.310527122958931, 42.407249603033911 ], [ 117.310527100750079, 42.407245100087152 ], [ 117.310521024580012, 42.407245116545589 ], [ 117.310520980163218, 42.407236110652057 ], [ 117.31051490399399, 42.40723612711016 ], [ 117.310514859578092, 42.407227121216614 ], [ 117.310502707241369, 42.407227154131846 ], [ 117.310502729448473, 42.407231657078633 ], [ 117.310496653279685, 42.407231673535776 ], [ 117.310496675486334, 42.407236176482549 ], [ 117.310490599317092, 42.407236192939372 ], [ 117.310490643729551, 42.407245198832939 ], [ 117.310484567559428, 42.40724521528945 ], [ 117.310484589765252, 42.407249718236216 ], [ 117.310478513594717, 42.4072497346924 ], [ 117.310478558005457, 42.407258740585945 ], [ 117.310484634176859, 42.407258724129761 ], [ 117.310484656382684, 42.407263227076527 ] ] ] } }
]
}
