{
"type": "FeatureCollection",
"name": "tile_9_6",
"crs": { "type": "name", "properties": { "name": "urn:ogc:def:crs:OGC:1.3:CRS84" } },
"features": [
{ "type": "Feature", "properties": { "crown_id": 3447, "tree_id": "3450", "top_h_m": 21.835, "H_95_Mean": 22.0416, "DBH": 33.7017, "Carbon_kg": 227.97716, "area_m2": 27.0 }, "geometry": { "type": "MultiPolygon", "coordinates": [ [ [ [ 117.311306146280657, 42.409962802745397 ], [ 117.311312222712573, 42.409962786244492 ], [ 117.311312200445485, 42.409958283300213 ], [ 117.31131827687696, 42.409958266798995 ], [ 117.31131823234189, 42.409949260910423 ], [ 117.311330385203078, 42.409949227907035 ], [ 117.311330362934669, 42.409944724962735 ], [ 117.311354668655284, 42.409944658952114 ], [ 117.311354557304668, 42.40992214423067 ], [ 117.311336328020758, 42.409922193739092 ], [ 117.311336305751965, 42.409917690794785 ], [ 117.311305923614171, 42.409917773302368 ], [ 117.311305901347538, 42.409913270358039 ], [ 117.311299824920397, 42.409913286858583 ], [ 117.311299735855698, 42.409895275081247 ], [ 117.311287583004884, 42.40989530808136 ], [ 117.311287560739586, 42.40989080513701 ], [ 117.311263255039634, 42.409890871133342 ], [ 117.311263366357451, 42.409913385855099 ], [ 117.311287672066101, 42.409913319858717 ], [ 117.311287761127403, 42.40993133163601 ], [ 117.311293837556306, 42.409931315136099 ], [ 117.311293971151002, 42.409958332801935 ], [ 117.311306124013981, 42.409958299801097 ], [ 117.311306146280657, 42.409962802745397 ] ] ], [ [ [ 117.311354668655284, 42.409944658952114 ], [ 117.311354690925427, 42.409949161896385 ], [ 117.311360767355978, 42.409949145392922 ], [ 117.311360745085409, 42.409944642448643 ], [ 117.311354668655284, 42.409944658952114 ] ] ], [ [ [ 117.311360767355978, 42.409949145392922 ], [ 117.311360789626548, 42.409953648337201 ], [ 117.31136686605754, 42.409953631833403 ], [ 117.311366843786544, 42.409949128889131 ], [ 117.311360767355978, 42.409949145392922 ] ] ] ] } },
{ "type": "Feature", "properties": { "crown_id": 3461, "tree_id": "3464", "top_h_m": 22.325, "H_95_Mean": 22.4732, "DBH": 24.8618, "Carbon_kg": 124.907205, "area_m2": 8.0 }, "geometry": { "type": "Polygon", "coordinates": [ [ [ 117.311227063621246, 42.409945005450439 ], [ 117.311233140051471, 42.409944988953747 ], [ 117.311233117790039, 42.409940486009404 ], [ 117.311239194219851, 42.409940469512392 ], [ 117.311239105172419, 42.409922457735036 ], [ 117.311233028744354, 42.40992247423204 ], [ 117.311233006482937, 42.409917971287697 ], [ 117.311226930055298, 42.409917987784382 ], [ 117.31122686327241, 42.409904478951297 ], [ 117.311214710419705, 42.409904511943679 ], [ 117.311214732679801, 42.409909014888051 ], [ 117.311196503399444, 42.409909064374226 ], [ 117.311196525658232, 42.40991356731859 ], [ 117.311202602085459, 42.409913550823539 ], [ 117.311202624344688, 42.409918053767896 ], [ 117.311208700772355, 42.409918037272504 ], [ 117.311208767551406, 42.409931546105575 ], [ 117.311220920409284, 42.409931513113797 ], [ 117.311220964930413, 42.409940519002483 ], [ 117.31122704136024, 42.40994050250611 ], [ 117.311227063621246, 42.409945005450439 ] ] ] } },
{ "type": "Feature", "properties": { "crown_id": 3477, "tree_id": "3480", "top_h_m": 22.35, "H_95_Mean": 22.1268, "DBH": 32.028, "Carbon_kg": 206.203333, "area_m2": 22.0 }, "geometry": { "type": "Polygon", "coordinates": [ [ [ 117.311251502918736, 42.409971957127588 ], [ 117.311269732217212, 42.40997190763261 ], [ 117.311269643160941, 42.409953895855409 ], [ 117.311287872454145, 42.409953846357553 ], [ 117.311287783392757, 42.409935834580331 ], [ 117.311281706963427, 42.409935851079922 ], [ 117.311281617903845, 42.409917839302622 ], [ 117.311257312193419, 42.409917905297739 ], [ 117.311257178614625, 42.409890887631626 ], [ 117.311238949339582, 42.409890937124523 ], [ 117.311238927077795, 42.409886434180152 ], [ 117.311226774228601, 42.409886467173813 ], [ 117.311226841011447, 42.409899976006933 ], [ 117.311232917437323, 42.409899959510255 ], [ 117.311232984221519, 42.409913468343348 ], [ 117.311239060648717, 42.409913451846336 ], [ 117.311239082910561, 42.409917954790679 ], [ 117.311245159338199, 42.409917938293354 ], [ 117.311245292911948, 42.409944955959375 ], [ 117.311239216481724, 42.409944972456721 ], [ 117.31123930552927, 42.409962984234006 ], [ 117.311251458393187, 42.409962951238981 ], [ 117.311251502918736, 42.409971957127588 ] ], [ [ 117.311251324816709, 42.40993593357306 ], [ 117.31125125802852, 42.409922424740053 ], [ 117.311269487312671, 42.409922375245159 ], [ 117.31126955410474, 42.409935884078145 ], [ 117.311251324816709, 42.40993593357306 ] ] ] } },
{ "type": "Feature", "properties": { "crown_id": 3484, "tree_id": "3487", "top_h_m": 22.151, "H_95_Mean": 22.1315, "DBH": 29.2679, "Carbon_kg": 171.975852, "area_m2": 15.5 }, "geometry": { "type": "Polygon", "coordinates": [ [ [ 117.311342382179518, 42.409917674292295 ], [ 117.311354535034582, 42.409917641286377 ], [ 117.311354512764481, 42.40991313834207 ], [ 117.311348436337383, 42.409913154845199 ], [ 117.311348369528417, 42.409899646012256 ], [ 117.311330140251016, 42.409899695519677 ], [ 117.311330117982649, 42.409895192575348 ], [ 117.311324041557285, 42.409895209077163 ], [ 117.311324019289373, 42.409890706132835 ], [ 117.311311866439482, 42.409890739135506 ], [ 117.311311844172437, 42.40988623619117 ], [ 117.311305767747911, 42.409886252692033 ], [ 117.311305723214758, 42.409877246803326 ], [ 117.311299646791085, 42.409877263303848 ], [ 117.311299535460435, 42.409854748582028 ], [ 117.311287382617422, 42.409854781582084 ], [ 117.311287404882677, 42.409859284526469 ], [ 117.311281328460751, 42.409859301026017 ], [ 117.311281372990393, 42.40986830691476 ], [ 117.311269220144752, 42.409868339912904 ], [ 117.31126930920064, 42.409886351690382 ], [ 117.311293614898858, 42.409886285692764 ], [ 117.311293637164567, 42.409890788637121 ], [ 117.311305790014515, 42.409890755636368 ], [ 117.311305879080919, 42.409908767413711 ], [ 117.311311955507634, 42.409908750912834 ], [ 117.311311977774665, 42.409913253857169 ], [ 117.31134235991027, 42.409913171347995 ], [ 117.311342382179518, 42.409917674292295 ] ] ] } },
{ "type": "Feature", "properties": { "crown_id": 3532, "tree_id": "3535", "top_h_m": 21.12, "H_95_Mean": 21.0283, "DBH": 36.0543, "Carbon_kg": 254.019452, "area_m2": 38.25 }, "geometry": { "type": "Polygon", "coordinates": [ [ [ 117.311372942488561, 42.409953615329286 ], [ 117.311391171781509, 42.409953565815016 ], [ 117.311391149508751, 42.409949062870766 ], [ 117.311385073078213, 42.409949079375835 ], [ 117.311385006261304, 42.409935570543034 ], [ 117.311403235549008, 42.40993552102686 ], [ 117.31140321327544, 42.409931018082602 ], [ 117.311421442561794, 42.409930968563536 ], [ 117.311421353462237, 42.409912956786464 ], [ 117.31143350631632, 42.409912923772161 ], [ 117.311433484040549, 42.409908420827882 ], [ 117.311445636893723, 42.409908387812301 ], [ 117.311445547787329, 42.4098903760352 ], [ 117.311433394937637, 42.40989040905076 ], [ 117.311433372661924, 42.409885906106467 ], [ 117.311427296237497, 42.409885922613761 ], [ 117.311427273962224, 42.409881419669475 ], [ 117.311421197538223, 42.409881436176434 ], [ 117.311421152988544, 42.409872430287827 ], [ 117.311390770872819, 42.40987251281782 ], [ 117.311390793145492, 42.409877015762156 ], [ 117.311384716721903, 42.409877032267183 ], [ 117.311384761266382, 42.409886038155811 ], [ 117.311366531992945, 42.409886087668994 ], [ 117.311366554263898, 42.409890590613315 ], [ 117.31135440141405, 42.409890623620505 ], [ 117.311354490494395, 42.409908635397755 ], [ 117.311366643347696, 42.409908602390558 ], [ 117.311366621076743, 42.409904099446251 ], [ 117.311372697502961, 42.409904082942163 ], [ 117.311372742045734, 42.40991308883077 ], [ 117.311378818472832, 42.409913072326354 ], [ 117.3113788630165, 42.40992207821494 ], [ 117.311366710160598, 42.409922111223459 ], [ 117.311366665618664, 42.409913105334859 ], [ 117.311360589191565, 42.40991312183862 ], [ 117.311360722814854, 42.409940139504364 ], [ 117.311366799244553, 42.409940123000581 ], [ 117.311366821515563, 42.409944625944853 ], [ 117.31137289794566, 42.40994460944075 ], [ 117.311372942488561, 42.409953615329286 ] ] ] } },
{ "type": "Feature", "properties": { "crown_id": 3546, "tree_id": "3549", "top_h_m": 20.1, "H_95_Mean": 21.1115, "DBH": 25.4004, "Carbon_kg": 125.687468, "area_m2": 9.75 }, "geometry": { "type": "Polygon", "coordinates": [ [ [ 117.311178274119044, 42.409909113857502 ], [ 117.311190426972658, 42.409909080868971 ], [ 117.311190404714296, 42.409904577924593 ], [ 117.311208633993374, 42.409904528439398 ], [ 117.311208611733718, 42.40990002549502 ], [ 117.311220764585542, 42.409899992503284 ], [ 117.311220675543495, 42.409881980725771 ], [ 117.311202446270983, 42.40988203021287 ], [ 117.311202424011782, 42.40987752726847 ], [ 117.311184194740505, 42.409877576752656 ], [ 117.311184216998413, 42.409882079697049 ], [ 117.311178140574214, 42.40988209619114 ], [ 117.311178162831652, 42.409886599135547 ], [ 117.311172086407026, 42.409886615629311 ], [ 117.311172108664067, 42.409891118573711 ], [ 117.311178185089133, 42.409891102079946 ], [ 117.311178274119044, 42.409909113857502 ] ] ] } },
{ "type": "Feature", "properties": { "crown_id": 3547, "tree_id": "3550", "top_h_m": 22.528, "H_95_Mean": 22.1374, "DBH": 37.7838, "Carbon_kg": 287.794269, "area_m2": 41.75 }, "geometry": { "type": "Polygon", "coordinates": [ [ [ 117.311336194408042, 42.409895176073199 ], [ 117.311348347258786, 42.409895143067942 ], [ 117.31134830271948, 42.409886137179299 ], [ 117.311360455568476, 42.409886104172756 ], [ 117.311360433297978, 42.409881601228427 ], [ 117.31135435687392, 42.409881617731848 ], [ 117.311354223253659, 42.409854600065813 ], [ 117.31134207041076, 42.409854633071667 ], [ 117.31134186998851, 42.409814106572334 ], [ 117.311329717153399, 42.409814139576852 ], [ 117.31132969488516, 42.40980963663246 ], [ 117.311317542050915, 42.409809669635692 ], [ 117.311317519783543, 42.409805166691278 ], [ 117.311305366950137, 42.409805199693217 ], [ 117.31130534468366, 42.40980069674881 ], [ 117.311299268267376, 42.409800713249282 ], [ 117.311299246001326, 42.409796210304869 ], [ 117.311274940337896, 42.409796276303567 ], [ 117.311274984866543, 42.409805282192416 ], [ 117.311268908449804, 42.409805298691296 ], [ 117.311268930713695, 42.409809801635717 ], [ 117.311256777879336, 42.409809834632505 ], [ 117.311256800142374, 42.409814337576925 ], [ 117.311262876559994, 42.409814321078699 ], [ 117.311263010140863, 42.409841338745153 ], [ 117.311275162981303, 42.40984130574769 ], [ 117.311275229774424, 42.409854814580861 ], [ 117.311281306195923, 42.409854798081625 ], [ 117.311281283931123, 42.409850295137247 ], [ 117.311305589615372, 42.409850229137149 ], [ 117.311305700948168, 42.409872743858976 ], [ 117.311311777371401, 42.409872727358128 ], [ 117.311311821905434, 42.40988173324682 ], [ 117.311317898329506, 42.409881716745652 ], [ 117.311317920596963, 42.409886219689994 ], [ 117.311330073446001, 42.409886186686684 ], [ 117.311330095714311, 42.409890689631006 ], [ 117.311336172139278, 42.409890673128864 ], [ 117.311336194408042, 42.409895176073199 ] ], [ [ 117.311317809259748, 42.409863704968245 ], [ 117.311317742457462, 42.40985019613516 ], [ 117.311335971720567, 42.409850146629758 ], [ 117.311336038526761, 42.409863655462836 ], [ 117.311317809259748, 42.409863704968245 ] ], [ [ 117.311275162981303, 42.40984130574769 ], [ 117.311275096188226, 42.409827796914485 ], [ 117.311293325444922, 42.40982774741591 ], [ 117.311293392241907, 42.409841256249081 ], [ 117.311275162981303, 42.40984130574769 ] ], [ [ 117.311311621502469, 42.409841206747551 ], [ 117.311311554701561, 42.409827697914402 ], [ 117.311329783958172, 42.409827648410015 ], [ 117.311329850762974, 42.409841157243143 ], [ 117.311311621502469, 42.409841206747551 ] ] ] } },
{ "type": "Feature", "properties": { "crown_id": 3591, "tree_id": "3594", "top_h_m": 22.189, "H_95_Mean": 21.8514, "DBH": 24.921, "Carbon_kg": 123.441719, "area_m2": 8.5 }, "geometry": { "type": "Polygon", "coordinates": [ [ [ 117.311366509722021, 42.40988158472468 ], [ 117.311378662570107, 42.409881551716218 ], [ 117.311378618026509, 42.409872545827568 ], [ 117.311384694449671, 42.409872529322861 ], [ 117.311384672177468, 42.409868026378533 ], [ 117.311408977868311, 42.409867960356479 ], [ 117.311408911046485, 42.409854451523515 ], [ 117.311402834625056, 42.409854468029501 ], [ 117.31140281235156, 42.409849965085172 ], [ 117.311396735930586, 42.409849981590838 ], [ 117.311396758203657, 42.409854484535167 ], [ 117.311360299675101, 42.409854583562407 ], [ 117.311360411027493, 42.409877098284099 ], [ 117.31136648745111, 42.409877081780358 ], [ 117.311366509722021, 42.40988158472468 ] ] ] } },
{ "type": "Feature", "properties": { "crown_id": 3605, "tree_id": "3608", "top_h_m": 21.925, "H_95_Mean": 22.1497, "DBH": 29.033, "Carbon_kg": 169.287587, "area_m2": 15.0 }, "geometry": { "type": "MultiPolygon", "coordinates": [ [ [ [ 117.311238659936436, 42.409832398847399 ], [ 117.311238637674691, 42.409827895902986 ], [ 117.311256866931487, 42.409827846410188 ], [ 117.311256822405397, 42.409818840521361 ], [ 117.311250745987351, 42.40981885701926 ], [ 117.311250701462157, 42.409809851130419 ], [ 117.311244625044964, 42.409809867628006 ], [ 117.311244647307134, 42.409814370572434 ], [ 117.3112385708895, 42.409814387069709 ], [ 117.311238593151231, 42.409818890014144 ], [ 117.311220363897007, 42.409818939504014 ], [ 117.311220408417867, 42.409827945392884 ], [ 117.311232561255764, 42.409827912399948 ], [ 117.311232583517068, 42.409832415344354 ], [ 117.311238659936436, 42.409832398847399 ] ] ], [ [ [ 117.311257156351502, 42.409886384687255 ], [ 117.311257134088407, 42.409881881742891 ], [ 117.311263210512536, 42.409881865244621 ], [ 117.311263121458424, 42.409863853467115 ], [ 117.311275274303185, 42.409863820469624 ], [ 117.311275252038797, 42.409859317525246 ], [ 117.311269175616857, 42.409859334024155 ], [ 117.31126910882503, 42.409845825190985 ], [ 117.311256955983708, 42.409845858187808 ], [ 117.311256933720642, 42.409841355243415 ], [ 117.311244780880187, 42.409841388238945 ], [ 117.311244892191226, 42.409863902960936 ], [ 117.311238815768803, 42.409863919458239 ], [ 117.311238838030576, 42.409868422402624 ], [ 117.311226685184877, 42.409868455396264 ], [ 117.311226707445812, 42.40987295834065 ], [ 117.311220631022508, 42.409872974836993 ], [ 117.311220653283002, 42.409877477781379 ], [ 117.311226729706746, 42.409877461285042 ], [ 117.311226751967666, 42.40988196422942 ], [ 117.311244981240108, 42.40988191473847 ], [ 117.311245003502364, 42.409886417682834 ], [ 117.311257156351502, 42.409886384687255 ] ] ] ] } },
{ "type": "Feature", "properties": { "crown_id": 3638, "tree_id": "3641", "top_h_m": 21.671, "H_95_Mean": 21.9502, "DBH": 32.5424, "Carbon_kg": 211.925897, "area_m2": 23.75 }, "geometry": { "type": "Polygon", "coordinates": [ [ [ 117.311165987725786, 42.409882129178357 ], [ 117.311172064149986, 42.409882112684905 ], [ 117.311172041892974, 42.409877609740505 ], [ 117.311178118316747, 42.409877593246733 ], [ 117.311178096059294, 42.409873090302327 ], [ 117.311208478175914, 42.409873007828701 ], [ 117.311208500435527, 42.409877510773093 ], [ 117.311214576859257, 42.409877494277403 ], [ 117.31121453233915, 42.409868488388611 ], [ 117.311220608762028, 42.409868471892594 ], [ 117.311220586501534, 42.409863968948194 ], [ 117.311232739346394, 42.409863935955215 ], [ 117.311232717085048, 42.40985943301083 ], [ 117.311238793507016, 42.409859416513839 ], [ 117.311238682198208, 42.409836901791813 ], [ 117.311226529358564, 42.40983693478541 ], [ 117.311226507097686, 42.409832431840996 ], [ 117.31120220142013, 42.409832497824326 ], [ 117.311202268197576, 42.409846006657595 ], [ 117.311184038935437, 42.409846056141738 ], [ 117.311184061193288, 42.409850559086166 ], [ 117.311147602666267, 42.409850658045748 ], [ 117.311147647176782, 42.409859663934633 ], [ 117.311141570754728, 42.409859680426763 ], [ 117.311141615264376, 42.409868686315626 ], [ 117.311165920956057, 42.409868620345115 ], [ 117.311165987725786, 42.409882129178357 ] ] ] } },
{ "type": "Feature", "properties": { "crown_id": 3639, "tree_id": "3642", "top_h_m": 21.56, "H_95_Mean": 21.7096, "DBH": 21.6701, "Carbon_kg": 92.776979, "area_m2": 5.0 }, "geometry": { "type": "Polygon", "coordinates": [ [ [ 117.311348124562628, 42.40985011362455 ], [ 117.311390659509627, 42.409849998096171 ], [ 117.311390637236983, 42.409845495151842 ], [ 117.311402790078048, 42.409845462140837 ], [ 117.31140276780458, 42.409840959196501 ], [ 117.31137238570399, 42.40984104172157 ], [ 117.311372363432682, 42.409836538777213 ], [ 117.311348057753847, 42.409836604791472 ], [ 117.311348124562628, 42.40985011362455 ] ] ] } },
{ "type": "Feature", "properties": { "crown_id": 3689, "tree_id": "3692", "top_h_m": 20.893, "H_95_Mean": 21.1818, "DBH": 21.4194, "Carbon_kg": 89.316691, "area_m2": 5.0 }, "geometry": { "type": "Polygon", "coordinates": [ [ [ 117.311378439852376, 42.409836522272848 ], [ 117.311402745531083, 42.409836456252158 ], [ 117.311402723257601, 42.409831953307815 ], [ 117.311384493999867, 42.409832002823812 ], [ 117.311384471727692, 42.409827499879448 ], [ 117.311372318890051, 42.409827532888499 ], [ 117.311372274347463, 42.409818526999764 ], [ 117.311360121511555, 42.409818560007508 ], [ 117.311360099241128, 42.409814057063137 ], [ 117.311347946406045, 42.409814090069588 ], [ 117.311348035484301, 42.409832101847101 ], [ 117.311378417580627, 42.409832019328491 ], [ 117.311378439852376, 42.409836522272848 ] ] ] } },
{ "type": "Feature", "properties": { "crown_id": 3737, "tree_id": "3740", "top_h_m": 20.74, "H_95_Mean": 21.23, "DBH": 24.2024, "Carbon_kg": 114.403814, "area_m2": 8.0 }, "geometry": { "type": "Polygon", "coordinates": [ [ [ 117.311378373037144, 42.40982301343977 ], [ 117.311384449455531, 42.409822996935091 ], [ 117.311384338094754, 42.409800482213235 ], [ 117.311378261678541, 42.4098004987179 ], [ 117.311378217135157, 42.409791492829136 ], [ 117.311353911473731, 42.409791558844574 ], [ 117.311353933743689, 42.409796061788967 ], [ 117.311335704496287, 42.409796111297169 ], [ 117.311335771302282, 42.40980962013036 ], [ 117.311366153387809, 42.409809537615047 ], [ 117.311366175658662, 42.409814040559425 ], [ 117.311378328493703, 42.409814007551034 ], [ 117.311378373037144, 42.40982301343977 ] ] ] } },
{ "type": "Feature", "properties": { "crown_id": 3782, "tree_id": "3785", "top_h_m": 20.61, "H_95_Mean": 20.6633, "DBH": 26.9427, "Carbon_kg": 139.758294, "area_m2": 12.75 }, "geometry": { "type": "Polygon", "coordinates": [ [ [ 117.311220341636584, 42.409814436559579 ], [ 117.311232494471867, 42.409814403566656 ], [ 117.311232472210591, 42.409809900622221 ], [ 117.311238548627784, 42.409809884125281 ], [ 117.311238526366068, 42.409805381180838 ], [ 117.311262832033066, 42.409805315189843 ], [ 117.311262809769616, 42.409800812245415 ], [ 117.311268886185928, 42.409800795746868 ], [ 117.311268841658162, 42.409791789857998 ], [ 117.311274918073607, 42.409791773359139 ], [ 117.311274895809291, 42.409787270414704 ], [ 117.311262742979281, 42.409787303412102 ], [ 117.311262698452438, 42.409778297523211 ], [ 117.311238392795843, 42.409778363514143 ], [ 117.311238348272482, 42.409769357625208 ], [ 117.311232271859197, 42.409769374122128 ], [ 117.311232249597964, 42.409764871177664 ], [ 117.311226173185091, 42.409764887674257 ], [ 117.311226217706718, 42.409773893563198 ], [ 117.311220141292978, 42.409773910059478 ], [ 117.311220163553358, 42.409778413003956 ], [ 117.311226239967525, 42.409778396507669 ], [ 117.311226373532534, 42.409805414174393 ], [ 117.311220297115739, 42.409805430670701 ], [ 117.311220341636584, 42.409814436559579 ] ] ] } },
{ "type": "Feature", "properties": { "crown_id": 3811, "tree_id": "3814", "top_h_m": 20.84, "H_95_Mean": 20.7436, "DBH": 29.6049, "Carbon_kg": 169.376334, "area_m2": 18.25 }, "geometry": { "type": "Polygon", "coordinates": [ [ [ 117.311202090124496, 42.409809983102114 ], [ 117.311214242958954, 42.409809950111118 ], [ 117.311214198438975, 42.409800944222226 ], [ 117.311220274855344, 42.409800927726252 ], [ 117.311220185813752, 42.409782915948426 ], [ 117.311214109399145, 42.409782932444379 ], [ 117.311214042619298, 42.40976942361096 ], [ 117.311220119032612, 42.409769407115014 ], [ 117.311220074511866, 42.409760401226052 ], [ 117.311207921687014, 42.409760434217624 ], [ 117.311207854908545, 42.409746925384148 ], [ 117.311195702086252, 42.40974695837442 ], [ 117.31119572434487, 42.409751461318919 ], [ 117.311171418698507, 42.409751527295612 ], [ 117.311171463212247, 42.409760533184631 ], [ 117.311183616037184, 42.409760500196924 ], [ 117.31118374958379, 42.40978751786384 ], [ 117.311177673168729, 42.409787534357875 ], [ 117.311177695426068, 42.409792037302353 ], [ 117.311183771841598, 42.409792020808318 ], [ 117.311183838614966, 42.409805529641723 ], [ 117.311202067865381, 42.409805480157651 ], [ 117.311202090124496, 42.409809983102114 ] ] ] } },
{ "type": "Feature", "properties": { "crown_id": 3834, "tree_id": "3837", "top_h_m": 20.957, "H_95_Mean": 21.4701, "DBH": 30.9083, "Carbon_kg": 188.54191, "area_m2": 20.25 }, "geometry": { "type": "Polygon", "coordinates": [ [ [ 117.311323596200239, 42.409805150189833 ], [ 117.311329672616935, 42.40980513368806 ], [ 117.311329605812247, 42.40979162485484 ], [ 117.311347835058356, 42.409791575347619 ], [ 117.311347812788853, 42.409787072403212 ], [ 117.311353889203787, 42.409787055900154 ], [ 117.31135373331422, 42.409755535289243 ], [ 117.311311198430914, 42.409755650803717 ], [ 117.311311109363444, 42.409737639025892 ], [ 117.311305032953271, 42.409737655526655 ], [ 117.311305077486097, 42.409746661415575 ], [ 117.311299001075056, 42.409746677916026 ], [ 117.311299045607043, 42.409755683804953 ], [ 117.311292969195108, 42.409755700305084 ], [ 117.311292991460704, 42.409760203249533 ], [ 117.311299067873065, 42.409760186749402 ], [ 117.311299112405109, 42.409769192638279 ], [ 117.311305188818338, 42.409769176137829 ], [ 117.311305322417155, 42.409796193804389 ], [ 117.311311398832984, 42.409796177303591 ], [ 117.311311421099916, 42.409800680248004 ], [ 117.311323573932441, 42.409800647245426 ], [ 117.311323596200239, 42.409805150189833 ] ] ] } }
]
}
