{
"type": "FeatureCollection",
"name": "tile_12_13",
"crs": { "type": "name", "properties": { "name": "urn:ogc:def:crs:OGC:1.3:CRS84" } },
"features": [
{ "type": "Feature", "properties": { "crown_id": 4846, "tree_id": "4850", "top_h_m": 19.796, "H_95_Mean": 20.4166, "DBH": 25.0007, "Carbon_kg": 119.346925, "area_m2": 9.75 }, "geometry": { "type": "Polygon", "coordinates": [ [ [ 117.312980443007021, 42.409395368301112 ], [ 117.312986519383216, 42.409395351711645 ], [ 117.312986496996785, 42.409390848767629 ], [ 117.313016878875445, 42.409390765815495 ], [ 117.313016901264035, 42.409395268759503 ], [ 117.313029054016326, 42.409395235576376 ], [ 117.313029031626868, 42.409390732632389 ], [ 117.313022955251142, 42.409390749224109 ], [ 117.31302288808412, 42.409377240392089 ], [ 117.313016811709687, 42.409377256983475 ], [ 117.313016699766891, 42.409354742263375 ], [ 117.313004547022402, 42.409354775445145 ], [ 117.313004569410069, 42.409359278389182 ], [ 117.312992416664699, 42.409359311569681 ], [ 117.312992528598855, 42.409381826289824 ], [ 117.312986452223967, 42.409381842879604 ], [ 117.312986474610398, 42.40938634582362 ], [ 117.312980398235069, 42.40938636241308 ], [ 117.312980443007021, 42.409395368301112 ] ] ] } },
{ "type": "Feature", "properties": { "crown_id": 4855, "tree_id": "4859", "top_h_m": 19.49, "H_95_Mean": 20.4691, "DBH": 31.5692, "Carbon_kg": 191.277124, "area_m2": 24.0 }, "geometry": { "type": "MultiPolygon", "coordinates": [ [ [ [ 117.313016654989809, 42.409345736375293 ], [ 117.313022731361173, 42.409345719783929 ], [ 117.313022865695103, 42.409372737448074 ], [ 117.313028942069067, 42.409372720856375 ], [ 117.313029009237397, 42.409386229688394 ], [ 117.313035085612668, 42.409386213096361 ], [ 117.313035152782362, 42.409399721928338 ], [ 117.313059458288606, 42.409399655556939 ], [ 117.313059435896974, 42.409395152612966 ], [ 117.31307158864918, 42.409395119425341 ], [ 117.313071566256681, 42.40939061648136 ], [ 117.313083719008006, 42.409390583292449 ], [ 117.313083674221261, 42.409381577404488 ], [ 117.313077597846487, 42.409381593999107 ], [ 117.313077553060637, 42.409372588111133 ], [ 117.313071476686716, 42.40937260470541 ], [ 117.313071387116821, 42.409354592929418 ], [ 117.313065310744634, 42.409354609523369 ], [ 117.313065265960589, 42.409345603635344 ], [ 117.313047036846598, 42.409345653415237 ], [ 117.31304701445589, 42.409341150471214 ], [ 117.313028785343135, 42.409341200248214 ], [ 117.313028762953735, 42.40933669730417 ], [ 117.313022686583224, 42.409336713895854 ], [ 117.313022708972198, 42.409341216839891 ], [ 117.313016632601276, 42.409341233431263 ], [ 117.313016654989809, 42.409345736375293 ] ] ], [ [ [ 117.313016654989809, 42.409345736375293 ], [ 117.313010578618446, 42.409345752966345 ], [ 117.313010601006539, 42.409350255910375 ], [ 117.313016677378357, 42.409350239319323 ], [ 117.313016654989809, 42.409345736375293 ] ] ] ] } },
{ "type": "Feature", "properties": { "crown_id": 4937, "tree_id": "4941", "top_h_m": 21.689, "H_95_Mean": 21.6325, "DBH": 39.4013, "Carbon_kg": 308.921119, "area_m2": 51.25 }, "geometry": { "type": "MultiPolygon", "coordinates": [ [ [ [ 117.312876987961147, 42.409364129664226 ], [ 117.312877055096862, 42.409377638496466 ], [ 117.312889207845913, 42.409377605328181 ], [ 117.312889163087021, 42.409368599440043 ], [ 117.312895239460687, 42.409368582855414 ], [ 117.312895306600311, 42.409382091687618 ], [ 117.312901382975269, 42.409382075102677 ], [ 117.312901405355589, 42.409386578046735 ], [ 117.312919634481702, 42.40938652828995 ], [ 117.312919656863343, 42.409391031234001 ], [ 117.312931809614923, 42.409390998061198 ], [ 117.312931831997417, 42.409395501005228 ], [ 117.312937908373627, 42.409395484418347 ], [ 117.31293793075659, 42.409399987362377 ], [ 117.31294400713324, 42.409399970775155 ], [ 117.312943984749865, 42.409395467831139 ], [ 117.31297436663084, 42.40939538489026 ], [ 117.31297429947422, 42.409381876058184 ], [ 117.312980375849108, 42.409381859469057 ], [ 117.312980353463146, 42.409377356525034 ], [ 117.312986429837565, 42.409377339935574 ], [ 117.312986317905626, 42.409354825215402 ], [ 117.312998470650143, 42.409354792035558 ], [ 117.312998448262903, 42.409350289091506 ], [ 117.313004524634735, 42.409350272501101 ], [ 117.313004502247068, 42.409345769557063 ], [ 117.312992349504285, 42.409345802737548 ], [ 117.312992327117485, 42.409341299793496 ], [ 117.312980174375568, 42.40934133297268 ], [ 117.312980129603716, 42.409332327084556 ], [ 117.312974053233617, 42.409332343673668 ], [ 117.312974008462675, 42.40932333778553 ], [ 117.312967932093443, 42.409323354374308 ], [ 117.312967954478481, 42.409327857318381 ], [ 117.312955801739122, 42.409327890494978 ], [ 117.312955868891677, 42.409341399327197 ], [ 117.312937639778667, 42.409341449089702 ], [ 117.312937595012912, 42.409332443201542 ], [ 117.312925442272629, 42.409332476374921 ], [ 117.312925509418676, 42.40934598520716 ], [ 117.312901203932839, 42.409346051550095 ], [ 117.31290122631313, 42.409350554494168 ], [ 117.312882997197406, 42.40935060424799 ], [ 117.312882974818436, 42.409346101303903 ], [ 117.312864745703948, 42.40934615105482 ], [ 117.312864790459315, 42.409355156943022 ], [ 117.312870866831688, 42.409355140359693 ], [ 117.312870911587922, 42.409364146247874 ], [ 117.312876987961147, 42.409364129664226 ] ], [ [ 117.312876987961147, 42.409364129664226 ], [ 117.312876965582589, 42.409359626720146 ], [ 117.312889118328158, 42.409359593551891 ], [ 117.312889140707597, 42.40936409649597 ], [ 117.312876987961147, 42.409364129664226 ] ] ], [ [ [ 117.312877055096862, 42.409377638496466 ], [ 117.31287097872233, 42.409377655080121 ], [ 117.312871001100476, 42.409382158024179 ], [ 117.312864924725488, 42.409382174607522 ], [ 117.312864947103208, 42.409386677551602 ], [ 117.312871023478635, 42.409386660968266 ], [ 117.312871045856795, 42.409391163912332 ], [ 117.312877122232621, 42.40939114732867 ], [ 117.312877099854035, 42.409386644384604 ], [ 117.31288317622942, 42.409386627800615 ], [ 117.312883153850407, 42.409382124856549 ], [ 117.312877077475449, 42.409382141440538 ], [ 117.312877055096862, 42.409377638496466 ] ] ] ] } },
{ "type": "Feature", "properties": { "crown_id": 4969, "tree_id": "4973", "top_h_m": 22.35, "H_95_Mean": 22.27, "DBH": 25.6989, "Carbon_kg": 132.813147, "area_m2": 9.25 }, "geometry": { "type": "Polygon", "coordinates": [ [ [ 117.312889051189913, 42.409346084719623 ], [ 117.31289512756139, 42.409346068135022 ], [ 117.312895105181525, 42.409341565190928 ], [ 117.312919410665657, 42.409341498849301 ], [ 117.312919343520946, 42.40932799001704 ], [ 117.312913267151217, 42.409328006602912 ], [ 117.312913200007856, 42.409314497770609 ], [ 117.312901047271012, 42.409314530941401 ], [ 117.312901024890763, 42.409310027997272 ], [ 117.312894948522782, 42.409310044582185 ], [ 117.312895015662221, 42.409323553414517 ], [ 117.312870710184967, 42.409323619750957 ], [ 117.312870754941144, 42.40933262563918 ], [ 117.312876831311357, 42.409332609055554 ], [ 117.312876876068401, 42.40934161494377 ], [ 117.312889028810488, 42.409341581775521 ], [ 117.312889051189913, 42.409346084719623 ] ] ] } },
{ "type": "Feature", "properties": { "crown_id": 4971, "tree_id": "4975", "top_h_m": 21.468, "H_95_Mean": 21.6155, "DBH": 25.5142, "Carbon_kg": 128.607135, "area_m2": 9.5 }, "geometry": { "type": "Polygon", "coordinates": [ [ [ 117.313071364724365, 42.409350089985409 ], [ 117.313077441096127, 42.409350073391131 ], [ 117.313077373917494, 42.409336564559098 ], [ 117.313083450287934, 42.409336547964521 ], [ 117.313083405501345, 42.409327542076468 ], [ 117.313089481870904, 42.409327525481572 ], [ 117.313089459477183, 42.409323022537556 ], [ 117.31307730673889, 42.409323055727022 ], [ 117.313077284346022, 42.409318552782992 ], [ 117.313071207977316, 42.409318569377248 ], [ 117.313071140800091, 42.409305060545115 ], [ 117.313065064432678, 42.409305077139038 ], [ 117.313065086824651, 42.409309580083089 ], [ 117.313059010456783, 42.409309596676685 ], [ 117.31305905523989, 42.409318602564774 ], [ 117.313052978871156, 42.409318619158064 ], [ 117.313053001262261, 42.409323122102101 ], [ 117.313046924893101, 42.409323138695072 ], [ 117.31304694728378, 42.409327641639102 ], [ 117.313034794544564, 42.409327674824084 ], [ 117.313034839324231, 42.409336680712165 ], [ 117.31305306843565, 42.409336630934213 ], [ 117.313053090826784, 42.409341133878236 ], [ 117.313071319939482, 42.409341084097385 ], [ 117.313071364724365, 42.409350089985409 ] ] ] } },
{ "type": "Feature", "properties": { "crown_id": 5001, "tree_id": "5005", "top_h_m": 21.49, "H_95_Mean": 22.0963, "DBH": 29.3667, "Carbon_kg": 172.984997, "area_m2": 15.75 }, "geometry": { "type": "Polygon", "coordinates": [ [ [ 117.312925419890647, 42.409327973430827 ], [ 117.31294972536945, 42.409327907082783 ], [ 117.312949702985705, 42.409323404138711 ], [ 117.312961855724197, 42.409323370962767 ], [ 117.312961833339614, 42.409318868018694 ], [ 117.312967909708419, 42.409318851430228 ], [ 117.31296777539832, 42.409291833765678 ], [ 117.312961699032115, 42.409291850354123 ], [ 117.312961654263006, 42.40928284446592 ], [ 117.312925196070907, 42.409282943989744 ], [ 117.312925218452861, 42.40928744693386 ], [ 117.312931294818654, 42.409287430347355 ], [ 117.312931384348246, 42.409305442123816 ], [ 117.312925307980706, 42.409305458710328 ], [ 117.312925330362688, 42.409309961654436 ], [ 117.312919253994721, 42.409309978240636 ], [ 117.312919321139375, 42.409323487072932 ], [ 117.31292539750865, 42.409323470486733 ], [ 117.312925419890647, 42.409327973430827 ] ] ] } },
{ "type": "Feature", "properties": { "crown_id": 5012, "tree_id": "5016", "top_h_m": 22.505, "H_95_Mean": 22.5548, "DBH": 34.6252, "Carbon_kg": 244.042979, "area_m2": 28.75 }, "geometry": { "type": "Polygon", "coordinates": [ [ [ 117.313083495074565, 42.409345553852539 ], [ 117.313113876931055, 42.409345470874769 ], [ 117.313113854535573, 42.409340967930767 ], [ 117.3131320836481, 42.409340918140252 ], [ 117.313132061251324, 42.40933641519625 ], [ 117.313138137621735, 42.409336398598775 ], [ 117.313138070430099, 42.409322889766777 ], [ 117.313150223168265, 42.40932285657086 ], [ 117.31315017837214, 42.409313850682864 ], [ 117.313156254740335, 42.409313834084422 ], [ 117.313156209943372, 42.409304828196412 ], [ 117.313150133576016, 42.409304844794832 ], [ 117.313150088779906, 42.409295838906807 ], [ 117.313137936046957, 42.409295872102689 ], [ 117.313137913649797, 42.409291369158666 ], [ 117.313131837283734, 42.409291385756113 ], [ 117.313131814887015, 42.409286882812083 ], [ 117.313089280327503, 42.409286998985237 ], [ 117.313089369902301, 42.409305010761429 ], [ 117.313077217167489, 42.40930504395088 ], [ 117.313077261953197, 42.409314049838954 ], [ 117.313083338321462, 42.409314033244392 ], [ 117.313083360714757, 42.409318536188422 ], [ 117.31309551345214, 42.40931850299831 ], [ 117.313095580634638, 42.409332011830365 ], [ 117.313089504264639, 42.409332028425588 ], [ 117.313089549052108, 42.409341034313613 ], [ 117.313083472681242, 42.40934105090853 ], [ 117.313083495074565, 42.409345553852539 ] ] ] } },
{ "type": "Feature", "properties": { "crown_id": 5077, "tree_id": "5081", "top_h_m": 19.0, "H_95_Mean": 19.1983, "DBH": 27.4729, "Carbon_kg": 139.17014, "area_m2": 15.75 }, "geometry": { "type": "Polygon", "coordinates": [ [ [ 117.312907101258759, 42.409310011412053 ], [ 117.312913177626754, 42.409309994826508 ], [ 117.312913155245639, 42.409305491882385 ], [ 117.312919231613179, 42.40930547529652 ], [ 117.312919209231637, 42.409300972352405 ], [ 117.312925285598737, 42.409300955766213 ], [ 117.312925240834829, 42.409291949877982 ], [ 117.312919164468596, 42.409291966464174 ], [ 117.312919119705541, 42.409282960575915 ], [ 117.312900890609427, 42.409283010332523 ], [ 117.312900823468837, 42.409269501500091 ], [ 117.312894747104735, 42.409269518084976 ], [ 117.312894724724984, 42.409265015140825 ], [ 117.312888648361337, 42.409265031725383 ], [ 117.312888625982012, 42.409260528781218 ], [ 117.312882549618777, 42.409260545365456 ], [ 117.312882527239921, 42.409256042421291 ], [ 117.312876450877113, 42.409256059005195 ], [ 117.312876383741838, 42.409242550172671 ], [ 117.312864231018835, 42.409242583339505 ], [ 117.312864253396398, 42.409247086283692 ], [ 117.31287032975834, 42.409247069700427 ], [ 117.312870396892336, 42.409260578532951 ], [ 117.312864320529087, 42.409260595116216 ], [ 117.312864410039438, 42.409278606892862 ], [ 117.312876562769389, 42.409278573725992 ], [ 117.312876607526334, 42.409287579614293 ], [ 117.312882683892155, 42.409287563030368 ], [ 117.312882728649996, 42.409296568918641 ], [ 117.312888805016684, 42.409296552334389 ], [ 117.312888849775405, 42.409305558222648 ], [ 117.312907078878084, 42.409305508467945 ], [ 117.312907101258759, 42.409310011412053 ] ] ] } },
{ "type": "Feature", "properties": { "crown_id": 5095, "tree_id": "5099", "top_h_m": 17.98, "H_95_Mean": 18.21, "DBH": 27.9223, "Carbon_kg": 139.371157, "area_m2": 18.5 }, "geometry": { "type": "Polygon", "coordinates": [ [ [ 117.313028695785562, 42.409323188472037 ], [ 117.313040848523912, 42.409323155287709 ], [ 117.313040826133673, 42.409318652343664 ], [ 117.313046902502407, 42.409318635751028 ], [ 117.313046880111727, 42.409314132806976 ], [ 117.313052956480036, 42.40931411621402 ], [ 117.313052911697824, 42.40930511032591 ], [ 117.313058988065251, 42.409305093732634 ], [ 117.313058965673719, 42.409300590788582 ], [ 117.313083271141636, 42.409300524412266 ], [ 117.313083203961853, 42.409287015580112 ], [ 117.313064974864858, 42.409287065362818 ], [ 117.313064952472914, 42.409282562418745 ], [ 117.313052799742394, 42.409282595605596 ], [ 117.313052754960268, 42.409273589717451 ], [ 117.313034525867081, 42.409273639495296 ], [ 117.313034503477326, 42.409269136551195 ], [ 117.313022350749378, 42.409269169734813 ], [ 117.313022395527156, 42.409278175622994 ], [ 117.31301631916233, 42.409278192214323 ], [ 117.313016341550778, 42.409282695158424 ], [ 117.313022417916045, 42.409282678567088 ], [ 117.313022552249549, 42.409309696231539 ], [ 117.313016475881668, 42.409309712822882 ], [ 117.313016520658678, 42.409318718711006 ], [ 117.31302867339619, 42.409318685527978 ], [ 117.313028695785562, 42.409323188472037 ] ] ] } },
{ "type": "Feature", "properties": { "crown_id": 5107, "tree_id": "5111", "top_h_m": 21.218, "H_95_Mean": 21.5909, "DBH": 33.0515, "Carbon_kg": 216.537051, "area_m2": 26.0 }, "geometry": { "type": "Polygon", "coordinates": [ [ [ 117.31299840348845, 42.409341283203418 ], [ 117.313010556230338, 42.409341250022308 ], [ 117.313010533842231, 42.409336747078257 ], [ 117.313016610212742, 42.409336730487212 ], [ 117.313016587824208, 42.40933222754316 ], [ 117.313028740564334, 42.409332194360125 ], [ 117.313028718174934, 42.409327691416074 ], [ 117.313022641805318, 42.409327708007766 ], [ 117.313022619416373, 42.409323205063707 ], [ 117.31301046667798, 42.409323238246095 ], [ 117.313010377125721, 42.409305226469833 ], [ 117.313016453493177, 42.409305209878816 ], [ 117.313016363939241, 42.409287198102511 ], [ 117.313010287573519, 42.409287214693514 ], [ 117.313010220409438, 42.409273705861239 ], [ 117.313016296773867, 42.409273689270236 ], [ 117.313016274385404, 42.409269186326135 ], [ 117.312985892565422, 42.409269269277928 ], [ 117.312985870179148, 42.409264766333813 ], [ 117.312979793815586, 42.409264782923202 ], [ 117.312979771429752, 42.409260279979087 ], [ 117.312973695066589, 42.409260296568135 ], [ 117.312973739837403, 42.409269302456387 ], [ 117.312967663473387, 42.409269319045123 ], [ 117.312967753013325, 42.409287330821577 ], [ 117.312973829379075, 42.409287314232827 ], [ 117.312973986077225, 42.40931883484145 ], [ 117.312980062446002, 42.409318818252352 ], [ 117.312980107217797, 42.409327824140497 ], [ 117.312986183587469, 42.409327807551072 ], [ 117.312986228360174, 42.409336813439197 ], [ 117.31299838110121, 42.409336780259366 ], [ 117.31299840348845, 42.409341283203418 ] ] ] } },
{ "type": "Feature", "properties": { "crown_id": 5170, "tree_id": "5174", "top_h_m": 21.298, "H_95_Mean": 21.1894, "DBH": 23.145, "Carbon_kg": 104.434929, "area_m2": 6.75 }, "geometry": { "type": "Polygon", "coordinates": [ [ [ 117.312906944594175, 42.409278490803167 ], [ 117.312925173688967, 42.409278441045608 ], [ 117.312925128925102, 42.409269435157348 ], [ 117.312919052561028, 42.409269451743512 ], [ 117.312919007798058, 42.409260445855217 ], [ 117.312912931434852, 42.409260462441068 ], [ 117.312912864291732, 42.409246953608594 ], [ 117.312894635206007, 42.409247003364165 ], [ 117.312894590446561, 42.409237997475834 ], [ 117.312882437724454, 42.409238030644595 ], [ 117.312882504861051, 42.409251539477118 ], [ 117.31288858122339, 42.409251522892895 ], [ 117.312888603602715, 42.40925602583706 ], [ 117.312894679965495, 42.409256009252509 ], [ 117.312894702345218, 42.409260512196653 ], [ 117.312900778708453, 42.409260495611782 ], [ 117.312900801088617, 42.409264998555948 ], [ 117.312906877452292, 42.409264981970743 ], [ 117.312906944594175, 42.409278490803167 ] ] ] } },
{ "type": "Feature", "properties": { "crown_id": 5212, "tree_id": "5216", "top_h_m": 21.89, "H_95_Mean": 21.5484, "DBH": 29.0205, "Carbon_kg": 166.409669, "area_m2": 15.75 }, "geometry": { "type": "Polygon", "coordinates": [ [ [ 117.312931250053907, 42.40927842445911 ], [ 117.312961631878437, 42.409278341521791 ], [ 117.312961564724816, 42.409264832689438 ], [ 117.312967641088406, 42.409264816101015 ], [ 117.312967529163629, 42.409242301380353 ], [ 117.312961452802227, 42.409242317968761 ], [ 117.312961430417701, 42.409237815024611 ], [ 117.312955354056712, 42.409237831612707 ], [ 117.312955331672654, 42.409233328668556 ], [ 117.312937102590965, 42.409233378430855 ], [ 117.312937124973729, 42.409237881375013 ], [ 117.312918895890675, 42.409237931134449 ], [ 117.312918985416573, 42.409255942911088 ], [ 117.31292506177931, 42.409255926324917 ], [ 117.312925106543176, 42.409264932213198 ], [ 117.312931182906794, 42.409264915626707 ], [ 117.312931250053907, 42.40927842445911 ] ] ] } },
{ "type": "Feature", "properties": { "crown_id": 5256, "tree_id": "5261", "top_h_m": 19.99, "H_95_Mean": 20.17, "DBH": 22.3915, "Carbon_kg": 94.887791, "area_m2": 6.5 }, "geometry": { "type": "Polygon", "coordinates": [ [ [ 117.312900689187757, 42.409242483835129 ], [ 117.312912841910673, 42.409242450664443 ], [ 117.312912797148627, 42.409233444776113 ], [ 117.312931026230387, 42.409233395017665 ], [ 117.31293100384805, 42.409228892073479 ], [ 117.312949232928474, 42.409228842312146 ], [ 117.312949210544843, 42.409224339367981 ], [ 117.312943134185147, 42.409224355955423 ], [ 117.312943044652457, 42.409206344178727 ], [ 117.312930891936531, 42.409206377352611 ], [ 117.312930936701122, 42.409215383240969 ], [ 117.312924860342292, 42.409215399827431 ], [ 117.312924882724161, 42.409219902771611 ], [ 117.312918806364877, 42.40921991935776 ], [ 117.312918828746305, 42.409224422301932 ], [ 117.312912752386595, 42.409224438887755 ], [ 117.312912774767625, 42.409228941831927 ], [ 117.31290062204728, 42.409228975002605 ], [ 117.312900689187757, 42.409242483835129 ] ] ] } },
{ "type": "Feature", "properties": { "crown_id": 5278, "tree_id": "5284", "top_h_m": 23.193, "H_95_Mean": 22.4448, "DBH": 42.1087, "Carbon_kg": 360.982315, "area_m2": 62.0 }, "geometry": { "type": "Polygon", "coordinates": [ [ [ 117.313071028838124, 42.409282545824844 ], [ 117.31311356339468, 42.409282429658468 ], [ 117.313113429022266, 42.409255411994117 ], [ 117.313125581747443, 42.409255378800857 ], [ 117.313125424973748, 42.409223858192341 ], [ 117.313088966816409, 42.409223957768134 ], [ 117.313088922029195, 42.409214951879932 ], [ 117.313082845670493, 42.409214968474778 ], [ 117.31308280088416, 42.409205962586533 ], [ 117.313070648168448, 42.409205995775238 ], [ 117.313070603383906, 42.409196989886972 ], [ 117.313064527026896, 42.409197006480824 ], [ 117.313064459851404, 42.409183497648407 ], [ 117.313058383495701, 42.409183514241924 ], [ 117.313058405887105, 42.409188017186082 ], [ 117.313046253174832, 42.409188050372173 ], [ 117.313046275565384, 42.409192553316323 ], [ 117.313040199208814, 42.409192569908889 ], [ 117.313040243989022, 42.409201575797184 ], [ 117.313028091274134, 42.409201608981363 ], [ 117.313028113663378, 42.409206111925506 ], [ 117.313022037305487, 42.40920612851712 ], [ 117.313022104471955, 42.409219637349537 ], [ 117.313028180831139, 42.409219620757931 ], [ 117.313028292777531, 42.409242135478536 ], [ 117.313016140054785, 42.409242168661486 ], [ 117.313016251996942, 42.409264683382034 ], [ 117.313040557451103, 42.409264617014827 ], [ 117.313040579841285, 42.409269119958914 ], [ 117.31305880893315, 42.409269070180102 ], [ 117.313058853716157, 42.409278076068269 ], [ 117.313071006445767, 42.409278042880771 ], [ 117.313071028838124, 42.409282545824844 ] ] ] } }
]
}
