{
"type": "FeatureCollection",
"name": "tile_18_2",
"crs": { "type": "name", "properties": { "name": "urn:ogc:def:crs:OGC:1.3:CRS84" } },
"features": [
{ "type": "Feature", "properties": { "crown_id": 7140, "tree_id": "7146", "top_h_m": 17.47, "H_95_Mean": 17.345, "DBH": 21.98, "Carbon_kg": 83.601726, "area_m2": 8.0 }, "geometry": { "type": "Polygon", "coordinates": [ [ [ 117.310392676706783, 42.408326185684061 ], [ 117.310423058079138, 42.408326103420997 ], [ 117.310423035876909, 42.408321600475041 ], [ 117.310435188424933, 42.408321567567562 ], [ 117.310435099612576, 42.408303555783725 ], [ 117.310441175884847, 42.408303539329516 ], [ 117.31044115368131, 42.408299036383546 ], [ 117.310422924865776, 42.408299085745213 ], [ 117.310422947068005, 42.408303588691176 ], [ 117.31041079452342, 42.408303621597348 ], [ 117.310410838926131, 42.408312627489288 ], [ 117.310380457560228, 42.408312709749104 ], [ 117.310380479759402, 42.408317212695081 ], [ 117.310392632306645, 42.408317179792121 ], [ 117.310392676706783, 42.408326185684061 ] ] ] } },
{ "type": "Feature", "properties": { "crown_id": 7165, "tree_id": "7171", "top_h_m": 18.652, "H_95_Mean": 19.1539, "DBH": 26.7441, "Carbon_kg": 131.648954, "area_m2": 14.25 }, "geometry": { "type": "Polygon", "coordinates": [ [ [ 117.310265141514307, 42.408340039939077 ], [ 117.310283370341963, 42.408339990602471 ], [ 117.310283281572964, 42.408321978818421 ], [ 117.310277205298831, 42.408321995264274 ], [ 117.310277183107004, 42.408317492318247 ], [ 117.310283259380725, 42.408317475872401 ], [ 117.310283192804036, 42.408303967034335 ], [ 117.310295345348848, 42.408303934141692 ], [ 117.310295323155756, 42.408299431195665 ], [ 117.31027101806788, 42.408299496979645 ], [ 117.310270995876536, 42.408294994033604 ], [ 117.310264919604975, 42.408295010478795 ], [ 117.3102648974141, 42.408290507532755 ], [ 117.310252744871846, 42.408290540422151 ], [ 117.310252722681795, 42.40828603747611 ], [ 117.310246646411116, 42.408286053920321 ], [ 117.310246602031938, 42.408277048028182 ], [ 117.310240525762111, 42.408277064472081 ], [ 117.310240570140422, 42.40828607036422 ], [ 117.310228417599006, 42.408286103251037 ], [ 117.310228461975584, 42.408295109143168 ], [ 117.310240614518747, 42.40829507625633 ], [ 117.310240636707931, 42.408299579202385 ], [ 117.310246712979918, 42.408299562758479 ], [ 117.310246757359138, 42.408308568650575 ], [ 117.31025283363202, 42.408308552206343 ], [ 117.310252900202201, 42.408322061044451 ], [ 117.310265052750495, 42.408322028154998 ], [ 117.310265141514307, 42.408340039939077 ] ] ] } },
{ "type": "Feature", "properties": { "crown_id": 7182, "tree_id": "7188", "top_h_m": 19.287, "H_95_Mean": 18.9524, "DBH": 31.6671, "Carbon_kg": 183.906936, "area_m2": 28.0 }, "geometry": { "type": "MultiPolygon", "coordinates": [ [ [ [ 117.310307608863482, 42.408326415977818 ], [ 117.310307586669495, 42.408321913031827 ], [ 117.310325815491851, 42.408321863688478 ], [ 117.310325704515506, 42.408299348958437 ], [ 117.310331780787408, 42.408299332510026 ], [ 117.310331736396051, 42.408290326617994 ], [ 117.310325660124988, 42.408290343066398 ], [ 117.310325615734513, 42.408281337174344 ], [ 117.310319539464302, 42.408281353622421 ], [ 117.310319495074708, 42.408272347730353 ], [ 117.310307342536049, 42.408272380625533 ], [ 117.310307298148203, 42.40826337473343 ], [ 117.310301221879712, 42.408263391180547 ], [ 117.310301155299314, 42.408249882342361 ], [ 117.310295079032159, 42.408249898789137 ], [ 117.310295101225179, 42.408254401735199 ], [ 117.310289024957555, 42.408254418181656 ], [ 117.31028904715015, 42.408258921127718 ], [ 117.310282970882099, 42.408258937573855 ], [ 117.310282993074281, 42.408263440519917 ], [ 117.310276916805776, 42.408263456965734 ], [ 117.310276894614034, 42.408258954019665 ], [ 117.310270818345984, 42.408258970465162 ], [ 117.310270796154668, 42.408254467519086 ], [ 117.31026471988703, 42.408254483964249 ], [ 117.310264786459655, 42.408267992802458 ], [ 117.310252633921763, 42.408268025691847 ], [ 117.310252700491787, 42.40828153453004 ], [ 117.310258776762041, 42.408281518085502 ], [ 117.310258798952489, 42.408286021031557 ], [ 117.310270951493848, 42.408285988141522 ], [ 117.310270973685192, 42.408290491087563 ], [ 117.310277049956312, 42.408290474642058 ], [ 117.310277072148097, 42.408294977588099 ], [ 117.310301377234197, 42.408294911802834 ], [ 117.310301443814751, 42.408308420640907 ], [ 117.3102892912691, 42.408308453534204 ], [ 117.310289380039777, 42.408326465318268 ], [ 117.310307608863482, 42.408326415977818 ] ] ], [ [ [ 117.310338012432354, 42.408330836683277 ], [ 117.310337968040045, 42.408321830791309 ], [ 117.310331891765955, 42.408321847240046 ], [ 117.310331936157382, 42.408330853132028 ], [ 117.310338012432354, 42.408330836683277 ] ] ] ] } },
{ "type": "Feature", "properties": { "crown_id": 7201, "tree_id": "7207", "top_h_m": 17.528, "H_95_Mean": 17.7458, "DBH": 30.4727, "Carbon_kg": 163.699574, "area_m2": 27.25 }, "geometry": { "type": "MultiPolygon", "coordinates": [ [ [ [ 117.310185972444927, 42.40830423012909 ], [ 117.310192048717397, 42.408304213688091 ], [ 117.310192026531709, 42.408299710742014 ], [ 117.310185950259665, 42.408299727183007 ], [ 117.310185972444927, 42.40830423012909 ] ] ], [ [ [ 117.310192026531709, 42.408299710742014 ], [ 117.310210255347826, 42.408299661417061 ], [ 117.310210233160831, 42.408295158470992 ], [ 117.310222385704009, 42.408295125586093 ], [ 117.310222319140436, 42.408281616747892 ], [ 117.310234471681014, 42.408281583861708 ], [ 117.31023442730357, 42.408272577969576 ], [ 117.310246579842357, 42.408272545082127 ], [ 117.310246535463207, 42.408263539189967 ], [ 117.310258688000275, 42.408263506301246 ], [ 117.310258621428972, 42.408249997463017 ], [ 117.310276850230593, 42.408249948127519 ], [ 117.310276872422307, 42.408254451073603 ], [ 117.310282948689917, 42.408254434627793 ], [ 117.310282926497763, 42.408249931681723 ], [ 117.310289002764975, 42.408249915235594 ], [ 117.310288980572366, 42.40824541228951 ], [ 117.310282904305609, 42.40824542873564 ], [ 117.310282882113455, 42.40824092578957 ], [ 117.310276805847138, 42.408240942235366 ], [ 117.310276783655425, 42.408236439289283 ], [ 117.310270707389535, 42.408236455734759 ], [ 117.310270685198276, 42.408231952788668 ], [ 117.310264608932798, 42.408231969233825 ], [ 117.310264586741965, 42.408227466287727 ], [ 117.310246357946866, 42.408227515621235 ], [ 117.310246380136377, 42.408232018567347 ], [ 117.31023422760542, 42.408232051454753 ], [ 117.310234271982736, 42.408241057346956 ], [ 117.310222119450003, 42.408241090233084 ], [ 117.310222141637809, 42.408245593179196 ], [ 117.310216065371009, 42.408245609621773 ], [ 117.310216109745767, 42.408254615513982 ], [ 117.310203957210391, 42.408254648398191 ], [ 117.310203979396903, 42.408259151344289 ], [ 117.310197903128781, 42.408259167785914 ], [ 117.310198080617624, 42.408295191354618 ], [ 117.310192004346007, 42.408295207795938 ], [ 117.310192026531709, 42.408299710742014 ] ] ] ] } },
{ "type": "Feature", "properties": { "crown_id": 7202, "tree_id": "7208", "top_h_m": 20.772, "H_95_Mean": 21.0397, "DBH": 36.8293, "Carbon_kg": 265.229641, "area_m2": 41.5 }, "geometry": { "type": "Polygon", "coordinates": [ [ [ 117.310331869570234, 42.408317344294048 ], [ 117.310337945843898, 42.40831732784531 ], [ 117.310337923647751, 42.408312824899305 ], [ 117.310374381287019, 42.408312726200094 ], [ 117.310374359088271, 42.40830822325411 ], [ 117.310404740452029, 42.408308140995928 ], [ 117.310404696050213, 42.40829913510396 ], [ 117.310416848593945, 42.408299102198448 ], [ 117.310416804190396, 42.408290096306494 ], [ 117.310410727919404, 42.408290112759403 ], [ 117.31041068351675, 42.408281106867427 ], [ 117.31040460724661, 42.408281123320009 ], [ 117.310404540643987, 42.408267614482007 ], [ 117.310398464375155, 42.408267630934262 ], [ 117.310398286771843, 42.408231607366083 ], [ 117.310386134241114, 42.408231640269577 ], [ 117.310386156440657, 42.408236143215632 ], [ 117.310380080174838, 42.408236159666899 ], [ 117.310380102373941, 42.40824066261294 ], [ 117.310374026107709, 42.408240679063894 ], [ 117.310374092703739, 42.408254187902003 ], [ 117.310349787633484, 42.40825425370263 ], [ 117.310349809830456, 42.408258756648664 ], [ 117.310337657294411, 42.408258789547062 ], [ 117.310337679490516, 42.408263292493096 ], [ 117.310331603222053, 42.408263308941805 ], [ 117.310331625417703, 42.408267811887853 ], [ 117.310325549148814, 42.40826782833625 ], [ 117.310325593539275, 42.408276834228317 ], [ 117.310331669809031, 42.408276817779921 ], [ 117.310331714200359, 42.408285823671982 ], [ 117.31033779047101, 42.408285807223251 ], [ 117.310337879255471, 42.408303819007308 ], [ 117.310331802983129, 42.408303835456046 ], [ 117.310331869570234, 42.408317344294048 ] ] ] } },
{ "type": "Feature", "properties": { "crown_id": 7348, "tree_id": "7354", "top_h_m": 19.292, "H_95_Mean": 19.1505, "DBH": 28.9924, "Carbon_kg": 154.89136, "area_m2": 19.5 }, "geometry": { "type": "Polygon", "coordinates": [ [ [ 117.31020996691727, 42.408241123117932 ], [ 117.31021604318363, 42.408241106675668 ], [ 117.310216020996265, 42.408236603729563 ], [ 117.310228173528159, 42.408236570844082 ], [ 117.310228129151682, 42.408227564951858 ], [ 117.3102402816818, 42.408227532065098 ], [ 117.310240259492716, 42.408223029118986 ], [ 117.310252412021939, 42.408222996230954 ], [ 117.310252367642036, 42.408213990338723 ], [ 117.31022198632327, 42.40821407255639 ], [ 117.310221964135522, 42.408209569610257 ], [ 117.310209811608843, 42.408209602495063 ], [ 117.310209767235051, 42.408200596602775 ], [ 117.310197614710106, 42.408200629486288 ], [ 117.310197570338076, 42.408191623593986 ], [ 117.310185417814836, 42.408191656476191 ], [ 117.310185395629702, 42.408187153530037 ], [ 117.310167166846128, 42.408187202850918 ], [ 117.310167211213795, 42.408196208743242 ], [ 117.310161134951727, 42.408196225182905 ], [ 117.310161157135127, 42.408200728129081 ], [ 117.310155080872605, 42.408200744568411 ], [ 117.310155058689645, 42.40819624162225 ], [ 117.310148982427577, 42.40819625806126 ], [ 117.310149026792644, 42.408205263953597 ], [ 117.31016725558149, 42.408205214635579 ], [ 117.310167277765345, 42.408209717581727 ], [ 117.31017335402872, 42.408209701141743 ], [ 117.310173376213001, 42.408214204087891 ], [ 117.310179452476802, 42.408214187647573 ], [ 117.310179474661552, 42.408218690593721 ], [ 117.31018555092578, 42.40821867415309 ], [ 117.310185573110942, 42.408223177099231 ], [ 117.310197725640265, 42.408223144216983 ], [ 117.310197747826308, 42.408227647163109 ], [ 117.310203824091403, 42.408227630721498 ], [ 117.310203846277886, 42.408232133667632 ], [ 117.310209922543393, 42.408232117225701 ], [ 117.31020996691727, 42.408241123117932 ] ] ] } },
{ "type": "Feature", "properties": { "crown_id": 7377, "tree_id": "7383", "top_h_m": 19.52, "H_95_Mean": 19.3716, "DBH": 23.8865, "Carbon_kg": 105.538118, "area_m2": 9.0 }, "geometry": { "type": "Polygon", "coordinates": [ [ [ 117.31022804039884, 42.408209553167374 ], [ 117.310240192925491, 42.408209520280622 ], [ 117.310240148547337, 42.40820051438839 ], [ 117.310234072284885, 42.408200530831905 ], [ 117.31023405009627, 42.408196027885772 ], [ 117.310227973834259, 42.408196044328974 ], [ 117.310227840705224, 42.408169026652082 ], [ 117.31020353566754, 42.408169092421595 ], [ 117.310203580040366, 42.408178098313911 ], [ 117.310197503780088, 42.408178114755508 ], [ 117.310197525966089, 42.408182617701669 ], [ 117.310191449705314, 42.408182634142925 ], [ 117.310191471890903, 42.408187137089094 ], [ 117.310203624413262, 42.408187104206249 ], [ 117.310203668786144, 42.408196110098544 ], [ 117.310215821310194, 42.408196077214406 ], [ 117.310215865684839, 42.408205083106687 ], [ 117.310228018210651, 42.408205050221234 ], [ 117.31022804039884, 42.408209553167374 ] ] ] } },
{ "type": "Feature", "properties": { "crown_id": 7378, "tree_id": "7384", "top_h_m": 21.673, "H_95_Mean": 21.8487, "DBH": 47.1167, "Carbon_kg": 445.588218, "area_m2": 100.75 }, "geometry": { "type": "MultiPolygon", "coordinates": [ [ [ [ 117.310276273247467, 42.408132871528359 ], [ 117.310270196991581, 42.408132887973771 ], [ 117.31027021918274, 42.408137390919947 ], [ 117.3102641429264, 42.408137407365039 ], [ 117.310264165117133, 42.408141910311208 ], [ 117.310258088860351, 42.408141926755988 ], [ 117.31025813324095, 42.408150932648311 ], [ 117.310252056983316, 42.408150949092779 ], [ 117.310252101363062, 42.408159954985095 ], [ 117.310239948846004, 42.408159987873063 ], [ 117.31023999322403, 42.408168993765379 ], [ 117.310233916964634, 42.408169010208887 ], [ 117.310234027907654, 42.408191524939625 ], [ 117.310240104169239, 42.408191508496131 ], [ 117.310240126358281, 42.408196011442257 ], [ 117.310246202620306, 42.408195994998408 ], [ 117.310246269188795, 42.40820950383678 ], [ 117.310258421715403, 42.408209470948115 ], [ 117.310258466096144, 42.408218476840347 ], [ 117.310264542360329, 42.408218460395517 ], [ 117.310264564551133, 42.408222963341622 ], [ 117.310276717080328, 42.408222930451004 ], [ 117.310276761463726, 42.408231936343192 ], [ 117.310282837729176, 42.408231919897396 ], [ 117.31028285992133, 42.408236422843487 ], [ 117.310288936187206, 42.408236406397364 ], [ 117.310288958379772, 42.408240909343426 ], [ 117.310295034646089, 42.408240892896991 ], [ 117.310295056839109, 42.408245395843068 ], [ 117.310313285639324, 42.408245346501786 ], [ 117.310313330027995, 42.408254352393911 ], [ 117.310319406295605, 42.408254335946161 ], [ 117.310319428490345, 42.408258838892216 ], [ 117.310331581026418, 42.408258805995779 ], [ 117.310331558830782, 42.408254303049723 ], [ 117.310343711365931, 42.408254270151986 ], [ 117.310343689169414, 42.408249767205938 ], [ 117.310367994237936, 42.408249701406611 ], [ 117.310367927643227, 42.408236192568474 ], [ 117.310374003909033, 42.408236176117846 ], [ 117.31037398171037, 42.408231673171805 ], [ 117.310380057975749, 42.408231656720858 ], [ 117.31038003577666, 42.408227153774803 ], [ 117.310386112041584, 42.408227137323536 ], [ 117.310386067642568, 42.40821813143144 ], [ 117.31037391511444, 42.40821816433364 ], [ 117.310373848518537, 42.408204655495446 ], [ 117.310367772255759, 42.408204671946059 ], [ 117.310367750057566, 42.408200168999983 ], [ 117.310361673795228, 42.408200185450276 ], [ 117.310361607201997, 42.408186676612026 ], [ 117.310337302157805, 42.408186742409924 ], [ 117.310337235569833, 42.408173233571603 ], [ 117.310331159310053, 42.408173250020262 ], [ 117.310331137114517, 42.408168747074157 ], [ 117.310325060855178, 42.408168763522482 ], [ 117.3103249498797, 42.408146248791844 ], [ 117.310312797365384, 42.408146281687536 ], [ 117.31031277517117, 42.408141778741381 ], [ 117.310324927684619, 42.408141745845704 ], [ 117.310324905489551, 42.408137242899564 ], [ 117.310306676720657, 42.408137292242593 ], [ 117.310306654526883, 42.408132789296445 ], [ 117.310300578271026, 42.40813280574347 ], [ 117.310300600464345, 42.408137308689618 ], [ 117.310288447951706, 42.408137341582709 ], [ 117.310288425759254, 42.408132838636554 ], [ 117.310282349503368, 42.40813285508262 ], [ 117.310282371695394, 42.408137358028775 ], [ 117.310276295439053, 42.408137374474521 ], [ 117.310276273247467, 42.408132871528359 ] ], [ [ 117.31038003577666, 42.408227153774803 ], [ 117.310373959511722, 42.40822717022575 ], [ 117.310373937313088, 42.408222667279702 ], [ 117.310380013577571, 42.408222650828762 ], [ 117.31038003577666, 42.408227153774803 ] ] ], [ [ [ 117.310276273247467, 42.408132871528359 ], [ 117.310282349503368, 42.40813285508262 ], [ 117.310282327311342, 42.408128352136458 ], [ 117.310276251055896, 42.408128368582197 ], [ 117.310276273247467, 42.408132871528359 ] ] ], [ [ [ 117.310282327311342, 42.408128352136458 ], [ 117.310288403566787, 42.408128335690385 ], [ 117.310288381374335, 42.408123832744224 ], [ 117.310282305119316, 42.408123849190282 ], [ 117.310282327311342, 42.408128352136458 ] ] ] ] } },
{ "type": "Feature", "properties": { "crown_id": 7407, "tree_id": "7413", "top_h_m": 21.159, "H_95_Mean": 21.2442, "DBH": 37.9393, "Carbon_kg": 283.203189, "area_m2": 45.75 }, "geometry": { "type": "Polygon", "coordinates": [ [ [ 117.310379969179408, 42.408213644936652 ], [ 117.31039212170667, 42.408213612033798 ], [ 117.310392077306801, 42.40820460614168 ], [ 117.310398153569551, 42.408204589689788 ], [ 117.310398175769919, 42.408209092635843 ], [ 117.310416404559447, 42.408209043278205 ], [ 117.310416382357786, 42.40820454033215 ], [ 117.310404229832301, 42.408204573237562 ], [ 117.310404207631493, 42.4082000702915 ], [ 117.310410283893816, 42.408200053838954 ], [ 117.310410261692581, 42.408195550892891 ], [ 117.310416337954436, 42.408195534440033 ], [ 117.310416271349496, 42.408182025601846 ], [ 117.310428423870604, 42.408181992695177 ], [ 117.310428335060593, 42.408163980910892 ], [ 117.310434411319406, 42.408163964457081 ], [ 117.310434366913569, 42.408154958564921 ], [ 117.310470824461106, 42.408154859835328 ], [ 117.310470780050053, 42.408145853943189 ], [ 117.310446475021863, 42.408145919764181 ], [ 117.310446452818098, 42.408141416818097 ], [ 117.310440376561459, 42.408141433272533 ], [ 117.310440332154812, 42.408132427380352 ], [ 117.310422103387509, 42.40813247674172 ], [ 117.31042212558954, 42.408136979687825 ], [ 117.310391744308419, 42.408137061950349 ], [ 117.310391722108577, 42.40813255900423 ], [ 117.310385645852776, 42.408132575455774 ], [ 117.31038562365336, 42.408128072509641 ], [ 117.310379547397986, 42.408128088960858 ], [ 117.310379525199025, 42.408123586014732 ], [ 117.310373448944077, 42.408123602465622 ], [ 117.31037349334116, 42.408132608357874 ], [ 117.310367417085331, 42.408132624808445 ], [ 117.310367394887223, 42.408128121862319 ], [ 117.310361318631848, 42.408128138312556 ], [ 117.310361340829516, 42.408132641258696 ], [ 117.310349188317858, 42.408132674158217 ], [ 117.310349210514673, 42.408137177104365 ], [ 117.310343134258403, 42.408137193553642 ], [ 117.310343178651152, 42.408146199445916 ], [ 117.310355331165439, 42.408146166547013 ], [ 117.310355353362695, 42.408150669493132 ], [ 117.310361429620258, 42.408150653043194 ], [ 117.31036147401565, 42.408159658935418 ], [ 117.31036755027408, 42.40815964248516 ], [ 117.310367572472245, 42.408164145431265 ], [ 117.310373648731101, 42.40816412898068 ], [ 117.310373715326847, 42.408177637818966 ], [ 117.310367639066698, 42.408177654269565 ], [ 117.310367727859386, 42.408195666053899 ], [ 117.310373804121269, 42.408195649603293 ], [ 117.310373826319889, 42.408200152549377 ], [ 117.310379902582241, 42.408200136098451 ], [ 117.310379969179408, 42.408213644936652 ] ], [ [ 117.310386001044037, 42.40820462259326 ], [ 117.310385978844565, 42.408200119647191 ], [ 117.310392055106874, 42.408200103195625 ], [ 117.310392077306801, 42.40820460614168 ], [ 117.310386001044037, 42.40820462259326 ] ], [ [ 117.310398131369197, 42.408200086743719 ], [ 117.31039810916883, 42.408195583797649 ], [ 117.310404185430713, 42.408195567345437 ], [ 117.310404207631493, 42.4082000702915 ], [ 117.310398131369197, 42.408200086743719 ] ] ] } },
{ "type": "Feature", "properties": { "crown_id": 7417, "tree_id": "7423", "top_h_m": 14.833, "H_95_Mean": 15.5551, "DBH": 19.9618, "Carbon_kg": 64.555672, "area_m2": 6.75 }, "geometry": { "type": "Polygon", "coordinates": [ [ [ 117.310343356222418, 42.408182223014833 ], [ 117.310361585004259, 42.408182173665928 ], [ 117.31036154060881, 42.408173167773739 ], [ 117.310367616868533, 42.40817315132346 ], [ 117.310367594670382, 42.408168648377369 ], [ 117.310361518411085, 42.408168664827642 ], [ 117.310361496213375, 42.40816416188153 ], [ 117.31035541995449, 42.408164178331475 ], [ 117.310355375559951, 42.408155172439251 ], [ 117.310349299301961, 42.408155188888863 ], [ 117.310349277105132, 42.408150685942744 ], [ 117.310337124589978, 42.408150718841007 ], [ 117.310337080198053, 42.408141712948741 ], [ 117.310331003941329, 42.408141729397393 ], [ 117.310331114918981, 42.408164244128045 ], [ 117.310337191177865, 42.408164227679372 ], [ 117.310337213373842, 42.408168730625484 ], [ 117.310343289633153, 42.408168714176512 ], [ 117.310343356222418, 42.408182223014833 ] ] ] } }
]
}
