{
"type": "FeatureCollection",
"name": "tile_5_7",
"crs": { "type": "name", "properties": { "name": "urn:ogc:def:crs:OGC:1.3:CRS84" } },
"features": [
{ "type": "Feature", "properties": { "crown_id": 1591, "tree_id": "1592", "top_h_m": 21.73, "H_95_Mean": 22.0633, "DBH": 26.7541, "Carbon_kg": 143.241258, "area_m2": 11.0 }, "geometry": { "type": "Polygon", "coordinates": [ [ [ 117.311583107000374, 42.410673525020471 ], [ 117.311595260001084, 42.410673491988554 ], [ 117.311595103985852, 42.410641971383249 ], [ 117.311589027488523, 42.410641987899346 ], [ 117.311588982913662, 42.410632982012082 ], [ 117.311564676927873, 42.410633048073258 ], [ 117.311564632356493, 42.410624042185951 ], [ 117.311558555860898, 42.410624058700435 ], [ 117.311558578146148, 42.410628561644096 ], [ 117.311546425154063, 42.410628594672097 ], [ 117.311546447438459, 42.410633097615744 ], [ 117.31154037094197, 42.410633114129276 ], [ 117.311540393225926, 42.410637617072929 ], [ 117.311552546219744, 42.41063758404556 ], [ 117.311552568504567, 42.410642086989206 ], [ 117.311558645001924, 42.410642070475035 ], [ 117.311558667287173, 42.410646573418681 ], [ 117.311564743784956, 42.410646556904183 ], [ 117.311564766070646, 42.410651059847808 ], [ 117.311570842568869, 42.410651043332997 ], [ 117.311570887141158, 42.410660049220255 ], [ 117.311576963640206, 42.410660032705096 ], [ 117.31157698592682, 42.410664535648721 ], [ 117.311583062426308, 42.410664519133249 ], [ 117.311583107000374, 42.410673525020471 ] ] ] } },
{ "type": "Feature", "properties": { "crown_id": 1612, "tree_id": "1613", "top_h_m": 19.817, "H_95_Mean": 21.6686, "DBH": 22.692, "Carbon_kg": 101.692367, "area_m2": 6.0 }, "geometry": { "type": "Polygon", "coordinates": [ [ [ 117.31142507343786, 42.410664948430849 ], [ 117.311437226437107, 42.410664915415687 ], [ 117.311437204160512, 42.410660412472019 ], [ 117.31144935715885, 42.410660379455564 ], [ 117.311449245771598, 42.41063786473714 ], [ 117.311418863286576, 42.410637947275774 ], [ 117.311418907837108, 42.410646953163187 ], [ 117.311424984334991, 42.410646936656086 ], [ 117.31142507343786, 42.410664948430849 ] ] ] } },
{ "type": "Feature", "properties": { "crown_id": 1613, "tree_id": "1614", "top_h_m": 20.909, "H_95_Mean": 20.9702, "DBH": 31.8471, "Carbon_kg": 197.490958, "area_m2": 23.75 }, "geometry": { "type": "Polygon", "coordinates": [ [ [ 117.31146155471383, 42.410669352325165 ], [ 117.311504090213887, 42.410669236752902 ], [ 117.311504045651134, 42.410660230865616 ], [ 117.311510122150267, 42.410660214354017 ], [ 117.311510077586647, 42.410651208466703 ], [ 117.311528307081375, 42.410651158929973 ], [ 117.311528262515168, 42.41064215304268 ], [ 117.311522186017811, 42.410642169555231 ], [ 117.311522163735148, 42.410637666611564 ], [ 117.311516087238203, 42.410637683123802 ], [ 117.31151606495601, 42.410633180180142 ], [ 117.311497835466469, 42.410633229714911 ], [ 117.311497813185568, 42.410628726771229 ], [ 117.31149173668949, 42.410628743282182 ], [ 117.311491781250439, 42.410637749169538 ], [ 117.311473551759519, 42.410637798700435 ], [ 117.311473484922033, 42.410624289869382 ], [ 117.311491714409016, 42.410624240338485 ], [ 117.311491692128541, 42.410619737394804 ], [ 117.31146738614764, 42.410619803435324 ], [ 117.311467408426353, 42.41062430637902 ], [ 117.311449178939313, 42.410624355906052 ], [ 117.311449156661894, 42.410619852962341 ], [ 117.311443080166626, 42.4106198694707 ], [ 117.311443057889647, 42.410615366526997 ], [ 117.311436981394806, 42.410615383035022 ], [ 117.311437003671372, 42.41061988597874 ], [ 117.311430927176104, 42.410619902486459 ], [ 117.311430949452216, 42.410624405430163 ], [ 117.311437025947924, 42.410624388922457 ], [ 117.311437070501029, 42.410633394809871 ], [ 117.311455299990712, 42.410633345284758 ], [ 117.311455433657997, 42.410660362946864 ], [ 117.311461510157159, 42.41066034643783 ], [ 117.31146155471383, 42.410669352325165 ] ] ] } },
{ "type": "Feature", "properties": { "crown_id": 1656, "tree_id": "1657", "top_h_m": 21.14, "H_95_Mean": 21.2586, "DBH": 31.1483, "Carbon_kg": 190.386201, "area_m2": 21.25 }, "geometry": { "type": "MultiPolygon", "coordinates": [ [ [ [ 117.311601269636412, 42.41065996664129 ], [ 117.311607346135446, 42.410659950124526 ], [ 117.311607323846701, 42.410655447180922 ], [ 117.311619476843873, 42.410655414146454 ], [ 117.311619454554261, 42.410650911202836 ], [ 117.3116255310524, 42.410650894685126 ], [ 117.311625508762361, 42.410646391741516 ], [ 117.311643738255484, 42.410646342186425 ], [ 117.311643715964124, 42.410641839242821 ], [ 117.311655868958638, 42.410641806204502 ], [ 117.311655824374213, 42.410632800317281 ], [ 117.311643671381418, 42.410632833355606 ], [ 117.311643604507438, 42.410619324524745 ], [ 117.311661833992687, 42.410619274966805 ], [ 117.311661811700063, 42.410614772023187 ], [ 117.311643582216121, 42.41061482158112 ], [ 117.311643559924789, 42.410610318637488 ], [ 117.311607100959378, 42.410610417744635 ], [ 117.311607078670662, 42.410605914800989 ], [ 117.311594925683011, 42.410605947834114 ], [ 117.311594970258682, 42.410614953721421 ], [ 117.311588893763982, 42.410614970237503 ], [ 117.311588916051406, 42.41061947318115 ], [ 117.311582839556266, 42.410619489696927 ], [ 117.311582884130232, 42.41062849558422 ], [ 117.311595037122245, 42.410628462552353 ], [ 117.311595081697973, 42.410637468439617 ], [ 117.311601158194833, 42.410637451923193 ], [ 117.311601269636412, 42.41065996664129 ] ] ], [ [ [ 117.311661833992687, 42.410619274966805 ], [ 117.311661856285326, 42.41062377791043 ], [ 117.311667932780821, 42.410623761390468 ], [ 117.311667910487756, 42.410619258446857 ], [ 117.311661833992687, 42.410619274966805 ] ] ] ] } },
{ "type": "Feature", "properties": { "crown_id": 1724, "tree_id": "1725", "top_h_m": 19.535, "H_95_Mean": 20.2224, "DBH": 18.3702, "Carbon_kg": 63.768547, "area_m2": 3.0 }, "geometry": { "type": "Polygon", "coordinates": [ [ [ 117.311649636419006, 42.410610302118513 ], [ 117.311661789407452, 42.410610269079569 ], [ 117.311661767114813, 42.410605766135951 ], [ 117.311655690621052, 42.41060578265558 ], [ 117.311655623744542, 42.410592273824669 ], [ 117.311643470759591, 42.410592306862938 ], [ 117.311643493050866, 42.410596809806584 ], [ 117.31163134006502, 42.410596842843567 ], [ 117.311631384645892, 42.41060584873086 ], [ 117.311649614127262, 42.410605799174881 ], [ 117.311649636419006, 42.410610302118513 ] ] ] } },
{ "type": "Feature", "properties": { "crown_id": 1740, "tree_id": "1741", "top_h_m": 22.215, "H_95_Mean": 22.5582, "DBH": 29.7753, "Carbon_kg": 180.060144, "area_m2": 16.0 }, "geometry": { "type": "MultiPolygon", "coordinates": [ [ [ [ 117.311558333008691, 42.410579029263694 ], [ 117.311558199297636, 42.410552011601482 ], [ 117.311533893343011, 42.410552077656028 ], [ 117.311533960193316, 42.410565586487181 ], [ 117.311540036683283, 42.410565569974011 ], [ 117.311540081251025, 42.410574575861432 ], [ 117.311546157741859, 42.410574559347943 ], [ 117.31154618002617, 42.410579062291646 ], [ 117.311558333008691, 42.410579029263694 ] ] ], [ [ [ 117.311576807634211, 42.41062851209967 ], [ 117.311576740774569, 42.410615003268717 ], [ 117.311582817269283, 42.410614986753266 ], [ 117.311582794982314, 42.410610483809606 ], [ 117.311588871476587, 42.410610467293843 ], [ 117.311588826901797, 42.410601461406543 ], [ 117.311576673914985, 42.410601494437728 ], [ 117.311576629341957, 42.410592488550392 ], [ 117.311570552849417, 42.410592505065502 ], [ 117.311570508277242, 42.410583499178138 ], [ 117.31156443178557, 42.41058351569292 ], [ 117.31156447635685, 42.410592521580291 ], [ 117.31155839986431, 42.410592538094754 ], [ 117.311558422149517, 42.410597041038436 ], [ 117.311540192670506, 42.410597090579905 ], [ 117.311540326374086, 42.410624108241947 ], [ 117.311552479365304, 42.410624075214599 ], [ 117.311552457080481, 42.410619572270939 ], [ 117.311570686565958, 42.410619522727487 ], [ 117.311570731138204, 42.410628528614808 ], [ 117.311576807634211, 42.41062851209967 ] ] ] ] } },
{ "type": "Feature", "properties": { "crown_id": 1764, "tree_id": "1765", "top_h_m": 21.179, "H_95_Mean": 22.325, "DBH": 23.2572, "Carbon_kg": 108.764922, "area_m2": 6.25 }, "geometry": { "type": "Polygon", "coordinates": [ [ [ 117.311521940908875, 42.41059263717478 ], [ 117.311552323371743, 42.410592554608897 ], [ 117.311552301086962, 42.410588051665208 ], [ 117.311558377579104, 42.410588035151072 ], [ 117.311558355293897, 42.410583532207369 ], [ 117.311540125818809, 42.410583581748824 ], [ 117.311540103534938, 42.410579078805135 ], [ 117.311534027043663, 42.410579095318305 ], [ 117.31153398247676, 42.410570089430898 ], [ 117.311527905986338, 42.410570105943741 ], [ 117.311527839137327, 42.410556597112581 ], [ 117.311515686159112, 42.410556630137286 ], [ 117.311515663876989, 42.410552127193554 ], [ 117.311509587388315, 42.410552143705424 ], [ 117.311509631951708, 42.41056114959288 ], [ 117.311515708441249, 42.410561133081011 ], [ 117.311515730723372, 42.410565636024728 ], [ 117.311521807213367, 42.410565619512532 ], [ 117.311521940908875, 42.41059263717478 ] ] ] } },
{ "type": "Feature", "properties": { "crown_id": 1795, "tree_id": "1796", "top_h_m": 20.56, "H_95_Mean": 22.6474, "DBH": 37.5891, "Carbon_kg": 288.675908, "area_m2": 39.25 }, "geometry": { "type": "Polygon", "coordinates": [ [ [ 117.31161315516448, 42.41060589828394 ], [ 117.311625308152102, 42.410605865248868 ], [ 117.311625241282115, 42.410592356417936 ], [ 117.311637394267095, 42.410592323381593 ], [ 117.311637371976246, 42.410587820437939 ], [ 117.3116616779444, 42.410587754361416 ], [ 117.311661655651818, 42.410583251417776 ], [ 117.31166773214342, 42.410583234897835 ], [ 117.311667709850397, 42.410578731954196 ], [ 117.311673786341544, 42.410578715433935 ], [ 117.311673764048095, 42.410574212490296 ], [ 117.31166161106664, 42.410574245530476 ], [ 117.311661499603829, 42.41055173081218 ], [ 117.311655423115283, 42.410551747331773 ], [ 117.311655400823156, 42.410547244388098 ], [ 117.311637171358754, 42.410547293944944 ], [ 117.311637149067934, 42.410542791001255 ], [ 117.311606766629339, 42.410542873589542 ], [ 117.311606788917985, 42.410547376533231 ], [ 117.311594635941631, 42.410547409566291 ], [ 117.311594658229396, 42.410551912510002 ], [ 117.31157642876353, 42.410551962057191 ], [ 117.311576361904145, 42.41053845322606 ], [ 117.311558132442144, 42.410538502770336 ], [ 117.311558177012458, 42.410547508657764 ], [ 117.311564253500677, 42.410547492143337 ], [ 117.311564409499937, 42.410579012749238 ], [ 117.311576562482415, 42.410578979719354 ], [ 117.311576607055429, 42.410587985606725 ], [ 117.311582683547542, 42.410587969091289 ], [ 117.311582728121437, 42.410596974978631 ], [ 117.311594881107354, 42.410596941946793 ], [ 117.311594903395189, 42.410601444890467 ], [ 117.311613132875351, 42.410601395340287 ], [ 117.31161315516448, 42.41060589828394 ] ], [ [ 117.311606922649872, 42.410574394195343 ], [ 117.311606855783907, 42.410560885364319 ], [ 117.311619008762833, 42.410560852329937 ], [ 117.31161898647332, 42.410556349386248 ], [ 117.311637215940365, 42.410556299832294 ], [ 117.311637282812853, 42.410569808663318 ], [ 117.311625129832223, 42.410569841699633 ], [ 117.31162515212219, 42.410574344643287 ], [ 117.311606922649872, 42.410574394195343 ] ] ] } },
{ "type": "Feature", "properties": { "crown_id": 1834, "tree_id": "1835", "top_h_m": 20.776, "H_95_Mean": 21.8165, "DBH": 40.2383, "Carbon_kg": 323.908811, "area_m2": 54.75 }, "geometry": { "type": "Polygon", "coordinates": [ [ [ 117.311522141452485, 42.41063316366791 ], [ 117.311534294445494, 42.410633130642474 ], [ 117.311534116177512, 42.410597107093075 ], [ 117.311515886698459, 42.410597156630686 ], [ 117.311515753005523, 42.41057013896846 ], [ 117.311509676515087, 42.410570155480322 ], [ 117.311509654233404, 42.410565652536597 ], [ 117.311503577743395, 42.410565669048147 ], [ 117.311503444055887, 42.410538651385743 ], [ 117.311497367568506, 42.410538667896944 ], [ 117.311497345287705, 42.410534164953191 ], [ 117.311479115826828, 42.410534214484898 ], [ 117.31147909354732, 42.41052971154113 ], [ 117.311473017060777, 42.410529728051053 ], [ 117.311473039339845, 42.410534230994813 ], [ 117.311460886365893, 42.410534264013684 ], [ 117.311460953200466, 42.410547772844978 ], [ 117.311448800223872, 42.410547805862585 ], [ 117.311448889333249, 42.410565817637611 ], [ 117.311436736353173, 42.410565850653953 ], [ 117.311436803182659, 42.410579359485197 ], [ 117.311418573708565, 42.410579409007312 ], [ 117.311418529158189, 42.410570403119799 ], [ 117.311406376177175, 42.410570436132929 ], [ 117.311406398451481, 42.410574939076675 ], [ 117.311400321960548, 42.41057495558276 ], [ 117.311400366508337, 42.410583961470273 ], [ 117.311412519491967, 42.41058392845779 ], [ 117.311412541766714, 42.410588431401543 ], [ 117.311436847735663, 42.410588365372675 ], [ 117.311436870012173, 42.410592868316407 ], [ 117.31144294650484, 42.410592851808396 ], [ 117.311442924227876, 42.410588348864657 ], [ 117.311449000720089, 42.410588332356319 ], [ 117.311449067552275, 42.410601841187486 ], [ 117.31144299105874, 42.410601857695845 ], [ 117.311443035612683, 42.410610863583273 ], [ 117.311449112107056, 42.410610847074921 ], [ 117.311449134384475, 42.410615350018631 ], [ 117.311455210879288, 42.410615333509952 ], [ 117.311455233157133, 42.410619836453655 ], [ 117.311461309652401, 42.41061981994465 ], [ 117.311461287374115, 42.410615317000961 ], [ 117.31149774634288, 42.410615217940169 ], [ 117.311497790904667, 42.410624223827547 ], [ 117.311503867400305, 42.410624207316282 ], [ 117.311503889681646, 42.410628710259971 ], [ 117.311522119169851, 42.410628660724242 ], [ 117.311522141452485, 42.41063316366791 ] ], [ [ 117.311491580726312, 42.410597222676323 ], [ 117.31149155844588, 42.410592719732605 ], [ 117.311473328968034, 42.410592769263438 ], [ 117.31147326213069, 42.410579260432264 ], [ 117.311491491604627, 42.410579210901453 ], [ 117.311491513885045, 42.410583713845178 ], [ 117.311509743360247, 42.410583664311467 ], [ 117.311509810205436, 42.41059717314257 ], [ 117.311491580726312, 42.410597222676323 ] ] ] } },
{ "type": "Feature", "properties": { "crown_id": 1884, "tree_id": "1885", "top_h_m": 19.349, "H_95_Mean": 19.426, "DBH": 23.5688, "Carbon_kg": 102.89861, "area_m2": 8.5 }, "geometry": { "type": "Polygon", "coordinates": [ [ [ 117.311521740365663, 42.410552110681373 ], [ 117.311527816854337, 42.410552094168864 ], [ 117.311527794571347, 42.410547591225132 ], [ 117.311552100524239, 42.410547525171879 ], [ 117.31155205595482, 42.410538519284437 ], [ 117.311545979467468, 42.410538535798231 ], [ 117.311545957183185, 42.410534032854493 ], [ 117.311539880696259, 42.410534049367953 ], [ 117.311539836128603, 42.410525043480483 ], [ 117.311533759642543, 42.410525059993624 ], [ 117.311533737359142, 42.410520557049878 ], [ 117.311515507902257, 42.41052060658734 ], [ 117.31151555246646, 42.410529612474839 ], [ 117.311503399493432, 42.410529645498222 ], [ 117.311503421774646, 42.410534148441982 ], [ 117.311509498261614, 42.410534131930454 ], [ 117.311509565106618, 42.410547640761671 ], [ 117.311521718083114, 42.410547607737627 ], [ 117.311521740365663, 42.410552110681373 ] ] ] } },
{ "type": "Feature", "properties": { "crown_id": 1934, "tree_id": "1935", "top_h_m": 21.353, "H_95_Mean": 21.007, "DBH": 25.3408, "Carbon_kg": 124.727172, "area_m2": 9.75 }, "geometry": { "type": "Polygon", "coordinates": [ [ [ 117.311552033670097, 42.410534016340705 ], [ 117.311576339617702, 42.410533950282343 ], [ 117.311576317331273, 42.410529447338618 ], [ 117.311582393817702, 42.410529430823225 ], [ 117.311582371530847, 42.4105249278795 ], [ 117.311576295044816, 42.410524944394894 ], [ 117.311576183612715, 42.410502429676214 ], [ 117.311551877677275, 42.410502495734519 ], [ 117.311551899961941, 42.410506998678265 ], [ 117.311539746993333, 42.410507031705485 ], [ 117.311539769277132, 42.410511534649245 ], [ 117.311527616307643, 42.410511567675179 ], [ 117.31152763859059, 42.410516070618932 ], [ 117.311539791560961, 42.410516037592984 ], [ 117.311539813844774, 42.410520540536744 ], [ 117.311545890330393, 42.410520524023291 ], [ 117.311545934898916, 42.410529529910768 ], [ 117.311552011385402, 42.410529513396973 ], [ 117.311552033670097, 42.410534016340705 ] ] ] } },
{ "type": "Feature", "properties": { "crown_id": 1947, "tree_id": "1948", "top_h_m": 20.37, "H_95_Mean": 21.8116, "DBH": 30.3165, "Carbon_kg": 183.037164, "area_m2": 18.25 }, "geometry": { "type": "Polygon", "coordinates": [ [ [ 117.311582482965264, 42.41054744259808 ], [ 117.31158855945344, 42.410547426082353 ], [ 117.311588537166116, 42.410542923138642 ], [ 117.311600690141617, 42.410542890106228 ], [ 117.311600667853398, 42.410538387162525 ], [ 117.311637126777157, 42.410538288057566 ], [ 117.311637104486351, 42.41053378511387 ], [ 117.311649257460004, 42.410533752076304 ], [ 117.311649190585058, 42.41052024324523 ], [ 117.31164311409951, 42.410520259764169 ], [ 117.311643047225914, 42.410506750933052 ], [ 117.311636970741688, 42.41050676745165 ], [ 117.311636948450911, 42.41050226450794 ], [ 117.311624795483326, 42.41050229754417 ], [ 117.311624817773222, 42.410506800487894 ], [ 117.311618741288967, 42.410506817005533 ], [ 117.311618718999512, 42.410502314061802 ], [ 117.311612642515698, 42.410502330579106 ], [ 117.311612620226683, 42.410497827635382 ], [ 117.311606543743295, 42.410497844152367 ], [ 117.311606566031884, 42.410502347096106 ], [ 117.311582260096557, 42.410502413160835 ], [ 117.311582349243963, 42.410520424935775 ], [ 117.311588425729553, 42.410520408420069 ], [ 117.311588492591483, 42.410533917251222 ], [ 117.311582416104585, 42.410533933766942 ], [ 117.311582482965264, 42.41054744259808 ] ], [ [ 117.311594502215129, 42.410520391904029 ], [ 117.311594435351935, 42.410506883072841 ], [ 117.311612664804727, 42.410506833522838 ], [ 117.311612731671815, 42.41052034235399 ], [ 117.311594502215129, 42.410520391904029 ] ] ] } },
{ "type": "Feature", "properties": { "crown_id": 2008, "tree_id": "2009", "top_h_m": 22.568, "H_95_Mean": 22.0812, "DBH": 35.2393, "Carbon_kg": 249.691335, "area_m2": 32.0 }, "geometry": { "type": "MultiPolygon", "coordinates": [ [ [ [ 117.311466940574235, 42.410529744560641 ], [ 117.311466918295622, 42.410525241616874 ], [ 117.31147907126784, 42.410525208597363 ], [ 117.311478893032145, 42.410489185047112 ], [ 117.311472816549497, 42.410489201557006 ], [ 117.311472771991504, 42.410480195669393 ], [ 117.31146669550975, 42.41048021217896 ], [ 117.311466673231195, 42.410475709235151 ], [ 117.311460596749839, 42.410475725744398 ], [ 117.311460574471738, 42.410471222800581 ], [ 117.311454497990823, 42.410471239309508 ], [ 117.311454520268498, 42.410475742253318 ], [ 117.311448443787171, 42.410475758761919 ], [ 117.311448466064419, 42.410480261705729 ], [ 117.311436313100856, 42.410480294721978 ], [ 117.311436335377238, 42.410484797665802 ], [ 117.311430258895001, 42.410484814173437 ], [ 117.311430281170971, 42.410489317117261 ], [ 117.31139382227488, 42.410489416156345 ], [ 117.311393955915122, 42.410516433819268 ], [ 117.311400032400428, 42.410516417313538 ], [ 117.311400054674237, 42.410520920257355 ], [ 117.311412207645702, 42.410520887244928 ], [ 117.311412229920407, 42.410525390188738 ], [ 117.31145476532339, 42.410525274635098 ], [ 117.311454787601136, 42.410529777578873 ], [ 117.311466940574235, 42.410529744560641 ] ], [ [ 117.311418239581172, 42.410511864850641 ], [ 117.311424316066038, 42.410511848343624 ], [ 117.311424338341567, 42.410516351287427 ], [ 117.311418261856304, 42.410516367794436 ], [ 117.311418239581172, 42.410511864850641 ] ] ], [ [ [ 117.311497323006904, 42.410529662009438 ], [ 117.311497300726117, 42.410525159065685 ], [ 117.311485147753942, 42.410525192087121 ], [ 117.311485170033848, 42.410529695030881 ], [ 117.311497323006904, 42.410529662009438 ] ] ] ] } },
{ "type": "Feature", "properties": { "crown_id": 2044, "tree_id": "2045", "top_h_m": 20.57, "H_95_Mean": 21.9838, "DBH": 34.0546, "Carbon_kg": 232.45286, "area_m2": 28.25 }, "geometry": { "type": "Polygon", "coordinates": [ [ [ 117.311503377212205, 42.410525142554484 ], [ 117.311509453698278, 42.410525126042941 ], [ 117.311509409134999, 42.410516120155435 ], [ 117.311521562105398, 42.41051608713142 ], [ 117.311521517540385, 42.410507081243892 ], [ 117.311533670509007, 42.410507048218612 ], [ 117.311533648225648, 42.410502545274859 ], [ 117.311545801193418, 42.410502512248279 ], [ 117.311545778909178, 42.410498009304511 ], [ 117.311551855392608, 42.410497992790759 ], [ 117.311551788538623, 42.410484483959465 ], [ 117.311539635574348, 42.410484516986656 ], [ 117.311539546439249, 42.410466505211531 ], [ 117.311521316998039, 42.410466554749881 ], [ 117.311521294715575, 42.410462051806078 ], [ 117.311509141755607, 42.41046208483003 ], [ 117.311509164037204, 42.410466587773833 ], [ 117.311466628674083, 42.410466703347524 ], [ 117.311466650952624, 42.410471206291341 ], [ 117.311472727433511, 42.410471189781781 ], [ 117.311472749712507, 42.410475692725591 ], [ 117.311478826193834, 42.410475676215697 ], [ 117.311478870752694, 42.410484682103309 ], [ 117.311484947234874, 42.410484665593096 ], [ 117.311485125474022, 42.410520689143361 ], [ 117.311503354930991, 42.410520639610716 ], [ 117.311503377212205, 42.410525142554484 ] ] ] } },
{ "type": "Feature", "properties": { "crown_id": 2045, "tree_id": "2046", "top_h_m": 21.232, "H_95_Mean": 21.63, "DBH": 21.6325, "Carbon_kg": 92.252168, "area_m2": 5.0 }, "geometry": { "type": "Polygon", "coordinates": [ [ [ 117.311557931876038, 42.410497976276659 ], [ 117.311600467259922, 42.410497860669025 ], [ 117.311600444971759, 42.410493357725301 ], [ 117.311612597937653, 42.410493324691643 ], [ 117.311612575648667, 42.410488821747904 ], [ 117.311600422683625, 42.410488854781548 ], [ 117.311600400395491, 42.410484351837802 ], [ 117.311588247431303, 42.410484384870159 ], [ 117.311588225144035, 42.410479881926399 ], [ 117.311576072180713, 42.410479914957442 ], [ 117.311576116753486, 42.410488920844969 ], [ 117.311570040270936, 42.410488937360014 ], [ 117.31157006255691, 42.41049344030376 ], [ 117.311557909590931, 42.410493473332913 ], [ 117.311557931876038, 42.410497976276659 ] ] ] } },
{ "type": "Feature", "properties": { "crown_id": 2056, "tree_id": "2057", "top_h_m": 19.79, "H_95_Mean": 21.8101, "DBH": 21.1359, "Carbon_kg": 88.466398, "area_m2": 4.5 }, "geometry": { "type": "Polygon", "coordinates": [ [ [ 117.311624773193444, 42.410497794600438 ], [ 117.311636926160162, 42.410497761564201 ], [ 117.31163685928793, 42.410484252733028 ], [ 117.311630782805864, 42.410484269251299 ], [ 117.311630738225276, 42.410475263363821 ], [ 117.311618585262892, 42.410475296399383 ], [ 117.311618562973464, 42.410470793455623 ], [ 117.311606410011919, 42.410470826489885 ], [ 117.311606476877586, 42.410484335321151 ], [ 117.311618629841718, 42.410484302286861 ], [ 117.3116186744206, 42.410493308174345 ], [ 117.311624750903562, 42.410493291656707 ], [ 117.311624773193444, 42.410497794600438 ] ] ] } }
]
}
