{
"type": "FeatureCollection",
"name": "tile_1_17",
"crs": { "type": "name", "properties": { "name": "urn:ogc:def:crs:OGC:1.3:CRS84" } },
"features": [
{ "type": "Feature", "properties": { "crown_id": 70, "tree_id": "71", "top_h_m": 17.87, "H_95_Mean": 18.4583, "DBH": 31.0523, "Carbon_kg": 174.04103, "area_m2": 27.25 }, "geometry": { "type": "MultiPolygon", "coordinates": [ [ [ [ 117.313877696642564, 42.411419267105373 ], [ 117.313932385781442, 42.411419117354846 ], [ 117.31393236332579, 42.411414614412834 ], [ 117.31393843989629, 42.411414597772279 ], [ 117.313938417440198, 42.411410094830259 ], [ 117.3139444940103, 42.411410078189384 ], [ 117.313944516466819, 42.411414581131396 ], [ 117.313950593037347, 42.411414564490201 ], [ 117.313950525666485, 42.411401055664172 ], [ 117.313956602235692, 42.411401039022657 ], [ 117.313956557320935, 42.411392033138625 ], [ 117.313950480752595, 42.41139204978014 ], [ 117.313950435838706, 42.41138304389608 ], [ 117.313926129568813, 42.411383110458878 ], [ 117.313926107113602, 42.411378607516831 ], [ 117.313913953979494, 42.411378640796293 ], [ 117.313913931525192, 42.411374137854246 ], [ 117.313907854958558, 42.411374154493487 ], [ 117.313907877412433, 42.411378657435542 ], [ 117.313883571144075, 42.411378723989301 ], [ 117.313883616048372, 42.411387729873411 ], [ 117.313871462912445, 42.411387763148383 ], [ 117.313871485363734, 42.411392266090438 ], [ 117.313865408795309, 42.411392282727427 ], [ 117.313865453697034, 42.41140128861155 ], [ 117.313871530266326, 42.41140127197454 ], [ 117.313871575168903, 42.411410277858629 ], [ 117.313877651739048, 42.411410261221299 ], [ 117.313877696642564, 42.411419267105373 ] ] ], [ [ [ 117.313944516466819, 42.411414581131396 ], [ 117.31393843989629, 42.411414597772279 ], [ 117.313938462352411, 42.411419100714291 ], [ 117.313944538923337, 42.411419084073408 ], [ 117.313944516466819, 42.411414581131396 ] ] ] ] } },
{ "type": "Feature", "properties": { "crown_id": 101, "tree_id": "102", "top_h_m": 19.095, "H_95_Mean": 19.5459, "DBH": 32.3553, "Carbon_kg": 195.585893, "area_m2": 28.75 }, "geometry": { "type": "Polygon", "coordinates": [ [ [ 117.314059993770542, 42.411418767835492 ], [ 117.314078223483079, 42.411418717892559 ], [ 117.314078178550886, 42.411409712008648 ], [ 117.314102484830741, 42.411409645413585 ], [ 117.314102439895109, 42.411400639529695 ], [ 117.314108516464188, 42.41140062288013 ], [ 117.314108471527703, 42.411391616996227 ], [ 117.314120624664113, 42.411391583696137 ], [ 117.314120579725895, 42.411382577812233 ], [ 117.314114503158578, 42.411382594462431 ], [ 117.314114480689909, 42.411378091520476 ], [ 117.314108404123004, 42.411378108170354 ], [ 117.31410838165479, 42.411373605228377 ], [ 117.314102305088312, 42.411373621877942 ], [ 117.314102260152751, 42.411364615993989 ], [ 117.314096183587154, 42.411364632643206 ], [ 117.314096161119821, 42.411360129701229 ], [ 117.314077931424265, 42.411360179646955 ], [ 117.314077886492242, 42.411351173762966 ], [ 117.31407180992791, 42.41135119041089 ], [ 117.314071787462339, 42.411346687468892 ], [ 117.314065710898419, 42.411346704116482 ], [ 117.314065778293894, 42.411360212942498 ], [ 117.314059701728681, 42.411360229589782 ], [ 117.314059724193399, 42.411364732531787 ], [ 117.314047571062105, 42.411364765825404 ], [ 117.314047615989864, 42.411373771709393 ], [ 117.314053692556371, 42.411373755062748 ], [ 117.314053715020677, 42.411378258004738 ], [ 117.314047638453715, 42.411378274651391 ], [ 117.314047660917609, 42.411382777593374 ], [ 117.314053737484983, 42.411382760946715 ], [ 117.314053759949289, 42.411387263888706 ], [ 117.314047683381489, 42.411387280535365 ], [ 117.31404775077317, 42.411400789361295 ], [ 117.314053827342292, 42.411400772714629 ], [ 117.314053894735324, 42.41141428154053 ], [ 117.314059971305753, 42.411414264893537 ], [ 117.314059993770542, 42.411418767835492 ] ] ] } },
{ "type": "Feature", "properties": { "crown_id": 150, "tree_id": "151", "top_h_m": 18.11, "H_95_Mean": 17.8368, "DBH": 32.522, "Carbon_kg": 187.211214, "area_m2": 34.75 }, "geometry": { "type": "MultiPolygon", "coordinates": [ [ [ [ 117.313859309776475, 42.411387796422055 ], [ 117.31386538634446, 42.411387779785372 ], [ 117.313865341442792, 42.411378773901248 ], [ 117.313859264875674, 42.411378790537917 ], [ 117.313859309776475, 42.411387796422055 ] ] ], [ [ [ 117.313865341442792, 42.411378773901248 ], [ 117.313871418009896, 42.411378757264245 ], [ 117.31387144046117, 42.411383260206314 ], [ 117.3138775170287, 42.411383243568999 ], [ 117.313877472125299, 42.411374237684868 ], [ 117.313901778391894, 42.411374171132408 ], [ 117.313901755938474, 42.411369668190346 ], [ 117.313919985637057, 42.411369618272623 ], [ 117.313920008091799, 42.411374121214678 ], [ 117.31393216122504, 42.411374087934576 ], [ 117.313932183680677, 42.411378590876623 ], [ 117.313944336814771, 42.411378557595228 ], [ 117.313944246988854, 42.411360545827065 ], [ 117.313932093858227, 42.411360579108425 ], [ 117.313932026491457, 42.411347070282247 ], [ 117.313925949927466, 42.41134708692244 ], [ 117.313925927472312, 42.411342583980364 ], [ 117.313919850908732, 42.411342600620237 ], [ 117.313919828454019, 42.411338097678161 ], [ 117.313913751890865, 42.411338114317701 ], [ 117.313913706982348, 42.411329108433542 ], [ 117.313907630420061, 42.411329125072761 ], [ 117.313907607966243, 42.411324622130664 ], [ 117.313877225156901, 42.411324705321917 ], [ 117.313877202705243, 42.411320202379798 ], [ 117.313871126143795, 42.411320219017078 ], [ 117.313871148594998, 42.411324721959183 ], [ 117.313865072033124, 42.411324738596143 ], [ 117.313865094483887, 42.411329241538262 ], [ 117.313859017921558, 42.411329258174902 ], [ 117.313859040371923, 42.411333761117014 ], [ 117.313852963809154, 42.411333777753335 ], [ 117.313853053608852, 42.411351789521746 ], [ 117.313846977044335, 42.411351806157761 ], [ 117.31384702194336, 42.411360812041949 ], [ 117.31385309850873, 42.411360795405933 ], [ 117.313853143408636, 42.411369801290107 ], [ 117.313859219974901, 42.411369784653751 ], [ 117.313859242425281, 42.411374287595841 ], [ 117.313865318991944, 42.411374270959179 ], [ 117.313865341442792, 42.411378773901248 ] ] ] ] } },
{ "type": "Feature", "properties": { "crown_id": 217, "tree_id": "218", "top_h_m": 16.975, "H_95_Mean": 16.9662, "DBH": 31.75, "Carbon_kg": 173.160723, "area_m2": 34.75 }, "geometry": { "type": "Polygon", "coordinates": [ [ [ 117.313950390924873, 42.411374038012021 ], [ 117.313956467491494, 42.411374021370513 ], [ 117.313956445034123, 42.411369518428486 ], [ 117.313968598166454, 42.411369485144533 ], [ 117.31396857570823, 42.411364982202493 ], [ 117.313974652273956, 42.41136496556004 ], [ 117.313974674732577, 42.411369468502059 ], [ 117.313980751298743, 42.411369451859272 ], [ 117.313980728839638, 42.411364948917246 ], [ 117.313986805405364, 42.411364932274147 ], [ 117.313986760486344, 42.41135592639008 ], [ 117.313992837051174, 42.411355909746661 ], [ 117.313992814591231, 42.411351406804627 ], [ 117.313998891155634, 42.411351390160895 ], [ 117.313998868695265, 42.411346887218855 ], [ 117.314004945259214, 42.411346870574796 ], [ 117.314004900337608, 42.411337864690715 ], [ 117.314010976900718, 42.411337848046344 ], [ 117.314010954439482, 42.411333345104303 ], [ 117.31400487787684, 42.411333361748675 ], [ 117.314004788033756, 42.411315349980462 ], [ 117.313962252107302, 42.411315466481994 ], [ 117.313962229649576, 42.411310963539911 ], [ 117.313950076528542, 42.411310996823147 ], [ 117.313950054071725, 42.411306493881064 ], [ 117.313943977511627, 42.411306510522209 ], [ 117.313943955055223, 42.411302007580105 ], [ 117.313931801935894, 42.411302040861408 ], [ 117.313931824391432, 42.411306543803512 ], [ 117.313925747831334, 42.411306560443684 ], [ 117.31392577028646, 42.411311063385781 ], [ 117.313919693725907, 42.411311080025627 ], [ 117.313919716180564, 42.411315582967724 ], [ 117.313925792741557, 42.411315566327879 ], [ 117.313925860106892, 42.411329075154143 ], [ 117.313919783544634, 42.411329091794002 ], [ 117.313919805999333, 42.411333594736078 ], [ 117.313925882562046, 42.411333578096219 ], [ 117.313925905017172, 42.411338081038295 ], [ 117.313931981580325, 42.411338064398095 ], [ 117.313932004035905, 42.411342567340178 ], [ 117.313938080599456, 42.411342550699665 ], [ 117.313938147967519, 42.411356059525843 ], [ 117.313950301097265, 42.411356026243837 ], [ 117.313950390924873, 42.411374038012021 ] ] ] } },
{ "type": "Feature", "properties": { "crown_id": 319, "tree_id": "320", "top_h_m": 18.111, "H_95_Mean": 18.2469, "DBH": 33.1785, "Carbon_kg": 197.544203, "area_m2": 36.0 }, "geometry": { "type": "MultiPolygon", "coordinates": [ [ [ [ 117.313937631480258, 42.411252491857617 ], [ 117.313937721303958, 42.411270503626135 ], [ 117.313931644747313, 42.411270520266612 ], [ 117.313931667202823, 42.411275023208745 ], [ 117.313925590645752, 42.411275039848888 ], [ 117.31392563555589, 42.411284045733119 ], [ 117.313931712113828, 42.411284029092975 ], [ 117.31393177948037, 42.41129753791931 ], [ 117.313950009158035, 42.411297487996876 ], [ 117.313950031614866, 42.411301990938973 ], [ 117.313956108174537, 42.411301974297508 ], [ 117.313956130631794, 42.411306477239606 ], [ 117.313968283751933, 42.411306443955716 ], [ 117.313968306210086, 42.411310946897807 ], [ 117.313998689012536, 42.411310863682445 ], [ 117.313998666552195, 42.411306360740362 ], [ 117.313992589992168, 42.411306377384086 ], [ 117.313992567532296, 42.411301874442017 ], [ 117.313998644091882, 42.411301857798293 ], [ 117.313998621631583, 42.411297354856224 ], [ 117.314004698190743, 42.411297338212194 ], [ 117.314004653269279, 42.411288332328041 ], [ 117.314010729827572, 42.411288315683684 ], [ 117.314010617521802, 42.411265800973261 ], [ 117.314004540965698, 42.41126581761759 ], [ 117.314004496044276, 42.411256811733402 ], [ 117.313998419489039, 42.411256828377397 ], [ 117.313998397028783, 42.411252325435285 ], [ 117.313986243919118, 42.411252358722322 ], [ 117.313986221459729, 42.411247855780211 ], [ 117.313980144905329, 42.411247872423246 ], [ 117.313980167364264, 42.411252375365365 ], [ 117.313949784590008, 42.411252458575724 ], [ 117.313949762133234, 42.411247955633584 ], [ 117.313943685578792, 42.411247972274694 ], [ 117.31394370803514, 42.411252475216834 ], [ 117.313937631480258, 42.411252491857617 ] ] ], [ [ [ 117.313937631480258, 42.411252491857617 ], [ 117.313937609024364, 42.41124798891547 ], [ 117.313931532469923, 42.411248005555933 ], [ 117.313931554925404, 42.41125250849808 ], [ 117.313937631480258, 42.411252491857617 ] ] ] ] } },
{ "type": "Feature", "properties": { "crown_id": 469, "tree_id": "470", "top_h_m": 18.897, "H_95_Mean": 18.9216, "DBH": 33.9387, "Carbon_kg": 211.261419, "area_m2": 36.75 }, "geometry": { "type": "Polygon", "coordinates": [ [ [ 117.313967991796503, 42.41124790570835 ], [ 117.31397406835093, 42.411247889065962 ], [ 117.313974045892422, 42.411243386123836 ], [ 117.313992275554313, 42.411243336194737 ], [ 117.313992298014114, 42.411247839136848 ], [ 117.313998374568513, 42.411247822493173 ], [ 117.313998352108285, 42.411243319551055 ], [ 117.314010505216189, 42.411243286262746 ], [ 117.314010460293957, 42.411234280378494 ], [ 117.314022613400098, 42.411234247088899 ], [ 117.314022590938137, 42.41122974414678 ], [ 117.314034744043397, 42.411229710855899 ], [ 117.314034699117727, 42.411220704971669 ], [ 117.314028622565971, 42.411220721617262 ], [ 117.314028577641196, 42.411211715733003 ], [ 117.314022501090321, 42.411211732378277 ], [ 117.314022433704494, 42.411198223551864 ], [ 117.314016357154898, 42.411198240196804 ], [ 117.314016267308943, 42.411180228428179 ], [ 117.314010190761081, 42.411180245072778 ], [ 117.314010145839021, 42.411171239188448 ], [ 117.31399191619802, 42.411171289120325 ], [ 117.31399193865775, 42.411175792062508 ], [ 117.31397978556285, 42.411175825348813 ], [ 117.313979808021713, 42.411180328290989 ], [ 117.313973731473823, 42.411180344933669 ], [ 117.313973798849148, 42.411193853760189 ], [ 117.313961645750766, 42.411193887044597 ], [ 117.31396166820835, 42.411198389986758 ], [ 117.313955591658683, 42.411198406628479 ], [ 117.313955636572999, 42.411207412512809 ], [ 117.313961713123504, 42.411207395871095 ], [ 117.313961780496328, 42.411220904697565 ], [ 117.313955703944501, 42.4112209213393 ], [ 117.31395579377326, 42.411238933107903 ], [ 117.313967946880354, 42.411238899824092 ], [ 117.313967991796503, 42.41124790570835 ] ] ] } },
{ "type": "Feature", "properties": { "crown_id": 489, "tree_id": "490", "top_h_m": 18.59, "H_95_Mean": 18.8765, "DBH": 27.2524, "Carbon_kg": 135.565839, "area_m2": 15.75 }, "geometry": { "type": "Polygon", "coordinates": [ [ [ 117.313931442648084, 42.41122999378733 ], [ 117.31394967230618, 42.411229943865017 ], [ 117.313949604935956, 42.41121643503854 ], [ 117.313955681487343, 42.411216418397139 ], [ 117.313955659030157, 42.411211915454977 ], [ 117.313949582479225, 42.411211932096386 ], [ 117.313949492652341, 42.411193920327698 ], [ 117.313955569201553, 42.411193903686303 ], [ 117.313955546744396, 42.411189400744128 ], [ 117.313937317098052, 42.411189450667344 ], [ 117.313937272186394, 42.411180444782943 ], [ 117.313919042542594, 42.411180494703231 ], [ 117.313919020088079, 42.411175991761034 ], [ 117.313912943540586, 42.411176008400481 ], [ 117.313912988448749, 42.411185014284889 ], [ 117.313906911900375, 42.411185030924031 ], [ 117.313906956807699, 42.411194036808439 ], [ 117.313913033356954, 42.411194020169305 ], [ 117.313913168081655, 42.411221037822393 ], [ 117.31391924463351, 42.411221021182925 ], [ 117.313919267088082, 42.411225524125101 ], [ 117.313931420192645, 42.411225490845176 ], [ 117.313931442648084, 42.41122999378733 ] ] ] } },
{ "type": "Feature", "properties": { "crown_id": 509, "tree_id": "510", "top_h_m": 21.542, "H_95_Mean": 21.3481, "DBH": 40.4685, "Carbon_kg": 323.475275, "area_m2": 58.25 }, "geometry": { "type": "Polygon", "coordinates": [ [ [ 117.313889131303313, 42.411275139683049 ], [ 117.313907360974568, 42.411275089767415 ], [ 117.313907338520792, 42.411270586825282 ], [ 117.313919491634067, 42.411270553546586 ], [ 117.313919469179453, 42.411266050604461 ], [ 117.313931622291832, 42.411266017324486 ], [ 117.313931599836351, 42.411261514382353 ], [ 117.313925523280588, 42.411261531022504 ], [ 117.313925433460426, 42.411243519253929 ], [ 117.313943663122473, 42.411243469332561 ], [ 117.313943640666125, 42.411238966390421 ], [ 117.313949717219714, 42.411238949749311 ], [ 117.313949694762925, 42.411234446807164 ], [ 117.313925388550373, 42.411234513369628 ], [ 117.313925366095361, 42.411230010427452 ], [ 117.313913212989917, 42.411230043706738 ], [ 117.313913190535786, 42.411225540764583 ], [ 117.313907113983504, 42.411225557403732 ], [ 117.313906979261361, 42.411198539750629 ], [ 117.31390090271168, 42.411198556389458 ], [ 117.313900812898765, 42.411180544620635 ], [ 117.313906889446699, 42.41118052798182 ], [ 117.313906866993051, 42.411176025039609 ], [ 117.313894713898023, 42.411176058316904 ], [ 117.313894691445242, 42.411171555374686 ], [ 117.313882538351052, 42.411171588650689 ], [ 117.313882515899166, 42.411167085708456 ], [ 117.313870362805815, 42.411167118983151 ], [ 117.313870340354782, 42.411162616040919 ], [ 117.313864263808554, 42.411162632677787 ], [ 117.313864241357962, 42.411158129735554 ], [ 117.313858164812146, 42.411158146372095 ], [ 117.313858097461733, 42.411144637545334 ], [ 117.31385202091721, 42.411144654181548 ], [ 117.313852110716041, 42.41116266595057 ], [ 117.313846034169785, 42.411162682586451 ], [ 117.313846079068355, 42.411171688470944 ], [ 117.313840002521232, 42.411171705106533 ], [ 117.313840047418964, 42.411180710990998 ], [ 117.313833970870959, 42.411180727626274 ], [ 117.31383406066476, 42.411198739395211 ], [ 117.313827984115008, 42.41119875603016 ], [ 117.313828006563043, 42.411203258972385 ], [ 117.313840159663386, 42.411203225702145 ], [ 117.313840182112301, 42.411207728644378 ], [ 117.313852335213511, 42.411207695372845 ], [ 117.313852380113076, 42.411216701257253 ], [ 117.313858456664548, 42.411216684620996 ], [ 117.313858479114757, 42.4112211875632 ], [ 117.313864555666655, 42.411221170926623 ], [ 117.313864690370679, 42.411248188579727 ], [ 117.313870766925177, 42.411248171942802 ], [ 117.31387078937631, 42.41125267488497 ], [ 117.313876865931235, 42.41125265824774 ], [ 117.313876933285954, 42.411266167074224 ], [ 117.313889086398405, 42.411266133798748 ], [ 117.313889131303313, 42.411275139683049 ] ] ] } },
{ "type": "Feature", "properties": { "crown_id": 510, "tree_id": "511", "top_h_m": 16.46, "H_95_Mean": 16.7646, "DBH": 28.6196, "Carbon_kg": 139.482673, "area_m2": 23.75 }, "geometry": { "type": "Polygon", "coordinates": [ [ [ 117.314040820596006, 42.411229694209986 ], [ 117.314046897148629, 42.411229677563732 ], [ 117.314046874684934, 42.41122517462162 ], [ 117.314065104341424, 42.411225124680954 ], [ 117.314065081876407, 42.411220621738849 ], [ 117.31405900532468, 42.411220638386062 ], [ 117.314058982860118, 42.411216135443951 ], [ 117.314077212513993, 42.411216085501358 ], [ 117.314077145116414, 42.411202576675038 ], [ 117.314083221666408, 42.411202560026865 ], [ 117.314083176733845, 42.411193554142635 ], [ 117.314089253282958, 42.41119353749415 ], [ 117.314089230816222, 42.411189034552038 ], [ 117.314083154267578, 42.411189051200509 ], [ 117.314083109335044, 42.411180045316243 ], [ 117.314077032787239, 42.411180061964401 ], [ 117.314077010321427, 42.411175559022254 ], [ 117.314064857226683, 42.411175592317591 ], [ 117.314064834761737, 42.411171089375451 ], [ 117.314016222385987, 42.41117122254385 ], [ 117.31401624484748, 42.411175725486018 ], [ 117.314022321394901, 42.411175708841085 ], [ 117.314022343856792, 42.41118021178324 ], [ 117.314028420404654, 42.411180195137995 ], [ 117.314028442866999, 42.411184698080156 ], [ 117.31402236631871, 42.411184714725408 ], [ 117.314022411242547, 42.41119372060971 ], [ 117.314028487791703, 42.411193703964457 ], [ 117.314028555178822, 42.411207212790877 ], [ 117.314034631729257, 42.411207196145291 ], [ 117.314034676654899, 42.41121620202955 ], [ 117.314040753206214, 42.411216185383623 ], [ 117.314040820596006, 42.411229694209986 ] ] ] } }
]
}
