{
"type": "FeatureCollection",
"name": "tile_15_8",
"crs": { "type": "name", "properties": { "name": "urn:ogc:def:crs:OGC:1.3:CRS84" } },
"features": [
{ "type": "Feature", "properties": { "crown_id": 6110, "tree_id": "6116", "top_h_m": 16.663, "H_95_Mean": 16.8182, "DBH": 32.0191, "Carbon_kg": 175.2211, "area_m2": 36.5 }, "geometry": { "type": "Polygon", "coordinates": [ [ [ 117.311653051093401, 42.408845114905915 ], [ 117.311677356388728, 42.40884504882824 ], [ 117.311677334096373, 42.40884054588323 ], [ 117.311683410419761, 42.408840529363012 ], [ 117.31168338812698, 42.408836026418008 ], [ 117.31169554077286, 42.408835993376599 ], [ 117.311695518479212, 42.408831490431588 ], [ 117.311689442156705, 42.408831506952453 ], [ 117.311689397570291, 42.408822501062417 ], [ 117.31169547389193, 42.40882248454156 ], [ 117.311695451598297, 42.408817981596542 ], [ 117.311701527919496, 42.408817965075379 ], [ 117.311701461037345, 42.408804456240297 ], [ 117.311695384717439, 42.408804472761467 ], [ 117.311695317836637, 42.40879096392635 ], [ 117.311689241518039, 42.408790980447186 ], [ 117.311689196931724, 42.408781974557087 ], [ 117.311683120613978, 42.408781991077596 ], [ 117.311683076028558, 42.40877298518749 ], [ 117.311676999711707, 42.408773001707665 ], [ 117.311676977419438, 42.408768498762605 ], [ 117.311670901102985, 42.408768515282453 ], [ 117.311670923394843, 42.408773018227521 ], [ 117.311664847077964, 42.408773034747064 ], [ 117.311664824786547, 42.408768531801989 ], [ 117.311652672153642, 42.408768564840081 ], [ 117.31165264986312, 42.408764061895013 ], [ 117.311646573547108, 42.408764078413583 ], [ 117.311646595837203, 42.408768581358665 ], [ 117.311640519520736, 42.408768597876914 ], [ 117.311640541810391, 42.408773100821989 ], [ 117.311634465493498, 42.408773117339919 ], [ 117.311634487782726, 42.408777620285001 ], [ 117.311628411465392, 42.408777636802604 ], [ 117.311628456042996, 42.408786642692768 ], [ 117.311622379724781, 42.408786659210051 ], [ 117.311622424301547, 42.408795665100207 ], [ 117.311646729577845, 42.408795599029084 ], [ 117.311646796448272, 42.408809107864244 ], [ 117.311652872768633, 42.40880909134566 ], [ 117.311652895059197, 42.408813594290706 ], [ 117.31164681873841, 42.40881361080929 ], [ 117.311646841028548, 42.408818113754343 ], [ 117.311640764707306, 42.408818130272614 ], [ 117.311640786997032, 42.408822633217653 ], [ 117.311634710675349, 42.408822649735619 ], [ 117.311634732964635, 42.408827152680658 ], [ 117.311628656642512, 42.40882716919829 ], [ 117.311628701220229, 42.408836175088375 ], [ 117.311646930189198, 42.408836125534485 ], [ 117.311646952479364, 42.408840628479503 ], [ 117.31165302880278, 42.408840611960883 ], [ 117.311653051093401, 42.408845114905915 ] ], [ [ 117.311640564100074, 42.408777603767071 ], [ 117.311640541810391, 42.408773100821989 ], [ 117.311646618127298, 42.408773084303732 ], [ 117.311646640417408, 42.408777587248821 ], [ 117.311640564100074, 42.408777603767071 ] ] ] } },
{ "type": "Feature", "properties": { "crown_id": 6340, "tree_id": "6346", "top_h_m": 16.495, "H_95_Mean": 16.4554, "DBH": 30.0585, "Carbon_kg": 152.291596, "area_m2": 29.75 }, "geometry": { "type": "MultiPolygon", "coordinates": [ [ [ [ 117.311682853101743, 42.408727955736673 ], [ 117.311688929414245, 42.408727939216199 ], [ 117.311688974000461, 42.408736945106391 ], [ 117.311695050313816, 42.408736928585583 ], [ 117.311695028020296, 42.408732425640494 ], [ 117.311701104333224, 42.408732409119366 ], [ 117.311701082039264, 42.408727906174278 ], [ 117.311707158351766, 42.40872788965283 ], [ 117.311707180646181, 42.408732392597926 ], [ 117.311725409584938, 42.408732343031652 ], [ 117.31172543188066, 42.408736845976719 ], [ 117.311731508194001, 42.408736829453986 ], [ 117.311731485897852, 42.408732326508911 ], [ 117.311749714836566, 42.408732276938771 ], [ 117.311749670241696, 42.408723271048636 ], [ 117.311737517617615, 42.408723304095702 ], [ 117.311737406134881, 42.408700789370279 ], [ 117.311719177205248, 42.408700838938429 ], [ 117.311719132614812, 42.408691833048216 ], [ 117.31170090368775, 42.408691882613446 ], [ 117.311700859099915, 42.408682876723205 ], [ 117.311682630175426, 42.408682926285522 ], [ 117.311682585590233, 42.408673920395259 ], [ 117.311676509282933, 42.408673936915363 ], [ 117.311676486990777, 42.408669433970232 ], [ 117.311670410683902, 42.408669450490024 ], [ 117.311670432975617, 42.408673953435169 ], [ 117.311658280360987, 42.408673986473815 ], [ 117.311658369524451, 42.408691998254383 ], [ 117.311664445833514, 42.408691981735224 ], [ 117.311664557290115, 42.408714496460853 ], [ 117.311670633601366, 42.408714479941352 ], [ 117.311670655893138, 42.408718982886462 ], [ 117.311682808516423, 42.408718949846481 ], [ 117.311682853101743, 42.408727955736673 ] ], [ [ 117.311701082039264, 42.408727906174278 ], [ 117.311695005726776, 42.408727922695398 ], [ 117.311694983433242, 42.408723419750309 ], [ 117.311701059745303, 42.408723403229189 ], [ 117.311701082039264, 42.408727906174278 ] ], [ [ 117.311737517617615, 42.408723304095702 ], [ 117.311737539914205, 42.408727807040776 ], [ 117.311725387289229, 42.40872784008657 ], [ 117.311725364993535, 42.408723337141488 ], [ 117.311737517617615, 42.408723304095702 ] ] ], [ [ [ 117.311682853101743, 42.408727955736673 ], [ 117.311670700476711, 42.408727988776668 ], [ 117.311670722768469, 42.408732491721786 ], [ 117.311682875394411, 42.408732458681783 ], [ 117.311682853101743, 42.408727955736673 ] ] ], [ [ [ 117.311707180646181, 42.408732392597926 ], [ 117.311701104333224, 42.408732409119366 ], [ 117.311701126627213, 42.408736912064455 ], [ 117.311707202940568, 42.408736895543001 ], [ 117.311707180646181, 42.408732392597926 ] ] ] ] } },
{ "type": "Feature", "properties": { "crown_id": 6368, "tree_id": "6374", "top_h_m": 18.606, "H_95_Mean": 18.5458, "DBH": 32.503, "Carbon_kg": 191.351971, "area_m2": 32.25 }, "geometry": { "type": "Polygon", "coordinates": [ [ [ 117.311780051801762, 42.408723188425327 ], [ 117.311792204425743, 42.408723155373742 ], [ 117.311792159824819, 42.408714149483629 ], [ 117.311798236135928, 42.408714132957371 ], [ 117.311798258436824, 42.408718635902417 ], [ 117.311804334748388, 42.408718619375833 ], [ 117.311804312447052, 42.408714116430779 ], [ 117.311816465069271, 42.408714083376623 ], [ 117.311816442767068, 42.408709580431577 ], [ 117.311810366456399, 42.408709596958801 ], [ 117.311810277249364, 42.408691585178545 ], [ 117.311804200940443, 42.408691601705449 ], [ 117.311804134036549, 42.408678092870211 ], [ 117.311779828805982, 42.408678158974553 ], [ 117.311779784206863, 42.408669153084354 ], [ 117.311773707900073, 42.408669169609631 ], [ 117.311773663301878, 42.408660163719411 ], [ 117.311761510690005, 42.408660196768977 ], [ 117.311761488391795, 42.408655693823867 ], [ 117.311755412086299, 42.408655710348171 ], [ 117.311755367490733, 42.408646704457915 ], [ 117.311743214881432, 42.408646737505542 ], [ 117.311743326366056, 42.408669252231171 ], [ 117.311731173752406, 42.40866928527754 ], [ 117.311731218344548, 42.408678291167767 ], [ 117.311737294652261, 42.408678274644743 ], [ 117.311737383838349, 42.408696286425176 ], [ 117.311743460147767, 42.408696269901817 ], [ 117.311743549335688, 42.40871428168218 ], [ 117.311755701957978, 42.408714248634482 ], [ 117.31175572425586, 42.408718751579542 ], [ 117.311773953190581, 42.408718702005572 ], [ 117.311773930891434, 42.408714199060505 ], [ 117.311780007202557, 42.408714182535206 ], [ 117.311780051801762, 42.408723188425327 ] ], [ [ 117.31176177826913, 42.408714232110135 ], [ 117.311761755970849, 42.408709729165061 ], [ 117.311767832281561, 42.408709712640402 ], [ 117.311767854580282, 42.408714215585483 ], [ 117.31176177826913, 42.408714232110135 ] ], [ [ 117.311767832281561, 42.408709712640402 ], [ 117.311767809982854, 42.408705209695334 ], [ 117.311773886293111, 42.408705193170348 ], [ 117.311773908592258, 42.40870969611543 ], [ 117.311767832281561, 42.408709712640402 ] ] ] } }
]
}
