{
"type": "FeatureCollection",
"name": "tile_9_15",
"crs": { "type": "name", "properties": { "name": "urn:ogc:def:crs:OGC:1.3:CRS84" } },
"features": [
{ "type": "Feature", "properties": { "crown_id": 3478, "tree_id": "3481", "top_h_m": 19.026, "H_95_Mean": 19.4567, "DBH": 26.0503, "Carbon_kg": 126.019885, "area_m2": 12.5 }, "geometry": { "type": "Polygon", "coordinates": [ [ [ 117.31339025004921, 42.409934609330143 ], [ 117.313402402905155, 42.409934576107112 ], [ 117.313402380488583, 42.409930073163707 ], [ 117.31345099190878, 42.409929940258721 ], [ 117.313450924648606, 42.409916431428528 ], [ 117.313426618943765, 42.409916497883565 ], [ 117.313426529270572, 42.409898486109896 ], [ 117.313420452846088, 42.409898502722839 ], [ 117.313420408010401, 42.40988949683598 ], [ 117.313396102315892, 42.409889563284509 ], [ 117.313396124731995, 42.409894066227956 ], [ 117.313402201156066, 42.409894049616305 ], [ 117.313402358072011, 42.409925570220288 ], [ 117.313396281644884, 42.40992558683196 ], [ 117.31339630406103, 42.409930089775379 ], [ 117.313390227633477, 42.409930106386732 ], [ 117.31339025004921, 42.409934609330143 ] ] ] } },
{ "type": "Feature", "properties": { "crown_id": 3501, "tree_id": "3504", "top_h_m": 21.61, "H_95_Mean": 21.915, "DBH": 22.3078, "Carbon_kg": 98.911288, "area_m2": 5.5 }, "geometry": { "type": "MultiPolygon", "coordinates": [ [ [ [ 117.313566331888879, 42.409907109810007 ], [ 117.313572408314116, 42.409907093189325 ], [ 117.313572385885379, 42.409902590245963 ], [ 117.313566309460597, 42.409902606866645 ], [ 117.313566331888879, 42.409907109810007 ] ] ], [ [ [ 117.313572385885379, 42.409902590245963 ], [ 117.313584538734972, 42.409902557003647 ], [ 117.313584561164561, 42.409907059947002 ], [ 117.3136027904402, 42.409907010081099 ], [ 117.313602745578407, 42.40989800419441 ], [ 117.313596669154052, 42.409898020816698 ], [ 117.313596624293169, 42.409889014929981 ], [ 117.31359054786968, 42.409889031551941 ], [ 117.313590503009692, 42.409880025665203 ], [ 117.31358442658707, 42.409880042286836 ], [ 117.313584449016645, 42.409884545230192 ], [ 117.313572296170534, 42.409884578472493 ], [ 117.313572341027964, 42.409893584359253 ], [ 117.31356626460402, 42.40989360097992 ], [ 117.313566287032302, 42.409898103923283 ], [ 117.313572363456672, 42.409898087302615 ], [ 117.313572385885379, 42.409902590245963 ] ] ] ] } },
{ "type": "Feature", "properties": { "crown_id": 3516, "tree_id": "3519", "top_h_m": 20.93, "H_95_Mean": 21.0989, "DBH": 37.3282, "Carbon_kg": 272.974125, "area_m2": 43.5 }, "geometry": { "type": "Polygon", "coordinates": [ [ [ 117.313499670599271, 42.409943316163208 ], [ 117.313511823456793, 42.409943282928566 ], [ 117.313511801032391, 42.409938779985218 ], [ 117.313517877460711, 42.409938763367414 ], [ 117.313517855035869, 42.409934260424052 ], [ 117.31352393146372, 42.409934243805942 ], [ 117.313523909038452, 42.409929740862587 ], [ 117.313517832610998, 42.409929757480697 ], [ 117.31351781018617, 42.409925254537342 ], [ 117.313523886613169, 42.409925237919225 ], [ 117.3135238641879, 42.409920734975863 ], [ 117.313548169894148, 42.409920668500192 ], [ 117.313548147467145, 42.409916165556844 ], [ 117.313542071041041, 42.409916182176232 ], [ 117.313542026187918, 42.409907176289501 ], [ 117.313529873337387, 42.409907209527319 ], [ 117.31352976120904, 42.409884694810394 ], [ 117.313523684785935, 42.409884711428809 ], [ 117.313523639935482, 42.409875705542014 ], [ 117.313499334246558, 42.40987577201242 ], [ 117.31349931182308, 42.409871269069008 ], [ 117.313475006135775, 42.409871335534248 ], [ 117.313475028557519, 42.409875838477674 ], [ 117.313462875712972, 42.409875871708365 ], [ 117.313462920554713, 42.409884877595211 ], [ 117.313456844131565, 42.40988489421008 ], [ 117.313456866552031, 42.409889397153506 ], [ 117.31346294297559, 42.40988938053863 ], [ 117.313463010238266, 42.409902889368873 ], [ 117.313444780963607, 42.409902939212536 ], [ 117.313444713704826, 42.409889430382293 ], [ 117.313438637281237, 42.409889446996189 ], [ 117.313438614862093, 42.409884944052756 ], [ 117.313432538438917, 42.409884960666332 ], [ 117.313432560857621, 42.40988946360978 ], [ 117.313426484434018, 42.409889480223036 ], [ 117.313426506852295, 42.409893983166462 ], [ 117.313432583276338, 42.409893966553199 ], [ 117.313432672951237, 42.409911978326882 ], [ 117.313456978654344, 42.409911911870559 ], [ 117.313457068336263, 42.409929923644142 ], [ 117.313487450473716, 42.409929840566448 ], [ 117.313487495319052, 42.409938846453187 ], [ 117.313499648175721, 42.409938813219846 ], [ 117.313499670599271, 42.409943316163208 ] ] ] } },
{ "type": "Feature", "properties": { "crown_id": 3535, "tree_id": "3538", "top_h_m": 20.25, "H_95_Mean": 20.8687, "DBH": 32.5236, "Carbon_kg": 205.446974, "area_m2": 26.0 }, "geometry": { "type": "Polygon", "coordinates": [ [ [ 117.313359823082109, 42.409925686495235 ], [ 117.313390205217758, 42.409925603443313 ], [ 117.313390182802053, 42.409921100499893 ], [ 117.313396259228739, 42.409921083888541 ], [ 117.313396147148111, 42.409898569171396 ], [ 117.313390070723599, 42.409898585782734 ], [ 117.31339000347657, 42.409885076952378 ], [ 117.313414309169374, 42.40988501050515 ], [ 117.313414174665041, 42.409857992844437 ], [ 117.313402021823876, 42.409858026068669 ], [ 117.313401954574402, 42.409844517238248 ], [ 117.313395878155106, 42.409844533849871 ], [ 117.313395922987212, 42.409853539736829 ], [ 117.31337161730653, 42.409853606180128 ], [ 117.31337163972087, 42.409858109123611 ], [ 117.313365563300238, 42.409858125733628 ], [ 117.313365608128038, 42.409867131620594 ], [ 117.313359531706539, 42.409867148230298 ], [ 117.313359554120012, 42.409871651173788 ], [ 117.313353477698101, 42.409871667783165 ], [ 117.313353522524181, 42.409880673670116 ], [ 117.313359598946974, 42.409880657060718 ], [ 117.313359666187466, 42.409894165891103 ], [ 117.313353589763366, 42.409894182500508 ], [ 117.31335363458949, 42.409903188387425 ], [ 117.313359711014485, 42.409903171778019 ], [ 117.313359823082109, 42.409925686495235 ] ], [ [ 117.313383882222922, 42.409876087676473 ], [ 117.313383814977286, 42.409862578846067 ], [ 117.313402044240391, 42.409862529012138 ], [ 117.313402111489935, 42.409876037842515 ], [ 117.313383882222922, 42.409876087676473 ] ] ] } },
{ "type": "Feature", "properties": { "crown_id": 3571, "tree_id": "3574", "top_h_m": 20.57, "H_95_Mean": 20.797, "DBH": 30.0511, "Carbon_kg": 174.826522, "area_m2": 19.25 }, "geometry": { "type": "Polygon", "coordinates": [ [ [ 117.313420385592551, 42.409884993892533 ], [ 117.313426462015741, 42.409884977279596 ], [ 117.313426439597478, 42.40988047433617 ], [ 117.313444668865671, 42.409880424495427 ], [ 117.313444691285255, 42.409884927438853 ], [ 117.313450767708403, 42.409884910824637 ], [ 117.313450745288392, 42.409880407881204 ], [ 117.313456821711114, 42.409880391266661 ], [ 117.313456776870254, 42.409871385379802 ], [ 117.313468929713949, 42.409871352149757 ], [ 117.313468817607514, 42.409848837432563 ], [ 117.313462741187848, 42.409848854047731 ], [ 117.313462718767013, 42.409844351104283 ], [ 117.31345056592852, 42.40984438433366 ], [ 117.313450521088598, 42.409835378446729 ], [ 117.313438368251838, 42.409835411674791 ], [ 117.313438345832765, 42.409830908731323 ], [ 117.313426192996843, 42.409830941958113 ], [ 117.313426237833269, 42.40983994784505 ], [ 117.313414084995614, 42.409839981070562 ], [ 117.313414107412953, 42.40984448401403 ], [ 117.313408030993685, 42.409844500626306 ], [ 117.313408075827525, 42.409853506513251 ], [ 117.313420228667823, 42.409853473288379 ], [ 117.313420385592551, 42.409884993892533 ] ] ] } },
{ "type": "Feature", "properties": { "crown_id": 3572, "tree_id": "3575", "top_h_m": 20.123, "H_95_Mean": 21.0527, "DBH": 26.7608, "Carbon_kg": 139.393846, "area_m2": 12.0 }, "geometry": { "type": "MultiPolygon", "coordinates": [ [ [ [ 117.31354808018618, 42.409902656726736 ], [ 117.313548102613154, 42.409907159670105 ], [ 117.313554179038391, 42.409907143050404 ], [ 117.313554156610977, 42.409902640107035 ], [ 117.31354808018618, 42.409902656726736 ] ] ], [ [ [ 117.31354808018618, 42.409902656726736 ], [ 117.313548012905258, 42.409889147896614 ], [ 117.313566242175767, 42.409889098036544 ], [ 117.313566197319204, 42.409880092149798 ], [ 117.313578350164448, 42.409880058908143 ], [ 117.313578327735328, 42.409875555964767 ], [ 117.31358440415751, 42.40987553934346 ], [ 117.313584269580232, 42.409848521683138 ], [ 117.313578193160666, 42.409848538304423 ], [ 117.313578215589757, 42.409853041247828 ], [ 117.313566062749729, 42.409853074489448 ], [ 117.313566107606221, 42.409862080376236 ], [ 117.313560031185318, 42.409862096996569 ], [ 117.313560076040943, 42.409871102883358 ], [ 117.313535770353838, 42.409871169361487 ], [ 117.31353579277993, 42.409875672304885 ], [ 117.313529716357721, 42.409875688923613 ], [ 117.313529738783373, 42.409880191867011 ], [ 117.313535815206023, 42.409880175248283 ], [ 117.313535927336531, 42.4099026899652 ], [ 117.31354808018618, 42.409902656726736 ] ] ] ] } },
{ "type": "Feature", "properties": { "crown_id": 3595, "tree_id": "3598", "top_h_m": 21.873, "H_95_Mean": 21.8417, "DBH": 24.3298, "Carbon_kg": 117.579753, "area_m2": 7.75 }, "geometry": { "type": "Polygon", "coordinates": [ [ [ 117.313505388244891, 42.409871252451886 ], [ 117.313517541088473, 42.409871219216697 ], [ 117.313517496238944, 42.409862213329873 ], [ 117.313511419818028, 42.40986222994762 ], [ 117.313511330120733, 42.409844218173923 ], [ 117.313487024443916, 42.409844284641679 ], [ 117.313487046866499, 42.409848787585119 ], [ 117.313474894027181, 42.409848820817068 ], [ 117.313474983714045, 42.409866832590822 ], [ 117.313505365820987, 42.409866749508474 ], [ 117.313505388244891, 42.409871252451886 ] ] ] } },
{ "type": "Feature", "properties": { "crown_id": 3631, "tree_id": "3634", "top_h_m": 20.43, "H_95_Mean": 20.925, "DBH": 28.8515, "Carbon_kg": 161.631284, "area_m2": 16.25 }, "geometry": { "type": "Polygon", "coordinates": [ [ [ 117.313523617510285, 42.409871202598609 ], [ 117.313529693932068, 42.409871185980208 ], [ 117.31352967150643, 42.409866683036803 ], [ 117.313553977191802, 42.409866616559974 ], [ 117.313553932337044, 42.409857610673178 ], [ 117.313560008757506, 42.409857594053172 ], [ 117.313559986329707, 42.409853091109774 ], [ 117.313553909909686, 42.409853107729774 ], [ 117.313553842627613, 42.409839598899545 ], [ 117.313547766208885, 42.409839615519218 ], [ 117.313547698928176, 42.409826106688932 ], [ 117.313529469675885, 42.409826156546004 ], [ 117.313529447250275, 42.40982165360257 ], [ 117.313499065165189, 42.409821736691207 ], [ 117.313499154858889, 42.409839748465018 ], [ 117.313517384115173, 42.409839698612757 ], [ 117.313517473814173, 42.409857710386461 ], [ 117.313523550234677, 42.40985769376838 ], [ 117.313523617510285, 42.409871202598609 ] ] ] } },
{ "type": "Feature", "properties": { "crown_id": 3676, "tree_id": "3679", "top_h_m": 19.5, "H_95_Mean": 19.76, "DBH": 26.1065, "Carbon_kg": 127.731704, "area_m2": 12.25 }, "geometry": { "type": "Polygon", "coordinates": [ [ [ 117.313559963901909, 42.409848588166369 ], [ 117.313572116741071, 42.409848554925397 ], [ 117.313572094312406, 42.409844051981999 ], [ 117.3135842471507, 42.40984401873974 ], [ 117.313584179862147, 42.409830509909504 ], [ 117.313608485533422, 42.409830443421185 ], [ 117.313608373377249, 42.409807928704133 ], [ 117.313602296961591, 42.409807945326691 ], [ 117.313602319392388, 42.409812448270102 ], [ 117.313565860895849, 42.409812547998683 ], [ 117.313565883324031, 42.409817050942117 ], [ 117.313559806907492, 42.409817067562415 ], [ 117.313559829335261, 42.409821570505848 ], [ 117.313553752918267, 42.409821587125847 ], [ 117.313553820200283, 42.409835095956112 ], [ 117.313559896618543, 42.409835079336126 ], [ 117.313559963901909, 42.409848588166369 ] ] ] } },
{ "type": "Feature", "properties": { "crown_id": 3714, "tree_id": "3717", "top_h_m": 21.49, "H_95_Mean": 22.6326, "DBH": 25.8954, "Carbon_kg": 136.162377, "area_m2": 9.25 }, "geometry": { "type": "MultiPolygon", "coordinates": [ [ [ [ 117.313450498668672, 42.40983087550326 ], [ 117.313450476248704, 42.409826372559792 ], [ 117.31345655266621, 42.409826355945277 ], [ 117.313456530245844, 42.409821853001809 ], [ 117.313450453828779, 42.409821869616323 ], [ 117.313450431408839, 42.40981736667284 ], [ 117.3134443549922, 42.409817383287027 ], [ 117.313444265314246, 42.40979937151306 ], [ 117.313426036069487, 42.409799421353654 ], [ 117.313426103324048, 42.40981293018416 ], [ 117.313420026907821, 42.409812946797047 ], [ 117.313420094161103, 42.409826455627524 ], [ 117.313444399831198, 42.409826389173986 ], [ 117.313444422250711, 42.409830892117455 ], [ 117.313450498668672, 42.40983087550326 ] ] ], [ [ [ 117.313383702901334, 42.409840064128673 ], [ 117.313383725316513, 42.409844567072156 ], [ 117.313371572477891, 42.409844600293148 ], [ 117.313371594892217, 42.409849103236645 ], [ 117.313389824151429, 42.409849053404649 ], [ 117.31338977932019, 42.409840047517697 ], [ 117.313383702901334, 42.409840064128673 ] ] ], [ [ [ 117.313408008576758, 42.409839997682816 ], [ 117.313407986159845, 42.40983549473934 ], [ 117.313420138996662, 42.40983546151449 ], [ 117.313420116578868, 42.409830958571007 ], [ 117.313389734488979, 42.409831041630703 ], [ 117.31338977932019, 42.409840047517697 ], [ 117.313408008576758, 42.409839997682816 ] ] ] ] } },
{ "type": "Feature", "properties": { "crown_id": 3719, "tree_id": "3722", "top_h_m": 20.364, "H_95_Mean": 21.0336, "DBH": 26.4576, "Carbon_kg": 136.155913, "area_m2": 11.5 }, "geometry": { "type": "Polygon", "coordinates": [ [ [ 117.313365473644694, 42.409840113959667 ], [ 117.313377626482449, 42.409840080739329 ], [ 117.313377604067711, 42.409835577795825 ], [ 117.313383680486155, 42.409835561185176 ], [ 117.31338365807099, 42.409831058241679 ], [ 117.313377581652972, 42.409831074852335 ], [ 117.313377514408799, 42.409817566021815 ], [ 117.313383590825509, 42.409817549411166 ], [ 117.313383501164935, 42.409799537637106 ], [ 117.313371348335011, 42.409799570858048 ], [ 117.313371325920755, 42.409795067914523 ], [ 117.313359173091669, 42.409795101134179 ], [ 117.313359128264906, 42.4097860952471 ], [ 117.313353051851209, 42.409786111856427 ], [ 117.313353119090081, 42.409799620687039 ], [ 117.31334704267509, 42.409799637296075 ], [ 117.313347109912698, 42.409813146126673 ], [ 117.313353186328982, 42.409813129517637 ], [ 117.313353208741944, 42.409817632461156 ], [ 117.313347132325234, 42.409817649070192 ], [ 117.313347177150334, 42.409826654957243 ], [ 117.313359329985502, 42.409826621738837 ], [ 117.313359352398948, 42.409831124682341 ], [ 117.313365428816965, 42.409831108072652 ], [ 117.313365473644694, 42.409840113959667 ] ] ] } },
{ "type": "Feature", "properties": { "crown_id": 3720, "tree_id": "3723", "top_h_m": 21.947, "H_95_Mean": 22.3014, "DBH": 30.0811, "Carbon_kg": 182.566269, "area_m2": 17.0 }, "geometry": { "type": "Polygon", "coordinates": [ [ [ 117.313468795186225, 42.409844334489115 ], [ 117.313480948024704, 42.409844301257813 ], [ 117.313480925602562, 42.409839798314366 ], [ 117.313493078440118, 42.409839765081784 ], [ 117.31349294390219, 42.40981274742105 ], [ 117.313486867486034, 42.409812764037497 ], [ 117.313486800218442, 42.409799255207076 ], [ 117.313480723803593, 42.409799271823182 ], [ 117.313480656537351, 42.409785762992726 ], [ 117.313468503710197, 42.409785796223971 ], [ 117.313468436446612, 42.409772287393459 ], [ 117.313462360034322, 42.409772304008584 ], [ 117.313462449717377, 42.409790315782601 ], [ 117.313456373303367, 42.409790332397407 ], [ 117.313456395723705, 42.409794835340904 ], [ 117.313450319309226, 42.409794851955404 ], [ 117.313450408988913, 42.409812863729364 ], [ 117.313456485405098, 42.409812847114843 ], [ 117.313456507825464, 42.409817350058333 ], [ 117.313462584242103, 42.409817333443506 ], [ 117.313462651504523, 42.409830842273912 ], [ 117.313456575086605, 42.409830858888746 ], [ 117.313456619927365, 42.409839864775677 ], [ 117.313468772764978, 42.409839831545668 ], [ 117.313468795186225, 42.409844334489115 ] ] ] } },
{ "type": "Feature", "properties": { "crown_id": 3728, "tree_id": "3731", "top_h_m": 22.14, "H_95_Mean": 21.6948, "DBH": 28.1126, "Carbon_kg": 156.70983, "area_m2": 13.75 }, "geometry": { "type": "Polygon", "coordinates": [ [ [ 117.313383635655811, 42.409826555298181 ], [ 117.313414017743568, 42.409826472240105 ], [ 117.313413928074269, 42.409808460466124 ], [ 117.313420004490069, 42.409808443853557 ], [ 117.313419959654581, 42.409799437966541 ], [ 117.313407806824713, 42.409799471191349 ], [ 117.313407739574117, 42.409785962360814 ], [ 117.313401663160477, 42.409785978972728 ], [ 117.31340161832766, 42.40977697308567 ], [ 117.313395541914886, 42.409776989697249 ], [ 117.313395519498926, 42.40977248675371 ], [ 117.313389443086578, 42.40977250336497 ], [ 117.313389465502112, 42.409777006308509 ], [ 117.31336515985096, 42.409777072750344 ], [ 117.31336522709239, 42.409790581580971 ], [ 117.313377379920595, 42.409790548360682 ], [ 117.313377402335277, 42.409795051304215 ], [ 117.313389555164321, 42.409795018082633 ], [ 117.313389689657782, 42.409822035743709 ], [ 117.31338361324066, 42.409822052354677 ], [ 117.313383635655811, 42.409826555298181 ] ] ] } },
{ "type": "Feature", "properties": { "crown_id": 3743, "tree_id": "3746", "top_h_m": 22.84, "H_95_Mean": 22.725, "DBH": 24.3668, "Carbon_kg": 120.738596, "area_m2": 7.25 }, "geometry": { "type": "Polygon", "coordinates": [ [ [ 117.313492921479224, 42.409808244477588 ], [ 117.313505074310683, 42.40980821124375 ], [ 117.31350505188685, 42.409803708300288 ], [ 117.313523281132703, 42.409803658447125 ], [ 117.313523213857337, 42.40979014961674 ], [ 117.31351713744337, 42.409790166234771 ], [ 117.313517092594012, 42.409781160347819 ], [ 117.313504939767768, 42.409781193582909 ], [ 117.313504917343977, 42.409776690639433 ], [ 117.313498840931302, 42.409776707256484 ], [ 117.313498863354667, 42.409781210199981 ], [ 117.313486710528409, 42.40978124343313 ], [ 117.313486777795916, 42.409794752263601 ], [ 117.313492854210367, 42.409794735647168 ], [ 117.313492921479224, 42.409808244477588 ] ] ] } },
{ "type": "Feature", "properties": { "crown_id": 3769, "tree_id": "3772", "top_h_m": 21.658, "H_95_Mean": 22.3823, "DBH": 33.3655, "Carbon_kg": 225.452793, "area_m2": 25.25 }, "geometry": { "type": "Polygon", "coordinates": [ [ [ 117.313535523667298, 42.409821636983857 ], [ 117.313547676501273, 42.409821603745499 ], [ 117.313547654074384, 42.409817100802066 ], [ 117.313553730490952, 42.4098170841824 ], [ 117.313553708063623, 42.409812581238967 ], [ 117.31355978447975, 42.409812564618981 ], [ 117.313559762052009, 42.409808061675555 ], [ 117.313577991298999, 42.409808011813688 ], [ 117.313577968869964, 42.409803508870247 ], [ 117.313571892454718, 42.409803525491192 ], [ 117.313571713026008, 42.409767501943563 ], [ 117.313577789437744, 42.409767485322647 ], [ 117.313577767008752, 42.409762982379171 ], [ 117.313583843420076, 42.409762965757942 ], [ 117.31358382099063, 42.409758462814473 ], [ 117.313571668168876, 42.409758496056625 ], [ 117.313571645740311, 42.409753993113156 ], [ 117.313553416508938, 42.409754042973958 ], [ 117.313553461363455, 42.409763048860924 ], [ 117.313529155718058, 42.409763115337505 ], [ 117.31352922299466, 42.409776624167961 ], [ 117.313523146581986, 42.409776640786312 ], [ 117.313523191432211, 42.409785646673264 ], [ 117.313529267845752, 42.40978563005492 ], [ 117.313529379973531, 42.409808144772214 ], [ 117.313511150726399, 42.409808194626358 ], [ 117.313511173150687, 42.409812697569805 ], [ 117.313499020318375, 42.409812730804305 ], [ 117.313499042741768, 42.409817233747752 ], [ 117.313535501241262, 42.409817134040431 ], [ 117.313535523667298, 42.409821636983857 ] ] ] } },
{ "type": "Feature", "properties": { "crown_id": 3816, "tree_id": "3819", "top_h_m": 20.901, "H_95_Mean": 20.7903, "DBH": 25.3817, "Carbon_kg": 124.368153, "area_m2": 10.0 }, "geometry": { "type": "Polygon", "coordinates": [ [ [ 117.313413860822351, 42.409794951635604 ], [ 117.313444242894775, 42.409794868569577 ], [ 117.313444220475304, 42.409790365626066 ], [ 117.313450296889314, 42.409790349011899 ], [ 117.313450274469432, 42.409785846068395 ], [ 117.31345635088303, 42.409785829453902 ], [ 117.313456283622045, 42.409772320623382 ], [ 117.313444130797478, 42.409772353852027 ], [ 117.313444153216921, 42.409776856795546 ], [ 117.313438076804175, 42.409776873409378 ], [ 117.313438054385159, 42.409772370465866 ], [ 117.313425901560549, 42.409772403692571 ], [ 117.313425834306145, 42.409758894861973 ], [ 117.313419757895133, 42.409758911474832 ], [ 117.313419780312827, 42.409763414418371 ], [ 117.313413703901375, 42.409763431030918 ], [ 117.313413726318629, 42.409767933974457 ], [ 117.313401573494843, 42.409767967198583 ], [ 117.313401595911259, 42.40977247014213 ], [ 117.313407672323578, 42.409772453530223 ], [ 117.313407717157261, 42.409781459417282 ], [ 117.313413793570462, 42.409781442805041 ], [ 117.313413860822351, 42.409794951635604 ] ] ] } }
]
}
