{
"type": "FeatureCollection",
"name": "tile_1_22",
"crs": { "type": "name", "properties": { "name": "urn:ogc:def:crs:OGC:1.3:CRS84" } },
"features": [
{ "type": "Feature", "properties": { "crown_id": 29, "tree_id": "30", "top_h_m": 21.48, "H_95_Mean": 21.735, "DBH": 25.0445, "Carbon_kg": 124.284524, "area_m2": 8.75 }, "geometry": { "type": "Polygon", "coordinates": [ [ [ 117.315074781031555, 42.41141598326827 ], [ 117.31512947016131, 42.41141583294668 ], [ 117.315129425078752, 42.411406827063679 ], [ 117.315123348509644, 42.411406843767352 ], [ 117.315123325968827, 42.411402340825866 ], [ 117.31510509626284, 42.411402390934967 ], [ 117.315105073723316, 42.411397887993452 ], [ 117.315080767450354, 42.411397954801082 ], [ 117.315080744912564, 42.411393451859531 ], [ 117.315068591776921, 42.411393485261414 ], [ 117.315068659387677, 42.411406994086008 ], [ 117.315074735956813, 42.411406977385226 ], [ 117.315074781031555, 42.41141598326827 ] ] ] } },
{ "type": "Feature", "properties": { "crown_id": 30, "tree_id": "31", "top_h_m": 17.406, "H_95_Mean": 17.6791, "DBH": 20.5977, "Carbon_kg": 74.175608, "area_m2": 6.0 }, "geometry": { "type": "Polygon", "coordinates": [ [ [ 117.315135546731241, 42.411415816242666 ], [ 117.315190235860513, 42.411415665892093 ], [ 117.315190190769258, 42.411406660009149 ], [ 117.315165884493112, 42.411406726834826 ], [ 117.315165861949239, 42.41140222389334 ], [ 117.315147632243352, 42.411402274009212 ], [ 117.315147609700801, 42.411397771067712 ], [ 117.315141533132589, 42.411397787772366 ], [ 117.315141555674742, 42.411402290713845 ], [ 117.31513547910609, 42.411402307418172 ], [ 117.315135546731241, 42.411415816242666 ] ] ] } },
{ "type": "Feature", "properties": { "crown_id": 31, "tree_id": "32", "top_h_m": 18.882, "H_95_Mean": 18.8663, "DBH": 24.0789, "Carbon_kg": 105.594753, "area_m2": 9.75 }, "geometry": { "type": "Polygon", "coordinates": [ [ [ 117.31519631243043, 42.41141564918486 ], [ 117.315263154698926, 42.411415465384074 ], [ 117.315263132148061, 42.411410962442631 ], [ 117.315250979009264, 42.411410995863854 ], [ 117.315250933909297, 42.411401989980959 ], [ 117.315244857340787, 42.411402006691077 ], [ 117.315244789692187, 42.411388497866689 ], [ 117.315232636557695, 42.411388531285958 ], [ 117.315232659106357, 42.411393034227416 ], [ 117.315226582538671, 42.411393050936574 ], [ 117.315226605086877, 42.411397553878039 ], [ 117.315220528518765, 42.411397570586878 ], [ 117.31522055106656, 42.411402073528336 ], [ 117.315202321360815, 42.411402123652906 ], [ 117.315202298814327, 42.411397620711433 ], [ 117.315196222246186, 42.411397637418972 ], [ 117.31519631243043, 42.41141564918486 ] ] ] } },
{ "type": "Feature", "properties": { "crown_id": 73, "tree_id": "74", "top_h_m": 19.93, "H_95_Mean": 20.9825, "DBH": 29.2268, "Carbon_kg": 166.166315, "area_m2": 17.0 }, "geometry": { "type": "Polygon", "coordinates": [ [ [ 117.315269231268744, 42.411415448672976 ], [ 117.315287460978212, 42.411415398537756 ], [ 117.315287415873044, 42.411406392654897 ], [ 117.315293492441995, 42.411406375942512 ], [ 117.315293469888985, 42.411401873001083 ], [ 117.315305623025978, 42.411401839575362 ], [ 117.315305600472101, 42.411397336633939 ], [ 117.315323830176254, 42.411397286492949 ], [ 117.315323807621084, 42.411392783551527 ], [ 117.315329884188685, 42.411392766837224 ], [ 117.315329861633089, 42.411388263895795 ], [ 117.315317708498739, 42.411388297324066 ], [ 117.315317663389294, 42.4113792914412 ], [ 117.315305510256664, 42.411379324868186 ], [ 117.315305465148967, 42.411370318985291 ], [ 117.315293312018028, 42.41137035241097 ], [ 117.31529333457101, 42.411374855352427 ], [ 117.315275104873294, 42.411374905488536 ], [ 117.315275127424982, 42.411379408429994 ], [ 117.315262974292267, 42.411379441852468 ], [ 117.315263041944718, 42.411392950676841 ], [ 117.315250888809388, 42.41139298409805 ], [ 117.315250911359342, 42.411397487039501 ], [ 117.315256987927455, 42.411397470329071 ], [ 117.31525703302826, 42.411406476211958 ], [ 117.315269186166191, 42.411406442790103 ], [ 117.315269231268744, 42.411415448672976 ] ] ] } },
{ "type": "Feature", "properties": { "crown_id": 80, "tree_id": "81", "top_h_m": 17.59, "H_95_Mean": 17.7413, "DBH": 22.9041, "Carbon_kg": 92.059003, "area_m2": 9.0 }, "geometry": { "type": "Polygon", "coordinates": [ [ [ 117.315171938517835, 42.411402207187415 ], [ 117.315190168223651, 42.41140215706767 ], [ 117.315190123132425, 42.411393151184718 ], [ 117.315208352835555, 42.411393101062089 ], [ 117.315208375382483, 42.411397604003568 ], [ 117.315214451950624, 42.411397587295383 ], [ 117.315214429403269, 42.411393084353911 ], [ 117.31522050597097, 42.411393067645406 ], [ 117.315220483423175, 42.41138856470392 ], [ 117.31522655999045, 42.411388547995102 ], [ 117.315226537442257, 42.411384045053623 ], [ 117.315220460875409, 42.411384061762448 ], [ 117.315220438327643, 42.411379558820975 ], [ 117.315214361761235, 42.411379575529473 ], [ 117.315214339213924, 42.411375072587973 ], [ 117.315183956384033, 42.411375156125615 ], [ 117.315183978929198, 42.411379659067123 ], [ 117.315177902362763, 42.411379675773688 ], [ 117.315177947452227, 42.411388681656682 ], [ 117.315171870884924, 42.411388698362927 ], [ 117.315171893429223, 42.411393201304435 ], [ 117.31516581686148, 42.411393218010353 ], [ 117.315165839405353, 42.411397720951847 ], [ 117.315171915973536, 42.411397704245914 ], [ 117.315171938517835, 42.411402207187415 ] ] ] } },
{ "type": "Feature", "properties": { "crown_id": 104, "tree_id": "105", "top_h_m": 20.116, "H_95_Mean": 19.9396, "DBH": 26.3558, "Carbon_kg": 130.900676, "area_m2": 12.5 }, "geometry": { "type": "Polygon", "coordinates": [ [ [ 117.315111150291557, 42.411397871290738 ], [ 117.315135456564406, 42.411397804476678 ], [ 117.315135434022693, 42.411393301535171 ], [ 117.315141510590479, 42.411393284830851 ], [ 117.315141465506215, 42.411384278947828 ], [ 117.315135388939325, 42.411384295652141 ], [ 117.315135366397641, 42.411379792710626 ], [ 117.315129289831162, 42.411379809414619 ], [ 117.315129244748675, 42.411370803531554 ], [ 117.315123168183078, 42.411370820235213 ], [ 117.315123145642261, 42.411366317293684 ], [ 117.315098839381548, 42.411366384105101 ], [ 117.315098861920603, 42.411370887046644 ], [ 117.315092785354963, 42.411370903748697 ], [ 117.315092807893592, 42.41137540669024 ], [ 117.315080654761474, 42.41137544009338 ], [ 117.315080677299235, 42.411379943034923 ], [ 117.3150746007327, 42.411379959736017 ], [ 117.315074623270064, 42.41138446267756 ], [ 117.315086776403945, 42.411384429275046 ], [ 117.315086821480364, 42.411393435158125 ], [ 117.315111127751564, 42.411393368349209 ], [ 117.315111150291557, 42.411397871290738 ] ] ] } },
{ "type": "Feature", "properties": { "crown_id": 143, "tree_id": "144", "top_h_m": 19.972, "H_95_Mean": 20.4025, "DBH": 29.6794, "Carbon_kg": 168.575215, "area_m2": 19.0 }, "geometry": { "type": "Polygon", "coordinates": [ [ [ 117.315250866259433, 42.411388481156578 ], [ 117.315256942826679, 42.411388464446148 ], [ 117.31525687517555, 42.411374955621746 ], [ 117.315269028307398, 42.411374922199926 ], [ 117.315269005756136, 42.411370419258468 ], [ 117.315287235452558, 42.411370369123333 ], [ 117.315287145242465, 42.411352357357437 ], [ 117.315274992114993, 42.411352390781175 ], [ 117.31527492446007, 42.411338881956709 ], [ 117.315238465085372, 42.411338982220116 ], [ 117.315238442536355, 42.411334479278608 ], [ 117.315232365974325, 42.411334495988044 ], [ 117.315232546363177, 42.411370519520048 ], [ 117.31522039323211, 42.411370552937996 ], [ 117.315220415779876, 42.411375055879489 ], [ 117.315226492345829, 42.411375039170672 ], [ 117.315226514894022, 42.411379542112151 ], [ 117.315232591460429, 42.411379525403007 ], [ 117.315232614009062, 42.411384028344493 ], [ 117.315250843709478, 42.41138397821512 ], [ 117.315250866259433, 42.411388481156578 ] ] ] } },
{ "type": "Feature", "properties": { "crown_id": 152, "tree_id": "153", "top_h_m": 18.618, "H_95_Mean": 19.1672, "DBH": 26.7529, "Carbon_kg": 131.790372, "area_m2": 14.25 }, "geometry": { "type": "Polygon", "coordinates": [ [ [ 117.315183933838881, 42.411370653184107 ], [ 117.315214316666598, 42.411370569646493 ], [ 117.315214294119286, 42.411366066704993 ], [ 117.315226447249458, 42.411366033287692 ], [ 117.315226311960444, 42.411339015638667 ], [ 117.31521415883546, 42.411339049055954 ], [ 117.315214136288176, 42.411334546114432 ], [ 117.315201983164073, 42.411334579530404 ], [ 117.315201938071255, 42.411325573647346 ], [ 117.315195861510063, 42.411325590354849 ], [ 117.315195884056024, 42.411330093296378 ], [ 117.315189807494406, 42.411330110003561 ], [ 117.31518987513104, 42.411343618828155 ], [ 117.315171645442163, 42.411343668947779 ], [ 117.315171690530676, 42.411352674830844 ], [ 117.315183843658332, 42.411352641418055 ], [ 117.315183933838881, 42.411370653184107 ] ] ] } },
{ "type": "Feature", "properties": { "crown_id": 160, "tree_id": "161", "top_h_m": 20.21, "H_95_Mean": 20.4819, "DBH": 32.316, "Carbon_kg": 200.580608, "area_m2": 26.25 }, "geometry": { "type": "Polygon", "coordinates": [ [ [ 117.315153686268999, 42.411397754362746 ], [ 117.315159762837183, 42.41139773765746 ], [ 117.315159717750305, 42.411388731774466 ], [ 117.315165794317622, 42.41138871506886 ], [ 117.315165771773749, 42.411384212127359 ], [ 117.315171848340611, 42.411384195421434 ], [ 117.315171803252056, 42.411375189538425 ], [ 117.315177879818037, 42.411375172832194 ], [ 117.315177789639208, 42.411357161066142 ], [ 117.315165636510685, 42.411357194478278 ], [ 117.315165568879223, 42.411343685653684 ], [ 117.315159492316255, 42.411343702359254 ], [ 117.31515946977288, 42.411339199417725 ], [ 117.315141240085239, 42.411339249532517 ], [ 117.315141217543172, 42.41133474659096 ], [ 117.31513514098107, 42.411334763295251 ], [ 117.315135118439429, 42.411330260353694 ], [ 117.315129041877753, 42.411330277057651 ], [ 117.315129019336553, 42.411325774116087 ], [ 117.315122942775318, 42.411325790819717 ], [ 117.315122920234572, 42.411321287878152 ], [ 117.315116843673735, 42.411321304581456 ], [ 117.315116821133429, 42.411316801639892 ], [ 117.315110744573019, 42.411316818342875 ], [ 117.315110767112898, 42.411321321284447 ], [ 117.315104690552062, 42.411321337987118 ], [ 117.315104758170406, 42.411334846811833 ], [ 117.315110834732565, 42.411334830109162 ], [ 117.315110902352245, 42.411348338933848 ], [ 117.315098749225342, 42.411348372338892 ], [ 117.315098771764383, 42.411352875280443 ], [ 117.315104848328261, 42.411352858578084 ], [ 117.315104893407238, 42.411361864461185 ], [ 117.315129199666217, 42.411361797648489 ], [ 117.315129222207446, 42.411366300590039 ], [ 117.315135298772603, 42.411366283886061 ], [ 117.315135343855957, 42.411375289769104 ], [ 117.31514142042198, 42.411375273064806 ], [ 117.315141442964091, 42.411379776006321 ], [ 117.315147519530555, 42.411379759301688 ], [ 117.315147587158236, 42.411393268126211 ], [ 117.315153663725994, 42.411393251421252 ], [ 117.315153686268999, 42.411397754362746 ] ] ] } },
{ "type": "Feature", "properties": { "crown_id": 184, "tree_id": "185", "top_h_m": 18.661, "H_95_Mean": 18.9856, "DBH": 25.6142, "Carbon_kg": 120.050959, "area_m2": 12.25 }, "geometry": { "type": "Polygon", "coordinates": [ [ [ 117.315293289465075, 42.411365849469504 ], [ 117.315299366030104, 42.411365832756829 ], [ 117.315299320923302, 42.411356826873892 ], [ 117.315311474051612, 42.411356793447588 ], [ 117.315311451497337, 42.411352290506123 ], [ 117.315317528061044, 42.411352273792488 ], [ 117.315317505506357, 42.411347770851023 ], [ 117.315329658632891, 42.411347737422794 ], [ 117.315329636077337, 42.411343234481336 ], [ 117.315335712640149, 42.411343217766735 ], [ 117.315335622416256, 42.411325206000861 ], [ 117.315293086488595, 42.411325322996206 ], [ 117.315293109041491, 42.411329825937685 ], [ 117.315287032479944, 42.411329842650012 ], [ 117.315287077584941, 42.411338848533006 ], [ 117.315281001022512, 42.411338865245021 ], [ 117.315281046126671, 42.411347871127994 ], [ 117.315293199253247, 42.411347837703623 ], [ 117.315293289465075, 42.411365849469504 ] ] ] } },
{ "type": "Feature", "properties": { "crown_id": 210, "tree_id": "211", "top_h_m": 18.525, "H_95_Mean": 18.7391, "DBH": 23.3414, "Carbon_kg": 98.781559, "area_m2": 8.75 }, "geometry": { "type": "Polygon", "coordinates": [ [ [ 117.315165546335393, 42.411339182712148 ], [ 117.315183776022963, 42.41133913259349 ], [ 117.315183708387664, 42.411325623768882 ], [ 117.315189784948871, 42.411325607062018 ], [ 117.315189762403321, 42.411321104120482 ], [ 117.315147226477833, 42.411321221061691 ], [ 117.315147203935339, 42.411316718120119 ], [ 117.315141127374957, 42.411316734824723 ], [ 117.315141104832918, 42.411312231883144 ], [ 117.315135028272977, 42.411312248587436 ], [ 117.315135005731392, 42.41130774564585 ], [ 117.315128929171877, 42.4113077623498 ], [ 117.315128884089546, 42.411298756466628 ], [ 117.315122807530898, 42.411298773170259 ], [ 117.315122897693826, 42.411316784936581 ], [ 117.315128974254208, 42.41131676823295 ], [ 117.31512899679538, 42.411321271174522 ], [ 117.315135073356188, 42.411321254470565 ], [ 117.31513509589783, 42.411325757412136 ], [ 117.315141172459064, 42.411325740707859 ], [ 117.315141195001132, 42.41133024364941 ], [ 117.315147271562807, 42.411330226944806 ], [ 117.315147294105302, 42.411334729886356 ], [ 117.315165523791606, 42.411334679770597 ], [ 117.315165546335393, 42.411339182712148 ] ] ] } },
{ "type": "Feature", "properties": { "crown_id": 229, "tree_id": "230", "top_h_m": 18.95, "H_95_Mean": 19.6484, "DBH": 23.5153, "Carbon_kg": 103.120353, "area_m2": 8.25 }, "geometry": { "type": "Polygon", "coordinates": [ [ [ 117.315244519098385, 42.411334462568853 ], [ 117.31528097847044, 42.411334362303528 ], [ 117.315280933366338, 42.411325356420548 ], [ 117.315287009927474, 42.411325339708526 ], [ 117.315286964822505, 42.411316333825525 ], [ 117.315280888262251, 42.411316350537518 ], [ 117.315280865710207, 42.411311847596011 ], [ 117.315274789150394, 42.411311864307699 ], [ 117.315274744047201, 42.411302858424655 ], [ 117.31525651437029, 42.411302908557751 ], [ 117.315256604571488, 42.411320920323845 ], [ 117.31525052801075, 42.411320937034233 ], [ 117.315250550560634, 42.411325439975755 ], [ 117.315244473999499, 42.41132545668583 ], [ 117.315244519098385, 42.411334462568853 ] ] ] } },
{ "type": "Feature", "properties": { "crown_id": 236, "tree_id": "237", "top_h_m": 18.451, "H_95_Mean": 18.5018, "DBH": 26.5404, "Carbon_kg": 127.006942, "area_m2": 14.75 }, "geometry": { "type": "Polygon", "coordinates": [ [ [ 117.315220212850235, 42.411334529405949 ], [ 117.315226289412294, 42.411334512697159 ], [ 117.315226266864144, 42.411330009755645 ], [ 117.315238419987338, 42.4113299763371 ], [ 117.315238374889319, 42.411320970454057 ], [ 117.315244451450042, 42.411320953744308 ], [ 117.315244428900598, 42.411316450802786 ], [ 117.315250505460895, 42.411316434092718 ], [ 117.315250437811315, 42.411302925268146 ], [ 117.31524436125234, 42.411302941978207 ], [ 117.315244338702925, 42.411298439036663 ], [ 117.315238262144376, 42.411298455746405 ], [ 117.315238239595388, 42.411293952804868 ], [ 117.31523216303728, 42.411293969514283 ], [ 117.315232117940212, 42.411284963631182 ], [ 117.315226041382942, 42.411284980340263 ], [ 117.315226063931036, 42.411289483281813 ], [ 117.315219987373339, 42.411289499990588 ], [ 117.315220009921006, 42.411294002932145 ], [ 117.315207856804719, 42.411294036348721 ], [ 117.315207879351519, 42.411298539290264 ], [ 117.315201802792956, 42.411298555998073 ], [ 117.315201870432077, 42.411312064822724 ], [ 117.315195793872192, 42.41131208153022 ], [ 117.315195838964101, 42.411321087413306 ], [ 117.315207992085618, 42.411321053997987 ], [ 117.315208037179303, 42.411330059881053 ], [ 117.315220190302526, 42.411330026464441 ], [ 117.315220212850235, 42.411334529405949 ] ] ] } },
{ "type": "Feature", "properties": { "crown_id": 257, "tree_id": "258", "top_h_m": 18.76, "H_95_Mean": 19.1555, "DBH": 24.4129, "Carbon_kg": 109.54892, "area_m2": 10.0 }, "geometry": { "type": "Polygon", "coordinates": [ [ [ 117.315153280495707, 42.41131670141521 ], [ 117.315189739857814, 42.411316601178946 ], [ 117.315189694766772, 42.411307595295845 ], [ 117.315195771326259, 42.411307578588676 ], [ 117.315195726234364, 42.411298572705562 ], [ 117.315177496558576, 42.411298622826081 ], [ 117.315177474013936, 42.411294119884509 ], [ 117.315165320897577, 42.411294153296573 ], [ 117.315165298353833, 42.411289650355002 ], [ 117.315153145238327, 42.411289683765766 ], [ 117.315153167781205, 42.411294186707359 ], [ 117.315141014664803, 42.411294220116844 ], [ 117.315141037206843, 42.411298723058422 ], [ 117.315134960648194, 42.411298739762685 ], [ 117.315134983189779, 42.411303242704271 ], [ 117.315141059748854, 42.411303226 ], [ 117.315141082290907, 42.41130772894158 ], [ 117.315147158850394, 42.411307712237004 ], [ 117.315147181392859, 42.411312215178562 ], [ 117.315153257952801, 42.411312198473645 ], [ 117.315153280495707, 42.41131670141521 ] ] ] } },
{ "type": "Feature", "properties": { "crown_id": 258, "tree_id": "259", "top_h_m": 19.282, "H_95_Mean": 19.3006, "DBH": 28.1956, "Carbon_kg": 147.109095, "area_m2": 17.25 }, "geometry": { "type": "Polygon", "coordinates": [ [ [ 117.315293063935655, 42.411320820054698 ], [ 117.315329523299653, 42.411320719773968 ], [ 117.315329455633119, 42.411307210949502 ], [ 117.315335532192449, 42.411307194234936 ], [ 117.315335441968713, 42.411289182468934 ], [ 117.315323288853506, 42.411289215897746 ], [ 117.315323243743421, 42.411280210014716 ], [ 117.315317167186677, 42.411280226728636 ], [ 117.315317144632075, 42.411275723787114 ], [ 117.315311068075744, 42.411275740500706 ], [ 117.315311045521582, 42.411271237559177 ], [ 117.315298892409814, 42.411271270985388 ], [ 117.315298960069711, 42.411284779809968 ], [ 117.315292883512512, 42.411284796522594 ], [ 117.315292906065395, 42.411289299464123 ], [ 117.315280752950102, 42.411289332888423 ], [ 117.315280843158163, 42.41130734465451 ], [ 117.315286919717551, 42.411307327942509 ], [ 117.315286942270021, 42.411311830884017 ], [ 117.315293018829848, 42.411311814171697 ], [ 117.315293063935655, 42.411320820054698 ] ] ] } },
{ "type": "Feature", "properties": { "crown_id": 303, "tree_id": "304", "top_h_m": 18.33, "H_95_Mean": 18.6213, "DBH": 25.3785, "Carbon_kg": 116.492244, "area_m2": 12.25 }, "geometry": { "type": "Polygon", "coordinates": [ [ [ 117.315074217598763, 42.411303409729214 ], [ 117.315098523835232, 42.411303342923091 ], [ 117.315098501296248, 42.411298839981512 ], [ 117.31510457785491, 42.411298823279175 ], [ 117.315104487697312, 42.411280811512754 ], [ 117.315110564254226, 42.411280794810111 ], [ 117.31511054171439, 42.411276291868511 ], [ 117.315104465157916, 42.411276308571146 ], [ 117.315104420079152, 42.411267302687911 ], [ 117.315086190412245, 42.411267352793885 ], [ 117.31508621295032, 42.411271855735507 ], [ 117.315080136394229, 42.41127187243687 ], [ 117.315080158931877, 42.411276375378485 ], [ 117.315061929262328, 42.411276425480608 ], [ 117.315061974335009, 42.411285431363858 ], [ 117.315055897777611, 42.411285448063936 ], [ 117.315055942849469, 42.411294453947185 ], [ 117.315062019407748, 42.411294437247108 ], [ 117.315062041944103, 42.411298940188729 ], [ 117.315074195061499, 42.411298906787607 ], [ 117.315074217598763, 42.411303409729214 ] ] ] } },
{ "type": "Feature", "properties": { "crown_id": 313, "tree_id": "314", "top_h_m": 19.591, "H_95_Mean": 19.6346, "DBH": 28.9438, "Carbon_kg": 156.664733, "area_m2": 18.5 }, "geometry": { "type": "Polygon", "coordinates": [ [ [ 117.31525041526146, 42.41129842232661 ], [ 117.315274721495598, 42.41129835548314 ], [ 117.315274653840873, 42.41128484665856 ], [ 117.315286806955285, 42.4112848132349 ], [ 117.315286784402858, 42.411280310293378 ], [ 117.31529286095963, 42.411280293581065 ], [ 117.315292770748201, 42.411262281814913 ], [ 117.315286694193176, 42.41126229852722 ], [ 117.315286671640749, 42.411257795585669 ], [ 117.315280595086151, 42.411257812297634 ], [ 117.315280572534192, 42.411253309356084 ], [ 117.315256266317462, 42.411253376200733 ], [ 117.315256288867701, 42.411257879142305 ], [ 117.315244135758419, 42.411257912562697 ], [ 117.31524418085715, 42.411266918445811 ], [ 117.315232027746148, 42.411266951864938 ], [ 117.315232050294654, 42.41127145480651 ], [ 117.315225973738706, 42.411271471515597 ], [ 117.315226018834849, 42.411280477398712 ], [ 117.315238171948508, 42.411280443980218 ], [ 117.315238217046428, 42.411289449863332 ], [ 117.31524429360411, 42.411289433153591 ], [ 117.315244316153496, 42.411293936095134 ], [ 117.315250392711619, 42.411293919385066 ], [ 117.31525041526146, 42.41129842232661 ] ] ] } },
{ "type": "Feature", "properties": { "crown_id": 329, "tree_id": "330", "top_h_m": 17.517, "H_95_Mean": 17.9933, "DBH": 27.5675, "Carbon_kg": 134.866532, "area_m2": 18.0 }, "geometry": { "type": "Polygon", "coordinates": [ [ [ 117.315110654413587, 42.411298806576518 ], [ 117.315116730972235, 42.411298789873541 ], [ 117.315116708431972, 42.411294286931955 ], [ 117.31513493810661, 42.411294236821099 ], [ 117.315134915565025, 42.411289733879521 ], [ 117.315147068680574, 42.411289700470675 ], [ 117.315147046138122, 42.411285197529082 ], [ 117.315153122695449, 42.411285180824187 ], [ 117.315153009981117, 42.411262666116215 ], [ 117.315159086536269, 42.411262649411 ], [ 117.315159041449704, 42.411253643527793 ], [ 117.315146888341161, 42.411253676937889 ], [ 117.315146865798738, 42.411249173996254 ], [ 117.315140789244893, 42.411249190700808 ], [ 117.315140766702939, 42.411244687759186 ], [ 117.315116460489179, 42.411244754574192 ], [ 117.315116483029414, 42.411249257515813 ], [ 117.315104329921667, 42.411249290921383 ], [ 117.315104397539756, 42.411262799746289 ], [ 117.315110474094936, 42.411262783043654 ], [ 117.315110519174567, 42.411271788926896 ], [ 117.315116595730615, 42.411271772223934 ], [ 117.315116663351404, 42.411285281048755 ], [ 117.315110586794049, 42.411285297751718 ], [ 117.315110654413587, 42.411298806576518 ] ] ] } },
{ "type": "Feature", "properties": { "crown_id": 330, "tree_id": "331", "top_h_m": 19.521, "H_95_Mean": 19.7125, "DBH": 29.7755, "Carbon_kg": 166.259303, "area_m2": 20.5 }, "geometry": { "type": "Polygon", "coordinates": [ [ [ 117.315183550572101, 42.411294103178008 ], [ 117.315201780246582, 42.411294053056515 ], [ 117.315201757700223, 42.411289550114965 ], [ 117.315213910815629, 42.411289516699036 ], [ 117.315213888268417, 42.411285013757478 ], [ 117.315219964825701, 42.411284997049037 ], [ 117.31521987463509, 42.411266985282772 ], [ 117.315225951190612, 42.411266968574019 ], [ 117.315225928642562, 42.411262465632447 ], [ 117.315213775532371, 42.411262499049634 ], [ 117.315213730437975, 42.41125349316647 ], [ 117.315207653883732, 42.411253509874577 ], [ 117.315207631336989, 42.411249006932977 ], [ 117.315189401675568, 42.411249057055343 ], [ 117.315189379130118, 42.411244554113743 ], [ 117.315183302576742, 42.411244570820543 ], [ 117.315183325121765, 42.41124907376215 ], [ 117.31517724856792, 42.411249090468644 ], [ 117.315177271112503, 42.411253593410251 ], [ 117.315165118003975, 42.411253626822266 ], [ 117.315165185635138, 42.411267135647066 ], [ 117.315159109079559, 42.411267152352593 ], [ 117.315159199252761, 42.411285164118965 ], [ 117.315171352367386, 42.411285130707562 ], [ 117.315171374911571, 42.41128963364914 ], [ 117.315183528027049, 42.411289600236429 ], [ 117.315183550572101, 42.411294103178008 ] ] ] } },
{ "type": "Feature", "properties": { "crown_id": 390, "tree_id": "391", "top_h_m": 17.44, "H_95_Mean": 18.1979, "DBH": 25.8592, "Carbon_kg": 119.347571, "area_m2": 13.75 }, "geometry": { "type": "Polygon", "coordinates": [ [ [ 117.315232005197643, 42.411262448923374 ], [ 117.315238081752696, 42.411262432213974 ], [ 117.315238036654861, 42.411253426330838 ], [ 117.315250189763262, 42.411253392911092 ], [ 117.315250167213463, 42.411248889969507 ], [ 117.315280549982219, 42.411248806414527 ], [ 117.315280459774414, 42.411230794648255 ], [ 117.315274383222402, 42.411230811359886 ], [ 117.315274360670898, 42.411226308418307 ], [ 117.315237901361385, 42.411226408681316 ], [ 117.315237923910303, 42.411230911622916 ], [ 117.315225770806208, 42.411230945041346 ], [ 117.31522579335423, 42.411235447982946 ], [ 117.315219716801764, 42.411235464691678 ], [ 117.315219761896969, 42.411244470574871 ], [ 117.315213685343622, 42.411244487283291 ], [ 117.315213707890791, 42.411248990224877 ], [ 117.315219784444579, 42.411248973516457 ], [ 117.315219829539842, 42.411257979399622 ], [ 117.315231982649138, 42.411257945981802 ], [ 117.315232005197643, 42.411262448923374 ] ] ] } },
{ "type": "Feature", "properties": { "crown_id": 396, "tree_id": "397", "top_h_m": 16.928, "H_95_Mean": 17.4723, "DBH": 23.5115, "Carbon_kg": 96.172744, "area_m2": 10.25 }, "geometry": { "type": "Polygon", "coordinates": [ [ [ 117.315152942352597, 42.41124915729138 ], [ 117.315171172014118, 42.411249107174804 ], [ 117.315171149469961, 42.411244604233204 ], [ 117.315177226023366, 42.411244587527044 ], [ 117.315177203478797, 42.411240084585437 ], [ 117.315195433137646, 42.411240034465003 ], [ 117.315195455683508, 42.41124453740661 ], [ 117.315201532236884, 42.411244520699164 ], [ 117.31520146459799, 42.411231011874342 ], [ 117.315195388045908, 42.411231028581795 ], [ 117.31519532040835, 42.411217519756939 ], [ 117.315171014205248, 42.411217586583469 ], [ 117.315171036749376, 42.411222089525104 ], [ 117.315158883646916, 42.411222122936437 ], [ 117.315158928733382, 42.411231128819693 ], [ 117.315152852181285, 42.411231145524887 ], [ 117.315152874724106, 42.411235648466523 ], [ 117.315146798171568, 42.41123566517139 ], [ 117.315146843256343, 42.411244671054639 ], [ 117.315152919809762, 42.411244654349758 ], [ 117.315152942352597, 42.41124915729138 ] ], [ [ 117.315152919809762, 42.411244654349758 ], [ 117.315152897266941, 42.411240151408144 ], [ 117.315158973819905, 42.41124013470295 ], [ 117.315158996363181, 42.411244637644565 ], [ 117.315152919809762, 42.411244654349758 ] ] ] } },
{ "type": "Feature", "properties": { "crown_id": 428, "tree_id": "429", "top_h_m": 16.945, "H_95_Mean": 17.2217, "DBH": 21.3563, "Carbon_kg": 78.557152, "area_m2": 7.25 }, "geometry": { "type": "Polygon", "coordinates": [ [ [ 117.315207586243517, 42.411240001049791 ], [ 117.315213662796438, 42.411239984341698 ], [ 117.315213617702099, 42.411230978458491 ], [ 117.315219694254154, 42.411230961750078 ], [ 117.315219671706572, 42.411226458808478 ], [ 117.315231824809786, 42.411226425390701 ], [ 117.315231802261337, 42.411221922449094 ], [ 117.315237878812496, 42.411221905739723 ], [ 117.315237856263622, 42.411217402798115 ], [ 117.315225703162142, 42.411217436216532 ], [ 117.315225658066112, 42.411208430333318 ], [ 117.315219581516232, 42.411208447042029 ], [ 117.315219536421111, 42.411199441158793 ], [ 117.315201306774057, 42.411199491282993 ], [ 117.315201442051688, 42.411226508932735 ], [ 117.315207518603316, 42.411226492224976 ], [ 117.315207586243517, 42.411240001049791 ] ] ] } },
{ "type": "Feature", "properties": { "crown_id": 440, "tree_id": "441", "top_h_m": 18.06, "H_95_Mean": 18.2351, "DBH": 29.5527, "Carbon_kg": 156.386924, "area_m2": 23.0 }, "geometry": { "type": "Polygon", "coordinates": [ [ [ 117.315104307382299, 42.411244787979754 ], [ 117.31511038393576, 42.411244771277126 ], [ 117.31511036139598, 42.41124026833549 ], [ 117.315140744160971, 42.411240184817565 ], [ 117.315140699077062, 42.411231178934294 ], [ 117.315146775629174, 42.411231162229761 ], [ 117.315146753086793, 42.411226659288133 ], [ 117.315152829638478, 42.411226642583266 ], [ 117.315152807095672, 42.411222139641623 ], [ 117.315146730544427, 42.411222156346497 ], [ 117.315146708002061, 42.41121765340484 ], [ 117.315140631451243, 42.41121767010938 ], [ 117.315140608909331, 42.411213167167737 ], [ 117.315134532358925, 42.411213183871943 ], [ 117.315134442193028, 42.411195172105309 ], [ 117.315128365644384, 42.411195188809195 ], [ 117.315128320562309, 42.411186182925853 ], [ 117.315116167466741, 42.411186216332631 ], [ 117.315116144926591, 42.411181713390938 ], [ 117.315110068379241, 42.411181730093858 ], [ 117.315110090918935, 42.411186233035558 ], [ 117.315085784727714, 42.411186299843969 ], [ 117.315085852341696, 42.411199808669025 ], [ 117.315079775792569, 42.411199825370332 ], [ 117.315079798330132, 42.411204328312024 ], [ 117.315091951429224, 42.411204294909084 ], [ 117.315092041583043, 42.411222306675761 ], [ 117.315098118134316, 42.4112222899738 ], [ 117.315098140673228, 42.41122679291545 ], [ 117.315104217224928, 42.411226776213162 ], [ 117.315104307382299, 42.411244787979754 ] ] ] } },
{ "type": "Feature", "properties": { "crown_id": 461, "tree_id": "462", "top_h_m": 18.944, "H_95_Mean": 19.1208, "DBH": 30.2295, "Carbon_kg": 168.346154, "area_m2": 23.0 }, "geometry": { "type": "Polygon", "coordinates": [ [ [ 117.315280437222469, 42.411226291706683 ], [ 117.315292590325598, 42.411226258282447 ], [ 117.315292455008844, 42.411199240632946 ], [ 117.315298531557772, 42.411199223920363 ], [ 117.315298509004563, 42.411194720978777 ], [ 117.315292432456062, 42.411194737691361 ], [ 117.315292409903293, 42.411190234749753 ], [ 117.315286333355232, 42.41119025146201 ], [ 117.315286288250562, 42.411181245578781 ], [ 117.315280211703339, 42.411181262290718 ], [ 117.315280166599578, 42.411172256407482 ], [ 117.315274090053222, 42.411172273119078 ], [ 117.315274112604683, 42.411176776060699 ], [ 117.315255882964294, 42.411176826193568 ], [ 117.315255905514448, 42.411181329135196 ], [ 117.315243752419946, 42.411181362555503 ], [ 117.315243774969218, 42.411185865497146 ], [ 117.315237698421541, 42.411185882206809 ], [ 117.315237720970401, 42.411190385148437 ], [ 117.315225567874123, 42.411190418566832 ], [ 117.315225635518104, 42.411203927391703 ], [ 117.315231712067543, 42.411203910682659 ], [ 117.315231757164426, 42.41121291656588 ], [ 117.315243910265025, 42.411212883146824 ], [ 117.31524395536367, 42.411221889030024 ], [ 117.315280414670539, 42.411221788765104 ], [ 117.315280437222469, 42.411226291706683 ] ] ] } },
{ "type": "Feature", "properties": { "crown_id": 470, "tree_id": "471", "top_h_m": 17.126, "H_95_Mean": 17.1093, "DBH": 25.6746, "Carbon_kg": 113.422169, "area_m2": 15.0 }, "geometry": { "type": "MultiPolygon", "coordinates": [ [ [ [ 117.315134374568629, 42.411181663280296 ], [ 117.315134419651542, 42.411190669163652 ], [ 117.31514049619976, 42.411190652459446 ], [ 117.315140586367392, 42.411208664226081 ], [ 117.315146662917329, 42.411208647521555 ], [ 117.315146685459709, 42.411213150463212 ], [ 117.315152762010058, 42.411213133758338 ], [ 117.315152784552865, 42.411217636699988 ], [ 117.315164937654458, 42.411217603289295 ], [ 117.315164915110785, 42.411213100347652 ], [ 117.315195297862516, 42.411213016815324 ], [ 117.315195185133405, 42.411190502107146 ], [ 117.315189108585244, 42.411190518814252 ], [ 117.315189086039865, 42.411186015872609 ], [ 117.315158703301165, 42.41118609940326 ], [ 117.31515868075796, 42.411181596461581 ], [ 117.315134374568629, 42.411181663280296 ] ] ], [ [ [ 117.315134374568629, 42.411181663280296 ], [ 117.315134352027172, 42.411177160338617 ], [ 117.315128275480262, 42.411177177042482 ], [ 117.315128298021278, 42.411181679984175 ], [ 117.315134374568629, 42.411181663280296 ] ] ] ] } }
]
}
