{
"type": "FeatureCollection",
"name": "tile_16_19",
"crs": { "type": "name", "properties": { "name": "urn:ogc:def:crs:OGC:1.3:CRS84" } },
"features": [
{ "type": "Feature", "properties": { "crown_id": 6385, "tree_id": "6391", "top_h_m": 20.029, "H_95_Mean": 20.9063, "DBH": 30.424, "Carbon_kg": 179.782994, "area_m2": 20.0 }, "geometry": { "type": "MultiPolygon", "coordinates": [ [ [ [ 117.314344097629217, 42.408684665393586 ], [ 117.31435625024281, 42.408684632070219 ], [ 117.314356227758992, 42.408680129126246 ], [ 117.314368380371675, 42.408680095801607 ], [ 117.314368335402293, 42.408671089913632 ], [ 117.314386564318667, 42.408671039924272 ], [ 117.314386474374757, 42.408653028148329 ], [ 117.314392550678477, 42.408653011484567 ], [ 117.314392528192059, 42.408648508540587 ], [ 117.314380375585515, 42.408648541867755 ], [ 117.314380353099992, 42.408644038923761 ], [ 117.314319590071193, 42.40864420554032 ], [ 117.314319724958366, 42.408671223204436 ], [ 117.314331877569373, 42.40867118988367 ], [ 117.314331900051457, 42.408675692827664 ], [ 117.314337976357393, 42.408675676166794 ], [ 117.314337998839918, 42.408680179110789 ], [ 117.314344075146266, 42.408680162449599 ], [ 117.314344097629217, 42.408684665393586 ] ] ], [ [ [ 117.314392550678477, 42.408653011484567 ], [ 117.314392573164881, 42.408657514428569 ], [ 117.314398649469027, 42.40865749776448 ], [ 117.314398626982182, 42.408652994820486 ], [ 117.314392550678477, 42.408653011484567 ] ] ] ] } },
{ "type": "Feature", "properties": { "crown_id": 6406, "tree_id": "6412", "top_h_m": 20.78, "H_95_Mean": 22.109, "DBH": 32.4749, "Carbon_kg": 211.942564, "area_m2": 23.25 }, "geometry": { "type": "Polygon", "coordinates": [ [ [ 117.314508157910794, 42.408684215419548 ], [ 117.314514234217469, 42.408684198749334 ], [ 117.314514189227197, 42.408675192861502 ], [ 117.314526341838757, 42.408675159520115 ], [ 117.31452638683075, 42.408684165407934 ], [ 117.314532463137368, 42.408684148736754 ], [ 117.31453235065527, 42.408661634017186 ], [ 117.314538426959729, 42.408661617345686 ], [ 117.314538471953441, 42.408670623233526 ], [ 117.314550624564077, 42.408670589889567 ], [ 117.314550647061793, 42.408675092833477 ], [ 117.314562799673283, 42.408675059488225 ], [ 117.3145627771747, 42.40867055654433 ], [ 117.314574929785294, 42.408670523197792 ], [ 117.314574907285845, 42.408666020253897 ], [ 117.314605288810057, 42.408665936881953 ], [ 117.314605266308448, 42.408661433938057 ], [ 117.314593113699644, 42.4086614672878 ], [ 117.314593046197402, 42.408647958456093 ], [ 117.314580893591156, 42.408647991804514 ], [ 117.314580758592029, 42.408620974140973 ], [ 117.314568605991013, 42.408621007488087 ], [ 117.31456865098896, 42.408630013375969 ], [ 117.314562574687557, 42.408630030049054 ], [ 117.314562619684679, 42.408639035936915 ], [ 117.314556543382409, 42.408639052609686 ], [ 117.314556565880522, 42.40864355555361 ], [ 117.314550489577826, 42.408643572226055 ], [ 117.314550512075513, 42.408648075169978 ], [ 117.314532283166074, 42.408648125185401 ], [ 117.314532260669679, 42.408643622241456 ], [ 117.314526184366954, 42.408643638912601 ], [ 117.314526206862908, 42.408648141856546 ], [ 117.314520130559757, 42.408648158527384 ], [ 117.314520153055284, 42.408652661471329 ], [ 117.314508000448043, 42.408652694812048 ], [ 117.314508067932067, 42.40866620364384 ], [ 117.314514144236981, 42.40866618697364 ], [ 117.314514166732067, 42.408670689917571 ], [ 117.314508090426727, 42.408670706587785 ], [ 117.314508157910794, 42.408684215419548 ] ], [ [ 117.314514144236981, 42.40866618697364 ], [ 117.314514121741851, 42.408661684029717 ], [ 117.314520198046338, 42.408661667359191 ], [ 117.314520220541894, 42.408666170303121 ], [ 117.314514144236981, 42.40866618697364 ] ] ] } },
{ "type": "Feature", "properties": { "crown_id": 6437, "tree_id": "6443", "top_h_m": 21.447, "H_95_Mean": 21.911, "DBH": 30.3817, "Carbon_kg": 184.326463, "area_m2": 18.25 }, "geometry": { "type": "Polygon", "coordinates": [ [ [ 117.314410802077276, 42.408657464435358 ], [ 117.314453336206086, 42.408657347773278 ], [ 117.314453291224567, 42.408648341885346 ], [ 117.314459367527803, 42.408648325218046 ], [ 117.314459390018982, 42.408652828162012 ], [ 117.314471542626293, 42.408652794826445 ], [ 117.314471497642174, 42.408643788938534 ], [ 117.314477573944956, 42.408643772270274 ], [ 117.314477551452484, 42.408639269326315 ], [ 117.314471475150143, 42.408639285994568 ], [ 117.314471452658125, 42.408634783050601 ], [ 117.31446537635621, 42.408634799718527 ], [ 117.314465308881424, 42.408621290886579 ], [ 117.314459232580845, 42.408621307554185 ], [ 117.31445921008968, 42.40861680461019 ], [ 117.314434904888927, 42.40861687127736 ], [ 117.314434927378329, 42.408621374221369 ], [ 117.314416698476407, 42.408621424218374 ], [ 117.31441672096453, 42.408625927162376 ], [ 117.31441064466344, 42.40862594382741 ], [ 117.314410712126488, 42.408639452659415 ], [ 117.314416788428886, 42.408639435994374 ], [ 117.314416855893285, 42.408652944826329 ], [ 117.314410779589593, 42.40865296149137 ], [ 117.314410802077276, 42.408657464435358 ] ], [ [ 117.314447214921358, 42.40864835855232 ], [ 117.314447192431047, 42.408643855608339 ], [ 117.314453268733843, 42.408643838941373 ], [ 117.314453291224567, 42.408648341885346 ], [ 117.314447214921358, 42.40864835855232 ] ] ] } },
{ "type": "Feature", "properties": { "crown_id": 6454, "tree_id": "6460", "top_h_m": 21.9, "H_95_Mean": 22.383, "DBH": 31.5221, "Carbon_kg": 201.055673, "area_m2": 20.25 }, "geometry": { "type": "Polygon", "coordinates": [ [ [ 117.314489816523903, 42.408661750708589 ], [ 117.314501969132891, 42.408661717369796 ], [ 117.314501901650218, 42.408648208537969 ], [ 117.314514054256563, 42.408648175197911 ], [ 117.31451403176149, 42.408643672253959 ], [ 117.314520108064215, 42.408643655583454 ], [ 117.31452004057769, 42.408630146751605 ], [ 117.314526116879108, 42.408630130080773 ], [ 117.314526094383183, 42.408625627136821 ], [ 117.314520018082177, 42.408625643807646 ], [ 117.314519928100239, 42.408607632031782 ], [ 117.31450777550171, 42.408607665372443 ], [ 117.314507753007092, 42.40860316242847 ], [ 117.31447129521402, 42.408603262442703 ], [ 117.31447143016608, 42.408630280106621 ], [ 117.314477506467554, 42.408630263438361 ], [ 117.314477528960012, 42.408634766382342 ], [ 117.314483605261913, 42.408634749713762 ], [ 117.31448367274065, 42.408648258545647 ], [ 117.314477596437428, 42.408648275214226 ], [ 117.314477641422414, 42.408657281102137 ], [ 117.314489794030564, 42.408657247764651 ], [ 117.314489816523903, 42.408661750708589 ] ] ] } },
{ "type": "Feature", "properties": { "crown_id": 6475, "tree_id": "6481", "top_h_m": 20.191, "H_95_Mean": 20.3152, "DBH": 28.4498, "Carbon_kg": 154.403029, "area_m2": 16.25 }, "geometry": { "type": "Polygon", "coordinates": [ [ [ 117.314386429402845, 42.408644022260333 ], [ 117.314398582008522, 42.408643988932511 ], [ 117.31439851454806, 42.408630480100513 ], [ 117.314392438246514, 42.408630496764573 ], [ 117.314392415760139, 42.408625993820557 ], [ 117.314386339459048, 42.408626010484298 ], [ 117.314386316973113, 42.408621507540275 ], [ 117.314374164371756, 42.40862154086679 ], [ 117.314374141886674, 42.40861703792276 ], [ 117.314355912985903, 42.408617087910095 ], [ 117.314355890502156, 42.408612584966065 ], [ 117.314325509002956, 42.408612668271829 ], [ 117.314325531484513, 42.40861717121588 ], [ 117.314319455184233, 42.408617187876075 ], [ 117.314319567590019, 42.40863970259629 ], [ 117.314386406916881, 42.408639519316331 ], [ 117.314386429402845, 42.408644022260333 ] ] ] } },
{ "type": "Feature", "properties": { "crown_id": 6476, "tree_id": "6482", "top_h_m": 19.96, "H_95_Mean": 20.9954, "DBH": 26.1339, "Carbon_kg": 132.676595, "area_m2": 11.0 }, "geometry": { "type": "Polygon", "coordinates": [ [ [ 117.314538336972404, 42.408643605569985 ], [ 117.314544413275129, 42.40864358889818 ], [ 117.314544390777868, 42.408639085954235 ], [ 117.314550467080139, 42.408639069282124 ], [ 117.314550444582437, 42.408634566338179 ], [ 117.314556520884281, 42.408634549665742 ], [ 117.314556475888054, 42.408625543777866 ], [ 117.314562552189031, 42.408625527105116 ], [ 117.314562507191965, 42.408616521217219 ], [ 117.314556430891855, 42.408616537889976 ], [ 117.314556340899514, 42.40859852611414 ], [ 117.314525959407689, 42.408598609473025 ], [ 117.314526071887244, 42.408621124192862 ], [ 117.314532148187809, 42.408621107521718 ], [ 117.314532215676905, 42.408634616353574 ], [ 117.314526139375047, 42.408634633024725 ], [ 117.314526161871015, 42.40863913596867 ], [ 117.31453831447557, 42.408639102626047 ], [ 117.314538336972404, 42.408643605569985 ] ] ] } },
{ "type": "Feature", "properties": { "crown_id": 6520, "tree_id": "6526", "top_h_m": 21.64, "H_95_Mean": 21.905, "DBH": 23.2838, "Carbon_kg": 107.798054, "area_m2": 6.5 }, "geometry": { "type": "Polygon", "coordinates": [ [ [ 117.314392393273778, 42.408621490876548 ], [ 117.314404545875107, 42.408621457548101 ], [ 117.314404523387864, 42.408616954604085 ], [ 117.314416675988312, 42.408616921274366 ], [ 117.314416631012108, 42.408607915386341 ], [ 117.314410554712765, 42.408607932051368 ], [ 117.314410487249816, 42.408594423219284 ], [ 117.314386182057618, 42.408594489876101 ], [ 117.314386227029416, 42.408603495764176 ], [ 117.314380150730472, 42.40860351242759 ], [ 117.31438021818694, 42.408617021259666 ], [ 117.314392370787402, 42.408616987932525 ], [ 117.314392393273778, 42.408621490876548 ] ], [ [ 117.31439844708764, 42.408616971268465 ], [ 117.314398424600867, 42.408612468324449 ], [ 117.314404500900636, 42.408612451660076 ], [ 117.314404523387864, 42.408616954604085 ], [ 117.31439844708764, 42.408616971268465 ] ] ] } },
{ "type": "Feature", "properties": { "crown_id": 6534, "tree_id": "6540", "top_h_m": 21.797, "H_95_Mean": 22.0696, "DBH": 27.6535, "Carbon_kg": 153.138157, "area_m2": 12.5 }, "geometry": { "type": "Polygon", "coordinates": [ [ [ 117.314422752288522, 42.408616904609019 ], [ 117.314428828588731, 42.408616887943353 ], [ 117.314428806099755, 42.408612384999351 ], [ 117.314465263898285, 42.408612284998604 ], [ 117.314465196423598, 42.408598776166613 ], [ 117.314471272722031, 42.408598759498709 ], [ 117.314471205246079, 42.408585250666697 ], [ 117.314416518571747, 42.408585400666212 ], [ 117.314416608524041, 42.408603412442325 ], [ 117.314422684822944, 42.408603395776993 ], [ 117.314422752288522, 42.408616904609019 ] ] ] } },
{ "type": "Feature", "properties": { "crown_id": 6546, "tree_id": "6552", "top_h_m": 22.326, "H_95_Mean": 22.2089, "DBH": 31.2045, "Carbon_kg": 196.086002, "area_m2": 19.75 }, "geometry": { "type": "Polygon", "coordinates": [ [ [ 117.314361966801982, 42.408612568303937 ], [ 117.314374119401634, 42.40861253497873 ], [ 117.314374051946501, 42.408599026146618 ], [ 117.314380128245006, 42.408599009483545 ], [ 117.314380060788622, 42.408585500651419 ], [ 117.314373984491411, 42.408585517314485 ], [ 117.314373894551352, 42.408567505538251 ], [ 117.314367818255874, 42.408567522200983 ], [ 117.314367795771318, 42.408563019256903 ], [ 117.31435564318123, 42.408563052581421 ], [ 117.31435562069754, 42.408558549637341 ], [ 117.31434954440293, 42.408558566299106 ], [ 117.314349521919681, 42.408554063355027 ], [ 117.314343445625482, 42.408554080016458 ], [ 117.314343468108319, 42.408558582960545 ], [ 117.31433739181368, 42.408558599621678 ], [ 117.314337414296048, 42.408563102565765 ], [ 117.314325261705918, 42.40856313588705 ], [ 117.314325284187433, 42.408567638831144 ], [ 117.314331360482953, 42.408567622170658 ], [ 117.314331562820783, 42.408608148667277 ], [ 117.314361944317795, 42.4086080653599 ], [ 117.314361966801982, 42.408612568303937 ] ] ] } },
{ "type": "Feature", "properties": { "crown_id": 6554, "tree_id": "6560", "top_h_m": 22.03, "H_95_Mean": 22.1838, "DBH": 24.0915, "Carbon_kg": 116.334625, "area_m2": 7.25 }, "geometry": { "type": "Polygon", "coordinates": [ [ [ 117.314513784315864, 42.408594139870338 ], [ 117.314556318401443, 42.408594023170188 ], [ 117.314556295903387, 42.408589520226222 ], [ 117.314544143308396, 42.408589553570721 ], [ 117.314544053319665, 42.408571541794792 ], [ 117.314525824432351, 42.408571591809114 ], [ 117.314525779440629, 42.408562585921096 ], [ 117.31451970314572, 42.408562602591886 ], [ 117.314519748136576, 42.408571608479896 ], [ 117.314513671840785, 42.408571625150365 ], [ 117.314513784315864, 42.408594139870338 ] ] ] } },
{ "type": "Feature", "properties": { "crown_id": 6573, "tree_id": "6579", "top_h_m": 21.592, "H_95_Mean": 22.7565, "DBH": 28.0561, "Carbon_kg": 160.549134, "area_m2": 12.5 }, "geometry": { "type": "MultiPolygon", "coordinates": [ [ [ [ 117.314507730512517, 42.408598659484475 ], [ 117.314507573050449, 42.408567138876521 ], [ 117.314513649345798, 42.408567122206364 ], [ 117.314513626850797, 42.408562619262348 ], [ 117.314507550555888, 42.408562635932498 ], [ 117.314507528061327, 42.408558132988482 ], [ 117.314477146588843, 42.408558216334356 ], [ 117.314477191573616, 42.408567222222409 ], [ 117.314471115278209, 42.408567238890619 ], [ 117.314471182754119, 42.408580747722681 ], [ 117.31447725905079, 42.408580731054457 ], [ 117.31447734902045, 42.408598742830463 ], [ 117.314507730512517, 42.408598659484475 ] ] ], [ [ [ 117.314519905604769, 42.408603129087808 ], [ 117.314519883109284, 42.408598626143835 ], [ 117.314513806810908, 42.408598642814319 ], [ 117.314513829305938, 42.408603145758299 ], [ 117.314519905604769, 42.408603129087808 ] ] ] ] } },
{ "type": "Feature", "properties": { "crown_id": 6584, "tree_id": "6590", "top_h_m": 22.524, "H_95_Mean": 22.6776, "DBH": 25.1668, "Carbon_kg": 128.702238, "area_m2": 8.25 }, "geometry": { "type": "Polygon", "coordinates": [ [ [ 117.314386159571711, 42.408589986932057 ], [ 117.314410464762204, 42.408589920275261 ], [ 117.314410419786952, 42.40858091438718 ], [ 117.314416496083666, 42.408580897722189 ], [ 117.314416451107576, 42.408571891834107 ], [ 117.314410374811686, 42.408571908499106 ], [ 117.314410352324074, 42.408567405555054 ], [ 117.314404276028654, 42.408567422219726 ], [ 117.314404253541468, 42.408562919275674 ], [ 117.314398177246446, 42.408562935940012 ], [ 117.314398132272999, 42.408553930051887 ], [ 117.314385979684701, 42.408553963379596 ], [ 117.314386024656415, 42.408562969267741 ], [ 117.314379948361406, 42.408562985931113 ], [ 117.314380038303156, 42.408580997707361 ], [ 117.314386114599941, 42.408580981043968 ], [ 117.314386159571711, 42.408589986932057 ] ] ] } },
{ "type": "Feature", "properties": { "crown_id": 6602, "tree_id": "6608", "top_h_m": 22.431, "H_95_Mean": 23.4096, "DBH": 32.793, "Carbon_kg": 223.580201, "area_m2": 21.75 }, "geometry": { "type": "Polygon", "coordinates": [ [ [ 117.314422572380423, 42.408580881056857 ], [ 117.314465106457419, 42.408580764390578 ], [ 117.314465016491312, 42.408562752614486 ], [ 117.314471092786277, 42.408562735946582 ], [ 117.314471047802357, 42.408553730058536 ], [ 117.314483200390541, 42.408553696721796 ], [ 117.314483177897728, 42.408549193777766 ], [ 117.314477101604083, 42.408549210446289 ], [ 117.314477034126995, 42.40853570161417 ], [ 117.314446652665239, 42.408535784951923 ], [ 117.314446630175055, 42.408531282007864 ], [ 117.314440553883117, 42.408531298674447 ], [ 117.314440598862632, 42.408540304562571 ], [ 117.314422369984186, 42.408540354560401 ], [ 117.314422392472622, 42.408544857504467 ], [ 117.314416316179361, 42.408544874169763 ], [ 117.314416361155409, 42.408553880057887 ], [ 117.314404208567154, 42.408553913387543 ], [ 117.314404231054311, 42.408558416331608 ], [ 117.314410307348865, 42.408558399666937 ], [ 117.314410329836491, 42.408562902610996 ], [ 117.314416406131471, 42.408562885946004 ], [ 117.314416428619523, 42.408567388890056 ], [ 117.314422504914944, 42.408567372224738 ], [ 117.314422572380423, 42.408580881056857 ] ] ] } },
{ "type": "Feature", "properties": { "crown_id": 6681, "tree_id": "6687", "top_h_m": 21.1, "H_95_Mean": 21.0278, "DBH": 26.4542, "Carbon_kg": 136.098448, "area_m2": 11.5 }, "geometry": { "type": "MultiPolygon", "coordinates": [ [ [ [ 117.314319162929749, 42.408558649603115 ], [ 117.314331315519041, 42.408558616282484 ], [ 117.3143312930371, 42.408554113338383 ], [ 117.314337369331312, 42.408554096677584 ], [ 117.314337346848902, 42.408549593733483 ], [ 117.31435557573019, 42.408549543749167 ], [ 117.314355598213865, 42.408554046693254 ], [ 117.314361674508035, 42.408554030031169 ], [ 117.314361629539803, 42.408545024142995 ], [ 117.3143555532465, 42.40854504080508 ], [ 117.314355530762853, 42.408540537860986 ], [ 117.314349454469962, 42.408540554522737 ], [ 117.314349431986727, 42.40853605157865 ], [ 117.314343355694277, 42.408536068240075 ], [ 117.314343288245908, 42.40852255940775 ], [ 117.314349364537065, 42.408522542746326 ], [ 117.314349319570667, 42.408513536858088 ], [ 117.31433109069981, 42.40851358684138 ], [ 117.314331068217911, 42.40850908389725 ], [ 117.314324991928061, 42.408509100557708 ], [ 117.314325126816897, 42.408536118222443 ], [ 117.314319050524418, 42.408536134882588 ], [ 117.314319073005464, 42.408540637826697 ], [ 117.314312996712559, 42.408540654486529 ], [ 117.314313064154476, 42.408554163318847 ], [ 117.314319140448674, 42.408554146659014 ], [ 117.314319162929749, 42.408558649603115 ] ] ], [ [ [ 117.314361674508035, 42.408554030031169 ], [ 117.314361696992165, 42.408558532975249 ], [ 117.314367773286762, 42.40855851631283 ], [ 117.314367750802219, 42.408554013368764 ], [ 117.314361674508035, 42.408554030031169 ] ] ] ] } },
{ "type": "Feature", "properties": { "crown_id": 6701, "tree_id": "6707", "top_h_m": 21.498, "H_95_Mean": 21.9217, "DBH": 28.8915, "Carbon_kg": 166.606064, "area_m2": 15.0 }, "geometry": { "type": "Polygon", "coordinates": [ [ [ 117.314373849581358, 42.408558499650105 ], [ 117.314379925875969, 42.40855848298704 ], [ 117.314379880905122, 42.408549477098894 ], [ 117.314410262373684, 42.408549393778813 ], [ 117.314410239886101, 42.40854489083474 ], [ 117.31440416359284, 42.408544907499405 ], [ 117.314404073644283, 42.408526895723092 ], [ 117.314397997352756, 42.408526912387416 ], [ 117.314397929892706, 42.408513403555148 ], [ 117.314355395860915, 42.408513520196337 ], [ 117.314355463311855, 42.408527029028683 ], [ 117.314349387020272, 42.408527045690427 ], [ 117.314349409503521, 42.408531548634542 ], [ 117.314355485795502, 42.408531531972784 ], [ 117.314355508279178, 42.408536034916885 ], [ 117.314361584571628, 42.408536018254814 ], [ 117.314361607055702, 42.408540521198908 ], [ 117.314367683348578, 42.408540504536511 ], [ 117.314367728317649, 42.40854951042467 ], [ 117.314373804611407, 42.408549493761946 ], [ 117.314373849581358, 42.408558499650105 ] ] ] } },
{ "type": "Feature", "properties": { "crown_id": 6702, "tree_id": "6708", "top_h_m": 17.993, "H_95_Mean": 19.0823, "DBH": 21.5895, "Carbon_kg": 85.318705, "area_m2": 6.25 }, "geometry": { "type": "Polygon", "coordinates": [ [ [ 117.314452706466994, 42.408531265340947 ], [ 117.314483087926561, 42.408531182001603 ], [ 117.314483020448236, 42.408517673169449 ], [ 117.314489096738825, 42.408517656500614 ], [ 117.314489051752432, 42.408508650612497 ], [ 117.314470822883237, 42.408508700618 ], [ 117.314470845375126, 42.40851320356208 ], [ 117.314446540214391, 42.408513270231573 ], [ 117.314446562704546, 42.408517773175667 ], [ 117.314452638995192, 42.408517756508765 ], [ 117.314452706466994, 42.408531265340947 ] ] ] } },
{ "type": "Feature", "properties": { "crown_id": 6703, "tree_id": "6709", "top_h_m": 19.826, "H_95_Mean": 20.8691, "DBH": 34.311, "Carbon_kg": 228.841143, "area_m2": 32.0 }, "geometry": { "type": "Polygon", "coordinates": [ [ [ 117.314531878231847, 42.408567072193989 ], [ 117.314537954527168, 42.408567055522568 ], [ 117.314537909533712, 42.408558049634564 ], [ 117.314550062122606, 42.408558016290733 ], [ 117.314550039625004, 42.408553513346725 ], [ 117.314537887036991, 42.408553546690555 ], [ 117.314537819546842, 42.408540037858515 ], [ 117.31455604842499, 42.408539987842332 ], [ 117.314556003428976, 42.4085309819543 ], [ 117.314562079720815, 42.408530965281592 ], [ 117.314562057222375, 42.408526462337583 ], [ 117.314568133513788, 42.408526445664563 ], [ 117.31456806601723, 42.408512936832501 ], [ 117.314580218597385, 42.408512903485509 ], [ 117.31458019609768, 42.408508400541493 ], [ 117.314574119808029, 42.408508417215145 ], [ 117.314574074809499, 42.408499411327078 ], [ 117.314519388210243, 42.408499561375443 ], [ 117.314519410705628, 42.408504064319501 ], [ 117.314507258127094, 42.408504097660035 ], [ 117.314507303116059, 42.408513103548145 ], [ 117.314495150535777, 42.408513136887407 ], [ 117.314495195523037, 42.40852214277551 ], [ 117.314489119232022, 42.408522159444672 ], [ 117.314489186711654, 42.408535668276812 ], [ 117.314483110419346, 42.408535684945655 ], [ 117.314483155404929, 42.408544690833736 ], [ 117.314489231698133, 42.408544674164887 ], [ 117.314489276684583, 42.408553680052954 ], [ 117.314513581860837, 42.40855361337433 ], [ 117.31451360435581, 42.408558116318339 ], [ 117.314531833239229, 42.408558066306 ], [ 117.314531878231847, 42.408567072193989 ] ], [ [ 117.314501339296328, 42.408535634938161 ], [ 117.314501271814066, 42.408522126106035 ], [ 117.314519500687098, 42.408522076095686 ], [ 117.314519568173253, 42.408535584927783 ], [ 117.314501339296328, 42.408535634938161 ] ] ] } },
{ "type": "Feature", "properties": { "crown_id": 6771, "tree_id": "6777", "top_h_m": 21.796, "H_95_Mean": 22.6369, "DBH": 37.5809, "Carbon_kg": 288.469866, "area_m2": 39.25 }, "geometry": { "type": "Polygon", "coordinates": [ [ [ 117.314410217398532, 42.408540387890675 ], [ 117.314416293691366, 42.408540371225705 ], [ 117.314416271203342, 42.408535868281632 ], [ 117.314434500080509, 42.408535818284783 ], [ 117.314434455101889, 42.40852681239663 ], [ 117.3144466076849, 42.408526779063799 ], [ 117.314446585194716, 42.40852227611974 ], [ 117.314440508903658, 42.408522292786309 ], [ 117.314440418944784, 42.408504281009982 ], [ 117.314428266366122, 42.408504314342153 ], [ 117.314428153921966, 42.408481799621647 ], [ 117.314434230209145, 42.408481782955739 ], [ 117.314434185230652, 42.408472777067516 ], [ 117.314428108944355, 42.408472793733409 ], [ 117.314428063966758, 42.408463787845179 ], [ 117.314403758824994, 42.408463854505555 ], [ 117.314403736337965, 42.408459351561419 ], [ 117.3143915837679, 42.408459384889667 ], [ 117.314391628740282, 42.408468390777941 ], [ 117.314385552454368, 42.408468407441589 ], [ 117.314385597425911, 42.408477413329862 ], [ 117.314373444852365, 42.408477446656207 ], [ 117.314373467337262, 42.408481949600343 ], [ 117.314355238475599, 42.408481999587444 ], [ 117.314355283442808, 42.408491005475724 ], [ 117.314330978290386, 42.408491072120697 ], [ 117.314331023254141, 42.408500078008991 ], [ 117.314318870676161, 42.408500111329552 ], [ 117.314318893157164, 42.408504614273689 ], [ 117.314337122025449, 42.40850456429235 ], [ 117.314337144507775, 42.40850906723648 ], [ 117.314403983695811, 42.408508883946723 ], [ 117.314404051157155, 42.408522392779005 ], [ 117.314410127448255, 42.408522376114369 ], [ 117.314410217398532, 42.408540387890675 ] ] ] } }
]
}
