{
"type": "FeatureCollection",
"name": "tile_18_8",
"crs": { "type": "name", "properties": { "name": "urn:ogc:def:crs:OGC:1.3:CRS84" } },
"features": [
{ "type": "Feature", "properties": { "crown_id": 7108, "tree_id": "7114", "top_h_m": 21.505, "H_95_Mean": 21.4619, "DBH": 30.0858, "Carbon_kg": 178.525898, "area_m2": 18.25 }, "geometry": { "type": "MultiPolygon", "coordinates": [ [ [ [ 117.31186930047916, 42.408340190167429 ], [ 117.311869322784844, 42.408344693112745 ], [ 117.31187539906027, 42.408344676582509 ], [ 117.311875376754145, 42.408340173637193 ], [ 117.31186930047916, 42.408340190167429 ] ] ], [ [ [ 117.31186930047916, 42.408340190167429 ], [ 117.311869055116887, 42.40829065776866 ], [ 117.311856902576451, 42.40829069082811 ], [ 117.311856924881226, 42.408295193773469 ], [ 117.311850848610575, 42.408295210302718 ], [ 117.311850826306241, 42.408290707357352 ], [ 117.311838673765806, 42.408290740414884 ], [ 117.311838651462324, 42.408286237469504 ], [ 117.311832575192525, 42.408286253997773 ], [ 117.311832642101621, 42.408299762833913 ], [ 117.311826565830529, 42.408299779361869 ], [ 117.311826588133101, 42.408304282307242 ], [ 117.311814435590023, 42.408304315362209 ], [ 117.311814457891757, 42.408308818307567 ], [ 117.31180838161977, 42.408308834834571 ], [ 117.311808426222399, 42.408317840725317 ], [ 117.31182665504096, 42.408317791143332 ], [ 117.311826699646204, 42.408326797034057 ], [ 117.311844928467337, 42.408326747449145 ], [ 117.311844950771274, 42.408331250394497 ], [ 117.311851027045421, 42.408331233865539 ], [ 117.311851049349784, 42.408335736810891 ], [ 117.311857125624343, 42.40833572028162 ], [ 117.311857147929175, 42.408340223226944 ], [ 117.31186930047916, 42.408340190167429 ] ] ], [ [ [ 117.31187539906027, 42.408344676582509 ], [ 117.311875421366381, 42.408349179527825 ], [ 117.311881497642247, 42.408349162997261 ], [ 117.311881475335667, 42.408344660051945 ], [ 117.31187539906027, 42.408344676582509 ] ] ] ] } },
{ "type": "Feature", "properties": { "crown_id": 7170, "tree_id": "7176", "top_h_m": 20.234, "H_95_Mean": 20.5807, "DBH": 28.5114, "Carbon_kg": 156.27312, "area_m2": 16.0 }, "geometry": { "type": "Polygon", "coordinates": [ [ [ 117.311765870013957, 42.408313453459947 ], [ 117.311778022558869, 42.408313420410131 ], [ 117.311778000259721, 42.408308917464744 ], [ 117.311784076531737, 42.408308900939353 ], [ 117.311784009633072, 42.408295392103177 ], [ 117.31177793336235, 42.408295408628568 ], [ 117.311777911063231, 42.408290905683167 ], [ 117.311765758522668, 42.408290938732954 ], [ 117.311765669329702, 42.408272926951305 ], [ 117.311753516792592, 42.408272959999799 ], [ 117.311753561387334, 42.408281965890637 ], [ 117.311729256309548, 42.408282031983759 ], [ 117.31172923401391, 42.408277529038337 ], [ 117.311711005206845, 42.408277578604775 ], [ 117.311711138972839, 42.408304596277368 ], [ 117.311717215244499, 42.408304579755523 ], [ 117.3117171929497, 42.408300076810107 ], [ 117.311741498034479, 42.408300010719508 ], [ 117.311741520331012, 42.408304513664909 ], [ 117.311747596602615, 42.408304497141465 ], [ 117.311747618899574, 42.408309000086859 ], [ 117.311765847715662, 42.408308950514567 ], [ 117.311765870013957, 42.408313453459947 ] ] ] } },
{ "type": "Feature", "properties": { "crown_id": 7204, "tree_id": "7210", "top_h_m": 21.542, "H_95_Mean": 21.4405, "DBH": 29.965, "Carbon_kg": 176.979654, "area_m2": 18.0 }, "geometry": { "type": "Polygon", "coordinates": [ [ [ 117.311796251376222, 42.408313370832985 ], [ 117.311802327648635, 42.408313354306621 ], [ 117.311802283046902, 42.408304348415875 ], [ 117.311808359318462, 42.408304331889205 ], [ 117.311808337017155, 42.408299828943825 ], [ 117.311820489559395, 42.408299795889512 ], [ 117.31182046725722, 42.408295292944125 ], [ 117.311826543527914, 42.408295276416489 ], [ 117.311826498922727, 42.408286270525728 ], [ 117.311820422652914, 42.408286287053365 ], [ 117.311820400350769, 42.408281784107984 ], [ 117.311814324081396, 42.40828180063528 ], [ 117.311814234874575, 42.408263788853688 ], [ 117.311808158606937, 42.408263805380663 ], [ 117.311808091703213, 42.408250296544409 ], [ 117.311795939170494, 42.408250329597372 ], [ 117.311795961470864, 42.408254832542795 ], [ 117.311789885204078, 42.408254849068804 ], [ 117.311789907504036, 42.408259352014227 ], [ 117.311771678702314, 42.408259401590307 ], [ 117.31177170100095, 42.408263904535744 ], [ 117.311765624733269, 42.40826392106046 ], [ 117.311765647031493, 42.408268424005882 ], [ 117.311771723299614, 42.40826840748116 ], [ 117.311771812494257, 42.408286419262829 ], [ 117.311783965033953, 42.408286386212389 ], [ 117.311783987333513, 42.408290889157783 ], [ 117.31179006360378, 42.408290872632087 ], [ 117.311790152803752, 42.408308884413643 ], [ 117.311796229075767, 42.408308867887605 ], [ 117.311796251376222, 42.408313370832985 ] ] ] } },
{ "type": "Feature", "properties": { "crown_id": 7258, "tree_id": "7264", "top_h_m": 20.9, "H_95_Mean": 20.4604, "DBH": 38.8494, "Carbon_kg": 290.5302, "area_m2": 53.75 }, "geometry": { "type": "Polygon", "coordinates": [ [ [ 117.311656519399193, 42.408318253795791 ], [ 117.311662595672203, 42.408318237276831 ], [ 117.311662573381298, 42.408313734331401 ], [ 117.31168080219895, 42.408313684772622 ], [ 117.311680779906752, 42.408309181827185 ], [ 117.311686856178866, 42.408309165306953 ], [ 117.311686833886228, 42.40830466236153 ], [ 117.311692910157916, 42.408304645840964 ], [ 117.311692887864851, 42.408300142895541 ], [ 117.311705040407304, 42.408300109853471 ], [ 117.311704906643925, 42.408273092180842 ], [ 117.311735287986878, 42.408273009570095 ], [ 117.311735310282927, 42.408277512515525 ], [ 117.311747462820946, 42.408277479468978 ], [ 117.3117474182271, 42.408268473578119 ], [ 117.311759570763371, 42.408268440530286 ], [ 117.311759526167805, 42.408259434639426 ], [ 117.311765602435059, 42.408259418115023 ], [ 117.31176558013685, 42.408254915169593 ], [ 117.31175950387005, 42.408254931693989 ], [ 117.311759481572281, 42.408250428748552 ], [ 117.311741252773103, 42.408250478319786 ], [ 117.311741230476628, 42.408245975374335 ], [ 117.311735154210666, 42.408245991897445 ], [ 117.311735109618624, 42.408236986006514 ], [ 117.311729033353529, 42.408237002529283 ], [ 117.311729011057949, 42.408232499583825 ], [ 117.311722934793281, 42.408232516106267 ], [ 117.311722912498126, 42.408228013160794 ], [ 117.311716836233899, 42.408228029682924 ], [ 117.311716791644514, 42.408219023791965 ], [ 117.311692486590957, 42.408219089877207 ], [ 117.31169253117686, 42.408228095768195 ], [ 117.311686454912575, 42.408228112288704 ], [ 117.311686477205114, 42.408232615234191 ], [ 117.311668248410982, 42.4082326647938 ], [ 117.311668270702185, 42.408237167739294 ], [ 117.311662194437034, 42.408237184258525 ], [ 117.311662216727839, 42.408241687204018 ], [ 117.311650064196641, 42.408241720241527 ], [ 117.311650153356382, 42.408259732023467 ], [ 117.311631924554334, 42.408259781577335 ], [ 117.311631969131639, 42.408268787468302 ], [ 117.311644121668095, 42.408268754432711 ], [ 117.311644099378555, 42.408264251487225 ], [ 117.311656251914116, 42.408264218450341 ], [ 117.311656274204509, 42.408268721395814 ], [ 117.311662350472744, 42.408268704876896 ], [ 117.311662372763564, 42.408273207822361 ], [ 117.311668449032197, 42.408273191303117 ], [ 117.311668515906035, 42.408286700139485 ], [ 117.311662439636095, 42.408286716658743 ], [ 117.311662417345246, 42.408282213713285 ], [ 117.311656341075746, 42.408282230232224 ], [ 117.311656363366154, 42.408286733177675 ], [ 117.31163813455629, 42.40828678273256 ], [ 117.311638156845405, 42.408291285678018 ], [ 117.311650309386181, 42.408291252641746 ], [ 117.311650331676177, 42.40829575558719 ], [ 117.311644255405355, 42.408295772105497 ], [ 117.311644299984494, 42.408304777996413 ], [ 117.311650376256168, 42.408304761478107 ], [ 117.311650420836202, 42.408313767368981 ], [ 117.311656497108757, 42.408313750850347 ], [ 117.311656519399193, 42.408318253795791 ] ], [ [ 117.311686677838082, 42.408273141743429 ], [ 117.311686610960393, 42.408259632907047 ], [ 117.311704839762314, 42.408259583344496 ], [ 117.311704906643925, 42.408273092180842 ], [ 117.311686677838082, 42.408273141743429 ] ], [ [ 117.31165622962375, 42.408259715504876 ], [ 117.311656207333357, 42.408255212559389 ], [ 117.311662283600256, 42.408255196040471 ], [ 117.311662305891076, 42.408259698985958 ], [ 117.31165622962375, 42.408259715504876 ] ], [ [ 117.311656185042978, 42.40825070961391 ], [ 117.311656162752612, 42.408246206668416 ], [ 117.311662239018645, 42.408246190149505 ], [ 117.311662261309451, 42.408250693094992 ], [ 117.311656185042978, 42.40825070961391 ] ], [ [ 117.311698607441144, 42.408228079247351 ], [ 117.311698585147738, 42.408223576301864 ], [ 117.311704661411568, 42.408223559780716 ], [ 117.311704683705386, 42.408228062726195 ], [ 117.311698607441144, 42.408228079247351 ] ] ] } },
{ "type": "Feature", "properties": { "crown_id": 7259, "tree_id": "7265", "top_h_m": 19.913, "H_95_Mean": 19.7074, "DBH": 34.7834, "Carbon_kg": 227.400389, "area_m2": 37.5 }, "geometry": { "type": "Polygon", "coordinates": [ [ [ 117.311844727732122, 42.408286220940902 ], [ 117.311869032811259, 42.408286154823294 ], [ 117.311869010505617, 42.408281651877921 ], [ 117.311887239313592, 42.408281602286344 ], [ 117.311887217006685, 42.408277099340978 ], [ 117.311893293275574, 42.408277082809818 ], [ 117.311893248660866, 42.408268076919072 ], [ 117.311905401196881, 42.408268043855784 ], [ 117.311905334272254, 42.408254535019672 ], [ 117.311911410538954, 42.408254518487546 ], [ 117.311911388230314, 42.408250015542173 ], [ 117.311917464496574, 42.408249999009726 ], [ 117.311917442187507, 42.40824549606436 ], [ 117.311893137124201, 42.408245562192192 ], [ 117.311893092509578, 42.408236556301397 ], [ 117.311887016244611, 42.40823657283255 ], [ 117.311886993937719, 42.408232069887148 ], [ 117.311856612614946, 42.408232152538034 ], [ 117.311856590310285, 42.408227649592611 ], [ 117.311832285253686, 42.408227715707511 ], [ 117.311832329859627, 42.408236721598364 ], [ 117.311826253594603, 42.408236738126291 ], [ 117.311826275897133, 42.4082412410717 ], [ 117.311820199631669, 42.408241257599322 ], [ 117.311820221933758, 42.408245760544737 ], [ 117.311814145667853, 42.408245777072025 ], [ 117.311814212572912, 42.408259285908265 ], [ 117.31182028884011, 42.408259269380977 ], [ 117.311820378048623, 42.408277281162576 ], [ 117.311826454317583, 42.408277264634947 ], [ 117.311826476620141, 42.408281767580355 ], [ 117.311844705428243, 42.408281717995521 ], [ 117.311844727732122, 42.408286220940902 ] ] ] } },
{ "type": "Feature", "properties": { "crown_id": 7278, "tree_id": "7284", "top_h_m": 19.55, "H_95_Mean": 19.2227, "DBH": 25.0615, "Carbon_kg": 115.733589, "area_m2": 11.0 }, "geometry": { "type": "MultiPolygon", "coordinates": [ [ [ [ 117.311765535540459, 42.408245909278733 ], [ 117.31176555783864, 42.408250412224156 ], [ 117.311771634105028, 42.408250395699454 ], [ 117.311771611806392, 42.408245892754017 ], [ 117.311765535540459, 42.408245909278733 ] ] ], [ [ [ 117.311765535540459, 42.408245909278733 ], [ 117.311765513242278, 42.408241406333268 ], [ 117.311759436976757, 42.408241422857657 ], [ 117.311759370083507, 42.408227914021303 ], [ 117.311753293819308, 42.408227930545358 ], [ 117.311753182332851, 42.408205415817996 ], [ 117.311741029808744, 42.408205448865118 ], [ 117.311741007512339, 42.408200945919631 ], [ 117.311734931250697, 42.408200962442706 ], [ 117.311734908954733, 42.408196459497212 ], [ 117.311728832693532, 42.40819647601996 ], [ 117.31172885498907, 42.408200978965453 ], [ 117.311722778727443, 42.408200995487888 ], [ 117.311722823317666, 42.408210001378862 ], [ 117.31171067079265, 42.408210034422773 ], [ 117.31171069308688, 42.408214537368266 ], [ 117.311722845612778, 42.408214504324356 ], [ 117.311722890203001, 42.408223510215322 ], [ 117.311728966466831, 42.40822349369288 ], [ 117.311728988762383, 42.40822799663836 ], [ 117.31173506502661, 42.408227980115591 ], [ 117.311735087322631, 42.408232483061056 ], [ 117.3117411635873, 42.40823246653796 ], [ 117.311741208180166, 42.408241472428884 ], [ 117.311747284445701, 42.408241455905461 ], [ 117.311747306742603, 42.40824595885092 ], [ 117.311765535540459, 42.408245909278733 ] ] ] ] } },
{ "type": "Feature", "properties": { "crown_id": 7311, "tree_id": "7317", "top_h_m": 18.89, "H_95_Mean": 18.9686, "DBH": 32.8545, "Carbon_kg": 198.1702, "area_m2": 32.25 }, "geometry": { "type": "Polygon", "coordinates": [ [ [ 117.311777732670478, 42.408254882119842 ], [ 117.311783808937278, 42.408254865594479 ], [ 117.311783786637761, 42.408250362649056 ], [ 117.311789862904135, 42.408250346123374 ], [ 117.311789840604192, 42.408245843177951 ], [ 117.311808069401948, 42.408245793598979 ], [ 117.311808047100712, 42.408241290653557 ], [ 117.31181412336619, 42.408241274126603 ], [ 117.311814101064542, 42.408236771181173 ], [ 117.311820177329565, 42.408236754653899 ], [ 117.311820155027462, 42.408232251708462 ], [ 117.311826231292073, 42.408232235180861 ], [ 117.311826142082012, 42.408214223399135 ], [ 117.311813989556285, 42.408214256453981 ], [ 117.31181390034979, 42.408196244672169 ], [ 117.31180782408866, 42.408196261199109 ], [ 117.311807801787481, 42.408191758253636 ], [ 117.311795649266102, 42.408191791306535 ], [ 117.311795626965775, 42.40818728836107 ], [ 117.311783474445235, 42.408187321412676 ], [ 117.311783452145804, 42.408182818467196 ], [ 117.311753070846521, 42.408182901090562 ], [ 117.31175309314375, 42.408187404036056 ], [ 117.311740940623139, 42.408187437083157 ], [ 117.311740985215934, 42.408196442974145 ], [ 117.311747061477107, 42.40819642645075 ], [ 117.311747083773952, 42.408200929396244 ], [ 117.311759236297164, 42.408200896348475 ], [ 117.311759347785781, 42.408223411075831 ], [ 117.311765424049554, 42.408223394551456 ], [ 117.311765490944069, 42.408236903387824 ], [ 117.311771567209163, 42.408236886863115 ], [ 117.311771589507785, 42.408241389808559 ], [ 117.311777665773278, 42.408241373283545 ], [ 117.311777732670478, 42.408254882119842 ] ] ] } },
{ "type": "Feature", "properties": { "crown_id": 7367, "tree_id": "7373", "top_h_m": 20.092, "H_95_Mean": 20.4314, "DBH": 39.1904, "Carbon_kg": 295.444901, "area_m2": 55.75 }, "geometry": { "type": "Polygon", "coordinates": [ [ [ 117.31189919108229, 42.408241042715311 ], [ 117.311929572409213, 42.408240960053135 ], [ 117.311929505479469, 42.408227451216995 ], [ 117.311941658007598, 42.408227418149892 ], [ 117.311941591075296, 42.408213909313723 ], [ 117.311935514812546, 42.408213925847441 ], [ 117.311935470191898, 42.408204919956631 ], [ 117.311929393929987, 42.408204936490023 ], [ 117.311929349310248, 42.408195930599206 ], [ 117.311923273049217, 42.408195947132263 ], [ 117.311923183811501, 42.408177935350572 ], [ 117.311886726255651, 42.408178034542075 ], [ 117.311886703948844, 42.408173531596631 ], [ 117.311880627689959, 42.408173548127415 ], [ 117.311880605383578, 42.408169045181964 ], [ 117.311874529125134, 42.408169061712421 ], [ 117.31187450681918, 42.408164558766977 ], [ 117.311868430561162, 42.4081645752971 ], [ 117.311868408255677, 42.408160072351649 ], [ 117.311856255740452, 42.40816010541095 ], [ 117.31185627804507, 42.408164608356408 ], [ 117.311850201787024, 42.408164624885586 ], [ 117.311850246395394, 42.408173630776524 ], [ 117.311832017618613, 42.408173680362118 ], [ 117.311832062224425, 42.408182686253056 ], [ 117.311825985964617, 42.408182702780948 ], [ 117.311826008267076, 42.408187205726421 ], [ 117.311813855746578, 42.408187238781245 ], [ 117.31181387804817, 42.408191741726696 ], [ 117.311819954308859, 42.408191725199451 ], [ 117.311820043517088, 42.40820973698127 ], [ 117.311832196041934, 42.40820970392577 ], [ 117.311832262950759, 42.408223212762081 ], [ 117.311862644269283, 42.408223130117669 ], [ 117.311862666574399, 42.408227633063085 ], [ 117.311893047894969, 42.408227550410608 ], [ 117.31189307020226, 42.408232053356002 ], [ 117.311899146466786, 42.408232036824543 ], [ 117.31189919108229, 42.408241042715311 ] ] ] } },
{ "type": "Feature", "properties": { "crown_id": 7409, "tree_id": "7415", "top_h_m": 18.84, "H_95_Mean": 18.8308, "DBH": 41.0031, "Carbon_kg": 308.389527, "area_m2": 77.25 }, "geometry": { "type": "Polygon", "coordinates": [ [ [ 117.311680311772079, 42.408214619972398 ], [ 117.311704616823931, 42.408214553889735 ], [ 117.311704572236309, 42.40820554799874 ], [ 117.311716724760473, 42.40820551495549 ], [ 117.311716680171131, 42.408196509064489 ], [ 117.311722756432331, 42.40819649254238 ], [ 117.311722734137248, 42.408191989596887 ], [ 117.311734886658769, 42.408191956551718 ], [ 117.311734842066855, 42.408182950660716 ], [ 117.311728765806976, 42.40818296718345 ], [ 117.311728743511466, 42.408178464237949 ], [ 117.311722667251999, 42.408178480760363 ], [ 117.311722555776683, 42.408155966032744 ], [ 117.311716479519404, 42.408155982554824 ], [ 117.311716434930162, 42.408146976663744 ], [ 117.31171035867375, 42.408146993185504 ], [ 117.311710336379591, 42.40814249023996 ], [ 117.311704260123577, 42.408142506761401 ], [ 117.31170421553611, 42.408133500870292 ], [ 117.311679910515565, 42.408133566952756 ], [ 117.311679888223566, 42.408129064007191 ], [ 117.311661659459403, 42.408129113565657 ], [ 117.311661614878048, 42.408120107674506 ], [ 117.311631233608651, 42.408120190265464 ], [ 117.311631255897169, 42.408124693211079 ], [ 117.311625179642832, 42.408124709728305 ], [ 117.311625224218972, 42.408133715619499 ], [ 117.311619147963754, 42.408133732136413 ], [ 117.311619125676131, 42.40812922919082 ], [ 117.311606973166576, 42.408129262223675 ], [ 117.311607017740116, 42.408138268114875 ], [ 117.311594865228813, 42.408138301146458 ], [ 117.31159484294291, 42.408133798200858 ], [ 117.311588766687663, 42.408133814716152 ], [ 117.31158887811506, 42.408156329444139 ], [ 117.311582801857654, 42.408156345959142 ], [ 117.311582824142704, 42.408160848904728 ], [ 117.311576747884871, 42.408160865419404 ], [ 117.311576792454133, 42.408169871310584 ], [ 117.311582868712847, 42.408169854795901 ], [ 117.311582890997911, 42.40817435774148 ], [ 117.311595043516192, 42.408174324711133 ], [ 117.311595021230261, 42.408169821765576 ], [ 117.311613250006332, 42.408169772217654 ], [ 117.311613316868105, 42.408183281054342 ], [ 117.311625469388062, 42.408183248020769 ], [ 117.311625491676196, 42.408187750966327 ], [ 117.311631567936601, 42.408187734449058 ], [ 117.31163152335948, 42.408178728557971 ], [ 117.311649752138067, 42.408178679004237 ], [ 117.311649796717816, 42.408187684895324 ], [ 117.311661949238584, 42.408187651857887 ], [ 117.311662038401565, 42.40820566363999 ], [ 117.311668114663718, 42.408205647120774 ], [ 117.311668136954893, 42.408210150066289 ], [ 117.311680289479995, 42.408210117026883 ], [ 117.311680311772079, 42.408214619972398 ] ], [ [ 117.311594932086535, 42.408151809983238 ], [ 117.311594909800618, 42.408147307037645 ], [ 117.31160098605713, 42.408147290522017 ], [ 117.311601008343516, 42.408151793467596 ], [ 117.311594932086535, 42.408151809983238 ] ] ] } },
{ "type": "Feature", "properties": { "crown_id": 7470, "tree_id": "7476", "top_h_m": 12.037, "H_95_Mean": 12.0414, "DBH": 25.7401, "Carbon_kg": 92.618521, "area_m2": 29.5 }, "geometry": { "type": "Polygon", "coordinates": [ [ [ 117.311740873733982, 42.40817392824664 ], [ 117.31175910251099, 42.408173878675527 ], [ 117.311759057915651, 42.408164872784518 ], [ 117.311765134173797, 42.408164856260179 ], [ 117.311765156471907, 42.408169359205679 ], [ 117.311771232730464, 42.40816934268102 ], [ 117.311771255029001, 42.408173845626514 ], [ 117.311783407546969, 42.408173812576209 ], [ 117.311783362948134, 42.408164806685228 ], [ 117.311789439206237, 42.408164790159589 ], [ 117.311789461506095, 42.40816929310509 ], [ 117.311795537764624, 42.408169276579137 ], [ 117.311795560064894, 42.408173779524624 ], [ 117.311801636323878, 42.408173762998345 ], [ 117.311801591722428, 42.408164757107379 ], [ 117.311807667980531, 42.40816474058078 ], [ 117.311807690281682, 42.40816924352626 ], [ 117.311813766540183, 42.408169226999334 ], [ 117.311813721937028, 42.408160221108375 ], [ 117.311819798194691, 42.408160204581151 ], [ 117.311819775892673, 42.408155701635636 ], [ 117.31182585214988, 42.408155685108085 ], [ 117.31182578524259, 42.408142176271618 ], [ 117.31183186149849, 42.40814215974374 ], [ 117.311831839195634, 42.408137656798239 ], [ 117.311825762940174, 42.408137673326102 ], [ 117.311825740637772, 42.408133170380609 ], [ 117.311819664382725, 42.408133186908152 ], [ 117.311819642080764, 42.408128683962637 ], [ 117.311825718335342, 42.408128667435101 ], [ 117.31182569603294, 42.408124164489593 ], [ 117.311819619778788, 42.408124181017129 ], [ 117.311819597476813, 42.4081196780716 ], [ 117.311813521223087, 42.408119694598824 ], [ 117.311813543524607, 42.408124197544346 ], [ 117.311777085999481, 42.408124296700876 ], [ 117.311777108298429, 42.408128799646413 ], [ 117.311758879534494, 42.40812884922034 ], [ 117.311758924129734, 42.408137855111399 ], [ 117.311752847874217, 42.408137871635404 ], [ 117.311752892468647, 42.40814687752647 ], [ 117.311722511186602, 42.408146960141671 ], [ 117.311722533481628, 42.408151463087208 ], [ 117.311728609738481, 42.408151446564816 ], [ 117.311728632033962, 42.408155949510345 ], [ 117.311740784548533, 42.408155916464572 ], [ 117.311740829141257, 42.408164922355617 ], [ 117.311734752883112, 42.408164938878656 ], [ 117.311734775179033, 42.408169441824178 ], [ 117.311740851437605, 42.408169425301125 ], [ 117.311740873733982, 42.40817392824664 ] ], [ [ 117.311746905399403, 42.408164905832237 ], [ 117.3117468831026, 42.408160402886715 ], [ 117.311752959360319, 42.408160386363022 ], [ 117.311752981657534, 42.408164889308544 ], [ 117.311746905399403, 42.408164905832237 ] ], [ [ 117.311807645679394, 42.408160237635286 ], [ 117.311807623378257, 42.408155734689785 ], [ 117.311813699635465, 42.408155718162881 ], [ 117.311813721937028, 42.408160221108375 ], [ 117.311807645679394, 42.408160237635286 ] ], [ [ 117.311765089577591, 42.408155850369155 ], [ 117.311765022683346, 42.40814234153261 ], [ 117.311783251451175, 42.408142291957681 ], [ 117.311783318349327, 42.408155800794219 ], [ 117.311765089577591, 42.408155850369155 ] ] ] } }
]
}
