{
"type": "FeatureCollection",
"name": "tile_17_8",
"crs": { "type": "name", "properties": { "name": "urn:ogc:def:crs:OGC:1.3:CRS84" } },
"features": [
{ "type": "Feature", "properties": { "crown_id": 6780, "tree_id": "6786", "top_h_m": 17.56, "H_95_Mean": 18.4, "DBH": 21.6424, "Carbon_kg": 83.913859, "area_m2": 6.75 }, "geometry": { "type": "Polygon", "coordinates": [ [ [ 117.311791134008899, 42.408507014007021 ], [ 117.311797210300014, 42.40850699748087 ], [ 117.311797165698692, 42.408497991590416 ], [ 117.311803241988954, 42.408497975063952 ], [ 117.31180319738678, 42.40848896917349 ], [ 117.311797121097399, 42.408488985699961 ], [ 117.311797098796774, 42.408484482754709 ], [ 117.311791022507805, 42.408484499280839 ], [ 117.311791000207592, 42.408479996335593 ], [ 117.311784923919092, 42.408480012861418 ], [ 117.311784901619305, 42.408475509916158 ], [ 117.311760596466897, 42.408475576016173 ], [ 117.311760618764922, 42.408480078961432 ], [ 117.311754542476365, 42.408480095485636 ], [ 117.311754587071562, 42.408489101376148 ], [ 117.311778892229214, 42.408489035277405 ], [ 117.31177891452856, 42.408493538222636 ], [ 117.311784990818396, 42.408493521697146 ], [ 117.311785035417955, 42.408502527587615 ], [ 117.311791111708658, 42.408502511061783 ], [ 117.311791134008899, 42.408507014007021 ] ] ] } },
{ "type": "Feature", "properties": { "crown_id": 6797, "tree_id": "6803", "top_h_m": 17.886, "H_95_Mean": 18.0966, "DBH": 29.7697, "Carbon_kg": 157.995901, "area_m2": 24.0 }, "geometry": { "type": "Polygon", "coordinates": [ [ [ 117.311809452088426, 42.408524976208447 ], [ 117.311815528381288, 42.40852495968133 ], [ 117.311815506079284, 42.408520456736113 ], [ 117.311833734956522, 42.408520407152821 ], [ 117.311833668046688, 42.408506898317214 ], [ 117.31183974433776, 42.408506881788817 ], [ 117.311839699730371, 42.408497875898398 ], [ 117.31184577602059, 42.408497859369682 ], [ 117.311845709108226, 42.408484350534025 ], [ 117.311863937974934, 42.408484300945972 ], [ 117.311863893364119, 42.408475295055538 ], [ 117.311869969652136, 42.408475278525536 ], [ 117.311869947346295, 42.408470775580327 ], [ 117.311863871058705, 42.408470792110315 ], [ 117.311863826447919, 42.40846178621986 ], [ 117.311845597587705, 42.408461835807891 ], [ 117.311845575283613, 42.408457332862653 ], [ 117.31183949899733, 42.408457349391348 ], [ 117.311839521300982, 42.408461852336586 ], [ 117.311809139867194, 42.40846193497525 ], [ 117.311809162168657, 42.408466437920495 ], [ 117.311803085881451, 42.408466454447279 ], [ 117.311803108182502, 42.408470957392531 ], [ 117.311790955607208, 42.408470990445103 ], [ 117.311790977907393, 42.408475493390355 ], [ 117.311797054195495, 42.408475476864226 ], [ 117.31179707649612, 42.408479979809471 ], [ 117.311803152784648, 42.408479963283014 ], [ 117.3118031750857, 42.408484466228259 ], [ 117.311809251374669, 42.408484449701469 ], [ 117.311809340580723, 42.408502461482385 ], [ 117.311803264290035, 42.408502478009176 ], [ 117.311803286591143, 42.4085069809544 ], [ 117.311809362882244, 42.408506964427609 ], [ 117.311809452088426, 42.408524976208447 ] ] ] } },
{ "type": "Feature", "properties": { "crown_id": 6822, "tree_id": "6828", "top_h_m": 17.08, "H_95_Mean": 16.8096, "DBH": 28.2602, "Carbon_kg": 136.190607, "area_m2": 22.5 }, "geometry": { "type": "Polygon", "coordinates": [ [ [ 117.311675639892528, 42.40849832205209 ], [ 117.311687792473251, 42.408498289011725 ], [ 117.311687770180413, 42.408493786066444 ], [ 117.311724227919797, 42.408493686937618 ], [ 117.311724250215235, 42.408498189882877 ], [ 117.311730326505568, 42.408498173360272 ], [ 117.311730304209703, 42.408493670415012 ], [ 117.31174853307931, 42.408493620845292 ], [ 117.31174844389065, 42.408475609064247 ], [ 117.311754520178766, 42.408475592540377 ], [ 117.311754497881196, 42.408471089595096 ], [ 117.311748421593506, 42.408471106118981 ], [ 117.311748376999233, 42.408462100228427 ], [ 117.31174230071241, 42.40846211675197 ], [ 117.311742278415707, 42.408457613806689 ], [ 117.311705820697256, 42.408457712941178 ], [ 117.311705842991373, 42.408462215886487 ], [ 117.311687614130776, 42.408462265449394 ], [ 117.311687636423557, 42.408466768394689 ], [ 117.31168156013625, 42.408466784915021 ], [ 117.311681627013343, 42.40848029375092 ], [ 117.311675550724729, 42.408480310270932 ], [ 117.311675573016686, 42.408484813216219 ], [ 117.311669496727617, 42.408484829735926 ], [ 117.311669519019134, 42.408489332681214 ], [ 117.311675595308628, 42.408489316161521 ], [ 117.311675639892528, 42.40849832205209 ] ] ] } },
{ "type": "Feature", "properties": { "crown_id": 6879, "tree_id": "6885", "top_h_m": 17.946, "H_95_Mean": 19.2699, "DBH": 31.992, "Carbon_kg": 189.583485, "area_m2": 28.25 }, "geometry": { "type": "Polygon", "coordinates": [ [ [ 117.311760574168886, 42.408471073070913 ], [ 117.311784879319561, 42.408471006970906 ], [ 117.311784857019802, 42.408466504025647 ], [ 117.311797009594244, 42.408466470973721 ], [ 117.311796987293619, 42.408461968028469 ], [ 117.311803063580413, 42.408461951502019 ], [ 117.311803041279362, 42.408457448556767 ], [ 117.311833422711004, 42.408457365919716 ], [ 117.311833400407792, 42.408452862974485 ], [ 117.311821247836022, 42.408452896030255 ], [ 117.311821203231347, 42.408443890139729 ], [ 117.31180905066131, 42.40844392319422 ], [ 117.311809006058382, 42.408434917303666 ], [ 117.311802929774231, 42.408434933830414 ], [ 117.31180286287119, 42.408421424994572 ], [ 117.311796786588332, 42.408421441521 ], [ 117.311796764287763, 42.408416938575698 ], [ 117.311790688005331, 42.408416955101792 ], [ 117.311790621104961, 42.408403446265893 ], [ 117.311784544823837, 42.408403462791654 ], [ 117.311784567123524, 42.408407965736956 ], [ 117.311772414560352, 42.408407998787531 ], [ 117.311772459157993, 42.408417004678149 ], [ 117.311766382875518, 42.408417021202958 ], [ 117.311766360577138, 42.408412518257649 ], [ 117.311760284295119, 42.40841253478213 ], [ 117.311760306593072, 42.408417037727446 ], [ 117.311754230310598, 42.408417054251608 ], [ 117.311754252608125, 42.408421557196924 ], [ 117.31174817632521, 42.408421573720766 ], [ 117.311748265513614, 42.408439585501981 ], [ 117.311742189228951, 42.40843960202551 ], [ 117.311742256119018, 42.408453110861409 ], [ 117.31174833240496, 42.408453094337865 ], [ 117.31174835470209, 42.408457597283146 ], [ 117.311754430988486, 42.408457580759283 ], [ 117.311754475583626, 42.408466586649823 ], [ 117.311760551870861, 42.40846657012564 ], [ 117.311760574168886, 42.408471073070913 ] ], [ [ 117.311784790120583, 42.408452995189862 ], [ 117.311784723221407, 42.408439486354027 ], [ 117.31180295207524, 42.408439436775694 ], [ 117.311803018978324, 42.408452945611501 ], [ 117.311784790120583, 42.408452995189862 ] ] ] } },
{ "type": "Feature", "properties": { "crown_id": 6917, "tree_id": "6923", "top_h_m": 20.183, "H_95_Mean": 19.778, "DBH": 36.5182, "Carbon_kg": 251.369074, "area_m2": 45.0 }, "geometry": { "type": "Polygon", "coordinates": [ [ [ 117.311675461556987, 42.408462298489717 ], [ 117.311681537843896, 42.408462281969719 ], [ 117.311681515551541, 42.40845777902441 ], [ 117.311699744410845, 42.408457729462469 ], [ 117.311699722117183, 42.408453226517175 ], [ 117.311736179833034, 42.408453127384618 ], [ 117.311736090648068, 42.408435115603417 ], [ 117.311742166932305, 42.408435099080208 ], [ 117.311742077745649, 42.408417087298972 ], [ 117.311748154028123, 42.40841707077545 ], [ 117.311748131731036, 42.408412567830133 ], [ 117.311754208013085, 42.408412551306299 ], [ 117.311754163418058, 42.408403545415652 ], [ 117.311748087136891, 42.408403561939487 ], [ 117.31174804254276, 42.408394556048833 ], [ 117.31174196626246, 42.408394572572334 ], [ 117.311741921669224, 42.408385566681666 ], [ 117.311723692830881, 42.408385616250243 ], [ 117.311723715126192, 42.408390119195587 ], [ 117.31169333372668, 42.408390201803442 ], [ 117.311693378312995, 42.40839920769416 ], [ 117.311687302032198, 42.408399224214769 ], [ 117.311687346617646, 42.408408230105479 ], [ 117.311681270335995, 42.408408246625761 ], [ 117.311681292628293, 42.40841274957112 ], [ 117.311675216346174, 42.408412766091089 ], [ 117.311675238638045, 42.408417269036434 ], [ 117.311669162355528, 42.408417285556091 ], [ 117.311669206938404, 42.40842629144678 ], [ 117.31165705437158, 42.408426324485127 ], [ 117.311657076662144, 42.408430827430479 ], [ 117.311638847810556, 42.408430876985598 ], [ 117.311638870099841, 42.40843537993095 ], [ 117.311614564962568, 42.408435445999949 ], [ 117.311614542675017, 42.408430943054597 ], [ 117.311608466391149, 42.408430959571028 ], [ 117.311608510965343, 42.40843996546176 ], [ 117.311614587250105, 42.408439948945315 ], [ 117.311614609537656, 42.408444451890666 ], [ 117.311632838393237, 42.408444402339384 ], [ 117.311632860682082, 42.408448905284715 ], [ 117.311638936967711, 42.408448888766976 ], [ 117.311638914678412, 42.408444385821639 ], [ 117.311669296104213, 42.408444303228116 ], [ 117.311669318395673, 42.408448806173446 ], [ 117.311675394681274, 42.408448789653768 ], [ 117.311675461556987, 42.408462298489717 ] ], [ [ 117.31167535009746, 42.408439783763122 ], [ 117.311675283221788, 42.408426274927123 ], [ 117.311693512072011, 42.408426225366206 ], [ 117.311693578951562, 42.408439734202183 ], [ 117.31167535009746, 42.408439783763122 ] ] ] } },
{ "type": "Feature", "properties": { "crown_id": 6953, "tree_id": "6959", "top_h_m": 21.426, "H_95_Mean": 20.7182, "DBH": 40.0304, "Carbon_kg": 310.899676, "area_m2": 59.0 }, "geometry": { "type": "MultiPolygon", "coordinates": [ [ [ [ 117.311778446243437, 42.408398976371778 ], [ 117.31179667508556, 42.408398926794497 ], [ 117.311796741987209, 42.408412435630396 ], [ 117.3118028182692, 42.408412419103989 ], [ 117.311802840570209, 42.408416922049277 ], [ 117.311808916852627, 42.408416905522543 ], [ 117.311808983756947, 42.408430414358399 ], [ 117.311815060040658, 42.408430397831324 ], [ 117.311815104644424, 42.408439403721864 ], [ 117.311827257213594, 42.408439370666748 ], [ 117.31182730181915, 42.408448376557267 ], [ 117.311839454390025, 42.408448343500851 ], [ 117.311839476693677, 42.408452846446103 ], [ 117.311851629265419, 42.408452813388394 ], [ 117.311851651569924, 42.408457316333639 ], [ 117.311869880428802, 42.408457266744648 ], [ 117.31186981351135, 42.408443757908941 ], [ 117.311881966081316, 42.40844372484802 ], [ 117.311881921467972, 42.408434718957537 ], [ 117.311894074036147, 42.40843468589533 ], [ 117.311894029421111, 42.408425680004861 ], [ 117.31188795313787, 42.408425696536113 ], [ 117.311887930830792, 42.408421193590868 ], [ 117.311900083396367, 42.408421160528036 ], [ 117.311900061088423, 42.408416657582784 ], [ 117.311906137370769, 42.408416641050898 ], [ 117.311906048137274, 42.408398629269868 ], [ 117.311899971856661, 42.408398645801761 ], [ 117.311899904932901, 42.408385136965961 ], [ 117.311887752374261, 42.408385170028737 ], [ 117.311887730067227, 42.408380667083442 ], [ 117.311875577509454, 42.408380700144946 ], [ 117.311875488284826, 42.408362688363752 ], [ 117.311869412007667, 42.40836270489401 ], [ 117.31186943431338, 42.408367207839312 ], [ 117.31183905292535, 42.408367290485764 ], [ 117.311839097532442, 42.408376296376382 ], [ 117.311833021253975, 42.408376312904707 ], [ 117.311833065860228, 42.408385318795318 ], [ 117.311802684463345, 42.408385401432163 ], [ 117.311802706764325, 42.408389904377472 ], [ 117.311790554204663, 42.408389937429952 ], [ 117.311790576504762, 42.408394440375268 ], [ 117.311778423944219, 42.408394473426469 ], [ 117.311778446243437, 42.408398976371778 ] ], [ [ 117.311827168002594, 42.408421358885668 ], [ 117.311827101094423, 42.408407850049812 ], [ 117.311845329939004, 42.408407800464786 ], [ 117.311845396851112, 42.408421309300607 ], [ 117.311827168002594, 42.408421358885668 ] ] ], [ [ [ 117.311778446243437, 42.408398976371778 ], [ 117.311772369962739, 42.408398992896906 ], [ 117.311772392261545, 42.408403495842222 ], [ 117.311778468542684, 42.408403479317109 ], [ 117.311778446243437, 42.408398976371778 ] ] ] ] } },
{ "type": "Feature", "properties": { "crown_id": 7016, "tree_id": "7022", "top_h_m": 18.41, "H_95_Mean": 18.4731, "DBH": 25.2818, "Carbon_kg": 115.054318, "area_m2": 12.25 }, "geometry": { "type": "Polygon", "coordinates": [ [ [ 117.311766271383647, 42.408394506476391 ], [ 117.311772347663933, 42.408394489951583 ], [ 117.311772325365141, 42.408389987006252 ], [ 117.311784477924817, 42.408389953955705 ], [ 117.311784455625158, 42.408385451010382 ], [ 117.311796608183968, 42.408385417958549 ], [ 117.311796585883442, 42.40838091501324 ], [ 117.311808738441343, 42.408380881960113 ], [ 117.311808693838572, 42.408371876069481 ], [ 117.311796541282405, 42.408371909122586 ], [ 117.31179649668141, 42.408362903231918 ], [ 117.311784344126949, 42.408362936283716 ], [ 117.311784299527702, 42.408353930393034 ], [ 117.311766070698582, 42.408353979968318 ], [ 117.311766092996919, 42.408358482913663 ], [ 117.311760016720086, 42.408358499438123 ], [ 117.311760128209599, 42.408381014164846 ], [ 117.31175405193062, 42.408381030689 ], [ 117.311754074228091, 42.408385533634338 ], [ 117.311747997948672, 42.408385550158165 ], [ 117.311748020245702, 42.408390053103503 ], [ 117.311766249085281, 42.408390003531061 ], [ 117.311766271383647, 42.408394506476391 ] ] ] } },
{ "type": "Feature", "properties": { "crown_id": 7073, "tree_id": "7079", "top_h_m": 19.291, "H_95_Mean": 18.4702, "DBH": 33.6084, "Carbon_kg": 204.200813, "area_m2": 37.0 }, "geometry": { "type": "MultiPolygon", "coordinates": [ [ [ [ 117.311680846783332, 42.408322690663454 ], [ 117.311680869075531, 42.408327193608869 ], [ 117.311668716527834, 42.408327226648403 ], [ 117.311668738819179, 42.408331729593819 ], [ 117.311674815093454, 42.408331713074205 ], [ 117.311674859677012, 42.408340718965029 ], [ 117.311668783401842, 42.40834073548465 ], [ 117.311668805693216, 42.408345238430051 ], [ 117.311662729417606, 42.408345254949339 ], [ 117.311662773999473, 42.408354260840156 ], [ 117.311668850275908, 42.408354244320876 ], [ 117.311668939441418, 42.408372256102432 ], [ 117.311687168275981, 42.408372206542573 ], [ 117.311687212861386, 42.408381212433319 ], [ 117.311693289140422, 42.408381195912725 ], [ 117.311693311433558, 42.408385698858076 ], [ 117.311717616551419, 42.408385632772458 ], [ 117.31171759425655, 42.408381129827085 ], [ 117.311747975651599, 42.408381047212814 ], [ 117.311747953354569, 42.408376544267476 ], [ 117.311754029633121, 42.408376527743656 ], [ 117.311753985038209, 42.408367521852973 ], [ 117.311741832482809, 42.408367554900273 ], [ 117.31174181018622, 42.408363051954908 ], [ 117.311735733908947, 42.408363068478074 ], [ 117.311735644724379, 42.408345056696575 ], [ 117.31174779727543, 42.40834502364995 ], [ 117.311747774978429, 42.408340520704584 ], [ 117.311729546153146, 42.408340570274042 ], [ 117.311729501561771, 42.408331564383261 ], [ 117.311723425287511, 42.408331580905767 ], [ 117.311723380697032, 42.408322575014978 ], [ 117.311717304423667, 42.408322591537164 ], [ 117.311717282128868, 42.408318088591763 ], [ 117.311705129582975, 42.408318121635141 ], [ 117.311705062701208, 42.408304612798887 ], [ 117.311698986429548, 42.408304629320092 ], [ 117.311699008723053, 42.408309132265508 ], [ 117.311692932450953, 42.408309148786394 ], [ 117.311692954744004, 42.408313651731817 ], [ 117.311686878471477, 42.408313668252376 ], [ 117.311686923056712, 42.408322674143214 ], [ 117.311680846783332, 42.408322690663454 ] ], [ [ 117.311699320832332, 42.408372173501057 ], [ 117.311699253951673, 42.408358664664938 ], [ 117.311717482782271, 42.408358615100269 ], [ 117.311717549666824, 42.408372123936374 ], [ 117.311699320832332, 42.408372173501057 ] ] ], [ [ [ 117.311680846783332, 42.408322690663454 ], [ 117.31168082449112, 42.408318187718038 ], [ 117.311668671945185, 42.40831822075755 ], [ 117.311668694236502, 42.40832272370298 ], [ 117.311680846783332, 42.408322690663454 ] ] ] ] } },
{ "type": "Feature", "properties": { "crown_id": 7074, "tree_id": "7080", "top_h_m": 21.114, "H_95_Mean": 21.1423, "DBH": 33.1231, "Carbon_kg": 214.799439, "area_m2": 27.25 }, "geometry": { "type": "Polygon", "coordinates": [ [ [ 117.311814814720279, 42.408380865433081 ], [ 117.311826967278151, 42.408380832378022 ], [ 117.311826922672779, 42.408371826487397 ], [ 117.311832998950848, 42.408371809959405 ], [ 117.311832954344609, 42.408362804068759 ], [ 117.311863335730493, 42.408362721423934 ], [ 117.311863313425235, 42.408358218478632 ], [ 117.311869389701954, 42.408358201948708 ], [ 117.311869345090528, 42.408349196058076 ], [ 117.311863268814676, 42.408349212587986 ], [ 117.311863246509418, 42.40834470964267 ], [ 117.311851093958566, 42.408344742701537 ], [ 117.311851071654175, 42.408340239756221 ], [ 117.311844995379161, 42.408340256285172 ], [ 117.311844973075225, 42.408335753339834 ], [ 117.311838896800637, 42.408335769868458 ], [ 117.311838874497141, 42.40833126692312 ], [ 117.311820645674686, 42.408331316507052 ], [ 117.311820601070309, 42.408322310616349 ], [ 117.311802372250426, 42.408322360197367 ], [ 117.311802349949517, 42.408317857252008 ], [ 117.311790197403781, 42.408317890304396 ], [ 117.311790175103766, 42.408313387359016 ], [ 117.311784098831325, 42.40831340388474 ], [ 117.311784232628867, 42.408340421556957 ], [ 117.311778156353796, 42.408340438082362 ], [ 117.311778200952133, 42.408349443973087 ], [ 117.311790353504009, 42.408349410921943 ], [ 117.311790398104108, 42.408358416812646 ], [ 117.311802550657688, 42.408358383760195 ], [ 117.311802595259536, 42.40836738965087 ], [ 117.31181474781485, 42.408367356597118 ], [ 117.311814814720279, 42.408380865433081 ] ] ] } },
{ "type": "Feature", "properties": { "crown_id": 7096, "tree_id": "7102", "top_h_m": 18.872, "H_95_Mean": 19.6097, "DBH": 26.6712, "Carbon_kg": 132.760599, "area_m2": 13.5 }, "geometry": { "type": "Polygon", "coordinates": [ [ [ 117.311747886463479, 42.408363035431414 ], [ 117.311753962740738, 42.4083630189076 ], [ 117.311753918145826, 42.40835401301689 ], [ 117.311759994422218, 42.408353996492764 ], [ 117.311759972124335, 42.408349493547398 ], [ 117.31177212467621, 42.408349460498172 ], [ 117.311772057780004, 42.408335951662082 ], [ 117.311778134054649, 42.408335935137004 ], [ 117.311778044858002, 42.408317923355519 ], [ 117.311759816039327, 42.408317972929773 ], [ 117.311759793741473, 42.408313469984364 ], [ 117.311741564924034, 42.408313519555726 ], [ 117.311741542627502, 42.408309016610325 ], [ 117.311735466355472, 42.408309033133463 ], [ 117.311735444059366, 42.408304530188062 ], [ 117.311723291516131, 42.408304563233351 ], [ 117.311723313811342, 42.408309066178766 ], [ 117.311711161267198, 42.408309099222784 ], [ 117.31171118356157, 42.408313602168185 ], [ 117.311723336106567, 42.408313569124175 ], [ 117.311723358401792, 42.408318072069584 ], [ 117.311729434674731, 42.408318055547085 ], [ 117.311729479266077, 42.40832706143788 ], [ 117.311747708087466, 42.40832701186843 ], [ 117.311747752681441, 42.408336017759197 ], [ 117.311753828956071, 42.408336001235412 ], [ 117.311753895848383, 42.408349510071531 ], [ 117.311741743296466, 42.40834954311881 ], [ 117.311741787889616, 42.408358549009542 ], [ 117.311747864166449, 42.408358532486055 ], [ 117.311747886463479, 42.408363035431414 ] ] ] } }
]
}
