{
"type": "FeatureCollection",
"name": "tile_3_3",
"crs": { "type": "name", "properties": { "name": "urn:ogc:def:crs:OGC:1.3:CRS84" } },
"features": [
{ "type": "Feature", "properties": { "crown_id": 887, "tree_id": "888", "top_h_m": 19.862, "H_95_Mean": 19.9264, "DBH": 31.5794, "Carbon_kg": 188.383786, "area_m2": 25.25 }, "geometry": { "type": "Polygon", "coordinates": [ [ [ 117.31061876526671, 42.411045388333221 ], [ 117.310643071413892, 42.411045322472084 ], [ 117.3106430491938, 42.411040819528374 ], [ 117.310649125730151, 42.411040803062292 ], [ 117.310649081289128, 42.41103179717485 ], [ 117.310655157824598, 42.411031780708434 ], [ 117.310655135603668, 42.411027277764724 ], [ 117.310667288673727, 42.411027244830954 ], [ 117.310667222008306, 42.411013735999781 ], [ 117.310673298542042, 42.411013719532427 ], [ 117.310673276319818, 42.411009216588688 ], [ 117.31066112325324, 42.411009249523083 ], [ 117.310661078810526, 42.411000243635606 ], [ 117.310648925745681, 42.4110002765687 ], [ 117.310648903525205, 42.410995773624947 ], [ 117.31061852086512, 42.410995855952024 ], [ 117.310618454210257, 42.410982347120715 ], [ 117.310612377679533, 42.410982363585155 ], [ 117.310612333243853, 42.410973357697593 ], [ 117.31060625671401, 42.410973374161706 ], [ 117.310606234496603, 42.410968871217911 ], [ 117.310600157967173, 42.410968887681705 ], [ 117.310600246835051, 42.410986899456859 ], [ 117.310594170303887, 42.41098691592034 ], [ 117.310594192520441, 42.410991418864121 ], [ 117.310588115988807, 42.410991435327276 ], [ 117.310588138204935, 42.41099593827105 ], [ 117.310600291269026, 42.410995905344414 ], [ 117.31060031348602, 42.411000408288189 ], [ 117.310606390018506, 42.411000391824373 ], [ 117.310606434453376, 42.411009397711894 ], [ 117.310612510986701, 42.411009381247759 ], [ 117.31061262207615, 42.411031895966495 ], [ 117.310618698611663, 42.411031879502048 ], [ 117.31061876526671, 42.411045388333221 ] ] ] } },
{ "type": "Feature", "properties": { "crown_id": 897, "tree_id": "898", "top_h_m": 17.32, "H_95_Mean": 18.2012, "DBH": 25.7395, "Carbon_kg": 118.249412, "area_m2": 13.5 }, "geometry": { "type": "Polygon", "coordinates": [ [ [ 117.310485059246872, 42.411041247533568 ], [ 117.310491135783366, 42.411041231075863 ], [ 117.310491091364952, 42.411032225188279 ], [ 117.310485014829339, 42.411032241645977 ], [ 117.310484925994288, 42.41101422987078 ], [ 117.310478849460395, 42.411014246328158 ], [ 117.310478805043772, 42.411005240440524 ], [ 117.310472728510746, 42.411005256897575 ], [ 117.310472706302861, 42.411000753953743 ], [ 117.31044232363989, 42.411000836234145 ], [ 117.310442390257009, 42.411014345065638 ], [ 117.310436313723088, 42.411014361520763 ], [ 117.310436358133657, 42.411023367408411 ], [ 117.310442434668445, 42.411023350953279 ], [ 117.310442456874156, 42.411027853897103 ], [ 117.310448533409371, 42.411027837441651 ], [ 117.310448577821717, 42.411036843329263 ], [ 117.310485037038106, 42.411036744589772 ], [ 117.310485059246872, 42.411041247533568 ] ] ] } },
{ "type": "Feature", "properties": { "crown_id": 910, "tree_id": "911", "top_h_m": 17.04, "H_95_Mean": 17.5922, "DBH": 26.7703, "Carbon_kg": 125.437591, "area_m2": 16.75 }, "geometry": { "type": "Polygon", "coordinates": [ [ [ 117.31049716790055, 42.411032208730255 ], [ 117.310515397507359, 42.411032159354228 ], [ 117.310515375296404, 42.411027656410447 ], [ 117.310521451831562, 42.411027639951136 ], [ 117.310521429620167, 42.411023137007355 ], [ 117.310527506154898, 42.411023120547718 ], [ 117.310527483943105, 42.411018617603929 ], [ 117.310533560477367, 42.411018601143972 ], [ 117.310533538265148, 42.411014098200191 ], [ 117.310551767866627, 42.411014048818402 ], [ 117.310551745653072, 42.411009545874627 ], [ 117.310545669119691, 42.411009562335536 ], [ 117.310545646906604, 42.411005059391748 ], [ 117.310539570373649, 42.411005075852344 ], [ 117.310539525948357, 42.410996069964753 ], [ 117.31052129635205, 42.410996119344574 ], [ 117.310521274140712, 42.410991616400771 ], [ 117.310478738418865, 42.410991731609073 ], [ 117.31047878283546, 42.4110007374967 ], [ 117.310484859368017, 42.411000721039343 ], [ 117.310484903785508, 42.411009726926977 ], [ 117.310490980318974, 42.41100971046928 ], [ 117.310491069155731, 42.411027722244484 ], [ 117.310497145690917, 42.411027705786459 ], [ 117.31049716790055, 42.411032208730255 ] ] ] } },
{ "type": "Feature", "properties": { "crown_id": 974, "tree_id": "975", "top_h_m": 18.69, "H_95_Mean": 18.6906, "DBH": 27.0124, "Carbon_kg": 132.393104, "area_m2": 15.5 }, "geometry": { "type": "MultiPolygon", "coordinates": [ [ [ [ 117.310496834756478, 42.410964664573022 ], [ 117.310496923594769, 42.410982676348354 ], [ 117.310484770533122, 42.41098270926404 ], [ 117.310484792741846, 42.410987212207871 ], [ 117.310527328460623, 42.410987096997339 ], [ 117.310527350672359, 42.410991599941148 ], [ 117.310557733330668, 42.410991517638244 ], [ 117.310557688902776, 42.410982511750646 ], [ 117.310551612372009, 42.410982528211861 ], [ 117.310551523518043, 42.410964516436621 ], [ 117.310545446988996, 42.410964532897516 ], [ 117.310545402562937, 42.410955527009854 ], [ 117.310527172978368, 42.410955576390585 ], [ 117.310527195190105, 42.410960079334416 ], [ 117.310515042132835, 42.410960112253285 ], [ 117.31051506434369, 42.410964615197116 ], [ 117.310496834756478, 42.410964664573022 ] ] ], [ [ [ 117.310496834756478, 42.410964664573022 ], [ 117.310496812546901, 42.410960161629184 ], [ 117.310490736018252, 42.41096017808718 ], [ 117.310490758227374, 42.410964681031018 ], [ 117.310496834756478, 42.410964664573022 ] ] ] ] } },
{ "type": "Feature", "properties": { "crown_id": 986, "tree_id": "987", "top_h_m": 17.407, "H_95_Mean": 19.0699, "DBH": 17.8645, "Carbon_kg": 58.223695, "area_m2": 3.0 }, "geometry": { "type": "Polygon", "coordinates": [ [ [ 117.31047259526359, 42.410978239234588 ], [ 117.31049082485481, 42.410978189862526 ], [ 117.310490780436524, 42.410969183974856 ], [ 117.310484703906994, 42.410969200432532 ], [ 117.310484659489603, 42.410960194544842 ], [ 117.310472506432262, 42.410960227459213 ], [ 117.310472528640091, 42.410964730403052 ], [ 117.310466452110973, 42.410964746859761 ], [ 117.310466496525777, 42.410973752747459 ], [ 117.310472573055748, 42.410973736290742 ], [ 117.31047259526359, 42.410978239234588 ] ] ] } },
{ "type": "Feature", "properties": { "crown_id": 987, "tree_id": "988", "top_h_m": 17.13, "H_95_Mean": 17.86, "DBH": 22.6415, "Carbon_kg": 90.299532, "area_m2": 8.5 }, "geometry": { "type": "MultiPolygon", "coordinates": [ [ [ [ 117.310551701226046, 42.41100053998705 ], [ 117.310551723439545, 42.411005042930832 ], [ 117.310557799972528, 42.41100502646961 ], [ 117.310557822186482, 42.411009529413384 ], [ 117.310563898719863, 42.411009512951836 ], [ 117.310563832076681, 42.410996004120484 ], [ 117.310557755544608, 42.410996020582033 ], [ 117.310557777758561, 42.411000523525821 ], [ 117.310551701226046, 42.41100053998705 ] ] ], [ [ [ 117.310551701226046, 42.41100053998705 ], [ 117.310551679012519, 42.410996037043255 ], [ 117.310545602480431, 42.410996053504171 ], [ 117.310545624693532, 42.411000556447959 ], [ 117.310551701226046, 42.41100053998705 ] ] ], [ [ [ 117.310563832076681, 42.410996004120484 ], [ 117.310582061672875, 42.410995954733892 ], [ 117.310582017241501, 42.410986948846329 ], [ 117.310588093772694, 42.410986932383487 ], [ 117.310588071556595, 42.410982429439699 ], [ 117.310594148087333, 42.410982412976551 ], [ 117.310594125870793, 42.410977910032756 ], [ 117.310575896279843, 42.41097795942126 ], [ 117.310575807418957, 42.410959947646035 ], [ 117.310563654361772, 42.410959980570063 ], [ 117.310563632147421, 42.410955477626246 ], [ 117.310551479091089, 42.41095551054898 ], [ 117.310551501304573, 42.410960013492804 ], [ 117.310557577833166, 42.410959997031597 ], [ 117.310557666688837, 42.410978008806843 ], [ 117.310563743219191, 42.410977992345295 ], [ 117.310563832076681, 42.410996004120484 ] ] ] ] } },
{ "type": "Feature", "properties": { "crown_id": 997, "tree_id": "998", "top_h_m": 21.107, "H_95_Mean": 21.0725, "DBH": 31.4791, "Carbon_kg": 193.474577, "area_m2": 22.5 }, "geometry": { "type": "MultiPolygon", "coordinates": [ [ [ [ 117.310697382437468, 42.410968624222413 ], [ 117.310697360213553, 42.410964121278653 ], [ 117.310703436742486, 42.410964104809722 ], [ 117.310703370069461, 42.410950595978441 ], [ 117.310709446597059, 42.410950579509183 ], [ 117.310709402147566, 42.410941573621656 ], [ 117.310721555201013, 42.410941540682188 ], [ 117.310721510749786, 42.410932534794654 ], [ 117.310709357698059, 42.410932567734108 ], [ 117.310709335473319, 42.410928064790326 ], [ 117.31069718242243, 42.410928097728494 ], [ 117.310697160198572, 42.410923594784713 ], [ 117.310703236723583, 42.410923578315789 ], [ 117.310703214499284, 42.410919075372007 ], [ 117.310684984925558, 42.410919124777784 ], [ 117.31068500714855, 42.41092362772158 ], [ 117.310678930623524, 42.410923644189523 ], [ 117.310679041736407, 42.410946158908466 ], [ 117.310685118263606, 42.410946142440508 ], [ 117.31068518493268, 42.41095965127181 ], [ 117.310691261461145, 42.410959634803525 ], [ 117.310691305908108, 42.410968640691038 ], [ 117.310697382437468, 42.410968624222413 ] ] ], [ [ [ 117.310667177564738, 42.411004730112317 ], [ 117.310673254097594, 42.411004713644957 ], [ 117.310673209653174, 42.410995707757479 ], [ 117.3106671331212, 42.410995724224819 ], [ 117.310667177564738, 42.411004730112317 ] ] ], [ [ [ 117.310679286185163, 42.41099569128982 ], [ 117.310679197294604, 42.410977679514829 ], [ 117.310685273824859, 42.41097766304685 ], [ 117.310685251601811, 42.41097316010309 ], [ 117.31067309854221, 42.410973193038728 ], [ 117.310673054097848, 42.410964187151201 ], [ 117.310642671453081, 42.41096426948463 ], [ 117.310642738113103, 42.41097777831596 ], [ 117.310636661582834, 42.410977794781687 ], [ 117.310636683802414, 42.410982297725454 ], [ 117.310624530740995, 42.410982330655955 ], [ 117.310624575178437, 42.410991336543489 ], [ 117.310654957836306, 42.410991254214814 ], [ 117.310654980057208, 42.410995757158567 ], [ 117.3106671331212, 42.410995724224819 ], [ 117.310667110899431, 42.410991221281087 ], [ 117.310673187430979, 42.410991204813733 ], [ 117.310673209653174, 42.410995707757479 ], [ 117.310679286185163, 42.41099569128982 ] ] ] ] } },
{ "type": "Feature", "properties": { "crown_id": 1007, "tree_id": "1008", "top_h_m": 18.361, "H_95_Mean": 18.4919, "DBH": 21.2681, "Carbon_kg": 81.253603, "area_m2": 6.25 }, "geometry": { "type": "Polygon", "coordinates": [ [ [ 117.310502889075551, 42.410960145170876 ], [ 117.310508965604186, 42.41096012871224 ], [ 117.310508943393771, 42.410955625768402 ], [ 117.310521096450174, 42.410955592850172 ], [ 117.310521074238878, 42.410951089906327 ], [ 117.310527150766646, 42.410951073446739 ], [ 117.310527106343201, 42.410942067559048 ], [ 117.310533182870088, 42.410942051099148 ], [ 117.31053316065794, 42.410937548155303 ], [ 117.310521007605047, 42.410937581074798 ], [ 117.3105210298163, 42.410942084018643 ], [ 117.310502800235611, 42.41094213339548 ], [ 117.310502778025636, 42.41093763045162 ], [ 117.310484548446183, 42.410937679825537 ], [ 117.310484615072212, 42.410951188657116 ], [ 117.310490691599995, 42.410951172199461 ], [ 117.310490713809116, 42.41095567514332 ], [ 117.310502866865548, 42.41095564222703 ], [ 117.310502889075551, 42.410960145170876 ] ] ] } },
{ "type": "Feature", "properties": { "crown_id": 1028, "tree_id": "1029", "top_h_m": 20.742, "H_95_Mean": 20.3998, "DBH": 30.2642, "Carbon_kg": 175.323105, "area_m2": 20.5 }, "geometry": { "type": "MultiPolygon", "coordinates": [ [ [ [ 117.310618431991969, 42.410977844176934 ], [ 117.31063058505255, 42.410977811247086 ], [ 117.310630562833396, 42.410973308303312 ], [ 117.310636639363253, 42.410973291837912 ], [ 117.310636594924134, 42.410964285950357 ], [ 117.310630518395143, 42.410964302415756 ], [ 117.310630451737765, 42.410950793584384 ], [ 117.310648681320757, 42.410950744187247 ], [ 117.31064872576161, 42.410959750074809 ], [ 117.310679108404187, 42.410959667739782 ], [ 117.310679063958986, 42.410950661852233 ], [ 117.31067298743136, 42.410950678319892 ], [ 117.310672831876388, 42.410919157713359 ], [ 117.310678908400959, 42.410919141245735 ], [ 117.310678886178422, 42.410914638301932 ], [ 117.310684962702567, 42.410914621833975 ], [ 117.310684940479575, 42.410910118890179 ], [ 117.310672787432154, 42.410910151825739 ], [ 117.31067280965425, 42.410914654769556 ], [ 117.310648503557573, 42.410914720636825 ], [ 117.310648547998355, 42.410923726524466 ], [ 117.310642471473315, 42.410923742990484 ], [ 117.310642493693251, 42.410928245934279 ], [ 117.310630340642263, 42.41092827886537 ], [ 117.310630362861374, 42.410932781809173 ], [ 117.310624286335425, 42.410932798274231 ], [ 117.310624375210111, 42.410950810049457 ], [ 117.310618298682442, 42.410950826514195 ], [ 117.310618343118932, 42.410959832401794 ], [ 117.310612266590383, 42.410959848866227 ], [ 117.31061231102602, 42.410968854753804 ], [ 117.310618387555451, 42.410968838289364 ], [ 117.310618431991969, 42.410977844176934 ] ] ], [ [ [ 117.310630340642263, 42.41092827886537 ], [ 117.310630318423193, 42.410923775921546 ], [ 117.310624241898111, 42.41092379238659 ], [ 117.310624264116782, 42.410928295330415 ], [ 117.310630340642263, 42.41092827886537 ] ] ] ] } },
{ "type": "Feature", "properties": { "crown_id": 1055, "tree_id": "1056", "top_h_m": 18.981, "H_95_Mean": 19.1826, "DBH": 31.4013, "Carbon_kg": 182.10474, "area_m2": 26.5 }, "geometry": { "type": "Polygon", "coordinates": [ [ [ 117.310581906163193, 42.410964434127344 ], [ 117.310594059221202, 42.410964401201376 ], [ 117.310594037004705, 42.410959898257573 ], [ 117.310600113533241, 42.410959881794113 ], [ 117.310600135750207, 42.410964384737909 ], [ 117.310606212279211, 42.410964368274122 ], [ 117.310606167844441, 42.410955362386531 ], [ 117.310612244372564, 42.410955345922424 ], [ 117.310612199936926, 42.410946340034819 ], [ 117.310618276464169, 42.410946323570393 ], [ 117.310618165373043, 42.410923808851337 ], [ 117.310606012322907, 42.410923841779827 ], [ 117.310605990105557, 42.410919338836003 ], [ 117.310612066630185, 42.410919322371917 ], [ 117.310612022194661, 42.410910316484248 ], [ 117.310605945670872, 42.410910332948326 ], [ 117.310605923453551, 42.410905830004481 ], [ 117.310599846930188, 42.410905846468239 ], [ 117.310599891363992, 42.410914852355923 ], [ 117.310551279170085, 42.410914984054401 ], [ 117.310551301383512, 42.41091948699826 ], [ 117.310563454432881, 42.410919454075575 ], [ 117.310563476647175, 42.410923957019413 ], [ 117.310557400122065, 42.410923973480919 ], [ 117.310557444549815, 42.41093297936861 ], [ 117.310539214971811, 42.410933028751217 ], [ 117.310539281609536, 42.410946537582753 ], [ 117.310533205082237, 42.410946554042987 ], [ 117.3105332272944, 42.410951056986825 ], [ 117.310569686460809, 42.410950958220567 ], [ 117.310569708675587, 42.410955461164399 ], [ 117.31058186173189, 42.410955428239731 ], [ 117.310581906163193, 42.410964434127344 ] ] ] } },
{ "type": "Feature", "properties": { "crown_id": 1085, "tree_id": "1086", "top_h_m": 17.02, "H_95_Mean": 17.4533, "DBH": 25.2271, "Carbon_kg": 110.769528, "area_m2": 13.5 }, "geometry": { "type": "Polygon", "coordinates": [ [ [ 117.310508854552097, 42.410937613993006 ], [ 117.310514931078586, 42.410937597534058 ], [ 117.310514908867731, 42.410933094590199 ], [ 117.310533138445805, 42.410933045211443 ], [ 117.310533116233657, 42.410928542267598 ], [ 117.310551345810381, 42.410928492885958 ], [ 117.310551323596925, 42.41092398994212 ], [ 117.310545247071801, 42.410924006402972 ], [ 117.310545224858799, 42.410919503459134 ], [ 117.31052699528469, 42.410919552839779 ], [ 117.31052695086133, 42.410910546952039 ], [ 117.31049049171817, 42.410910645704625 ], [ 117.310490447300012, 42.410901639816849 ], [ 117.310478294253997, 42.410901672731789 ], [ 117.310478360878591, 42.410915181563468 ], [ 117.310472284354276, 42.410915198020469 ], [ 117.310472328769833, 42.410924203908245 ], [ 117.310478405295015, 42.410924187451243 ], [ 117.310478427503256, 42.410928690395124 ], [ 117.310484504028878, 42.410928673937804 ], [ 117.310484526237516, 42.41093317688167 ], [ 117.310508832341696, 42.410933111049133 ], [ 117.310508854552097, 42.410937613993006 ] ] ] } },
{ "type": "Feature", "properties": { "crown_id": 1147, "tree_id": "1148", "top_h_m": 17.747, "H_95_Mean": 18.5229, "DBH": 27.3331, "Carbon_kg": 134.859352, "area_m2": 16.5 }, "geometry": { "type": "MultiPolygon", "coordinates": [ [ [ [ 117.310672765210043, 42.410905648881929 ], [ 117.31069099477989, 42.410905599478113 ], [ 117.310690950333083, 42.410896593590493 ], [ 117.310697026855479, 42.41089657712191 ], [ 117.310696982407805, 42.410887571234277 ], [ 117.310709135450878, 42.410887538296173 ], [ 117.310709068776802, 42.410874029464715 ], [ 117.31070299225658, 42.410874045933923 ], [ 117.310702925583882, 42.41086053710243 ], [ 117.310690772546025, 42.41086057003988 ], [ 117.310690750322678, 42.410856067096027 ], [ 117.310678597285687, 42.410856100032177 ], [ 117.310678619508181, 42.410860602976022 ], [ 117.310666466470295, 42.410860635910886 ], [ 117.310666510913535, 42.410869641798591 ], [ 117.310660434393711, 42.41086965826554 ], [ 117.310660501057328, 42.410883167097055 ], [ 117.31065442453621, 42.410883183563705 ], [ 117.310654446756985, 42.410887686507543 ], [ 117.310660523278543, 42.410887670040893 ], [ 117.310660545499772, 42.410892172984724 ], [ 117.310666622021756, 42.410892156517761 ], [ 117.310666644243398, 42.410896659461585 ], [ 117.310672720765837, 42.410896642994288 ], [ 117.310672765210043, 42.410905648881929 ] ] ], [ [ [ 117.310678597285687, 42.410856100032177 ], [ 117.310678575063207, 42.410851597088332 ], [ 117.310672498545145, 42.41085161355592 ], [ 117.310672520767199, 42.410856116499779 ], [ 117.310678597285687, 42.410856100032177 ] ] ], [ [ [ 117.310709135450878, 42.410887538296173 ], [ 117.310709157675575, 42.410892041239975 ], [ 117.310715234197502, 42.410892024770426 ], [ 117.310715211972379, 42.410887521826616 ], [ 117.310709135450878, 42.410887538296173 ] ] ], [ [ [ 117.310715234197502, 42.410892024770426 ], [ 117.310715256422668, 42.410896527714229 ], [ 117.310721332945022, 42.410896511244367 ], [ 117.310721310719458, 42.410892008300564 ], [ 117.310715234197502, 42.410892024770426 ] ] ] ] } },
{ "type": "Feature", "properties": { "crown_id": 1164, "tree_id": "1165", "top_h_m": 16.652, "H_95_Mean": 16.778, "DBH": 33.8985, "Carbon_kg": 196.289972, "area_m2": 45.75 }, "geometry": { "type": "MultiPolygon", "coordinates": [ [ [ [ 117.310490314045737, 42.410874622153415 ], [ 117.310496390566144, 42.410874605695483 ], [ 117.310496412775606, 42.410879108639385 ], [ 117.310490336254759, 42.410879125097324 ], [ 117.310490425090961, 42.41089713687294 ], [ 117.310496501613528, 42.410897120415001 ], [ 117.310496546032525, 42.410906126302784 ], [ 117.310533005173056, 42.410906027548279 ], [ 117.310533049597268, 42.410915033436019 ], [ 117.310545202645812, 42.41091500051526 ], [ 117.31054518043284, 42.410910497571393 ], [ 117.310593792623322, 42.410910365875509 ], [ 117.310593748190414, 42.410901359987825 ], [ 117.310587671667491, 42.41090137645093 ], [ 117.310587693883491, 42.410905879394782 ], [ 117.310581617360128, 42.41090589585756 ], [ 117.31058155071338, 42.410892387026003 ], [ 117.310575474191324, 42.410892403488447 ], [ 117.310575451976192, 42.410887900544594 ], [ 117.31058760501945, 42.410887867619358 ], [ 117.31058758280345, 42.410883364675485 ], [ 117.310581506282261, 42.410883381138262 ], [ 117.310581461851157, 42.410874375250522 ], [ 117.310587538371479, 42.410874358787751 ], [ 117.310587493939522, 42.410865352899989 ], [ 117.310581417420053, 42.41086536936276 ], [ 117.310581372989006, 42.410856363474984 ], [ 117.310575296470404, 42.410856379937421 ], [ 117.310575274255328, 42.410851876993526 ], [ 117.310569197737166, 42.410851893455643 ], [ 117.310569175522517, 42.410847390511734 ], [ 117.310563099004781, 42.410847406973524 ], [ 117.310563121218991, 42.410851909917426 ], [ 117.310557044700829, 42.410851926378896 ], [ 117.310557022487046, 42.410847423434994 ], [ 117.310532716416077, 42.410847489277629 ], [ 117.310532694204014, 42.410842986333712 ], [ 117.310520541169367, 42.410843019253093 ], [ 117.310520563380535, 42.410847522197024 ], [ 117.310526639898313, 42.410847505737486 ], [ 117.310526662109908, 42.41085200868141 ], [ 117.310520585591718, 42.410852025140954 ], [ 117.3105206078029, 42.410856528084871 ], [ 117.310502378246966, 42.410856577461551 ], [ 117.310502400456855, 42.410861080405468 ], [ 117.31049632393777, 42.410861096863712 ], [ 117.310496346147232, 42.410865599807643 ], [ 117.310490269627692, 42.410865616265582 ], [ 117.310490314045737, 42.410874622153415 ] ], [ [ 117.310563343361451, 42.410896939356277 ], [ 117.310563321147185, 42.410892436412396 ], [ 117.310569397669269, 42.410892419950585 ], [ 117.310569419883976, 42.410896922894445 ], [ 117.310563343361451, 42.410896939356277 ] ], [ [ 117.310569419883976, 42.410896922894445 ], [ 117.310575496406486, 42.410896906432313 ], [ 117.310575518621619, 42.41090140937618 ], [ 117.310569442098668, 42.410901425838318 ], [ 117.310569419883976, 42.410896922894445 ] ], [ [ 117.31050863244829, 42.410892584554233 ], [ 117.310508565817244, 42.410879075722534 ], [ 117.310526795379673, 42.410879026344844 ], [ 117.31052686201464, 42.410892535176529 ], [ 117.31050863244829, 42.410892584554233 ] ] ], [ [ [ 117.310490314045737, 42.410874622153415 ], [ 117.31048423752533, 42.410874638611027 ], [ 117.310484259733926, 42.41087914155495 ], [ 117.310490336254759, 42.410879125097324 ], [ 117.310490314045737, 42.410874622153415 ] ] ], [ [ [ 117.310569175522517, 42.410847390511734 ], [ 117.310575252040223, 42.410847374049617 ], [ 117.310575229825133, 42.410842871105721 ], [ 117.310569153307867, 42.410842887567824 ], [ 117.310569175522517, 42.410847390511734 ] ] ], [ [ [ 117.310587493939522, 42.410865352899989 ], [ 117.310593570458948, 42.410865336436899 ], [ 117.310593548242551, 42.410860833493032 ], [ 117.310587471723551, 42.410860849956116 ], [ 117.310587493939522, 42.410865352899989 ] ] ] ] } },
{ "type": "Feature", "properties": { "crown_id": 1173, "tree_id": "1174", "top_h_m": 18.345, "H_95_Mean": 19.345, "DBH": 29.228, "Carbon_kg": 158.382499, "area_m2": 19.75 }, "geometry": { "type": "Polygon", "coordinates": [ [ [ 117.310642404813464, 42.410910234159019 ], [ 117.310648481337211, 42.410910217693008 ], [ 117.310648459116834, 42.410905714749191 ], [ 117.310654535640168, 42.410905698282868 ], [ 117.310654557860971, 42.410910201226663 ], [ 117.310666710908421, 42.410910168293036 ], [ 117.310666666465067, 42.410901162405416 ], [ 117.310660589942231, 42.410901178872379 ], [ 117.310660567720987, 42.410896675928562 ], [ 117.310654491198548, 42.410896692395205 ], [ 117.310654468977773, 42.410892189451381 ], [ 117.310648392455761, 42.410892205917712 ], [ 117.310648325794716, 42.410878697086176 ], [ 117.310654402315436, 42.410878680619867 ], [ 117.31065433565314, 42.410865171788323 ], [ 117.310660412172524, 42.410865155321694 ], [ 117.310660367730151, 42.410856149433982 ], [ 117.310666444248682, 42.410856132967048 ], [ 117.310666422027055, 42.410851630023181 ], [ 117.310648192472812, 42.410851679423054 ], [ 117.310648214693117, 42.410856182366913 ], [ 117.310629985137496, 42.41085623176388 ], [ 117.31063002957552, 42.410865237651628 ], [ 117.310617876536696, 42.410865270581333 ], [ 117.310617898754828, 42.410869773525206 ], [ 117.310611822234989, 42.410869789989576 ], [ 117.310611844452723, 42.410874292933457 ], [ 117.310599691412108, 42.410874325861244 ], [ 117.310599713628946, 42.410878828805117 ], [ 117.310593637108212, 42.41087884526852 ], [ 117.310593681541079, 42.410887851156261 ], [ 117.310605834584294, 42.410887818229085 ], [ 117.310605856801587, 42.410892321172938 ], [ 117.31059978027956, 42.410892337636689 ], [ 117.310599802496441, 42.410896840580541 ], [ 117.310618032063871, 42.410896791188321 ], [ 117.310617987627495, 42.410887785300631 ], [ 117.310624064149096, 42.410887768835927 ], [ 117.310624108586325, 42.410896774723611 ], [ 117.310630185108764, 42.410896758258573 ], [ 117.310630207327847, 42.410901261202426 ], [ 117.310636283850712, 42.410901244737047 ], [ 117.310636306070222, 42.410905747680879 ], [ 117.310642382593528, 42.410905731215195 ], [ 117.310642404813464, 42.410910234159019 ] ], [ [ 117.310599735845813, 42.41088333174897 ], [ 117.310599713628946, 42.410878828805117 ], [ 117.310605790149708, 42.410878812341373 ], [ 117.310605812367001, 42.410883315285226 ], [ 117.310599735845813, 42.41088333174897 ] ] ] } }
]
}
