{
"type": "FeatureCollection",
"name": "tile_9_19",
"crs": { "type": "name", "properties": { "name": "urn:ogc:def:crs:OGC:1.3:CRS84" } },
"features": [
{ "type": "Feature", "properties": { "crown_id": 3504, "tree_id": "3507", "top_h_m": 21.767, "H_95_Mean": 22.6479, "DBH": 27.8476, "Carbon_kg": 157.706631, "area_m2": 12.25 }, "geometry": { "type": "MultiPolygon", "coordinates": [ [ [ [ 117.31436236603551, 42.409909432701603 ], [ 117.314362321065062, 42.409900426815568 ], [ 117.314374473913304, 42.409900393489501 ], [ 117.314374338996842, 42.409873375831346 ], [ 117.314380415418356, 42.409873359167854 ], [ 117.314380370445363, 42.409864353281776 ], [ 117.314386446865996, 42.409864336617957 ], [ 117.314386379405263, 42.40985082778883 ], [ 117.314368150147274, 42.409850877779292 ], [ 117.314368195118476, 42.409859883665391 ], [ 117.31436211869827, 42.409859900328236 ], [ 117.314362141183452, 42.409864403271285 ], [ 117.314343911921497, 42.409864453257896 ], [ 117.314343979373149, 42.409877962087045 ], [ 117.314350055795103, 42.409877945425158 ], [ 117.314350010826459, 42.409868939539081 ], [ 117.314368240089721, 42.409868889551483 ], [ 117.314368307546587, 42.409882398380596 ], [ 117.314350078279432, 42.409882448368201 ], [ 117.314350123248104, 42.409891454254279 ], [ 117.314344046824843, 42.409891470916172 ], [ 117.314344069308746, 42.409895973859207 ], [ 117.314331916461313, 42.409896007182034 ], [ 117.314331961427413, 42.409905013068105 ], [ 117.314356267125731, 42.409904946421129 ], [ 117.314356289610529, 42.409909449364157 ], [ 117.31436236603551, 42.409909432701603 ] ] ], [ [ [ 117.314386649248476, 42.409904863105169 ], [ 117.314386626761532, 42.409900360162162 ], [ 117.314380550337404, 42.409900376825988 ], [ 117.31438057282395, 42.409904879768995 ], [ 117.314386649248476, 42.409904863105169 ] ] ] ] } },
{ "type": "Feature", "properties": { "crown_id": 3529, "tree_id": "3532", "top_h_m": 22.33, "H_95_Mean": 22.2181, "DBH": 32.6402, "Carbon_kg": 214.746824, "area_m2": 23.5 }, "geometry": { "type": "Polygon", "coordinates": [ [ [ 117.314404901010349, 42.409909316054723 ], [ 117.314410977435301, 42.409909299389589 ], [ 117.314410932457889, 42.409900293503597 ], [ 117.314441314578247, 42.409900210173163 ], [ 117.314441292087366, 42.40989570723017 ], [ 117.314459521358202, 42.409895657228049 ], [ 117.314459476373898, 42.409886651342077 ], [ 117.314453399951148, 42.409886668009769 ], [ 117.314453354967696, 42.409877662123769 ], [ 117.314447278545842, 42.40987767879114 ], [ 117.314447256054549, 42.409873175848148 ], [ 117.314441179633107, 42.409873192515178 ], [ 117.314441157142255, 42.409868689572171 ], [ 117.314429004300223, 42.409868722905266 ], [ 117.314428936830353, 42.409855214076202 ], [ 117.31442286041063, 42.409855230742266 ], [ 117.314422882900132, 42.409859733685302 ], [ 117.314392500799272, 42.409859817010783 ], [ 117.31439254577397, 42.409868822896868 ], [ 117.314386469352925, 42.409868839560993 ], [ 117.314386514326785, 42.409877845447063 ], [ 117.314380437904845, 42.409877862110882 ], [ 117.314380527850886, 42.409895873882974 ], [ 117.314392680698234, 42.409895840554995 ], [ 117.314392725673002, 42.409904846441009 ], [ 117.314404878522069, 42.40990481311173 ], [ 117.314404901010349, 42.409909316054723 ] ] ] } },
{ "type": "Feature", "properties": { "crown_id": 3562, "tree_id": "3565", "top_h_m": 22.305, "H_95_Mean": 21.8379, "DBH": 29.5562, "Carbon_kg": 174.027157, "area_m2": 16.5 }, "geometry": { "type": "Polygon", "coordinates": [ [ [ 117.314465597781819, 42.409895640560023 ], [ 117.314514209170468, 42.40989550720429 ], [ 117.314514186674401, 42.409891004261326 ], [ 117.31452633952064, 42.409890970919179 ], [ 117.314526317023692, 42.409886467976214 ], [ 117.314532393446385, 42.409886451304665 ], [ 117.314532415943745, 42.409890954247615 ], [ 117.314538492366879, 42.409890937575724 ], [ 117.314538447371234, 42.409881931689817 ], [ 117.314526294526758, 42.409881965033257 ], [ 117.314526272029823, 42.409877462090286 ], [ 117.314501966342533, 42.409877528773272 ], [ 117.314501943847347, 42.409873025830287 ], [ 117.314489791004533, 42.409873059169847 ], [ 117.314489768510228, 42.409868556226854 ], [ 117.314483692089254, 42.409868572896144 ], [ 117.314483669595376, 42.409864069953144 ], [ 117.314465440333706, 42.409864119959082 ], [ 117.314465417841149, 42.409859617016075 ], [ 117.314435035740459, 42.409859700352847 ], [ 117.314435058230856, 42.409864203295861 ], [ 117.314447211071993, 42.409864169962113 ], [ 117.314447233563271, 42.409868672905141 ], [ 117.314453309984287, 42.409868656237769 ], [ 117.314453332475978, 42.409873159180769 ], [ 117.314459408897434, 42.409873142513099 ], [ 117.314459453881724, 42.409882148399085 ], [ 117.314465530304034, 42.409882131731067 ], [ 117.314465597781819, 42.409895640560023 ] ] ] } },
{ "type": "Feature", "properties": { "crown_id": 3563, "tree_id": "3566", "top_h_m": 18.66, "H_95_Mean": 18.51, "DBH": 21.7041, "Carbon_kg": 84.694775, "area_m2": 6.75 }, "geometry": { "type": "Polygon", "coordinates": [ [ [ 117.314544546291728, 42.409886417960593 ], [ 117.314550622714364, 42.40988640128807 ], [ 117.314550600215711, 42.409881898345105 ], [ 117.314568829482354, 42.409881848325611 ], [ 117.31456885198233, 42.409886351268561 ], [ 117.31457492840498, 42.409886334594752 ], [ 117.314574905904564, 42.409881831651809 ], [ 117.314580982326774, 42.409881814977666 ], [ 117.31458089232342, 42.40986380320588 ], [ 117.31456266306202, 42.409863853227279 ], [ 117.314562640562499, 42.409859350284314 ], [ 117.3145504877224, 42.409859383630291 ], [ 117.314550532719707, 42.409868389516227 ], [ 117.314544456298776, 42.40986840618875 ], [ 117.314544546291728, 42.409886417960593 ] ] ] } },
{ "type": "Feature", "properties": { "crown_id": 3597, "tree_id": "3600", "top_h_m": 20.537, "H_95_Mean": 21.85, "DBH": 28.8469, "Carbon_kg": 165.766591, "area_m2": 15.0 }, "geometry": { "type": "Polygon", "coordinates": [ [ [ 117.314532348451635, 42.409877445418736 ], [ 117.314538424873447, 42.409877428746867 ], [ 117.314538357380059, 42.40986391991796 ], [ 117.314544433800563, 42.409863903245771 ], [ 117.314544343807711, 42.409845891473857 ], [ 117.314538267388969, 42.409845908146039 ], [ 117.314538244891196, 42.409841405203046 ], [ 117.31453216847288, 42.409841421874887 ], [ 117.314532145975562, 42.409836918931909 ], [ 117.314519993139768, 42.409836952274638 ], [ 117.314519970643289, 42.409832449331631 ], [ 117.314507817808362, 42.409832482673067 ], [ 117.314507862799516, 42.409841488559088 ], [ 117.314501786381172, 42.409841505229323 ], [ 117.314501808876315, 42.40984600817233 ], [ 117.314495732457516, 42.40984602484226 ], [ 117.314495754952247, 42.409850527785267 ], [ 117.314489678533022, 42.409850544454862 ], [ 117.314489746015909, 42.409864053283854 ], [ 117.314495822436442, 42.409864036614252 ], [ 117.314495844931187, 42.409868539557245 ], [ 117.31450799777312, 42.409868506217052 ], [ 117.314508020268732, 42.409873009160037 ], [ 117.314532325954275, 42.409872942475765 ], [ 117.314532348451635, 42.409877445418736 ] ] ] } },
{ "type": "Feature", "properties": { "crown_id": 3644, "tree_id": "3647", "top_h_m": 23.92, "H_95_Mean": 24.363, "DBH": 27.1743, "Carbon_kg": 156.739135, "area_m2": 9.75 }, "geometry": { "type": "Polygon", "coordinates": [ [ [ 117.31439247831193, 42.409855314067755 ], [ 117.314416783990893, 42.409855247408018 ], [ 117.314416761501818, 42.409850744464983 ], [ 117.314428914340397, 42.409850711133174 ], [ 117.31442889185044, 42.409846208190153 ], [ 117.314434968269296, 42.409846191523762 ], [ 117.314434878307836, 42.409828179751599 ], [ 117.314428801890742, 42.409828196417976 ], [ 117.314428779400814, 42.409823693474934 ], [ 117.314422702984118, 42.409823710140969 ], [ 117.314422680494644, 42.40981920719792 ], [ 117.314416604078417, 42.409819223863636 ], [ 117.31441662656745, 42.409823726806692 ], [ 117.314398397317348, 42.409823776801922 ], [ 117.314398509756117, 42.409846291517212 ], [ 117.314392433337233, 42.409846308181656 ], [ 117.31439247831193, 42.409855314067755 ] ], [ [ 117.314404586175002, 42.409846274852441 ], [ 117.314404563686793, 42.409841771909399 ], [ 117.314410640105237, 42.409841755244301 ], [ 117.314410662593872, 42.409846258187351 ], [ 117.314404586175002, 42.409846274852441 ] ] ] } },
{ "type": "Feature", "properties": { "crown_id": 3655, "tree_id": "3658", "top_h_m": 20.527, "H_95_Mean": 21.435, "DBH": 28.9482, "Carbon_kg": 165.059212, "area_m2": 15.75 }, "geometry": { "type": "Polygon", "coordinates": [ [ [ 117.314568716982521, 42.409859333610839 ], [ 117.314593022662649, 42.409859266913728 ], [ 117.314592977659274, 42.409850261027827 ], [ 117.314599054078414, 42.409850244352739 ], [ 117.314598986572108, 42.409836735523854 ], [ 117.314592910154246, 42.409836752198913 ], [ 117.31459288765258, 42.409832249255942 ], [ 117.314586811235174, 42.409832265930689 ], [ 117.314586788733948, 42.40982776298771 ], [ 117.314568559482979, 42.409827813010004 ], [ 117.314568536983074, 42.409823310067019 ], [ 117.314556384149938, 42.409823343413592 ], [ 117.314556339151864, 42.409814337527592 ], [ 117.314544186320461, 42.409814370872873 ], [ 117.314544208818617, 42.409818873815887 ], [ 117.314538132402475, 42.40981889048804 ], [ 117.314538222393452, 42.409836902260061 ], [ 117.314544298811342, 42.409836885587879 ], [ 117.314544321309512, 42.409841388530872 ], [ 117.314550397727842, 42.409841371858377 ], [ 117.314550465223761, 42.40985488068732 ], [ 117.314568694482588, 42.409854830667882 ], [ 117.314568716982521, 42.409859333610839 ] ] ] } },
{ "type": "Feature", "properties": { "crown_id": 3661, "tree_id": "3664", "top_h_m": 20.67, "H_95_Mean": 20.9634, "DBH": 29.1029, "Carbon_kg": 164.660898, "area_m2": 16.75 }, "geometry": { "type": "Polygon", "coordinates": [ [ [ 117.314343889437609, 42.409859950314839 ], [ 117.31435604227805, 42.409859916990754 ], [ 117.314356019793308, 42.409855414047698 ], [ 117.314362096213102, 42.409855397385179 ], [ 117.314362051242753, 42.409846391499052 ], [ 117.314386356918362, 42.409846324845788 ], [ 117.314386334431447, 42.409841821902731 ], [ 117.314392410849919, 42.409841805238599 ], [ 117.314392365875278, 42.409832799352486 ], [ 117.314386289457701, 42.409832816016603 ], [ 117.314386311944574, 42.409837318959667 ], [ 117.314380235526556, 42.409837335623472 ], [ 117.314380213040081, 42.409832832680401 ], [ 117.314374136622504, 42.409832849343871 ], [ 117.314374114136498, 42.409828346400793 ], [ 117.314368037719348, 42.409828363063959 ], [ 117.314368015233768, 42.409823860120873 ], [ 117.314361938817015, 42.409823876783697 ], [ 117.31436189384678, 42.409814870897527 ], [ 117.314337588183264, 42.409814937545583 ], [ 117.314337610666655, 42.409819440488683 ], [ 117.314325457833988, 42.409819473810778 ], [ 117.314325480316512, 42.409823976753877 ], [ 117.314319403899745, 42.409823993414442 ], [ 117.314319448863927, 42.409832999300633 ], [ 117.314331601699223, 42.409832965979163 ], [ 117.314331714114147, 42.409855480694567 ], [ 117.314343866953735, 42.409855447371768 ], [ 117.314343889437609, 42.409859950314839 ] ] ] } },
{ "type": "Feature", "properties": { "crown_id": 3662, "tree_id": "3665", "top_h_m": 22.685, "H_95_Mean": 22.8807, "DBH": 39.125, "Carbon_kg": 314.845404, "area_m2": 45.0 }, "geometry": { "type": "MultiPolygon", "coordinates": [ [ [ [ 117.314483647101511, 42.409859567010145 ], [ 117.314483579619903, 42.409846058181124 ], [ 117.314489656038702, 42.409846041511855 ], [ 117.314489633544426, 42.409841538568848 ], [ 117.314495709962799, 42.409841521899253 ], [ 117.314495687468082, 42.409837018956246 ], [ 117.314501763886028, 42.409837002286324 ], [ 117.31450174139087, 42.409832499343302 ], [ 117.314495664973364, 42.409832516013225 ], [ 117.31449559748927, 42.409819007184161 ], [ 117.314489521073099, 42.409819023853736 ], [ 117.314489498578837, 42.409814520910707 ], [ 117.314483422163079, 42.409814537579962 ], [ 117.314483377175463, 42.409805531693884 ], [ 117.314465147930761, 42.409805581699729 ], [ 117.314465125438261, 42.409801078756679 ], [ 117.314446896194795, 42.409801128759597 ], [ 117.314446828721231, 42.409787619930398 ], [ 117.314428599481673, 42.409787669930388 ], [ 117.314428576991787, 42.40978316698731 ], [ 117.314410347753466, 42.409783216984408 ], [ 117.314410302776324, 42.409774211098217 ], [ 117.314392073540574, 42.409774261092394 ], [ 117.314392118515087, 42.409783266978607 ], [ 117.314379965689469, 42.409783300306465 ], [ 117.314380010662262, 42.409792306192664 ], [ 117.31436785783491, 42.409792339519235 ], [ 117.314367992748188, 42.409819357177795 ], [ 117.314374069164487, 42.409819340514652 ], [ 117.314374024192489, 42.409810334628482 ], [ 117.314392253438754, 42.409810284637132 ], [ 117.314392298413352, 42.409819290523295 ], [ 117.314410527662147, 42.409819240529032 ], [ 117.314410505173541, 42.409814737585968 ], [ 117.314428734421, 42.409814687588813 ], [ 117.3144287569109, 42.40981919053187 ], [ 117.314434833327141, 42.409819173865507 ], [ 117.314434855817481, 42.409823676808557 ], [ 117.314440932234163, 42.409823660141868 ], [ 117.314441022197329, 42.409841671914037 ], [ 117.314447098615744, 42.409841655247014 ], [ 117.31444712110698, 42.409846158190035 ], [ 117.314441044688152, 42.409846174857059 ], [ 117.314441067178976, 42.409850677800087 ], [ 117.314434990759679, 42.409850694466797 ], [ 117.314435013250076, 42.409855197409833 ], [ 117.314471471768272, 42.409855097404751 ], [ 117.314471494261269, 42.409859600347751 ], [ 117.314483647101511, 42.409859567010145 ] ], [ [ 117.314416491633253, 42.409796709148281 ], [ 117.314434720875468, 42.409796659150196 ], [ 117.31443478834646, 42.409810167979394 ], [ 117.314416559100337, 42.409810217977508 ], [ 117.314416491633253, 42.409796709148281 ] ] ], [ [ [ 117.314392343387937, 42.409828296409422 ], [ 117.314392320900637, 42.409823793466359 ], [ 117.314380168067217, 42.409823826794266 ], [ 117.314380190553649, 42.40982832973733 ], [ 117.314392343387937, 42.409828296409422 ] ] ] ] } },
{ "type": "Feature", "properties": { "crown_id": 3774, "tree_id": "3777", "top_h_m": 21.843, "H_95_Mean": 22.0466, "DBH": 19.912, "Carbon_kg": 78.947015, "area_m2": 3.5 }, "geometry": { "type": "Polygon", "coordinates": [ [ [ 117.314471201852712, 42.409801062088391 ], [ 117.314483354681641, 42.409801028750849 ], [ 117.314483332187834, 42.409796525807792 ], [ 117.314477255773824, 42.40979654247672 ], [ 117.314477188293765, 42.409783033647564 ], [ 117.314465035468302, 42.409783066984417 ], [ 117.31446501297583, 42.409778564041346 ], [ 117.314458936563511, 42.409778580709308 ], [ 117.314458981547602, 42.409787586595449 ], [ 117.314452905134416, 42.409787603263084 ], [ 117.314452950117655, 42.409796609149211 ], [ 117.314471179359799, 42.409796559145327 ], [ 117.314471201852712, 42.409801062088391 ] ] ] } },
{ "type": "Feature", "properties": { "crown_id": 3775, "tree_id": "3778", "top_h_m": 21.78, "H_95_Mean": 22.7416, "DBH": 34.4445, "Carbon_kg": 242.663769, "area_m2": 27.75 }, "geometry": { "type": "Polygon", "coordinates": [ [ [ 117.314495574994581, 42.409814504241126 ], [ 117.314513804241841, 42.409814454230442 ], [ 117.314513736753881, 42.409800945401365 ], [ 117.31452588958274, 42.409800912059318 ], [ 117.314525844589085, 42.409791906173247 ], [ 117.314519768175515, 42.409791922844441 ], [ 117.314519678189967, 42.40977391107225 ], [ 117.314525754601775, 42.409773894401077 ], [ 117.314525732104968, 42.409769391458028 ], [ 117.314519655693573, 42.409769408129193 ], [ 117.31451958820449, 42.409755899300009 ], [ 117.314507435384314, 42.40975593264136 ], [ 117.31450741288883, 42.409751429698296 ], [ 117.314495260069492, 42.409751463038347 ], [ 117.31449532755336, 42.409764971867574 ], [ 117.31447709832041, 42.409765021875266 ], [ 117.314477030840465, 42.409751513046011 ], [ 117.31448918365983, 42.409751479707886 ], [ 117.314489161165653, 42.409746976764801 ], [ 117.314477008347168, 42.409747010102933 ], [ 117.314476985853858, 42.409742507159827 ], [ 117.314470909445035, 42.409742523828406 ], [ 117.314470864459309, 42.409733517942193 ], [ 117.314464788051382, 42.409733534610453 ], [ 117.314464765558952, 42.409729031667339 ], [ 117.314446536336348, 42.409729081670143 ], [ 117.314446671283122, 42.409756099328789 ], [ 117.314458824103397, 42.409756065993875 ], [ 117.314458846595414, 42.409760568936967 ], [ 117.314464923005971, 42.40976055226902 ], [ 117.314464990483344, 42.409774061098275 ], [ 117.314471066895237, 42.409774044430009 ], [ 117.314471089388121, 42.409778547373065 ], [ 117.314483242212717, 42.409778514035565 ], [ 117.314483309694069, 42.40979202286475 ], [ 117.314489386107653, 42.409792006195488 ], [ 117.314489476084574, 42.409810017967672 ], [ 117.31449555249992, 42.409810001298091 ], [ 117.314495574994581, 42.409814504241126 ] ] ] } },
{ "type": "Feature", "properties": { "crown_id": 3776, "tree_id": "3779", "top_h_m": 21.945, "H_95_Mean": 22.3144, "DBH": 29.6231, "Carbon_kg": 177.068211, "area_m2": 16.0 }, "geometry": { "type": "MultiPolygon", "coordinates": [ [ [ [ 117.314526047060767, 42.40983243266043 ], [ 117.31453212347823, 42.409832415988902 ], [ 117.314532033489016, 42.409814404216874 ], [ 117.314519880657571, 42.409814437559575 ], [ 117.314519903153979, 42.409818940502596 ], [ 117.314501673905454, 42.409818990514253 ], [ 117.314501718895727, 42.409827996400288 ], [ 117.314526024563889, 42.40982792971743 ], [ 117.314526047060767, 42.40983243266043 ] ] ], [ [ [ 117.314532033489016, 42.409814404216874 ], [ 117.314538109904746, 42.409814387545033 ], [ 117.314538087407016, 42.409809884602019 ], [ 117.314556316652855, 42.409809834584586 ], [ 117.314556226656791, 42.409791822812529 ], [ 117.314562303070304, 42.409791806139424 ], [ 117.314562258071433, 42.409782800253367 ], [ 117.314568334484079, 42.409782783579942 ], [ 117.314568266984509, 42.40976927475085 ], [ 117.314550037750436, 42.409769324770146 ], [ 117.314550015251911, 42.409764821827103 ], [ 117.314531786019117, 42.409764871843485 ], [ 117.314531853510843, 42.409778380672641 ], [ 117.314525777098595, 42.409778397344127 ], [ 117.314525822092222, 42.409787403230219 ], [ 117.314531898505351, 42.409787386558726 ], [ 117.314532033489016, 42.409814404216874 ] ] ], [ [ [ 117.314531786019117, 42.409764871843485 ], [ 117.314531763521884, 42.409760368900422 ], [ 117.31452568711137, 42.409760385571914 ], [ 117.314525709608176, 42.409764888514971 ], [ 117.314531786019117, 42.409764871843485 ] ] ] ] } },
{ "type": "Feature", "properties": { "crown_id": 3818, "tree_id": "3821", "top_h_m": 21.56, "H_95_Mean": 21.6712, "DBH": 22.1902, "Carbon_kg": 97.217764, "area_m2": 5.5 }, "geometry": { "type": "Polygon", "coordinates": [ [ [ 117.314434653404561, 42.409783150320976 ], [ 117.314452882642811, 42.409783100320006 ], [ 117.314452837659616, 42.40977409443385 ], [ 117.314458914071494, 42.40977407776623 ], [ 117.314458869087431, 42.409765071880059 ], [ 117.31445279267642, 42.40976508854768 ], [ 117.314452770184857, 42.409760585604594 ], [ 117.314446693774272, 42.409760602271881 ], [ 117.314446716265422, 42.40976510521498 ], [ 117.314428487032345, 42.409765155214942 ], [ 117.314428509522202, 42.409769658158034 ], [ 117.314416356699269, 42.40976969148975 ], [ 117.314416401677249, 42.409778697375934 ], [ 117.314434630914249, 42.409778647377877 ], [ 117.314434653404561, 42.409783150320976 ] ] ] } },
{ "type": "Feature", "properties": { "crown_id": 3864, "tree_id": "3867", "top_h_m": 20.39, "H_95_Mean": 21.0853, "DBH": 25.8748, "Carbon_kg": 130.367811, "area_m2": 10.5 }, "geometry": { "type": "MultiPolygon", "coordinates": [ [ [ [ 117.314598649041187, 42.409769191378913 ], [ 117.314598671543195, 42.409773694321942 ], [ 117.314604747954959, 42.409773677646584 ], [ 117.314604725452512, 42.40976917470357 ], [ 117.314598649041187, 42.409769191378913 ] ] ], [ [ [ 117.314598649041187, 42.409769191378913 ], [ 117.314598604037144, 42.409760185492864 ], [ 117.314592527626687, 42.409760202167881 ], [ 117.314592437620433, 42.409742190395733 ], [ 117.314580284802972, 42.409742223744793 ], [ 117.3145802623023, 42.409737720801743 ], [ 117.314568109485691, 42.409737754149511 ], [ 117.31456813198551, 42.409742257092567 ], [ 117.314555979168034, 42.409742290439056 ], [ 117.314556001666972, 42.409746793382119 ], [ 117.314543848848601, 42.409746826727329 ], [ 117.314543893844771, 42.409755832613442 ], [ 117.314537817434726, 42.409755849285567 ], [ 117.314537839932385, 42.409760352228624 ], [ 117.314556069163871, 42.409760302211275 ], [ 117.314556091662823, 42.409764805154325 ], [ 117.314592550128268, 42.409764705110916 ], [ 117.314592572629863, 42.409769208053952 ], [ 117.314598649041187, 42.409769191378913 ] ] ] ] } }
]
}
