{
"type": "FeatureCollection",
"name": "tile_16_24",
"crs": { "type": "name", "properties": { "name": "urn:ogc:def:crs:OGC:1.3:CRS84" } },
"features": [
{ "type": "Feature", "properties": { "crown_id": 6364, "tree_id": "6370", "top_h_m": 20.99, "H_95_Mean": 21.692, "DBH": 22.7035, "Carbon_kg": 101.86127, "area_m2": 6.0 }, "geometry": { "type": "Polygon", "coordinates": [ [ [ 117.315984677675345, 42.40867565214478 ], [ 117.315996830285243, 42.408675618647514 ], [ 117.315996807684101, 42.408671115704237 ], [ 117.316002883988602, 42.408671098955118 ], [ 117.316002861387034, 42.408666596011834 ], [ 117.316015013995184, 42.40866656251265 ], [ 117.316014946187835, 42.408653053682798 ], [ 117.316008869885067, 42.40865307043255 ], [ 117.316008847283072, 42.408648567489259 ], [ 117.315984542073664, 42.408648634485012 ], [ 117.315984677675345, 42.40867565214478 ] ] ] } },
{ "type": "Feature", "properties": { "crown_id": 6379, "tree_id": "6385", "top_h_m": 23.87, "H_95_Mean": 23.4734, "DBH": 36.9789, "Carbon_kg": 285.289828, "area_m2": 34.5 }, "geometry": { "type": "Polygon", "coordinates": [ [ [ 117.3155837092512, 42.408690265662187 ], [ 117.315589785557819, 42.408690248934953 ], [ 117.315589717841647, 42.40867674010461 ], [ 117.315595794146944, 42.40867672337707 ], [ 117.31559570385707, 42.408658711603238 ], [ 117.31560178016062, 42.408658694875378 ], [ 117.315601712441975, 42.408645186044986 ], [ 117.315607788744217, 42.40864516931682 ], [ 117.315607721024307, 42.408631660486392 ], [ 117.315601644723358, 42.408631677214544 ], [ 117.315601622150481, 42.408627174271054 ], [ 117.315589469549451, 42.408627207726404 ], [ 117.315589446977469, 42.408622704782893 ], [ 117.315583370677388, 42.408622721510078 ], [ 117.315583393248943, 42.408627224453589 ], [ 117.315577316948406, 42.408627241180454 ], [ 117.315577339519521, 42.408631744123959 ], [ 117.315571263218558, 42.40863176085049 ], [ 117.315571285789247, 42.408636263793994 ], [ 117.315565209487843, 42.40863628052022 ], [ 117.315565232058105, 42.408640783463703 ], [ 117.31551662164317, 42.408640917261941 ], [ 117.315516644209964, 42.408645420205453 ], [ 117.315510567907637, 42.408645436928786 ], [ 117.315510613040374, 42.408654442815809 ], [ 117.315516689343553, 42.408654426092461 ], [ 117.315516802177655, 42.40867694080994 ], [ 117.31555933631509, 42.408676823737473 ], [ 117.315559358884968, 42.408681326680934 ], [ 117.315571511496472, 42.408681293228739 ], [ 117.315571534067217, 42.408685796172207 ], [ 117.315583686679588, 42.408685762718726 ], [ 117.3155837092512, 42.408690265662187 ] ] ] } },
{ "type": "Feature", "properties": { "crown_id": 6380, "tree_id": "6386", "top_h_m": 22.727, "H_95_Mean": 23.015, "DBH": 26.1006, "Carbon_kg": 139.72359, "area_m2": 9.25 }, "geometry": { "type": "Polygon", "coordinates": [ [ [ 117.315948219845453, 42.408675752628838 ], [ 117.315978601370375, 42.408675668892933 ], [ 117.315978488371144, 42.408653154176456 ], [ 117.315966335765538, 42.408653187671753 ], [ 117.315966313166584, 42.408648684728448 ], [ 117.315960236864186, 42.408648701475613 ], [ 117.315960214265687, 42.408644198532308 ], [ 117.315948061661786, 42.408644232025658 ], [ 117.315948084259418, 42.408648734968978 ], [ 117.31594200795702, 42.408648751715177 ], [ 117.315942030554254, 42.408653254658503 ], [ 117.31593595425143, 42.40865327140439 ], [ 117.315936022041825, 42.408666780234334 ], [ 117.315948174650103, 42.408666746742234 ], [ 117.315948219845453, 42.408675752628838 ] ] ] } },
{ "type": "Feature", "properties": { "crown_id": 6399, "tree_id": "6405", "top_h_m": 21.819, "H_95_Mean": 21.8701, "DBH": 20.854, "Carbon_kg": 86.244407, "area_m2": 4.25 }, "geometry": { "type": "Polygon", "coordinates": [ [ [ 117.316021045093464, 42.408657539876017 ], [ 117.316033197699866, 42.408657506374908 ], [ 117.316033039473737, 42.408625985771884 ], [ 117.316026963173599, 42.408626002522588 ], [ 117.316026985776858, 42.408630505465887 ], [ 117.316014833175686, 42.408630538966314 ], [ 117.316014923585385, 42.408648550739507 ], [ 117.316020999887741, 42.408648533989435 ], [ 117.316021045093464, 42.408657539876017 ] ] ] } },
{ "type": "Feature", "properties": { "crown_id": 6409, "tree_id": "6415", "top_h_m": 20.333, "H_95_Mean": 20.5134, "DBH": 22.7922, "Carbon_kg": 99.32812, "area_m2": 6.75 }, "geometry": { "type": "MultiPolygon", "coordinates": [ [ [ [ 117.31568077210639, 42.408658477384044 ], [ 117.315680794684923, 42.408662980327463 ], [ 117.315686870988841, 42.408662963595098 ], [ 117.315686848409854, 42.408658460651687 ], [ 117.31568077210639, 42.408658477384044 ] ] ], [ [ [ 117.31568077210639, 42.408658477384044 ], [ 117.315680704370777, 42.408644968553737 ], [ 117.315668551766393, 42.408645002017472 ], [ 117.31566850661109, 42.408635996130577 ], [ 117.3156381251044, 42.408636079784252 ], [ 117.315638170255355, 42.408645085671168 ], [ 117.315644246557568, 42.408645068941077 ], [ 117.3156442691335, 42.408649571884531 ], [ 117.315650345436154, 42.408649555154106 ], [ 117.315650390588885, 42.408658561041001 ], [ 117.31568077210639, 42.408658477384044 ] ] ] ] } },
{ "type": "Feature", "properties": { "crown_id": 6410, "tree_id": "6416", "top_h_m": 20.861, "H_95_Mean": 21.2672, "DBH": 24.4153, "Carbon_kg": 116.561837, "area_m2": 8.25 }, "geometry": { "type": "Polygon", "coordinates": [ [ [ 117.315705099900555, 42.408662913396086 ], [ 117.315711176204445, 42.408662896662442 ], [ 117.315711153623738, 42.40865839371903 ], [ 117.315723306230666, 42.408658360250769 ], [ 117.315723238485916, 42.408644851420519 ], [ 117.315717162183773, 42.408644868154809 ], [ 117.315717117021507, 42.40863586226795 ], [ 117.315704964418927, 42.408635895735543 ], [ 117.315704941838661, 42.408631392792095 ], [ 117.315686712936085, 42.408631442991052 ], [ 117.315686735515015, 42.408635945934513 ], [ 117.315674582912422, 42.408635979398873 ], [ 117.315674605490486, 42.408640482342314 ], [ 117.315686758093989, 42.408640448877946 ], [ 117.315686825830895, 42.40865395770826 ], [ 117.315692902133918, 42.408653940975576 ], [ 117.315692924713346, 42.408658443919009 ], [ 117.315705077320274, 42.408658410452681 ], [ 117.315705099900555, 42.408662913396086 ] ] ] } },
{ "type": "Feature", "properties": { "crown_id": 6411, "tree_id": "6417", "top_h_m": 21.175, "H_95_Mean": 21.665, "DBH": 24.2366, "Carbon_kg": 116.114516, "area_m2": 7.75 }, "geometry": { "type": "Polygon", "coordinates": [ [ [ 117.315729382534101, 42.408658343516159 ], [ 117.315759764051251, 42.408658259838262 ], [ 117.315759651130364, 42.408635745121245 ], [ 117.315765727431582, 42.408635728384716 ], [ 117.315765704846996, 42.408631225441304 ], [ 117.315735323342906, 42.408631309120722 ], [ 117.315735345925333, 42.408635812064148 ], [ 117.315723193322782, 42.408635845533681 ], [ 117.315723215904356, 42.4086403484771 ], [ 117.315729292206072, 42.408640331742497 ], [ 117.315729382534101, 42.408658343516159 ] ] ] } },
{ "type": "Feature", "properties": { "crown_id": 6412, "tree_id": "6418", "top_h_m": 21.088, "H_95_Mean": 21.5596, "DBH": 27.8975, "Carbon_kg": 153.733081, "area_m2": 13.5 }, "geometry": { "type": "Polygon", "coordinates": [ [ [ 117.315856984905295, 42.408657992014902 ], [ 117.315863061208631, 42.408657975273208 ], [ 117.315863038617053, 42.40865347232986 ], [ 117.315875191222844, 42.408653438845505 ], [ 117.315875168630399, 42.408648935902136 ], [ 117.315881244932839, 42.408648919159482 ], [ 117.31588119974711, 42.408639913272779 ], [ 117.315899428651804, 42.408639863042886 ], [ 117.315899383463474, 42.408630857156183 ], [ 117.315887230862089, 42.408630890643096 ], [ 117.315887208268805, 42.408626387699734 ], [ 117.315881131968524, 42.408626404442693 ], [ 117.315881109375695, 42.408621901499323 ], [ 117.315868956775986, 42.408621934984282 ], [ 117.315868934184024, 42.408617432040913 ], [ 117.31585070528574, 42.408617482265925 ], [ 117.315850750467106, 42.408626488152706 ], [ 117.315838597866488, 42.408626521634453 ], [ 117.315838665635937, 42.408640030464589 ], [ 117.315844741937539, 42.408640013723875 ], [ 117.315844809708338, 42.408653522553969 ], [ 117.315856962314157, 42.408653489071547 ], [ 117.315856984905295, 42.408657992014902 ] ] ] } },
{ "type": "Feature", "properties": { "crown_id": 6419, "tree_id": "6425", "top_h_m": 22.106, "H_95_Mean": 22.7794, "DBH": 31.9843, "Carbon_kg": 209.20254, "area_m2": 20.75 }, "geometry": { "type": "MultiPolygon", "coordinates": [ [ [ [ 117.315814495958037, 42.408667115084498 ], [ 117.315820572262282, 42.408667098345049 ], [ 117.315820549673731, 42.408662595401687 ], [ 117.315826625977522, 42.408662578661925 ], [ 117.31582658079958, 42.408653572775194 ], [ 117.315838733405414, 42.408653539294704 ], [ 117.315838688225767, 42.408644533407958 ], [ 117.315832611923696, 42.40864455014836 ], [ 117.315832498976803, 42.408622035431449 ], [ 117.315783888577585, 42.408622169342962 ], [ 117.315783911163493, 42.408626672286367 ], [ 117.315777834863141, 42.408626689023876 ], [ 117.315777857448609, 42.408631191967281 ], [ 117.315771781147788, 42.408631208704449 ], [ 117.315771826317871, 42.408640214591266 ], [ 117.315765750016197, 42.408640231328121 ], [ 117.315765817770043, 42.408653740158329 ], [ 117.315796199284875, 42.40865365647079 ], [ 117.315796221871679, 42.408658159414173 ], [ 117.315808374478451, 42.408658125936888 ], [ 117.315808397066121, 42.408662628880258 ], [ 117.31581447336994, 42.408662612141136 ], [ 117.315814495958037, 42.408667115084498 ] ] ], [ [ [ 117.315832498976803, 42.408622035431449 ], [ 117.315844651576555, 42.408622001950341 ], [ 117.315844628986326, 42.408617499006958 ], [ 117.315832476387442, 42.408617532488059 ], [ 117.315832498976803, 42.408622035431449 ] ] ] ] } },
{ "type": "Feature", "properties": { "crown_id": 6420, "tree_id": "6426", "top_h_m": 21.69, "H_95_Mean": 21.465, "DBH": 22.5909, "Carbon_kg": 100.22011, "area_m2": 6.0 }, "geometry": { "type": "Polygon", "coordinates": [ [ [ 117.315923779049839, 42.408648801951855 ], [ 117.315935931654636, 42.40864876846107 ], [ 117.315935909057856, 42.408644265517729 ], [ 117.315941985359814, 42.40864424877185 ], [ 117.315941962762622, 42.40863974582853 ], [ 117.315948039064125, 42.408639729082331 ], [ 117.315947948673596, 42.408621717308996 ], [ 117.315941872373799, 42.408621734055174 ], [ 117.315941894971004, 42.408626236998522 ], [ 117.315935818670766, 42.408626253744394 ], [ 117.315935841267546, 42.408630756687735 ], [ 117.315917612365524, 42.408630806923405 ], [ 117.315917567174623, 42.408621801036695 ], [ 117.315911490874797, 42.408621817781274 ], [ 117.31591153606486, 42.408630823667984 ], [ 117.315905459764167, 42.408630840412243 ], [ 117.315905504953349, 42.408639846298946 ], [ 117.315923733858, 42.408639796065188 ], [ 117.315923779049839, 42.408648801951855 ] ] ] } },
{ "type": "Feature", "properties": { "crown_id": 6441, "tree_id": "6447", "top_h_m": 22.572, "H_95_Mean": 22.4934, "DBH": 30.5407, "Carbon_kg": 189.188653, "area_m2": 17.75 }, "geometry": { "type": "Polygon", "coordinates": [ [ [ 117.315972389468953, 42.408648667980955 ], [ 117.315978465771295, 42.40864865123315 ], [ 117.315978443171474, 42.408644148289838 ], [ 117.316008824681063, 42.40864406454596 ], [ 117.316008734273126, 42.408626052772746 ], [ 117.316020886873446, 42.408626019272951 ], [ 117.316020864270584, 42.408621516329646 ], [ 117.316033016870009, 42.408621482828579 ], [ 117.316032926455236, 42.408603471055329 ], [ 117.316020773859279, 42.408603504556375 ], [ 117.316020796462098, 42.408608007499694 ], [ 117.316014720163679, 42.408608024249737 ], [ 117.316014765368465, 42.408617030136384 ], [ 117.315990460171278, 42.408617097133359 ], [ 117.315990437570619, 42.408612594190011 ], [ 117.315966132375081, 42.40861266118182 ], [ 117.315966154973992, 42.408617164125168 ], [ 117.315954002375307, 42.408617197619144 ], [ 117.315954115365656, 42.40863971233582 ], [ 117.315966267968662, 42.408639678841816 ], [ 117.315966290567616, 42.408644181785135 ], [ 117.315972366869559, 42.408644165037643 ], [ 117.315972389468953, 42.408648667980955 ] ] ] } },
{ "type": "Feature", "properties": { "crown_id": 6480, "tree_id": "6486", "top_h_m": 20.512, "H_95_Mean": 21.7075, "DBH": 33.2987, "Carbon_kg": 220.514939, "area_m2": 26.5 }, "geometry": { "type": "Polygon", "coordinates": [ [ [ 117.315644178829842, 42.408631560110692 ], [ 117.315680636635221, 42.408631459723402 ], [ 117.315680614056689, 42.408626956779941 ], [ 117.315698842958, 42.408626906581965 ], [ 117.31569879779839, 42.408617900695063 ], [ 117.31569272149882, 42.408617917428046 ], [ 117.315692631181406, 42.408599905654192 ], [ 117.315698707479214, 42.408599888921231 ], [ 117.315698684899445, 42.408595385977748 ], [ 117.315710837494208, 42.408595352510858 ], [ 117.315710792332922, 42.408586346623913 ], [ 117.315716868629437, 42.408586329889992 ], [ 117.315716823467298, 42.408577324003033 ], [ 117.315728976058551, 42.408577290534225 ], [ 117.315728953476636, 42.408572787590764 ], [ 117.315710724591057, 42.408572837793479 ], [ 117.315710702010435, 42.408568334850003 ], [ 117.315680320536529, 42.408568418514747 ], [ 117.315680343114977, 42.408572921458237 ], [ 117.315668190524519, 42.408572954921894 ], [ 117.315668235679667, 42.408581960808895 ], [ 117.31566215938355, 42.408581977540237 ], [ 117.315662204537858, 42.408590983427224 ], [ 117.315656128240889, 42.408591000158253 ], [ 117.315656173394359, 42.408600006045233 ], [ 117.315650097096494, 42.408600022775943 ], [ 117.315650232554404, 42.408627040436812 ], [ 117.315644156253938, 42.40862705716723 ], [ 117.315644178829842, 42.408631560110692 ] ] ] } },
{ "type": "Feature", "properties": { "crown_id": 6481, "tree_id": "6487", "top_h_m": 22.464, "H_95_Mean": 22.665, "DBH": 33.3038, "Carbon_kg": 226.28696, "area_m2": 24.5 }, "geometry": { "type": "Polygon", "coordinates": [ [ [ 117.315711018139538, 42.408631376058466 ], [ 117.315729247042071, 42.408631325855644 ], [ 117.315729224460071, 42.408626822912218 ], [ 117.315771758562775, 42.408626705761037 ], [ 117.315771735977762, 42.408622202817618 ], [ 117.315777812277688, 42.40862218608045 ], [ 117.315777789692206, 42.408617683137031 ], [ 117.315771713392721, 42.408617699874199 ], [ 117.315771645637696, 42.408604191043914 ], [ 117.315765569339518, 42.408604207780755 ], [ 117.315765524170374, 42.408595201893867 ], [ 117.31575337157571, 42.408595235366562 ], [ 117.315753281241015, 42.408577223592744 ], [ 117.315735052354185, 42.408577273799338 ], [ 117.315735074936555, 42.408581776742821 ], [ 117.315722922344435, 42.408581810212269 ], [ 117.31572296750744, 42.408590816099206 ], [ 117.315716891210513, 42.408590832833454 ], [ 117.315716936372667, 42.408599838720384 ], [ 117.315704783777036, 42.408599872187935 ], [ 117.31570480635726, 42.408604375131389 ], [ 117.315698730059012, 42.408604391864685 ], [ 117.315698775218593, 42.408613397751601 ], [ 117.315704851517708, 42.408613381018299 ], [ 117.315704919258437, 42.408626889848655 ], [ 117.315710995558845, 42.408626873115026 ], [ 117.315711018139538, 42.408631376058466 ] ] ] } },
{ "type": "Feature", "properties": { "crown_id": 6500, "tree_id": "6506", "top_h_m": 20.08, "H_95_Mean": 20.2199, "DBH": 26.3934, "Carbon_kg": 132.365716, "area_m2": 12.25 }, "geometry": { "type": "Polygon", "coordinates": [ [ [ 117.315923666070304, 42.408626287235158 ], [ 117.315929742370528, 42.408626270489933 ], [ 117.315929719774218, 42.408621767546585 ], [ 117.315935796074015, 42.408621750801039 ], [ 117.315935773477278, 42.408617247857698 ], [ 117.315947926075964, 42.408617214365655 ], [ 117.315947903478346, 42.4086127114223 ], [ 117.315960056076165, 42.408612677928971 ], [ 117.315959988280738, 42.408599169098927 ], [ 117.315953911983144, 42.408599185845745 ], [ 117.315953798993021, 42.408576671128912 ], [ 117.315941646402152, 42.408576704621545 ], [ 117.315941623805031, 42.408572201678176 ], [ 117.315935547510037, 42.408572218423998 ], [ 117.315935592703426, 42.408581224310772 ], [ 117.315923440111661, 42.408581257801487 ], [ 117.315923462707488, 42.408585760744877 ], [ 117.315929539003832, 42.408585743999673 ], [ 117.315929606792679, 42.408599252829788 ], [ 117.315923530495056, 42.408599269574992 ], [ 117.315923553090911, 42.408603772518369 ], [ 117.315917476792848, 42.408603789263253 ], [ 117.315917544579165, 42.408617298093347 ], [ 117.315923620878536, 42.408617281348455 ], [ 117.315923666070304, 42.408626287235158 ] ] ] } },
{ "type": "Feature", "properties": { "crown_id": 6513, "tree_id": "6519", "top_h_m": 19.68, "H_95_Mean": 19.8774, "DBH": 24.685, "Carbon_kg": 114.501884, "area_m2": 9.75 }, "geometry": { "type": "Polygon", "coordinates": [ [ [ 117.315996513869479, 42.408612577441261 ], [ 117.316008666467212, 42.40861254394278 ], [ 117.316008621263308, 42.408603538056141 ], [ 117.316014697561315, 42.408603521306411 ], [ 117.316014674958907, 42.408599018363091 ], [ 117.31603290385155, 42.408598968112003 ], [ 117.316032881247878, 42.408594465168683 ], [ 117.316002499762291, 42.408594548918856 ], [ 117.316002454559296, 42.408585543032167 ], [ 117.315990301966778, 42.408585576529966 ], [ 117.315990324567395, 42.408590079473328 ], [ 117.315972095677267, 42.408590129717624 ], [ 117.31597207307793, 42.408585626774261 ], [ 117.315959920485355, 42.408585660268848 ], [ 117.315959965682282, 42.408594666155565 ], [ 117.315966041979436, 42.408594649408428 ], [ 117.315966109776141, 42.408608158238479 ], [ 117.315996491268393, 42.408608074497934 ], [ 117.315996513869479, 42.408612577441261 ] ] ] } },
{ "type": "Feature", "properties": { "crown_id": 6523, "tree_id": "6529", "top_h_m": 22.634, "H_95_Mean": 22.3833, "DBH": 36.2943, "Carbon_kg": 267.125093, "area_m2": 35.0 }, "geometry": { "type": "Polygon", "coordinates": [ [ [ 117.315613819898971, 42.408636146701397 ], [ 117.315632048803053, 42.408636096514016 ], [ 117.315632026228016, 42.40863159357054 ], [ 117.315638102528936, 42.408631576840783 ], [ 117.31563805737801, 42.408622570953831 ], [ 117.315644133678035, 42.408622554223747 ], [ 117.315643998222768, 42.408595536562842 ], [ 117.315650074520192, 42.408595519832446 ], [ 117.315650029367589, 42.408586513945473 ], [ 117.315656105664161, 42.408586497214763 ], [ 117.315656083087447, 42.408581994271266 ], [ 117.315643930495199, 42.408582027732358 ], [ 117.315643907919338, 42.408577524788839 ], [ 117.315637831623661, 42.408577541518895 ], [ 117.315637809048226, 42.408573038575376 ], [ 117.315631732752962, 42.408573055305112 ], [ 117.315631710177996, 42.408568552361594 ], [ 117.315625633883187, 42.40856856909101 ], [ 117.315625611308647, 42.40856406614747 ], [ 117.315619535014235, 42.408564082876573 ], [ 117.315619489866066, 42.408555076989494 ], [ 117.315613413572521, 42.408555093718256 ], [ 117.315613390998877, 42.408550590774709 ], [ 117.315607314705773, 42.408550607503138 ], [ 117.315607382425398, 42.408564116333757 ], [ 117.315601306130972, 42.408564133061873 ], [ 117.315601351276555, 42.408573138948938 ], [ 117.315595274981263, 42.408573155676741 ], [ 117.315595342698373, 42.408586664507332 ], [ 117.315571037511916, 42.408586731415333 ], [ 117.315571060082561, 42.408591234358866 ], [ 117.315564983785478, 42.408591251085063 ], [ 117.315565051496137, 42.408604759915647 ], [ 117.315583280391238, 42.408604709736053 ], [ 117.315583302962764, 42.408609212679565 ], [ 117.315589379261553, 42.408609195952387 ], [ 117.315589424405474, 42.40861820183941 ], [ 117.315595500705143, 42.408618185111898 ], [ 117.315595523277551, 42.408622688055388 ], [ 117.3156076758777, 42.408622654599412 ], [ 117.315607698450989, 42.408627157542909 ], [ 117.315613774751512, 42.408627140814438 ], [ 117.315613819898971, 42.408636146701397 ] ] ] } },
{ "type": "Feature", "properties": { "crown_id": 6536, "tree_id": "6542", "top_h_m": 21.501, "H_95_Mean": 21.3791, "DBH": 32.052, "Carbon_kg": 202.358443, "area_m2": 23.5 }, "geometry": { "type": "Polygon", "coordinates": [ [ [ 117.315783865991705, 42.40861766639955 ], [ 117.315826400088, 42.408617549228126 ], [ 117.31582637749905, 42.408613046284714 ], [ 117.315868911592062, 42.408612929097515 ], [ 117.3158688890001, 42.408608426154139 ], [ 117.315874965298633, 42.408608409411826 ], [ 117.315874897521468, 42.408594900581647 ], [ 117.315862744927003, 42.408594934065945 ], [ 117.315862677152481, 42.408581425235731 ], [ 117.315856600856549, 42.40858144197739 ], [ 117.315856555674429, 42.408572436090552 ], [ 117.315838326789176, 42.40857248631356 ], [ 117.315838371968681, 42.408581492200419 ], [ 117.315826219376731, 42.408581525680823 ], [ 117.315826241965624, 42.408586028624242 ], [ 117.315820165669209, 42.408586045363961 ], [ 117.315820188257689, 42.408590548307387 ], [ 117.315783730476483, 42.408590648738979 ], [ 117.315783753062348, 42.408595151682412 ], [ 117.315771600467713, 42.408595185157047 ], [ 117.315771623052697, 42.408599688100487 ], [ 117.315777699350463, 42.408599671363326 ], [ 117.315777767106766, 42.408613180193612 ], [ 117.315783843405825, 42.408613163456124 ], [ 117.315783865991705, 42.40861766639955 ] ], [ [ 117.315789897118577, 42.408608643774905 ], [ 117.315789829359659, 42.408595134944626 ], [ 117.315808058251577, 42.408595084729299 ], [ 117.315808126014389, 42.408608593559556 ], [ 117.315789897118577, 42.408608643774905 ] ] ] } },
{ "type": "Feature", "properties": { "crown_id": 6537, "tree_id": "6543", "top_h_m": 20.012, "H_95_Mean": 20.507, "DBH": 31.5969, "Carbon_kg": 191.825307, "area_m2": 24.0 }, "geometry": { "type": "MultiPolygon", "coordinates": [ [ [ [ 117.315893284569057, 42.408626370956434 ], [ 117.315905437169576, 42.408626337468881 ], [ 117.315905391980408, 42.408617331582164 ], [ 117.315911468279808, 42.408617314837912 ], [ 117.315911377899781, 42.408599303064442 ], [ 117.315917454197418, 42.408599286319877 ], [ 117.315917431602003, 42.408594783376508 ], [ 117.3159235078992, 42.408594766631616 ], [ 117.315923485303344, 42.408590263688247 ], [ 117.315917409006573, 42.408590280433117 ], [ 117.315917341220356, 42.408576771602966 ], [ 117.315929493811282, 42.408576738112906 ], [ 117.31592944861876, 42.408567732226132 ], [ 117.315911219734971, 42.408567782460729 ], [ 117.315911197140039, 42.408563279517324 ], [ 117.315905120845855, 42.408563296261548 ], [ 117.315905098251349, 42.408558793318136 ], [ 117.315899021957605, 42.408558810062033 ], [ 117.315898999363526, 42.408554307118614 ], [ 117.315886846776905, 42.408554340605441 ], [ 117.315886891963331, 42.408563346492272 ], [ 117.315874739374948, 42.408563379977807 ], [ 117.315874784559639, 42.408572385864638 ], [ 117.315862631969509, 42.4085724193489 ], [ 117.315862654561002, 42.408576922292312 ], [ 117.315868730856508, 42.408576905550341 ], [ 117.315868798632295, 42.408590414380562 ], [ 117.315880951225893, 42.408590380895632 ], [ 117.315881064190009, 42.408612895612571 ], [ 117.315874987891021, 42.40861291235521 ], [ 117.315875010483424, 42.408617415298586 ], [ 117.315887163082223, 42.408617381812995 ], [ 117.315887185675521, 42.40862188475635 ], [ 117.315893261975347, 42.408621868013064 ], [ 117.315893284569057, 42.408626370956434 ] ] ], [ [ [ 117.31592944861876, 42.408567732226132 ], [ 117.315941601207896, 42.408567698734792 ], [ 117.315941578610762, 42.408563195791395 ], [ 117.315929426022493, 42.408563229282734 ], [ 117.31592944861876, 42.408567732226132 ] ] ] ] } },
{ "type": "Feature", "properties": { "crown_id": 6576, "tree_id": "6582", "top_h_m": 19.12, "H_95_Mean": 19.9244, "DBH": 22.2616, "Carbon_kg": 93.104489, "area_m2": 6.5 }, "geometry": { "type": "Polygon", "coordinates": [ [ [ 117.315759425288945, 42.408590715686934 ], [ 117.315777654179612, 42.408590665476453 ], [ 117.315777631594187, 42.408586162533005 ], [ 117.315795860483519, 42.408586112319647 ], [ 117.3157958378968, 42.408581609376206 ], [ 117.315789761600811, 42.408581626114312 ], [ 117.315789716428256, 42.408572620227424 ], [ 117.31578364013312, 42.408572636965204 ], [ 117.315783617547282, 42.408568134021756 ], [ 117.315777541252572, 42.408568150759223 ], [ 117.315777518667176, 42.408563647815747 ], [ 117.315759289784339, 42.408563698026192 ], [ 117.315759425288945, 42.408590715686934 ] ] ] } },
{ "type": "Feature", "properties": { "crown_id": 6577, "tree_id": "6583", "top_h_m": 20.675, "H_95_Mean": 20.845, "DBH": 23.3928, "Carbon_kg": 105.671576, "area_m2": 7.25 }, "geometry": { "type": "Polygon", "coordinates": [ [ [ 117.315978149374217, 42.408585610026485 ], [ 117.315984225670491, 42.408585593278396 ], [ 117.3159842030703, 42.408581090335034 ], [ 117.315990279366133, 42.408581073586632 ], [ 117.315990143762519, 42.408554055926423 ], [ 117.315984067469287, 42.408554072674818 ], [ 117.315984090069449, 42.408558575618201 ], [ 117.315971937482104, 42.408558609114039 ], [ 117.315971960081399, 42.408563112057429 ], [ 117.315947654904917, 42.408563179045245 ], [ 117.31594770010004, 42.408572184932012 ], [ 117.315959852690028, 42.40857215143874 ], [ 117.315959897886898, 42.408581157325479 ], [ 117.315978126774468, 42.40858110708313 ], [ 117.315978149374217, 42.408585610026485 ] ] ] } },
{ "type": "Feature", "properties": { "crown_id": 6586, "tree_id": "6592", "top_h_m": 20.57, "H_95_Mean": 21.2888, "DBH": 26.1507, "Carbon_kg": 133.943479, "area_m2": 10.75 }, "geometry": { "type": "Polygon", "coordinates": [ [ [ 117.315801936779962, 42.4085860955812 ], [ 117.315814089372793, 42.408586062103367 ], [ 117.315814066784768, 42.408581559159934 ], [ 117.315820143080757, 42.408581542420542 ], [ 117.315820120492305, 42.408577039477109 ], [ 117.315832273083373, 42.408577005997351 ], [ 117.315832250494083, 42.408572503053925 ], [ 117.315826174198975, 42.408572519793964 ], [ 117.315826151610111, 42.408568016850523 ], [ 117.315813999020762, 42.408568050329635 ], [ 117.315813931256784, 42.408554541499292 ], [ 117.315807854963396, 42.408554558238343 ], [ 117.315807832375825, 42.408550055294882 ], [ 117.315801756082905, 42.408550072033627 ], [ 117.315801733495775, 42.408545569090158 ], [ 117.315771352033124, 42.408545652778997 ], [ 117.31577141978795, 42.408559161609411 ], [ 117.315783572375651, 42.408559128134826 ], [ 117.315783594961445, 42.408563631078295 ], [ 117.315789671255729, 42.408563614340515 ], [ 117.315789693841992, 42.40856811728397 ], [ 117.315795770136674, 42.408568100545878 ], [ 117.315795815310096, 42.408577106432759 ], [ 117.315801891605645, 42.408577089694326 ], [ 117.315801936779962, 42.4085860955812 ] ] ] } },
{ "type": "Feature", "properties": { "crown_id": 6587, "tree_id": "6593", "top_h_m": 21.105, "H_95_Mean": 21.0767, "DBH": 27.1967, "Carbon_kg": 144.105048, "area_m2": 12.75 }, "geometry": { "type": "Polygon", "coordinates": [ [ [ 117.316008553457479, 42.408590029226126 ], [ 117.316032858644178, 42.408589962225349 ], [ 117.316032677814974, 42.408553938678601 ], [ 117.316020525228595, 42.40855397217959 ], [ 117.31602048002307, 42.408544966292851 ], [ 117.31600225114606, 42.4085450165419 ], [ 117.316002273747515, 42.408549519485291 ], [ 117.315996197454709, 42.408549536234325 ], [ 117.315996355661966, 42.408581056837889 ], [ 117.316008508253631, 42.408581023339437 ], [ 117.316008553457479, 42.408590029226126 ] ] ] } },
{ "type": "Feature", "properties": { "crown_id": 6605, "tree_id": "6611", "top_h_m": 17.517, "H_95_Mean": 17.1856, "DBH": 24.7983, "Carbon_kg": 106.03366, "area_m2": 13.0 }, "geometry": { "type": "Polygon", "coordinates": [ [ [ 117.315649984215042, 42.408577508058457 ], [ 117.315662136806395, 42.40857747459674 ], [ 117.315662091652115, 42.408568468709731 ], [ 117.315674244241734, 42.408568435246721 ], [ 117.315674086195799, 42.408536914642127 ], [ 117.315655857320522, 42.408536964836088 ], [ 117.315655879897193, 42.408541467779614 ], [ 117.315637651020538, 42.40854151797069 ], [ 117.315637673595916, 42.408546020914223 ], [ 117.31561944471791, 42.408546071102407 ], [ 117.315619467291995, 42.408550574045954 ], [ 117.315625543585099, 42.408550557316879 ], [ 117.315625588734122, 42.408559563203944 ], [ 117.315631665028093, 42.408559546474542 ], [ 117.315631687603059, 42.408564049418082 ], [ 117.315637763897442, 42.408564032688346 ], [ 117.315637786472834, 42.408568535631879 ], [ 117.315643862767672, 42.408568518901816 ], [ 117.315643885343505, 42.408573021845328 ], [ 117.315649961638755, 42.408573005114953 ], [ 117.315649984215042, 42.408577508058457 ] ] ] } },
{ "type": "Feature", "properties": { "crown_id": 6616, "tree_id": "6622", "top_h_m": 21.66, "H_95_Mean": 21.3784, "DBH": 29.2606, "Carbon_kg": 168.405447, "area_m2": 16.5 }, "geometry": { "type": "Polygon", "coordinates": [ [ [ 117.315832227904764, 42.408568000110492 ], [ 117.315868685672655, 42.408567899663517 ], [ 117.315868640488858, 42.408558893776672 ], [ 117.315880793076374, 42.408558860291777 ], [ 117.315880770483588, 42.408554357348358 ], [ 117.315874694190285, 42.408554374090961 ], [ 117.315874671597939, 42.408549871147535 ], [ 117.315868595305062, 42.408549887889812 ], [ 117.315868572713171, 42.408545384946372 ], [ 117.315862496420692, 42.408545401688329 ], [ 117.315862473829242, 42.408540898744896 ], [ 117.315856397537232, 42.408540915486512 ], [ 117.315856352355212, 42.408531909599624 ], [ 117.315838123481683, 42.408531959822561 ], [ 117.315838100891995, 42.408527456879092 ], [ 117.315819872019716, 42.40852750709913 ], [ 117.315819939784916, 42.408541015929529 ], [ 117.315807787200754, 42.408541049407958 ], [ 117.315807809788296, 42.40854555235142 ], [ 117.315813886080818, 42.408545535612376 ], [ 117.315813908668787, 42.40855003855583 ], [ 117.31581998496172, 42.408550021816453 ], [ 117.315820052726991, 42.408563530646802 ], [ 117.315832205315473, 42.408563497167052 ], [ 117.315832227904764, 42.408568000110492 ] ] ] } },
{ "type": "Feature", "properties": { "crown_id": 6629, "tree_id": "6635", "top_h_m": 17.07, "H_95_Mean": 17.9, "DBH": 22.6658, "Carbon_kg": 90.614788, "area_m2": 8.5 }, "geometry": { "type": "Polygon", "coordinates": [ [ [ 117.315680297958096, 42.408563915571236 ], [ 117.315710679429827, 42.408563831906505 ], [ 117.315710611688033, 42.408550323076021 ], [ 117.315704535395, 42.408550339809601 ], [ 117.315704422494264, 42.408527825092037 ], [ 117.315692269912532, 42.408527858558209 ], [ 117.315692292491789, 42.408532361501742 ], [ 117.31568621620049, 42.408532378234348 ], [ 117.315686193621659, 42.408527875290815 ], [ 117.315680117330757, 42.408527892023088 ], [ 117.315680297958096, 42.408563915571236 ] ] ] } },
{ "type": "Feature", "properties": { "crown_id": 6639, "tree_id": "6645", "top_h_m": 18.823, "H_95_Mean": 18.6416, "DBH": 25.3917, "Carbon_kg": 116.68957, "area_m2": 12.25 }, "geometry": { "type": "Polygon", "coordinates": [ [ [ 117.31573502977183, 42.408572770855876 ], [ 117.315753258657338, 42.408572720649289 ], [ 117.315753190906392, 42.408559211818869 ], [ 117.315765343494107, 42.408559178346231 ], [ 117.315765320909605, 42.408554675402755 ], [ 117.31575924461616, 42.408554692139234 ], [ 117.315759222032113, 42.408550189195765 ], [ 117.315740993153113, 42.408550239403283 ], [ 117.315740947987578, 42.408541233516281 ], [ 117.31573487169544, 42.408541250251474 ], [ 117.315734826530829, 42.40853224436448 ], [ 117.315722673948272, 42.408532277833878 ], [ 117.315722651366826, 42.408527774890366 ], [ 117.315710498785137, 42.408527808358471 ], [ 117.315710589107439, 42.40854582013251 ], [ 117.315716665400018, 42.40854580339861 ], [ 117.315716778305202, 42.408568318116082 ], [ 117.31573500718946, 42.408568267912401 ], [ 117.31573502977183, 42.408572770855876 ] ] ] } },
{ "type": "Feature", "properties": { "crown_id": 6657, "tree_id": "6663", "top_h_m": 19.24, "H_95_Mean": 20.1565, "DBH": 25.1713, "Carbon_kg": 120.079954, "area_m2": 10.25 }, "geometry": { "type": "Polygon", "coordinates": [ [ [ 117.315941556013669, 42.408558692848004 ], [ 117.315965861188417, 42.408558625861481 ], [ 117.315965838589577, 42.40855412291809 ], [ 117.315977991176055, 42.4085540894229 ], [ 117.315977968576334, 42.408549586479516 ], [ 117.315990121161931, 42.408549552983047 ], [ 117.315990098561343, 42.408545050039663 ], [ 117.315996174853723, 42.408545033290949 ], [ 117.315996152252694, 42.408540530347565 ], [ 117.315990075960784, 42.408540547096273 ], [ 117.315990053360224, 42.408536044152889 ], [ 117.315977900777213, 42.408536077649345 ], [ 117.315977855577842, 42.408527071762549 ], [ 117.315971779287196, 42.40852708851029 ], [ 117.315971801886462, 42.408531591453695 ], [ 117.315941420431045, 42.408531675187575 ], [ 117.315941510819428, 42.408549686961209 ], [ 117.315947587112262, 42.408549670215066 ], [ 117.315947609709795, 42.408554173158457 ], [ 117.315941533416535, 42.408554189904606 ], [ 117.315941556013669, 42.408558692848004 ] ] ] } },
{ "type": "Feature", "properties": { "crown_id": 6683, "tree_id": "6689", "top_h_m": 18.547, "H_95_Mean": 19.335, "DBH": 22.77, "Carbon_kg": 95.72438, "area_m2": 7.5 }, "geometry": { "type": "Polygon", "coordinates": [ [ [ 117.31574704686291, 42.408545719724259 ], [ 117.315765275740588, 42.408545669515796 ], [ 117.315765185402626, 42.408527657741843 ], [ 117.315759109111809, 42.408527674478314 ], [ 117.315759041359712, 42.408514165647802 ], [ 117.315740812491143, 42.408514215855256 ], [ 117.315740835073868, 42.40851871879876 ], [ 117.315734758783918, 42.408518735533946 ], [ 117.31573473620162, 42.408514232590434 ], [ 117.315722583622531, 42.408514266059811 ], [ 117.315722628785394, 42.408523271946848 ], [ 117.315728705075799, 42.408523255212323 ], [ 117.315728727657671, 42.408527758155813 ], [ 117.315740880239346, 42.40852772468579 ], [ 117.315740925404825, 42.408536730572798 ], [ 117.315747001696536, 42.408536713837286 ], [ 117.31574704686291, 42.408545719724259 ] ] ] } },
{ "type": "Feature", "properties": { "crown_id": 6693, "tree_id": "6699", "top_h_m": 18.848, "H_95_Mean": 19.5366, "DBH": 25.1064, "Carbon_kg": 117.269996, "area_m2": 10.75 }, "geometry": { "type": "Polygon", "coordinates": [ [ [ 117.315771329448197, 42.408541149835521 ], [ 117.315801710908673, 42.408541066146697 ], [ 117.315801597973234, 42.408518551429303 ], [ 117.315807674263155, 42.408518534690586 ], [ 117.315807606500655, 42.408505025860116 ], [ 117.315789377634815, 42.408505076075272 ], [ 117.315789400220993, 42.408509579018784 ], [ 117.315765095064748, 42.408509645967833 ], [ 117.315765162818138, 42.408523154798345 ], [ 117.315771239108528, 42.408523138061554 ], [ 117.315771329448197, 42.408541149835521 ] ] ] } },
{ "type": "Feature", "properties": { "crown_id": 6716, "tree_id": "6722", "top_h_m": 19.05, "H_95_Mean": 18.7416, "DBH": 32.3354, "Carbon_kg": 190.54846, "area_m2": 31.0 }, "geometry": { "type": "Polygon", "coordinates": [ [ [ 117.31551610260837, 42.408537349560177 ], [ 117.315528255192149, 42.408537316112678 ], [ 117.315528187489562, 42.408523807281874 ], [ 117.315546416361244, 42.408523757108235 ], [ 117.315546438930085, 42.408528260051824 ], [ 117.315558591512072, 42.408528226601099 ], [ 117.31555861408178, 42.408532729544696 ], [ 117.31557684295602, 42.408532679366189 ], [ 117.315576865527035, 42.408537182309772 ], [ 117.315595094402525, 42.408537132128366 ], [ 117.315595026685585, 42.408523623297668 ], [ 117.315601102976117, 42.408523606569879 ], [ 117.315601012685192, 42.408505594795585 ], [ 117.315594936396408, 42.408505611523339 ], [ 117.315594868679597, 42.408492102692563 ], [ 117.315588792392106, 42.408492119419996 ], [ 117.31558876982028, 42.4084876164764 ], [ 117.315576617246165, 42.408487649930287 ], [ 117.31557663981711, 42.408492152873897 ], [ 117.315558410954608, 42.408492203052319 ], [ 117.315558456093953, 42.408501208939541 ], [ 117.31550984578675, 42.408501342734546 ], [ 117.315509868352962, 42.408505845678171 ], [ 117.315503792064106, 42.408505862401107 ], [ 117.315503769498321, 42.408501359457468 ], [ 117.315497693209892, 42.408501376180091 ], [ 117.315497715775237, 42.408505879123709 ], [ 117.315491639486353, 42.408505895845984 ], [ 117.315491707181081, 42.408519404676866 ], [ 117.315503859761421, 42.408519371231961 ], [ 117.315503882327206, 42.408523874175579 ], [ 117.315509958617795, 42.408523857452629 ], [ 117.315510003750248, 42.40853286333985 ], [ 117.315516080041689, 42.408532846616581 ], [ 117.31551610260837, 42.408537349560177 ] ] ] } },
{ "type": "Feature", "properties": { "crown_id": 6717, "tree_id": "6723", "top_h_m": 19.24, "H_95_Mean": 20.1379, "DBH": 31.3257, "Carbon_kg": 186.506994, "area_m2": 24.0 }, "geometry": { "type": "MultiPolygon", "coordinates": [ [ [ [ 117.315813773141002, 42.408523020895025 ], [ 117.315844154592597, 42.408522937194981 ], [ 117.315844177182726, 42.408527440138442 ], [ 117.315862406054933, 42.408527389914546 ], [ 117.31586245123782, 42.408536395801448 ], [ 117.315868527529403, 42.408536379059498 ], [ 117.31586855012128, 42.408540882002939 ], [ 117.315874626413304, 42.408540865260662 ], [ 117.315874649005622, 42.408545368204095 ], [ 117.315880725298086, 42.408545351461505 ], [ 117.315880747890844, 42.408549854404932 ], [ 117.315892900476598, 42.408549820918758 ], [ 117.315892697134146, 42.408509294427816 ], [ 117.315880544556194, 42.408509327913933 ], [ 117.315880521963479, 42.408504824970478 ], [ 117.31587444567495, 42.408504841713047 ], [ 117.315874400490415, 42.408495835826116 ], [ 117.315862247915035, 42.408495869310286 ], [ 117.315862225323656, 42.408491366366803 ], [ 117.315856149036392, 42.408491383108405 ], [ 117.315856126445453, 42.408486880164915 ], [ 117.31585005015863, 42.40848689690619 ], [ 117.315850004977605, 42.40847789101921 ], [ 117.315843928691649, 42.408477907760165 ], [ 117.315843951281721, 42.408482410703648 ], [ 117.31583787499531, 42.408482427444284 ], [ 117.315837942764247, 42.408495936274768 ], [ 117.315831866476557, 42.408495953015084 ], [ 117.315831889065777, 42.408500455958574 ], [ 117.315825812777632, 42.40850047269857 ], [ 117.315825835366411, 42.40850497564206 ], [ 117.315837987943567, 42.408504942161741 ], [ 117.315838055712618, 42.408518450992169 ], [ 117.31581982684294, 42.408518501212185 ], [ 117.31581975907784, 42.408504992381722 ], [ 117.315813682789226, 42.408505009121086 ], [ 117.315813773141002, 42.408523020895025 ] ] ], [ [ [ 117.315813773141002, 42.408523020895025 ], [ 117.315807696850669, 42.408523037634076 ], [ 117.315807764613226, 42.408536546464489 ], [ 117.315813840904852, 42.408536529725446 ], [ 117.315813773141002, 42.408523020895025 ] ] ] ] } },
{ "type": "Feature", "properties": { "crown_id": 6718, "tree_id": "6724", "top_h_m": 19.961, "H_95_Mean": 20.1473, "DBH": 28.1107, "Carbon_kg": 149.978244, "area_m2": 15.75 }, "geometry": { "type": "Polygon", "coordinates": [ [ [ 117.315917273434181, 42.40856326277278 ], [ 117.315923349728337, 42.408563246027924 ], [ 117.315923327132538, 42.408558743084519 ], [ 117.31593547971994, 42.408558709593827 ], [ 117.315935434526608, 42.408549703707031 ], [ 117.315923281940897, 42.40854973719771 ], [ 117.315923214153528, 42.408536228367467 ], [ 117.315935366736596, 42.408536194876802 ], [ 117.315935321543307, 42.408527188989964 ], [ 117.315941397833967, 42.408527172244156 ], [ 117.315941330042733, 42.408513663413885 ], [ 117.315935253753395, 42.408513680159679 ], [ 117.315935231156743, 42.408509177216239 ], [ 117.315929154867817, 42.40850919396172 ], [ 117.31592913227162, 42.408504691018287 ], [ 117.31591697969462, 42.408504724508269 ], [ 117.315917002289936, 42.408509227451709 ], [ 117.315898773423115, 42.408509277684274 ], [ 117.315898976769475, 42.408549804175195 ], [ 117.315905053062338, 42.408549787431312 ], [ 117.315905075656843, 42.408554290374724 ], [ 117.315911151950132, 42.408554273630507 ], [ 117.315911174545064, 42.408558776573912 ], [ 117.315917250838808, 42.408558759829383 ], [ 117.315917273434181, 42.40856326277278 ] ] ] } },
{ "type": "Feature", "properties": { "crown_id": 6719, "tree_id": "6725", "top_h_m": 19.647, "H_95_Mean": 20.438, "DBH": 28.0682, "Carbon_kg": 150.793869, "area_m2": 15.25 }, "geometry": { "type": "Polygon", "coordinates": [ [ [ 117.316026578918596, 42.408549452485893 ], [ 117.316032655211359, 42.408549435735246 ], [ 117.316032383968235, 42.408495400414644 ], [ 117.316014155105577, 42.408495450665541 ], [ 117.316014177707842, 42.408499953608953 ], [ 117.316002025131851, 42.408499987107945 ], [ 117.316002070334633, 42.408508992994754 ], [ 117.315995994045778, 42.408509009743781 ], [ 117.31599601664675, 42.408513512687193 ], [ 117.315989940357426, 42.408513529435893 ], [ 117.315990008159091, 42.408527038266087 ], [ 117.315983931868445, 42.408527055014481 ], [ 117.315983954468578, 42.408531557957886 ], [ 117.315996107050708, 42.408531524460784 ], [ 117.315996129651694, 42.408536027404175 ], [ 117.316002205943178, 42.408536010655133 ], [ 117.316002228544605, 42.408540513598517 ], [ 117.316026533712233, 42.408540446599147 ], [ 117.316026578918596, 42.408549452485893 ] ] ] } },
{ "type": "Feature", "properties": { "crown_id": 6730, "tree_id": "6736", "top_h_m": 19.099, "H_95_Mean": 18.8515, "DBH": 33.0801, "Carbon_kg": 200.187812, "area_m2": 33.5 }, "geometry": { "type": "Polygon", "coordinates": [ [ [ 117.315601193267113, 42.408541618344145 ], [ 117.315631574728329, 42.408541534700404 ], [ 117.315631552153377, 42.408537031756858 ], [ 117.315649781028739, 42.408536981566755 ], [ 117.315649758452523, 42.408532478623222 ], [ 117.315674063617834, 42.408532411698594 ], [ 117.315673995883984, 42.408518902867989 ], [ 117.315667919593949, 42.408518919599615 ], [ 117.315667897016439, 42.408514416656075 ], [ 117.315661820726845, 42.408514433387381 ], [ 117.315661707841556, 42.408491918669583 ], [ 117.315649555266688, 42.408491952131193 ], [ 117.315649510114326, 42.40848294624405 ], [ 117.315643433827759, 42.408482962974368 ], [ 117.31564341125204, 42.408478460030786 ], [ 117.315637334965899, 42.408478476760791 ], [ 117.315637312390606, 42.408473973817195 ], [ 117.315600854676305, 42.408474074190416 ], [ 117.315600899821675, 42.408483080077609 ], [ 117.315594823535051, 42.408483096805369 ], [ 117.315594846107331, 42.408487599748966 ], [ 117.315600922394353, 42.40848758302122 ], [ 117.315600990112486, 42.408501091851996 ], [ 117.315607066400815, 42.408501075123915 ], [ 117.315607201839796, 42.40852809278536 ], [ 117.315601125548852, 42.408528109513462 ], [ 117.315601193267113, 42.408541618344145 ] ] ] } },
{ "type": "Feature", "properties": { "crown_id": 6732, "tree_id": "6738", "top_h_m": 20.238, "H_95_Mean": 21.0481, "DBH": 28.5817, "Carbon_kg": 159.150586, "area_m2": 15.5 }, "geometry": { "type": "Polygon", "coordinates": [ [ [ 117.315947474124613, 42.408527155498028 ], [ 117.31596570299655, 42.408527105257704 ], [ 117.315965680397753, 42.408522602314292 ], [ 117.31598390926834, 42.408522552071076 ], [ 117.315983841467997, 42.408509043240855 ], [ 117.315989917756895, 42.408509026492474 ], [ 117.315989895156349, 42.408504523549055 ], [ 117.315995971444806, 42.408504506800369 ], [ 117.315995948843835, 42.408500003856958 ], [ 117.315983796267815, 42.40850003735401 ], [ 117.315983773667739, 42.408495534410591 ], [ 117.315971621092544, 42.408495567906364 ], [ 117.31597159849332, 42.408491064962924 ], [ 117.31596552220617, 42.408491081710316 ], [ 117.315965499607415, 42.408486578766876 ], [ 117.315959423320663, 42.408486595513949 ], [ 117.315959400722335, 42.408482092570516 ], [ 117.315941171863415, 42.408482142809788 ], [ 117.315941217057471, 42.408491148696683 ], [ 117.315929064483086, 42.408491182187952 ], [ 117.315929109675466, 42.408500188074839 ], [ 117.315935185963511, 42.408500171329372 ], [ 117.315935208560134, 42.408504674272812 ], [ 117.315941284848634, 42.408504657527018 ], [ 117.315941307445684, 42.408509160470459 ], [ 117.315947383734596, 42.408509143724338 ], [ 117.315947474124613, 42.408527155498028 ] ] ] } },
{ "type": "Feature", "properties": { "crown_id": 6765, "tree_id": "6771", "top_h_m": 19.203, "H_95_Mean": 19.5046, "DBH": 26.9762, "Carbon_kg": 135.407188, "area_m2": 14.25 }, "geometry": { "type": "Polygon", "coordinates": [ [ [ 117.315886598252021, 42.408504808227576 ], [ 117.31591090340612, 42.408504741252777 ], [ 117.315910880811231, 42.408500238309315 ], [ 117.315923033387392, 42.408500204819994 ], [ 117.31592296560018, 42.40848669598963 ], [ 117.315935118173698, 42.40848666249903 ], [ 117.315935095577103, 42.408482159555568 ], [ 117.315922943004452, 42.408482193046169 ], [ 117.315922920408724, 42.408477690102707 ], [ 117.315910767836911, 42.408477723592007 ], [ 117.315910745242064, 42.408473220648538 ], [ 117.315892516385645, 42.408473270880073 ], [ 117.315892493792106, 42.408468767936583 ], [ 117.31588034122197, 42.408468801422657 ], [ 117.315880386407315, 42.408477807309637 ], [ 117.315856081263561, 42.408477874277935 ], [ 117.3158561038545, 42.408482377221432 ], [ 117.315862180140869, 42.408482360479837 ], [ 117.315862202732276, 42.40848686342332 ], [ 117.315868279019071, 42.408486846681406 ], [ 117.315868301610905, 42.408491349624882 ], [ 117.315880454185375, 42.408491316140065 ], [ 117.315880499370778, 42.408500322027017 ], [ 117.315886575658865, 42.408500305284115 ], [ 117.315886598252021, 42.408504808227576 ] ] ] } },
{ "type": "Feature", "properties": { "crown_id": 6777, "tree_id": "6783", "top_h_m": 18.427, "H_95_Mean": 18.1479, "DBH": 28.6238, "Carbon_kg": 146.222618, "area_m2": 20.5 }, "geometry": { "type": "Polygon", "coordinates": [ [ [ 117.315680094752381, 42.408523389079569 ], [ 117.315698323623693, 42.408523338881757 ], [ 117.315698301044023, 42.408518835938231 ], [ 117.315704377334001, 42.408518819204993 ], [ 117.315704399914125, 42.408523322148504 ], [ 117.315710476204572, 42.408523305414946 ], [ 117.315710453624007, 42.408518802471427 ], [ 117.315716529913985, 42.408518785737535 ], [ 117.315716507332994, 42.408514282794016 ], [ 117.315710431043442, 42.408514299527901 ], [ 117.315710340721282, 42.408496287753749 ], [ 117.315698188145632, 42.408496321220532 ], [ 117.315698165565976, 42.408491818276978 ], [ 117.315692089278599, 42.408491835009883 ], [ 117.315691976382539, 42.40846932029207 ], [ 117.315679823812076, 42.408469353756878 ], [ 117.315679756077131, 42.408455844926124 ], [ 117.315673679793207, 42.408455861658048 ], [ 117.315673702371072, 42.408460364601645 ], [ 117.31565547351795, 42.408460414795471 ], [ 117.315655518671122, 42.40846942068265 ], [ 117.315643366100602, 42.408469454143599 ], [ 117.315643388676307, 42.408473957087203 ], [ 117.315649464962007, 42.408473940356878 ], [ 117.315649487538167, 42.408478443300467 ], [ 117.315655563824308, 42.408478426569829 ], [ 117.315655608977494, 42.40848743245698 ], [ 117.315667761551481, 42.408487398994716 ], [ 117.31566787443893, 42.408509913712521 ], [ 117.315673950728097, 42.408509896980895 ], [ 117.315673973306033, 42.408514399924435 ], [ 117.315680049595613, 42.40851438319249 ], [ 117.315680094752381, 42.408523389079569 ] ] ] } },
{ "type": "Feature", "properties": { "crown_id": 6784, "tree_id": "6790", "top_h_m": 19.684, "H_95_Mean": 20.86, "DBH": 20.9855, "Carbon_kg": 84.934989, "area_m2": 4.75 }, "geometry": { "type": "MultiPolygon", "coordinates": [ [ [ [ 117.315746753281815, 42.408487181458611 ], [ 117.315746730698677, 42.408482678515085 ], [ 117.31574065441221, 42.408482695250555 ], [ 117.315740676994892, 42.408487198194095 ], [ 117.315746753281815, 42.408487181458611 ] ] ], [ [ [ 117.315783301346173, 42.408505092813023 ], [ 117.315783256174697, 42.408496086926007 ], [ 117.315777179886936, 42.408496103663424 ], [ 117.315777134716313, 42.408487097776387 ], [ 117.315771058429434, 42.408487114513477 ], [ 117.315770990674849, 42.408473605682879 ], [ 117.315752761818061, 42.408473655892195 ], [ 117.315752784401596, 42.408478158835742 ], [ 117.315764936973679, 42.408478125363189 ], [ 117.31576500472697, 42.408491634193766 ], [ 117.315746775864952, 42.408491684402144 ], [ 117.315746798448075, 42.408496187345676 ], [ 117.3157650273114, 42.408496137137291 ], [ 117.315765072480289, 42.408505143024321 ], [ 117.315783301346173, 42.408505092813023 ] ] ] ] } }
]
}
