{
"type": "FeatureCollection",
"name": "tile_5_14",
"crs": { "type": "name", "properties": { "name": "urn:ogc:def:crs:OGC:1.3:CRS84" } },
"features": [
{ "type": "Feature", "properties": { "crown_id": 1579, "tree_id": "1580", "top_h_m": 22.53, "H_95_Mean": 23.1864, "DBH": 33.3938, "Carbon_kg": 230.60249, "area_m2": 23.75 }, "geometry": { "type": "Polygon", "coordinates": [ [ [ 117.313315021449284, 42.410691319697307 ], [ 117.31332109795035, 42.410691303089706 ], [ 117.313321075538994, 42.410686800146856 ], [ 117.31333930504087, 42.410686750322114 ], [ 117.313339215390243, 42.410668738550719 ], [ 117.313345291889121, 42.410668721941846 ], [ 117.313345269476031, 42.410664218998981 ], [ 117.313357422472905, 42.410664185780256 ], [ 117.313357355231091, 42.41065067695169 ], [ 117.313363431728206, 42.410650660341858 ], [ 117.313363386899482, 42.410641654456128 ], [ 117.313351233906971, 42.410641687675465 ], [ 117.313351166666564, 42.410628178846828 ], [ 117.313345090171595, 42.41062819545602 ], [ 117.313345022932509, 42.410614686627333 ], [ 117.313338946438847, 42.410614703236178 ], [ 117.313338968851426, 42.410619206179092 ], [ 117.313326815863249, 42.410619239395821 ], [ 117.313326860686672, 42.410628245281622 ], [ 117.313314707696733, 42.410628278497079 ], [ 117.313314774929324, 42.410641787325766 ], [ 117.313302621936742, 42.410641820539936 ], [ 117.313302666756755, 42.41065082642573 ], [ 117.313308743253927, 42.41065080981879 ], [ 117.31330890012724, 42.410682330418879 ], [ 117.313314976627439, 42.410682313811606 ], [ 117.313315021449284, 42.410691319697307 ] ] ] } },
{ "type": "Feature", "properties": { "crown_id": 1639, "tree_id": "1640", "top_h_m": 21.52, "H_95_Mean": 21.7875, "DBH": 23.4516, "Carbon_kg": 109.022189, "area_m2": 6.75 }, "geometry": { "type": "MultiPolygon", "coordinates": [ [ [ [ 117.313205218771003, 42.410606062663469 ], [ 117.313205241174018, 42.410610565606426 ], [ 117.313199164680654, 42.410610582207859 ], [ 117.313199276693638, 42.410633096922631 ], [ 117.313193200198114, 42.410633113523765 ], [ 117.31319322260029, 42.410637616466715 ], [ 117.31319929909624, 42.410637599865588 ], [ 117.313199321498871, 42.410642102808517 ], [ 117.313217550988028, 42.41064205300318 ], [ 117.313217573391924, 42.410646555946109 ], [ 117.313223649888741, 42.410646539343688 ], [ 117.313223537866989, 42.410624024629023 ], [ 117.313217461372361, 42.410624041231436 ], [ 117.313217438968451, 42.410619538288486 ], [ 117.313211362474263, 42.410619554890566 ], [ 117.313211295263898, 42.410606046061709 ], [ 117.313205218771003, 42.410606062663469 ] ] ], [ [ [ 117.313205218771003, 42.410606062663469 ], [ 117.313205196367988, 42.410601559720497 ], [ 117.313199119875492, 42.41060157632193 ], [ 117.31319914227808, 42.410606079264909 ], [ 117.313205218771003, 42.410606062663469 ] ] ] ] } },
{ "type": "Feature", "properties": { "crown_id": 1644, "tree_id": "1645", "top_h_m": 21.095, "H_95_Mean": 21.8506, "DBH": 32.1147, "Carbon_kg": 205.795279, "area_m2": 22.75 }, "geometry": { "type": "Polygon", "coordinates": [ [ [ 117.313241924190464, 42.410655495420301 ], [ 117.313254077185775, 42.410655462212546 ], [ 117.313254032372697, 42.410646456326724 ], [ 117.313260108869471, 42.410646439722356 ], [ 117.313260064055527, 42.410637433836541 ], [ 117.313308676022601, 42.410637300990118 ], [ 117.313308631201721, 42.410628295104324 ], [ 117.313296478211726, 42.410628328317848 ], [ 117.313296388573548, 42.41061031654619 ], [ 117.313290312080284, 42.410610333152462 ], [ 117.31329033448938, 42.410614836095384 ], [ 117.313253875527053, 42.410614935726251 ], [ 117.313253853120585, 42.410610432783322 ], [ 117.313247776627279, 42.410610449387335 ], [ 117.313247731815139, 42.410601443501442 ], [ 117.313229502337819, 42.410601493311546 ], [ 117.313229524742567, 42.410605996254503 ], [ 117.313217371756792, 42.410606029459629 ], [ 117.313217416564584, 42.410615035345536 ], [ 117.313223493058345, 42.410615018743123 ], [ 117.313223515462653, 42.410619521686073 ], [ 117.313229591956855, 42.410619505083346 ], [ 117.313229748790349, 42.410651025683855 ], [ 117.313241901784806, 42.410650992477393 ], [ 117.313241924190464, 42.410655495420301 ] ] ] } },
{ "type": "Feature", "properties": { "crown_id": 1664, "tree_id": "1665", "top_h_m": 21.046, "H_95_Mean": 21.26, "DBH": 26.8852, "Carbon_kg": 141.520741, "area_m2": 12.0 }, "geometry": { "type": "Polygon", "coordinates": [ [ [ 117.313181159213642, 42.410655661439776 ], [ 117.313187235711354, 42.410655644839281 ], [ 117.31318721330959, 42.410651141896352 ], [ 117.313193289806861, 42.410651125295537 ], [ 117.313193245002495, 42.410642119409651 ], [ 117.313187168506076, 42.410642136010466 ], [ 117.313187101300855, 42.41062862718163 ], [ 117.313193177795938, 42.410628610580822 ], [ 117.313193065785185, 42.410606095866022 ], [ 117.313186989292248, 42.410606112466802 ], [ 117.313187034095691, 42.410615118352737 ], [ 117.313168804614264, 42.4106151681532 ], [ 117.313168782213879, 42.410610665210235 ], [ 117.313162705720501, 42.410610681809736 ], [ 117.313162728120474, 42.410615184752707 ], [ 117.313150575132823, 42.410615217950756 ], [ 117.313150597531944, 42.410619720893749 ], [ 117.3131445210377, 42.410619737492283 ], [ 117.31314454343638, 42.410624240435268 ], [ 117.31315669642575, 42.410624207237859 ], [ 117.313156786024038, 42.410642219009695 ], [ 117.313168939016848, 42.410642185810978 ], [ 117.313168983817761, 42.410651191696871 ], [ 117.313181136812318, 42.41065115849684 ], [ 117.313181159213642, 42.410655661439776 ] ] ] } },
{ "type": "Feature", "properties": { "crown_id": 1706, "tree_id": "1707", "top_h_m": 20.635, "H_95_Mean": 22.0356, "DBH": 21.2388, "Carbon_kg": 89.881779, "area_m2": 4.5 }, "geometry": { "type": "Polygon", "coordinates": [ [ [ 117.313259929613864, 42.410610416178983 ], [ 117.313284235587005, 42.410610349758414 ], [ 117.313284168361022, 42.410596840929614 ], [ 117.313278091869037, 42.410596857535239 ], [ 117.313278047052634, 42.410587851649346 ], [ 117.313265894070398, 42.410587884859609 ], [ 117.313265938885095, 42.410596890745502 ], [ 117.313253785901111, 42.410596923954486 ], [ 117.313253830714089, 42.410605929840372 ], [ 117.313259907206927, 42.410605913236047 ], [ 117.313259929613864, 42.410610416178983 ] ] ] } },
{ "type": "Feature", "properties": { "crown_id": 1718, "tree_id": "1719", "top_h_m": 21.89, "H_95_Mean": 22.7715, "DBH": 29.2874, "Carbon_kg": 175.135104, "area_m2": 14.75 }, "geometry": { "type": "Polygon", "coordinates": [ [ [ 117.313302532296746, 42.410623808768342 ], [ 117.313320761780403, 42.410623758946606 ], [ 117.313320716957847, 42.410614753060798 ], [ 117.313332869945185, 42.410614719844709 ], [ 117.313332847533047, 42.410610216901802 ], [ 117.313338924026269, 42.410610200293284 ], [ 117.313338834375998, 42.410592188521647 ], [ 117.31333275788451, 42.410592205130158 ], [ 117.313332690648139, 42.410578696301378 ], [ 117.313308384687332, 42.410578762732186 ], [ 117.313308407097722, 42.410583265675129 ], [ 117.313296254116409, 42.410583298888604 ], [ 117.313296276525932, 42.410587801831547 ], [ 117.313284123543724, 42.410587835043735 ], [ 117.31328414595238, 42.410592337986685 ], [ 117.313290222443911, 42.41059232138074 ], [ 117.313290289671173, 42.410605830209541 ], [ 117.313302442656834, 42.410605796996677 ], [ 117.313302532296746, 42.410623808768342 ] ] ] } },
{ "type": "Feature", "properties": { "crown_id": 1742, "tree_id": "1743", "top_h_m": 22.439, "H_95_Mean": 22.548, "DBH": 24.4902, "Carbon_kg": 121.41134, "area_m2": 7.5 }, "geometry": { "type": "Polygon", "coordinates": [ [ [ 117.313174858707228, 42.410610648610394 ], [ 117.313180935200592, 42.410610632010247 ], [ 117.313180890398044, 42.410601626124304 ], [ 117.313186966890541, 42.41060160952383 ], [ 117.313186922087141, 42.410592603637866 ], [ 117.313180845595539, 42.410592620238333 ], [ 117.31318080079302, 42.410583614352362 ], [ 117.313174724302257, 42.410583630952509 ], [ 117.31317470190146, 42.410579128009502 ], [ 117.313150395940127, 42.4105791944068 ], [ 117.313150440738255, 42.410588200292821 ], [ 117.313144364247037, 42.410588216891362 ], [ 117.313144386645703, 42.410592719834355 ], [ 117.313150463137347, 42.410592703235828 ], [ 117.313150485536426, 42.410597206178814 ], [ 117.31315656202851, 42.410597189579953 ], [ 117.313156584428029, 42.410601692522953 ], [ 117.313162660920554, 42.410601675923779 ], [ 117.313162683320513, 42.41060617886675 ], [ 117.313174836306388, 42.410606145667423 ], [ 117.313174858707228, 42.410610648610394 ] ] ] } },
{ "type": "Feature", "properties": { "crown_id": 1772, "tree_id": "1773", "top_h_m": 22.09, "H_95_Mean": 22.0212, "DBH": 27.9054, "Carbon_kg": 155.760296, "area_m2": 13.0 }, "geometry": { "type": "Polygon", "coordinates": [ [ [ 117.31335114425309, 42.410623675903956 ], [ 117.31336329724212, 42.410623642684634 ], [ 117.313363162756204, 42.410596625027274 ], [ 117.313381392231904, 42.410596575195918 ], [ 117.313381347400707, 42.410587569310131 ], [ 117.31337527090966, 42.410587585920894 ], [ 117.313375158833935, 42.410565071206328 ], [ 117.313356929367359, 42.410565121036655 ], [ 117.313356951781188, 42.410569623979583 ], [ 117.313350875291874, 42.410569640589046 ], [ 117.313350897705291, 42.410574143531974 ], [ 117.313338744725812, 42.410574176749947 ], [ 117.313338811963447, 42.410587685578726 ], [ 117.31334488845448, 42.410587668969889 ], [ 117.313345000519504, 42.41061018368444 ], [ 117.313351077012697, 42.410610167075262 ], [ 117.31335114425309, 42.410623675903956 ] ] ] } },
{ "type": "Feature", "properties": { "crown_id": 1815, "tree_id": "1816", "top_h_m": 20.962, "H_95_Mean": 21.256, "DBH": 28.4734, "Carbon_kg": 158.858325, "area_m2": 15.0 }, "geometry": { "type": "Polygon", "coordinates": [ [ [ 117.313229479933085, 42.410596990368582 ], [ 117.313247709409097, 42.410596940558499 ], [ 117.31324768700307, 42.410592437615534 ], [ 117.313259839986188, 42.410592404407211 ], [ 117.313259795172371, 42.410583398521297 ], [ 117.313278024644433, 42.41058334870641 ], [ 117.313277935011641, 42.410565336934575 ], [ 117.313271858522711, 42.410565353539852 ], [ 117.313271836114964, 42.410560850596887 ], [ 117.313265759626475, 42.410560867201838 ], [ 117.313265647589986, 42.410538352486917 ], [ 117.313247418130956, 42.410538402299814 ], [ 117.31324746294294, 42.410547408185799 ], [ 117.313241386455715, 42.410547424789456 ], [ 117.313241543294708, 42.410578945390327 ], [ 117.313235466804443, 42.410578961993693 ], [ 117.313235511614764, 42.410587967879621 ], [ 117.313229435123617, 42.41058798448266 ], [ 117.313229479933085, 42.410596990368582 ] ] ] } },
{ "type": "Feature", "properties": { "crown_id": 1838, "tree_id": "1839", "top_h_m": 22.19, "H_95_Mean": 22.9377, "DBH": 22.5213, "Carbon_kg": 103.585563, "area_m2": 5.25 }, "geometry": { "type": "Polygon", "coordinates": [ [ [ 117.313180778391768, 42.410579111409369 ], [ 117.31318685488209, 42.410579094808924 ], [ 117.313186742873768, 42.410556580093903 ], [ 117.313162436921161, 42.410556646493738 ], [ 117.313162481720994, 42.410565652379773 ], [ 117.313156405231965, 42.410565668978947 ], [ 117.313156427631441, 42.410570171921947 ], [ 117.313144274652501, 42.410570205119299 ], [ 117.313144297051124, 42.41057470806232 ], [ 117.31318075599053, 42.410574608466376 ], [ 117.313180778391768, 42.410579111409369 ] ] ] } },
{ "type": "Feature", "properties": { "crown_id": 1889, "tree_id": "1890", "top_h_m": 21.549, "H_95_Mean": 22.1123, "DBH": 35.048, "Carbon_kg": 247.172593, "area_m2": 31.25 }, "geometry": { "type": "Polygon", "coordinates": [ [ [ 117.313284101135082, 42.410583332100792 ], [ 117.313290177625746, 42.410583315494861 ], [ 117.313290155216677, 42.410578812551911 ], [ 117.313302308197137, 42.410578779339083 ], [ 117.313302285787202, 42.41057427639614 ], [ 117.313332668236043, 42.410574193358457 ], [ 117.313332645823948, 42.410569690415521 ], [ 117.313344798802561, 42.410569657198188 ], [ 117.313344776389599, 42.410565154255266 ], [ 117.313350852878486, 42.410565137646131 ], [ 117.313350830465083, 42.410560634703181 ], [ 117.313369059930366, 42.410560584873828 ], [ 117.313369015100989, 42.41055157898797 ], [ 117.313381168076091, 42.410551545766793 ], [ 117.313381055998391, 42.410529031052086 ], [ 117.313344597086058, 42.410529130711652 ], [ 117.313344574673152, 42.410524627768694 ], [ 117.313338498188187, 42.410524644377489 ], [ 117.313338543013145, 42.410533650263432 ], [ 117.313332466527328, 42.410533666871913 ], [ 117.313332488939366, 42.410538169814878 ], [ 117.31332641245308, 42.410538186423025 ], [ 117.31332643486472, 42.41054268936599 ], [ 117.313314281891266, 42.410542722581361 ], [ 117.313314349123587, 42.41055623141024 ], [ 117.313296119659469, 42.410556281230875 ], [ 117.31329605243107, 42.410542772401982 ], [ 117.313308205404553, 42.41054273918855 ], [ 117.31330818299422, 42.410538236245586 ], [ 117.31329603002159, 42.410538269459003 ], [ 117.313296007612152, 42.410533766516032 ], [ 117.3132777781545, 42.410533816333732 ], [ 117.313277800562645, 42.410538319276725 ], [ 117.313271724076316, 42.410538335881981 ], [ 117.313271813707217, 42.410556347653916 ], [ 117.313277890195309, 42.410556331048632 ], [ 117.313277912603468, 42.410560833991603 ], [ 117.313283989091957, 42.410560817386013 ], [ 117.313284101135082, 42.410583332100792 ] ] ] } },
{ "type": "Feature", "properties": { "crown_id": 1938, "tree_id": "1939", "top_h_m": 23.42, "H_95_Mean": 23.3116, "DBH": 36.9274, "Carbon_kg": 283.328133, "area_m2": 34.75 }, "geometry": { "type": "Polygon", "coordinates": [ [ [ 117.313211272860457, 42.410601543118744 ], [ 117.313223425845379, 42.410601509914258 ], [ 117.313223336228162, 42.410583498142401 ], [ 117.313229412718883, 42.410583481539689 ], [ 117.313229367909443, 42.410574475653739 ], [ 117.313235444399282, 42.410574459050714 ], [ 117.313235287563359, 42.410542938449794 ], [ 117.313241364050157, 42.410542921846464 ], [ 117.313241341644598, 42.410538418903471 ], [ 117.31321703569914, 42.410538485314852 ], [ 117.313217013295329, 42.410533982371838 ], [ 117.313210936809384, 42.410533998973882 ], [ 117.313210914406042, 42.410529496030854 ], [ 117.313204837920523, 42.410529512632571 ], [ 117.31320468110016, 42.410497992031324 ], [ 117.313198604617668, 42.4104980086327 ], [ 117.313198627020157, 42.41050251157575 ], [ 117.313192550537224, 42.410502528176792 ], [ 117.313192572939244, 42.410507031119849 ], [ 117.313174343489152, 42.410507080921079 ], [ 117.313174321088425, 42.410502577978029 ], [ 117.313168244605507, 42.410502594577792 ], [ 117.313168289406093, 42.410511600463906 ], [ 117.313162212922279, 42.410511617063356 ], [ 117.313162235322125, 42.410516120006413 ], [ 117.313150082353644, 42.410516153204355 ], [ 117.313150104752637, 42.410520656147405 ], [ 117.313162257722013, 42.410520622949477 ], [ 117.313162280121873, 42.410525125892512 ], [ 117.313168356607008, 42.410525109293047 ], [ 117.313168446208294, 42.410543121065189 ], [ 117.313174522695135, 42.410543104465404 ], [ 117.313174567496688, 42.410552110351453 ], [ 117.313192796959811, 42.410552060550145 ], [ 117.313192953774518, 42.410583581151137 ], [ 117.313186877283755, 42.410583597751902 ], [ 117.313186899685448, 42.410588100694895 ], [ 117.313192976176637, 42.410588084094115 ], [ 117.313193020980876, 42.410597089980065 ], [ 117.313199097472946, 42.410597073378952 ], [ 117.313199075070358, 42.410592570435988 ], [ 117.313205151561988, 42.410592553834555 ], [ 117.313205129158973, 42.410588050891576 ], [ 117.313211205650148, 42.410588034289837 ], [ 117.313211272860457, 42.410601543118744 ] ], [ [ 117.313198918252553, 42.41056104983506 ], [ 117.313198851044987, 42.410547541006046 ], [ 117.31321708050676, 42.41054749120088 ], [ 117.31321714771822, 42.410561000029858 ], [ 117.313198918252553, 42.41056104983506 ] ] ] } },
{ "type": "Feature", "properties": { "crown_id": 1939, "tree_id": "1940", "top_h_m": 21.621, "H_95_Mean": 21.8773, "DBH": 22.5464, "Carbon_kg": 100.952271, "area_m2": 5.75 }, "geometry": { "type": "Polygon", "coordinates": [ [ [ 117.313314259480521, 42.410538219638383 ], [ 117.313320335966807, 42.410538203030875 ], [ 117.313320313555622, 42.410533700087896 ], [ 117.313326390041468, 42.410533683480068 ], [ 117.313326367629841, 42.41052918053709 ], [ 117.313332444115247, 42.410529163928935 ], [ 117.313332332055055, 42.410506649214042 ], [ 117.313320179088564, 42.410506682430011 ], [ 117.313320223910907, 42.410515688315989 ], [ 117.313308070942668, 42.410515721530679 ], [ 117.313308093352944, 42.410520224473665 ], [ 117.313302016868406, 42.410520241080519 ], [ 117.313302084098027, 42.410533749909483 ], [ 117.313314237069747, 42.410533716695411 ], [ 117.313314259480521, 42.410538219638383 ] ] ] } },
{ "type": "Feature", "properties": { "crown_id": 1960, "tree_id": "1961", "top_h_m": 21.497, "H_95_Mean": 22.2155, "DBH": 29.4414, "Carbon_kg": 174.427163, "area_m2": 15.75 }, "geometry": { "type": "Polygon", "coordinates": [ [ [ 117.313223089781289, 42.410533965769481 ], [ 117.313247395724986, 42.410533899356814 ], [ 117.313247328507103, 42.410520390527786 ], [ 117.313253404991698, 42.410520373923823 ], [ 117.313253292959786, 42.410497859208739 ], [ 117.313247216477379, 42.41049787581268 ], [ 117.313247194071437, 42.410493372869645 ], [ 117.313241117589428, 42.410493389473274 ], [ 117.313241095183955, 42.410488886530231 ], [ 117.313235018702372, 42.41048890313354 ], [ 117.313234996297297, 42.410484400190498 ], [ 117.313222843335012, 42.410484433396128 ], [ 117.313222865739192, 42.410488936339178 ], [ 117.313210712775998, 42.410488969543522 ], [ 117.313210892002672, 42.410524993087826 ], [ 117.313216968487751, 42.410524976485803 ], [ 117.313216990891533, 42.410529479428817 ], [ 117.313223067377052, 42.410529462826453 ], [ 117.313223089781289, 42.410533965769481 ] ] ] } },
{ "type": "Feature", "properties": { "crown_id": 1961, "tree_id": "1962", "top_h_m": 20.893, "H_95_Mean": 21.4502, "DBH": 24.7037, "Carbon_kg": 119.959901, "area_m2": 8.5 }, "geometry": { "type": "Polygon", "coordinates": [ [ [ 117.313350651158103, 42.410524611159573 ], [ 117.313381033582857, 42.41052452810915 ], [ 117.313380921505299, 42.410502013394343 ], [ 117.313386997988047, 42.41050199678331 ], [ 117.313386975572101, 42.410497493840332 ], [ 117.3133626696428, 42.410497560282558 ], [ 117.313362692056984, 42.410502063225529 ], [ 117.313356615574222, 42.410502079835275 ], [ 117.313356637987965, 42.410506582778261 ], [ 117.3133384085383, 42.410506632605589 ], [ 117.313338475775709, 42.41052014143451 ], [ 117.313350628744772, 42.410520108216609 ], [ 117.313350651158103, 42.410524611159573 ] ] ] } },
{ "type": "Feature", "properties": { "crown_id": 2032, "tree_id": "2033", "top_h_m": 21.985, "H_95_Mean": 22.668, "DBH": 30.4274, "Carbon_kg": 188.637476, "area_m2": 17.25 }, "geometry": { "type": "Polygon", "coordinates": [ [ [ 117.313253472210889, 42.410533882752851 ], [ 117.313271701668626, 42.410533832938995 ], [ 117.313271679260893, 42.410529329995988 ], [ 117.3132959852027, 42.410529263573039 ], [ 117.313295917974401, 42.410515754744068 ], [ 117.313301994458541, 42.410515738137526 ], [ 117.313301972048663, 42.410511235194541 ], [ 117.313314125016063, 42.410511201980505 ], [ 117.313314102605332, 42.410506699037505 ], [ 117.313308026122087, 42.410506715644686 ], [ 117.313308003711796, 42.410502212701687 ], [ 117.313271544814754, 42.410502312337968 ], [ 117.313271455184108, 42.410484300565869 ], [ 117.313277531665193, 42.410484283960649 ], [ 117.313277509257119, 42.410479781017621 ], [ 117.313271432776432, 42.410479797622841 ], [ 117.313271387961152, 42.410470791736763 ], [ 117.31325315852169, 42.410470841550506 ], [ 117.313253203334384, 42.410479847436598 ], [ 117.31324105037298, 42.410479880644154 ], [ 117.313241072778439, 42.410484383587196 ], [ 117.313247149259581, 42.410484366983574 ], [ 117.313247171665523, 42.41048886992661 ], [ 117.313253248147078, 42.410488853322668 ], [ 117.313253270553446, 42.410493356265697 ], [ 117.313259347035427, 42.410493339661436 ], [ 117.313259503883131, 42.410524860262541 ], [ 117.313253427398095, 42.41052487686683 ], [ 117.313253472210889, 42.410533882752851 ] ] ] } },
{ "type": "Feature", "properties": { "crown_id": 2071, "tree_id": "2072", "top_h_m": 22.749, "H_95_Mean": 22.6898, "DBH": 36.1871, "Carbon_kg": 267.681889, "area_m2": 33.75 }, "geometry": { "type": "Polygon", "coordinates": [ [ [ 117.313314080194615, 42.410502196094519 ], [ 117.313350539091417, 42.410502096444709 ], [ 117.313350516678099, 42.410497593501731 ], [ 117.313356593160435, 42.410497576892297 ], [ 117.313356570746691, 42.410493073949297 ], [ 117.313386953156197, 42.41049299089736 ], [ 117.313386908324361, 42.41048398501141 ], [ 117.31339298480539, 42.410483968400051 ], [ 117.313392962389031, 42.41047946545708 ], [ 117.313374732947267, 42.410479515290163 ], [ 117.313374710532244, 42.410475012347156 ], [ 117.313356481091731, 42.410475062177326 ], [ 117.313356458678015, 42.410470559234327 ], [ 117.313350382198266, 42.410470575843739 ], [ 117.313350359784977, 42.410466072900725 ], [ 117.313326053867712, 42.410466139335142 ], [ 117.313326009044616, 42.410457133449086 ], [ 117.313319932566159, 42.410457150056878 ], [ 117.313319887743958, 42.410448144170807 ], [ 117.313307734788765, 42.410448177385426 ], [ 117.313307757198984, 42.410452680328461 ], [ 117.313289527764837, 42.410452730147966 ], [ 117.313289550173764, 42.410457233091002 ], [ 117.313277397216766, 42.410457266302409 ], [ 117.313277486849046, 42.410475278074571 ], [ 117.313283563329264, 42.410475261469024 ], [ 117.313283630554849, 42.410488770298109 ], [ 117.313277554073295, 42.410488786903663 ], [ 117.313277598889499, 42.410497792789705 ], [ 117.313314057783884, 42.410497693151527 ], [ 117.313314080194615, 42.410502196094519 ] ] ] } },
{ "type": "Feature", "properties": { "crown_id": 2100, "tree_id": "2101", "top_h_m": 23.486, "H_95_Mean": 23.2761, "DBH": 35.6814, "Carbon_kg": 264.151837, "area_m2": 30.5 }, "geometry": { "type": "Polygon", "coordinates": [ [ [ 117.313137929385093, 42.410516186400997 ], [ 117.313144005869361, 42.41051616980284 ], [ 117.313143983470809, 42.410511666859769 ], [ 117.313156136438465, 42.41051163366248 ], [ 117.313156114039032, 42.410507130719424 ], [ 117.313162190522419, 42.410507114120293 ], [ 117.3131621457227, 42.410498108234172 ], [ 117.313149992757673, 42.410498141432093 ], [ 117.313149925560765, 42.410484632602852 ], [ 117.313168155004391, 42.410484582805523 ], [ 117.313168222205221, 42.410498091634736 ], [ 117.313180375170219, 42.410498058434875 ], [ 117.313180397571386, 42.410502561377939 ], [ 117.313186474054305, 42.410502544777529 ], [ 117.313186451652712, 42.410498041834472 ], [ 117.313192528135204, 42.410498025233743 ], [ 117.313192505733184, 42.410493522290686 ], [ 117.313204658697273, 42.41049348908826 ], [ 117.313204613891514, 42.410484483202161 ], [ 117.313216766853841, 42.410484449998457 ], [ 117.313216632431491, 42.410457432340074 ], [ 117.313210555952921, 42.410457448942068 ], [ 117.313210488743124, 42.410443940112813 ], [ 117.313186182834045, 42.410444006517537 ], [ 117.313186205235581, 42.41044850946065 ], [ 117.313167975802429, 42.410448559260807 ], [ 117.31316806540336, 42.410466571033197 ], [ 117.313161988923895, 42.410466587632619 ], [ 117.313162011323712, 42.410471090575697 ], [ 117.313143781883994, 42.410471140372053 ], [ 117.313143804282504, 42.410475643315145 ], [ 117.313131651321768, 42.410475676511105 ], [ 117.313131785707753, 42.410502694169622 ], [ 117.313137862190729, 42.410502677571799 ], [ 117.313137929385093, 42.410516186400997 ] ] ] } }
]
}
