{
"type": "FeatureCollection",
"name": "tile_15_7",
"crs": { "type": "name", "properties": { "name": "urn:ogc:def:crs:OGC:1.3:CRS84" } },
"features": [
{ "type": "Feature", "properties": { "crown_id": 5973, "tree_id": "5979", "top_h_m": 21.239, "H_95_Mean": 21.3216, "DBH": 29.7788, "Carbon_kg": 174.196243, "area_m2": 17.75 }, "geometry": { "type": "Polygon", "coordinates": [ [ [ 117.311622825493359, 42.408876718110889 ], [ 117.311659283454716, 42.408876619002001 ], [ 117.311659261163641, 42.408872116057005 ], [ 117.311665337490084, 42.408872099537739 ], [ 117.311665315198567, 42.408867596592742 ], [ 117.311677467850558, 42.40886756355323 ], [ 117.31167742326582, 42.408858557663251 ], [ 117.311683499590941, 42.408858541143019 ], [ 117.311683477298132, 42.408854038198015 ], [ 117.311671324648756, 42.40885407123816 ], [ 117.311671302356828, 42.408849568293142 ], [ 117.311646997059754, 42.408849634369545 ], [ 117.311646974769559, 42.408845131424521 ], [ 117.311640898445702, 42.408845147942813 ], [ 117.311640876155948, 42.408840644997795 ], [ 117.311598341891909, 42.408840760616791 ], [ 117.311598364178607, 42.40884526356183 ], [ 117.311604440502478, 42.408845247045811 ], [ 117.311604507363924, 42.408858755880892 ], [ 117.311616660014295, 42.408858722847846 ], [ 117.31161670459035, 42.408867728737881 ], [ 117.311622780916409, 42.408867712220868 ], [ 117.311622825493359, 42.408876718110889 ] ] ] } },
{ "type": "Feature", "properties": { "crown_id": 6024, "tree_id": "6030", "top_h_m": 19.8, "H_95_Mean": 19.8699, "DBH": 32.3132, "Carbon_kg": 196.979429, "area_m2": 27.75 }, "geometry": { "type": "Polygon", "coordinates": [ [ [ 117.311422239880159, 42.408863754167243 ], [ 117.311470850486188, 42.408863622104569 ], [ 117.311470828208599, 42.40885911915948 ], [ 117.311482980859182, 42.408859086140595 ], [ 117.311482958580726, 42.40885458319552 ], [ 117.311495111230428, 42.408854550175349 ], [ 117.311495066671768, 42.408845544285185 ], [ 117.311501142995738, 42.408845527774616 ], [ 117.311501120716002, 42.408841024829549 ], [ 117.311507197039518, 42.408841008318653 ], [ 117.311507174759356, 42.408836505373571 ], [ 117.311501098436253, 42.408836521884453 ], [ 117.311501031597047, 42.408823013049165 ], [ 117.311507107918857, 42.408822996538298 ], [ 117.311507085638681, 42.408818493593195 ], [ 117.311476704031847, 42.408818576144313 ], [ 117.311476681753874, 42.408814073199188 ], [ 117.311470605432902, 42.40881408970845 ], [ 117.311470649987996, 42.408823095598684 ], [ 117.311476726309834, 42.408823079089423 ], [ 117.311476793143811, 42.408836587924739 ], [ 117.311458564174416, 42.408836637451586 ], [ 117.311458497344347, 42.408823128616241 ], [ 117.311446344700684, 42.408823161632505 ], [ 117.311446366976497, 42.408827664577629 ], [ 117.311434214331939, 42.408827697592614 ], [ 117.311434236606885, 42.408832200537731 ], [ 117.311416007638684, 42.408832250057799 ], [ 117.311415985365059, 42.408827747112674 ], [ 117.311409909042737, 42.40882776361871 ], [ 117.311410064955354, 42.408859284234573 ], [ 117.311422217606051, 42.408859251222133 ], [ 117.311422239880159, 42.408863754167243 ] ], [ [ 117.311428271656823, 42.408854731770326 ], [ 117.311428249382288, 42.408850228825216 ], [ 117.311434325706742, 42.4088502123182 ], [ 117.311434347981717, 42.408854715263303 ], [ 117.311428271656823, 42.408854731770326 ] ], [ [ 117.311416074459672, 42.408845758893179 ], [ 117.311416052186019, 42.408841255948047 ], [ 117.311422128509605, 42.408841239441685 ], [ 117.311422150783713, 42.408845742386802 ], [ 117.311416074459672, 42.408845758893179 ] ] ] } },
{ "type": "Feature", "properties": { "crown_id": 6082, "tree_id": "6088", "top_h_m": 18.433, "H_95_Mean": 18.4714, "DBH": 21.4727, "Carbon_kg": 82.782405, "area_m2": 6.5 }, "geometry": { "type": "Polygon", "coordinates": [ [ [ 117.311482758074817, 42.408814056689614 ], [ 117.311519216000377, 42.408813957625391 ], [ 117.311519149157334, 42.408800448790068 ], [ 117.311513072837712, 42.408800465301574 ], [ 117.311513050557167, 42.408795962356457 ], [ 117.311519126876334, 42.408795945844957 ], [ 117.31151910459532, 42.408791442899847 ], [ 117.31148872300156, 42.408791525454113 ], [ 117.311488789838066, 42.408805034289493 ], [ 117.311482713517989, 42.408805050799387 ], [ 117.311482758074817, 42.408814056689614 ] ] ] } },
{ "type": "Feature", "properties": { "crown_id": 6083, "tree_id": "6089", "top_h_m": 17.255, "H_95_Mean": 17.77, "DBH": 23.2433, "Carbon_kg": 94.918196, "area_m2": 9.5 }, "geometry": { "type": "Polygon", "coordinates": [ [ [ 117.311610472251232, 42.408836224639373 ], [ 117.31161654857425, 42.408836208122693 ], [ 117.311616526286244, 42.408831705177647 ], [ 117.311622602608807, 42.408831688660641 ], [ 117.311622558031971, 42.408822682770563 ], [ 117.311628634353653, 42.408822666253251 ], [ 117.311628612064808, 42.408818163308197 ], [ 117.31163468838605, 42.408818146790566 ], [ 117.311634666096779, 42.408813643845512 ], [ 117.311640742417595, 42.408813627327561 ], [ 117.311640675548489, 42.408800118492408 ], [ 117.311616370270414, 42.408800184562239 ], [ 117.311616303406552, 42.408786675727029 ], [ 117.311610227088337, 42.408786692243673 ], [ 117.311610249375846, 42.408791195188748 ], [ 117.311604173057177, 42.408791211705079 ], [ 117.311604351353978, 42.408827235265619 ], [ 117.311610427676115, 42.408827218749266 ], [ 117.311610472251232, 42.408836224639373 ] ] ] } },
{ "type": "Feature", "properties": { "crown_id": 6097, "tree_id": "6103", "top_h_m": 17.977, "H_95_Mean": 19.8026, "DBH": 32.2611, "Carbon_kg": 195.946237, "area_m2": 27.75 }, "geometry": { "type": "Polygon", "coordinates": [ [ [ 117.311422061687352, 42.408827730606312 ], [ 117.311428138009646, 42.408827714099623 ], [ 117.311428115735126, 42.408823211154498 ], [ 117.311440268378817, 42.40882317814016 ], [ 117.311440246103459, 42.408818675195036 ], [ 117.311464551389065, 42.408818609162509 ], [ 117.311464506834838, 42.408809603272253 ], [ 117.311476659475886, 42.408809570254078 ], [ 117.311476614919954, 42.408800564363823 ], [ 117.311482691239576, 42.408800547854248 ], [ 117.31148262440442, 42.408787039018861 ], [ 117.311476548086077, 42.408787055528421 ], [ 117.31147643669641, 42.408764540802679 ], [ 117.311470360380241, 42.408764557311898 ], [ 117.311470338102751, 42.408760054366745 ], [ 117.311464261787023, 42.408760070875658 ], [ 117.311464284064058, 42.408764573820818 ], [ 117.311452131431707, 42.408764606837657 ], [ 117.31145215370789, 42.408769109782824 ], [ 117.311446077391267, 42.408769126290764 ], [ 117.311446099667009, 42.408773629235931 ], [ 117.311440023349959, 42.408773645743551 ], [ 117.311440045625289, 42.408778148688711 ], [ 117.311433969307771, 42.408778165196019 ], [ 117.311434013857578, 42.408787171086338 ], [ 117.311427937539207, 42.408787187593326 ], [ 117.31142795981367, 42.408791690538479 ], [ 117.311421883494859, 42.408791707045154 ], [ 117.311421905768896, 42.408796209990307 ], [ 117.311409753130363, 42.408796243002669 ], [ 117.311409775403561, 42.408800745947829 ], [ 117.31140369908384, 42.408800762453531 ], [ 117.311403788174886, 42.408818774234156 ], [ 117.311409864496312, 42.408818757728433 ], [ 117.311409886769511, 42.408823260673579 ], [ 117.311422039413259, 42.408823227661173 ], [ 117.311422061687352, 42.408827730606312 ] ] ] } },
{ "type": "Feature", "properties": { "crown_id": 6102, "tree_id": "6108", "top_h_m": 18.162, "H_95_Mean": 17.6581, "DBH": 36.0834, "Carbon_kg": 229.458897, "area_m2": 53.0 }, "geometry": { "type": "Polygon", "coordinates": [ [ [ 117.311513273363062, 42.408840991807452 ], [ 117.311525426010093, 42.40884095878409 ], [ 117.311525403728623, 42.408836455839001 ], [ 117.311561861667016, 42.408836356761185 ], [ 117.3115618839511, 42.408840859706231 ], [ 117.31157403659806, 42.408840826677711 ], [ 117.311574014313109, 42.408836323732665 ], [ 117.311604395928228, 42.408836241155711 ], [ 117.311604373641089, 42.408831738210665 ], [ 117.311598297318525, 42.408831754726698 ], [ 117.311598074451865, 42.408786725276002 ], [ 117.311604150770108, 42.40878670875999 ], [ 117.311604128483054, 42.408782205814902 ], [ 117.311610204800843, 42.408782189298584 ], [ 117.311610182513348, 42.408777686353496 ], [ 117.311604106195958, 42.40877770286982 ], [ 117.311604083908918, 42.408773199924731 ], [ 117.311610160225854, 42.408773183408407 ], [ 117.311610137938345, 42.408768680463318 ], [ 117.311597985305369, 42.408768713495625 ], [ 117.311597940732128, 42.408759707605412 ], [ 117.311591864416513, 42.408759724121069 ], [ 117.311591842130341, 42.408755221175959 ], [ 117.31158576581511, 42.408755237691302 ], [ 117.311585788100857, 42.40875974063642 ], [ 117.311579711785228, 42.408759757151444 ], [ 117.311579689499922, 42.408755254206312 ], [ 117.311567536869475, 42.408755287235394 ], [ 117.311567559153929, 42.408759790180511 ], [ 117.311561482838243, 42.408759806694562 ], [ 117.311561505122256, 42.408764309639693 ], [ 117.311555428806173, 42.408764326153431 ], [ 117.311555406522587, 42.408759823208307 ], [ 117.311543253891244, 42.408759856234802 ], [ 117.311543298456655, 42.408768862125058 ], [ 117.311531145823551, 42.408768895150288 ], [ 117.311531190387242, 42.408777901040537 ], [ 117.311519037752376, 42.408777934064481 ], [ 117.311519060033362, 42.408782437009599 ], [ 117.311512983715488, 42.408782453521091 ], [ 117.311513005996048, 42.40878695646623 ], [ 117.311525158632634, 42.408786923442911 ], [ 117.311525314602733, 42.408818444058653 ], [ 117.311513161960036, 42.408818477082001 ], [ 117.311513206521241, 42.408827482972185 ], [ 117.311507130199018, 42.408827499483394 ], [ 117.31150715247918, 42.408832002428476 ], [ 117.311513228801829, 42.408831985917281 ], [ 117.311513273363062, 42.408840991807452 ] ], [ [ 117.311567804283015, 42.40880932257663 ], [ 117.311567737429556, 42.408795813741371 ], [ 117.311585966386929, 42.408795764197215 ], [ 117.311586033244296, 42.40880927303246 ], [ 117.311567804283015, 42.40880932257663 ] ] ] } },
{ "type": "Feature", "properties": { "crown_id": 6156, "tree_id": "6162", "top_h_m": 18.27, "H_95_Mean": 18.13, "DBH": 20.1427, "Carbon_kg": 71.974381, "area_m2": 5.25 }, "geometry": { "type": "Polygon", "coordinates": [ [ [ 117.311488700722748, 42.408787022508989 ], [ 117.311506929677719, 42.408786972977396 ], [ 117.311506885117481, 42.408777967087133 ], [ 117.311512961434943, 42.40877795057596 ], [ 117.311512939154397, 42.408773447630828 ], [ 117.311525091788397, 42.408773414607545 ], [ 117.311525069506985, 42.408768911662406 ], [ 117.31149468792411, 42.408768994218214 ], [ 117.311494665644886, 42.408764491273061 ], [ 117.311482513012564, 42.408764524293126 ], [ 117.311482602126034, 42.408782536073723 ], [ 117.311488678443922, 42.408782519563843 ], [ 117.311488700722748, 42.408787022508989 ] ] ] } },
{ "type": "Feature", "properties": { "crown_id": 6227, "tree_id": "6233", "top_h_m": 21.11, "H_95_Mean": 21.1414, "DBH": 35.4579, "Carbon_kg": 246.402156, "area_m2": 35.5 }, "geometry": { "type": "Polygon", "coordinates": [ [ [ 117.311500741961055, 42.408764474762549 ], [ 117.311537199857838, 42.408764375692698 ], [ 117.311537155293308, 42.408755369802428 ], [ 117.311549307923798, 42.408755336776579 ], [ 117.31154928564068, 42.408750833831441 ], [ 117.311543209325862, 42.408750850344525 ], [ 117.311543187043185, 42.408746347399394 ], [ 117.311524958100037, 42.408746396936699 ], [ 117.311524913537284, 42.408737391046387 ], [ 117.311500608283183, 42.408737457091618 ], [ 117.311500563723911, 42.408728451201263 ], [ 117.311494487411267, 42.408728467711761 ], [ 117.311494465132057, 42.408723964766587 ], [ 117.311488388819825, 42.408723981276744 ], [ 117.311488321983617, 42.408710472441179 ], [ 117.311494398294556, 42.408710455931022 ], [ 117.311494376015389, 42.408705952985819 ], [ 117.311488299704877, 42.408705969495976 ], [ 117.311488277426164, 42.408701466550788 ], [ 117.31147004849592, 42.408701516079326 ], [ 117.311469981663691, 42.408688007243683 ], [ 117.31145782904612, 42.408688040261069 ], [ 117.311457851322658, 42.408692543206293 ], [ 117.311445698704176, 42.408692576222407 ], [ 117.311445787806903, 42.408710588003302 ], [ 117.311451864117871, 42.408710571495391 ], [ 117.311451886393996, 42.4087150744406 ], [ 117.31145796270539, 42.408715057932376 ], [ 117.311457984981956, 42.408719560877572 ], [ 117.311451908670108, 42.408719577385803 ], [ 117.311451930946262, 42.408724080331012 ], [ 117.311439778321699, 42.408724113346508 ], [ 117.311439845147518, 42.408737622182109 ], [ 117.311433768833922, 42.408737638689395 ], [ 117.311433791108783, 42.408742141634583 ], [ 117.311439867422806, 42.408742125127297 ], [ 117.311439889698107, 42.408746628072493 ], [ 117.311458118641454, 42.408746578548708 ], [ 117.311458140918063, 42.40875108149389 ], [ 117.311476369862675, 42.408751031967192 ], [ 117.311476414418479, 42.408760037857519 ], [ 117.311500719681391, 42.408759971817403 ], [ 117.311500741961055, 42.408764474762549 ] ] ] } },
{ "type": "Feature", "properties": { "crown_id": 6253, "tree_id": "6259", "top_h_m": 21.561, "H_95_Mean": 21.6527, "DBH": 29.4375, "Carbon_kg": 171.75402, "area_m2": 16.5 }, "geometry": { "type": "MultiPolygon", "coordinates": [ [ [ [ 117.311555339671912, 42.408746314372898 ], [ 117.31155536195547, 42.408750817318037 ], [ 117.311561438270246, 42.408750800804313 ], [ 117.311561415986262, 42.408746297859182 ], [ 117.311555339671912, 42.408746314372898 ] ] ], [ [ [ 117.311555339671912, 42.408746314372898 ], [ 117.31155529510481, 42.408737308482621 ], [ 117.311561371418321, 42.408737291968905 ], [ 117.311561415986262, 42.408746297859182 ], [ 117.311567492300625, 42.408746281345138 ], [ 117.31156744773179, 42.408737275454861 ], [ 117.311573524045286, 42.408737258940505 ], [ 117.311573501760435, 42.408732755995352 ], [ 117.311585654386519, 42.408732722965674 ], [ 117.311585632100801, 42.408728220020528 ], [ 117.311573479475612, 42.408728253050214 ], [ 117.311573457190761, 42.408723750105068 ], [ 117.311567380878586, 42.408723766619424 ], [ 117.311567336309807, 42.408714760729119 ], [ 117.311530878441843, 42.408714859808455 ], [ 117.311530856160076, 42.408710356863281 ], [ 117.311512627227344, 42.408710406398605 ], [ 117.311512649507819, 42.408714909343779 ], [ 117.311494420573709, 42.408714958876217 ], [ 117.31149444285289, 42.408719461821399 ], [ 117.311500519164696, 42.408719445310908 ], [ 117.311500541444303, 42.408723948256089 ], [ 117.31150661775655, 42.408723931745271 ], [ 117.311506662316646, 42.408732937635627 ], [ 117.311530967569013, 42.40873287158913 ], [ 117.311531012132619, 42.408741877479436 ], [ 117.311549241074445, 42.408741827941164 ], [ 117.311549263357563, 42.408746330886302 ], [ 117.311555339671912, 42.408746314372898 ] ] ], [ [ [ 117.311573524045286, 42.408737258940505 ], [ 117.311573546330123, 42.408741761885629 ], [ 117.311579622644047, 42.408741745370946 ], [ 117.311579600358769, 42.408737242425808 ], [ 117.311573524045286, 42.408737258940505 ] ] ] ] } },
{ "type": "Feature", "properties": { "crown_id": 6357, "tree_id": "6363", "top_h_m": 19.847, "H_95_Mean": 20.4607, "DBH": 38.0834, "Carbon_kg": 279.102598, "area_m2": 49.75 }, "geometry": { "type": "MultiPolygon", "coordinates": [ [ [ [ 117.311579511217687, 42.408719230645254 ], [ 117.31157953350295, 42.408723733590385 ], [ 117.311591686127286, 42.408723700560067 ], [ 117.311591708413403, 42.408728203505206 ], [ 117.311609937351179, 42.408728153957291 ], [ 117.311609981926068, 42.408737159847547 ], [ 117.3116039056126, 42.408737176363836 ], [ 117.31160392789964, 42.40874167930896 ], [ 117.311616080527401, 42.408741646276042 ], [ 117.311616058239508, 42.408737143330931 ], [ 117.311622134552934, 42.408737126813982 ], [ 117.311622112264629, 42.408732623868865 ], [ 117.311634264890614, 42.408732590834028 ], [ 117.311634242601443, 42.40872808788891 ], [ 117.311646395226532, 42.408728054852794 ], [ 117.311646372936494, 42.40872355190767 ], [ 117.311652449248612, 42.408723535389122 ], [ 117.311652426958148, 42.408719032444012 ], [ 117.311658503269797, 42.408719015925151 ], [ 117.311658480978892, 42.408714512980026 ], [ 117.311652404667669, 42.408714529498894 ], [ 117.311652382377204, 42.408710026553763 ], [ 117.311658458687987, 42.408710010034909 ], [ 117.311658391815328, 42.408696501199529 ], [ 117.311652315505839, 42.40869651771839 ], [ 117.311652137182406, 42.408660494157175 ], [ 117.311627831958276, 42.408660560229272 ], [ 117.311627787380942, 42.408651554338917 ], [ 117.311597405854997, 42.408651636921768 ], [ 117.311597495000981, 42.408669648702514 ], [ 117.311579266080159, 42.408669698248382 ], [ 117.311579310650572, 42.408678704138758 ], [ 117.311573234342731, 42.408678720653413 ], [ 117.311573256627526, 42.408683223598587 ], [ 117.311567180319244, 42.408683240112929 ], [ 117.311567314025439, 42.408710257783952 ], [ 117.311573390336306, 42.408710241269603 ], [ 117.311573434905938, 42.408719247159922 ], [ 117.311579511217687, 42.408719230645254 ] ], [ [ 117.311591686127286, 42.408723700560067 ], [ 117.311591663841142, 42.408719197614921 ], [ 117.311597740152862, 42.408719181099286 ], [ 117.311597762439419, 42.408723684044425 ], [ 117.311591686127286, 42.408723700560067 ] ], [ [ 117.311579511217687, 42.408719230645254 ], [ 117.311579488932438, 42.408714727700094 ], [ 117.311585565243718, 42.408714711185098 ], [ 117.311585587529407, 42.408719214130237 ], [ 117.311579511217687, 42.408719230645254 ] ], [ [ 117.31158545381534, 42.408692196459299 ], [ 117.311585386958384, 42.408678687623784 ], [ 117.311603615881822, 42.408678638076921 ], [ 117.311603682742685, 42.408692146912422 ], [ 117.31158545381534, 42.408692196459299 ] ] ], [ [ [ 117.311658503269797, 42.408719015925151 ], [ 117.311658525560702, 42.408723518870261 ], [ 117.31166460187282, 42.40872350235108 ], [ 117.311664579581489, 42.408718999405963 ], [ 117.311658503269797, 42.408719015925151 ] ] ], [ [ [ 117.311652449248612, 42.408723535389122 ], [ 117.311652471539091, 42.408728038334246 ], [ 117.311658547851636, 42.408728021815371 ], [ 117.311658525560702, 42.408723518870261 ], [ 117.311652449248612, 42.408723535389122 ] ] ] ] } }
]
}
