{
"type": "FeatureCollection",
"name": "tile_7_18",
"crs": { "type": "name", "properties": { "name": "urn:ogc:def:crs:OGC:1.3:CRS84" } },
"features": [
{ "type": "Feature", "properties": { "crown_id": 2594, "tree_id": "2595", "top_h_m": 18.423, "H_95_Mean": 19.1628, "DBH": 32.2651, "Carbon_kg": 192.224752, "area_m2": 29.5 }, "geometry": { "type": "Polygon", "coordinates": [ [ [ 117.31425503585038, 42.410319500382023 ], [ 117.314285418173512, 42.410319417092232 ], [ 117.314285395693446, 42.410314914149502 ], [ 117.31429147215762, 42.410314897490586 ], [ 117.314291449677157, 42.410310394547849 ], [ 117.314297526140891, 42.410310377888607 ], [ 117.314297503659972, 42.410305874945891 ], [ 117.31430358012328, 42.410305858286321 ], [ 117.314303535160604, 42.410296852400869 ], [ 117.314309611623031, 42.410296835741001 ], [ 117.31430958914126, 42.410292332798264 ], [ 117.314303512679274, 42.410292349458125 ], [ 117.314303467716641, 42.410283343572637 ], [ 117.314297391255522, 42.410283360232192 ], [ 117.314297346293785, 42.410274354346704 ], [ 117.314291269833504, 42.410274371005912 ], [ 117.314291247353083, 42.41026986806316 ], [ 117.314285170893243, 42.410269884722048 ], [ 117.314285125933282, 42.410260878836525 ], [ 117.314272973015335, 42.410260912153333 ], [ 117.314272995494463, 42.410265415096106 ], [ 117.314224383819052, 42.410265548350495 ], [ 117.314224428770359, 42.410274554236075 ], [ 117.314236581690977, 42.410274520924403 ], [ 117.314236671597115, 42.410292532695493 ], [ 117.314242748059144, 42.410292516039156 ], [ 117.314242770536126, 42.410297018981922 ], [ 117.314236694073657, 42.410297035638251 ], [ 117.314236739026754, 42.410306041523782 ], [ 117.314242815490104, 42.410306024867445 ], [ 117.314242837967086, 42.410310527810189 ], [ 117.314254990894639, 42.410310494496535 ], [ 117.31425503585038, 42.410319500382023 ] ] ] } },
{ "type": "Feature", "properties": { "crown_id": 2660, "tree_id": "2661", "top_h_m": 20.963, "H_95_Mean": 21.1838, "DBH": 34.8301, "Carbon_kg": 237.970099, "area_m2": 33.0 }, "geometry": { "type": "Polygon", "coordinates": [ [ [ 117.31422436134342, 42.410261045407701 ], [ 117.314266896556362, 42.410260928811262 ], [ 117.314266874077703, 42.410256425868475 ], [ 117.314285103453301, 42.410256375893752 ], [ 117.314285013533421, 42.410238364122627 ], [ 117.314278937076622, 42.41023838078118 ], [ 117.314278869638073, 42.410224871952806 ], [ 117.314272793182582, 42.410224888611019 ], [ 117.314272748224454, 42.41021588272541 ], [ 117.314266671769815, 42.41021589938331 ], [ 117.314266536898145, 42.410188881726363 ], [ 117.314254383994097, 42.410188915041154 ], [ 117.314254406471818, 42.410193417983997 ], [ 117.314230100661902, 42.410193484609735 ], [ 117.314230078185915, 42.410188981666877 ], [ 117.314224001733848, 42.410188998322525 ], [ 117.314224046684984, 42.410198004208219 ], [ 117.314217970232065, 42.410198020863525 ], [ 117.314218037657483, 42.410211529692056 ], [ 117.314224114111695, 42.410211513036735 ], [ 117.314224181538464, 42.41022502186523 ], [ 117.314218105082929, 42.410225038520544 ], [ 117.314218127558092, 42.410229541463373 ], [ 117.314224204014081, 42.410229524808045 ], [ 117.31422436134342, 42.410261045407701 ] ] ] } },
{ "type": "Feature", "properties": { "crown_id": 2661, "tree_id": "2662", "top_h_m": 21.17, "H_95_Mean": 21.5767, "DBH": 29.9467, "Carbon_kg": 177.425155, "area_m2": 17.75 }, "geometry": { "type": "Polygon", "coordinates": [ [ [ 117.314309566659503, 42.41028782985552 ], [ 117.31432171958258, 42.41028779653481 ], [ 117.314321629652142, 42.410269784763855 ], [ 117.314327706111939, 42.410269768103021 ], [ 117.314327593696802, 42.410247253389258 ], [ 117.31433367015444, 42.410247236728125 ], [ 117.314333580220691, 42.410229224957057 ], [ 117.314309274397132, 42.410229291599627 ], [ 117.314309251915446, 42.410224788656834 ], [ 117.314291022549043, 42.410224838635372 ], [ 117.314291045029435, 42.410229341578166 ], [ 117.314284968573503, 42.410229358237039 ], [ 117.314284991053455, 42.41023386117984 ], [ 117.314291067509814, 42.410233844520974 ], [ 117.314291224872647, 42.410265365120395 ], [ 117.314297301332033, 42.410265348461174 ], [ 117.314297323812909, 42.410269851403946 ], [ 117.314303400272735, 42.410269834744412 ], [ 117.314303445235339, 42.410278840629907 ], [ 117.314309521696003, 42.410278823970039 ], [ 117.314309566659503, 42.41028782985552 ] ] ] } },
{ "type": "Feature", "properties": { "crown_id": 2671, "tree_id": "2672", "top_h_m": 20.44, "H_95_Mean": 20.5058, "DBH": 35.4457, "Carbon_kg": 241.825604, "area_m2": 37.5 }, "geometry": { "type": "MultiPolygon", "coordinates": [ [ [ [ 117.314175951920802, 42.41030170512667 ], [ 117.314182028383783, 42.41030168847356 ], [ 117.314181983438502, 42.410292682587979 ], [ 117.314169830514302, 42.410292715893874 ], [ 117.314169852986069, 42.410297218836682 ], [ 117.314175929448609, 42.410297202183884 ], [ 117.314175951920802, 42.41030170512667 ] ] ], [ [ [ 117.314181983438502, 42.410292682587979 ], [ 117.314194136362673, 42.410292649280798 ], [ 117.314194158836187, 42.410297152223585 ], [ 117.314200235298685, 42.410297135569493 ], [ 117.314200212824758, 42.410292632626721 ], [ 117.314212365748901, 42.4102925993176 ], [ 117.314212343274079, 42.410288096374821 ], [ 117.31421841973571, 42.410288079719784 ], [ 117.31421839726049, 42.410283576776997 ], [ 117.31422447372168, 42.410283560121634 ], [ 117.31422449619734, 42.410288063064421 ], [ 117.314230572658957, 42.410288046408738 ], [ 117.314230527706755, 42.410279040523172 ], [ 117.314218374785256, 42.410279073834225 ], [ 117.31421815003327, 42.410234044406195 ], [ 117.314212073576854, 42.410234061061217 ], [ 117.314212051102118, 42.410229558118381 ], [ 117.314169515910137, 42.410229674694413 ], [ 117.314169538381833, 42.410234177637257 ], [ 117.314163461925375, 42.410234194289693 ], [ 117.314163484396644, 42.410238697232529 ], [ 117.31415740793976, 42.410238713884631 ], [ 117.314157430410575, 42.410243216827475 ], [ 117.314139201038572, 42.410243266781897 ], [ 117.314139245977643, 42.410252272667591 ], [ 117.314145322435863, 42.410252256016427 ], [ 117.314145344905853, 42.410256758959264 ], [ 117.314139268447192, 42.410256775610421 ], [ 117.314139290916742, 42.410261278553257 ], [ 117.314145367375829, 42.410261261902093 ], [ 117.314145389845805, 42.410265764844922 ], [ 117.314151466305333, 42.410265748193439 ], [ 117.314151488775764, 42.410270251136261 ], [ 117.314157565235689, 42.410270234484457 ], [ 117.314157587706561, 42.410274737427265 ], [ 117.31415151124618, 42.41027475407909 ], [ 117.31415157865753, 42.410288262907528 ], [ 117.314157655119203, 42.410288246255696 ], [ 117.314157632648332, 42.410283743312888 ], [ 117.314181938493235, 42.410283676702406 ], [ 117.314181983438502, 42.410292682587979 ] ], [ [ 117.314188037427527, 42.410288162991762 ], [ 117.314188014954453, 42.410283660048975 ], [ 117.314194091415686, 42.410283643395225 ], [ 117.314194113889172, 42.410288146338011 ], [ 117.314188037427527, 42.410288162991762 ] ] ] ] } },
{ "type": "Feature", "properties": { "crown_id": 2732, "tree_id": "2733", "top_h_m": 19.88, "H_95_Mean": 19.7626, "DBH": 33.4353, "Carbon_kg": 210.334324, "area_m2": 32.0 }, "geometry": { "type": "Polygon", "coordinates": [ [ [ 117.314115052483828, 42.410274853983189 ], [ 117.314127205404631, 42.410274820683107 ], [ 117.314127182935948, 42.410270317740292 ], [ 117.31412110647598, 42.410270334390489 ], [ 117.314121016602968, 42.410252322619122 ], [ 117.314127093061217, 42.410252305968932 ], [ 117.314127048123865, 42.410243300083238 ], [ 117.314133124581218, 42.410243283432727 ], [ 117.314133057173947, 42.410229774604161 ], [ 117.314139133629993, 42.410229757953346 ], [ 117.3141389763435, 42.410198237353256 ], [ 117.314108594078448, 42.410198320604046 ], [ 117.314108571611129, 42.410193817661138 ], [ 117.31408426580073, 42.41019388425596 ], [ 117.314084333197457, 42.410207393084676 ], [ 117.314078256743528, 42.410207409732593 ], [ 117.314078279208687, 42.410211912675493 ], [ 117.314066126299949, 42.410211945970332 ], [ 117.314066171228518, 42.410220951856139 ], [ 117.314072247683768, 42.410220935208876 ], [ 117.314072315077965, 42.410234444037535 ], [ 117.314078391534494, 42.410234427389938 ], [ 117.314078413999667, 42.410238930332802 ], [ 117.314084490456636, 42.410238913684871 ], [ 117.314084535387877, 42.410247919570622 ], [ 117.314090611845685, 42.410247902922372 ], [ 117.314090634311754, 42.410252405865229 ], [ 117.314102787228265, 42.410252372567754 ], [ 117.3141028096952, 42.410256875510612 ], [ 117.314108886153875, 42.410256858861381 ], [ 117.31410895355603, 42.410270367689911 ], [ 117.314115030016012, 42.410270351040367 ], [ 117.314115052483828, 42.410274853983189 ] ], [ [ 117.314114917676932, 42.410247836326128 ], [ 117.314114895209144, 42.410243333383285 ], [ 117.314120971666512, 42.410243316733414 ], [ 117.31412099413474, 42.410247819676258 ], [ 117.314114917676932, 42.410247836326128 ] ] ] } },
{ "type": "Feature", "properties": { "crown_id": 2746, "tree_id": "2747", "top_h_m": 20.779, "H_95_Mean": 20.5238, "DBH": 33.1884, "Carbon_kg": 211.899785, "area_m2": 29.0 }, "geometry": { "type": "Polygon", "coordinates": [ [ [ 117.31413917856905, 42.410238763839047 ], [ 117.314151331482861, 42.410238730536435 ], [ 117.314151309012445, 42.410234227593598 ], [ 117.314157385468903, 42.410234210941809 ], [ 117.314157362998088, 42.410229707998951 ], [ 117.31416343945412, 42.410229691346835 ], [ 117.314163416982865, 42.410225188403999 ], [ 117.314212028627409, 42.410225055175559 ], [ 117.314212006152658, 42.410220552232715 ], [ 117.314218082607781, 42.410220535577729 ], [ 117.314218060132632, 42.410216032634899 ], [ 117.31421198367795, 42.410216049289893 ], [ 117.314211871304423, 42.410193534575662 ], [ 117.314217947756916, 42.410193517920675 ], [ 117.314217925281795, 42.410189014977831 ], [ 117.314211848829729, 42.410189031632811 ], [ 117.314211803880383, 42.410180025747074 ], [ 117.31418749807554, 42.410180092363774 ], [ 117.314187475602594, 42.410175589420895 ], [ 117.314175322701018, 42.410175622727294 ], [ 117.314175300228968, 42.410171119784422 ], [ 117.314169223778592, 42.410171136437135 ], [ 117.314169268721855, 42.410180142322908 ], [ 117.314163192270613, 42.410180158975301 ], [ 117.314163237213023, 42.41018916486108 ], [ 117.314151084308804, 42.410189198164922 ], [ 117.314151106779136, 42.410193701107808 ], [ 117.314145030326571, 42.410193717759249 ], [ 117.314145232555987, 42.410234244245054 ], [ 117.314139156099529, 42.41023426089621 ], [ 117.31413917856905, 42.410238763839047 ] ] ] } },
{ "type": "Feature", "properties": { "crown_id": 2849, "tree_id": "2850", "top_h_m": 18.71, "H_95_Mean": 19.0151, "DBH": 27.1213, "Carbon_kg": 134.836811, "area_m2": 15.25 }, "geometry": { "type": "Polygon", "coordinates": [ [ [ 117.314114648063722, 42.41019380101163 ], [ 117.314138953874036, 42.41019373441037 ], [ 117.314138931404557, 42.410189231467484 ], [ 117.314145007856666, 42.410189214816363 ], [ 117.314144985386761, 42.41018471187347 ], [ 117.314157138290142, 42.410184678570282 ], [ 117.31415711581937, 42.410180175627389 ], [ 117.314151039368127, 42.410180192279149 ], [ 117.314151016897782, 42.410175689336249 ], [ 117.314144940446965, 42.41017570598769 ], [ 117.314144917977089, 42.410171203044797 ], [ 117.314138841526713, 42.410171219695897 ], [ 117.314138819057263, 42.410166716752997 ], [ 117.314126666157335, 42.410166750054238 ], [ 117.314126576283059, 42.410148738282558 ], [ 117.314120499834843, 42.410148754932692 ], [ 117.314120544771086, 42.410157760818535 ], [ 117.314096238974628, 42.410157827415851 ], [ 117.314096261441023, 42.41016233035878 ], [ 117.314084108541891, 42.410162363655516 ], [ 117.314084131007419, 42.410166866598452 ], [ 117.314090207457426, 42.410166849950244 ], [ 117.314090229923409, 42.410171352893165 ], [ 117.314096306373841, 42.410171336244638 ], [ 117.314096396239506, 42.410189348016289 ], [ 117.314114625595991, 42.410189298068737 ], [ 117.314114648063722, 42.41019380101163 ] ] ] } },
{ "type": "Feature", "properties": { "crown_id": 2850, "tree_id": "2851", "top_h_m": 22.331, "H_95_Mean": 21.9056, "DBH": 35.1772, "Carbon_kg": 247.633101, "area_m2": 32.25 }, "geometry": { "type": "Polygon", "coordinates": [ [ [ 117.314315328370924, 42.410224771996681 ], [ 117.314327481281836, 42.410224738675403 ], [ 117.314327436315864, 42.41021573278983 ], [ 117.314333512770446, 42.410215716128718 ], [ 117.314333490287027, 42.410211213185924 ], [ 117.314327413832899, 42.410211229847036 ], [ 117.314327346384005, 42.410197721018662 ], [ 117.314333422836853, 42.41019770435755 ], [ 117.314333377870057, 42.410188698471948 ], [ 117.314339454322052, 42.410188681810524 ], [ 117.314339431838221, 42.410184178867716 ], [ 117.314333355386694, 42.410184195529141 ], [ 117.314333287936591, 42.410170686700702 ], [ 117.314321135036138, 42.410170720022556 ], [ 117.314321112553642, 42.410166217079734 ], [ 117.314302883204235, 42.410166267060099 ], [ 117.314302860723046, 42.410161764117262 ], [ 117.314296784273665, 42.410161780776733 ], [ 117.314296739312169, 42.410152774891039 ], [ 117.314278509966599, 42.410152824867531 ], [ 117.314278577404892, 42.41016633369609 ], [ 117.314266424505234, 42.410166367012145 ], [ 117.314266514419529, 42.410184378783526 ], [ 117.314272590871141, 42.410184362125641 ], [ 117.314272725745383, 42.410211379782588 ], [ 117.314278802199581, 42.410211363124375 ], [ 117.314278847158576, 42.410220369009991 ], [ 117.314315305888798, 42.410220269053895 ], [ 117.314315328370924, 42.410224771996681 ] ] ] } },
{ "type": "Feature", "properties": { "crown_id": 2954, "tree_id": "2955", "top_h_m": 21.43, "H_95_Mean": 20.9351, "DBH": 33.6498, "Carbon_kg": 220.45122, "area_m2": 29.5 }, "geometry": { "type": "Polygon", "coordinates": [ [ [ 117.314327189003436, 42.410166200418963 ], [ 117.314333265453229, 42.410166183757866 ], [ 117.314333220486546, 42.410157177872208 ], [ 117.314339296935472, 42.410157161210812 ], [ 117.314339274451683, 42.410152658267982 ], [ 117.314345350900183, 42.41015264160626 ], [ 117.314345328415968, 42.410148138663423 ], [ 117.314351404864013, 42.410148122001374 ], [ 117.314351269956276, 42.410121104344334 ], [ 117.314339117065416, 42.410121137668071 ], [ 117.314339072097951, 42.410112131782348 ], [ 117.314332995653373, 42.41011214844373 ], [ 117.314332973170082, 42.410107645500858 ], [ 117.314320820281779, 42.410107678822648 ], [ 117.314320842764204, 42.410112181765527 ], [ 117.314290460541216, 42.410112265064384 ], [ 117.314290438060979, 42.410107762121484 ], [ 117.314278285172605, 42.410107795438769 ], [ 117.314278330131344, 42.410116801324548 ], [ 117.314266177241223, 42.410116834640554 ], [ 117.314266199719754, 42.41012133758344 ], [ 117.314272276165255, 42.410121320925604 ], [ 117.314272321123184, 42.410130326811363 ], [ 117.314278397569538, 42.4101303101532 ], [ 117.314278487487172, 42.410148321924666 ], [ 117.314302793279538, 42.410148255288725 ], [ 117.314302838241872, 42.410157261174419 ], [ 117.314308914690798, 42.410157244514615 ], [ 117.314308937172413, 42.410161747457451 ], [ 117.314327166520528, 42.410161697476127 ], [ 117.314327189003436, 42.410166200418963 ] ] ] } },
{ "type": "Feature", "properties": { "crown_id": 2977, "tree_id": "2978", "top_h_m": 20.34, "H_95_Mean": 20.3824, "DBH": 37.5126, "Carbon_kg": 270.122221, "area_m2": 47.25 }, "geometry": { "type": "Polygon", "coordinates": [ [ [ 117.314236154637968, 42.410188965010938 ], [ 117.314248307542059, 42.41018893169808 ], [ 117.31424828506475, 42.41018442875523 ], [ 117.31426043796796, 42.410184395441085 ], [ 117.314260325577237, 42.410161880726818 ], [ 117.314272478476056, 42.410161847411416 ], [ 117.314272343602141, 42.410134829754234 ], [ 117.314260190708538, 42.410134863069622 ], [ 117.314260168230433, 42.410130360126736 ], [ 117.314266244676787, 42.410130343469213 ], [ 117.314266222198256, 42.410125840526327 ], [ 117.31424799286043, 42.41012589049793 ], [ 117.314247970383221, 42.410121387555037 ], [ 117.314241893937691, 42.410121404211594 ], [ 117.314241871460922, 42.410116901268701 ], [ 117.314223642125626, 42.410116951236418 ], [ 117.31422361965015, 42.410112448293511 ], [ 117.31421146676081, 42.410112481603711 ], [ 117.314211421811621, 42.410103475717861 ], [ 117.314187116036322, 42.410103542334369 ], [ 117.314187228400641, 42.410126057049006 ], [ 117.31419330484664, 42.410126040395355 ], [ 117.314193394739931, 42.410144052166984 ], [ 117.314187318292198, 42.410144068820649 ], [ 117.314187385710895, 42.410157577649343 ], [ 117.314193462159963, 42.410157560995671 ], [ 117.314193484633293, 42.410162063938557 ], [ 117.314181331734346, 42.410162097245596 ], [ 117.314181376679329, 42.410171103131376 ], [ 117.314199606030357, 42.41017105317033 ], [ 117.314199628504156, 42.410175556113202 ], [ 117.314217857856448, 42.410175506149237 ], [ 117.314217902806689, 42.410184512034974 ], [ 117.314236132161554, 42.410184462068088 ], [ 117.314236154637968, 42.410188965010938 ] ] ] } },
{ "type": "Feature", "properties": { "crown_id": 2994, "tree_id": "2995", "top_h_m": 22.198, "H_95_Mean": 22.1331, "DBH": 35.8337, "Carbon_kg": 258.611477, "area_m2": 34.0 }, "geometry": { "type": "Polygon", "coordinates": [ [ [ 117.314150994427479, 42.410171186393356 ], [ 117.314157070877854, 42.410171169741609 ], [ 117.314157048407111, 42.410166666798709 ], [ 117.314169201306981, 42.410166633494249 ], [ 117.314169178835371, 42.410162130551349 ], [ 117.314175255284852, 42.410162113898636 ], [ 117.314175210340764, 42.410153108012842 ], [ 117.314181286789392, 42.41015309135981 ], [ 117.314181219371989, 42.410139582531087 ], [ 117.314187295819295, 42.410139565877749 ], [ 117.31418725087353, 42.410130559991927 ], [ 117.314181174427091, 42.410130576645265 ], [ 117.314181039592512, 42.410103558987693 ], [ 117.314168886704834, 42.410103592293375 ], [ 117.314168864233267, 42.410099089350432 ], [ 117.314162787789854, 42.410099106002782 ], [ 117.314162765318756, 42.410094603059839 ], [ 117.314144535989783, 42.410094653014959 ], [ 117.314144558459589, 42.410099155957923 ], [ 117.314120252685825, 42.410099222560248 ], [ 117.314120432430485, 42.410135246103877 ], [ 117.314126508877408, 42.410135229453765 ], [ 117.314126531345963, 42.410139732396694 ], [ 117.314120454898585, 42.410139749046813 ], [ 117.314120477366714, 42.410144251989749 ], [ 117.314132630262307, 42.410144218689169 ], [ 117.314132720138275, 42.410162230460863 ], [ 117.314144873037336, 42.410162197158975 ], [ 117.314144895507212, 42.41016670010189 ], [ 117.314150971957162, 42.410166683450463 ], [ 117.314150994427479, 42.410171186393356 ] ], [ [ 117.314144873037336, 42.410162197158975 ], [ 117.314144850567445, 42.410157694216061 ], [ 117.314150927016527, 42.410157677564648 ], [ 117.314150949486844, 42.410162180507555 ], [ 117.314144873037336, 42.410162197158975 ] ] ] } }
]
}
