{
"type": "FeatureCollection",
"name": "tile_11_1",
"crs": { "type": "name", "properties": { "name": "urn:ogc:def:crs:OGC:1.3:CRS84" } },
"features": [
{ "type": "Feature", "properties": { "crown_id": 4346, "tree_id": "4349", "top_h_m": 19.035, "H_95_Mean": 18.9274, "DBH": 21.0487, "Carbon_kg": 80.676186, "area_m2": 5.75 }, "geometry": { "type": "Polygon", "coordinates": [ [ [ 117.310082920317313, 42.409587865511206 ], [ 117.310113302299428, 42.409587783328263 ], [ 117.310113213575207, 42.409569771547872 ], [ 117.31008283160179, 42.409569853730765 ], [ 117.310082853780671, 42.409574356675883 ], [ 117.31007070099038, 42.409574389546776 ], [ 117.310070723168394, 42.409578892491901 ], [ 117.310076799563973, 42.409578876056614 ], [ 117.310076821742427, 42.40958337900171 ], [ 117.310082898138432, 42.409583362566089 ], [ 117.310082920317313, 42.409587865511206 ] ] ] } },
{ "type": "Feature", "properties": { "crown_id": 4381, "tree_id": "4384", "top_h_m": 18.431, "H_95_Mean": 20.9196, "DBH": 33.638, "Carbon_kg": 220.198956, "area_m2": 29.5 }, "geometry": { "type": "Polygon", "coordinates": [ [ [ 117.31011940087734, 42.409592269835791 ], [ 117.310131553670999, 42.409592236959718 ], [ 117.310131531488636, 42.409587734014643 ], [ 117.310137607885025, 42.409587717576109 ], [ 117.310137585702208, 42.409583214631034 ], [ 117.31014366209817, 42.409583198192188 ], [ 117.310143684281414, 42.409587701137269 ], [ 117.310155837074163, 42.409587668258617 ], [ 117.310155814890052, 42.409583165313535 ], [ 117.310180120473774, 42.409583099552378 ], [ 117.310180142659618, 42.409587602497453 ], [ 117.310186219055979, 42.409587586056347 ], [ 117.310186196869694, 42.409583083111286 ], [ 117.31020442605741, 42.409583033786078 ], [ 117.310204381682254, 42.409574027895964 ], [ 117.310210458077293, 42.409574011453579 ], [ 117.310210413701284, 42.409565005563451 ], [ 117.310204337307141, 42.409565022005822 ], [ 117.310204292932042, 42.40955601611568 ], [ 117.310198216538723, 42.409556032557724 ], [ 117.310198172164519, 42.409547026667546 ], [ 117.310192095772081, 42.409547043109278 ], [ 117.310192073585412, 42.409542540164175 ], [ 117.310179920801417, 42.40954257304665 ], [ 117.310179876429828, 42.409533567156451 ], [ 117.310167723647538, 42.409533600037605 ], [ 117.310167745832473, 42.409538102982722 ], [ 117.310155593049288, 42.409538135862604 ], [ 117.310155615233356, 42.409542638807721 ], [ 117.310149538841316, 42.409542655247172 ], [ 117.310149561024943, 42.409547158192282 ], [ 117.310143484632476, 42.409547174631435 ], [ 117.310143528998879, 42.409556180521633 ], [ 117.310137452605517, 42.409556196960459 ], [ 117.310137474788306, 42.409560699905569 ], [ 117.310131398394518, 42.409560716344068 ], [ 117.310131420576852, 42.409565219289178 ], [ 117.310125344182623, 42.409565235727356 ], [ 117.310125366364545, 42.409569738672474 ], [ 117.310119289969862, 42.409569755110333 ], [ 117.31011940087734, 42.409592269835791 ] ], [ [ 117.31013150930626, 42.409583231069547 ], [ 117.310131487123897, 42.409578728124458 ], [ 117.310137563519419, 42.409578711685938 ], [ 117.310137585702208, 42.409583214631034 ], [ 117.31013150930626, 42.409583231069547 ] ] ] } },
{ "type": "Feature", "properties": { "crown_id": 4401, "tree_id": "4404", "top_h_m": 16.367, "H_95_Mean": 16.5326, "DBH": 18.5196, "Carbon_kg": 57.537197, "area_m2": 4.5 }, "geometry": { "type": "Polygon", "coordinates": [ [ [ 117.310015991259831, 42.409570034504775 ], [ 117.310028144049326, 42.409570001639679 ], [ 117.310028121874367, 42.409565498694533 ], [ 117.310022045480039, 42.409565515127241 ], [ 117.310021912433015, 42.409538497456296 ], [ 117.310009759649603, 42.409538530320724 ], [ 117.310009781823226, 42.409543033265891 ], [ 117.310003705431072, 42.409543049697625 ], [ 117.310003794123858, 42.409561061478286 ], [ 117.31000987051776, 42.409561045046544 ], [ 117.310009892691411, 42.40956554799169 ], [ 117.31001596908574, 42.409565531559636 ], [ 117.310015991259831, 42.409570034504775 ] ] ] } },
{ "type": "Feature", "properties": { "crown_id": 4421, "tree_id": "4424", "top_h_m": 19.52, "H_95_Mean": 19.3331, "DBH": 29.6851, "Carbon_kg": 163.354973, "area_m2": 21.0 }, "geometry": { "type": "Polygon", "coordinates": [ [ [ 117.309900739251333, 42.409610873165633 ], [ 117.309912892048843, 42.409610840312716 ], [ 117.309912847715339, 42.409601834422396 ], [ 117.309906771317472, 42.409601850849008 ], [ 117.309906704818573, 42.409588342013492 ], [ 117.30991885761172, 42.409588309159965 ], [ 117.309918835444577, 42.409583806214783 ], [ 117.30992491184071, 42.409583789787533 ], [ 117.309924889673141, 42.409579286842359 ], [ 117.309949195255868, 42.409579221130159 ], [ 117.309949150917248, 42.409570215239832 ], [ 117.309967380101654, 42.409570165952317 ], [ 117.309967402272264, 42.40957466889747 ], [ 117.309973478667473, 42.409574652467668 ], [ 117.309973434325371, 42.409565646577327 ], [ 117.309961281536673, 42.409565679436639 ], [ 117.309961215026163, 42.409552170601103 ], [ 117.309955138633114, 42.409552187030265 ], [ 117.309955116463399, 42.409547684085076 ], [ 117.309924734500157, 42.409547766226027 ], [ 117.30992469016509, 42.409538760335614 ], [ 117.30990038459791, 42.409538826042571 ], [ 117.309900495426959, 42.409561340768626 ], [ 117.30991264821489, 42.409561307915759 ], [ 117.309912714714997, 42.409574816751338 ], [ 117.309900561924465, 42.409574849604219 ], [ 117.309900739251333, 42.409610873165633 ] ] ] } },
{ "type": "Feature", "properties": { "crown_id": 4438, "tree_id": "4441", "top_h_m": 18.42, "H_95_Mean": 19.2767, "DBH": 28.3872, "Carbon_kg": 149.021606, "area_m2": 17.75 }, "geometry": { "type": "Polygon", "coordinates": [ [ [ 117.309979510719728, 42.409565630147199 ], [ 117.309985587114085, 42.409565613716744 ], [ 117.309985542770278, 42.40955660782641 ], [ 117.309991619163739, 42.409556591395642 ], [ 117.309991596991409, 42.409552088450468 ], [ 117.30999767338443, 42.409552072019387 ], [ 117.309997629038904, 42.409543066129032 ], [ 117.309991552646736, 42.409543082560127 ], [ 117.309991530474434, 42.409538579614946 ], [ 117.309979377690965, 42.409538612476148 ], [ 117.309979311176633, 42.409525103640576 ], [ 117.309985387567068, 42.409525087210135 ], [ 117.309985321051499, 42.409511578374541 ], [ 117.309973168273231, 42.409511611235068 ], [ 117.309973146102237, 42.409507108289858 ], [ 117.309967069713537, 42.409507124719639 ], [ 117.30996709188409, 42.409511627664848 ], [ 117.309954939105793, 42.409511660523442 ], [ 117.309954983445166, 42.409520666413876 ], [ 117.309936754275057, 42.409520715699365 ], [ 117.309936798611844, 42.409529721589799 ], [ 117.309930722220926, 42.409529738017653 ], [ 117.309930788724856, 42.409543246853282 ], [ 117.309961170685867, 42.409543164710733 ], [ 117.309961192856022, 42.409547667655914 ], [ 117.309967269248631, 42.40954765122644 ], [ 117.309967335760419, 42.409561160061969 ], [ 117.309979488548265, 42.409561127202039 ], [ 117.309979510719728, 42.409565630147199 ] ] ] } },
{ "type": "Feature", "properties": { "crown_id": 4465, "tree_id": "4468", "top_h_m": 20.551, "H_95_Mean": 21.0104, "DBH": 32.7086, "Carbon_kg": 208.642535, "area_m2": 26.25 }, "geometry": { "type": "Polygon", "coordinates": [ [ [ 117.310058526022956, 42.409569919471281 ], [ 117.310076755207092, 42.409569870166372 ], [ 117.310076733028652, 42.409565367221255 ], [ 117.310088885817166, 42.409565334349708 ], [ 117.310088797100008, 42.40954732256921 ], [ 117.310094873492517, 42.409547306132964 ], [ 117.310094784773696, 42.40952929435241 ], [ 117.310088708382935, 42.409529310788649 ], [ 117.310088686203684, 42.409524807843503 ], [ 117.310082609813321, 42.409524824279401 ], [ 117.310082587634497, 42.409520321334256 ], [ 117.310076511244574, 42.409520337769841 ], [ 117.310076444709452, 42.409506828934333 ], [ 117.310058215543606, 42.409506878239142 ], [ 117.31005825989773, 42.40951588412949 ], [ 117.310040030729212, 42.409515933431408 ], [ 117.310040185959721, 42.409547454047555 ], [ 117.310028033174575, 42.40954748691393 ], [ 117.310028099699409, 42.409560995749388 ], [ 117.310034176093282, 42.40956097931636 ], [ 117.310034198268667, 42.409565482261506 ], [ 117.310058503845823, 42.409565416526149 ], [ 117.310058526022956, 42.409569919471281 ] ] ] } },
{ "type": "Feature", "properties": { "crown_id": 4466, "tree_id": "4469", "top_h_m": 20.641, "H_95_Mean": 20.6265, "DBH": 33.9833, "Carbon_kg": 222.910413, "area_m2": 31.5 }, "geometry": { "type": "Polygon", "coordinates": [ [ [ 117.310094962211423, 42.409565317913454 ], [ 117.310119267788394, 42.409565252165223 ], [ 117.310119245606927, 42.40956074922012 ], [ 117.310125322000715, 42.409560732782253 ], [ 117.310125299818822, 42.40955622983715 ], [ 117.310131376212183, 42.409556213398972 ], [ 117.310131354029849, 42.409551710453862 ], [ 117.310137430422742, 42.409551694015356 ], [ 117.310137386057235, 42.409542688125136 ], [ 117.310143462449275, 42.409542671686317 ], [ 117.310143440266103, 42.409538168741207 ], [ 117.310149516657702, 42.409538152302069 ], [ 117.310149494474075, 42.409533649356945 ], [ 117.310161647256393, 42.409533616477724 ], [ 117.310161580702982, 42.409520107642365 ], [ 117.31015550431313, 42.409520124082121 ], [ 117.310155459945079, 42.409511118191865 ], [ 117.310143307167095, 42.409511151070433 ], [ 117.310143284983951, 42.409506648125294 ], [ 117.310137208595364, 42.409506664564098 ], [ 117.310137186412675, 42.409502161618953 ], [ 117.310131110024543, 42.409502178057423 ], [ 117.310131087842251, 42.409497675112263 ], [ 117.310118935066853, 42.409497707988223 ], [ 117.310118912885471, 42.409493205043063 ], [ 117.310094607336296, 42.409493270791138 ], [ 117.310094629515959, 42.409497773736312 ], [ 117.310088553128224, 42.40949779017253 ], [ 117.310088575307461, 42.409502293117704 ], [ 117.310082498919286, 42.409502309553602 ], [ 117.310082565455701, 42.409515818389096 ], [ 117.310088641845169, 42.409515801953191 ], [ 117.31008866402442, 42.409520304898351 ], [ 117.310094740414328, 42.409520288462126 ], [ 117.310094762594005, 42.409524791407264 ], [ 117.31010083898434, 42.409524774970713 ], [ 117.310100972065186, 42.40955179264153 ], [ 117.310094895672265, 42.409551809078096 ], [ 117.310094962211423, 42.409565317913454 ] ] ] } },
{ "type": "Feature", "properties": { "crown_id": 4503, "tree_id": "4506", "top_h_m": 17.015, "H_95_Mean": 17.1634, "DBH": 25.9317, "Carbon_kg": 115.93926, "area_m2": 15.5 }, "geometry": { "type": "Polygon", "coordinates": [ [ [ 117.310028010999645, 42.409542983968763 ], [ 117.310034087391784, 42.409542967535742 ], [ 117.310033954339687, 42.409515949864726 ], [ 117.310027877950148, 42.409515966297739 ], [ 117.310027811425485, 42.40950245746216 ], [ 117.310070346142922, 42.409502342424425 ], [ 117.310070323964993, 42.409497839479243 ], [ 117.31006424757723, 42.409497855914161 ], [ 117.310064225399756, 42.409493352968987 ], [ 117.310045996237776, 42.409493402271828 ], [ 117.310045974061595, 42.409488899326625 ], [ 117.31002774490085, 42.409488948626567 ], [ 117.310027767075738, 42.40949345157177 ], [ 117.310015614300994, 42.409493484436787 ], [ 117.310015636475015, 42.409497987381982 ], [ 117.310009560087224, 42.409498003814015 ], [ 117.310009648781545, 42.409516015594818 ], [ 117.309991419612913, 42.40951606488899 ], [ 117.309991486129817, 42.409529573724569 ], [ 117.309985409738943, 42.409529590155337 ], [ 117.309985431910818, 42.409534093100518 ], [ 117.309997584693392, 42.40953406023867 ], [ 117.309997606866162, 42.409538563183858 ], [ 117.310003683257861, 42.409538546752451 ], [ 117.310003661084693, 42.409534043807263 ], [ 117.310027966649784, 42.409533978078429 ], [ 117.310028010999645, 42.409542983968763 ] ] ] } },
{ "type": "Feature", "properties": { "crown_id": 4522, "tree_id": "4526", "top_h_m": 19.402, "H_95_Mean": 20.912, "DBH": 28.2544, "Carbon_kg": 154.903235, "area_m2": 15.0 }, "geometry": { "type": "Polygon", "coordinates": [ [ [ 117.309900362432117, 42.409534323097354 ], [ 117.309924667997564, 42.409534257390412 ], [ 117.309924623662511, 42.409525251499979 ], [ 117.309930700052973, 42.409525235072437 ], [ 117.309930655717082, 42.409516229182003 ], [ 117.309948884885884, 42.40951617989748 ], [ 117.309948840547378, 42.40950717400704 ], [ 117.309960993324836, 42.409507141149092 ], [ 117.309960971154709, 42.409502638203875 ], [ 117.309954894766449, 42.409502654633002 ], [ 117.309954850427118, 42.40949364874254 ], [ 117.309930544877417, 42.40949371445582 ], [ 117.309930567045328, 42.409498217401072 ], [ 117.309906261493822, 42.409498283109222 ], [ 117.309906194995264, 42.409484774273437 ], [ 117.309900118608681, 42.409484790699672 ], [ 117.309900362432117, 42.409534323097354 ] ] ] } },
{ "type": "Feature", "properties": { "crown_id": 4528, "tree_id": "4532", "top_h_m": 16.065, "H_95_Mean": 16.3818, "DBH": 19.1849, "Carbon_kg": 61.445243, "area_m2": 5.25 }, "geometry": { "type": "MultiPolygon", "coordinates": [ [ [ [ 117.309991397440612, 42.409511561943802 ], [ 117.310003550218852, 42.409511529081335 ], [ 117.310003461526264, 42.409493517300518 ], [ 117.310009537913643, 42.409493500868813 ], [ 117.310009515740063, 42.409488997923596 ], [ 117.309997362966186, 42.409489030786673 ], [ 117.309997385138885, 42.40949353373189 ], [ 117.309985232364127, 42.409493566593696 ], [ 117.309985254535945, 42.409498069538913 ], [ 117.309973101760292, 42.409498102399418 ], [ 117.309973123931258, 42.409502605344635 ], [ 117.309979200319532, 42.409502588914542 ], [ 117.309979222490938, 42.409507091859759 ], [ 117.309991375268325, 42.409507058998585 ], [ 117.309991397440612, 42.409511561943802 ] ] ], [ [ [ 117.310009515740063, 42.409488997923596 ], [ 117.310021668513926, 42.409488965059218 ], [ 117.310021646339479, 42.409484462114015 ], [ 117.310027722725977, 42.409484445681358 ], [ 117.310027700551117, 42.409479942736134 ], [ 117.310009471392945, 42.409479992033155 ], [ 117.310009515740063, 42.409488997923596 ] ] ] ] } },
{ "type": "Feature", "properties": { "crown_id": 4567, "tree_id": "4571", "top_h_m": 17.56, "H_95_Mean": 18.059, "DBH": 20.5816, "Carbon_kg": 74.995972, "area_m2": 5.75 }, "geometry": { "type": "MultiPolygon", "coordinates": [ [ [ [ 117.31015543776104, 42.409506615246741 ], [ 117.310155371209035, 42.409493106411304 ], [ 117.310161447596286, 42.409493089971548 ], [ 117.310161425411835, 42.409488587026402 ], [ 117.310149272638228, 42.409488619905588 ], [ 117.310149206087559, 42.409475111070108 ], [ 117.310143129702041, 42.409475127509204 ], [ 117.310143151885157, 42.409479630454371 ], [ 117.310130999113227, 42.409479663331609 ], [ 117.310131021295476, 42.409484166276783 ], [ 117.310124944909091, 42.40948418271492 ], [ 117.310124989272737, 42.409493188605246 ], [ 117.310137142047282, 42.40949315572864 ], [ 117.310137164229971, 42.409497658673793 ], [ 117.310143240617649, 42.409497642235003 ], [ 117.310143262800793, 42.409502145180149 ], [ 117.310149339188911, 42.409502128741032 ], [ 117.310149361372495, 42.409506631686178 ], [ 117.31015543776104, 42.409506615246741 ] ] ], [ [ [ 117.310167612723021, 42.409511085312019 ], [ 117.310161536334064, 42.409511101752102 ], [ 117.310161558518516, 42.409515604697248 ], [ 117.310167634907927, 42.409515588257143 ], [ 117.310167612723021, 42.409511085312019 ] ] ], [ [ [ 117.310173733482685, 42.409520074761858 ], [ 117.310167657092833, 42.409520091202268 ], [ 117.310167701462632, 42.409529097092502 ], [ 117.31017377785335, 42.409529080652078 ], [ 117.310173733482685, 42.409520074761858 ] ] ] ] } },
{ "type": "Feature", "properties": { "crown_id": 4586, "tree_id": "4590", "top_h_m": 18.645, "H_95_Mean": 18.5251, "DBH": 27.1188, "Carbon_kg": 132.746103, "area_m2": 16.0 }, "geometry": { "type": "Polygon", "coordinates": [ [ [ 117.310179832058267, 42.409524561266231 ], [ 117.310185908448545, 42.409524544825175 ], [ 117.310185886262332, 42.409520041880064 ], [ 117.310191962652169, 42.409520025438674 ], [ 117.310191918278903, 42.409511019548454 ], [ 117.310197994667831, 42.409511003106751 ], [ 117.310197772797451, 42.409465973655408 ], [ 117.310161314489747, 42.409466072300617 ], [ 117.310161336674156, 42.409470575245784 ], [ 117.310155260289093, 42.409470591685519 ], [ 117.310155326841027, 42.409484100520999 ], [ 117.310167479613781, 42.409484067641188 ], [ 117.310167546168387, 42.40949757647661 ], [ 117.310161469780709, 42.409497592916701 ], [ 117.310161514149598, 42.409506598806985 ], [ 117.310173666926701, 42.409506565926485 ], [ 117.310173711297338, 42.40951557181674 ], [ 117.310179787686735, 42.409515555376004 ], [ 117.310179832058267, 42.409524561266231 ] ] ] } },
{ "type": "Feature", "properties": { "crown_id": 4612, "tree_id": "4616", "top_h_m": 16.41, "H_95_Mean": 16.9199, "DBH": 24.9714, "Carbon_kg": 106.544284, "area_m2": 13.75 }, "geometry": { "type": "Polygon", "coordinates": [ [ [ 117.309960948984624, 42.409498135258644 ], [ 117.309967025372458, 42.409498118829198 ], [ 117.309967003201933, 42.409493615883967 ], [ 117.309979155976748, 42.409493583024101 ], [ 117.309979133805328, 42.40948908007887 ], [ 117.309991286579248, 42.409489047217725 ], [ 117.309991264406989, 42.409484544272509 ], [ 117.310003417180013, 42.409484511410078 ], [ 117.310003372833776, 42.40947550551963 ], [ 117.310021601990641, 42.409475456223582 ], [ 117.310021579816222, 42.409470953278365 ], [ 117.310015503431032, 42.409470969710711 ], [ 117.31001545908309, 42.409461963820249 ], [ 117.309985077161429, 42.409462045977058 ], [ 117.309985054989625, 42.40945754303182 ], [ 117.309972902221787, 42.409457575892276 ], [ 117.309972924392724, 42.409462078837535 ], [ 117.309966848008372, 42.409462095267273 ], [ 117.309966892349351, 42.409471101157784 ], [ 117.309954739578885, 42.409471134016329 ], [ 117.30995482825746, 42.409489145797302 ], [ 117.309960904644427, 42.409489129368183 ], [ 117.309960948984624, 42.409498135258644 ] ] ] } },
{ "type": "Feature", "properties": { "crown_id": 4687, "tree_id": "4691", "top_h_m": 17.88, "H_95_Mean": 17.7562, "DBH": 28.0555, "Carbon_kg": 138.629678, "area_m2": 19.75 }, "geometry": { "type": "Polygon", "coordinates": [ [ [ 117.309912315715081, 42.409493763737402 ], [ 117.309924468489967, 42.409493730883348 ], [ 117.309924446322498, 42.409489227938096 ], [ 117.309948751870465, 42.409489162226102 ], [ 117.309948641024434, 42.409466647499876 ], [ 117.309960793794062, 42.409466614641971 ], [ 117.309960771623992, 42.409462111696719 ], [ 117.309954695239611, 42.409462128125824 ], [ 117.309954673069996, 42.409457625180558 ], [ 117.309948596686056, 42.409457641609343 ], [ 117.309948574516881, 42.409453138664091 ], [ 117.309942498133367, 42.409453155092542 ], [ 117.309942475964618, 42.409448652147269 ], [ 117.309936399581545, 42.409448668575415 ], [ 117.309936377413251, 42.409444165630127 ], [ 117.309930301030604, 42.409444182057939 ], [ 117.309930278862723, 42.409439679112658 ], [ 117.309899896951578, 42.409439761246858 ], [ 117.309900052111502, 42.409471281863873 ], [ 117.309912204882053, 42.409471249011105 ], [ 117.309912315715081, 42.409493763737402 ] ] ] } },
{ "type": "Feature", "properties": { "crown_id": 4688, "tree_id": "4692", "top_h_m": 19.086, "H_95_Mean": 19.2908, "DBH": 36.9843, "Carbon_kg": 254.101057, "area_m2": 49.5 }, "geometry": { "type": "Polygon", "coordinates": [ [ [ 117.310076400352756, 42.409497823043999 ], [ 117.31008247674049, 42.409497806608428 ], [ 117.310082454561694, 42.409493303663247 ], [ 117.310088530949002, 42.409493287227363 ], [ 117.310088508769795, 42.409488784282175 ], [ 117.310118890704075, 42.40948870209791 ], [ 117.310118846341283, 42.409479696207569 ], [ 117.310124922727269, 42.409479679769753 ], [ 117.310124900545475, 42.409475176824579 ], [ 117.31013705331651, 42.409475143947986 ], [ 117.310137031133848, 42.409470641002819 ], [ 117.310149183904002, 42.409470608124941 ], [ 117.310149161720474, 42.409466105179774 ], [ 117.310155238105111, 42.409466088740352 ], [ 117.310155215921142, 42.409461585795178 ], [ 117.310167368689548, 42.409461552915388 ], [ 117.310167257765443, 42.409439038189511 ], [ 117.31017333414745, 42.409439021749137 ], [ 117.310173289776984, 42.409430015858774 ], [ 117.310179366158124, 42.409429999418087 ], [ 117.310179343972464, 42.409425496472892 ], [ 117.310167191211036, 42.409425529353946 ], [ 117.310167169026229, 42.409421026408744 ], [ 117.310155016265668, 42.409421059288491 ], [ 117.310154994081756, 42.409416556343288 ], [ 117.310148917701881, 42.409416572782682 ], [ 117.310148939885366, 42.409421075727877 ], [ 117.310136787124776, 42.409421108605699 ], [ 117.310136809307394, 42.409425611550908 ], [ 117.310130732926623, 42.409425627989336 ], [ 117.31013075510883, 42.409430130934552 ], [ 117.310112525965266, 42.409430180247909 ], [ 117.310112548146151, 42.409434683193126 ], [ 117.310100395382861, 42.409434716067089 ], [ 117.310100439742925, 42.409443721957508 ], [ 117.310088286977887, 42.409443754830207 ], [ 117.310088309157067, 42.409448257775416 ], [ 117.310076156391133, 42.409448290646829 ], [ 117.310076178569446, 42.409452793592038 ], [ 117.310064025802617, 42.409452826462164 ], [ 117.310064047980077, 42.409457329407374 ], [ 117.310051895212354, 42.409457362276221 ], [ 117.310051939565497, 42.409466368166655 ], [ 117.31004586318079, 42.409466384600591 ], [ 117.310045885356942, 42.409470887545808 ], [ 117.310027656201413, 42.409470936845707 ], [ 117.310027678376272, 42.409475439790924 ], [ 117.310033754761875, 42.409475423357947 ], [ 117.31003379911246, 42.409484429248373 ], [ 117.310052028271883, 42.409484379947479 ], [ 117.31005205044849, 42.409488882892667 ], [ 117.31007027960915, 42.409488833588874 ], [ 117.310070301787064, 42.409493336534062 ], [ 117.310076378174386, 42.409493320098825 ], [ 117.310076400352756, 42.409497823043999 ] ], [ [ 117.31008839787377, 42.409466269556241 ], [ 117.310088331336246, 42.409452760720633 ], [ 117.310106560486375, 42.409452711411092 ], [ 117.310106627027849, 42.409466220246678 ], [ 117.31008839787377, 42.409466269556241 ] ] ] } },
{ "type": "Feature", "properties": { "crown_id": 4714, "tree_id": "4718", "top_h_m": 17.95, "H_95_Mean": 19.3254, "DBH": 27.9999, "Carbon_kg": 145.168636, "area_m2": 16.75 }, "geometry": { "type": "Polygon", "coordinates": [ [ [ 117.310021557641832, 42.409466450333142 ], [ 117.310039786796054, 42.409466401034216 ], [ 117.310039764620342, 42.409461898088992 ], [ 117.310045841004637, 42.409461881655368 ], [ 117.310045752300113, 42.40944386987448 ], [ 117.310039675917551, 42.409443886308075 ], [ 117.310039653741853, 42.409439383362852 ], [ 117.310033577359732, 42.409439399796121 ], [ 117.310033510834018, 42.409425890960385 ], [ 117.310027434453175, 42.409425907393342 ], [ 117.310027367928811, 42.409412398557564 ], [ 117.310021291549276, 42.409412414990186 ], [ 117.310021269374928, 42.409407912044905 ], [ 117.31001519299582, 42.409407928477201 ], [ 117.310015237343634, 42.409416934367755 ], [ 117.310009160963659, 42.409416950799724 ], [ 117.310009183137169, 42.409421453744997 ], [ 117.309997030376323, 42.409421486607997 ], [ 117.309997074721579, 42.409430492498544 ], [ 117.309990998340282, 42.409430508929574 ], [ 117.309991042684672, 42.409439514820093 ], [ 117.309984966302508, 42.409439531250797 ], [ 117.309985032817821, 42.409453040086561 ], [ 117.309991109201306, 42.409453023655857 ], [ 117.30999113137355, 42.409457526601088 ], [ 117.310021513293009, 42.409457444442673 ], [ 117.310021557641832, 42.409466450333142 ] ], [ [ 117.310009271831163, 42.409439465526027 ], [ 117.310009205310649, 42.409425956690264 ], [ 117.310027434453175, 42.409425907393342 ], [ 117.310027500977597, 42.409439416229084 ], [ 117.310009271831163, 42.409439465526027 ] ] ] } },
{ "type": "Feature", "properties": { "crown_id": 4747, "tree_id": "4751", "top_h_m": 19.18, "H_95_Mean": 20.5597, "DBH": 35.9093, "Carbon_kg": 248.628413, "area_m2": 39.25 }, "geometry": { "type": "Polygon", "coordinates": [ [ [ 117.30996074945395, 42.40945760875146 ], [ 117.309966825837861, 42.409457592322028 ], [ 117.309966803667393, 42.409453089376775 ], [ 117.309978956434364, 42.409453056516966 ], [ 117.309978867748995, 42.409435044735908 ], [ 117.309984944130733, 42.409435028305531 ], [ 117.30998489978721, 42.409426022414991 ], [ 117.309990976168081, 42.409426005984287 ], [ 117.309990931823705, 42.409417000093747 ], [ 117.310003084583684, 42.409416967231394 ], [ 117.310003062410644, 42.409412464286127 ], [ 117.310009138790193, 42.409412447854464 ], [ 117.310009094443259, 42.40940344196391 ], [ 117.310015170821927, 42.409403425531941 ], [ 117.31001514864802, 42.409398922586661 ], [ 117.310009072269779, 42.409398939018622 ], [ 117.310009005749421, 42.409385430182759 ], [ 117.309996852995525, 42.409385463045709 ], [ 117.30999687516811, 42.409389965991018 ], [ 117.309948264148886, 42.409390097429991 ], [ 117.30994828631799, 42.409394600375315 ], [ 117.30993613356226, 42.409394633231848 ], [ 117.309936155730497, 42.409399136177164 ], [ 117.309930079352199, 42.409399152604955 ], [ 117.30993014585566, 42.409412661440882 ], [ 117.309917993096434, 42.409412694295504 ], [ 117.309918015263392, 42.409417197240806 ], [ 117.309911938883346, 42.409417213667638 ], [ 117.309911961049878, 42.409421716612947 ], [ 117.309899808288847, 42.409421749465643 ], [ 117.309899874785884, 42.409435258301571 ], [ 117.309936333076649, 42.409435159739566 ], [ 117.309936355244943, 42.409439662684846 ], [ 117.30994243162715, 42.409439646256722 ], [ 117.309942453795898, 42.409444149201995 ], [ 117.309948530178517, 42.409444132773544 ], [ 117.309948552347706, 42.409448635718817 ], [ 117.309954628730779, 42.409448619290046 ], [ 117.309954650900394, 42.409453122235305 ], [ 117.30996072728388, 42.4094531058062 ], [ 117.30996074945395, 42.40945760875146 ] ] ] } },
{ "type": "Feature", "properties": { "crown_id": 4748, "tree_id": "4752", "top_h_m": 18.433, "H_95_Mean": 18.4333, "DBH": 20.0495, "Carbon_kg": 72.007893, "area_m2": 5.0 }, "geometry": { "type": "Polygon", "coordinates": [ [ [ 117.310045730123989, 42.409439366929242 ], [ 117.310063959270323, 42.4094393176265 ], [ 117.310063892738086, 42.409425808790786 ], [ 117.3100578163573, 42.409425825225362 ], [ 117.310057794180338, 42.409421322280117 ], [ 117.310051717799951, 42.409421338714353 ], [ 117.310051673446893, 42.409412332823848 ], [ 117.310033444308331, 42.409412382124614 ], [ 117.310033488658775, 42.409421388015133 ], [ 117.31003956503919, 42.409421371581857 ], [ 117.310039631566184, 42.409434880417606 ], [ 117.310045707947864, 42.409434863983996 ], [ 117.310045730123989, 42.409439366929242 ] ] ] } },
{ "type": "Feature", "properties": { "crown_id": 4788, "tree_id": "4792", "top_h_m": 18.631, "H_95_Mean": 18.74, "DBH": 20.2082, "Carbon_kg": 73.87883, "area_m2": 5.0 }, "geometry": { "type": "MultiPolygon", "coordinates": [ [ [ [ 117.310185398167079, 42.409420977086704 ], [ 117.310185420353179, 42.409425480031892 ], [ 117.310191496733864, 42.409425463590573 ], [ 117.310191474547324, 42.409420960645384 ], [ 117.310185398167079, 42.409420977086704 ] ] ], [ [ [ 117.310185398167079, 42.409420977086704 ], [ 117.310185309422735, 42.409402965305908 ], [ 117.310179233044209, 42.409402981746915 ], [ 117.310179210858564, 42.409398478801698 ], [ 117.310173134480465, 42.40939849524235 ], [ 117.310173090110084, 42.409389489351931 ], [ 117.310167013732851, 42.409389505792255 ], [ 117.310167058102351, 42.40939851168271 ], [ 117.310160981724266, 42.409398528122722 ], [ 117.310161070461604, 42.409416539903582 ], [ 117.310173223221298, 42.409416507023181 ], [ 117.310173245406517, 42.409421009968376 ], [ 117.310185398167079, 42.409420977086704 ] ] ] ] } }
]
}
