{
"type": "FeatureCollection",
"name": "tile_6_4",
"crs": { "type": "name", "properties": { "name": "urn:ogc:def:crs:OGC:1.3:CRS84" } },
"features": [
{ "type": "Feature", "properties": { "crown_id": 2024, "tree_id": "2025", "top_h_m": 22.81, "H_95_Mean": 22.5017, "DBH": 34.9681, "Carbon_kg": 248.591716, "area_m2": 30.0 }, "geometry": { "type": "Polygon", "coordinates": [ [ [ 117.310822699576391, 42.410504475087123 ], [ 117.310834852545341, 42.410504442135917 ], [ 117.310834830311961, 42.410499939191844 ], [ 117.310840906795974, 42.410499922715758 ], [ 117.310840884562168, 42.410495419771699 ], [ 117.310859114012928, 42.410495370341536 ], [ 117.310859047307616, 42.410481861509339 ], [ 117.310852970825323, 42.410481877986378 ], [ 117.310852993059996, 42.410486380930443 ], [ 117.310834763611837, 42.410486430359647 ], [ 117.310834741378457, 42.410481927415567 ], [ 117.310822588413856, 42.410481960366745 ], [ 117.310822566181372, 42.410477457422665 ], [ 117.310816489699491, 42.410477473897764 ], [ 117.310816467467447, 42.410472970953684 ], [ 117.310810390985992, 42.410472987428456 ], [ 117.310810346522786, 42.410463981540246 ], [ 117.310798193561624, 42.410464014488838 ], [ 117.310798171330887, 42.41045951154473 ], [ 117.310786018370564, 42.410459544492014 ], [ 117.310785996140723, 42.410455041547898 ], [ 117.310779919660988, 42.41045505802105 ], [ 117.310779941890416, 42.410459560965172 ], [ 117.31074955948948, 42.410459643326149 ], [ 117.31074953726224, 42.41045514038202 ], [ 117.310737384302726, 42.410455173324145 ], [ 117.310737495434665, 42.4104776880448 ], [ 117.310725342470775, 42.410477720985675 ], [ 117.31072536469631, 42.410482223929797 ], [ 117.310731441178675, 42.41048220745953 ], [ 117.31073148563064, 42.410491213347754 ], [ 117.3107375621139, 42.41049119687716 ], [ 117.31073758434033, 42.410495699821269 ], [ 117.310743660823988, 42.410495683350341 ], [ 117.310743638597131, 42.41049118040624 ], [ 117.310755791563608, 42.410491147463411 ], [ 117.310755769335884, 42.41048664451931 ], [ 117.310761845818689, 42.410486628047423 ], [ 117.310761868046839, 42.410491130991524 ], [ 117.310810479912504, 42.410490999204811 ], [ 117.310810524375768, 42.410500005092956 ], [ 117.310822677343879, 42.410499972143043 ], [ 117.310822699576391, 42.410504475087123 ] ] ] } },
{ "type": "Feature", "properties": { "crown_id": 2083, "tree_id": "2084", "top_h_m": 20.96, "H_95_Mean": 21.4115, "DBH": 32.5904, "Carbon_kg": 209.455367, "area_m2": 25.0 }, "geometry": { "type": "Polygon", "coordinates": [ [ [ 117.31084081786075, 42.410481910939488 ], [ 117.310846894343044, 42.410481894463096 ], [ 117.310846872108826, 42.410477391519024 ], [ 117.31091371340888, 42.410477210257454 ], [ 117.310913691169873, 42.410472707313403 ], [ 117.310919767651228, 42.410472690833146 ], [ 117.310919745411795, 42.410468187889094 ], [ 117.31091366893088, 42.410468204369351 ], [ 117.310913535496994, 42.410441186704958 ], [ 117.310907459018679, 42.410441203184874 ], [ 117.310907436780127, 42.410436700240794 ], [ 117.310895283824365, 42.410436733199639 ], [ 117.31089526158668, 42.410432230255559 ], [ 117.310889185109232, 42.410432246734509 ], [ 117.310889162872016, 42.410427743790407 ], [ 117.310877009917917, 42.410427776747319 ], [ 117.31087707662698, 42.410441285579608 ], [ 117.310864923670266, 42.410441318535263 ], [ 117.310864945905777, 42.41044582147935 ], [ 117.310852792948168, 42.410445854433704 ], [ 117.310852815182798, 42.410450357377805 ], [ 117.310883197578917, 42.410450274989486 ], [ 117.310883264289373, 42.410463783821712 ], [ 117.310846805406158, 42.41046388268677 ], [ 117.31084676093775, 42.410454876798596 ], [ 117.3108285314987, 42.41045492622677 ], [ 117.310828509265804, 42.410450423282668 ], [ 117.310822432786551, 42.41045043975808 ], [ 117.310822477251463, 42.410459445646282 ], [ 117.310816400771344, 42.410459462121381 ], [ 117.310816445235389, 42.410468468009583 ], [ 117.310822521716403, 42.410468451534477 ], [ 117.310822543948888, 42.410472954478564 ], [ 117.310828620430314, 42.410472938003153 ], [ 117.310828642663239, 42.410477440947233 ], [ 117.310840795626973, 42.410477407995415 ], [ 117.31084081786075, 42.410481910939488 ] ] ] } },
{ "type": "Feature", "properties": { "crown_id": 2131, "tree_id": "2132", "top_h_m": 21.28, "H_95_Mean": 21.7134, "DBH": 24.6561, "Carbon_kg": 120.359546, "area_m2": 8.25 }, "geometry": { "type": "Polygon", "coordinates": [ [ [ 117.310804247811035, 42.410459495070612 ], [ 117.310810324291197, 42.410459478596159 ], [ 117.310810302059593, 42.410454975652037 ], [ 117.310816378539286, 42.410454959177279 ], [ 117.310816356307257, 42.410450456233164 ], [ 117.310810279828004, 42.410450472707936 ], [ 117.310810257596415, 42.410445969763813 ], [ 117.310804181117575, 42.410445986238258 ], [ 117.310804158886427, 42.410441483294136 ], [ 117.310798082408027, 42.410441499768254 ], [ 117.310798015715918, 42.410427990935858 ], [ 117.310791939238797, 42.410428007409642 ], [ 117.310791961469064, 42.410432510353793 ], [ 117.310785884991503, 42.410432526827258 ], [ 117.310785929451185, 42.410441532715524 ], [ 117.310767700015873, 42.410441582134006 ], [ 117.310767677787339, 42.410437079189869 ], [ 117.310755524831308, 42.410437112133906 ], [ 117.310755569286655, 42.4104461180222 ], [ 117.310749492807759, 42.410446134493746 ], [ 117.310749515034999, 42.410450637437876 ], [ 117.310755591514337, 42.41045062096633 ], [ 117.310755613742003, 42.410455123910467 ], [ 117.310773843181238, 42.410455074493889 ], [ 117.310773820952264, 42.410450571549767 ], [ 117.310792050390148, 42.410450522130304 ], [ 117.310792072620444, 42.410455025074413 ], [ 117.310804225579872, 42.410454992126496 ], [ 117.310804247811035, 42.410459495070612 ] ] ] } },
{ "type": "Feature", "properties": { "crown_id": 2156, "tree_id": "2157", "top_h_m": 20.063, "H_95_Mean": 20.8111, "DBH": 27.5648, "Carbon_kg": 146.956701, "area_m2": 13.75 }, "geometry": { "type": "Polygon", "coordinates": [ [ [ 117.31083458574507, 42.410450406806945 ], [ 117.310840662224308, 42.410450390330887 ], [ 117.310840639990545, 42.410445887386771 ], [ 117.310846716469371, 42.410445870910408 ], [ 117.310846694235181, 42.4104413679663 ], [ 117.310858847191923, 42.410441335012585 ], [ 117.310858824956867, 42.410436832068491 ], [ 117.310870977912714, 42.410436799113498 ], [ 117.310870911204987, 42.410423290281187 ], [ 117.310876987681596, 42.410423273803218 ], [ 117.310876965445274, 42.41041877085911 ], [ 117.310858736016698, 42.410418820292058 ], [ 117.310858758251726, 42.410423323236166 ], [ 117.310822299391901, 42.410423422093366 ], [ 117.31082227715946, 42.410418919149244 ], [ 117.310816200683234, 42.410418935624307 ], [ 117.310816178451262, 42.410414432680163 ], [ 117.31080402549965, 42.41041446562933 ], [ 117.310804136655278, 42.410436980350013 ], [ 117.310810213133266, 42.410436963875576 ], [ 117.310810235364841, 42.410441466819698 ], [ 117.31081631184324, 42.410441450344941 ], [ 117.310816334075255, 42.410445953289049 ], [ 117.310834563511747, 42.410445903862822 ], [ 117.31083458574507, 42.410450406806945 ] ] ] } },
{ "type": "Feature", "properties": { "crown_id": 2178, "tree_id": "2179", "top_h_m": 19.067, "H_95_Mean": 19.6819, "DBH": 28.1354, "Carbon_kg": 148.181444, "area_m2": 16.5 }, "geometry": { "type": "Polygon", "coordinates": [ [ [ 117.310719177088444, 42.410459725679075 ], [ 117.310731330048881, 42.410459692738868 ], [ 117.310731285597015, 42.410450686850588 ], [ 117.31074343855569, 42.410450653909102 ], [ 117.310743394102062, 42.410441648020814 ], [ 117.310749470580532, 42.410441631549595 ], [ 117.31074942612608, 42.410432625661294 ], [ 117.31076157908123, 42.410432592717903 ], [ 117.310761512396994, 42.410419083885451 ], [ 117.310743282968147, 42.410419133300032 ], [ 117.310743260741376, 42.410414630355852 ], [ 117.31073110778965, 42.410414663297288 ], [ 117.310731041111993, 42.410401154464758 ], [ 117.31071281168829, 42.410401203874471 ], [ 117.310712833912888, 42.410405706818665 ], [ 117.310706757437856, 42.41040572328793 ], [ 117.310706779662013, 42.410410226232116 ], [ 117.310700703186569, 42.410410242701062 ], [ 117.310700747634002, 42.410419248589434 ], [ 117.310712900586651, 42.410419215651224 ], [ 117.310712989485083, 42.410437227427906 ], [ 117.310719065963127, 42.4104372109583 ], [ 117.310719177088444, 42.410459725679075 ] ] ] } },
{ "type": "Feature", "properties": { "crown_id": 2188, "tree_id": "2189", "top_h_m": 19.01, "H_95_Mean": 19.3301, "DBH": 24.5187, "Carbon_kg": 111.102553, "area_m2": 10.0 }, "geometry": { "type": "Polygon", "coordinates": [ [ [ 117.31072532024524, 42.410473218041538 ], [ 117.310731396726766, 42.410473201571271 ], [ 117.310731352274843, 42.410464195683005 ], [ 117.310713122832865, 42.410464245092832 ], [ 117.310713011709709, 42.410441730372071 ], [ 117.31070693523121, 42.41044174684135 ], [ 117.310706846334512, 42.410423735064676 ], [ 117.310694693380967, 42.410423768002254 ], [ 117.310694604487821, 42.410405756225494 ], [ 117.310700680962839, 42.410405739756882 ], [ 117.310700658739137, 42.410401236812682 ], [ 117.310706735213714, 42.410401220343736 ], [ 117.310706712989571, 42.410396717399529 ], [ 117.310688483567105, 42.410396766805384 ], [ 117.310688572458503, 42.410414778582179 ], [ 117.310682495982604, 42.410414795050173 ], [ 117.310682540427436, 42.41042380093856 ], [ 117.310688616904201, 42.410423784470566 ], [ 117.310688661349943, 42.410432790358939 ], [ 117.310694737827589, 42.410432773890619 ], [ 117.310694871167541, 42.410459791555617 ], [ 117.310700947647774, 42.410459775086963 ], [ 117.310700969871547, 42.410464278031114 ], [ 117.310707046352206, 42.410464261562133 ], [ 117.31070706857642, 42.410468764506284 ], [ 117.310725298019705, 42.410468715097409 ], [ 117.31072532024524, 42.410473218041538 ] ] ] } },
{ "type": "Feature", "properties": { "crown_id": 2198, "tree_id": "2199", "top_h_m": 18.61, "H_95_Mean": 19.1599, "DBH": 17.9046, "Carbon_kg": 58.65051, "area_m2": 3.0 }, "geometry": { "type": "MultiPolygon", "coordinates": [ [ [ [ 117.3107614901689, 42.410414580941271 ], [ 117.31076146794085, 42.410410077997113 ], [ 117.310749314990034, 42.410410110940482 ], [ 117.310749337217231, 42.410414613884654 ], [ 117.3107614901689, 42.410414580941271 ] ] ], [ [ [ 117.310785862761676, 42.410428023883114 ], [ 117.310785840531864, 42.41042352093897 ], [ 117.31079799348521, 42.410423487991714 ], [ 117.31079797125453, 42.410418985047578 ], [ 117.310779741825783, 42.410419034467971 ], [ 117.310779719596411, 42.410414531523806 ], [ 117.310767566644756, 42.410414564469114 ], [ 117.3107676333303, 42.410428073301574 ], [ 117.310785862761676, 42.410428023883114 ] ] ] ] } },
{ "type": "Feature", "properties": { "crown_id": 2206, "tree_id": "2207", "top_h_m": 17.677, "H_95_Mean": 20.41, "DBH": 20.7697, "Carbon_kg": 82.117744, "area_m2": 4.75 }, "geometry": { "type": "MultiPolygon", "coordinates": [ [ [ [ 117.310883019684667, 42.410414251436706 ], [ 117.310883064158205, 42.410423257324922 ], [ 117.310895217111408, 42.410423224367371 ], [ 117.310895239349037, 42.410427727311472 ], [ 117.310901315826086, 42.410427710832202 ], [ 117.31090133806417, 42.410432213776303 ], [ 117.310907414541617, 42.410432197296714 ], [ 117.310907392303108, 42.410427694352606 ], [ 117.310913468780129, 42.410427677872711 ], [ 117.310913424302228, 42.410418671984537 ], [ 117.310907347826074, 42.410418688464432 ], [ 117.310907281110588, 42.410405179632122 ], [ 117.310895128160865, 42.410405212590945 ], [ 117.310895150398494, 42.41040971553506 ], [ 117.310889073923192, 42.410409732013981 ], [ 117.310889096160395, 42.410414234958097 ], [ 117.310883019684667, 42.410414251436706 ] ] ], [ [ [ 117.310883019684667, 42.410414251436706 ], [ 117.310882997447905, 42.410409748492604 ], [ 117.310876920972589, 42.410409764970879 ], [ 117.310876943208925, 42.410414267914994 ], [ 117.310883019684667, 42.410414251436706 ] ] ] ] } },
{ "type": "Feature", "properties": { "crown_id": 2234, "tree_id": "2235", "top_h_m": 17.526, "H_95_Mean": 18.3941, "DBH": 23.6306, "Carbon_kg": 100.156979, "area_m2": 9.5 }, "geometry": { "type": "MultiPolygon", "coordinates": [ [ [ [ 117.310913513258015, 42.410436683760878 ], [ 117.310919589735903, 42.410436667280649 ], [ 117.310919567496526, 42.410432164336569 ], [ 117.310913491019079, 42.410432180816805 ], [ 117.310913513258015, 42.410436683760878 ] ] ], [ [ [ 117.310919567496526, 42.410432164336569 ], [ 117.310931720451379, 42.410432131375146 ], [ 117.310931698211135, 42.410427628431059 ], [ 117.310937774688128, 42.410427611949864 ], [ 117.310937752447458, 42.410423109005784 ], [ 117.310943828923996, 42.410423092524269 ], [ 117.310943806682886, 42.410418589580196 ], [ 117.310949883159012, 42.410418573098369 ], [ 117.310949860917475, 42.410414070154275 ], [ 117.310974166820131, 42.410414004223739 ], [ 117.310974144576861, 42.410409501279659 ], [ 117.310955915151169, 42.410409550728048 ], [ 117.310955892909192, 42.410405047783961 ], [ 117.310943739959583, 42.410405080747928 ], [ 117.310943717718473, 42.410400577803848 ], [ 117.310937641244095, 42.410400594285349 ], [ 117.31093761900344, 42.410396091341241 ], [ 117.310931542529474, 42.410396107822422 ], [ 117.310931564769689, 42.41040061076653 ], [ 117.310913335346498, 42.410400660208126 ], [ 117.310913402063278, 42.410414169040436 ], [ 117.310919478539006, 42.410414152560215 ], [ 117.310919567496526, 42.410432164336569 ] ] ] ] } },
{ "type": "Feature", "properties": { "crown_id": 2280, "tree_id": "2281", "top_h_m": 18.83, "H_95_Mean": 19.3376, "DBH": 28.5325, "Carbon_kg": 150.844109, "area_m2": 18.0 }, "geometry": { "type": "Polygon", "coordinates": [ [ [ 117.310785796072238, 42.410414515050668 ], [ 117.310797949023851, 42.410414482103427 ], [ 117.310797926793185, 42.41040997915929 ], [ 117.310816156219275, 42.410409929736026 ], [ 117.310816089523385, 42.410396420903581 ], [ 117.310822165997422, 42.410396404428525 ], [ 117.310822143765037, 42.410391901484367 ], [ 117.310816067291398, 42.410391917959437 ], [ 117.310816045059454, 42.410387415015265 ], [ 117.310803892113071, 42.410387447964411 ], [ 117.310803847650931, 42.410378442076073 ], [ 117.310785618233936, 42.410378491497347 ], [ 117.310785596004166, 42.410373988553168 ], [ 117.310767366588422, 42.410374037971536 ], [ 117.310767388816885, 42.410378540915723 ], [ 117.310761312344525, 42.410378557387865 ], [ 117.310761334572561, 42.410383060332059 ], [ 117.310755258099761, 42.410383076803889 ], [ 117.310755280327356, 42.410387579748075 ], [ 117.310743127380874, 42.410387612690769 ], [ 117.310743149607603, 42.410392115634963 ], [ 117.310737073133922, 42.410392132105827 ], [ 117.310737162039203, 42.410410143882558 ], [ 117.310743238514618, 42.41041012741168 ], [ 117.310743216287861, 42.410405624467508 ], [ 117.310767522187746, 42.410405558580791 ], [ 117.310767544416237, 42.410410061524949 ], [ 117.310785773842426, 42.410410012106517 ], [ 117.310785796072238, 42.410414515050668 ] ], [ [ 117.310767477730778, 42.41039655269244 ], [ 117.310767411045362, 42.410383043859923 ], [ 117.310785640463692, 42.41038299444152 ], [ 117.31078570715303, 42.410396503274036 ], [ 117.310767477730778, 42.41039655269244 ] ] ] } },
{ "type": "Feature", "properties": { "crown_id": 2355, "tree_id": "2356", "top_h_m": 19.64, "H_95_Mean": 19.14, "DBH": 26.7348, "Carbon_kg": 131.500226, "area_m2": 14.25 }, "geometry": { "type": "MultiPolygon", "coordinates": [ [ [ [ 117.310834274478992, 42.410387365589145 ], [ 117.310834185546028, 42.410369353812499 ], [ 117.310828109074578, 42.410369370288194 ], [ 117.310828086841781, 42.410364867344029 ], [ 117.310822010370771, 42.410364883819391 ], [ 117.310821988138414, 42.410360380875197 ], [ 117.31079768225608, 42.410360446773417 ], [ 117.310797637794877, 42.410351440885037 ], [ 117.310791561325132, 42.410351457358786 ], [ 117.310791672476057, 42.410373972079725 ], [ 117.310809901891744, 42.410373922657499 ], [ 117.310809946354752, 42.410382928545836 ], [ 117.310822099300253, 42.410382895596065 ], [ 117.310822121532638, 42.410387398540216 ], [ 117.310834274478992, 42.410387365589145 ] ] ], [ [ [ 117.31084653859601, 42.410409847357471 ], [ 117.310828309169992, 42.410409896785566 ], [ 117.310828264704313, 42.410400890897293 ], [ 117.310822188229835, 42.410400907372669 ], [ 117.310822254927061, 42.4104144162051 ], [ 117.310828331402831, 42.410414399729703 ], [ 117.310828353635699, 42.41041890267384 ], [ 117.310852659540515, 42.410418836769054 ], [ 117.310852637305928, 42.410414333824932 ], [ 117.310870866733197, 42.410414284392964 ], [ 117.310870777789646, 42.410396272616467 ], [ 117.310846471893569, 42.410396338525068 ], [ 117.31084653859601, 42.410409847357471 ] ] ], [ [ [ 117.310846449659437, 42.410391835580931 ], [ 117.310840373185854, 42.410391852057273 ], [ 117.310840395419561, 42.41039635500141 ], [ 117.310846471893569, 42.410396338525068 ], [ 117.310846449659437, 42.410391835580931 ] ] ] ] } },
{ "type": "Feature", "properties": { "crown_id": 2357, "tree_id": "2358", "top_h_m": 20.062, "H_95_Mean": 20.7562, "DBH": 32.3598, "Carbon_kg": 202.717731, "area_m2": 25.75 }, "geometry": { "type": "MultiPolygon", "coordinates": [ [ [ [ 117.310900982255433, 42.410360166670422 ], [ 117.310900937779422, 42.41035116078212 ], [ 117.310894861309777, 42.410351177261347 ], [ 117.310894905784906, 42.410360183149642 ], [ 117.310900982255433, 42.410360166670422 ] ] ], [ [ [ 117.310882975211143, 42.410405245548482 ], [ 117.310882886264196, 42.410387233771985 ], [ 117.310895039210422, 42.410387200814469 ], [ 117.310895061448051, 42.410391703758592 ], [ 117.310907214395144, 42.41039167079979 ], [ 117.310907236633597, 42.410396173743912 ], [ 117.310925466055537, 42.410396124303269 ], [ 117.310925443815748, 42.41039162135916 ], [ 117.310943673236295, 42.410391571915632 ], [ 117.310943695477377, 42.410396074859747 ], [ 117.310949771951329, 42.410396058377913 ], [ 117.310949794192837, 42.410400561322028 ], [ 117.310955870667215, 42.410400544839874 ], [ 117.310955826183317, 42.410391538951679 ], [ 117.310949749709806, 42.410391555433819 ], [ 117.310949727468284, 42.410387052489725 ], [ 117.310967956887495, 42.410387003042345 ], [ 117.310967890159048, 42.410373494210042 ], [ 117.310973966630812, 42.410373477726949 ], [ 117.310973922144356, 42.410364471838733 ], [ 117.310979998615224, 42.410364455355314 ], [ 117.31097997637157, 42.410359952411206 ], [ 117.310973899901143, 42.41035996889461 ], [ 117.310973877657915, 42.410355465950495 ], [ 117.310955648247841, 42.410355515398798 ], [ 117.310955626005949, 42.410351012454669 ], [ 117.310943473066772, 42.410351045418579 ], [ 117.310943495307797, 42.410355548362716 ], [ 117.310931342367724, 42.410355581325334 ], [ 117.310931386848068, 42.4103645872136 ], [ 117.310919233906233, 42.410364620174953 ], [ 117.310919300624192, 42.410378129007341 ], [ 117.310901071207482, 42.410378178446969 ], [ 117.310901048969455, 42.410373675502839 ], [ 117.310888896025844, 42.410373708460988 ], [ 117.310888873788684, 42.410369205516844 ], [ 117.31086456790311, 42.410369271429246 ], [ 117.310864590138522, 42.410373774373404 ], [ 117.310870666610356, 42.410373757895776 ], [ 117.31087071108206, 42.410382763784064 ], [ 117.310876787554761, 42.410382747306123 ], [ 117.310876898736296, 42.410405262026764 ], [ 117.310882975211143, 42.410405245548482 ] ], [ [ 117.310888918262989, 42.410378211405117 ], [ 117.31089499473525, 42.410378194926203 ], [ 117.310895016972822, 42.41038269787034 ], [ 117.310888940500149, 42.410382714349254 ], [ 117.310888918262989, 42.410378211405117 ] ] ] ] } },
{ "type": "Feature", "properties": { "crown_id": 2373, "tree_id": "2374", "top_h_m": 19.312, "H_95_Mean": 19.4062, "DBH": 35.0517, "Carbon_kg": 228.855223, "area_m2": 39.75 }, "geometry": { "type": "Polygon", "coordinates": [ [ [ 117.310712789463722, 42.410396700930278 ], [ 117.310731018886102, 42.410396651520564 ], [ 117.310730974434364, 42.410387645632184 ], [ 117.310737050907619, 42.41038762916164 ], [ 117.310737028681316, 42.410383126217447 ], [ 117.310749181626946, 42.410383093275399 ], [ 117.310749159399805, 42.410378590331206 ], [ 117.310755235872165, 42.410378573859695 ], [ 117.310755213644569, 42.410374070915502 ], [ 117.310761290116503, 42.410374054443672 ], [ 117.310761267888466, 42.410369551499478 ], [ 117.31078557377441, 42.410369485608982 ], [ 117.310785484855415, 42.410351473832208 ], [ 117.310773331915925, 42.410351506778071 ], [ 117.310773309687079, 42.410347003833863 ], [ 117.310755080279122, 42.410347053250256 ], [ 117.310755124734243, 42.410356059138692 ], [ 117.310736895323643, 42.4103561085522 ], [ 117.310736828644863, 42.410342599719513 ], [ 117.31074290511377, 42.410342583248671 ], [ 117.310742882887084, 42.410338080304449 ], [ 117.310718577013191, 42.410338146185858 ], [ 117.310718554788238, 42.410333643241621 ], [ 117.310700325384076, 42.410333692649296 ], [ 117.310700347607707, 42.410338195593546 ], [ 117.310688194670689, 42.410338228530385 ], [ 117.310688261339038, 42.410351737363136 ], [ 117.310682184869208, 42.41035175383108 ], [ 117.310682207091574, 42.41035625677533 ], [ 117.310670054151032, 42.410356289710258 ], [ 117.310670076372531, 42.410360792654494 ], [ 117.31066399990182, 42.410360809121485 ], [ 117.310664044343937, 42.410369815009979 ], [ 117.310657967872359, 42.410369831476636 ], [ 117.310658012313638, 42.410378837365116 ], [ 117.310664088786083, 42.410378820898437 ], [ 117.310664111007171, 42.410383323842673 ], [ 117.310682340425771, 42.410383274440711 ], [ 117.310682318203376, 42.410378771496489 ], [ 117.310706624093072, 42.410378705622712 ], [ 117.310706690765429, 42.410392214455335 ], [ 117.310712767239153, 42.410392197986084 ], [ 117.310712789463722, 42.410396700930278 ] ] ] } },
{ "type": "Feature", "properties": { "crown_id": 2387, "tree_id": "2388", "top_h_m": 20.865, "H_95_Mean": 20.865, "DBH": 19.4, "Carbon_kg": 72.507767, "area_m2": 3.5 }, "geometry": { "type": "MultiPolygon", "coordinates": [ [ [ [ 117.310906992010629, 42.410346641358437 ], [ 117.310907080964384, 42.410364653135019 ], [ 117.310913157435294, 42.410364636655153 ], [ 117.310913135196429, 42.410360133711002 ], [ 117.310925288137412, 42.410360100750303 ], [ 117.310925243657948, 42.410351094862023 ], [ 117.310937396597154, 42.410351061900045 ], [ 117.310937374356556, 42.410346558955908 ], [ 117.310906992010629, 42.410346641358437 ] ] ], [ [ [ 117.310906992010629, 42.410346641358437 ], [ 117.310906969772219, 42.410342138414265 ], [ 117.31089481683469, 42.410342171373024 ], [ 117.310894839072233, 42.410346674317189 ], [ 117.310906992010629, 42.410346641358437 ] ] ] ] } },
{ "type": "Feature", "properties": { "crown_id": 2424, "tree_id": "2425", "top_h_m": 20.22, "H_95_Mean": 20.45, "DBH": 34.3861, "Carbon_kg": 227.110339, "area_m2": 33.5 }, "geometry": { "type": "Polygon", "coordinates": [ [ [ 117.310852526133047, 42.410391819104269 ], [ 117.310870755553779, 42.410391769672337 ], [ 117.310870733317913, 42.4103872667282 ], [ 117.310864656844785, 42.410387283205836 ], [ 117.310864612373933, 42.410378277317548 ], [ 117.310858535901644, 42.410378293794849 ], [ 117.310858469196717, 42.410364784962397 ], [ 117.3108827750806, 42.410364719051287 ], [ 117.310882730607176, 42.410355713162964 ], [ 117.310888807077276, 42.410355696684398 ], [ 117.310888718128794, 42.410337684907752 ], [ 117.310894794597147, 42.410337668428859 ], [ 117.310894772359589, 42.410333165484687 ], [ 117.310888695891677, 42.410333181963566 ], [ 117.31088867365456, 42.410328679019401 ], [ 117.310858291317146, 42.410328761408991 ], [ 117.310858269082217, 42.410324258464797 ], [ 117.310852192615144, 42.410324274941736 ], [ 117.31085217038067, 42.41031977199755 ], [ 117.310840017447404, 42.410319804950475 ], [ 117.310839972980162, 42.410310799062053 ], [ 117.310833896514396, 42.41031081553804 ], [ 117.310833874281215, 42.410306312593818 ], [ 117.310827797815875, 42.410306329069478 ], [ 117.310827842281356, 42.4103153349579 ], [ 117.31082176581512, 42.410315351433226 ], [ 117.310821832512062, 42.410328860265857 ], [ 117.310815756044533, 42.410328876740884 ], [ 117.310815800508308, 42.410337882629285 ], [ 117.310809724039885, 42.410337899103986 ], [ 117.31080974627136, 42.410342402048187 ], [ 117.310803669802524, 42.410342418522561 ], [ 117.310803736495629, 42.410355927355162 ], [ 117.310828042376201, 42.410355861455663 ], [ 117.310828064608998, 42.410360364399843 ], [ 117.310834141079553, 42.410360347924168 ], [ 117.310834163312776, 42.410364850868348 ], [ 117.310840239783772, 42.41036483439234 ], [ 117.310840350952162, 42.410387349113122 ], [ 117.310852503898474, 42.410387316160126 ], [ 117.310852526133047, 42.410391819104269 ] ] ] } },
{ "type": "Feature", "properties": { "crown_id": 2490, "tree_id": "2491", "top_h_m": 20.797, "H_95_Mean": 20.8918, "DBH": 25.2749, "Carbon_kg": 123.671405, "area_m2": 9.75 }, "geometry": { "type": "Polygon", "coordinates": [ [ [ 117.310864345549291, 42.410324241987517 ], [ 117.310888651417471, 42.410324176075221 ], [ 117.310888562469145, 42.410306164298476 ], [ 117.31088248600382, 42.41030618077702 ], [ 117.3108824637672, 42.410301677832834 ], [ 117.310870310837458, 42.41030171078895 ], [ 117.310870266365924, 42.410292704900534 ], [ 117.310858113437874, 42.410292737855357 ], [ 117.310858091203002, 42.410288234911143 ], [ 117.310852014739424, 42.410288251388074 ], [ 117.310852036973856, 42.410292754332289 ], [ 117.310845960509837, 42.410292770808894 ], [ 117.31084600497789, 42.410301776697331 ], [ 117.310839928512976, 42.410301793173637 ], [ 117.310839950746555, 42.410306296117852 ], [ 117.310846027211909, 42.410306279641553 ], [ 117.310846071679975, 42.410315285529968 ], [ 117.310858224612389, 42.410315252576403 ], [ 117.310858246847289, 42.410319755520604 ], [ 117.310864323313936, 42.410319739043338 ], [ 117.310864345549291, 42.410324241987517 ] ] ] } },
{ "type": "Feature", "properties": { "crown_id": 2491, "tree_id": "2492", "top_h_m": 19.557, "H_95_Mean": 20.8405, "DBH": 21.2553, "Carbon_kg": 87.102009, "area_m2": 5.0 }, "geometry": { "type": "MultiPolygon", "coordinates": [ [ [ [ 117.310870244130172, 42.41028820195632 ], [ 117.310870221894433, 42.410283699012105 ], [ 117.310864145431282, 42.410283715489676 ], [ 117.310864167666594, 42.410288218433898 ], [ 117.310870244130172, 42.41028820195632 ] ] ], [ [ [ 117.310900826589517, 42.410328646061316 ], [ 117.310900804351547, 42.410324143117144 ], [ 117.310906880818564, 42.410324126637612 ], [ 117.310906725149906, 42.410292606028321 ], [ 117.310876342829943, 42.410292688422629 ], [ 117.310876365066136, 42.410297191366851 ], [ 117.310888517994982, 42.410297158410081 ], [ 117.310888540232071, 42.410301661354275 ], [ 117.310894616696942, 42.41030164487541 ], [ 117.310894750122046, 42.410328662540522 ], [ 117.310900826589517, 42.410328646061316 ] ] ] ] } },
{ "type": "Feature", "properties": { "crown_id": 2524, "tree_id": "2525", "top_h_m": 19.95, "H_95_Mean": 20.8675, "DBH": 33.3761, "Carbon_kg": 216.437741, "area_m2": 28.75 }, "geometry": { "type": "Polygon", "coordinates": [ [ [ 117.310779386156369, 42.410346987361095 ], [ 117.310797615564269, 42.410346937940837 ], [ 117.310797571103066, 42.410337932052421 ], [ 117.31080364757149, 42.410337915578367 ], [ 117.310803625340455, 42.410333412634159 ], [ 117.310809701808452, 42.410333396159785 ], [ 117.310809657345544, 42.410324390271363 ], [ 117.310815733812632, 42.410324373796662 ], [ 117.310815667117012, 42.410310864964025 ], [ 117.310821743582821, 42.410310848489026 ], [ 117.310821699118222, 42.410301842600568 ], [ 117.310803469723453, 42.410301892024606 ], [ 117.310803380799541, 42.410283880247661 ], [ 117.310791227873139, 42.410283913195379 ], [ 117.310791250103222, 42.410288416139643 ], [ 117.310766944248627, 42.410288482031248 ], [ 117.310766988705353, 42.410297487919749 ], [ 117.31074875931175, 42.410297537335104 ], [ 117.310748848220058, 42.410315549112113 ], [ 117.310742771753766, 42.410315565583247 ], [ 117.310742793980396, 42.410320068527497 ], [ 117.310730641046945, 42.410320101468827 ], [ 117.310730663272736, 42.410324604413084 ], [ 117.310724586805563, 42.410324620883259 ], [ 117.310724631256306, 42.410333626771745 ], [ 117.310748937128437, 42.410333560889065 ], [ 117.310748981582677, 42.410342566777516 ], [ 117.310779363927082, 42.410342484416873 ], [ 117.310779386156369, 42.410346987361095 ] ], [ [ 117.310761090064489, 42.410333527945788 ], [ 117.31076104560853, 42.410324522057316 ], [ 117.310754969141385, 42.410324538529117 ], [ 117.310754902458811, 42.410311029696395 ], [ 117.310773131856337, 42.410310980280066 ], [ 117.310773176313987, 42.410319986168531 ], [ 117.310779252780677, 42.41031996969577 ], [ 117.310779319468509, 42.41033347852845 ], [ 117.310761090064489, 42.410333527945788 ] ], [ [ 117.310809590651246, 42.410310881438711 ], [ 117.310809568419799, 42.410306378494482 ], [ 117.310815644885167, 42.410306362019803 ], [ 117.310815667117012, 42.410310864964025 ], [ 117.310809590651246, 42.410310881438711 ] ] ] } },
{ "type": "Feature", "properties": { "crown_id": 2535, "tree_id": "2536", "top_h_m": 19.32, "H_95_Mean": 20.735, "DBH": 24.8456, "Carbon_kg": 118.943027, "area_m2": 9.25 }, "geometry": { "type": "Polygon", "coordinates": [ [ [ 117.310700303160445, 42.410329189705038 ], [ 117.310718532563314, 42.410329140297378 ], [ 117.310718488113466, 42.410320134408877 ], [ 117.310724564580198, 42.410320117939008 ], [ 117.310724542354876, 42.410315614994758 ], [ 117.31073669528746, 42.410315582054075 ], [ 117.310736673061243, 42.410311079109825 ], [ 117.310742749527108, 42.410311062639003 ], [ 117.310742682847192, 42.410297553806231 ], [ 117.310736606382633, 42.410297570277045 ], [ 117.310736539704038, 42.410284061444237 ], [ 117.310730463240787, 42.410284077914717 ], [ 117.31073048546655, 42.410288580858989 ], [ 117.31072440900283, 42.410288597329156 ], [ 117.310724431228167, 42.410293100273435 ], [ 117.31071835476402, 42.410293116743276 ], [ 117.310718421438736, 42.410306625576091 ], [ 117.310700192042376, 42.410306674983715 ], [ 117.310700303160445, 42.410329189705038 ] ] ] } }
]
}
