{
"type": "FeatureCollection",
"name": "tile_21_3",
"crs": { "type": "name", "properties": { "name": "urn:ogc:def:crs:OGC:1.3:CRS84" } },
"features": [
{ "type": "Feature", "properties": { "crown_id": 8090, "tree_id": "8097", "top_h_m": 18.065, "H_95_Mean": 18.9033, "DBH": 37.4587, "Carbon_kg": 257.602754, "area_m2": 54.0 }, "geometry": { "type": "Polygon", "coordinates": [ [ [ 117.31062104247637, 42.407812224430728 ], [ 117.310639271150592, 42.407812175038025 ], [ 117.310639204498713, 42.40779866619922 ], [ 117.310645280722127, 42.407798649734346 ], [ 117.310645236286703, 42.407789643841788 ], [ 117.31065131250925, 42.407789627376594 ], [ 117.310651268072959, 42.407780621484029 ], [ 117.31065734429464, 42.407780605018523 ], [ 117.31065729985751, 42.407771599125944 ], [ 117.310663376078338, 42.407771582660118 ], [ 117.310663331640342, 42.407762576767553 ], [ 117.31066940786026, 42.407762560301407 ], [ 117.310669385640864, 42.40775805735511 ], [ 117.310675461860356, 42.407758040888652 ], [ 117.310675439640491, 42.407753537942362 ], [ 117.310669363421425, 42.407753554408814 ], [ 117.310669341202029, 42.407749051462517 ], [ 117.31066326498339, 42.407749067928648 ], [ 117.310663220545464, 42.407740062036019 ], [ 117.310644991892161, 42.407740111432467 ], [ 117.310644947456836, 42.407731105539831 ], [ 117.310614566372223, 42.407731187860769 ], [ 117.310614499725844, 42.407717679021729 ], [ 117.310602347294562, 42.407717711947846 ], [ 117.310602369509155, 42.407722214894186 ], [ 117.310590217077007, 42.407722247819017 ], [ 117.310590328145693, 42.407744762550756 ], [ 117.310584251927438, 42.407744779012702 ], [ 117.310584296354079, 42.407753784905388 ], [ 117.310572143915806, 42.407753817828315 ], [ 117.310572166128267, 42.407758320774647 ], [ 117.31056608990869, 42.407758337235627 ], [ 117.310566156544795, 42.407771846074638 ], [ 117.310572232765665, 42.407771829613644 ], [ 117.310572321615638, 42.40778984139893 ], [ 117.31058447406086, 42.407789808475954 ], [ 117.310584496274231, 42.407794311422265 ], [ 117.310596648720306, 42.407794278498002 ], [ 117.310596670934544, 42.407798781444299 ], [ 117.310614899604943, 42.407798732055483 ], [ 117.310614944036047, 42.407807737948048 ], [ 117.310621020260385, 42.407807721484453 ], [ 117.31062104247637, 42.407812224430728 ] ] ] } },
{ "type": "Feature", "properties": { "crown_id": 8108, "tree_id": "8115", "top_h_m": 18.517, "H_95_Mean": 18.1793, "DBH": 42.1164, "Carbon_kg": 318.789906, "area_m2": 91.5 }, "geometry": { "type": "Polygon", "coordinates": [ [ [ 117.310462882993662, 42.407776628808584 ], [ 117.310511492764746, 42.407776497155425 ], [ 117.310511470556619, 42.407771994209071 ], [ 117.31052362299846, 42.407771961292553 ], [ 117.310523600789466, 42.407767458346214 ], [ 117.310535753230425, 42.407767425428418 ], [ 117.310535731020551, 42.407762922482078 ], [ 117.310560035900679, 42.407762856642627 ], [ 117.31055999147749, 42.407753850749948 ], [ 117.310566067696655, 42.407753834289288 ], [ 117.310566045484634, 42.407749331342949 ], [ 117.310578197922055, 42.407749298420669 ], [ 117.310578153496294, 42.407740292527976 ], [ 117.310584229714109, 42.407740276066363 ], [ 117.310584118647611, 42.407717761334588 ], [ 117.310596271078921, 42.407717728410404 ], [ 117.310596248864755, 42.407713225464057 ], [ 117.310602325079984, 42.407713209001486 ], [ 117.310602236221669, 42.407695197216015 ], [ 117.310596160008203, 42.407695213678579 ], [ 117.310596137794064, 42.40769071073219 ], [ 117.310590061581038, 42.407690727194421 ], [ 117.310590039367355, 42.407686224248039 ], [ 117.310535353453645, 42.407686372393627 ], [ 117.310535375663434, 42.40769087534003 ], [ 117.31052322323724, 42.407690908257734 ], [ 117.310523267655057, 42.407699914150555 ], [ 117.310517191441107, 42.407699930608928 ], [ 117.310517213649604, 42.407704433555331 ], [ 117.310511137435171, 42.407704450013377 ], [ 117.310511115227129, 42.40769994706698 ], [ 117.310492886585152, 42.407699996439199 ], [ 117.310492930998677, 42.407709002332027 ], [ 117.310474702354057, 42.407709051701367 ], [ 117.310474724559512, 42.407713554647785 ], [ 117.310450419698213, 42.407713620469075 ], [ 117.310450397494506, 42.40770911752265 ], [ 117.310438245064702, 42.407709150431359 ], [ 117.310438289470412, 42.407718156324208 ], [ 117.310432213254629, 42.407718172778097 ], [ 117.310432191052186, 42.407713669831665 ], [ 117.310426114836844, 42.407713686285206 ], [ 117.310426137038846, 42.407718189231645 ], [ 117.310420060823034, 42.40771820568488 ], [ 117.310420105226143, 42.407727211577736 ], [ 117.310432257659471, 42.407727178670946 ], [ 117.310432279861899, 42.407731681617356 ], [ 117.310438356078976, 42.407731665163475 ], [ 117.310438422687639, 42.407745174002706 ], [ 117.310450575124392, 42.407745141093955 ], [ 117.310450663939477, 42.407763152879539 ], [ 117.310462816379683, 42.407763119969466 ], [ 117.310462882993662, 42.407776628808584 ] ], [ [ 117.310523423117644, 42.4077314347753 ], [ 117.310523356490805, 42.40771792593614 ], [ 117.310541585137898, 42.407717876559062 ], [ 117.310541651768659, 42.407731385398193 ], [ 117.310523423117644, 42.4077314347753 ] ] ] } },
{ "type": "Feature", "properties": { "crown_id": 8223, "tree_id": "8231", "top_h_m": 19.491, "H_95_Mean": 19.4699, "DBH": 36.6045, "Carbon_kg": 250.233238, "area_m2": 46.75 }, "geometry": { "type": "Polygon", "coordinates": [ [ [ 117.310456473709394, 42.407709101067816 ], [ 117.310468626139183, 42.407709068157175 ], [ 117.310468603934154, 42.40770456521075 ], [ 117.310486832577482, 42.407704515842376 ], [ 117.310486788164852, 42.407695509949548 ], [ 117.310492864378418, 42.407695493492781 ], [ 117.310492842171683, 42.407690990546357 ], [ 117.310498918384795, 42.407690974089277 ], [ 117.310498873970459, 42.407681968196442 ], [ 117.310504950182704, 42.407681951739043 ], [ 117.310504972390305, 42.407686454685454 ], [ 117.31051104860299, 42.407686438227742 ], [ 117.310510981978922, 42.407672929388468 ], [ 117.310498829556153, 42.407672962303565 ], [ 117.310498785141846, 42.407663956410694 ], [ 117.310492708931335, 42.407663972867752 ], [ 117.310492664517938, 42.407654966974853 ], [ 117.310486588308294, 42.407654983431591 ], [ 117.310486543895763, 42.407645977538678 ], [ 117.310474391478195, 42.407646010451181 ], [ 117.310474347067441, 42.407637004558232 ], [ 117.310468270859502, 42.407637021013997 ], [ 117.310468226449643, 42.407628015121027 ], [ 117.310443921621342, 42.407628080940839 ], [ 117.310443966027734, 42.407637086833823 ], [ 117.310425737403875, 42.407637136195312 ], [ 117.310425759605778, 42.407641639141808 ], [ 117.310413607188949, 42.407641672047852 ], [ 117.31041362938997, 42.407646174994355 ], [ 117.310407553181136, 42.407646191446901 ], [ 117.310407597582341, 42.407655197339878 ], [ 117.31041367379207, 42.407655180887325 ], [ 117.31041371819417, 42.407664186780302 ], [ 117.310419794404766, 42.407664170327415 ], [ 117.310419883210784, 42.407682182113298 ], [ 117.310432035635401, 42.407682149206551 ], [ 117.310432146647372, 42.407704663938794 ], [ 117.31045645150526, 42.407704598121384 ], [ 117.310456473709394, 42.407709101067816 ] ] ] } },
{ "type": "Feature", "properties": { "crown_id": 8265, "tree_id": "8273", "top_h_m": 21.14, "H_95_Mean": 21.2143, "DBH": 44.2705, "Carbon_kg": 386.211147, "area_m2": 83.5 }, "geometry": { "type": "Polygon", "coordinates": [ [ [ 117.310517124815661, 42.407686421769689 ], [ 117.310529277241002, 42.407686388852639 ], [ 117.310529255031668, 42.407681885906229 ], [ 117.310602169578004, 42.407681688376876 ], [ 117.310602147363468, 42.407677185430487 ], [ 117.310608223575173, 42.407677168967624 ], [ 117.310608201360196, 42.407672666021227 ], [ 117.310602125148918, 42.40767268248409 ], [ 117.310602102934368, 42.407668179537701 ], [ 117.310614255356086, 42.407668146611655 ], [ 117.310614210925294, 42.40765914071887 ], [ 117.310608134715309, 42.407659157182053 ], [ 117.310608090285399, 42.407650151289246 ], [ 117.310614166494517, 42.407650134826056 ], [ 117.310614144279143, 42.407645631879653 ], [ 117.310608068070451, 42.407645648342836 ], [ 117.310608045855531, 42.407641145396418 ], [ 117.310620198272005, 42.407641112469747 ], [ 117.31062017605619, 42.407636609523344 ], [ 117.310614099848394, 42.407636625986832 ], [ 117.310614033202313, 42.407623117147565 ], [ 117.310607956995796, 42.407623133610734 ], [ 117.31060793478089, 42.407618630664302 ], [ 117.310601858574799, 42.407618647127144 ], [ 117.310601836360334, 42.407614144180705 ], [ 117.310595760154669, 42.407614160643213 ], [ 117.310595782368708, 42.407618663589652 ], [ 117.31058362995654, 42.407618696513723 ], [ 117.310583518890724, 42.407596181781457 ], [ 117.310577442686792, 42.407596198242992 ], [ 117.310577398261373, 42.407587192350064 ], [ 117.310571322058308, 42.407587208811272 ], [ 117.31057129984606, 42.407582705864804 ], [ 117.310553071238147, 42.40758275524648 ], [ 117.310553115660056, 42.407591761139443 ], [ 117.310540963253018, 42.407591794058966 ], [ 117.310540985463149, 42.407596297005441 ], [ 117.310534909259161, 42.40759631346473 ], [ 117.310534931468851, 42.407600816411204 ], [ 117.310516702855622, 42.407600865787117 ], [ 117.310516725064019, 42.407605368733606 ], [ 117.310510648859164, 42.407605385191609 ], [ 117.310510671067107, 42.40760988813809 ], [ 117.31049851865653, 42.407609921053123 ], [ 117.310498540863591, 42.407614423999611 ], [ 117.310492464657855, 42.407614440456641 ], [ 117.310492531277831, 42.407627949296078 ], [ 117.310474302656701, 42.407627998665276 ], [ 117.310474324862057, 42.407632501611758 ], [ 117.31048040106954, 42.407632485155673 ], [ 117.310480445481176, 42.407641491048622 ], [ 117.310492597897863, 42.407641458135487 ], [ 117.31049264231126, 42.4076504640284 ], [ 117.310498718520449, 42.407650447571342 ], [ 117.310498762934728, 42.407659453464248 ], [ 117.310504839144784, 42.407659437006863 ], [ 117.310504883559943, 42.407668442899741 ], [ 117.310517035981832, 42.407668409983991 ], [ 117.310517124815661, 42.407686421769689 ] ], [ [ 117.310595915653082, 42.407645681268214 ], [ 117.310595893439, 42.407641178321789 ], [ 117.31060196964728, 42.407641161859267 ], [ 117.310601991861773, 42.407645664805685 ], [ 117.310595915653082, 42.407645681268214 ] ], [ [ 117.310492553484522, 42.407632452242559 ], [ 117.310492531277831, 42.407627949296078 ], [ 117.310498607484888, 42.407627932839034 ], [ 117.310498629691978, 42.407632435785501 ], [ 117.310492553484522, 42.407632452242559 ] ], [ [ 117.310565290278944, 42.407596231165101 ], [ 117.310565268067094, 42.407591728218634 ], [ 117.310571344270585, 42.407591711757746 ], [ 117.310571366482876, 42.407596214704206 ], [ 117.310565290278944, 42.407596231165101 ] ] ] } },
{ "type": "Feature", "properties": { "crown_id": 8307, "tree_id": "8315", "top_h_m": 9.845, "H_95_Mean": 10.7349, "DBH": 20.5008, "Carbon_kg": 54.699903, "area_m2": 15.25 }, "geometry": { "type": "MultiPolygon", "coordinates": [ [ [ [ 117.310644369799718, 42.407614028934105 ], [ 117.31065044600534, 42.407614012469018 ], [ 117.310650468223272, 42.407618515415429 ], [ 117.310644392017238, 42.407618531880523 ], [ 117.310644414234758, 42.407623034826941 ], [ 117.310638338028298, 42.407623051291708 ], [ 117.310638382462471, 42.407632057184522 ], [ 117.310650534877169, 42.40763202425466 ], [ 117.310650579313133, 42.407641030147452 ], [ 117.310656655521328, 42.407641013682039 ], [ 117.310656633302912, 42.407636510735642 ], [ 117.31066270951068, 42.407636494269894 ], [ 117.310662731729536, 42.407640997216284 ], [ 117.310668807937731, 42.407640980750209 ], [ 117.310668785718448, 42.40763647780382 ], [ 117.310674861926216, 42.407636461337439 ], [ 117.310674817486799, 42.407627455444647 ], [ 117.3106808936937, 42.407627438977947 ], [ 117.310680782593053, 42.407604924245923 ], [ 117.31068685879778, 42.407604907778911 ], [ 117.3106868143567, 42.40759590188609 ], [ 117.310650357133582, 42.40759600068332 ], [ 117.310650312697746, 42.407586994790435 ], [ 117.310644236494724, 42.407587011255522 ], [ 117.310644280929694, 42.4075960171484 ], [ 117.310638204725819, 42.407596033613153 ], [ 117.31063824915995, 42.407605039506009 ], [ 117.310644325364692, 42.407605023041249 ], [ 117.310644369799718, 42.407614028934105 ] ] ], [ [ [ 117.310644369799718, 42.407614028934105 ], [ 117.31063829359411, 42.407614045398873 ], [ 117.310638315811204, 42.40761854834529 ], [ 117.310644392017238, 42.407618531880523 ], [ 117.310644369799718, 42.407614028934105 ] ] ] ] } }
]
}
