{
"type": "FeatureCollection",
"name": "tile_12_22",
"crs": { "type": "name", "properties": { "name": "urn:ogc:def:crs:OGC:1.3:CRS84" } },
"features": [
{ "type": "Feature", "properties": { "crown_id": 4867, "tree_id": "4871", "top_h_m": 24.835, "H_95_Mean": 24.4648, "DBH": 31.8862, "Carbon_kg": 216.87676, "area_m2": 18.0 }, "geometry": { "type": "Polygon", "coordinates": [ [ [ 117.315101165594228, 42.409403067849745 ], [ 117.31511331834561, 42.409403034445681 ], [ 117.315113295807052, 42.409398531502589 ], [ 117.315119372182295, 42.409398514800081 ], [ 117.315119394721279, 42.409403017743173 ], [ 117.315125471096962, 42.409403001040324 ], [ 117.315125290781793, 42.409366977495552 ], [ 117.315137443526169, 42.409366944088951 ], [ 117.315137420985934, 42.409362441145831 ], [ 117.315131344614187, 42.409362457849291 ], [ 117.315131322074379, 42.409357954906184 ], [ 117.315125245703058, 42.409357971609317 ], [ 117.315125200624337, 42.409348965723069 ], [ 117.315119124253883, 42.40934898242589 ], [ 117.315119146792824, 42.409353485369003 ], [ 117.315100917680113, 42.40935353547551 ], [ 117.315100940217732, 42.409358038418638 ], [ 117.315082711103685, 42.409358088522239 ], [ 117.315082733639997, 42.409362591465374 ], [ 117.315070580896403, 42.409362624866169 ], [ 117.315070603431863, 42.409367127809311 ], [ 117.315076679804093, 42.40936711110907 ], [ 117.315076702340008, 42.409371614052205 ], [ 117.31508277871265, 42.409371597351644 ], [ 117.315082801249005, 42.409376100294764 ], [ 117.315088877622102, 42.40937608359387 ], [ 117.315088990306052, 42.40939859830943 ], [ 117.315101143056566, 42.409398564906652 ], [ 117.315101165594228, 42.409403067849745 ] ] ] } },
{ "type": "Feature", "properties": { "crown_id": 4907, "tree_id": "4911", "top_h_m": 23.51, "H_95_Mean": 23.5822, "DBH": 36.2747, "Carbon_kg": 275.197488, "area_m2": 31.75 }, "geometry": { "type": "Polygon", "coordinates": [ [ [ 117.315131524932781, 42.409398481394078 ], [ 117.315137601307995, 42.409398464690604 ], [ 117.315137578767704, 42.409393961747519 ], [ 117.315143655142492, 42.409393945043718 ], [ 117.315143632601803, 42.409389442100625 ], [ 117.315149708976151, 42.409389425396512 ], [ 117.315149686435007, 42.409384922453434 ], [ 117.315155762808928, 42.409384905748986 ], [ 117.315155740267372, 42.409380402805908 ], [ 117.315167893014291, 42.409380369396061 ], [ 117.315167915556714, 42.409384872339153 ], [ 117.315173991930607, 42.409384855633739 ], [ 117.315173969387757, 42.409380352690668 ], [ 117.315210427628372, 42.409380252451491 ], [ 117.315210382537444, 42.409371246565357 ], [ 117.315204306164873, 42.409371263272675 ], [ 117.315204283619849, 42.409366760329611 ], [ 117.315198207247718, 42.40936677703661 ], [ 117.315198184703135, 42.409362274093525 ], [ 117.31518603195974, 42.409362307506562 ], [ 117.315186009416024, 42.40935780456347 ], [ 117.315179933044746, 42.409357821269516 ], [ 117.3151798428717, 42.409339809497098 ], [ 117.315185919241245, 42.409339792791073 ], [ 117.315185851610181, 42.409326283961747 ], [ 117.315167622505498, 42.409326334078827 ], [ 117.315167599963118, 42.409321831135699 ], [ 117.315155447227497, 42.409321864545461 ], [ 117.315155424685983, 42.409317361602334 ], [ 117.3151432719512, 42.40931739501081 ], [ 117.315143294491847, 42.409321897953959 ], [ 117.315137218124008, 42.40932191465771 ], [ 117.315137263204392, 42.409330920543994 ], [ 117.3151311868357, 42.409330937247432 ], [ 117.315131231915217, 42.409339943133688 ], [ 117.315125155545658, 42.409339959836821 ], [ 117.315125178084998, 42.409344462779949 ], [ 117.315131254455025, 42.409344446076808 ], [ 117.315131299534585, 42.409353451963071 ], [ 117.315137375905465, 42.409353435259611 ], [ 117.3151373984457, 42.409357938202724 ], [ 117.315143474817006, 42.409357921498945 ], [ 117.315143542439031, 42.409371430328264 ], [ 117.315131389693789, 42.409371463735518 ], [ 117.315131524932781, 42.409398481394078 ] ], [ [ 117.315143610061114, 42.409384939157547 ], [ 117.315143587520424, 42.409380436214455 ], [ 117.315149663893877, 42.409380419510349 ], [ 117.315149686435007, 42.409384922453434 ], [ 117.315143610061114, 42.409384939157547 ] ] ] } },
{ "type": "Feature", "properties": { "crown_id": 4908, "tree_id": "4912", "top_h_m": 24.32, "H_95_Mean": 24.1542, "DBH": 38.6816, "Carbon_kg": 317.712252, "area_m2": 39.0 }, "geometry": { "type": "Polygon", "coordinates": [ [ [ 117.31524083204306, 42.409384671853033 ], [ 117.31524690841691, 42.409384655143768 ], [ 117.315246885868817, 42.409380152200718 ], [ 117.315252962242198, 42.409380135491134 ], [ 117.315252917145187, 42.409371129605027 ], [ 117.315271146262731, 42.40937107947434 ], [ 117.315271123712918, 42.409366576531298 ], [ 117.315289352829083, 42.409366526397726 ], [ 117.315289262624717, 42.409348514625535 ], [ 117.315277109884079, 42.409348548048214 ], [ 117.31527708733384, 42.409344045105151 ], [ 117.315271010963968, 42.409344061816014 ], [ 117.315270965864414, 42.409335055929873 ], [ 117.315246660388269, 42.409335122770067 ], [ 117.315246637840247, 42.409330619826974 ], [ 117.315234485103005, 42.409330653245135 ], [ 117.3152343723673, 42.40930813852961 ], [ 117.315216143267932, 42.409308188654393 ], [ 117.315216165813766, 42.409312691597513 ], [ 117.315210089446865, 42.40931270830513 ], [ 117.315210134537665, 42.409321714191357 ], [ 117.315197981802086, 42.409321747605631 ], [ 117.315198004346641, 42.409326250548744 ], [ 117.315191927978432, 42.409326267255409 ], [ 117.315192018154889, 42.409344279027835 ], [ 117.315185941784932, 42.409344295734186 ], [ 117.315185986872322, 42.409353301620378 ], [ 117.315192063243174, 42.409353284914033 ], [ 117.315192085787302, 42.409357787857118 ], [ 117.315204238529816, 42.409357754443448 ], [ 117.31520426107484, 42.409362257386526 ], [ 117.315210337446516, 42.409362240679201 ], [ 117.315210359991966, 42.409366743622286 ], [ 117.315216436364082, 42.409366726914634 ], [ 117.315216504001782, 42.409380235743832 ], [ 117.315240809495421, 42.409380168909991 ], [ 117.31524083204306, 42.409384671853033 ] ] ] } },
{ "type": "Feature", "properties": { "crown_id": 4963, "tree_id": "4967", "top_h_m": 24.855, "H_95_Mean": 24.6337, "DBH": 35.5959, "Carbon_kg": 271.841082, "area_m2": 27.25 }, "geometry": { "type": "Polygon", "coordinates": [ [ [ 117.315070558360958, 42.409358121923034 ], [ 117.315076634732307, 42.4093581052228 ], [ 117.315076612196421, 42.409353602279666 ], [ 117.315094841309204, 42.409353552177031 ], [ 117.315094818772025, 42.409349049233896 ], [ 117.315113047883429, 42.409348999128369 ], [ 117.315113025344942, 42.409344496185241 ], [ 117.31511910171497, 42.409344479482748 ], [ 117.315119056637144, 42.409335473596485 ], [ 117.315125133006305, 42.409335456893679 ], [ 117.31512508792764, 42.409326451007402 ], [ 117.31513116429592, 42.40932643430429 ], [ 117.315131141756169, 42.409321931361141 ], [ 117.31512506538833, 42.40932194806426 ], [ 117.315125042849004, 42.409317445121104 ], [ 117.315118966481577, 42.409317461823896 ], [ 117.315118943942721, 42.409312958880754 ], [ 117.315112867575721, 42.409312975583205 ], [ 117.315112822498861, 42.409303969696886 ], [ 117.315070287935896, 42.409304086605076 ], [ 117.315070265400522, 42.409299583661898 ], [ 117.3150641890348, 42.40929960036177 ], [ 117.31506423410471, 42.409308606248146 ], [ 117.315058157738108, 42.409308622947712 ], [ 117.315058383083624, 42.409353652379401 ], [ 117.315070535825498, 42.4093536189799 ], [ 117.315070558360958, 42.409358121923034 ] ] ] } },
{ "type": "Feature", "properties": { "crown_id": 5005, "tree_id": "5009", "top_h_m": 22.72, "H_95_Mean": 22.8915, "DBH": 21.3078, "Carbon_kg": 92.533511, "area_m2": 4.25 }, "geometry": { "type": "Polygon", "coordinates": [ [ [ 117.315252714208853, 42.409330603117411 ], [ 117.315264866946066, 42.409330569697325 ], [ 117.315264799298106, 42.409317060868069 ], [ 117.315258722930793, 42.409317077578265 ], [ 117.315258655284197, 42.409303568748967 ], [ 117.315252578918191, 42.409303585458836 ], [ 117.315252601466611, 42.409308088401943 ], [ 117.315240448733732, 42.409308121820715 ], [ 117.315240538924044, 42.409326133593112 ], [ 117.315252691660405, 42.409326100174312 ], [ 117.315252714208853, 42.409330603117411 ] ] ] } },
{ "type": "Feature", "properties": { "crown_id": 5006, "tree_id": "5010", "top_h_m": 24.632, "H_95_Mean": 24.4713, "DBH": 31.3044, "Carbon_kg": 209.007857, "area_m2": 16.75 }, "geometry": { "type": "Polygon", "coordinates": [ [ [ 117.315283163703739, 42.409344028393981 ], [ 117.315289240073611, 42.409344011682478 ], [ 117.31528919497147, 42.409335005796358 ], [ 117.315331729554401, 42.409334888806875 ], [ 117.315331707000297, 42.409330385863825 ], [ 117.315325630631747, 42.409330402577559 ], [ 117.315325608078084, 42.40932589963451 ], [ 117.31531953170996, 42.409325916347932 ], [ 117.315319509156751, 42.409321413404882 ], [ 117.315307356421371, 42.409321446830745 ], [ 117.315307288764316, 42.409307938001525 ], [ 117.315301212397927, 42.409307954713974 ], [ 117.315301099638432, 42.409285439998527 ], [ 117.315295023274203, 42.40928545671062 ], [ 117.315295068377111, 42.409294462596833 ], [ 117.315270762916711, 42.409294529442072 ], [ 117.315270785466424, 42.409299032385178 ], [ 117.315264709100887, 42.409299049095679 ], [ 117.315264776748791, 42.409312557924977 ], [ 117.315270853115635, 42.409312541214469 ], [ 117.31527094331463, 42.409330552986809 ], [ 117.315277019683236, 42.409330536275952 ], [ 117.315277064783629, 42.409339542162087 ], [ 117.315283141153103, 42.40933952545091 ], [ 117.315283163703739, 42.409344028393981 ] ] ] } },
{ "type": "Feature", "properties": { "crown_id": 5039, "tree_id": "5043", "top_h_m": 25.33, "H_95_Mean": 25.6101, "DBH": 23.4207, "Carbon_kg": 119.641982, "area_m2": 5.0 }, "geometry": { "type": "Polygon", "coordinates": [ [ [ 117.315131119216417, 42.409317428417999 ], [ 117.315137195583816, 42.409317411714561 ], [ 117.315137173043638, 42.409312908771426 ], [ 117.315149325777554, 42.409312875363597 ], [ 117.31514923561339, 42.409294863590993 ], [ 117.315137082882956, 42.409294896998809 ], [ 117.315137060342792, 42.409290394055624 ], [ 117.315130983978008, 42.409290410759048 ], [ 117.315131006517703, 42.409294913702219 ], [ 117.315124930152493, 42.409294930405316 ], [ 117.315124952691789, 42.409299433348487 ], [ 117.31511887632611, 42.409299450051257 ], [ 117.315118921403837, 42.409308455937584 ], [ 117.315124997770369, 42.409308439234799 ], [ 117.315125020309694, 42.409312942177955 ], [ 117.315131096676666, 42.40931292547485 ], [ 117.315131119216417, 42.409317428417999 ] ] ] } },
{ "type": "Feature", "properties": { "crown_id": 5054, "tree_id": "5058", "top_h_m": 26.477, "H_95_Mean": 26.333, "DBH": 34.4459, "Carbon_kg": 264.669738, "area_m2": 21.25 }, "geometry": { "type": "Polygon", "coordinates": [ [ [ 117.315173676330915, 42.409321814430328 ], [ 117.315191905434318, 42.409321764312295 ], [ 117.315191882890218, 42.409317261369175 ], [ 117.315204035624902, 42.40931722795554 ], [ 117.315203990534997, 42.409308222069313 ], [ 117.315210066901457, 42.409308205362009 ], [ 117.315210044356064, 42.409303702418889 ], [ 117.315216120722098, 42.409303685711279 ], [ 117.315216098176293, 42.409299182768152 ], [ 117.315210021810685, 42.409299199475768 ], [ 117.315209999265306, 42.409294696532633 ], [ 117.315203922900153, 42.409294713239916 ], [ 117.315203832720428, 42.409276701467356 ], [ 117.315197756356994, 42.409276718174304 ], [ 117.315197733812511, 42.409272215231148 ], [ 117.315173428360438, 42.409272282055731 ], [ 117.315173405817717, 42.409267779112568 ], [ 117.315167329455122, 42.409267795817911 ], [ 117.315167351997431, 42.409272298761067 ], [ 117.315161275634381, 42.409272315466083 ], [ 117.315161298176264, 42.409276818409261 ], [ 117.315155221812802, 42.409276835113964 ], [ 117.315155402144512, 42.409312858659192 ], [ 117.315161478511456, 42.409312841954481 ], [ 117.315161501053367, 42.409317344897609 ], [ 117.315173653788136, 42.4093173114872 ], [ 117.315173676330915, 42.409321814430328 ] ] ] } },
{ "type": "Feature", "properties": { "crown_id": 5089, "tree_id": "5093", "top_h_m": 22.65, "H_95_Mean": 23.6604, "DBH": 31.3896, "Carbon_kg": 206.008765, "area_m2": 18.0 }, "geometry": { "type": "Polygon", "coordinates": [ [ [ 117.315222197088133, 42.409303669003343 ], [ 117.315246502552185, 42.409303602168386 ], [ 117.315246480004205, 42.409299099225272 ], [ 117.315258632735336, 42.409299065805875 ], [ 117.315258610186476, 42.409294562862769 ], [ 117.315264686551586, 42.409294546152573 ], [ 117.315264664002314, 42.409290043209467 ], [ 117.315270740366998, 42.409290026498965 ], [ 117.315270695267571, 42.409281020612745 ], [ 117.315258542539937, 42.409281054033407 ], [ 117.315258519991104, 42.409276551090294 ], [ 117.315252443627713, 42.409276567800141 ], [ 117.315252375982567, 42.409263058970744 ], [ 117.315240223258357, 42.409263092389459 ], [ 117.315240200710846, 42.409258589446317 ], [ 117.315221971625832, 42.409258639571981 ], [ 117.315221994172049, 42.40926314251513 ], [ 117.315203765085684, 42.409263192637894 ], [ 117.315203810175518, 42.409272198524206 ], [ 117.315209886538497, 42.409272181816938 ], [ 117.315209976719942, 42.409290193589506 ], [ 117.315216053084669, 42.409290176881889 ], [ 117.315216075630474, 42.409294679825031 ], [ 117.315222151995627, 42.409294663117102 ], [ 117.315222197088133, 42.409303669003343 ] ] ] } },
{ "type": "Feature", "properties": { "crown_id": 5130, "tree_id": "5134", "top_h_m": 21.58, "H_95_Mean": 21.824, "DBH": 32.4539, "Carbon_kg": 210.048337, "area_m2": 23.75 }, "geometry": { "type": "Polygon", "coordinates": [ [ [ 117.315276816731668, 42.409290009788144 ], [ 117.315288969461008, 42.409289976365521 ], [ 117.315288924358981, 42.409280970479315 ], [ 117.315301077086573, 42.409280937055421 ], [ 117.315301054534686, 42.409276434112321 ], [ 117.315313207261383, 42.409276400687148 ], [ 117.315313184708629, 42.409271897744034 ], [ 117.31532533743443, 42.409271864317574 ], [ 117.315325269773624, 42.409258355488269 ], [ 117.315331346135224, 42.409258338774556 ], [ 117.315331301027172, 42.409249332888336 ], [ 117.315325224666466, 42.409249349602035 ], [ 117.315325202112888, 42.409244846658922 ], [ 117.31531912575258, 42.409244863372301 ], [ 117.315319148305747, 42.409249366315414 ], [ 117.315294842862784, 42.409249433165705 ], [ 117.315294775208599, 42.409235924336301 ], [ 117.31528869884913, 42.409235941048067 ], [ 117.315288676298181, 42.409231438104918 ], [ 117.315282599939181, 42.40923145481635 ], [ 117.31528262248969, 42.409235957759492 ], [ 117.315276546130249, 42.409235974470597 ], [ 117.315276568680332, 42.409240477413753 ], [ 117.315264415960527, 42.409240510835026 ], [ 117.315264438509743, 42.409245013778168 ], [ 117.315252285789057, 42.409245047198162 ], [ 117.315252308337435, 42.409249550141311 ], [ 117.315240155615854, 42.409249583560019 ], [ 117.315240178163364, 42.409254086503168 ], [ 117.315246254524581, 42.409254069793974 ], [ 117.315246277072504, 42.40925857273713 ], [ 117.315258429795819, 42.409258539317769 ], [ 117.315258497442272, 42.409272048147152 ], [ 117.315264573805223, 42.409272031436991 ], [ 117.315264596354496, 42.409276534380112 ], [ 117.315276749081235, 42.409276500958811 ], [ 117.315276816731668, 42.409290009788144 ] ] ] } },
{ "type": "Feature", "properties": { "crown_id": 5144, "tree_id": "5148", "top_h_m": 24.21, "H_95_Mean": 24.4445, "DBH": 39.6489, "Carbon_kg": 336.296492, "area_m2": 42.0 }, "geometry": { "type": "Polygon", "coordinates": [ [ [ 117.315076341766229, 42.409299566961693 ], [ 117.315112799960431, 42.409299466753716 ], [ 117.315112777422001, 42.409294963810538 ], [ 117.315118853787254, 42.409294947108094 ], [ 117.315118831248384, 42.40929044416491 ], [ 117.315124907613196, 42.409290427462146 ], [ 117.315124839995363, 42.409276918632614 ], [ 117.315143069085835, 42.40927686852239 ], [ 117.315143136707576, 42.409290377351894 ], [ 117.31514921307236, 42.40929036064783 ], [ 117.315149122908323, 42.409272348875163 ], [ 117.315155199271345, 42.409272332170787 ], [ 117.315155176729917, 42.409267829227602 ], [ 117.315143024004698, 42.409267862636021 ], [ 117.315142978923589, 42.409258856749666 ], [ 117.315136902561832, 42.409258873453389 ], [ 117.315136767321221, 42.409231855794168 ], [ 117.315124614602922, 42.409231889200605 ], [ 117.315124569524485, 42.409222883314165 ], [ 117.31511849316621, 42.4092229000169 ], [ 117.315118515704967, 42.409227402960127 ], [ 117.315112439346237, 42.40922741966255 ], [ 117.315112461884596, 42.40923192260577 ], [ 117.315106385525425, 42.409231939307858 ], [ 117.315106408063357, 42.409236442251085 ], [ 117.315100331703761, 42.409236458952869 ], [ 117.31510037677873, 42.409245464839309 ], [ 117.315082147697268, 42.409245514942718 ], [ 117.315082170233467, 42.409250017885938 ], [ 117.315063941150655, 42.409250067986463 ], [ 117.315063963685546, 42.409254570929683 ], [ 117.315051810962771, 42.409254604328424 ], [ 117.315051878564901, 42.409268113158113 ], [ 117.315045802202206, 42.409268129857004 ], [ 117.315045847269417, 42.409277135743451 ], [ 117.315051923632979, 42.409277119044539 ], [ 117.31505194616706, 42.409281621987759 ], [ 117.315058022531062, 42.409281605288534 ], [ 117.315058067600049, 42.409290611174924 ], [ 117.315064143964918, 42.409290594475387 ], [ 117.315064166499852, 42.409295097418592 ], [ 117.315076319230414, 42.409295064018501 ], [ 117.315076341766229, 42.409299566961693 ] ], [ [ 117.315070220329744, 42.409290577775508 ], [ 117.31507019779437, 42.409286074832309 ], [ 117.315076274158798, 42.409286058132118 ], [ 117.315076229087182, 42.409277052245727 ], [ 117.31508230545073, 42.409277035545209 ], [ 117.31508237305944, 42.409290544374791 ], [ 117.315070220329744, 42.409290577775508 ] ] ] } },
{ "type": "Feature", "properties": { "crown_id": 5188, "tree_id": "5192", "top_h_m": 21.99, "H_95_Mean": 24.12, "DBH": 22.4729, "Carbon_kg": 106.249316, "area_m2": 4.75 }, "geometry": { "type": "Polygon", "coordinates": [ [ [ 117.31514907782632, 42.409263342988801 ], [ 117.315161230550657, 42.409263309579742 ], [ 117.315161162925094, 42.409249800750189 ], [ 117.315167239285955, 42.409249784045187 ], [ 117.315167194201393, 42.409240778158811 ], [ 117.315161117841413, 42.409240794863798 ], [ 117.315161095299572, 42.409236291920614 ], [ 117.315148942580464, 42.409236325329644 ], [ 117.315148920039491, 42.409231822386431 ], [ 117.315142843680349, 42.409231839090467 ], [ 117.315142956383028, 42.40925435380646 ], [ 117.31514903274433, 42.409254337102418 ], [ 117.31514907782632, 42.409263342988801 ] ] ] } },
{ "type": "Feature", "properties": { "crown_id": 5189, "tree_id": "5193", "top_h_m": 23.946, "H_95_Mean": 23.7406, "DBH": 33.5823, "Carbon_kg": 236.514877, "area_m2": 23.25 }, "geometry": { "type": "Polygon", "coordinates": [ [ [ 117.315179482180312, 42.409267762406905 ], [ 117.315197711268027, 42.409267712287999 ], [ 117.315197666179088, 42.40925870640168 ], [ 117.315215895264146, 42.409258656279889 ], [ 117.315215872718397, 42.409254153336718 ], [ 117.315234101802119, 42.409254103212035 ], [ 117.315234056708007, 42.40924509732573 ], [ 117.315246209428722, 42.409245063907683 ], [ 117.315246186880799, 42.409240560964513 ], [ 117.315234034160952, 42.40924059438256 ], [ 117.315234011613896, 42.409236091439396 ], [ 117.315227935254413, 42.409236108147937 ], [ 117.315227822521408, 42.40921359343205 ], [ 117.31522174616407, 42.409213610140242 ], [ 117.315221723617938, 42.40920910719705 ], [ 117.315209570904116, 42.409209140612489 ], [ 117.315209615994689, 42.40921814649888 ], [ 117.315191386921313, 42.409218196619641 ], [ 117.3151914320093, 42.409227202506031 ], [ 117.315179279291968, 42.409227235918273 ], [ 117.315179301835101, 42.409231738861465 ], [ 117.315167149116874, 42.409231772272427 ], [ 117.315167171659127, 42.409236275215619 ], [ 117.315173248018695, 42.409236258510305 ], [ 117.315173338189524, 42.409254270283036 ], [ 117.315167261828222, 42.409254286988364 ], [ 117.315167306912812, 42.409263292874734 ], [ 117.315179459637122, 42.409263259463735 ], [ 117.315179482180312, 42.409267762406905 ] ] ] } },
{ "type": "Feature", "properties": { "crown_id": 5226, "tree_id": "5230", "top_h_m": 23.99, "H_95_Mean": 23.4325, "DBH": 32.3117, "Carbon_kg": 217.141257, "area_m2": 20.5 }, "geometry": { "type": "Polygon", "coordinates": [ [ [ 117.315051788428747, 42.409250101385197 ], [ 117.315057864789722, 42.409250084685993 ], [ 117.315057842255257, 42.409245581742759 ], [ 117.315076071336762, 42.409245531643215 ], [ 117.315076048801004, 42.409241028699981 ], [ 117.315094277881187, 42.409240978597538 ], [ 117.315094232807084, 42.409231972711083 ], [ 117.315100309166269, 42.409231956009634 ], [ 117.315100286628777, 42.409227453066414 ], [ 117.315088133911303, 42.409227486468986 ], [ 117.315087998691752, 42.409200468809495 ], [ 117.315081922335608, 42.409200485510283 ], [ 117.31508189979948, 42.409195982567027 ], [ 117.315075823443749, 42.409195999267489 ], [ 117.315075800908062, 42.409191496324212 ], [ 117.315057571842189, 42.409191546423671 ], [ 117.315057616910977, 42.40920055231021 ], [ 117.315045464198633, 42.409200585708255 ], [ 117.315045509265715, 42.409209591594809 ], [ 117.315039432908662, 42.409209608293338 ], [ 117.315039500507993, 42.409223117123148 ], [ 117.315045576866339, 42.40922310042459 ], [ 117.315045667000646, 42.409241112197599 ], [ 117.315051743360726, 42.409241095498714 ], [ 117.315051788428747, 42.409250101385197 ] ] ] } },
{ "type": "Feature", "properties": { "crown_id": 5260, "tree_id": "5265", "top_h_m": 21.97, "H_95_Mean": 22.89, "DBH": 20.977, "Carbon_kg": 89.657471, "area_m2": 4.0 }, "geometry": { "type": "Polygon", "coordinates": [ [ [ 117.315106340449617, 42.409222933421397 ], [ 117.315112416807921, 42.409222916719315 ], [ 117.315112394269562, 42.409218413776081 ], [ 117.315124546985288, 42.409218380370937 ], [ 117.315124524446077, 42.40921387742771 ], [ 117.315118448088668, 42.409213894130438 ], [ 117.315118380472398, 42.409200385300721 ], [ 117.315094075047881, 42.409200452108387 ], [ 117.315094142658936, 42.409213960938139 ], [ 117.315106295373809, 42.409213927534935 ], [ 117.315106340449617, 42.409222933421397 ] ] ] } },
{ "type": "Feature", "properties": { "crown_id": 5271, "tree_id": "5276", "top_h_m": 20.882, "H_95_Mean": 20.9028, "DBH": 28.0028, "Carbon_kg": 152.096081, "area_m2": 14.5 }, "geometry": { "type": "Polygon", "coordinates": [ [ [ 117.315240087973393, 42.409236074730536 ], [ 117.315246164332891, 42.409236058021364 ], [ 117.315246141784968, 42.409231555078193 ], [ 117.315252218143996, 42.409231538368694 ], [ 117.315252240692359, 42.409236041311857 ], [ 117.31527046977078, 42.40923599118139 ], [ 117.315270447221138, 42.409231488238241 ], [ 117.315276523580138, 42.409231471527455 ], [ 117.315276501030056, 42.409226968584306 ], [ 117.315288653747231, 42.409226935161762 ], [ 117.315288631196296, 42.409222432218606 ], [ 117.315282554838149, 42.409222448930038 ], [ 117.315282464636169, 42.409204437157378 ], [ 117.315252082854045, 42.40920452070965 ], [ 117.315252037757418, 42.409195514823274 ], [ 117.315239885046267, 42.409195548241918 ], [ 117.315239907593707, 42.40920005118511 ], [ 117.315233831237691, 42.409200067893956 ], [ 117.315233853784704, 42.40920457083714 ], [ 117.315227777428234, 42.409204587545666 ], [ 117.315227799974835, 42.409209090488858 ], [ 117.315233876331703, 42.409209073780339 ], [ 117.31523398906684, 42.409231588496233 ], [ 117.315240065425911, 42.409231571787373 ], [ 117.315240087973393, 42.409236074730536 ] ] ] } }
]
}
