{
"type": "FeatureCollection",
"name": "tile_9_3",
"crs": { "type": "name", "properties": { "name": "urn:ogc:def:crs:OGC:1.3:CRS84" } },
"features": [
{ "type": "Feature", "properties": { "crown_id": 3391, "tree_id": "3394", "top_h_m": 21.16, "H_95_Mean": 21.6196, "DBH": 37.7051, "Carbon_kg": 282.603443, "area_m2": 43.25 }, "geometry": { "type": "Polygon", "coordinates": [ [ [ 117.310613455226004, 42.409969184681067 ], [ 117.310631684524793, 42.409969135287561 ], [ 117.310631506777426, 42.409933111730894 ], [ 117.310649736065727, 42.409933062334538 ], [ 117.310649691626324, 42.409924056445341 ], [ 117.310643615197776, 42.40992407291111 ], [ 117.310643504101563, 42.409901558188075 ], [ 117.310637427675175, 42.409901574653503 ], [ 117.310637383237577, 42.409892568764256 ], [ 117.310631306812056, 42.409892585229365 ], [ 117.310631284593697, 42.409888082284745 ], [ 117.310606978893261, 42.409888148141924 ], [ 117.310606934460083, 42.409879142252642 ], [ 117.3105887051873, 42.409879191642133 ], [ 117.310588682972025, 42.409874688697471 ], [ 117.310570453700493, 42.409874738084071 ], [ 117.310570475914503, 42.40987924102874 ], [ 117.310552246641635, 42.409879290412427 ], [ 117.310552402130583, 42.409910811025057 ], [ 117.310558478557908, 42.409910794564134 ], [ 117.31055850077108, 42.409915297508782 ], [ 117.310570653626598, 42.409915264585948 ], [ 117.310570675840609, 42.409919767530575 ], [ 117.310588905125172, 42.409919718143904 ], [ 117.310588971771224, 42.409933226977778 ], [ 117.310582895341739, 42.409933243440328 ], [ 117.310582917556658, 42.409937746384941 ], [ 117.310595070416483, 42.409937713459506 ], [ 117.310595181495515, 42.409960228182513 ], [ 117.310613410791731, 42.409960178791898 ], [ 117.310613455226004, 42.409969184681067 ] ], [ [ 117.310619265048459, 42.409915132881743 ], [ 117.310619220613461, 42.409906126992503 ], [ 117.310600991332905, 42.409906176383977 ], [ 117.310600924684323, 42.409892667550068 ], [ 117.310619153960971, 42.409892618158615 ], [ 117.310619198395969, 42.409901624047876 ], [ 117.310637427675175, 42.409901574653503 ], [ 117.310637494331587, 42.409915083487341 ], [ 117.310619265048459, 42.409915132881743 ] ] ] } },
{ "type": "Feature", "properties": { "crown_id": 3445, "tree_id": "3448", "top_h_m": 22.98, "H_95_Mean": 22.5455, "DBH": 43.4575, "Carbon_kg": 385.685858, "area_m2": 69.5 }, "geometry": { "type": "Polygon", "coordinates": [ [ [ 117.310455512379676, 42.409978618526068 ], [ 117.310467665247529, 42.409978585614127 ], [ 117.310467620834117, 42.409969579724859 ], [ 117.31047369726717, 42.409969563268405 ], [ 117.310473675060052, 42.409965060323763 ], [ 117.31047975149265, 42.40996504386699 ], [ 117.310479729285092, 42.409960540922341 ], [ 117.31050403501375, 42.409960475092035 ], [ 117.310504079432363, 42.409969480981303 ], [ 117.310516232298411, 42.40996944806421 ], [ 117.310516210088238, 42.40996494511959 ], [ 117.310534439385947, 42.409964895741538 ], [ 117.31053441717448, 42.409960392796926 ], [ 117.310552646470839, 42.409960343415982 ], [ 117.310552624258051, 42.409955840471369 ], [ 117.310546547826377, 42.409955856931994 ], [ 117.310546392340129, 42.409924336319605 ], [ 117.310564621626057, 42.409924286936786 ], [ 117.310564599412444, 42.409919783992159 ], [ 117.310552446556031, 42.409919816914353 ], [ 117.3105524243433, 42.409915313969705 ], [ 117.310546347915533, 42.409915330430316 ], [ 117.310546148005102, 42.409874803928346 ], [ 117.31052791873347, 42.409874853308168 ], [ 117.310527896522544, 42.409870350363477 ], [ 117.310509667252191, 42.409870399740406 ], [ 117.310509622832939, 42.409861393850996 ], [ 117.310503546410345, 42.409861410309325 ], [ 117.31050363524713, 42.409879422088132 ], [ 117.310491482398461, 42.409879455003839 ], [ 117.310491549023524, 42.409892963837912 ], [ 117.310497625449173, 42.409892947380207 ], [ 117.310497714284352, 42.409910959158928 ], [ 117.310467332147411, 42.409911041444246 ], [ 117.310467354354046, 42.409915544388944 ], [ 117.310461277926208, 42.409915560845043 ], [ 117.310461322338625, 42.409924566734396 ], [ 117.310430940194991, 42.409924649010094 ], [ 117.310430962399025, 42.409929151954778 ], [ 117.310418809540678, 42.409929184862818 ], [ 117.31041883174386, 42.409933687807509 ], [ 117.310430984603087, 42.409933654899469 ], [ 117.310431029011212, 42.409942660788822 ], [ 117.310443181872159, 42.409942627879481 ], [ 117.31044331510185, 42.409969645547442 ], [ 117.310449391534931, 42.409969629092288 ], [ 117.310449413740344, 42.409974132036929 ], [ 117.310455490173851, 42.409974115581427 ], [ 117.310455512379676, 42.409978618526068 ] ], [ [ 117.310455445762173, 42.409965109692159 ], [ 117.310455379144713, 42.409951600858193 ], [ 117.310473608438656, 42.409951551489826 ], [ 117.310473675060052, 42.409965060323763 ], [ 117.310455445762173, 42.409965109692159 ] ] ] } },
{ "type": "Feature", "properties": { "crown_id": 3480, "tree_id": "3483", "top_h_m": 20.775, "H_95_Mean": 22.6653, "DBH": 25.3546, "Carbon_kg": 130.60334, "area_m2": 8.5 }, "geometry": { "type": "Polygon", "coordinates": [ [ [ 117.310655812495156, 42.409933045868442 ], [ 117.310661888924571, 42.409933029402019 ], [ 117.310661866703995, 42.409928526457428 ], [ 117.310692248848852, 42.409928444120531 ], [ 117.310692226626117, 42.409923941175961 ], [ 117.310698303054636, 42.409923924707606 ], [ 117.310698280831474, 42.409919421763028 ], [ 117.310686127975288, 42.409919454699391 ], [ 117.310686083530697, 42.409910448810201 ], [ 117.310673930676245, 42.409910481745271 ], [ 117.310673886233445, 42.409901475856088 ], [ 117.310649580527951, 42.40990154172232 ], [ 117.310649669406644, 42.409919553500757 ], [ 117.310655745834751, 42.409919537034661 ], [ 117.310655812495156, 42.409933045868442 ] ] ] } },
{ "type": "Feature", "properties": { "crown_id": 3522, "tree_id": "3525", "top_h_m": 21.678, "H_95_Mean": 22.2557, "DBH": 38.9989, "Carbon_kg": 307.721291, "area_m2": 46.75 }, "geometry": { "type": "Polygon", "coordinates": [ [ [ 117.310424841562636, 42.409920162519576 ], [ 117.310455223704139, 42.409920080245506 ], [ 117.310455179292575, 42.409911074356117 ], [ 117.310461255719972, 42.409911057900352 ], [ 117.310461233513777, 42.409906554955661 ], [ 117.310491615648615, 42.40990647267197 ], [ 117.310491571231879, 42.40989746678261 ], [ 117.310485494805775, 42.40989748323998 ], [ 117.31048538376622, 42.409874968516498 ], [ 117.310497536614037, 42.409874935601444 ], [ 117.310497447778985, 42.409856923822616 ], [ 117.310503524201138, 42.409856907364613 ], [ 117.310503479782795, 42.409847901475182 ], [ 117.310467021254951, 42.409848000218318 ], [ 117.310466999048401, 42.409843497273577 ], [ 117.310442693364806, 42.409843563095883 ], [ 117.310442759979296, 42.409857071930112 ], [ 117.310418454290414, 42.409857137747302 ], [ 117.310418587509119, 42.409884155415725 ], [ 117.310412511084252, 42.40988417186923 ], [ 117.310412533286964, 42.409888674813956 ], [ 117.310406456861671, 42.409888691267142 ], [ 117.310406479063957, 42.409893194211868 ], [ 117.310394326212503, 42.40989322711728 ], [ 117.310394437219585, 42.409915741840891 ], [ 117.310424819359028, 42.409915659574885 ], [ 117.310424841562636, 42.409920162519576 ] ], [ [ 117.310448880812075, 42.409866061364482 ], [ 117.310448814196249, 42.409852552530282 ], [ 117.310467043461543, 42.409852503163052 ], [ 117.310467110081262, 42.409866011997224 ], [ 117.310448880812075, 42.409866061364482 ] ] ] } },
{ "type": "Feature", "properties": { "crown_id": 3544, "tree_id": "3547", "top_h_m": 21.856, "H_95_Mean": 21.3343, "DBH": 32.7011, "Carbon_kg": 210.441712, "area_m2": 25.5 }, "geometry": { "type": "Polygon", "coordinates": [ [ [ 117.310692182180659, 42.409914935286793 ], [ 117.310698258608298, 42.409914918818451 ], [ 117.310698214162002, 42.409905912929283 ], [ 117.310704290588774, 42.409905896460614 ], [ 117.3107042683652, 42.40990139351603 ], [ 117.310698191938855, 42.409901409984684 ], [ 117.310698169715707, 42.409896907040093 ], [ 117.310704246141611, 42.409896890571439 ], [ 117.310704223918037, 42.409892387626847 ], [ 117.310698147492573, 42.409892404095494 ], [ 117.310698058600082, 42.409874392317064 ], [ 117.310704135023826, 42.409874375848418 ], [ 117.310704001682637, 42.40984735818067 ], [ 117.310697925261479, 42.409847374649296 ], [ 117.310697903038417, 42.409842871704669 ], [ 117.310691826617727, 42.40984288817296 ], [ 117.310691804395063, 42.409838385228319 ], [ 117.31067357513426, 42.409838434631276 ], [ 117.310673552912945, 42.409833931686613 ], [ 117.310649247233528, 42.409833997552703 ], [ 117.310649291672689, 42.409843003442035 ], [ 117.310667520934885, 42.409842954042936 ], [ 117.310667543155787, 42.409847456987585 ], [ 117.31068577241922, 42.40984740758558 ], [ 117.310685839085892, 42.409860916419504 ], [ 117.310661533396086, 42.409860982288222 ], [ 117.310661600057571, 42.409874491122117 ], [ 117.310649447210039, 42.409874524054572 ], [ 117.310649469429677, 42.409879026999207 ], [ 117.31063731658125, 42.409879059930368 ], [ 117.310637361018792, 42.409888065819636 ], [ 117.310643437443872, 42.409888049354208 ], [ 117.310643481882337, 42.409897055243462 ], [ 117.31067994043795, 42.409896956444115 ], [ 117.310679984881645, 42.409905962333305 ], [ 117.310692137735217, 42.409905929397617 ], [ 117.310692182180659, 42.409914935286793 ] ] ] } },
{ "type": "Feature", "properties": { "crown_id": 3614, "tree_id": "3617", "top_h_m": 17.567, "H_95_Mean": 18.12, "DBH": 18.4653, "Carbon_kg": 60.384943, "area_m2": 3.75 }, "geometry": { "type": "Polygon", "coordinates": [ [ [ 117.310533972945976, 42.409870333903861 ], [ 117.310540049369408, 42.409870317443918 ], [ 117.31053996052222, 42.409852305665162 ], [ 117.310515654835399, 42.409852371502936 ], [ 117.310515632625354, 42.409847868558224 ], [ 117.310509556204082, 42.409847885016859 ], [ 117.310509600623305, 42.409856890906283 ], [ 117.310515677045473, 42.409856874447648 ], [ 117.310515721465578, 42.409865880337058 ], [ 117.310533950734609, 42.409865830959177 ], [ 117.310533972945976, 42.409870333903861 ] ] ] } },
{ "type": "Feature", "properties": { "crown_id": 3615, "tree_id": "3618", "top_h_m": 20.24, "H_95_Mean": 21.5275, "DBH": 28.8879, "Carbon_kg": 164.786129, "area_m2": 15.5 }, "geometry": { "type": "Polygon", "coordinates": [ [ [ 117.310613033101347, 42.409883628733475 ], [ 117.310631262375367, 42.409883579340097 ], [ 117.310631240157022, 42.409879076395477 ], [ 117.310619087308552, 42.409879109324699 ], [ 117.310619020656162, 42.409865600490747 ], [ 117.310637249924937, 42.409865551096445 ], [ 117.310637294362479, 42.409874556985727 ], [ 117.310643370786238, 42.409874540520306 ], [ 117.310643348567041, 42.409870037575658 ], [ 117.310655501413734, 42.409870004643871 ], [ 117.310655434753556, 42.409856495809947 ], [ 117.310661511175596, 42.409856479343574 ], [ 117.310661466734643, 42.409847473454271 ], [ 117.310637161049968, 42.409847539317816 ], [ 117.31063718326871, 42.409852042262479 ], [ 117.310600724738933, 42.409852141048134 ], [ 117.310600702522791, 42.409847638103471 ], [ 117.31059462610159, 42.409847654566612 ], [ 117.310594648317277, 42.409852157511295 ], [ 117.31058249547398, 42.409852190436631 ], [ 117.310582562118483, 42.409865699270661 ], [ 117.310570409272543, 42.40986573219471 ], [ 117.310570431486539, 42.409870235139394 ], [ 117.310594737180125, 42.40987016928996 ], [ 117.31059475939584, 42.409874672234636 ], [ 117.310612988667287, 42.409874622844171 ], [ 117.310613033101347, 42.409883628733475 ] ] ] } },
{ "type": "Feature", "properties": { "crown_id": 3684, "tree_id": "3687", "top_h_m": 19.51, "H_95_Mean": 19.4633, "DBH": 26.0545, "Carbon_kg": 126.086129, "area_m2": 12.5 }, "geometry": { "type": "Polygon", "coordinates": [ [ [ 117.310552224428974, 42.40987478746775 ], [ 117.310564377276648, 42.409874754545612 ], [ 117.310564310636039, 42.409861245711589 ], [ 117.310576463481112, 42.409861212788186 ], [ 117.310576285766032, 42.409825189230638 ], [ 117.310558056508839, 42.409825238615213 ], [ 117.310558034295767, 42.409820735670493 ], [ 117.310545881458495, 42.409820768591928 ], [ 117.310546125792854, 42.409870300983663 ], [ 117.310552202216286, 42.40987028452308 ], [ 117.310552224428974, 42.40987478746775 ] ] ] } },
{ "type": "Feature", "properties": { "crown_id": 3685, "tree_id": "3688", "top_h_m": 18.92, "H_95_Mean": 20.36, "DBH": 17.5838, "Carbon_kg": 58.620807, "area_m2": 2.5 }, "geometry": { "type": "Polygon", "coordinates": [ [ [ 117.310582473259146, 42.409847687491947 ], [ 117.310588549680375, 42.409847671029439 ], [ 117.310588527465114, 42.409843168084741 ], [ 117.310594603885903, 42.409843151621935 ], [ 117.310594559454515, 42.40983414573256 ], [ 117.310600635874437, 42.40983412926942 ], [ 117.310600613658323, 42.409829626324729 ], [ 117.310594537238856, 42.409829642787869 ], [ 117.310594492807525, 42.409820636898466 ], [ 117.310588416388896, 42.40982065336128 ], [ 117.310588460819361, 42.40982965925069 ], [ 117.310582384399893, 42.409829675713169 ], [ 117.310582473259146, 42.409847687491947 ] ] ] } },
{ "type": "Feature", "properties": { "crown_id": 3686, "tree_id": "3689", "top_h_m": 19.85, "H_95_Mean": 19.9447, "DBH": 29.8472, "Carbon_kg": 168.228375, "area_m2": 20.25 }, "geometry": { "type": "Polygon", "coordinates": [ [ [ 117.310606778944006, 42.409847621640004 ], [ 117.310631084628767, 42.409847555782903 ], [ 117.310631062410479, 42.409843052838227 ], [ 117.310643215251986, 42.409843019907754 ], [ 117.310643148594494, 42.409829511073752 ], [ 117.310649225013918, 42.409829494608033 ], [ 117.310649113916071, 42.409806979884628 ], [ 117.310643037498792, 42.409806996350333 ], [ 117.310643015279695, 42.409802493405635 ], [ 117.310630862446004, 42.409802526336065 ], [ 117.310630840227773, 42.409798023391367 ], [ 117.31061868739495, 42.409798056320497 ], [ 117.310618642960208, 42.40978905043108 ], [ 117.310612566544663, 42.409789066895158 ], [ 117.3106125887616, 42.409793569839877 ], [ 117.310600435929615, 42.409793602767074 ], [ 117.310600480361757, 42.409802608656506 ], [ 117.31059440394489, 42.409802625119632 ], [ 117.310594470591852, 42.409816133953768 ], [ 117.310600547010026, 42.409816117490628 ], [ 117.310600591442224, 42.409825123380031 ], [ 117.310606667861251, 42.409825106916571 ], [ 117.310606734510898, 42.409838615750644 ], [ 117.310600658090536, 42.409838632214104 ], [ 117.310600680306663, 42.409843135158781 ], [ 117.310606756727452, 42.409843118695314 ], [ 117.310606778944006, 42.409847621640004 ] ] ] } },
{ "type": "Feature", "properties": { "crown_id": 3699, "tree_id": "3702", "top_h_m": 19.052, "H_95_Mean": 19.4811, "DBH": 21.5752, "Carbon_kg": 86.2536, "area_m2": 6.0 }, "geometry": { "type": "Polygon", "coordinates": [ [ [ 117.310521709046625, 42.409847852099261 ], [ 117.310539938310441, 42.409847802720449 ], [ 117.310539760616351, 42.409811779162709 ], [ 117.31052760778077, 42.409811812082204 ], [ 117.310527652202538, 42.409820817971671 ], [ 117.310521575783852, 42.409820834430931 ], [ 117.310521642415239, 42.409834343265118 ], [ 117.31051556599526, 42.409834359724073 ], [ 117.310515610415322, 42.409843365613511 ], [ 117.310521686836154, 42.409843349154549 ], [ 117.310521709046625, 42.409847852099261 ] ] ] } },
{ "type": "Feature", "properties": { "crown_id": 3715, "tree_id": "3718", "top_h_m": 19.83, "H_95_Mean": 19.6235, "DBH": 27.5312, "Carbon_kg": 141.588691, "area_m2": 15.25 }, "geometry": { "type": "Polygon", "coordinates": [ [ [ 117.310679629332782, 42.409833915219295 ], [ 117.310691782172455, 42.409833882283671 ], [ 117.310691759949819, 42.409829379339023 ], [ 117.310697836369201, 42.409829362870731 ], [ 117.310697814146138, 42.409824859926076 ], [ 117.310709966984049, 42.409824826988526 ], [ 117.310709878088389, 42.409806815209912 ], [ 117.310715954505582, 42.409806798740668 ], [ 117.310715887832586, 42.409793289906673 ], [ 117.310709811416686, 42.409793306375903 ], [ 117.310709833640587, 42.409797809320573 ], [ 117.310691604391536, 42.409797858726364 ], [ 117.310691582168943, 42.409793355781687 ], [ 117.310673352921185, 42.409793405184558 ], [ 117.310673419585058, 42.409806914018603 ], [ 117.310667343167808, 42.409806930485601 ], [ 117.310667365388682, 42.409811433430285 ], [ 117.310655212553314, 42.409811466363294 ], [ 117.310655301433357, 42.409829478142001 ], [ 117.310679607111013, 42.40982941227464 ], [ 117.310679629332782, 42.409833915219295 ] ] ] } },
{ "type": "Feature", "properties": { "crown_id": 3736, "tree_id": "3739", "top_h_m": 21.3, "H_95_Mean": 20.8978, "DBH": 32.3006, "Carbon_kg": 202.78478, "area_m2": 25.25 }, "geometry": { "type": "MultiPolygon", "coordinates": [ [ [ [ 117.310466754776513, 42.409793964881253 ], [ 117.310466821396048, 42.409807473715553 ], [ 117.310454668561221, 42.409807506627317 ], [ 117.310454690766875, 42.409812009572093 ], [ 117.310448614349013, 42.409812026027495 ], [ 117.310448680964711, 42.409825534861781 ], [ 117.310442604545557, 42.409825551316871 ], [ 117.310442626750358, 42.409830054261626 ], [ 117.310448703169953, 42.409830037806543 ], [ 117.310448747580438, 42.409839043696046 ], [ 117.310473053262271, 42.409838977872454 ], [ 117.310473075469261, 42.409843480817194 ], [ 117.310509533994477, 42.409843382072147 ], [ 117.310509467365677, 42.409829873237975 ], [ 117.310515543785215, 42.409829856779346 ], [ 117.310515477155192, 42.409816347945139 ], [ 117.310521553573409, 42.409816331486191 ], [ 117.310521509152537, 42.409807325596717 ], [ 117.310515432735187, 42.409807342055657 ], [ 117.31051541052517, 42.40980283911091 ], [ 117.310497181274357, 42.409802888485785 ], [ 117.310497159065662, 42.409798385541023 ], [ 117.31049108264915, 42.409798401998664 ], [ 117.31049106044091, 42.409793899053895 ], [ 117.310466754776513, 42.409793964881253 ] ] ], [ [ [ 117.310466754776513, 42.409793964881253 ], [ 117.310466732570006, 42.409789461936455 ], [ 117.310460656154333, 42.409789478392497 ], [ 117.3104606783604, 42.409793981337273 ], [ 117.310466754776513, 42.409793964881253 ] ] ] ] } },
{ "type": "Feature", "properties": { "crown_id": 3764, "tree_id": "3767", "top_h_m": 18.93, "H_95_Mean": 18.835, "DBH": 20.5132, "Carbon_kg": 76.371482, "area_m2": 5.25 }, "geometry": { "type": "Polygon", "coordinates": [ [ [ 117.310655190333321, 42.409806963418603 ], [ 117.310661266750571, 42.409806946952266 ], [ 117.310661244530152, 42.409802444007582 ], [ 117.310667320946948, 42.40980242754091 ], [ 117.310667254284397, 42.409788918706845 ], [ 117.310655101453378, 42.409788951639833 ], [ 117.310655079233413, 42.409784448695127 ], [ 117.310624697157948, 42.409784531021963 ], [ 117.310624741593557, 42.409793536911394 ], [ 117.310636894425485, 42.409793503981625 ], [ 117.310636916644185, 42.409798006926316 ], [ 117.310649069476952, 42.409797973995246 ], [ 117.310649091696519, 42.409802476939944 ], [ 117.310655168113328, 42.409802460473919 ], [ 117.310655190333321, 42.409806963418603 ] ] ] } },
{ "type": "Feature", "properties": { "crown_id": 3821, "tree_id": "3824", "top_h_m": 18.432, "H_95_Mean": 19.14, "DBH": 18.2686, "Carbon_kg": 61.040987, "area_m2": 3.25 }, "geometry": { "type": "Polygon", "coordinates": [ [ [ 117.310472808985679, 42.409789445480108 ], [ 117.310478885401352, 42.409789429023448 ], [ 117.310478818779259, 42.409775920189098 ], [ 117.31047274236488, 42.409775936645765 ], [ 117.310472675744151, 42.409762427811373 ], [ 117.310460522918035, 42.409762460723719 ], [ 117.310460633948281, 42.409784975447707 ], [ 117.310472786778732, 42.409784942535339 ], [ 117.310472808985679, 42.409789445480108 ] ] ] } },
{ "type": "Feature", "properties": { "crown_id": 3822, "tree_id": "3825", "top_h_m": 21.358, "H_95_Mean": 20.9132, "DBH": 37.2271, "Carbon_kg": 270.070251, "area_m2": 43.75 }, "geometry": { "type": "MultiPolygon", "coordinates": [ [ [ [ 117.310563666445603, 42.409730660314288 ], [ 117.310563644232232, 42.409726157369498 ], [ 117.310557567822713, 42.409726173830649 ], [ 117.310557590035685, 42.409730676775439 ], [ 117.310563666445603, 42.409730660314288 ] ] ], [ [ [ 117.310582339970296, 42.409820669823766 ], [ 117.31058231775549, 42.409816166879061 ], [ 117.310588394173664, 42.409816150416574 ], [ 117.31058828309763, 42.409793635692985 ], [ 117.31059435951363, 42.4097936192302 ], [ 117.310594337297985, 42.409789116285474 ], [ 117.310600413713559, 42.409789099822355 ], [ 117.310600391497488, 42.409784596877628 ], [ 117.310594315082369, 42.409784613340747 ], [ 117.310594292866739, 42.409780110396014 ], [ 117.31058214003734, 42.409780143321264 ], [ 117.310582117822591, 42.409775640376516 ], [ 117.310563888579779, 42.409775689761972 ], [ 117.310563866366323, 42.40977118681721 ], [ 117.310551713538615, 42.409771219739227 ], [ 117.310551602475854, 42.409748705015403 ], [ 117.310557678887534, 42.409748688554558 ], [ 117.31055761224863, 42.409735179720222 ], [ 117.310551535838243, 42.409735196181053 ], [ 117.310551580263322, 42.40974420207062 ], [ 117.31054550385204, 42.409744218531131 ], [ 117.310545548276281, 42.40975322442069 ], [ 117.310527319039863, 42.409753273800298 ], [ 117.310527363461475, 42.409762279689872 ], [ 117.310521287048473, 42.409762296149104 ], [ 117.310521309258846, 42.40976679909388 ], [ 117.310490927191523, 42.409766881385231 ], [ 117.310490838358703, 42.409748869606048 ], [ 117.310478685535216, 42.40974890252032 ], [ 117.310478707742533, 42.409753405465111 ], [ 117.310466554918165, 42.409753438378097 ], [ 117.310466577124643, 42.409757941322916 ], [ 117.310478729949878, 42.409757908409922 ], [ 117.310478796571886, 42.409771417244301 ], [ 117.310484872985839, 42.409771400787321 ], [ 117.310484961816996, 42.409789412566447 ], [ 117.3104971146483, 42.4097893796515 ], [ 117.310497136856995, 42.409793882596261 ], [ 117.310503213273066, 42.409793866138301 ], [ 117.310503235482173, 42.409798369083049 ], [ 117.310521464731693, 42.409798319707221 ], [ 117.310521486942108, 42.409802822651976 ], [ 117.310527563359031, 42.409802806192715 ], [ 117.310527585569886, 42.409807309137456 ], [ 117.31054581482195, 42.409807259757756 ], [ 117.310545859246304, 42.409816265647216 ], [ 117.310564088500911, 42.409816216264595 ], [ 117.310564110714424, 42.4098207192093 ], [ 117.310582339970296, 42.409820669823766 ] ] ] ] } }
]
}
