{
"type": "FeatureCollection",
"name": "tile_10_3",
"crs": { "type": "name", "properties": { "name": "urn:ogc:def:crs:OGC:1.3:CRS84" } },
"features": [
{ "type": "Feature", "properties": { "crown_id": 3854, "tree_id": "3857", "top_h_m": 19.927, "H_95_Mean": 20.6962, "DBH": 41.2228, "Carbon_kg": 329.640025, "area_m2": 66.25 }, "geometry": { "type": "Polygon", "coordinates": [ [ [ 117.310697658584871, 42.40979333931341 ], [ 117.310703735000786, 42.409793322844827 ], [ 117.310703712777325, 42.409788819900136 ], [ 117.310715865608273, 42.40978878696199 ], [ 117.31071584338396, 42.40978428401732 ], [ 117.310721919798965, 42.409784267547764 ], [ 117.310721875349486, 42.409775261658396 ], [ 117.310734028177791, 42.409775228718345 ], [ 117.31073400595217, 42.409770725773654 ], [ 117.310727929538459, 42.40977074224385 ], [ 117.31072786286299, 42.409757233409785 ], [ 117.310721786450571, 42.409757249879647 ], [ 117.310721719776424, 42.409743741045538 ], [ 117.31072779618755, 42.409743724575677 ], [ 117.310727773962412, 42.409739221630971 ], [ 117.310715621141071, 42.409739254570347 ], [ 117.31071557669253, 42.409730248680916 ], [ 117.310685194643398, 42.409730331023702 ], [ 117.310684994644873, 42.409689804520944 ], [ 117.310691071050812, 42.409689788053058 ], [ 117.310691048828346, 42.409685285108282 ], [ 117.310672819611852, 42.409685334510975 ], [ 117.310672797390694, 42.409680831566199 ], [ 117.31065456817548, 42.409680880965979 ], [ 117.310654612615181, 42.409689886855553 ], [ 117.310636383397323, 42.409689936252455 ], [ 117.310636427834424, 42.409698942142015 ], [ 117.310624275020757, 42.409698975071692 ], [ 117.310624363891591, 42.409716986850803 ], [ 117.310630440300173, 42.409716970386114 ], [ 117.310630506954638, 42.4097304792204 ], [ 117.310636583364541, 42.409730462755391 ], [ 117.310636650020371, 42.409743971589648 ], [ 117.310624497198006, 42.409744004519361 ], [ 117.310624608286815, 42.409766519243064 ], [ 117.31061853187343, 42.40976653570744 ], [ 117.31061855409078, 42.409771038652181 ], [ 117.310624630504591, 42.40977102218779 ], [ 117.310624674940172, 42.409780028077236 ], [ 117.310636827769486, 42.409779995147481 ], [ 117.310636783332171, 42.409770989258035 ], [ 117.310642859745968, 42.409770972792678 ], [ 117.310642904184135, 42.409779978682117 ], [ 117.310661133428084, 42.409779929284099 ], [ 117.310661155648489, 42.409784432228797 ], [ 117.310673308478641, 42.40978439929517 ], [ 117.310673330699899, 42.409788902239868 ], [ 117.310697636361851, 42.409788836368726 ], [ 117.310697658584871, 42.40979333931341 ] ], [ [ 117.310654990353584, 42.409766436916279 ], [ 117.310654923693761, 42.409752928082106 ], [ 117.310673152929837, 42.409752878682205 ], [ 117.310673219593582, 42.409766387516342 ], [ 117.310654990353584, 42.409766436916279 ] ], [ [ 117.310636561145927, 42.409725959810636 ], [ 117.310636494490154, 42.409712450976343 ], [ 117.310654723714549, 42.409712401579405 ], [ 117.310654790374244, 42.409725910413663 ], [ 117.310636561145927, 42.409725959810636 ] ] ] } },
{ "type": "Feature", "properties": { "crown_id": 3872, "tree_id": "3875", "top_h_m": 19.495, "H_95_Mean": 19.92, "DBH": 30.5623, "Carbon_kg": 176.321427, "area_m2": 22.25 }, "geometry": { "type": "Polygon", "coordinates": [ [ [ 117.310600369281445, 42.409780093932902 ], [ 117.310618598525494, 42.409780044541641 ], [ 117.310618576308144, 42.409775541596908 ], [ 117.310612499893892, 42.409775558060979 ], [ 117.310612433243151, 42.409762049226778 ], [ 117.310618509656109, 42.409762032762714 ], [ 117.310618398569488, 42.409739518038975 ], [ 117.310612322158718, 42.409739534503039 ], [ 117.310612277724971, 42.409730528613508 ], [ 117.310581895675426, 42.409730610928911 ], [ 117.310581851246027, 42.409721605039344 ], [ 117.310569698427912, 42.409721637963237 ], [ 117.310569765069388, 42.409735146797594 ], [ 117.310563688659016, 42.409735163259072 ], [ 117.310563777512641, 42.409753175038176 ], [ 117.310557701100507, 42.409753191499334 ], [ 117.310557767739482, 42.409766700333627 ], [ 117.310569920566309, 42.40976666741097 ], [ 117.310569942780162, 42.409771170355711 ], [ 117.310588172021696, 42.409771120969303 ], [ 117.310588194236871, 42.409775623914058 ], [ 117.310600347065389, 42.409775590988154 ], [ 117.310600369281445, 42.409780093932902 ] ] ] } },
{ "type": "Feature", "properties": { "crown_id": 3922, "tree_id": "3925", "top_h_m": 19.256, "H_95_Mean": 19.327, "DBH": 29.1193, "Carbon_kg": 157.111028, "area_m2": 19.5 }, "geometry": { "type": "Polygon", "coordinates": [ [ [ 117.310509134222414, 42.409762329066595 ], [ 117.310515210635444, 42.409762312608009 ], [ 117.310515188425512, 42.409757809663226 ], [ 117.310521264838073, 42.409757793204321 ], [ 117.310521220417328, 42.409748787314754 ], [ 117.310539449652467, 42.409748737936098 ], [ 117.310539405229122, 42.409739732046532 ], [ 117.310545481639963, 42.409739715586348 ], [ 117.310545437215794, 42.409730709696767 ], [ 117.31055151362574, 42.409730693236263 ], [ 117.310551469200689, 42.409721687346661 ], [ 117.310563622018861, 42.4097216544247 ], [ 117.310563599805477, 42.409717151479917 ], [ 117.3105514469882, 42.409717184401877 ], [ 117.310551424775696, 42.409712681457073 ], [ 117.310533195551031, 42.40971273083759 ], [ 117.310533151128666, 42.409703724947946 ], [ 117.310520998313933, 42.409703757866673 ], [ 117.310521042734578, 42.409712763756318 ], [ 117.310514966326323, 42.409712780215195 ], [ 117.31051501074613, 42.409721786104832 ], [ 117.310496781518751, 42.409721835479559 ], [ 117.310496825935957, 42.409730841369196 ], [ 117.310490749525968, 42.409730857826808 ], [ 117.310490771734152, 42.40973536077162 ], [ 117.310484695323709, 42.409735377228905 ], [ 117.310484739739223, 42.409744383118529 ], [ 117.310496892561815, 42.409744350203624 ], [ 117.310496936979078, 42.409753356093226 ], [ 117.310509089803404, 42.409753323177021 ], [ 117.310509134222414, 42.409762329066595 ] ] ] } },
{ "type": "Feature", "properties": { "crown_id": 4016, "tree_id": "4019", "top_h_m": 18.73, "H_95_Mean": 18.8671, "DBH": 26.9056, "Carbon_kg": 132.072384, "area_m2": 15.0 }, "geometry": { "type": "MultiPolygon", "coordinates": [ [ [ [ 117.310624452762497, 42.409734998629844 ], [ 117.310624474980244, 42.409739501574613 ], [ 117.310630551391014, 42.40973948510991 ], [ 117.310630529172826, 42.409734982165155 ], [ 117.310624452762497, 42.409734998629844 ] ] ], [ [ [ 117.310624452762497, 42.409734998629844 ], [ 117.310624386109325, 42.409721489795558 ], [ 117.310618309700288, 42.409721506259928 ], [ 117.310618176396645, 42.409694488591249 ], [ 117.310630329209474, 42.409694455662233 ], [ 117.310630284773211, 42.409685449772645 ], [ 117.310587749934328, 42.409685565018542 ], [ 117.31058779436448, 42.409694570908158 ], [ 117.310599947177366, 42.409694537982368 ], [ 117.310600013825251, 42.409708046816739 ], [ 117.310581784602022, 42.409708096204973 ], [ 117.310581740172694, 42.409699090315378 ], [ 117.310575663765817, 42.409699106777467 ], [ 117.310575685980041, 42.409703609722271 ], [ 117.310563533165379, 42.409703642645503 ], [ 117.310563555378735, 42.409708145590322 ], [ 117.310557478970964, 42.409708162051452 ], [ 117.310557501183908, 42.409712664996256 ], [ 117.310569654000304, 42.409712632073663 ], [ 117.310569676214115, 42.409717135018447 ], [ 117.310587905439988, 42.409717085632131 ], [ 117.310587949870225, 42.409726091521698 ], [ 117.310618331917581, 42.409726009204704 ], [ 117.310618376352195, 42.409735015094213 ], [ 117.310624452762497, 42.409734998629844 ] ] ], [ [ [ 117.310630284773211, 42.409685449772645 ], [ 117.310636361178751, 42.409685433307665 ], [ 117.310636338960208, 42.409680930362875 ], [ 117.310630262555094, 42.409680946827848 ], [ 117.310630284773211, 42.409685449772645 ] ] ] ] } },
{ "type": "Feature", "properties": { "crown_id": 4061, "tree_id": "4064", "top_h_m": 20.22, "H_95_Mean": 20.8435, "DBH": 32.5852, "Carbon_kg": 206.084662, "area_m2": 26.25 }, "geometry": { "type": "Polygon", "coordinates": [ [ [ 117.310478596705963, 42.409730890741052 ], [ 117.310484673115965, 42.409730874284094 ], [ 117.310484606492778, 42.409717365449616 ], [ 117.310508912127545, 42.409717299618578 ], [ 117.310508867708634, 42.40970829372894 ], [ 117.310514944116434, 42.409708277270383 ], [ 117.310514899696685, 42.409699271380724 ], [ 117.310508823289737, 42.409699287839281 ], [ 117.310508756661449, 42.409685779004754 ], [ 117.310502680255794, 42.409685795462984 ], [ 117.310502613628842, 42.409672286628421 ], [ 117.310472231607065, 42.409672368914684 ], [ 117.310472209400274, 42.409667865969794 ], [ 117.310466132996339, 42.409667882426085 ], [ 117.310466110789989, 42.409663379481202 ], [ 117.310460034386466, 42.409663395937166 ], [ 117.310460012180556, 42.409658892992276 ], [ 117.310453935777474, 42.409658909447906 ], [ 117.310454024599451, 42.409676921227437 ], [ 117.310435795384961, 42.409676970592429 ], [ 117.31043581758918, 42.409681473537304 ], [ 117.31042974118391, 42.409681489991655 ], [ 117.310429785591452, 42.409690495881414 ], [ 117.310435861997618, 42.409690479427056 ], [ 117.310435906406042, 42.409699485316793 ], [ 117.310441982813046, 42.409699468862108 ], [ 117.31044200501772, 42.409703971806962 ], [ 117.310454157832581, 42.409703938896612 ], [ 117.310454180038121, 42.409708441841481 ], [ 117.31046025644595, 42.409708425385823 ], [ 117.310460278651945, 42.409712928330656 ], [ 117.310472431468511, 42.409712895418366 ], [ 117.310472475882207, 42.409721901308032 ], [ 117.310478552291343, 42.4097218848514 ], [ 117.310478596705963, 42.409730890741052 ] ], [ [ 117.310466288441006, 42.409699403040136 ], [ 117.310466221821827, 42.409685894205552 ], [ 117.310484451038846, 42.409685844835714 ], [ 117.310484517661919, 42.40969935367027 ], [ 117.310466288441006, 42.409699403040136 ] ] ] } },
{ "type": "Feature", "properties": { "crown_id": 4093, "tree_id": "4096", "top_h_m": 19.197, "H_95_Mean": 19.9278, "DBH": 25.4948, "Carbon_kg": 122.381905, "area_m2": 11.0 }, "geometry": { "type": "Polygon", "coordinates": [ [ [ 117.31059380412438, 42.409681045611002 ], [ 117.310624186150008, 42.409680963292516 ], [ 117.310624163932303, 42.409676460347711 ], [ 117.310642393146324, 42.40967641095277 ], [ 117.310642326489415, 42.40966290211837 ], [ 117.31061802087595, 42.409662967977617 ], [ 117.310617998658728, 42.409658465032813 ], [ 117.31060584585282, 42.409658497960493 ], [ 117.310605756987485, 42.409640486181161 ], [ 117.310587527783824, 42.409640535570247 ], [ 117.31058759442891, 42.409654044404782 ], [ 117.310593670831452, 42.409654027942068 ], [ 117.31059380412438, 42.409681045611002 ] ] ] } },
{ "type": "Feature", "properties": { "crown_id": 4123, "tree_id": "4126", "top_h_m": 19.56, "H_95_Mean": 19.4477, "DBH": 31.6072, "Carbon_kg": 186.023397, "area_m2": 26.5 }, "geometry": { "type": "Polygon", "coordinates": [ [ [ 117.310539249747634, 42.409708211432921 ], [ 117.310551402563206, 42.409708178512261 ], [ 117.310551380350702, 42.409703675567442 ], [ 117.310557456758048, 42.40970365910664 ], [ 117.310557434545132, 42.409699156161835 ], [ 117.310569587358927, 42.409699123239243 ], [ 117.310569565145144, 42.409694620294431 ], [ 117.31057564155158, 42.409694603832662 ], [ 117.310575619337371, 42.409690100887858 ], [ 117.310581695743394, 42.409690084425769 ], [ 117.310581651314109, 42.409681078536124 ], [ 117.310587727719238, 42.409681062073737 ], [ 117.310587616643971, 42.409658547349608 ], [ 117.310581540240989, 42.409658563812002 ], [ 117.310581495811775, 42.409649557922322 ], [ 117.310563266605456, 42.409649607307564 ], [ 117.310563288818756, 42.409654110252411 ], [ 117.310526830403333, 42.409654209014214 ], [ 117.310526897035444, 42.409667717848777 ], [ 117.31051474422766, 42.409667750766815 ], [ 117.310514766437521, 42.409672253711676 ], [ 117.310508690033174, 42.409672270170212 ], [ 117.310508734452014, 42.409681276059914 ], [ 117.3105148108572, 42.409681259601371 ], [ 117.310514877486796, 42.409694768435898 ], [ 117.310520953893317, 42.409694751977014 ], [ 117.310520976103604, 42.40969925492184 ], [ 117.310539205324403, 42.409699205543298 ], [ 117.310539249747634, 42.409708211432921 ] ], [ [ 117.310545215095189, 42.40968568024865 ], [ 117.310545148459099, 42.409672171414151 ], [ 117.310563377672011, 42.409672122031772 ], [ 117.310563444311981, 42.409685630866242 ], [ 117.310545215095189, 42.40968568024865 ] ] ] } },
{ "type": "Feature", "properties": { "crown_id": 4158, "tree_id": "4161", "top_h_m": 18.006, "H_95_Mean": 19.2307, "DBH": 29.2402, "Carbon_kg": 157.961145, "area_m2": 20.0 }, "geometry": { "type": "Polygon", "coordinates": [ [ [ 117.310478285804194, 42.409667849513184 ], [ 117.310508667823768, 42.409667767225351 ], [ 117.310508645614362, 42.409663264280496 ], [ 117.31052079842128, 42.409663231363098 ], [ 117.31052073179049, 42.409649722528506 ], [ 117.310532884594792, 42.40964968960985 ], [ 117.31053284017257, 42.409640683720127 ], [ 117.310520687370001, 42.409640716638776 ], [ 117.310520665159757, 42.409636213693901 ], [ 117.31050243595719, 42.409636263069444 ], [ 117.310502413748267, 42.409631760124554 ], [ 117.310496337347828, 42.409631776582422 ], [ 117.310496270722354, 42.409618267747739 ], [ 117.310484117924091, 42.409618300662501 ], [ 117.310484162339307, 42.409627306552302 ], [ 117.310472009539282, 42.409627339465786 ], [ 117.310472053952807, 42.409636345355594 ], [ 117.310465977551914, 42.409636361811863 ], [ 117.31046599975825, 42.40964086475676 ], [ 117.310453846955568, 42.409640897668318 ], [ 117.310453913571976, 42.409654406503023 ], [ 117.310466066377273, 42.409654373591444 ], [ 117.310466088583624, 42.409658876536319 ], [ 117.310472164986678, 42.409658860080043 ], [ 117.310472187193469, 42.409663363024926 ], [ 117.310478263596977, 42.409663346568323 ], [ 117.310478285804194, 42.409667849513184 ] ], [ [ 117.310466066377273, 42.409654373591444 ], [ 117.310466044170923, 42.40964987064654 ], [ 117.31047212057311, 42.40964985419027 ], [ 117.310472142779901, 42.40965435713516 ], [ 117.310466066377273, 42.409654373591444 ] ] ] } },
{ "type": "Feature", "properties": { "crown_id": 4159, "tree_id": "4162", "top_h_m": 21.31, "H_95_Mean": 21.3101, "DBH": 20.5999, "Carbon_kg": 82.858485, "area_m2": 4.25 }, "geometry": { "type": "Polygon", "coordinates": [ [ [ 117.310624075061654, 42.409658448568479 ], [ 117.310642304270459, 42.409658399173559 ], [ 117.310642282051489, 42.409653896228754 ], [ 117.310636205649018, 42.409653912694047 ], [ 117.310636183430503, 42.409649409749228 ], [ 117.310630107028445, 42.409649426214187 ], [ 117.310630040374221, 42.40963591737971 ], [ 117.310623963973455, 42.409635933844356 ], [ 117.310623941755836, 42.409631430899516 ], [ 117.310617865355496, 42.409631447363815 ], [ 117.31061788757269, 42.409635950308669 ], [ 117.310611811171924, 42.409635966772655 ], [ 117.310611900038992, 42.409653978551987 ], [ 117.310624052844005, 42.40965394562366 ], [ 117.310624075061654, 42.409658448568479 ] ] ] } },
{ "type": "Feature", "properties": { "crown_id": 4160, "tree_id": "4163", "top_h_m": 19.277, "H_95_Mean": 20.6695, "DBH": 31.457, "Carbon_kg": 191.006934, "area_m2": 23.25 }, "geometry": { "type": "MultiPolygon", "coordinates": [ [ [ [ 117.310678851574167, 42.409676312154183 ], [ 117.310678740466329, 42.409653797430238 ], [ 117.310684816868772, 42.409653780962699 ], [ 117.310684794646789, 42.409649278017895 ], [ 117.310690871048806, 42.409649261550037 ], [ 117.310690848826368, 42.409644758605239 ], [ 117.310678696023217, 42.409644791540636 ], [ 117.310678673801675, 42.409640288595831 ], [ 117.310672597400497, 42.409640305063043 ], [ 117.310672508516106, 42.409622293283782 ], [ 117.31066643211669, 42.409622309750667 ], [ 117.310666365454765, 42.40960880091616 ], [ 117.310654212658491, 42.409608833848942 ], [ 117.31065419043874, 42.409604330904102 ], [ 117.31064811404103, 42.409604347370013 ], [ 117.310648136260355, 42.409608850314854 ], [ 117.310629907065945, 42.409608899710655 ], [ 117.31062997372004, 42.409622408545196 ], [ 117.31062389732061, 42.409622425009829 ], [ 117.310623919538202, 42.409626927954669 ], [ 117.3106299959381, 42.409626911490044 ], [ 117.310630018156161, 42.409631414434884 ], [ 117.310636094556486, 42.409631397969918 ], [ 117.310636161211988, 42.409644906804395 ], [ 117.310642237613592, 42.409644890339116 ], [ 117.310642259832534, 42.409649393283942 ], [ 117.310648336234607, 42.409649376818322 ], [ 117.310648469550983, 42.409676394487143 ], [ 117.310678851574167, 42.409676312154183 ] ] ], [ [ [ 117.31064851398979, 42.409685400376716 ], [ 117.310648491770394, 42.40968089743194 ], [ 117.310642415365308, 42.40968091389756 ], [ 117.310642437584278, 42.40968541684235 ], [ 117.31064851398979, 42.409685400376716 ] ] ] ] } },
{ "type": "Feature", "properties": { "crown_id": 4206, "tree_id": "4209", "top_h_m": 19.021, "H_95_Mean": 19.0482, "DBH": 28.5289, "Carbon_kg": 149.466772, "area_m2": 18.5 }, "geometry": { "type": "Polygon", "coordinates": [ [ [ 117.310538960996936, 42.409649673150042 ], [ 117.310557190203326, 42.409649623768658 ], [ 117.310557167990481, 42.409645120823811 ], [ 117.310575397195521, 42.409645071439549 ], [ 117.310575374981354, 42.409640568494702 ], [ 117.310581451382575, 42.409640552032648 ], [ 117.310581384738839, 42.409627043198064 ], [ 117.310587461138766, 42.409627026735699 ], [ 117.310587394493751, 42.4096135179011 ], [ 117.310569165297863, 42.409613567287252 ], [ 117.310569143084194, 42.409609064342369 ], [ 117.310563066685972, 42.409609080803776 ], [ 117.310563044472715, 42.409604577858886 ], [ 117.310556968074962, 42.409604594319966 ], [ 117.310556923649358, 42.409595588430179 ], [ 117.310538694458614, 42.409595637811464 ], [ 117.310538672247091, 42.40959113486656 ], [ 117.310532595850603, 42.409591151326339 ], [ 117.31053270690596, 42.409613666050838 ], [ 117.310538783304636, 42.409613649591044 ], [ 117.310538960996936, 42.409649673150042 ] ] ] } },
{ "type": "Feature", "properties": { "crown_id": 4241, "tree_id": "4244", "top_h_m": 18.38, "H_95_Mean": 20.04, "DBH": 20.864, "Carbon_kg": 81.979047, "area_m2": 5.0 }, "geometry": { "type": "Polygon", "coordinates": [ [ [ 117.310526741560594, 42.40963619723474 ], [ 117.310532817961459, 42.409636180775259 ], [ 117.310532729117043, 42.409618168995728 ], [ 117.310526652717954, 42.409618185455194 ], [ 117.310526608296655, 42.409609179565415 ], [ 117.310520531898405, 42.409609196024562 ], [ 117.310520554108635, 42.409613698969459 ], [ 117.310502324912576, 42.409613748344967 ], [ 117.310502391539345, 42.409627257179665 ], [ 117.310508467939314, 42.409627240721477 ], [ 117.310508490148692, 42.40963174366636 ], [ 117.310526719349937, 42.409631694289857 ], [ 117.310526741560594, 42.40963619723474 ] ] ] } },
{ "type": "Feature", "properties": { "crown_id": 4273, "tree_id": "4276", "top_h_m": 19.68, "H_95_Mean": 19.1955, "DBH": 30.6196, "Carbon_kg": 173.152241, "area_m2": 24.0 }, "geometry": { "type": "Polygon", "coordinates": [ [ [ 117.31058750556879, 42.409636032625414 ], [ 117.310599658370379, 42.409635999699674 ], [ 117.310599636154478, 42.40963149675482 ], [ 117.310611788955171, 42.409631463827814 ], [ 117.310611766738404, 42.409626960882967 ], [ 117.310617843138331, 42.409626944418974 ], [ 117.310617798703973, 42.409617938529287 ], [ 117.310623875102976, 42.409617922064982 ], [ 117.310623808450188, 42.409604413230412 ], [ 117.310642037643333, 42.409604363835598 ], [ 117.310642015424449, 42.409599860890737 ], [ 117.310635939027165, 42.409599877356001 ], [ 117.310635827934945, 42.409577362631659 ], [ 117.310629751539835, 42.409577379096596 ], [ 117.310629662667907, 42.409559367317051 ], [ 117.310623586274517, 42.409559383781648 ], [ 117.310623608492065, 42.409563886726531 ], [ 117.310617532098249, 42.409563903190801 ], [ 117.310617509881155, 42.409559400245911 ], [ 117.310605357094389, 42.409559433173492 ], [ 117.310605334878147, 42.40955493022858 ], [ 117.310599258485183, 42.409554946691884 ], [ 117.310599325132586, 42.409568455526603 ], [ 117.310593248738343, 42.409568471989587 ], [ 117.310593270953731, 42.409572974934477 ], [ 117.310581118164308, 42.4095730078595 ], [ 117.310581140378801, 42.409577510804404 ], [ 117.310587216773968, 42.409577494342052 ], [ 117.31058723898893, 42.409581997286942 ], [ 117.310593315384494, 42.409581980824264 ], [ 117.310593559754125, 42.409631513217846 ], [ 117.310587483353771, 42.409631529680553 ], [ 117.31058750556879, 42.409636032625414 ] ] ] } },
{ "type": "Feature", "properties": { "crown_id": 4306, "tree_id": "4309", "top_h_m": 18.734, "H_95_Mean": 18.8169, "DBH": 20.5038, "Carbon_kg": 76.257587, "area_m2": 5.25 }, "geometry": { "type": "Polygon", "coordinates": [ [ [ 117.310478019317756, 42.40961381417447 ], [ 117.3104962485139, 42.409613764802828 ], [ 117.310496226305403, 42.409609261857916 ], [ 117.310514455500169, 42.409609212483375 ], [ 117.310514433290408, 42.409604709538478 ], [ 117.310526586086027, 42.409604676620518 ], [ 117.310526563875371, 42.409600173675614 ], [ 117.310508334683263, 42.409600223052053 ], [ 117.310508312473928, 42.409595720107149 ], [ 117.310496159680014, 42.409595753023176 ], [ 117.310496137471574, 42.409591250078257 ], [ 117.310490061075029, 42.409591266535777 ], [ 117.310490083283057, 42.409595769480696 ], [ 117.310484006886085, 42.409595785937917 ], [ 117.310484051301287, 42.409604791827746 ], [ 117.310477974903421, 42.409604808284648 ], [ 117.310478019317756, 42.40961381417447 ] ] ] } },
{ "type": "Feature", "properties": { "crown_id": 4307, "tree_id": "4310", "top_h_m": 18.55, "H_95_Mean": 18.5503, "DBH": 19.8462, "Carbon_kg": 70.808341, "area_m2": 4.75 }, "geometry": { "type": "Polygon", "coordinates": [ [ [ 117.310575219482388, 42.40960904788065 ], [ 117.310587372278775, 42.409609014956239 ], [ 117.310587261203878, 42.409586500231839 ], [ 117.310581184807873, 42.409586516694191 ], [ 117.310581162593323, 42.409582013749294 ], [ 117.310569009802151, 42.40958204667303 ], [ 117.310569032015806, 42.409586549617934 ], [ 117.310562955619773, 42.409586566079319 ], [ 117.310563022259501, 42.409600074914003 ], [ 117.310569098656828, 42.409600058452604 ], [ 117.310569120870511, 42.409604561397494 ], [ 117.310575197268264, 42.409604544935775 ], [ 117.310575219482388, 42.40960904788065 ] ] ] } }
]
}
