{
"type": "FeatureCollection",
"name": "tile_23_20",
"crs": { "type": "name", "properties": { "name": "urn:ogc:def:crs:OGC:1.3:CRS84" } },
"features": [
{ "type": "Feature", "properties": { "crown_id": 8617, "tree_id": "8626", "top_h_m": 22.92, "H_95_Mean": 22.5948, "DBH": 30.6056, "Carbon_kg": 190.505949, "area_m2": 17.75 }, "geometry": { "type": "Polygon", "coordinates": [ [ [ 117.314599101057084, 42.407427627177903 ], [ 117.314629481983658, 42.407427543801489 ], [ 117.314629414476542, 42.407414034966912 ], [ 117.31463549066055, 42.407414018290666 ], [ 117.31463537814659, 42.407391503566316 ], [ 117.314629301964771, 42.407391520242541 ], [ 117.314629211955435, 42.407373508462975 ], [ 117.314598831054937, 42.407373591839225 ], [ 117.314598921055577, 42.407391603618848 ], [ 117.314592844873715, 42.40739162029314 ], [ 117.314592934872692, 42.407409632072699 ], [ 117.314586858689097, 42.407409648746686 ], [ 117.314586881188418, 42.407414151691576 ], [ 117.314599033556476, 42.407414118343283 ], [ 117.314599101057084, 42.407427627177903 ] ] ] } },
{ "type": "Feature", "properties": { "crown_id": 8635, "tree_id": "8644", "top_h_m": 22.208, "H_95_Mean": 22.2681, "DBH": 32.0299, "Carbon_kg": 207.005902, "area_m2": 21.75 }, "geometry": { "type": "Polygon", "coordinates": [ [ [ 117.314665804065555, 42.407400426070076 ], [ 117.3146961849788, 42.407400342676027 ], [ 117.314696139964525, 42.407391336786333 ], [ 117.314702216146316, 42.407391320106562 ], [ 117.314702126116117, 42.407373308327131 ], [ 117.314696049936103, 42.407373325006894 ], [ 117.314696004921899, 42.407364319117136 ], [ 117.314683852563562, 42.407364352475675 ], [ 117.314683785044906, 42.407350843641026 ], [ 117.314653404155507, 42.407350927031693 ], [ 117.31465347166764, 42.407364435866398 ], [ 117.31464739548845, 42.407364452543575 ], [ 117.314647417992049, 42.407368955488465 ], [ 117.314635265632759, 42.40736898884186 ], [ 117.314635355643816, 42.407387000621434 ], [ 117.314641431825194, 42.407386983944882 ], [ 117.31464145432841, 42.407391486889765 ], [ 117.314659682873824, 42.407391436858198 ], [ 117.314659705378361, 42.407395939803052 ], [ 117.314665781560578, 42.407395923125208 ], [ 117.314665804065555, 42.407400426070076 ] ] ] } },
{ "type": "Feature", "properties": { "crown_id": 8658, "tree_id": "8667", "top_h_m": 24.24, "H_95_Mean": 23.6261, "DBH": 36.4529, "Carbon_kg": 278.234946, "area_m2": 32.25 }, "geometry": { "type": "Polygon", "coordinates": [ [ [ 117.314708292328078, 42.407391303426465 ], [ 117.314726520873322, 42.407391253384262 ], [ 117.314726498364024, 42.407386750439422 ], [ 117.314738650726639, 42.407386717076342 ], [ 117.314738628216475, 42.407382214131495 ], [ 117.314744704397356, 42.407382197449486 ], [ 117.314744681886765, 42.407377694504646 ], [ 117.314756834247589, 42.407377661139641 ], [ 117.314756789224703, 42.407368655249961 ], [ 117.314750713045157, 42.407368671932609 ], [ 117.314750600490186, 42.407346157208323 ], [ 117.314756676667571, 42.407346140525689 ], [ 117.314756631644727, 42.407337134635952 ], [ 117.314762707821231, 42.407337117952999 ], [ 117.31476268530939, 42.407332615008116 ], [ 117.314780913837552, 42.407332564957315 ], [ 117.314780846298177, 42.407319056122709 ], [ 117.314774770123435, 42.407319072806629 ], [ 117.314774747610727, 42.40731456986174 ], [ 117.314768671436426, 42.407314586545333 ], [ 117.314768648924172, 42.407310083600457 ], [ 117.31475042040249, 42.407310133649283 ], [ 117.31475044291345, 42.407314636594165 ], [ 117.314732214390389, 42.407314686640106 ], [ 117.314732304429015, 42.407332698419673 ], [ 117.314726228252937, 42.40733271510102 ], [ 117.314726250762149, 42.40733721804591 ], [ 117.314720174585631, 42.407337234726938 ], [ 117.314720197094417, 42.407341737671828 ], [ 117.314714120917458, 42.40734175435253 ], [ 117.314714143425832, 42.407346257297412 ], [ 117.314689838716163, 42.40734632401702 ], [ 117.314689906236083, 42.407359832851697 ], [ 117.314702058593525, 42.407359799492511 ], [ 117.314702103608596, 42.407368805382255 ], [ 117.314708179788184, 42.407368788702179 ], [ 117.314708292328078, 42.407391303426465 ] ] ] } },
{ "type": "Feature", "properties": { "crown_id": 8667, "tree_id": "8676", "top_h_m": 22.2, "H_95_Mean": 22.9, "DBH": 27.8449, "Carbon_kg": 158.711557, "area_m2": 12.0 }, "geometry": { "type": "Polygon", "coordinates": [ [ [ 117.314598808554777, 42.407369088894313 ], [ 117.314629189453115, 42.407369005518078 ], [ 117.314629166950795, 42.407364502573181 ], [ 117.314641319309231, 42.407364469220433 ], [ 117.314641296806045, 42.407359966275529 ], [ 117.314647372984822, 42.407359949598671 ], [ 117.31464732797761, 42.40735094370887 ], [ 117.314635175621788, 42.407350977062237 ], [ 117.31463515311907, 42.407346474117318 ], [ 117.3146290769416, 42.407346490793529 ], [ 117.314629054439308, 42.407341987848611 ], [ 117.31461690208522, 42.407342021200037 ], [ 117.314616879583781, 42.407337518255112 ], [ 117.314592574877267, 42.407337584954099 ], [ 117.314592709875399, 42.407364602623687 ], [ 117.314598786054646, 42.407364585949409 ], [ 117.314598808554777, 42.407369088894313 ] ] ] } },
{ "type": "Feature", "properties": { "crown_id": 8668, "tree_id": "8677", "top_h_m": 22.704, "H_95_Mean": 22.6085, "DBH": 32.7276, "Carbon_kg": 218.143225, "area_m2": 23.0 }, "geometry": { "type": "Polygon", "coordinates": [ [ [ 117.314762910428001, 42.407377644456652 ], [ 117.314768986608428, 42.40737762777335 ], [ 117.314768964096103, 42.407373124828517 ], [ 117.31478719263599, 42.407373074776679 ], [ 117.314787215149622, 42.407377577721512 ], [ 117.314799367510375, 42.407377544352002 ], [ 117.31479934499589, 42.407373041407183 ], [ 117.314829725895549, 42.407372957977799 ], [ 117.314829703378877, 42.407368455032987 ], [ 117.314823627199402, 42.407368471719501 ], [ 117.314823537134529, 42.407350459940211 ], [ 117.314817460956789, 42.407350476626384 ], [ 117.314817393409527, 42.407336967791871 ], [ 117.314805241056604, 42.40733700116327 ], [ 117.314805173511971, 42.4073234923287 ], [ 117.31478694498648, 42.407323542383352 ], [ 117.314787012527191, 42.407337051217944 ], [ 117.314768783997721, 42.407337101269711 ], [ 117.314768806510017, 42.407341604214572 ], [ 117.314762730333072, 42.40734162089786 ], [ 117.314762775356769, 42.407350626787576 ], [ 117.314756699178972, 42.407350643470537 ], [ 117.314756766713273, 42.407364152305107 ], [ 117.314762842892364, 42.407364135622132 ], [ 117.314762910428001, 42.407377644456652 ] ] ] } },
{ "type": "Feature", "properties": { "crown_id": 8721, "tree_id": "8730", "top_h_m": 22.16, "H_95_Mean": 22.6093, "DBH": 26.5764, "Carbon_kg": 143.38847, "area_m2": 10.25 }, "geometry": { "type": "Polygon", "coordinates": [ [ [ 117.314641229296555, 42.407346457440802 ], [ 117.314653381651482, 42.407346424086796 ], [ 117.314653269131398, 42.407323909362205 ], [ 117.314647192956087, 42.407323926039354 ], [ 117.314647125445404, 42.407310417204556 ], [ 117.31462282074942, 42.407310483909924 ], [ 117.314622843251243, 42.407314986854871 ], [ 117.314604614727884, 42.407315036880526 ], [ 117.314604637228399, 42.407319539825473 ], [ 117.314610713403297, 42.407319523150584 ], [ 117.314610780906193, 42.407333031985395 ], [ 117.314622933258576, 42.407332998634637 ], [ 117.314622955760413, 42.407337501579562 ], [ 117.314635108113634, 42.407337468227489 ], [ 117.314635130616367, 42.407341971172414 ], [ 117.314641206793397, 42.407341954495891 ], [ 117.314641229296555, 42.407346457440802 ] ] ] } },
{ "type": "Feature", "properties": { "crown_id": 8732, "tree_id": "8741", "top_h_m": 23.35, "H_95_Mean": 23.8341, "DBH": 33.4565, "Carbon_kg": 235.278918, "area_m2": 22.75 }, "geometry": { "type": "Polygon", "coordinates": [ [ [ 117.31466553400638, 42.40734639073149 ], [ 117.314683762538721, 42.407346340696122 ], [ 117.314683740032507, 42.407341837751225 ], [ 117.31470804474047, 42.407341771032911 ], [ 117.314708022232537, 42.407337268088021 ], [ 117.314714098409084, 42.407337251407654 ], [ 117.314714075900724, 42.407332748462743 ], [ 117.314720152076816, 42.407332731782049 ], [ 117.31472012956803, 42.407328228837152 ], [ 117.314726205743682, 42.407328212156131 ], [ 117.314726115706833, 42.407310200376543 ], [ 117.314713963358983, 42.407310233738237 ], [ 117.314713940850652, 42.407305730793318 ], [ 117.31470786467716, 42.407305747473693 ], [ 117.314707819661379, 42.407296741583856 ], [ 117.314689591143463, 42.40729679162299 ], [ 117.314689613650032, 42.40730129456793 ], [ 117.314677461303859, 42.407301327925751 ], [ 117.314677483809589, 42.407305830870683 ], [ 117.314671407636041, 42.407305847549111 ], [ 117.314671430141345, 42.407310350494051 ], [ 117.314653201619407, 42.407310400527415 ], [ 117.314653246627387, 42.40731940641728 ], [ 117.314659322802228, 42.407319389739804 ], [ 117.314659435324486, 42.407341904464403 ], [ 117.314665511501488, 42.407341887786593 ], [ 117.31466553400638, 42.40734639073149 ] ] ] } },
{ "type": "Feature", "properties": { "crown_id": 8786, "tree_id": "8795", "top_h_m": 25.302, "H_95_Mean": 25.3233, "DBH": 38.0296, "Carbon_kg": 315.715236, "area_m2": 33.5 }, "geometry": { "type": "Polygon", "coordinates": [ [ [ 117.31452566944921, 42.407324259514816 ], [ 117.314543897975398, 42.407324209501702 ], [ 117.314543875479202, 42.407319706556734 ], [ 117.314556027829099, 42.40731967321306 ], [ 117.314556005332037, 42.407315170268085 ], [ 117.314586386204496, 42.407315086903267 ], [ 117.31458640870369, 42.407319589848228 ], [ 117.314598561053501, 42.407319556500049 ], [ 117.314598516053337, 42.407310550610127 ], [ 117.314616744575417, 42.40731050058546 ], [ 117.314616722074035, 42.407305997640513 ], [ 117.314628874421174, 42.407305964289115 ], [ 117.31462885191894, 42.407301461344169 ], [ 117.314622775745804, 42.407301478020024 ], [ 117.314622753244009, 42.407296975075056 ], [ 117.314616677071299, 42.407296991750577 ], [ 117.314616654569917, 42.407292488805624 ], [ 117.314604502225379, 42.407292522155714 ], [ 117.314604412223446, 42.407274510375792 ], [ 117.314598336052896, 42.407274527050333 ], [ 117.314598313552864, 42.407270024105351 ], [ 117.314580085042479, 42.407270074127062 ], [ 117.314580062543754, 42.407265571182045 ], [ 117.314549681695183, 42.407265654545107 ], [ 117.314549704191734, 42.407270157490125 ], [ 117.31453147568125, 42.407270207504098 ], [ 117.31453152067175, 42.407279213394126 ], [ 117.314537596842797, 42.407279196723124 ], [ 117.314537619338481, 42.407283699668127 ], [ 117.314543695509968, 42.407283682996798 ], [ 117.314543807990717, 42.40730619772178 ], [ 117.314537731817069, 42.407306214393131 ], [ 117.314537754312795, 42.40731071733812 ], [ 117.314519525790502, 42.407310767350239 ], [ 117.314519548284949, 42.407315270295229 ], [ 117.314525624459478, 42.407315253624837 ], [ 117.31452566944921, 42.407324259514816 ] ] ] } },
{ "type": "Feature", "properties": { "crown_id": 8799, "tree_id": "8808", "top_h_m": 22.455, "H_95_Mean": 22.1156, "DBH": 32.3891, "Carbon_kg": 210.852702, "area_m2": 23.0 }, "geometry": { "type": "Polygon", "coordinates": [ [ [ 117.314786922472919, 42.407319039438477 ], [ 117.314799074822375, 42.407319006069045 ], [ 117.314798917221509, 42.40728748545488 ], [ 117.314804993393196, 42.407287468769702 ], [ 117.314804970878384, 42.407282965824805 ], [ 117.314792818535878, 42.407282999194848 ], [ 117.314792773507975, 42.407273993305047 ], [ 117.314762392655965, 42.407274076724484 ], [ 117.314762415167735, 42.407278579669395 ], [ 117.314750262826038, 42.407278613034926 ], [ 117.314750285336928, 42.40728311597983 ], [ 117.314732056823047, 42.407283166025728 ], [ 117.314732034313437, 42.407278663080803 ], [ 117.314725958142546, 42.407278679762122 ], [ 117.314725980651716, 42.40728318270704 ], [ 117.314719904480398, 42.40728319938804 ], [ 117.314719949497899, 42.407292205277891 ], [ 117.314713873325701, 42.407292221958571 ], [ 117.314713918342335, 42.407301227848414 ], [ 117.3147199945154, 42.407301211167734 ], [ 117.314720017024158, 42.407305714112645 ], [ 117.31473216937114, 42.407305680750305 ], [ 117.314732191880765, 42.407310183695202 ], [ 117.3147443442286, 42.407310150331575 ], [ 117.314744321718081, 42.407305647386686 ], [ 117.314774702585368, 42.407305563971981 ], [ 117.314774725098047, 42.407310066916864 ], [ 117.314780801271922, 42.407310050232951 ], [ 117.314780823785057, 42.407314553177841 ], [ 117.314786899959373, 42.407314536493601 ], [ 117.314786922472919, 42.407319039438477 ] ] ] } },
{ "type": "Feature", "properties": { "crown_id": 8809, "tree_id": "8818", "top_h_m": 24.138, "H_95_Mean": 24.3874, "DBH": 36.0012, "Carbon_kg": 276.467468, "area_m2": 29.0 }, "geometry": { "type": "Polygon", "coordinates": [ [ [ 117.314634950594751, 42.40730594761294 ], [ 117.314665331462507, 42.407305864227226 ], [ 117.314665308957657, 42.407301361282293 ], [ 117.314671385130779, 42.407301344604186 ], [ 117.314671362625475, 42.407296841659239 ], [ 117.31468351497081, 42.407296808302064 ], [ 117.314683492464667, 42.407292305357124 ], [ 117.314707797153503, 42.407292238638924 ], [ 117.31470777464564, 42.407287735693991 ], [ 117.31471385081737, 42.407287719013652 ], [ 117.314713828309067, 42.407283216068706 ], [ 117.314707752137764, 42.407283232749066 ], [ 117.314707729629902, 42.407278729804133 ], [ 117.314695577288106, 42.407278763163859 ], [ 117.314695509767134, 42.407265254329019 ], [ 117.314671205088686, 42.407265321044576 ], [ 117.314671182583439, 42.407260818099608 ], [ 117.314646877906654, 42.407260884810007 ], [ 117.314646855403169, 42.407256381865025 ], [ 117.314634703065593, 42.407256415218292 ], [ 117.314634725568212, 42.407260918163281 ], [ 117.314628649398998, 42.407260934839435 ], [ 117.31462867190119, 42.40726543778441 ], [ 117.314622595731535, 42.407265454460251 ], [ 117.314622618233301, 42.407269957405241 ], [ 117.314610465893082, 42.407269990755935 ], [ 117.314610555896721, 42.40728800253585 ], [ 117.314622708240407, 42.407287969185127 ], [ 117.314622730742201, 42.407292472130102 ], [ 117.31462880691447, 42.407292455454247 ], [ 117.314628829416719, 42.407296958399208 ], [ 117.314634905589401, 42.40729694172304 ], [ 117.314634950594751, 42.40730594761294 ] ] ] } },
{ "type": "Feature", "properties": { "crown_id": 8862, "tree_id": "8871", "top_h_m": 21.288, "H_95_Mean": 21.2843, "DBH": 28.4914, "Carbon_kg": 159.186017, "area_m2": 15.0 }, "geometry": { "type": "Polygon", "coordinates": [ [ [ 117.314713805800764, 42.40727871312378 ], [ 117.314719881971669, 42.407278696443107 ], [ 117.31471985946294, 42.407274193498175 ], [ 117.314738087974263, 42.407274143454245 ], [ 117.314738110484313, 42.407278646399163 ], [ 117.314744186655162, 42.407278629717212 ], [ 117.314744164144699, 42.407274126772286 ], [ 117.314756316485557, 42.407274093407416 ], [ 117.314756293974227, 42.407269590462491 ], [ 117.314774522484143, 42.40726954041277 ], [ 117.314774454946289, 42.407256031577987 ], [ 117.3147683787776, 42.407256048261551 ], [ 117.314768356265432, 42.407251545316626 ], [ 117.314744051592456, 42.407251612047617 ], [ 117.314744006571573, 42.407242606157709 ], [ 117.314725778069388, 42.407242656202563 ], [ 117.314725823087642, 42.40725166209247 ], [ 117.314719746919366, 42.407251678773456 ], [ 117.314719769428066, 42.407256181718402 ], [ 117.314707617090619, 42.407256215079386 ], [ 117.314707639598467, 42.407260718024354 ], [ 117.314701563429324, 42.407260734704366 ], [ 117.314701630951561, 42.407274243539213 ], [ 117.31471378329249, 42.407274210178848 ], [ 117.314713805800764, 42.40727871312378 ] ] ] } },
{ "type": "Feature", "properties": { "crown_id": 8874, "tree_id": "8883", "top_h_m": 23.231, "H_95_Mean": 23.6801, "DBH": 28.2873, "Carbon_kg": 167.113237, "area_m2": 12.0 }, "geometry": { "type": "Polygon", "coordinates": [ [ [ 117.314586138713452, 42.40726555450847 ], [ 117.314598291052832, 42.407265521160355 ], [ 117.314598201052775, 42.40724750938034 ], [ 117.314592124884825, 42.407247526054554 ], [ 117.314592034886587, 42.407229514274462 ], [ 117.314573806387912, 42.40722956429515 ], [ 117.314573783889685, 42.407225061350111 ], [ 117.314567707723867, 42.407225078023018 ], [ 117.314567752719512, 42.407234083913096 ], [ 117.314561676552827, 42.407234100585683 ], [ 117.314561721547605, 42.407243106475754 ], [ 117.314555645380068, 42.407243123148021 ], [ 117.314555690373979, 42.407252129038085 ], [ 117.314543538037142, 42.407252162381681 ], [ 117.314543583029348, 42.407261168271738 ], [ 117.314586116214315, 42.407261051563474 ], [ 117.314586138713452, 42.40726555450847 ] ] ] } },
{ "type": "Feature", "properties": { "crown_id": 8875, "tree_id": "8884", "top_h_m": 23.39, "H_95_Mean": 23.1126, "DBH": 28.4066, "Carbon_kg": 166.136024, "area_m2": 12.75 }, "geometry": { "type": "Polygon", "coordinates": [ [ [ 117.314604367222515, 42.407265504485807 ], [ 117.314616519561866, 42.407265471135759 ], [ 117.314616497060541, 42.407260968190769 ], [ 117.314622573229784, 42.407260951515269 ], [ 117.314622550728018, 42.407256448570273 ], [ 117.314628626896805, 42.407256431894446 ], [ 117.314628604394613, 42.407251928949456 ], [ 117.314640756731322, 42.407251895596843 ], [ 117.314640599210065, 42.407220374981833 ], [ 117.314622370714147, 42.407220425010216 ], [ 117.314622393215856, 42.407224927955234 ], [ 117.314604164718574, 42.407224977980725 ], [ 117.31460418721899, 42.40722948092575 ], [ 117.314598111052803, 42.407229497600269 ], [ 117.314598178552771, 42.40724300643533 ], [ 117.31460425472028, 42.407242989760796 ], [ 117.314604367222515, 42.407265504485807 ] ] ] } },
{ "type": "Feature", "properties": { "crown_id": 8894, "tree_id": "8903", "top_h_m": 22.95, "H_95_Mean": 22.8525, "DBH": 32.9853, "Carbon_kg": 223.030583, "area_m2": 23.25 }, "geometry": { "type": "Polygon", "coordinates": [ [ [ 117.314677258752624, 42.407260801421209 ], [ 117.314695487260153, 42.407260751384051 ], [ 117.314695464753186, 42.407256248439097 ], [ 117.314701540921916, 42.407256231759412 ], [ 117.314701518414509, 42.407251728814451 ], [ 117.31471367075109, 42.407251695454107 ], [ 117.314713648242829, 42.407247192509139 ], [ 117.314719724410679, 42.407247175828488 ], [ 117.314719679393292, 42.407238169938573 ], [ 117.314713603226309, 42.407238186619225 ], [ 117.314713580718049, 42.407233683674249 ], [ 117.314707504551507, 42.407233700354574 ], [ 117.314707414520313, 42.407215688574645 ], [ 117.314701338355491, 42.407215705254629 ], [ 117.314701315848154, 42.407211202309639 ], [ 117.314695239683772, 42.407211218989296 ], [ 117.314695262190668, 42.407215721934307 ], [ 117.314677033696199, 42.40721577197138 ], [ 117.314677056201802, 42.407220274916376 ], [ 117.314646675375371, 42.407220358305061 ], [ 117.314646832899669, 42.40725187892005 ], [ 117.314652909068002, 42.407251862242937 ], [ 117.314652931571928, 42.407256365187919 ], [ 117.314677236246965, 42.407256298476241 ], [ 117.314677258752624, 42.407260801421209 ] ] ] } },
{ "type": "Feature", "properties": { "crown_id": 8919, "tree_id": "8928", "top_h_m": 24.36, "H_95_Mean": 24.0435, "DBH": 28.4904, "Carbon_kg": 171.074425, "area_m2": 12.0 }, "geometry": { "type": "Polygon", "coordinates": [ [ [ 117.314780598654124, 42.407269523728871 ], [ 117.314798827163997, 42.407269473675292 ], [ 117.314798759620899, 42.407255964840559 ], [ 117.314792683452239, 42.407255981525388 ], [ 117.314792570882716, 42.407233466800761 ], [ 117.314798647049187, 42.407233450115932 ], [ 117.314798624534859, 42.407228947170985 ], [ 117.31480470070089, 42.407228930485836 ], [ 117.314804633156655, 42.407215421651017 ], [ 117.314810709321364, 42.407215404965555 ], [ 117.314810686806197, 42.407210902020616 ], [ 117.314804610641914, 42.40721091870607 ], [ 117.314804565612434, 42.407201912816156 ], [ 117.314798489449018, 42.407201929501291 ], [ 117.314798511963303, 42.407206432446252 ], [ 117.314792435799447, 42.407206449131067 ], [ 117.314792458313292, 42.407210952076028 ], [ 117.314786382148981, 42.407210968760516 ], [ 117.314786427175875, 42.407219974650431 ], [ 117.314780351010697, 42.407219991334614 ], [ 117.314780373523703, 42.407224494279554 ], [ 117.31477429735807, 42.407224510963431 ], [ 117.314774319870679, 42.407229013908371 ], [ 117.314768243704606, 42.4072290305919 ], [ 117.314768333753264, 42.407247042371679 ], [ 117.314774409921057, 42.407247025688129 ], [ 117.314774432433666, 42.407251528633061 ], [ 117.314780508601885, 42.407251511949198 ], [ 117.314780598654124, 42.407269523728871 ] ], [ [ 117.314786652310588, 42.407265004099749 ], [ 117.314786607283608, 42.407255998209919 ], [ 117.314792683452239, 42.407255981525388 ], [ 117.3147927284801, 42.407264987415225 ], [ 117.314786652310588, 42.407265004099749 ] ] ] } }
]
}
