{
"type": "FeatureCollection",
"name": "tile_21_17",
"crs": { "type": "name", "properties": { "name": "urn:ogc:def:crs:OGC:1.3:CRS84" } },
"features": [
{ "type": "Feature", "properties": { "crown_id": 8056, "tree_id": "8063", "top_h_m": 24.405, "H_95_Mean": 24.1418, "DBH": 39.3571, "Carbon_kg": 328.893921, "area_m2": 41.75 }, "geometry": { "type": "MultiPolygon", "coordinates": [ [ [ [ 117.313811037323106, 42.407799033633623 ], [ 117.31385964709601, 42.407798900560714 ], [ 117.313859602200779, 42.40778989467092 ], [ 117.313883907083621, 42.407789828126759 ], [ 117.313883884634279, 42.407785325181869 ], [ 117.313896037074798, 42.407785291907864 ], [ 117.313895992174395, 42.407776286018077 ], [ 117.313902068393773, 42.407776269380598 ], [ 117.313902023492531, 42.407767263490797 ], [ 117.313889871055494, 42.407767296765421 ], [ 117.31388984860574, 42.407762793820517 ], [ 117.313877696169541, 42.407762827093848 ], [ 117.313877628822922, 42.407749318259086 ], [ 117.313853323955698, 42.407749384801868 ], [ 117.313853279061462, 42.407740378911996 ], [ 117.313847202845523, 42.407740395546881 ], [ 117.313847180398852, 42.407735892601927 ], [ 117.313828951752271, 42.407735942504637 ], [ 117.313828996643025, 42.407744948394544 ], [ 117.313798615560955, 42.407745031559315 ], [ 117.313798817550037, 42.40778555806385 ], [ 117.313804893770381, 42.407785541431515 ], [ 117.313804938657768, 42.407794547321373 ], [ 117.313811014878979, 42.407794530688712 ], [ 117.313811037323106, 42.407799033633623 ] ] ], [ [ [ 117.313847180398852, 42.407735892601927 ], [ 117.313853256614351, 42.407735875967042 ], [ 117.31385323416724, 42.407731373022102 ], [ 117.313847157952168, 42.407731389656973 ], [ 117.313847180398852, 42.407735892601927 ] ] ] ] } },
{ "type": "Feature", "properties": { "crown_id": 8070, "tree_id": "8077", "top_h_m": 27.306, "H_95_Mean": 26.9465, "DBH": 36.1186, "Carbon_kg": 295.206434, "area_m2": 24.5 }, "geometry": { "type": "Polygon", "coordinates": [ [ [ 117.313981126614195, 42.407789561898596 ], [ 117.313993279055396, 42.407789528614281 ], [ 117.313993256598238, 42.407785025669426 ], [ 117.313999332818398, 42.407785009026789 ], [ 117.313999265445645, 42.40777150019224 ], [ 117.314005341664512, 42.407771483549283 ], [ 117.314005319206487, 42.407766980604421 ], [ 117.314011395424913, 42.407766963961151 ], [ 117.314011372966462, 42.407762461016297 ], [ 117.313993144312491, 42.407762510945133 ], [ 117.313993054483987, 42.407744499165652 ], [ 117.313962673402614, 42.407744582373901 ], [ 117.313962650947659, 42.407740079429004 ], [ 117.31395049851595, 42.407740112710044 ], [ 117.313950520970025, 42.407744615654941 ], [ 117.313932292321098, 42.407744665574093 ], [ 117.31393233722666, 42.407753671463901 ], [ 117.313926261009485, 42.407753688102986 ], [ 117.31392630591418, 42.40776269399278 ], [ 117.313932382132222, 42.407762677353695 ], [ 117.313932404585003, 42.407767180298585 ], [ 117.313938480803515, 42.407767163659173 ], [ 117.313938525709972, 42.407776169548946 ], [ 117.313944601929308, 42.407776152909214 ], [ 117.313944646836688, 42.407785158798944 ], [ 117.313981104157889, 42.407785058953742 ], [ 117.313981126614195, 42.407789561898596 ] ] ] } },
{ "type": "Feature", "properties": { "crown_id": 8117, "tree_id": "8124", "top_h_m": 22.99, "H_95_Mean": 22.9448, "DBH": 30.0146, "Carbon_kg": 184.8371, "area_m2": 16.0 }, "geometry": { "type": "Polygon", "coordinates": [ [ [ 117.313999198072921, 42.407757991357663 ], [ 117.31402350294313, 42.40775792478393 ], [ 117.31402348048384, 42.407753421839075 ], [ 117.314035632918021, 42.407753388550297 ], [ 117.314035610457864, 42.407748885605436 ], [ 117.314053839107828, 42.40774883566985 ], [ 117.314053681877667, 42.407717315055812 ], [ 117.314029377023218, 42.407717381635869 ], [ 117.31402935456353, 42.407712878690987 ], [ 117.314023278350348, 42.407712895335187 ], [ 117.314023345728117, 42.40772640416985 ], [ 117.314005117084605, 42.407726454100569 ], [ 117.314005162000555, 42.407735459990334 ], [ 117.313999085785156, 42.40773547663327 ], [ 117.313999198072921, 42.407757991357663 ] ] ] } },
{ "type": "Feature", "properties": { "crown_id": 8126, "tree_id": "8133", "top_h_m": 24.92, "H_95_Mean": 24.1021, "DBH": 41.7178, "Carbon_kg": 369.506071, "area_m2": 52.5 }, "geometry": { "type": "Polygon", "coordinates": [ [ [ 117.313895924823811, 42.407762777183365 ], [ 117.31390200104191, 42.407762760545886 ], [ 117.313901956140668, 42.407753754656071 ], [ 117.313920184792266, 42.407753704741744 ], [ 117.313920162340381, 42.407749201796825 ], [ 117.31392623855713, 42.407749185158075 ], [ 117.313926193652449, 42.407740179268259 ], [ 117.313944422300082, 42.407740129350081 ], [ 117.313944399846463, 42.40773562640517 ], [ 117.313968704708145, 42.407735559843097 ], [ 117.313968727163527, 42.407740062788001 ], [ 117.313993032026886, 42.407739996220769 ], [ 117.31399298711267, 42.40773099033099 ], [ 117.313999063327614, 42.407730973688381 ], [ 117.313999018412559, 42.407721967798601 ], [ 117.313992942198482, 42.407721984441203 ], [ 117.313992919741395, 42.407717481496306 ], [ 117.313986843527715, 42.407717498138574 ], [ 117.313986731244555, 42.407694983414018 ], [ 117.313980655033035, 42.407695000055959 ], [ 117.31398061012068, 42.407685994166108 ], [ 117.313962381488778, 42.407686044089992 ], [ 117.313962403943677, 42.407690547034939 ], [ 117.313938099099317, 42.407690613595605 ], [ 117.313938121552482, 42.407695116540552 ], [ 117.313895588071645, 42.407695233009356 ], [ 117.313895632971864, 42.407704238899271 ], [ 117.313889556759449, 42.407704255536395 ], [ 117.313889579209118, 42.407708758481334 ], [ 117.313883502996234, 42.407708775118145 ], [ 117.31388352544549, 42.407713278063092 ], [ 117.313877449232166, 42.407713294699569 ], [ 117.313877516578685, 42.407726803534416 ], [ 117.313871440364053, 42.407726820170581 ], [ 117.313871462812457, 42.407731323115534 ], [ 117.313859310382313, 42.40773135638689 ], [ 117.313859377724967, 42.407744865221723 ], [ 117.313883682590429, 42.407744798677669 ], [ 117.313883749938327, 42.407758307512431 ], [ 117.313895902373631, 42.407758274238468 ], [ 117.313895924823811, 42.407762777183365 ] ], [ [ 117.313956484913831, 42.407722084290064 ], [ 117.313956417550415, 42.407708575455317 ], [ 117.313974646188839, 42.407708525532357 ], [ 117.313974713556192, 42.40772203436709 ], [ 117.313956484913831, 42.407722084290064 ] ] ] } },
{ "type": "Feature", "properties": { "crown_id": 8163, "tree_id": "8170", "top_h_m": 23.793, "H_95_Mean": 23.1819, "DBH": 30.8646, "Carbon_kg": 196.731507, "area_m2": 17.5 }, "geometry": { "type": "Polygon", "coordinates": [ [ [ 117.314005094626637, 42.407721951155679 ], [ 117.314017247054792, 42.407721917868862 ], [ 117.314017179678331, 42.407708409034186 ], [ 117.314035408316585, 42.407708359101569 ], [ 117.314035430776727, 42.407712862046452 ], [ 117.31405365941626, 42.407712812110944 ], [ 117.314053636954824, 42.407708309166061 ], [ 117.314059713167552, 42.407708292520233 ], [ 117.314059668243857, 42.407699286630468 ], [ 117.314053592031982, 42.407699303276281 ], [ 117.314053569570575, 42.407694800331399 ], [ 117.314047493359141, 42.407694816976878 ], [ 117.314047448437222, 42.407685811087084 ], [ 117.314029219805491, 42.407685861021598 ], [ 117.314029197345846, 42.40768135807668 ], [ 117.313986663874672, 42.407681474579242 ], [ 117.313986708787922, 42.4076904804691 ], [ 117.313992784998973, 42.407690463826839 ], [ 117.313992897284308, 42.407712978551402 ], [ 117.313998973497519, 42.407712961908807 ], [ 117.313998995955032, 42.407717464853704 ], [ 117.314005072168683, 42.407717448210775 ], [ 117.314005094626637, 42.407721951155679 ] ] ] } },
{ "type": "Feature", "properties": { "crown_id": 8224, "tree_id": "8232", "top_h_m": 22.02, "H_95_Mean": 21.888, "DBH": 31.9572, "Carbon_kg": 203.972361, "area_m2": 22.25 }, "geometry": { "type": "Polygon", "coordinates": [ [ [ 117.313913794254916, 42.407690680151141 ], [ 117.313932022888224, 42.407690630234967 ], [ 117.313932000435514, 42.407686127290006 ], [ 117.31395630527814, 42.40768606073064 ], [ 117.313956282823696, 42.407681557785693 ], [ 117.313980587664489, 42.407681491221176 ], [ 117.313980520295985, 42.407667982386357 ], [ 117.313968367878218, 42.407668015669252 ], [ 117.313968322967639, 42.407659009779337 ], [ 117.313962246759615, 42.407659026420298 ], [ 117.313962224304774, 42.40765452347533 ], [ 117.313950071889565, 42.407654556756277 ], [ 117.313950004527683, 42.407641047921345 ], [ 117.313925699702423, 42.407641114479333 ], [ 117.313925722154636, 42.407645617424329 ], [ 117.313919645947891, 42.407645634063009 ], [ 117.313919668399677, 42.407650137008019 ], [ 117.313907515985264, 42.407650170284441 ], [ 117.31390762823996, 42.407672685009345 ], [ 117.313913704449334, 42.407672668371276 ], [ 117.313913794254916, 42.407690680151141 ] ] ] } },
{ "type": "Feature", "properties": { "crown_id": 8225, "tree_id": "8233", "top_h_m": 23.724, "H_95_Mean": 23.7085, "DBH": 34.0168, "Carbon_kg": 242.528865, "area_m2": 24.5 }, "geometry": { "type": "Polygon", "coordinates": [ [ [ 117.314065744455718, 42.407699269984334 ], [ 117.314083973091257, 42.407699220044002 ], [ 117.314083748455673, 42.407654190595075 ], [ 117.314089824663185, 42.40765417394767 ], [ 117.314089779735255, 42.407645168057854 ], [ 117.314095855941886, 42.407645151410144 ], [ 117.314095833477495, 42.407640648465225 ], [ 117.314089757271304, 42.407640665112936 ], [ 117.314089734807354, 42.407636162168011 ], [ 117.314083658601604, 42.407636178815395 ], [ 117.314083636138108, 42.407631675870462 ], [ 117.314077559932784, 42.407631692517526 ], [ 117.314077582395839, 42.407636195462466 ], [ 117.314065429984325, 42.407636228755614 ], [ 117.314065452446528, 42.407640731700546 ], [ 117.31404722382787, 42.407640781637873 ], [ 117.314047268749704, 42.407649787527752 ], [ 117.314041192542618, 42.407649804172891 ], [ 117.314041215003115, 42.407654307117816 ], [ 117.314035138795575, 42.407654323762635 ], [ 117.314035161255632, 42.407658826707568 ], [ 117.314029085047665, 42.407658843352067 ], [ 117.314029152426571, 42.407672352186843 ], [ 117.314023076217268, 42.40767236883103 ], [ 117.314023098676486, 42.407676871775955 ], [ 117.314035251095916, 42.407676838487248 ], [ 117.314035273556001, 42.407681341432159 ], [ 117.314053502186411, 42.407681291496708 ], [ 117.314053547109197, 42.407690297386495 ], [ 117.314059623320176, 42.407690280740702 ], [ 117.31405964578201, 42.407694783685578 ], [ 117.314065721993444, 42.407694767039445 ], [ 117.314065744455718, 42.407699269984334 ] ] ] } },
{ "type": "Feature", "properties": { "crown_id": 8231, "tree_id": "8239", "top_h_m": 20.939, "H_95_Mean": 21.5279, "DBH": 34.2453, "Carbon_kg": 232.188074, "area_m2": 30.0 }, "geometry": { "type": "Polygon", "coordinates": [ [ [ 117.313877336988128, 42.407690779974757 ], [ 117.313907718043794, 42.407690696789217 ], [ 117.313907650690908, 42.40767718795432 ], [ 117.313901574481079, 42.407677204592055 ], [ 117.313901417327557, 42.407645683977172 ], [ 117.313883188707209, 42.407645733888415 ], [ 117.313883166258037, 42.407641230943412 ], [ 117.313877090051676, 42.407641247579853 ], [ 117.313877067602931, 42.407636744634836 ], [ 117.313870991396996, 42.40763676127095 ], [ 117.313871013845301, 42.407641264215961 ], [ 117.313852785226175, 42.40764131412238 ], [ 117.313852762779163, 42.407636811177355 ], [ 117.313840610367251, 42.407636844446685 ], [ 117.313840565475019, 42.407627838556614 ], [ 117.313834489269922, 42.407627855190782 ], [ 117.313834556606992, 42.407641364025892 ], [ 117.313828480400574, 42.407641380659761 ], [ 117.31382863751756, 42.407672901274886 ], [ 117.313822561308115, 42.407672917908457 ], [ 117.31382258375298, 42.40767742085346 ], [ 117.313852964802351, 42.407677337682429 ], [ 117.313852987249405, 42.407681840627426 ], [ 117.313871215880269, 42.40768179072095 ], [ 117.31387123832863, 42.407686293665925 ], [ 117.31387731453934, 42.407686277029782 ], [ 117.313877336988128, 42.407690779974757 ] ] ] } },
{ "type": "Feature", "properties": { "crown_id": 8242, "tree_id": "8250", "top_h_m": 23.081, "H_95_Mean": 22.7628, "DBH": 31.6715, "Carbon_kg": 205.010992, "area_m2": 20.0 }, "geometry": { "type": "Polygon", "coordinates": [ [ [ 117.313986641418083, 42.407676971634302 ], [ 117.314017022466757, 42.407676888419815 ], [ 117.314016977549215, 42.407667882529964 ], [ 117.314023053758078, 42.407667865886111 ], [ 117.314022986380493, 42.407654357051307 ], [ 117.314029062588034, 42.407654340407127 ], [ 117.314029040128403, 42.407649837462202 ], [ 117.314035116335518, 42.407649820817703 ], [ 117.314035093875475, 42.407645317872763 ], [ 117.31404117008212, 42.407645301227952 ], [ 117.314041147621666, 42.407640798283005 ], [ 117.314022919002966, 42.407640848216474 ], [ 117.31402289654379, 42.407636345271527 ], [ 117.314016820337983, 42.407636361915365 ], [ 117.314016797879248, 42.407631858970404 ], [ 117.314004645468501, 42.407631892257115 ], [ 117.314004667926341, 42.40763639520209 ], [ 117.313968210691314, 42.407636495054511 ], [ 117.313968233146568, 42.407640997999472 ], [ 117.313956080733973, 42.407641031281045 ], [ 117.313956125642775, 42.407650037170995 ], [ 117.313968278057089, 42.407650003889415 ], [ 117.313968300512357, 42.407654506834376 ], [ 117.313974376719955, 42.407654490193103 ], [ 117.3139744216314, 42.407663496083003 ], [ 117.313986574048286, 42.407663462799491 ], [ 117.313986641418083, 42.407676971634302 ] ] ] } },
{ "type": "Feature", "properties": { "crown_id": 8287, "tree_id": "8295", "top_h_m": 20.332, "H_95_Mean": 20.6191, "DBH": 28.4211, "Carbon_kg": 155.448468, "area_m2": 15.75 }, "geometry": { "type": "Polygon", "coordinates": [ [ [ 117.313907493534344, 42.407645667339445 ], [ 117.313913569741118, 42.407645650701397 ], [ 117.313913547289758, 42.407641147756401 ], [ 117.313919623496105, 42.407641131118019 ], [ 117.313919601044304, 42.40763662817303 ], [ 117.313925677250225, 42.407636611534336 ], [ 117.3139256323458, 42.40762760564435 ], [ 117.313913479935735, 42.407627638921397 ], [ 117.313913412581769, 42.407614130086358 ], [ 117.313907336378037, 42.407614146724391 ], [ 117.313907313927174, 42.407609643779359 ], [ 117.313901237723854, 42.407609660417073 ], [ 117.313901192822968, 42.407600654527016 ], [ 117.31388904041809, 42.407600687801455 ], [ 117.313889085317243, 42.407609693691519 ], [ 117.313876932910588, 42.407609726964687 ], [ 117.313876955359305, 42.407614229909719 ], [ 117.313870879155559, 42.407614246545819 ], [ 117.313870901603835, 42.407618749490858 ], [ 117.313852672991217, 42.40761879939722 ], [ 117.313852717885183, 42.407627805287298 ], [ 117.313846641680087, 42.407627821922119 ], [ 117.313846664126658, 42.407632324867144 ], [ 117.313858816537689, 42.407632291597182 ], [ 117.313858838985098, 42.407636794542206 ], [ 117.313864915191061, 42.407636777906745 ], [ 117.313864892743197, 42.407632274961713 ], [ 117.31388312135968, 42.407632225053383 ], [ 117.313883143808852, 42.407636727998401 ], [ 117.313889220014786, 42.407636711361647 ], [ 117.313889242464384, 42.407641214306658 ], [ 117.313907471083439, 42.407641164394448 ], [ 117.313907493534344, 42.407645667339445 ] ] ] } },
{ "type": "Feature", "properties": { "crown_id": 8288, "tree_id": "8296", "top_h_m": 24.16, "H_95_Mean": 23.9999, "DBH": 37.1554, "Carbon_kg": 291.844838, "area_m2": 33.75 }, "geometry": { "type": "Polygon", "coordinates": [ [ [ 117.313931753456103, 42.40763659489533 ], [ 117.31396213448545, 42.407636511695451 ], [ 117.313962112030637, 42.407632008750468 ], [ 117.313998569263092, 42.407631908899994 ], [ 117.313998546805678, 42.407627405955026 ], [ 117.314022851625481, 42.407627339381619 ], [ 117.314022874084628, 42.407631842326566 ], [ 117.314028950289995, 42.407631825682408 ], [ 117.314028972749597, 42.407636328627355 ], [ 117.314059353778546, 42.407636245401712 ], [ 117.314059331316784, 42.407631742456772 ], [ 117.31407148372746, 42.407631709164264 ], [ 117.314071416339559, 42.407618200329445 ], [ 117.314065340135542, 42.407618216975862 ], [ 117.314065295211165, 42.407609211085955 ], [ 117.314053142804823, 42.407609244377795 ], [ 117.314053120343516, 42.40760474143282 ], [ 117.314047044140779, 42.407604758078264 ], [ 117.314047021679912, 42.407600255133296 ], [ 117.314034869275289, 42.40760028842319 ], [ 117.314034846815275, 42.407595785478208 ], [ 117.314016618209607, 42.407595835410632 ], [ 117.314016640668299, 42.407600338355614 ], [ 117.313974107251809, 42.407600454853345 ], [ 117.313974152163127, 42.407609460743338 ], [ 117.313968075959892, 42.407609477384582 ], [ 117.313968120870342, 42.407618483274575 ], [ 117.31394381605385, 42.407618549836371 ], [ 117.313943793600345, 42.407614046891368 ], [ 117.313937717396627, 42.407614063531014 ], [ 117.313937762302757, 42.407623069421021 ], [ 117.313931686098186, 42.407623086060347 ], [ 117.313931753456103, 42.40763659489533 ] ] ] } },
{ "type": "Feature", "properties": { "crown_id": 8310, "tree_id": "8318", "top_h_m": 21.23, "H_95_Mean": 22.1105, "DBH": 26.1315, "Carbon_kg": 136.774975, "area_m2": 10.0 }, "geometry": { "type": "Polygon", "coordinates": [ [ [ 117.313919533689017, 42.407623119338027 ], [ 117.313925609893602, 42.407623102699347 ], [ 117.313925587441403, 42.407618599754343 ], [ 117.313931663645562, 42.407618583115344 ], [ 117.313931618740298, 42.407609577225323 ], [ 117.313949847350116, 42.407609527306406 ], [ 117.313949869804048, 42.407614030251402 ], [ 117.313962022211413, 42.407613996970511 ], [ 117.313961977301858, 42.407604991080511 ], [ 117.313968053504666, 42.407604974439593 ], [ 117.31396800859423, 42.407595968549572 ], [ 117.313955856190333, 42.407596001831095 ], [ 117.313955811281659, 42.407586995941074 ], [ 117.313949735080584, 42.407587012581338 ], [ 117.313949757534488, 42.407591515526356 ], [ 117.313925452728355, 42.40759158208423 ], [ 117.313925475180497, 42.407596085029247 ], [ 117.313913322776543, 42.407596118306259 ], [ 117.313913345227846, 42.407600621251291 ], [ 117.313907269025421, 42.407600637889317 ], [ 117.313907291476298, 42.407605140834349 ], [ 117.313913367679149, 42.407605124196323 ], [ 117.313913390130452, 42.407609627141333 ], [ 117.313919466333743, 42.407609610502988 ], [ 117.313919533689017, 42.407623119338027 ] ] ] } },
{ "type": "Feature", "properties": { "crown_id": 8324, "tree_id": "8332", "top_h_m": 21.683, "H_95_Mean": 21.9837, "DBH": 29.9907, "Carbon_kg": 179.928717, "area_m2": 17.25 }, "geometry": { "type": "Polygon", "coordinates": [ [ [ 117.313834466824233, 42.40762335224575 ], [ 117.31384661923353, 42.40762331897708 ], [ 117.313846574340459, 42.407614313086995 ], [ 117.313864802951784, 42.407614263181586 ], [ 117.313864780503934, 42.407609760236561 ], [ 117.313870856707283, 42.407609743600787 ], [ 117.313870766914235, 42.407591731820595 ], [ 117.313852538309433, 42.407591781726921 ], [ 117.313852426074789, 42.407569267001584 ], [ 117.313846349875334, 42.407569283636363 ], [ 117.313846327428863, 42.407564780691274 ], [ 117.31382809883182, 42.407564830593707 ], [ 117.313828166167369, 42.407578339428952 ], [ 117.313822089967061, 42.407578356062459 ], [ 117.313822134856593, 42.407587361952615 ], [ 117.313816058655391, 42.407587378585809 ], [ 117.313816125988396, 42.407600887421033 ], [ 117.313828278393387, 42.407600854154317 ], [ 117.313828345729092, 42.407614362989499 ], [ 117.313834421932867, 42.407614346355643 ], [ 117.313834466824233, 42.40762335224575 ] ] ] } }
]
}
