{
"type": "FeatureCollection",
"name": "tile_17_23",
"crs": { "type": "name", "properties": { "name": "urn:ogc:def:crs:OGC:1.3:CRS84" } },
"features": [
{ "type": "Feature", "properties": { "crown_id": 6793, "tree_id": "6799", "top_h_m": 19.029, "H_95_Mean": 19.4056, "DBH": 27.726, "Carbon_kg": 142.66976, "area_m2": 16.0 }, "geometry": { "type": "Polygon", "coordinates": [ [ [ 117.315382221171717, 42.408497190904697 ], [ 117.315388297459805, 42.408497174188213 ], [ 117.315388274902332, 42.408492671244524 ], [ 117.315418656340512, 42.408492587657285 ], [ 117.315418678900187, 42.408497090600953 ], [ 117.315424755188261, 42.40849707388255 ], [ 117.315424732628159, 42.408492570938876 ], [ 117.315436885203383, 42.408492537501083 ], [ 117.31543684008146, 42.408483531613754 ], [ 117.315448992654922, 42.408483498174682 ], [ 117.315448970093115, 42.408478995231015 ], [ 117.315436817520492, 42.408479028670072 ], [ 117.315436749837644, 42.408465519839034 ], [ 117.315430673552655, 42.408465536558069 ], [ 117.315430718673653, 42.408474542445454 ], [ 117.315412489816012, 42.408474592600648 ], [ 117.3154124446976, 42.408465586713262 ], [ 117.315406368412567, 42.408465603431019 ], [ 117.315406323295051, 42.408456597543605 ], [ 117.315400247010871, 42.408456614261034 ], [ 117.315400224452574, 42.408452111317317 ], [ 117.315375919317589, 42.408452178183786 ], [ 117.31537600954394, 42.408470189958656 ], [ 117.315388162114914, 42.408470156526043 ], [ 117.315388229787331, 42.408483665357146 ], [ 117.315382153500551, 42.408483682073623 ], [ 117.315382221171717, 42.408497190904697 ] ] ] } },
{ "type": "Feature", "properties": { "crown_id": 6794, "tree_id": "6800", "top_h_m": 19.305, "H_95_Mean": 19.274, "DBH": 32.4945, "Carbon_kg": 195.657693, "area_m2": 30.0 }, "geometry": { "type": "Polygon", "coordinates": [ [ [ 117.315485540633034, 42.408501409624321 ], [ 117.315491616921463, 42.408501392902359 ], [ 117.315491594356573, 42.408496889958727 ], [ 117.315509823220552, 42.408496839790914 ], [ 117.315509800654368, 42.408492336847281 ], [ 117.315503724366806, 42.408492353570196 ], [ 117.315503701801077, 42.408487850626564 ], [ 117.315515854375306, 42.408487817180408 ], [ 117.315515899508554, 42.408496823067672 ], [ 117.315552357236342, 42.408496722721438 ], [ 117.315552312097878, 42.408487716834202 ], [ 117.315570540959087, 42.408487666656747 ], [ 117.315570518388583, 42.408483163713136 ], [ 117.315588747248441, 42.408483113532789 ], [ 117.31558872467663, 42.408478610589185 ], [ 117.315594800962813, 42.408478593861759 ], [ 117.315594755818296, 42.40846958797453 ], [ 117.315588679533008, 42.408469604701963 ], [ 117.315588611817589, 42.408456095871081 ], [ 117.31557645924957, 42.408456129324932 ], [ 117.315576481820486, 42.408460632268572 ], [ 117.315558252967122, 42.408460682446943 ], [ 117.3155582303975, 42.408456179503304 ], [ 117.315527848977268, 42.408456263127462 ], [ 117.315527826409806, 42.408451760183802 ], [ 117.315521750126194, 42.408451776907668 ], [ 117.315521795260224, 42.40846078279499 ], [ 117.315515718975718, 42.408460799518529 ], [ 117.315515741542313, 42.40846530246219 ], [ 117.315503588972405, 42.408465335908332 ], [ 117.315503611538134, 42.408469838851978 ], [ 117.31549753525276, 42.408469855574566 ], [ 117.315497557818034, 42.40847435851822 ], [ 117.315485405246392, 42.408474391962429 ], [ 117.315485540633034, 42.408501409624321 ] ] ] } },
{ "type": "Feature", "properties": { "crown_id": 6801, "tree_id": "6807", "top_h_m": 21.842, "H_95_Mean": 21.0967, "DBH": 35.9261, "Carbon_kg": 252.687174, "area_m2": 37.5 }, "geometry": { "type": "Polygon", "coordinates": [ [ [ 117.315327602238128, 42.408510850169655 ], [ 117.315351907395879, 42.408510783313346 ], [ 117.315351884840965, 42.408506280369657 ], [ 117.315357961129948, 42.408506263654779 ], [ 117.315357983685303, 42.408510766598475 ], [ 117.315370136264121, 42.408510733167745 ], [ 117.315370091151706, 42.408501727280381 ], [ 117.315376167440235, 42.408501710564536 ], [ 117.315376054657136, 42.40847919584607 ], [ 117.315382130943505, 42.40847917912992 ], [ 117.315382108386473, 42.408474676186216 ], [ 117.315369955814603, 42.408474709618197 ], [ 117.315369888146122, 42.408461200787045 ], [ 117.315351659292219, 42.408461250932568 ], [ 117.315351636737375, 42.408456747988843 ], [ 117.315345560453167, 42.408456764703359 ], [ 117.315345537898764, 42.408452261759635 ], [ 117.315327309047404, 42.408452311901279 ], [ 117.315327286494295, 42.408447808957526 ], [ 117.315321210210925, 42.408447825670763 ], [ 117.31532116510563, 42.408438819783242 ], [ 117.315315088823127, 42.40843883649616 ], [ 117.315315111375341, 42.40844333943992 ], [ 117.315309035092383, 42.408443356152503 ], [ 117.315309080195988, 42.408452362040023 ], [ 117.315296927628339, 42.408452395464238 ], [ 117.315296995281159, 42.408465904295497 ], [ 117.315290918996041, 42.408465921007135 ], [ 117.315290964097073, 42.40847492689462 ], [ 117.31528488781106, 42.408474943605931 ], [ 117.315284910361143, 42.408479446549677 ], [ 117.315290986647582, 42.408479429838366 ], [ 117.315291076849718, 42.408497441613285 ], [ 117.315309305714209, 42.408497391477361 ], [ 117.315309328266068, 42.408501894421072 ], [ 117.315315404554653, 42.40850187770846 ], [ 117.315315427106952, 42.408506380652163 ], [ 117.315327579684975, 42.408506347225952 ], [ 117.315327602238128, 42.408510850169655 ] ], [ [ 117.315339642046894, 42.408488302023635 ], [ 117.315339574384893, 42.408474793192489 ], [ 117.315357803242748, 42.40847474304887 ], [ 117.315357870908656, 42.408488251880009 ], [ 117.315339642046894, 42.408488302023635 ] ] ] } },
{ "type": "Feature", "properties": { "crown_id": 6846, "tree_id": "6852", "top_h_m": 20.495, "H_95_Mean": 19.5879, "DBH": 34.5029, "Carbon_kg": 222.916161, "area_m2": 36.75 }, "geometry": { "type": "MultiPolygon", "coordinates": [ [ [ [ 117.315473297801816, 42.408483431292673 ], [ 117.315473320365413, 42.408487934236327 ], [ 117.315479396652535, 42.408487917515018 ], [ 117.31547937408854, 42.408483414571371 ], [ 117.315473297801816, 42.408483431292673 ] ] ], [ [ [ 117.315473297801816, 42.408483431292673 ], [ 117.315473275238276, 42.40847892834902 ], [ 117.315479351524544, 42.408478911627711 ], [ 117.315479306396568, 42.40846990574039 ], [ 117.315491458967358, 42.408469872296827 ], [ 117.315491436402496, 42.408465369353166 ], [ 117.315497512687458, 42.408465352630913 ], [ 117.315497490122183, 42.408460849687245 ], [ 117.315509642691211, 42.408460816241764 ], [ 117.31550962012507, 42.408456313298103 ], [ 117.31551569640915, 42.408456296574869 ], [ 117.315515673842555, 42.408451793631222 ], [ 117.315503521275289, 42.408451827077336 ], [ 117.315503498709589, 42.408447324133668 ], [ 117.315497422426375, 42.408447340856235 ], [ 117.315497399861101, 42.40844283791256 ], [ 117.315491323578328, 42.408442854634814 ], [ 117.315491278448675, 42.408433848747435 ], [ 117.315485202166755, 42.408433865469362 ], [ 117.315485134473633, 42.408420356638274 ], [ 117.31547905819302, 42.408420373359867 ], [ 117.315479035629096, 42.408415870416157 ], [ 117.315472959348909, 42.408415887137423 ], [ 117.315472936785426, 42.408411384193712 ], [ 117.315466860505651, 42.408411400914652 ], [ 117.315466905631766, 42.408420406802072 ], [ 117.315454753070483, 42.408420440243006 ], [ 117.315454798194878, 42.408429446130434 ], [ 117.315442645631833, 42.408429479570081 ], [ 117.315442668193185, 42.408433982513777 ], [ 117.315418363065305, 42.408434049389236 ], [ 117.315418340505715, 42.408429546445511 ], [ 117.3154061879426, 42.4084295798813 ], [ 117.315406300736285, 42.408452094599895 ], [ 117.31541237702001, 42.40845207788216 ], [ 117.315412422138394, 42.408461083769552 ], [ 117.315418498423, 42.408461067051491 ], [ 117.315418543542251, 42.408470072938883 ], [ 117.315424619827724, 42.408470056220473 ], [ 117.315424574707578, 42.408461050333095 ], [ 117.315442803561282, 42.408461000175983 ], [ 117.315442871245423, 42.408474509007029 ], [ 117.315455023817165, 42.408474475567324 ], [ 117.315455068941674, 42.40848348145466 ], [ 117.315473297801816, 42.408483431292673 ] ] ] ] } },
{ "type": "Feature", "properties": { "crown_id": 6912, "tree_id": "6918", "top_h_m": 20.047, "H_95_Mean": 22.041, "DBH": 18.7103, "Carbon_kg": 69.627923, "area_m2": 2.75 }, "geometry": { "type": "Polygon", "coordinates": [ [ [ 117.315315066270912, 42.408434333552393 ], [ 117.315321142552975, 42.408434316839489 ], [ 117.315321029789814, 42.408411802120646 ], [ 117.315314953509912, 42.408411818833542 ], [ 117.315314976062112, 42.408416321777317 ], [ 117.315296747221097, 42.408416371914065 ], [ 117.315296769771976, 42.408420874857846 ], [ 117.315302846052759, 42.408420858145909 ], [ 117.315302868604093, 42.408425361089684 ], [ 117.315308944885288, 42.408425344377434 ], [ 117.315308967437048, 42.408429847321216 ], [ 117.315315043718684, 42.408429830608632 ], [ 117.315315066270912, 42.408434333552393 ] ] ] } },
{ "type": "Feature", "properties": { "crown_id": 6913, "tree_id": "6919", "top_h_m": 21.155, "H_95_Mean": 21.6267, "DBH": 36.2247, "Carbon_kg": 260.736445, "area_m2": 37.0 }, "geometry": { "type": "Polygon", "coordinates": [ [ [ 117.315357713021569, 42.408456731273986 ], [ 117.315369865589986, 42.40845669784332 ], [ 117.315369820477684, 42.408447691955871 ], [ 117.315400201894235, 42.408447608373613 ], [ 117.315400089102766, 42.408425093654969 ], [ 117.315406165383891, 42.408425076937569 ], [ 117.315406075149028, 42.408407065162613 ], [ 117.315399998869665, 42.40840708188 ], [ 117.315399886078396, 42.408384567161214 ], [ 117.315393809801193, 42.408384583878288 ], [ 117.315393832359007, 42.408389086822048 ], [ 117.315387756081336, 42.408389103538788 ], [ 117.315387733523963, 42.408384600595021 ], [ 117.315381657246746, 42.408384617311448 ], [ 117.315381679803679, 42.408389120255208 ], [ 117.315375603526007, 42.408389136971309 ], [ 117.315375648639019, 42.40839814285885 ], [ 117.315333114689125, 42.408398259862551 ], [ 117.315333159796083, 42.408407265750121 ], [ 117.315327083516635, 42.408407282463649 ], [ 117.315327263941199, 42.40844330601378 ], [ 117.315333340224115, 42.40844328930023 ], [ 117.31533336277765, 42.408447792243969 ], [ 117.315351591627689, 42.408447742101366 ], [ 117.315351614182532, 42.408452245045112 ], [ 117.3153576904663, 42.408452228330262 ], [ 117.315357713021569, 42.408456731273986 ] ] ] } },
{ "type": "Feature", "properties": { "crown_id": 6931, "tree_id": "6937", "top_h_m": 18.41, "H_95_Mean": 18.5816, "DBH": 27.2669, "Carbon_kg": 134.453232, "area_m2": 16.25 }, "geometry": { "type": "Polygon", "coordinates": [ [ [ 117.315424416787238, 42.408429529727137 ], [ 117.315436569350297, 42.408429496289429 ], [ 117.315436546789414, 42.408424993345697 ], [ 117.315448699351606, 42.408424959906696 ], [ 117.315448654228078, 42.408415954019269 ], [ 117.315460806788494, 42.408415920578982 ], [ 117.315460761663275, 42.408406914691547 ], [ 117.315466837942623, 42.408406897970927 ], [ 117.315466792816522, 42.408397892083485 ], [ 117.31546071653807, 42.408397908804098 ], [ 117.315460693975467, 42.408393405860366 ], [ 117.315454617697426, 42.408393422580652 ], [ 117.315454595135279, 42.408388919636913 ], [ 117.315448518857679, 42.408388936356879 ], [ 117.315448541419414, 42.408393439300617 ], [ 117.315418160029125, 42.408393522895615 ], [ 117.315418092350484, 42.408380014064342 ], [ 117.315405939796946, 42.408380047500074 ], [ 117.315406052590347, 42.408402562218868 ], [ 117.315412128869283, 42.408402545501154 ], [ 117.315412241664987, 42.408425060219834 ], [ 117.315424394227207, 42.408425026783412 ], [ 117.315424416787238, 42.408429529727137 ] ] ] } },
{ "type": "Feature", "properties": { "crown_id": 6943, "tree_id": "6949", "top_h_m": 21.421, "H_95_Mean": 22.4399, "DBH": 31.5598, "Carbon_kg": 201.843482, "area_m2": 20.25 }, "geometry": { "type": "Polygon", "coordinates": [ [ [ 117.315509574992788, 42.408447307410761 ], [ 117.315527803842372, 42.408447257240155 ], [ 117.315527736140098, 42.408433748409145 ], [ 117.31553381242199, 42.408433731684973 ], [ 117.315533677014926, 42.408406714022874 ], [ 117.315527600735663, 42.408406730747046 ], [ 117.315527510466126, 42.40838871897224 ], [ 117.315515357911053, 42.408388752419583 ], [ 117.315515335344543, 42.408384249475866 ], [ 117.31550925906744, 42.408384266199043 ], [ 117.315509281633496, 42.408388769142768 ], [ 117.315491052800809, 42.408388819310382 ], [ 117.315491143059887, 42.408406831085244 ], [ 117.315478990501248, 42.408406864528729 ], [ 117.315479013065172, 42.408411367472446 ], [ 117.315485089344932, 42.40841135075086 ], [ 117.315485111909283, 42.408415853694564 ], [ 117.315491188189469, 42.408415836972658 ], [ 117.315491255883884, 42.408429345803754 ], [ 117.315497332165364, 42.408429329081507 ], [ 117.315497377295856, 42.408438334968878 ], [ 117.315503453578202, 42.408438318246304 ], [ 117.315503476143874, 42.408442821189993 ], [ 117.315509552426661, 42.4084428044671 ], [ 117.315509574992788, 42.408447307410761 ] ] ] } },
{ "type": "Feature", "properties": { "crown_id": 6989, "tree_id": "6995", "top_h_m": 24.522, "H_95_Mean": 23.9159, "DBH": 36.6624, "Carbon_kg": 283.504163, "area_m2": 32.25 }, "geometry": { "type": "Polygon", "coordinates": [ [ [ 117.315327015857505, 42.408393773632305 ], [ 117.315369549804416, 42.408393656630857 ], [ 117.315369482136205, 42.408380147799527 ], [ 117.315375558412995, 42.40838013108376 ], [ 117.315375535856504, 42.408375628139972 ], [ 117.315381612132867, 42.408375611423892 ], [ 117.315381567019045, 42.408366605536315 ], [ 117.315375490743548, 42.408366622252395 ], [ 117.315375445630607, 42.408357616364803 ], [ 117.315369369355977, 42.408357633080577 ], [ 117.31536934679994, 42.408353130136767 ], [ 117.315332889154661, 42.408353230424531 ], [ 117.315332844047816, 42.40834422453689 ], [ 117.315326767774451, 42.408344241250383 ], [ 117.315326812880414, 42.408353247138024 ], [ 117.31531466033195, 42.408353280564064 ], [ 117.315314682884065, 42.408357783507896 ], [ 117.315320759158737, 42.408357766795035 ], [ 117.315320826816432, 42.408371275626486 ], [ 117.315302597988477, 42.408371325764122 ], [ 117.315302575437201, 42.408366822820298 ], [ 117.315284346610525, 42.408366872955021 ], [ 117.315284256410706, 42.408348861179668 ], [ 117.315278180136886, 42.408348877890596 ], [ 117.3152782252359, 42.408357883778287 ], [ 117.31525999641174, 42.408357933909137 ], [ 117.315259951315312, 42.408348928021432 ], [ 117.315247798767601, 42.408348961440375 ], [ 117.315247866409621, 42.408362470271932 ], [ 117.315266095235103, 42.408362420143014 ], [ 117.315266117783764, 42.408366923086845 ], [ 117.315272194059347, 42.408366906376564 ], [ 117.315272306804872, 42.408389421095691 ], [ 117.315278383082628, 42.408389404385069 ], [ 117.315278360533085, 42.408384901441266 ], [ 117.315302665642321, 42.408384834595559 ], [ 117.315302688193597, 42.408389337539354 ], [ 117.315326993304481, 42.408389270688502 ], [ 117.315327015857505, 42.408393773632305 ] ] ] } },
{ "type": "Feature", "properties": { "crown_id": 6998, "tree_id": "7004", "top_h_m": 18.835, "H_95_Mean": 18.3864, "DBH": 33.2996, "Carbon_kg": 199.898556, "area_m2": 36.0 }, "geometry": { "type": "Polygon", "coordinates": [ [ [ 117.315472891658473, 42.40840237830627 ], [ 117.315485044216246, 42.408402344863433 ], [ 117.315484953958887, 42.408384333088534 ], [ 117.315503182790309, 42.408384282921894 ], [ 117.315503160224679, 42.408379779978183 ], [ 117.31550923650137, 42.408379763255319 ], [ 117.315509191369273, 42.408370757367869 ], [ 117.315521343920892, 42.408370723921195 ], [ 117.31552129878709, 42.408361718033738 ], [ 117.315533451336947, 42.408361684585799 ], [ 117.315533406201411, 42.40835267869835 ], [ 117.315527329927335, 42.408352695422465 ], [ 117.315527284792694, 42.408343689534988 ], [ 117.315515132246304, 42.408343722982266 ], [ 117.315515109679851, 42.408339220038521 ], [ 117.315509033407082, 42.40833923676167 ], [ 117.315509010841069, 42.40833473381791 ], [ 117.315490782024028, 42.408334783985424 ], [ 117.315490827153425, 42.408343789872958 ], [ 117.31546652206049, 42.408343856758506 ], [ 117.315466544623462, 42.408348359702281 ], [ 117.315460468349798, 42.408348376422857 ], [ 117.315460490912329, 42.408352879366625 ], [ 117.315454414638197, 42.408352896086889 ], [ 117.315454437200316, 42.408357399030656 ], [ 117.315424055827464, 42.40835748262716 ], [ 117.315424078387395, 42.408361985570934 ], [ 117.31540584956231, 42.40836203572497 ], [ 117.315405872120976, 42.408366538668751 ], [ 117.315411948396445, 42.408366521951059 ], [ 117.31541199351463, 42.408375527838601 ], [ 117.315424146067286, 42.408375494402243 ], [ 117.315424213747193, 42.408389003233516 ], [ 117.315442442580064, 42.408388953076518 ], [ 117.315442420018783, 42.408384450132779 ], [ 117.315460648850291, 42.408384399972888 ], [ 117.315460671412865, 42.408388902916627 ], [ 117.315466747690479, 42.408388886196022 ], [ 117.315466770253494, 42.408393389139768 ], [ 117.315472846531506, 42.408393372418836 ], [ 117.315472891658473, 42.40840237830627 ] ], [ [ 117.315430222343593, 42.40837547768357 ], [ 117.315430154662408, 42.408361968852276 ], [ 117.315448383487436, 42.408361918694368 ], [ 117.315448451172543, 42.408375427525641 ], [ 117.315430222343593, 42.40837547768357 ] ] ] } },
{ "type": "Feature", "properties": { "crown_id": 7024, "tree_id": "7030", "top_h_m": 21.771, "H_95_Mean": 23.0942, "DBH": 23.8714, "Carbon_kg": 116.951655, "area_m2": 6.5 }, "geometry": { "type": "MultiPolygon", "coordinates": [ [ [ [ 117.315308629161066, 42.40836230316426 ], [ 117.315308651712783, 42.408366806108077 ], [ 117.315314727988337, 42.408366789395529 ], [ 117.315314705436194, 42.40836228645172 ], [ 117.315308629161066, 42.40836230316426 ] ] ], [ [ [ 117.315308629161066, 42.40836230316426 ], [ 117.315308561506015, 42.408348794332774 ], [ 117.315320714053627, 42.408348760907373 ], [ 117.315320646396003, 42.408335252075865 ], [ 117.315314570123505, 42.408335268788711 ], [ 117.315314525019332, 42.408326262901028 ], [ 117.3153084487477, 42.408326279613547 ], [ 117.315308493851006, 42.408335285501245 ], [ 117.315296341305967, 42.408335318925324 ], [ 117.31529636385676, 42.40833982186917 ], [ 117.315290287583807, 42.40833983858073 ], [ 117.315290400335684, 42.408362353299943 ], [ 117.315308629161066, 42.40836230316426 ] ] ] ] } },
{ "type": "Feature", "properties": { "crown_id": 7067, "tree_id": "7073", "top_h_m": 19.654, "H_95_Mean": 20.1508, "DBH": 30.1824, "Carbon_kg": 173.107334, "area_m2": 20.75 }, "geometry": { "type": "MultiPolygon", "coordinates": [ [ [ [ 117.315393697012226, 42.408362069159395 ], [ 117.315393719570025, 42.408366572103184 ], [ 117.315399795845494, 42.408366555386131 ], [ 117.315399773287268, 42.408362052442357 ], [ 117.315393697012226, 42.408362069159395 ] ] ], [ [ [ 117.315393697012226, 42.408362069159395 ], [ 117.315393651896699, 42.408353063271818 ], [ 117.315387575622523, 42.40835307998853 ], [ 117.315387417721311, 42.408321559381868 ], [ 117.315393493992431, 42.408321542665149 ], [ 117.315393448876975, 42.408312536777522 ], [ 117.315375220066173, 42.408312586926634 ], [ 117.315375197509766, 42.40830808398281 ], [ 117.315369121239911, 42.408308100698534 ], [ 117.315369143795891, 42.408312603642365 ], [ 117.31535091498499, 42.408312653787632 ], [ 117.315350937539677, 42.408317156731471 ], [ 117.315326632456674, 42.408317223587332 ], [ 117.315326677562595, 42.408326229475023 ], [ 117.315320601290964, 42.408326246188182 ], [ 117.31532062384349, 42.408330749132034 ], [ 117.315326700115548, 42.408330732418868 ], [ 117.315326745221483, 42.408339738306545 ], [ 117.315338897767333, 42.408339704879232 ], [ 117.315338942875016, 42.408348710766887 ], [ 117.315375400517667, 42.408348610477198 ], [ 117.315375423074144, 42.408353113421015 ], [ 117.315381499348319, 42.408353096704928 ], [ 117.315381544462113, 42.408362102592527 ], [ 117.315393697012226, 42.408362069159395 ] ] ] ] } },
{ "type": "Feature", "properties": { "crown_id": 7068, "tree_id": "7074", "top_h_m": 17.453, "H_95_Mean": 18.42, "DBH": 18.6109, "Carbon_kg": 61.94717, "area_m2": 3.75 }, "geometry": { "type": "Polygon", "coordinates": [ [ [ 117.315393629338928, 42.408348560328022 ], [ 117.315405781886398, 42.408348526893619 ], [ 117.315405736769165, 42.40833952100602 ], [ 117.315417889314872, 42.408339487570331 ], [ 117.315417866755368, 42.408334984626535 ], [ 117.315411790482955, 42.40833500134454 ], [ 117.315411745364869, 42.408325995456927 ], [ 117.315405669093323, 42.408326012174605 ], [ 117.315405646534714, 42.408321509230781 ], [ 117.315399570263594, 42.408321525948132 ], [ 117.315399592821734, 42.408326028891956 ], [ 117.315393516550174, 42.40832604560898 ], [ 117.315393629338928, 42.408348560328022 ] ] ] } },
{ "type": "Feature", "properties": { "crown_id": 7069, "tree_id": "7075", "top_h_m": 20.08, "H_95_Mean": 19.2127, "DBH": 33.8832, "Carbon_kg": 212.475723, "area_m2": 35.5 }, "geometry": { "type": "Polygon", "coordinates": [ [ [ 117.315399750729071, 42.408357549498554 ], [ 117.315417979552848, 42.408357499345492 ], [ 117.315417956993358, 42.40835299640171 ], [ 117.315448338364064, 42.408352912806819 ], [ 117.315448315802414, 42.408348409863059 ], [ 117.315454392076106, 42.408348393143122 ], [ 117.315454369513986, 42.408343890199347 ], [ 117.315460445787252, 42.40834387347909 ], [ 117.315460423224692, 42.408339370535309 ], [ 117.315484728315937, 42.408339303651069 ], [ 117.315484683187407, 42.408330297763527 ], [ 117.315502912003168, 42.408330247596979 ], [ 117.315502866872038, 42.40832124170943 ], [ 117.315496790600989, 42.40832125843194 ], [ 117.315496768035871, 42.408316755488165 ], [ 117.315490691765262, 42.408316772210334 ], [ 117.315490669200599, 42.408312269266553 ], [ 117.315496745470782, 42.408312252544384 ], [ 117.31549670034056, 42.408303246656814 ], [ 117.31548454780193, 42.408303280100824 ], [ 117.315484502673499, 42.408294274213233 ], [ 117.315478426405051, 42.408294290934755 ], [ 117.315478448968818, 42.408298793878551 ], [ 117.315472372699929, 42.408298810599739 ], [ 117.315472350136574, 42.408294307655943 ], [ 117.315448045062709, 42.408294374537505 ], [ 117.315448067624317, 42.408298877481322 ], [ 117.315435915086468, 42.408298910920166 ], [ 117.315435937647209, 42.408303413863983 ], [ 117.315411632569734, 42.408303480737843 ], [ 117.315411655128742, 42.408307983681667 ], [ 117.315399502589088, 42.408308017116667 ], [ 117.315399547705411, 42.408317023004308 ], [ 117.315411700246798, 42.4083169895693 ], [ 117.315411722805834, 42.408321492513117 ], [ 117.31541779907694, 42.408321475795127 ], [ 117.315417844195906, 42.408330481682739 ], [ 117.315423920467865, 42.408330464964422 ], [ 117.315423988147657, 42.408343973795795 ], [ 117.315411835601083, 42.408344007232138 ], [ 117.315411880719211, 42.408353013119708 ], [ 117.315399728170874, 42.408353046554765 ], [ 117.315399750729071, 42.408357549498554 ] ] ] } }
]
}
