{
"type": "FeatureCollection",
"name": "tile_15_2",
"crs": { "type": "name", "properties": { "name": "urn:ogc:def:crs:OGC:1.3:CRS84" } },
"features": [
{ "type": "Feature", "properties": { "crown_id": 6118, "tree_id": "6124", "top_h_m": 22.213, "H_95_Mean": 23.2819, "DBH": 39.276, "Carbon_kg": 320.578263, "area_m2": 44.25 }, "geometry": { "type": "Polygon", "coordinates": [ [ [ 117.310273725449861, 42.408848856369936 ], [ 117.310291954424827, 42.408848807031468 ], [ 117.310291887845054, 42.408835298194667 ], [ 117.310310116816083, 42.408835248853343 ], [ 117.310310094621514, 42.408830745907743 ], [ 117.310316170944745, 42.408830729459986 ], [ 117.310316104359813, 42.40881722062317 ], [ 117.310297875394028, 42.408817269965432 ], [ 117.310297831006679, 42.408808264074189 ], [ 117.310291754685608, 42.408808280520958 ], [ 117.310291643719566, 42.408785765792764 ], [ 117.310279491081758, 42.408785798685315 ], [ 117.310279468889419, 42.408781295739665 ], [ 117.310273392570949, 42.408781312185461 ], [ 117.310273370379065, 42.408776809239797 ], [ 117.310255141424918, 42.408776858575216 ], [ 117.310255163615494, 42.408781361520887 ], [ 117.310218705704429, 42.408781460183064 ], [ 117.310218727892405, 42.408785963128729 ], [ 117.310212651573451, 42.408785979571306 ], [ 117.31021269594855, 42.408794985462663 ], [ 117.31020661962873, 42.408795001904913 ], [ 117.310206641815839, 42.408799504850585 ], [ 117.310212718136128, 42.408799488408334 ], [ 117.31021278469882, 42.408812997245327 ], [ 117.310218861020402, 42.408812980802743 ], [ 117.310218927584472, 42.408826489639694 ], [ 117.310225003907334, 42.408826473196775 ], [ 117.310225026095793, 42.408830976142418 ], [ 117.310237178742398, 42.408830943255623 ], [ 117.310237200931724, 42.408835446201252 ], [ 117.310249353579181, 42.408835413313149 ], [ 117.310249375769374, 42.408839916258778 ], [ 117.310273681065951, 42.408839850478714 ], [ 117.310273725449861, 42.408848856369936 ] ], [ [ 117.310279757390077, 42.408839834032882 ], [ 117.310279735197696, 42.408835331087268 ], [ 117.310285811521368, 42.408835314641131 ], [ 117.310285833714204, 42.408839817586738 ], [ 117.310279757390077, 42.408839834032882 ] ] ] } },
{ "type": "Feature", "properties": { "crown_id": 6124, "tree_id": "6130", "top_h_m": 19.942, "H_95_Mean": 20.8021, "DBH": 39.0142, "Carbon_kg": 295.904076, "area_m2": 53.0 }, "geometry": { "type": "Polygon", "coordinates": [ [ [ 117.310322269463398, 42.408835215957517 ], [ 117.310328345787028, 42.408835199509113 ], [ 117.310328323591193, 42.408830696563527 ], [ 117.310334399914396, 42.408830680114811 ], [ 117.310334422110671, 42.408835183060404 ], [ 117.310358727405216, 42.408835117262299 ], [ 117.310358705207179, 42.408830614316734 ], [ 117.310364781530367, 42.408830597866398 ], [ 117.310364759331932, 42.408826094920819 ], [ 117.310370835654652, 42.408826078470177 ], [ 117.310370813455776, 42.408821575524598 ], [ 117.31037688977807, 42.408821559073623 ], [ 117.3103769119774, 42.408826062019202 ], [ 117.310382988300134, 42.408826045567913 ], [ 117.310382943900635, 42.408817039676755 ], [ 117.310389020222487, 42.40881702322514 ], [ 117.310389086823079, 42.408830532061884 ], [ 117.310395163146239, 42.408830515609942 ], [ 117.310395096544354, 42.408817006773219 ], [ 117.310407249188046, 42.408816973868397 ], [ 117.310407182583589, 42.40880346503166 ], [ 117.310419335224665, 42.408803432125559 ], [ 117.310419157606063, 42.408767408560813 ], [ 117.310382699703652, 42.408767507275122 ], [ 117.310382655304281, 42.408758501383879 ], [ 117.31037657898807, 42.408758517835125 ], [ 117.310376601187315, 42.408763020780746 ], [ 117.310346219603971, 42.408763103032193 ], [ 117.310346263998156, 42.408772108923465 ], [ 117.310340187680595, 42.408772125372792 ], [ 117.310340232073926, 42.40878113126405 ], [ 117.310334155755513, 42.408781147713064 ], [ 117.310334177951731, 42.4087856506587 ], [ 117.310297720038463, 42.408785749346002 ], [ 117.310297808813033, 42.40880376112856 ], [ 117.310303885133663, 42.408803744681464 ], [ 117.310303929521851, 42.408812750572721 ], [ 117.310322158486315, 42.4088127012295 ], [ 117.310322269463398, 42.408835215957517 ] ], [ [ 117.310364537347581, 42.408781065464801 ], [ 117.310364470752361, 42.408767556627936 ], [ 117.310382699703652, 42.408767507275122 ], [ 117.310382766302752, 42.408781016111973 ], [ 117.310364537347581, 42.408781065464801 ] ] ] } },
{ "type": "Feature", "properties": { "crown_id": 6165, "tree_id": "6171", "top_h_m": 22.134, "H_95_Mean": 22.6567, "DBH": 22.6608, "Carbon_kg": 104.120951, "area_m2": 5.5 }, "geometry": { "type": "Polygon", "coordinates": [ [ [ 117.310303774163302, 42.408781229953277 ], [ 117.310328079437056, 42.408781164161759 ], [ 117.310328057241264, 42.408776661216123 ], [ 117.310334133559252, 42.408776644767435 ], [ 117.31033408916683, 42.408767638876164 ], [ 117.310340165483936, 42.408767622427149 ], [ 117.310340121090633, 42.40875861653587 ], [ 117.310315815825589, 42.408758682329925 ], [ 117.310315860215425, 42.408767688221232 ], [ 117.310303707581141, 42.408767721116334 ], [ 117.310303774163302, 42.408781229953277 ] ] ] } },
{ "type": "Feature", "properties": { "crown_id": 6173, "tree_id": "6179", "top_h_m": 19.8, "H_95_Mean": 20.8776, "DBH": 33.606, "Carbon_kg": 219.515877, "area_m2": 29.5 }, "geometry": { "type": "Polygon", "coordinates": [ [ [ 117.310194444802775, 42.408790531842776 ], [ 117.310206597441606, 42.408790498959235 ], [ 117.310206553067374, 42.408781493067877 ], [ 117.310212629385902, 42.408781476625627 ], [ 117.310212607198352, 42.408776973679934 ], [ 117.310249065106845, 42.408776875019711 ], [ 117.310249042916695, 42.408772372074047 ], [ 117.310255119234341, 42.408772355629559 ], [ 117.310255074853174, 42.408763349738187 ], [ 117.310248998536437, 42.40876336618269 ], [ 117.310248865395749, 42.408736348508533 ], [ 117.31023671276742, 42.408736381396508 ], [ 117.310236690578193, 42.408731878450794 ], [ 117.31021238532324, 42.408731944222886 ], [ 117.310212363135733, 42.408727441277158 ], [ 117.310194134195783, 42.408727490602843 ], [ 117.310194178568125, 42.408736496494306 ], [ 117.310182025939724, 42.408736529376498 ], [ 117.310182070310375, 42.408745535267954 ], [ 117.310169917680213, 42.408745568148859 ], [ 117.310169939864679, 42.408750071094587 ], [ 117.310163863549164, 42.408750087534557 ], [ 117.310163885733175, 42.408754590480292 ], [ 117.310176038365086, 42.408754557600027 ], [ 117.310176104919847, 42.408768066437155 ], [ 117.310182181237096, 42.408768049996524 ], [ 117.310182225607818, 42.408777055887931 ], [ 117.310188301925947, 42.408777039446981 ], [ 117.310188324111735, 42.408781542392674 ], [ 117.310194400430291, 42.408781525951404 ], [ 117.310194444802775, 42.408790531842776 ] ], [ [ 117.310206486506075, 42.408767984230799 ], [ 117.310206419944791, 42.4087544753937 ], [ 117.310224648892572, 42.408754426066032 ], [ 117.310224715457736, 42.408767934903111 ], [ 117.310206486506075, 42.408767984230799 ] ] ] } },
{ "type": "Feature", "properties": { "crown_id": 6181, "tree_id": "6187", "top_h_m": 21.74, "H_95_Mean": 22.2693, "DBH": 33.3705, "Carbon_kg": 224.846776, "area_m2": 25.5 }, "geometry": { "type": "Polygon", "coordinates": [ [ [ 117.310285545207904, 42.408781279293549 ], [ 117.310297697844831, 42.408781246400366 ], [ 117.310297609070346, 42.408763234617744 ], [ 117.310309761703792, 42.408763201723289 ], [ 117.310309717314851, 42.408754195831975 ], [ 117.310334022578175, 42.408754130039213 ], [ 117.310334000381971, 42.408749627093556 ], [ 117.310340076697372, 42.408749610644563 ], [ 117.310340054500742, 42.408745107698905 ], [ 117.310346130815674, 42.4087450912496 ], [ 117.310346108618617, 42.408740588303942 ], [ 117.310333955989577, 42.408740621202234 ], [ 117.310333933793402, 42.40873611825657 ], [ 117.310327857479322, 42.408736134705237 ], [ 117.310327835283559, 42.408731631759551 ], [ 117.31032175896992, 42.408731648207898 ], [ 117.310321736774611, 42.408727145262212 ], [ 117.31031566046137, 42.408727161710232 ], [ 117.310315682656253, 42.40873166465591 ], [ 117.310254919519366, 42.408731829118345 ], [ 117.310255052662626, 42.408758846792516 ], [ 117.310261128978937, 42.408758830347708 ], [ 117.310261195551945, 42.408772339184729 ], [ 117.310279424504785, 42.408772289848351 ], [ 117.310279446697109, 42.408776792794008 ], [ 117.310285523015153, 42.408776776347899 ], [ 117.310285545207904, 42.408781279293549 ] ] ] } },
{ "type": "Feature", "properties": { "crown_id": 6202, "tree_id": "6208", "top_h_m": 19.88, "H_95_Mean": 20.4958, "DBH": 29.7437, "Carbon_kg": 169.76963, "area_m2": 19.0 }, "geometry": { "type": "Polygon", "coordinates": [ [ [ 117.310400906453893, 42.408762954973803 ], [ 117.3104252117204, 42.408762889161714 ], [ 117.310425189517659, 42.408758386216107 ], [ 117.310431265833842, 42.408758369762268 ], [ 117.310431243630674, 42.40875386681666 ], [ 117.310437319946402, 42.408753850362523 ], [ 117.310437297742823, 42.408749347416894 ], [ 117.31044337405811, 42.408749330962436 ], [ 117.310443351854104, 42.408744828016822 ], [ 117.310437275539243, 42.408744844471293 ], [ 117.310437231132084, 42.40873583858005 ], [ 117.310425078504082, 42.408735871487998 ], [ 117.310425056301369, 42.408731368542362 ], [ 117.310406827360623, 42.408731417901876 ], [ 117.310406805159232, 42.408726914956226 ], [ 117.310400728846105, 42.408726931408758 ], [ 117.310400751047055, 42.408731434354394 ], [ 117.310388598419848, 42.40873146725847 ], [ 117.310388620619946, 42.40873597020412 ], [ 117.310364315363742, 42.408736036008428 ], [ 117.310364337562106, 42.408740538954092 ], [ 117.310358261247629, 42.408740555404364 ], [ 117.310358239049691, 42.408736052458707 ], [ 117.310352162735626, 42.408736068908652 ], [ 117.310352229328117, 42.40874957774561 ], [ 117.310346153012745, 42.40874959419525 ], [ 117.310346175209816, 42.4087540971409 ], [ 117.310352251525615, 42.408754080691267 ], [ 117.31035227372314, 42.408758583636903 ], [ 117.31037050267183, 42.408758534286051 ], [ 117.310370480473011, 42.408754031340422 ], [ 117.310400862051907, 42.408753949082573 ], [ 117.310400906453893, 42.408762954973803 ] ] ] } },
{ "type": "Feature", "properties": { "crown_id": 6259, "tree_id": "6265", "top_h_m": 19.835, "H_95_Mean": 19.7817, "DBH": 26.6535, "Carbon_kg": 133.269671, "area_m2": 13.25 }, "geometry": { "type": "MultiPolygon", "coordinates": [ [ [ [ 117.310431132614937, 42.408731352088552 ], [ 117.310437208928505, 42.408731335634428 ], [ 117.310437164521389, 42.408722329743163 ], [ 117.310449317146777, 42.408722296833943 ], [ 117.310449183920312, 42.408695279160099 ], [ 117.3104674128505, 42.408695229793892 ], [ 117.310467390644803, 42.408690726848242 ], [ 117.310412703857949, 42.408690874938138 ], [ 117.31041281486695, 42.408713389666438 ], [ 117.310406738555116, 42.408713406119276 ], [ 117.31040678295787, 42.408722412010583 ], [ 117.310412859270571, 42.408722395557739 ], [ 117.310412881472388, 42.408726898503382 ], [ 117.310431110411812, 42.40872684914293 ], [ 117.310431132614937, 42.408731352088552 ] ] ], [ [ [ 117.310467390644803, 42.408690726848242 ], [ 117.31047346695442, 42.4086907103922 ], [ 117.310473444748297, 42.40868620744655 ], [ 117.310467368439106, 42.408686223902599 ], [ 117.310467390644803, 42.408690726848242 ] ] ] ] } },
{ "type": "Feature", "properties": { "crown_id": 6282, "tree_id": "6288", "top_h_m": 20.73, "H_95_Mean": 21.2632, "DBH": 32.7317, "Carbon_kg": 210.422917, "area_m2": 25.75 }, "geometry": { "type": "Polygon", "coordinates": [ [ [ 117.310340010107467, 42.408736101807584 ], [ 117.310346086421546, 42.408736085358285 ], [ 117.310346064224504, 42.408731582412614 ], [ 117.310382522106238, 42.408731483710028 ], [ 117.310382499906595, 42.408726980764378 ], [ 117.310394652532921, 42.408726947860949 ], [ 117.310394630332411, 42.408722444915298 ], [ 117.31040070664514, 42.408722428463108 ], [ 117.310400640042317, 42.408708919626136 ], [ 117.310406716353725, 42.408708903173618 ], [ 117.310406605346941, 42.408686388445282 ], [ 117.310388376419198, 42.408686437801812 ], [ 117.310388398619239, 42.408690940747491 ], [ 117.310382322309536, 42.408690957199035 ], [ 117.310382344509151, 42.408695460144713 ], [ 117.31035196295845, 42.408695542397567 ], [ 117.310351940760995, 42.408691039451874 ], [ 117.310333711831802, 42.408691088799713 ], [ 117.31033377842023, 42.408704597636813 ], [ 117.310327702109177, 42.408704614085451 ], [ 117.31032781308781, 42.408727128813887 ], [ 117.310333889401051, 42.408727112365234 ], [ 117.310333911597226, 42.408731615310899 ], [ 117.310339987910865, 42.408731598861927 ], [ 117.310340010107467, 42.408736101807584 ] ] ] } },
{ "type": "Feature", "properties": { "crown_id": 6291, "tree_id": "6297", "top_h_m": 18.161, "H_95_Mean": 18.6584, "DBH": 24.8514, "Carbon_kg": 111.798738, "area_m2": 11.25 }, "geometry": { "type": "Polygon", "coordinates": [ [ [ 117.310254897328818, 42.408727326172645 ], [ 117.310309584148129, 42.408727178157925 ], [ 117.310309561953716, 42.408722675212239 ], [ 117.310321714579288, 42.408722642316533 ], [ 117.310321625798125, 42.408704630533776 ], [ 117.310309473176034, 42.408704663429447 ], [ 117.310309539759274, 42.408718172266532 ], [ 117.310291310822166, 42.408718221607671 ], [ 117.310291244242819, 42.40870471277055 ], [ 117.310303396864967, 42.408704679876799 ], [ 117.31030337467098, 42.408700176931106 ], [ 117.310291222049727, 42.408700209824843 ], [ 117.310291199856621, 42.408695706879122 ], [ 117.310272970925979, 42.408695756217298 ], [ 117.310272993117749, 42.408700259163034 ], [ 117.310266916807109, 42.408700275608453 ], [ 117.310267027763999, 42.408722790337031 ], [ 117.310254875138313, 42.408722823226931 ], [ 117.310254897328818, 42.408727326172645 ] ] ] } },
{ "type": "Feature", "properties": { "crown_id": 6334, "tree_id": "6340", "top_h_m": 21.144, "H_95_Mean": 21.3264, "DBH": 32.8594, "Carbon_kg": 212.453414, "area_m2": 26.0 }, "geometry": { "type": "Polygon", "coordinates": [ [ [ 117.310242766891903, 42.408731862006974 ], [ 117.310248843205656, 42.408731845562819 ], [ 117.310248776635362, 42.408718336725691 ], [ 117.31026092926021, 42.40871830383643 ], [ 117.310260818305522, 42.408695789107817 ], [ 117.310266894615751, 42.408695772662725 ], [ 117.310266872424378, 42.408691269716989 ], [ 117.31027294873418, 42.408691253271584 ], [ 117.310272859967057, 42.408673241488636 ], [ 117.310278936275111, 42.408673225042904 ], [ 117.310278914082929, 42.408668722097161 ], [ 117.310254608852432, 42.408668787878135 ], [ 117.310254586661983, 42.408664284932364 ], [ 117.310248510354782, 42.408664301376803 ], [ 117.31024848816476, 42.408659798431046 ], [ 117.310224182937674, 42.408659864205546 ], [ 117.310224249502511, 42.408673373042852 ], [ 117.310212096886318, 42.408673405928184 ], [ 117.310212141261161, 42.408682411819719 ], [ 117.310218217570139, 42.408682395377205 ], [ 117.310218284133768, 42.408695904214461 ], [ 117.310224360444025, 42.408695887771628 ], [ 117.310224493574026, 42.408722905446048 ], [ 117.31021841726114, 42.408722921888902 ], [ 117.310218439449045, 42.408727424834638 ], [ 117.310242744702265, 42.40872735906126 ], [ 117.310242766891903, 42.408731862006974 ] ] ] } }
]
}
