{
"type": "FeatureCollection",
"name": "tile_24_18",
"crs": { "type": "name", "properties": { "name": "urn:ogc:def:crs:OGC:1.3:CRS84" } },
"features": [
{ "type": "Feature", "properties": { "crown_id": 8957, "tree_id": "8966", "top_h_m": 22.59, "H_95_Mean": 22.7869, "DBH": 26.8407, "Carbon_kg": 146.955563, "area_m2": 10.5 }, "geometry": { "type": "Polygon", "coordinates": [ [ [ 117.314282172880382, 42.407234867176832 ], [ 117.314294325214192, 42.407234833860947 ], [ 117.314294257779409, 42.407221325025482 ], [ 117.314288181613833, 42.407221341683581 ], [ 117.314288159136012, 42.407216838738421 ], [ 117.314282082970834, 42.407216855396193 ], [ 117.314282060493483, 42.407212352450998 ], [ 117.314275984328745, 42.407212369108457 ], [ 117.314275961851806, 42.407207866163276 ], [ 117.314263809523197, 42.407207899477193 ], [ 117.314263742095022, 42.407194390641614 ], [ 117.314251589768972, 42.407194423954223 ], [ 117.314251634719355, 42.407203429844621 ], [ 117.314245558555442, 42.407203446500446 ], [ 117.314245603504958, 42.407212452390837 ], [ 117.314239527340192, 42.407212469046357 ], [ 117.314239594763194, 42.407225977881922 ], [ 117.314269975593518, 42.407225894601105 ], [ 117.314269998070031, 42.407230397546265 ], [ 117.314282150402974, 42.407230364231673 ], [ 117.314282172880382, 42.407234867176832 ] ] ] } },
{ "type": "Feature", "properties": { "crown_id": 8982, "tree_id": "8991", "top_h_m": 23.343, "H_95_Mean": 23.1447, "DBH": 35.2822, "Carbon_kg": 257.366071, "area_m2": 29.5 }, "geometry": { "type": "Polygon", "coordinates": [ [ [ 117.314300401381104, 42.407234817202536 ], [ 117.314306477547973, 42.40723480054379 ], [ 117.314306410110603, 42.407221291708339 ], [ 117.31431856244177, 42.407221258389889 ], [ 117.314318539961775, 42.407216755444743 ], [ 117.314324616126925, 42.407216738785039 ], [ 117.314324593646518, 42.407212235839886 ], [ 117.314330669811227, 42.407212219179861 ], [ 117.314330602368713, 42.407198710344382 ], [ 117.314336678532101, 42.407198693684045 ], [ 117.314336588607091, 42.407180681903377 ], [ 117.314330512445451, 42.407180698563707 ], [ 117.314330445003037, 42.407167189728142 ], [ 117.314336521163398, 42.407167173067833 ], [ 117.314336498682167, 42.407162670122638 ], [ 117.314293965562641, 42.40716278673807 ], [ 117.314293988040845, 42.407167289683287 ], [ 117.314275759559678, 42.407167339656503 ], [ 117.314275804513429, 42.407176345546908 ], [ 117.314263652190903, 42.40717637886079 ], [ 117.314263719618992, 42.407189887696404 ], [ 117.31426979578157, 42.407189871039627 ], [ 117.31426986321101, 42.407203379875199 ], [ 117.314282015538751, 42.407203346560649 ], [ 117.314282038016117, 42.407207849505824 ], [ 117.314288114180428, 42.407207832848066 ], [ 117.31428813665822, 42.407212335793247 ], [ 117.314294212822929, 42.407212319135148 ], [ 117.31429423530119, 42.407216822080322 ], [ 117.31430031146634, 42.407216805421911 ], [ 117.314300401381104, 42.407234817202536 ] ] ] } },
{ "type": "Feature", "properties": { "crown_id": 8983, "tree_id": "8992", "top_h_m": 23.5, "H_95_Mean": 23.6058, "DBH": 34.7246, "Carbon_kg": 252.158987, "area_m2": 26.75 }, "geometry": { "type": "Polygon", "coordinates": [ [ [ 117.314197106543119, 42.407235100351933 ], [ 117.314203182710102, 42.407235083698659 ], [ 117.314203137766626, 42.407226077808268 ], [ 117.314227442431005, 42.407226011191987 ], [ 117.314227419957547, 42.407221508246806 ], [ 117.314233496123194, 42.407221491591926 ], [ 117.314233428701527, 42.407207982756354 ], [ 117.314239504865853, 42.407207966101161 ], [ 117.314239459917232, 42.407198960210756 ], [ 117.314245536080705, 42.407198943555251 ], [ 117.314245491131231, 42.407189937664839 ], [ 117.314257643456415, 42.407189904352869 ], [ 117.314257598505193, 42.407180898462478 ], [ 117.314251522343483, 42.407180915118602 ], [ 117.314251499868334, 42.407176412173392 ], [ 117.31424542370705, 42.407176428829203 ], [ 117.314245401232341, 42.407171925883979 ], [ 117.314208944267094, 42.407172025812081 ], [ 117.314209011683431, 42.40718553464778 ], [ 117.314184707034613, 42.407185601260103 ], [ 117.314184684564225, 42.407181098314872 ], [ 117.314178608402472, 42.407181114967138 ], [ 117.314178630872391, 42.407185617912376 ], [ 117.314172554710169, 42.407185634564335 ], [ 117.314172577179704, 42.407190137509566 ], [ 117.314166501017041, 42.407190154161206 ], [ 117.314166568424326, 42.407203662996913 ], [ 117.314178720752224, 42.407203629693313 ], [ 117.314178788162181, 42.407217138528978 ], [ 117.314190940492679, 42.407217105224078 ], [ 117.314190962963551, 42.407221608169273 ], [ 117.314197039129226, 42.407221591516333 ], [ 117.314197106543119, 42.407235100351933 ] ], [ [ 117.314184841857013, 42.407212618931467 ], [ 117.314184774445792, 42.407199110095803 ], [ 117.314203002936324, 42.40719906013701 ], [ 117.314203070351439, 42.407212568972653 ], [ 117.314184841857013, 42.407212618931467 ] ] ] } },
{ "type": "Feature", "properties": { "crown_id": 9030, "tree_id": "9040", "top_h_m": 21.12, "H_95_Mean": 20.8277, "DBH": 37.2096, "Carbon_kg": 269.161452, "area_m2": 44.0 }, "geometry": { "type": "Polygon", "coordinates": [ [ [ 117.314081591980397, 42.40722190786714 ], [ 117.314087668146158, 42.40722189121999 ], [ 117.31408764568269, 42.407217388274745 ], [ 117.314099798013359, 42.407217354979501 ], [ 117.31409975308469, 42.40720834908899 ], [ 117.31411798157805, 42.407208299143711 ], [ 117.314117959112423, 42.407203796198459 ], [ 117.314130111440434, 42.407203762900004 ], [ 117.314130088973926, 42.407199259954766 ], [ 117.314136165137498, 42.407199243305058 ], [ 117.314136142670577, 42.407194740359799 ], [ 117.31414221883368, 42.407194723709765 ], [ 117.314142196366348, 42.407190220764527 ], [ 117.314154348691716, 42.407190187463506 ], [ 117.314154326223488, 42.407185684518254 ], [ 117.314148250061237, 42.407185701168927 ], [ 117.314148160190186, 42.40716768938789 ], [ 117.314154236350674, 42.407167672737224 ], [ 117.314154034137189, 42.407127146229691 ], [ 117.31416011029377, 42.407127129578754 ], [ 117.314160065356631, 42.407118123688143 ], [ 117.314153989200889, 42.407118140339101 ], [ 117.314154011669046, 42.407122643284403 ], [ 117.314147935512878, 42.407122659935034 ], [ 117.314147957980595, 42.407127162880336 ], [ 117.314141881824, 42.407127179530633 ], [ 117.314141926758538, 42.407136185421244 ], [ 117.314129774443614, 42.4071362187209 ], [ 117.314129796910038, 42.407140721666195 ], [ 117.314117644594191, 42.40714075496458 ], [ 117.314117667059747, 42.407145257909882 ], [ 117.314111590901362, 42.407145274558587 ], [ 117.314111635831637, 42.407154280449191 ], [ 117.314105559672385, 42.407154297097577 ], [ 117.314105582137103, 42.407158800042865 ], [ 117.314099505977424, 42.407158816690945 ], [ 117.314099528441687, 42.40716331963624 ], [ 117.31408129996133, 42.407163369578534 ], [ 117.314081322424315, 42.407167872523836 ], [ 117.314069170103181, 42.407167905817097 ], [ 117.31406919256527, 42.407172408762392 ], [ 117.314050964082242, 42.407172458699876 ], [ 117.31405105392551, 42.407190470481069 ], [ 117.314069282413755, 42.407190420543557 ], [ 117.314069349800192, 42.407203929379399 ], [ 117.314075425964248, 42.407203912732911 ], [ 117.31407544842682, 42.407208415678177 ], [ 117.314081524591288, 42.407208399031362 ], [ 117.314081591980397, 42.40722190786714 ] ], [ [ 117.314099618298812, 42.407181331417384 ], [ 117.314099550905965, 42.407167822581535 ], [ 117.314117779387601, 42.407167772636328 ], [ 117.31411784678437, 42.407181281472155 ], [ 117.314099618298812, 42.407181331417384 ] ] ] } },
{ "type": "Feature", "properties": { "crown_id": 9055, "tree_id": "9066", "top_h_m": 21.37, "H_95_Mean": 20.9347, "DBH": 40.3592, "Carbon_kg": 318.01735, "area_m2": 59.75 }, "geometry": { "type": "Polygon", "coordinates": [ [ [ 117.314160402385724, 42.407185667867267 ], [ 117.314166478547946, 42.407185651215961 ], [ 117.31416645607888, 42.407181148270716 ], [ 117.314172532240676, 42.40718113161909 ], [ 117.314172509771154, 42.407176628673838 ], [ 117.314190738255192, 42.407176578717028 ], [ 117.314190760726021, 42.407181081662266 ], [ 117.314202913049542, 42.407181048356108 ], [ 117.31420284563454, 42.407167539520401 ], [ 117.314251454918036, 42.407167406282959 ], [ 117.314251477393185, 42.407171909228168 ], [ 117.314269705875702, 42.40717185925881 ], [ 117.314269660922818, 42.407162853368376 ], [ 117.314263584762855, 42.407162870025147 ], [ 117.314263449906903, 42.407135852353754 ], [ 117.314269526064265, 42.407135835696998 ], [ 117.314269503587852, 42.40713133275176 ], [ 117.314275579744773, 42.407131316094684 ], [ 117.314275557267948, 42.407126813149432 ], [ 117.314293785737391, 42.407126763176294 ], [ 117.31429374078111, 42.407117757285818 ], [ 117.31430589309231, 42.407117723968774 ], [ 117.31430587061331, 42.407113221023543 ], [ 117.314293718302991, 42.407113254340565 ], [ 117.314293695824873, 42.407108751395313 ], [ 117.314287619670125, 42.407108768053341 ], [ 117.31428766462551, 42.407117773943853 ], [ 117.31428158846991, 42.407117790601554 ], [ 117.314281610947162, 42.407122293546813 ], [ 117.314263382478998, 42.407122343518012 ], [ 117.314263404954957, 42.407126846463264 ], [ 117.314233024172424, 42.407126929742176 ], [ 117.314232911803501, 42.407104415015823 ], [ 117.314226835649166, 42.407104431670625 ], [ 117.314226813175821, 42.407099928725351 ], [ 117.314220737021898, 42.407099945379827 ], [ 117.314220759494802, 42.407104448325114 ], [ 117.314196454877319, 42.407104514939817 ], [ 117.314196477348489, 42.407109017885112 ], [ 117.314172172729172, 42.407109084494685 ], [ 117.314172217668045, 42.407118090385282 ], [ 117.314166141512331, 42.407118107036887 ], [ 117.31416620891936, 42.407131615872771 ], [ 117.314160132762353, 42.407131632524042 ], [ 117.31416017769952, 42.40714063841461 ], [ 117.314166253857408, 42.407140621763325 ], [ 117.314166276326461, 42.407145124708613 ], [ 117.314160200168118, 42.407145141359884 ], [ 117.314160334979803, 42.407172159031518 ], [ 117.314154258818874, 42.407172175682483 ], [ 117.314154303755274, 42.407181181573016 ], [ 117.31416037991707, 42.407181164922022 ], [ 117.314160402385724, 42.407185667867267 ] ] ] } },
{ "type": "Feature", "properties": { "crown_id": 9056, "tree_id": "9067", "top_h_m": 18.533, "H_95_Mean": 18.2646, "DBH": 26.8268, "Carbon_kg": 128.797682, "area_m2": 15.75 }, "geometry": { "type": "Polygon", "coordinates": [ [ [ 117.314275737082795, 42.407162836711279 ], [ 117.314287889402721, 42.407162803396133 ], [ 117.314287866924971, 42.407158300450916 ], [ 117.31433040004147, 42.407158183837758 ], [ 117.314330355079903, 42.40714917794736 ], [ 117.31433643123853, 42.407149161287052 ], [ 117.314336408757327, 42.407144658341849 ], [ 117.314330332599155, 42.407144675002158 ], [ 117.314330287637617, 42.407135669111732 ], [ 117.314324211480297, 42.407135685771706 ], [ 117.314324189, 42.407131182826497 ], [ 117.314312036686232, 42.407131216145466 ], [ 117.314311991727337, 42.407122210255011 ], [ 117.314299839415284, 42.407122243572701 ], [ 117.314299884372417, 42.407131249463163 ], [ 117.314281655901709, 42.407131299437289 ], [ 117.314281678378961, 42.407135802382527 ], [ 117.314275602221628, 42.407135819039922 ], [ 117.314275624698482, 42.407140321985153 ], [ 117.314269548540693, 42.407140338642243 ], [ 117.31426963844639, 42.407158350423153 ], [ 117.314275714605927, 42.407158333766063 ], [ 117.314275737082795, 42.407162836711279 ] ] ] } },
{ "type": "Feature", "properties": { "crown_id": 9127, "tree_id": "9138", "top_h_m": 15.974, "H_95_Mean": 16.6648, "DBH": 25.2418, "Carbon_kg": 107.908387, "area_m2": 14.75 }, "geometry": { "type": "Polygon", "coordinates": [ [ [ 117.314239077854708, 42.407122410141774 ], [ 117.314257306322929, 42.407122360174441 ], [ 117.314257283847397, 42.407117857229188 ], [ 117.314275512314296, 42.407117807258942 ], [ 117.31427548983747, 42.40711330431369 ], [ 117.314281565992644, 42.407113287656308 ], [ 117.314281521038154, 42.407104281765797 ], [ 117.314299749501046, 42.40710423179172 ], [ 117.314299771979606, 42.407108734736966 ], [ 117.314305848134325, 42.407108718078291 ], [ 117.314305825655339, 42.407104215133053 ], [ 117.314311901809617, 42.407104198474052 ], [ 117.314311856850793, 42.407095192583554 ], [ 117.314317933004219, 42.40709517592424 ], [ 117.31431791052438, 42.407090672978995 ], [ 117.314323986677351, 42.407090656319355 ], [ 117.314323964197087, 42.407086153374117 ], [ 117.314299659586894, 42.407086220010683 ], [ 117.314299682065425, 42.40709072295595 ], [ 117.314287529759426, 42.407090756272289 ], [ 117.314287552237104, 42.407095259217577 ], [ 117.314257171469876, 42.407095342502842 ], [ 117.314257148994372, 42.407090839557547 ], [ 117.314251072841344, 42.407090856213642 ], [ 117.314251095316408, 42.407095359158923 ], [ 117.314232866855974, 42.407095409125262 ], [ 117.314232889329745, 42.407099912070549 ], [ 117.314238965483653, 42.407099895415421 ], [ 117.314239077854708, 42.407122410141774 ] ] ] } },
{ "type": "Feature", "properties": { "crown_id": 9175, "tree_id": "9186", "top_h_m": 15.43, "H_95_Mean": 15.515, "DBH": 17.9595, "Carbon_kg": 52.089402, "area_m2": 4.5 }, "geometry": { "type": "Polygon", "coordinates": [ [ [ 117.314220714549009, 42.407095442434539 ], [ 117.314226790702506, 42.407095425780057 ], [ 117.31422676822919, 42.407090922834762 ], [ 117.314244996688331, 42.407090872869404 ], [ 117.314244906789867, 42.407072861088231 ], [ 117.314250982941175, 42.407072844432477 ], [ 117.31425096046614, 42.407068341487182 ], [ 117.314244884315286, 42.407068358142929 ], [ 117.314244861840677, 42.407063855197627 ], [ 117.31423878569025, 42.407063871853047 ], [ 117.314238853112741, 42.407077380688968 ], [ 117.314220624657509, 42.407077430653338 ], [ 117.314220647130369, 42.40708193359864 ], [ 117.314214570978194, 42.407081950252788 ], [ 117.314214593450615, 42.40708645319809 ], [ 117.314220669603245, 42.407086436543935 ], [ 117.314220714549009, 42.407095442434539 ] ] ] } },
{ "type": "Feature", "properties": { "crown_id": 9187, "tree_id": "9199", "top_h_m": 15.503, "H_95_Mean": 16.9122, "DBH": 22.6976, "Carbon_kg": 87.870898, "area_m2": 9.5 }, "geometry": { "type": "MultiPolygon", "coordinates": [ [ [ [ 117.314257014141532, 42.407063821885814 ], [ 117.314257081567945, 42.407077330721705 ], [ 117.314251005416196, 42.407077347377779 ], [ 117.314251050366295, 42.407086353268362 ], [ 117.314263202671469, 42.407086319955859 ], [ 117.314263225147414, 42.407090822901147 ], [ 117.314281453606441, 42.407090772929998 ], [ 117.314281431129217, 42.407086269984724 ], [ 117.314293583434349, 42.407086236669009 ], [ 117.314293560956244, 42.407081733723743 ], [ 117.314317865564732, 42.407081667088477 ], [ 117.314317843084893, 42.40707716414321 ], [ 117.31429961462986, 42.40707721412015 ], [ 117.314299592151357, 42.407072711174862 ], [ 117.31428136369756, 42.407072761148882 ], [ 117.314281341220379, 42.407068258203601 ], [ 117.314275265069526, 42.407068274860961 ], [ 117.314275242592757, 42.407063771915674 ], [ 117.314257014141532, 42.407063821885814 ] ] ], [ [ [ 117.314257014141532, 42.407063821885814 ], [ 117.314256946715162, 42.407050313049886 ], [ 117.314250870566056, 42.407050329705939 ], [ 117.314250937991119, 42.40706383854188 ], [ 117.314257014141532, 42.407063821885814 ] ] ] ] } },
{ "type": "Feature", "properties": { "crown_id": 9232, "tree_id": "9244", "top_h_m": 19.89, "H_95_Mean": 19.9471, "DBH": 26.7592, "Carbon_kg": 135.000233, "area_m2": 13.25 }, "geometry": { "type": "Polygon", "coordinates": [ [ [ 117.314323919236557, 42.407077147483591 ], [ 117.314336071539884, 42.407077114163386 ], [ 117.314336026577664, 42.40706810827286 ], [ 117.314329950426853, 42.407068124933119 ], [ 117.31432992794619, 42.407063621987859 ], [ 117.314305623344708, 42.407063688625648 ], [ 117.314305533429021, 42.407045676844497 ], [ 117.31429945728037, 42.407045693503143 ], [ 117.314299389844948, 42.40703218466723 ], [ 117.314275085255545, 42.407032251298524 ], [ 117.314275107732271, 42.407036754243826 ], [ 117.314269031584473, 42.407036770900859 ], [ 117.314269076537087, 42.407045776791485 ], [ 117.314263000388408, 42.407045793448191 ], [ 117.314263067816057, 42.407059302284132 ], [ 117.31428129626596, 42.407059252313026 ], [ 117.31428131874317, 42.407063755258314 ], [ 117.314287394893555, 42.407063738600634 ], [ 117.314287417371204, 42.407068241545915 ], [ 117.314305645823637, 42.407068191570936 ], [ 117.314305668302609, 42.407072694516224 ], [ 117.314323896756321, 42.407072644538317 ], [ 117.314323919236557, 42.407077147483591 ] ] ] } },
{ "type": "Feature", "properties": { "crown_id": 9243, "tree_id": "9255", "top_h_m": 21.89, "H_95_Mean": 21.9932, "DBH": 49.5997, "Carbon_kg": 496.113225, "area_m2": 121.5 }, "geometry": { "type": "Polygon", "coordinates": [ [ [ 117.314117487335452, 42.407109234347374 ], [ 117.314129639645188, 42.407109201049039 ], [ 117.314129617178821, 42.407104698103716 ], [ 117.314135693333256, 42.407104681454058 ], [ 117.314135670866435, 42.407100178508735 ], [ 117.314147823174409, 42.407100145208467 ], [ 117.314147868109799, 42.4071091510991 ], [ 117.314160020419479, 42.407109117797546 ], [ 117.314159997950952, 42.407104614852237 ], [ 117.314190378722927, 42.407104531592694 ], [ 117.314190356252212, 42.407100028647392 ], [ 117.314214660867975, 42.407099962033989 ], [ 117.314214615923063, 42.407090956143392 ], [ 117.314208539770007, 42.407090972797221 ], [ 117.314208472353968, 42.407077463961308 ], [ 117.314214548505745, 42.407077447307479 ], [ 117.314214526033311, 42.407072944362163 ], [ 117.314232754487264, 42.40707289439878 ], [ 117.314232687066095, 42.407059385562846 ], [ 117.314244839366083, 42.407059352252318 ], [ 117.314244816891517, 42.407054849306995 ], [ 117.314232664592396, 42.407054882617523 ], [ 117.314232642118668, 42.407050379672206 ], [ 117.314220489820386, 42.40705041298142 ], [ 117.314220444874749, 42.407041407090752 ], [ 117.314196140281581, 42.407041473705327 ], [ 117.314196027926215, 42.407018958978547 ], [ 117.314189951780079, 42.407018975631381 ], [ 117.314189929309464, 42.407014472686001 ], [ 117.31417777701806, 42.407014505990681 ], [ 117.314177754548311, 42.407010003045301 ], [ 117.314165602257759, 42.407010036348687 ], [ 117.314165579788877, 42.407005533403293 ], [ 117.31413519906458, 42.4070056166561 ], [ 117.314135176597873, 42.407001113710699 ], [ 117.31411087202008, 42.407001180307141 ], [ 117.314110849555135, 42.406996677361725 ], [ 117.314104773411103, 42.406996694010019 ], [ 117.314104795875622, 42.407001196955441 ], [ 117.314098719731149, 42.407001213603429 ], [ 117.314098742195256, 42.407005716548838 ], [ 117.314086589905415, 42.40700574984384 ], [ 117.314086612368655, 42.407010252789263 ], [ 117.314074460077961, 42.407010286082993 ], [ 117.314074729626654, 42.407064321427811 ], [ 117.314068653476085, 42.407064338074228 ], [ 117.314068675938074, 42.407068841019594 ], [ 117.31406259978705, 42.407068857665692 ], [ 117.314062622248613, 42.407073360611072 ], [ 117.314056546097149, 42.407073377256829 ], [ 117.314056635941725, 42.407091389038328 ], [ 117.314062712094909, 42.407091372392557 ], [ 117.314062667171768, 42.407082366501811 ], [ 117.314068743324057, 42.407082349855727 ], [ 117.314068788248093, 42.407091355746445 ], [ 117.314087016707646, 42.407091305806212 ], [ 117.314087039170957, 42.407095808751571 ], [ 117.314093115324553, 42.40709579210418 ], [ 117.314093092860801, 42.407091289158828 ], [ 117.314099169013971, 42.40709127251111 ], [ 117.314099191478149, 42.407095775456469 ], [ 117.314105267631746, 42.407095758808424 ], [ 117.314105245167127, 42.407091255863087 ], [ 117.314111321320269, 42.407091239214729 ], [ 117.314111343785342, 42.407095742160067 ], [ 117.31411741993891, 42.40709572551139 ], [ 117.314117487335452, 42.407109234347374 ] ], [ [ 117.314123541024387, 42.407104714753046 ], [ 117.314123518558418, 42.407100211807723 ], [ 117.314129594712426, 42.407100195158385 ], [ 117.314129617178821, 42.407104698103716 ], [ 117.314123541024387, 42.407104714753046 ] ] ] } },
{ "type": "Feature", "properties": { "crown_id": 9264, "tree_id": "9278", "top_h_m": 17.5, "H_95_Mean": 17.5125, "DBH": 23.0812, "Carbon_kg": 92.784228, "area_m2": 9.5 }, "geometry": { "type": "Polygon", "coordinates": [ [ [ 117.314238718267816, 42.407050363017113 ], [ 117.314244794416936, 42.407050346361693 ], [ 117.314244704518686, 42.407032334580386 ], [ 117.314238628371299, 42.407032351235792 ], [ 117.314238538474854, 42.407014339454427 ], [ 117.314202081600826, 42.407014439380042 ], [ 117.314202193958351, 42.407036954106822 ], [ 117.314226498549758, 42.407036887490982 ], [ 117.314226543496261, 42.40704589338165 ], [ 117.314238695793662, 42.407045860071783 ], [ 117.314238718267816, 42.407050363017113 ] ] ] } },
{ "type": "Feature", "properties": { "crown_id": 9313, "tree_id": "9330", "top_h_m": 20.421, "H_95_Mean": 20.7336, "DBH": 32.0147, "Carbon_kg": 198.256295, "area_m2": 24.75 }, "geometry": { "type": "Polygon", "coordinates": [ [ [ 117.314250848091049, 42.40704582676063 ], [ 117.314256924239743, 42.40704581010457 ], [ 117.314256901764281, 42.407041307159254 ], [ 117.314262977912534, 42.407041290502868 ], [ 117.314262932960816, 42.407032284612228 ], [ 117.314269009108187, 42.407032267955529 ], [ 117.314268986631888, 42.407027765010213 ], [ 117.314299367366488, 42.407027681721921 ], [ 117.314299142582158, 42.40698265226861 ], [ 117.314305218724712, 42.406982635610021 ], [ 117.314305173767039, 42.406973629719317 ], [ 117.314280869200232, 42.406973696351763 ], [ 117.314280891677342, 42.406978199297122 ], [ 117.314268739393043, 42.406978232611415 ], [ 117.314268784345529, 42.406987238502126 ], [ 117.314256632059454, 42.406987271815154 ], [ 117.31425665453483, 42.40699177476052 ], [ 117.314244502247902, 42.406991808072249 ], [ 117.314244524722412, 42.406996311017615 ], [ 117.314250600866316, 42.40699629436191 ], [ 117.314250668291194, 42.407009803197958 ], [ 117.314244592145968, 42.407009819853684 ], [ 117.314244682044119, 42.407027831635048 ], [ 117.314250758191079, 42.40702781497933 ], [ 117.314250848091049, 42.40704582676063 ] ] ] } },
{ "type": "Feature", "properties": { "crown_id": 9328, "tree_id": "9345", "top_h_m": 21.15, "H_95_Mean": 20.75, "DBH": 29.1825, "Carbon_kg": 164.570915, "area_m2": 17.25 }, "geometry": { "type": "Polygon", "coordinates": [ [ [ 117.31417165593372, 42.407005516751781 ], [ 117.314177732078562, 42.40700550009992 ], [ 117.314177642199624, 42.406987488318357 ], [ 117.314183718342733, 42.406987471666206 ], [ 117.314183673402411, 42.40697846577541 ], [ 117.314177597260183, 42.406978482427569 ], [ 117.314177552320785, 42.406969476536744 ], [ 117.314171476179425, 42.406969493188576 ], [ 117.314171431240879, 42.406960487297745 ], [ 117.314165355100386, 42.406960503949236 ], [ 117.314165310162764, 42.40695149805839 ], [ 117.314153157883482, 42.406951531360413 ], [ 117.314153270223272, 42.406974046087555 ], [ 117.314141117939613, 42.406974079388313 ], [ 117.314141140406718, 42.406978582333743 ], [ 117.314116835837623, 42.406978648931414 ], [ 117.314116925699139, 42.406996660713098 ], [ 117.314141230275183, 42.406996594115377 ], [ 117.314141252742317, 42.407001097060785 ], [ 117.314171633464426, 42.407001013806386 ], [ 117.31417165593372, 42.407005516751781 ] ] ] } },
{ "type": "Feature", "properties": { "crown_id": 9337, "tree_id": "9354", "top_h_m": 20.536, "H_95_Mean": 20.7794, "DBH": 29.524, "Carbon_kg": 168.616646, "area_m2": 18.0 }, "geometry": { "type": "Polygon", "coordinates": [ [ [ 117.314183830693565, 42.407009986393135 ], [ 117.314238516000742, 42.407009836509069 ], [ 117.314238493526659, 42.407005333563717 ], [ 117.314244569671459, 42.407005316908332 ], [ 117.314244547196921, 42.407000813962973 ], [ 117.31423847105259, 42.407000830618358 ], [ 117.314238403630341, 42.406987321782253 ], [ 117.314250555916445, 42.406987288471186 ], [ 117.314250533441509, 42.40698278552582 ], [ 117.314262685726689, 42.406982752213445 ], [ 117.31426261829931, 42.40696924337734 ], [ 117.314256542158034, 42.406969260033677 ], [ 117.314256497207325, 42.406960254142916 ], [ 117.314244344926465, 42.406960287454616 ], [ 117.314244322452012, 42.406955784509222 ], [ 117.314238246312001, 42.406955801164585 ], [ 117.314238313734137, 42.406969310000747 ], [ 117.314232237592805, 42.406969326655805 ], [ 117.314232260066419, 42.406973829601192 ], [ 117.314226183924688, 42.406973846255923 ], [ 117.314226206397876, 42.406978349201296 ], [ 117.314214054113478, 42.406978382509806 ], [ 117.314214076585799, 42.406982885455179 ], [ 117.314189772015226, 42.406982952068333 ], [ 117.314189816956414, 42.406991957959121 ], [ 117.314183740812865, 42.4069919746116 ], [ 117.314183830693565, 42.407009986393135 ] ], [ [ 117.314202014186378, 42.407000930543937 ], [ 117.314201946771973, 42.40698742170779 ], [ 117.314220175201186, 42.406987371746482 ], [ 117.314220242619498, 42.407000880582586 ], [ 117.314202014186378, 42.407000930543937 ] ] ] } },
{ "type": "Feature", "properties": { "crown_id": 9365, "tree_id": "9382", "top_h_m": 19.934, "H_95_Mean": 20.9941, "DBH": 25.9788, "Carbon_kg": 131.089556, "area_m2": 10.75 }, "geometry": { "type": "MultiPolygon", "coordinates": [ [ [ [ 117.314104683553083, 42.406978682228306 ], [ 117.314110759695353, 42.406978665580027 ], [ 117.314110737230436, 42.40697416263459 ], [ 117.314135041797797, 42.406974096038212 ], [ 117.314135019331133, 42.406969593092782 ], [ 117.314147171613925, 42.406969559792671 ], [ 117.314147059276323, 42.4069470450655 ], [ 117.314110602440948, 42.406947144961904 ], [ 117.314110647370754, 42.406956150852814 ], [ 117.314104571230644, 42.406956167501093 ], [ 117.314104593695106, 42.406960670446544 ], [ 117.314098517554569, 42.406960687094497 ], [ 117.314098584946706, 42.40697419593085 ], [ 117.314104661088564, 42.406974179282876 ], [ 117.314104683553083, 42.406978682228306 ] ] ], [ [ [ 117.314147059276323, 42.4069470450655 ], [ 117.314153135415538, 42.406947028414983 ], [ 117.314153112947594, 42.406942525469539 ], [ 117.314147036808833, 42.406942542120056 ], [ 117.314147059276323, 42.4069470450655 ] ] ] ] } },
{ "type": "Feature", "properties": { "crown_id": 9366, "tree_id": "9383", "top_h_m": 20.675, "H_95_Mean": 21.2293, "DBH": 27.5615, "Carbon_kg": 148.660363, "area_m2": 13.25 }, "geometry": { "type": "Polygon", "coordinates": [ [ [ 117.314189749544639, 42.406978449122931 ], [ 117.314207977971279, 42.40697839916357 ], [ 117.314207955499384, 42.406973896218169 ], [ 117.314220107782916, 42.406973862910313 ], [ 117.314220085310154, 42.406969359964933 ], [ 117.314226161451487, 42.406969343310529 ], [ 117.314226138978327, 42.406964840365141 ], [ 117.314232215119205, 42.40696482371041 ], [ 117.314232125224819, 42.406946811928812 ], [ 117.314226049085676, 42.406946828583536 ], [ 117.31422598166624, 42.406933319747289 ], [ 117.31421990552839, 42.406933336401671 ], [ 117.314219972946503, 42.406946845237918 ], [ 117.314207820668187, 42.406946878545739 ], [ 117.314207843140053, 42.406951381491162 ], [ 117.314183538581631, 42.406951448102937 ], [ 117.314183516111513, 42.406946945157515 ], [ 117.314171363833154, 42.406946978461463 ], [ 117.314171408771642, 42.406955984352322 ], [ 117.314177484911696, 42.406955967700505 ], [ 117.314177529851079, 42.406964973591336 ], [ 117.314183605992, 42.406964956939184 ], [ 117.314183650932279, 42.406973962830008 ], [ 117.314189727074066, 42.40697394617753 ], [ 117.314189749544639, 42.406978449122931 ] ] ] } },
{ "type": "Feature", "properties": { "crown_id": 9377, "tree_id": "9394", "top_h_m": 21.0, "H_95_Mean": 21.106, "DBH": 26.5007, "Carbon_kg": 136.881232, "area_m2": 11.5 }, "geometry": { "type": "MultiPolygon", "coordinates": [ [ [ [ 117.314280644429573, 42.406928666897954 ], [ 117.314280599475481, 42.40691966100713 ], [ 117.31427452333898, 42.406919677664412 ], [ 117.314274568292205, 42.406928683555229 ], [ 117.314280644429573, 42.406928666897954 ] ] ], [ [ [ 117.314274793058544, 42.406973713009073 ], [ 117.314274770581875, 42.406969210063693 ], [ 117.31430515128821, 42.406969126773959 ], [ 117.314305106330551, 42.406960120883241 ], [ 117.314311182470945, 42.406960104224332 ], [ 117.314311115033206, 42.406946595388249 ], [ 117.314323267311352, 42.406946562069479 ], [ 117.314323244831243, 42.406942059124106 ], [ 117.314305016415332, 42.40694210910177 ], [ 117.314304993936545, 42.406937606156376 ], [ 117.314280689383665, 42.406937672788736 ], [ 117.314280756814853, 42.406951181624898 ], [ 117.314274680675297, 42.406951198282194 ], [ 117.314274703151952, 42.406955701227574 ], [ 117.314262550871987, 42.406955734541199 ], [ 117.314262595823521, 42.40696474043196 ], [ 117.314268671964371, 42.406964723775303 ], [ 117.314268716916828, 42.406973729666056 ], [ 117.314274793058544, 42.406973713009073 ] ] ] ] } },
{ "type": "Feature", "properties": { "crown_id": 9391, "tree_id": "9408", "top_h_m": 20.923, "H_95_Mean": 21.0549, "DBH": 25.3682, "Carbon_kg": 125.167636, "area_m2": 9.75 }, "geometry": { "type": "Polygon", "coordinates": [ [ [ 117.314250398591994, 42.406955767853546 ], [ 117.314256474732005, 42.406955751197529 ], [ 117.314256452256672, 42.406951248252128 ], [ 117.314268604535755, 42.40695121493917 ], [ 117.314268582059555, 42.406946711993768 ], [ 117.314274658198684, 42.406946695336813 ], [ 117.314274590768804, 42.406933186500623 ], [ 117.31426851463101, 42.406933203157593 ], [ 117.314268447202494, 42.406919694321367 ], [ 117.314256294929464, 42.406919727634303 ], [ 117.314256317404769, 42.406924230579733 ], [ 117.314238088993903, 42.406924280546725 ], [ 117.314238111467901, 42.406928783492148 ], [ 117.314232035330519, 42.40692880014717 ], [ 117.31423210275122, 42.406942308983417 ], [ 117.314238178889937, 42.406942292328381 ], [ 117.314238223837961, 42.406951298219191 ], [ 117.314250376117101, 42.406951264908137 ], [ 117.314250398591994, 42.406955767853546 ] ] ] } },
{ "type": "Feature", "properties": { "crown_id": 9420, "tree_id": "9437", "top_h_m": 20.267, "H_95_Mean": 20.2893, "DBH": 30.9189, "Carbon_kg": 182.464189, "area_m2": 22.5 }, "geometry": { "type": "Polygon", "coordinates": [ [ [ 117.314092351559609, 42.406942691960296 ], [ 117.314140960670045, 42.406942558770261 ], [ 117.314140938202982, 42.40693805582481 ], [ 117.314147014341344, 42.406938039174619 ], [ 117.314146924471416, 42.406920027392772 ], [ 117.314140848334787, 42.40692004404297 ], [ 117.314140758466692, 42.40690203226108 ], [ 117.314128606196917, 42.406902065560473 ], [ 117.314128628663084, 42.40690656850596 ], [ 117.314086095715723, 42.406906685043708 ], [ 117.314086073252611, 42.4069021820982 ], [ 117.314073920982764, 42.406902215391789 ], [ 117.314073876058302, 42.406893209500772 ], [ 117.314067799924246, 42.406893226147076 ], [ 117.314067889771451, 42.40691123792913 ], [ 117.314073965907255, 42.406911221282805 ], [ 117.31407401083176, 42.406920227173799 ], [ 117.314080086968431, 42.406920210527154 ], [ 117.314080109431117, 42.406924713472655 ], [ 117.314086185568215, 42.406924696825683 ], [ 117.314086252957637, 42.406938205662122 ], [ 117.314092329096013, 42.406938189014816 ], [ 117.314092351559609, 42.406942691960296 ] ] ] } },
{ "type": "Feature", "properties": { "crown_id": 9421, "tree_id": "9438", "top_h_m": 20.23, "H_95_Mean": 20.6437, "DBH": 27.33, "Carbon_kg": 143.756295, "area_m2": 13.5 }, "geometry": { "type": "Polygon", "coordinates": [ [ [ 117.314159211554738, 42.406947011764125 ], [ 117.314165287693953, 42.406946995112953 ], [ 117.314165265225142, 42.406942492167524 ], [ 117.31418956978014, 42.406942425559627 ], [ 117.314189592250685, 42.40694692850505 ], [ 117.314201744529043, 42.406946895199169 ], [ 117.314201722057618, 42.406942392253747 ], [ 117.314213874335096, 42.406942358946587 ], [ 117.314213784445997, 42.406924347164882 ], [ 117.314207708309013, 42.406924363818625 ], [ 117.314207685837204, 42.406919860873174 ], [ 117.31420160970066, 42.406919877526576 ], [ 117.314201564757894, 42.406910871635695 ], [ 117.314195488622204, 42.406910888288785 ], [ 117.314195466151261, 42.406906385343333 ], [ 117.314189390016011, 42.406906401996089 ], [ 117.314189434957015, 42.406915407886991 ], [ 117.31418335882087, 42.406915424539434 ], [ 117.314183381290931, 42.406919927484893 ], [ 117.314171229017788, 42.406919960788798 ], [ 117.314171251486997, 42.406924463734263 ], [ 117.314153023075903, 42.406924513687734 ], [ 117.314153090479678, 42.406938022524081 ], [ 117.314159166617998, 42.406938005873243 ], [ 117.314159211554738, 42.406947011764125 ] ] ] } },
{ "type": "Feature", "properties": { "crown_id": 9454, "tree_id": "9471", "top_h_m": 17.54, "H_95_Mean": 18.74, "DBH": 19.9429, "Carbon_kg": 71.937024, "area_m2": 4.75 }, "geometry": { "type": "Polygon", "coordinates": [ [ [ 117.314153000608016, 42.406920010742269 ], [ 117.314165152881188, 42.406919977440275 ], [ 117.31416513041242, 42.406915474494824 ], [ 117.314177282684724, 42.406915441191558 ], [ 117.314177260215075, 42.406910938246106 ], [ 117.314183336350794, 42.406910921593983 ], [ 117.314183291410671, 42.40690191570306 ], [ 117.314146834601559, 42.406902015610896 ], [ 117.314146902003927, 42.406915524447321 ], [ 117.314152978140086, 42.406915507796803 ], [ 117.314153000608016, 42.406920010742269 ] ] ] } },
{ "type": "Feature", "properties": { "crown_id": 9455, "tree_id": "9472", "top_h_m": 19.387, "H_95_Mean": 19.3809, "DBH": 28.6646, "Carbon_kg": 152.456545, "area_m2": 18.25 }, "geometry": { "type": "Polygon", "coordinates": [ [ [ 117.31421986058298, 42.406924330510833 ], [ 117.314232012856948, 42.406924297201755 ], [ 117.314231990383377, 42.406919794256318 ], [ 117.314250218792964, 42.406919744290285 ], [ 117.314250196318099, 42.406915241344869 ], [ 117.314274500862382, 42.406915174718996 ], [ 117.314274455909214, 42.406906168828179 ], [ 117.31425622750362, 42.406906218798035 ], [ 117.314256205028343, 42.406901715852605 ], [ 117.314250128893576, 42.406901732508587 ], [ 117.314249971569808, 42.406870211890471 ], [ 117.314231743174588, 42.406870261856412 ], [ 117.314231810595089, 42.406883770692779 ], [ 117.314225734462028, 42.406883787347461 ], [ 117.314225756935116, 42.406888290292926 ], [ 117.314219680801614, 42.406888306947288 ], [ 117.314219703274276, 42.406892809892739 ], [ 117.314213627140319, 42.40689282654678 ], [ 117.314213649612569, 42.406897329492224 ], [ 117.314189345074993, 42.40689739610518 ], [ 117.314189367545495, 42.406901899050617 ], [ 117.314201519815157, 42.4069018657448 ], [ 117.314201542286511, 42.406906368690251 ], [ 117.31420761842179, 42.406906352036849 ], [ 117.314207663365394, 42.40691535792773 ], [ 117.314213739501511, 42.406915341274015 ], [ 117.314213761973747, 42.406919844219445 ], [ 117.314219838110304, 42.406919827565389 ], [ 117.31421986058298, 42.406924330510833 ] ] ] } },
{ "type": "Feature", "properties": { "crown_id": 9474, "tree_id": "9491", "top_h_m": 19.379, "H_95_Mean": 19.1848, "DBH": 27.0035, "Carbon_kg": 134.363264, "area_m2": 14.75 }, "geometry": { "type": "Polygon", "coordinates": [ [ [ 117.31426228116311, 42.406901699196311 ], [ 117.314304814106379, 42.406901582593214 ], [ 117.314304746670146, 42.406888073756967 ], [ 117.314310822803563, 42.406888057098108 ], [ 117.314310732886952, 42.406870045316417 ], [ 117.314256047701548, 42.406870195234511 ], [ 117.314256182553066, 42.406897212907175 ], [ 117.314262258687407, 42.406897196250888 ], [ 117.31426228116311, 42.406901699196311 ] ] ] } },
{ "type": "Feature", "properties": { "crown_id": 9500, "tree_id": "9517", "top_h_m": 18.652, "H_95_Mean": 18.892, "DBH": 22.324, "Carbon_kg": 90.730578, "area_m2": 7.25 }, "geometry": { "type": "Polygon", "coordinates": [ [ [ 117.314183246470549, 42.406892909812129 ], [ 117.31420755100639, 42.406892843200495 ], [ 117.314207528534595, 42.406888340255037 ], [ 117.314213604668126, 42.406888323601322 ], [ 117.314213582195904, 42.40688382065585 ], [ 117.314219658328966, 42.406883804001822 ], [ 117.314219635856333, 42.406879301056357 ], [ 117.314225711988968, 42.406879284402009 ], [ 117.31422566704282, 42.406870278511079 ], [ 117.314183134120384, 42.406870395084745 ], [ 117.314183246470549, 42.406892909812129 ] ] ] } },
{ "type": "Feature", "properties": { "crown_id": 9542, "tree_id": "9559", "top_h_m": 19.94, "H_95_Mean": 19.7018, "DBH": 28.2581, "Carbon_kg": 149.576169, "area_m2": 16.75 }, "geometry": { "type": "MultiPolygon", "coordinates": [ [ [ [ 117.314073786209434, 42.406875197718684 ], [ 117.314079862341757, 42.406875181072053 ], [ 117.314079839879128, 42.406870678126538 ], [ 117.314073763747231, 42.406870694773154 ], [ 117.314073786209434, 42.406875197718684 ] ] ], [ [ [ 117.314073786209434, 42.406875197718684 ], [ 117.314067710077111, 42.406875214364973 ], [ 117.314067732538902, 42.40687971731051 ], [ 117.314073808671651, 42.406879700664206 ], [ 117.314073786209434, 42.406875197718684 ] ] ], [ [ [ 117.314079862341757, 42.406875181072053 ], [ 117.314079884804386, 42.406879684017582 ], [ 117.314073808671651, 42.406879700664206 ], [ 117.314073831133854, 42.406884203609721 ], [ 117.314079907267043, 42.406884186963104 ], [ 117.31407997465503, 42.40689769579965 ], [ 117.31409212692401, 42.406897662505415 ], [ 117.31409214938752, 42.406902165450916 ], [ 117.31412253006205, 42.406902082209676 ], [ 117.314122507596323, 42.406897579264204 ], [ 117.314140735999658, 42.4068975293156 ], [ 117.314140601197693, 42.406870511642637 ], [ 117.314085916010995, 42.406870661479587 ], [ 117.314085938474079, 42.406875164425109 ], [ 117.314079862341757, 42.406875181072053 ] ] ] ] } },
{ "type": "Feature", "properties": { "crown_id": 9543, "tree_id": "9560", "top_h_m": 19.367, "H_95_Mean": 19.5043, "DBH": 22.6659, "Carbon_kg": 95.334698, "area_m2": 7.25 }, "geometry": { "type": "Polygon", "coordinates": [ [ [ 117.314146812134098, 42.406897512665417 ], [ 117.314177192806198, 42.40689742940971 ], [ 117.314177057988573, 42.406870411736847 ], [ 117.314146677329518, 42.406870494992475 ], [ 117.314146722264368, 42.40687950088347 ], [ 117.314152798397046, 42.406879484232981 ], [ 117.314152820864919, 42.406883987178475 ], [ 117.314146744731772, 42.406884003828957 ], [ 117.314146812134098, 42.406897512665417 ] ] ] } }
]
}
