{
"type": "FeatureCollection",
"name": "tile_19_16",
"crs": { "type": "name", "properties": { "name": "urn:ogc:def:crs:OGC:1.3:CRS84" } },
"features": [
{ "type": "Feature", "properties": { "crown_id": 7516, "tree_id": "7522", "top_h_m": 22.909, "H_95_Mean": 22.9616, "DBH": 34.0253, "Carbon_kg": 238.100162, "area_m2": 26.0 }, "geometry": { "type": "Polygon", "coordinates": [ [ [ 117.313612181825761, 42.408132800261839 ], [ 117.313624334333682, 42.408132767016411 ], [ 117.313624311902629, 42.408128264071678 ], [ 117.313660769423635, 42.408128164327685 ], [ 117.313660746989981, 42.408123661382966 ], [ 117.313666823243011, 42.40812364475785 ], [ 117.313666800808932, 42.408119141813131 ], [ 117.313672877061535, 42.408119125187682 ], [ 117.313672854627043, 42.408114622242955 ], [ 117.31367893087922, 42.408114605617193 ], [ 117.313678908444274, 42.408110102672474 ], [ 117.31368498469601, 42.408110086046399 ], [ 117.313684939825279, 42.408101080156939 ], [ 117.31367886357441, 42.408101096783021 ], [ 117.31367881870456, 42.40809209089354 ], [ 117.313672742454585, 42.40809210751928 ], [ 117.313672697585631, 42.408083101629785 ], [ 117.313666621336495, 42.408083118255206 ], [ 117.313666598902458, 42.408078615310458 ], [ 117.313648370156344, 42.408078665184775 ], [ 117.313648415021802, 42.408087671074306 ], [ 117.313642338772226, 42.408087687698441 ], [ 117.313642361204529, 42.408092190643202 ], [ 117.313630208704467, 42.408092223890506 ], [ 117.313630231135903, 42.408096726835268 ], [ 117.313624154885446, 42.408096743458437 ], [ 117.31362417731647, 42.408101246403199 ], [ 117.313618101065543, 42.408101263026055 ], [ 117.313618123496141, 42.408105765970809 ], [ 117.313593818490702, 42.408105832459022 ], [ 117.313593840919566, 42.408110335403784 ], [ 117.313587764667744, 42.408110352025034 ], [ 117.313587809524591, 42.408119357914565 ], [ 117.3136060382826, 42.408119308049827 ], [ 117.313606060712331, 42.408123810994582 ], [ 117.313612136965403, 42.408123794372358 ], [ 117.313612181825761, 42.408132800261839 ] ] ] } },
{ "type": "Feature", "properties": { "crown_id": 7527, "tree_id": "7533", "top_h_m": 25.119, "H_95_Mean": 25.0265, "DBH": 39.002, "Carbon_kg": 329.888554, "area_m2": 37.75 }, "geometry": { "type": "Polygon", "coordinates": [ [ [ 117.313812765537207, 42.408145760381544 ], [ 117.313818841792312, 42.408145743748356 ], [ 117.313818819347333, 42.408141240803715 ], [ 117.313824895601968, 42.408141224170215 ], [ 117.313824873156562, 42.408136721225574 ], [ 117.313837025665009, 42.408136687957608 ], [ 117.313837003218737, 42.40813218501296 ], [ 117.313843079472505, 42.408132168378486 ], [ 117.313843057025807, 42.408127665433852 ], [ 117.31387343829239, 42.408127582256689 ], [ 117.313873348496998, 42.408109570478153 ], [ 117.313879424748549, 42.408109553841769 ], [ 117.313879379850007, 42.408100547952479 ], [ 117.313891532351363, 42.40810051467875 ], [ 117.313891487451116, 42.408091508789468 ], [ 117.313885411201298, 42.408091525426471 ], [ 117.313885433650995, 42.408096028371126 ], [ 117.31386720490022, 42.408096078280259 ], [ 117.31386718245183, 42.408091575335604 ], [ 117.313855029952151, 42.408091608606746 ], [ 117.313854940162116, 42.408073596828054 ], [ 117.313842787665905, 42.408073630097896 ], [ 117.313842810112547, 42.408078133042565 ], [ 117.313824581366887, 42.408078182944905 ], [ 117.313824603812208, 42.408082685889596 ], [ 117.313800298816162, 42.408082752421542 ], [ 117.313800321259762, 42.408087255366262 ], [ 117.313788168760837, 42.408087288630306 ], [ 117.313788236089053, 42.408100797464385 ], [ 117.313782159838297, 42.408100814095938 ], [ 117.313782204722941, 42.408109819985306 ], [ 117.313788280974578, 42.408109803353746 ], [ 117.313788303417326, 42.40811430629843 ], [ 117.313800455921466, 42.408114273034343 ], [ 117.313800500808739, 42.408123278923668 ], [ 117.313806577061669, 42.408123262291156 ], [ 117.313806599505739, 42.408127765235811 ], [ 117.31381267575911, 42.408127748602958 ], [ 117.313812765537207, 42.408145760381544 ] ] ] } },
{ "type": "Feature", "properties": { "crown_id": 7560, "tree_id": "7566", "top_h_m": 21.468, "H_95_Mean": 21.3793, "DBH": 25.8837, "Carbon_kg": 131.531042, "area_m2": 10.25 }, "geometry": { "type": "Polygon", "coordinates": [ [ [ 117.313593796061866, 42.40810132951426 ], [ 117.313612024814631, 42.408101279648598 ], [ 117.313612002384488, 42.408096776703815 ], [ 117.313618078634974, 42.408096760081293 ], [ 117.313618056204405, 42.408092257136531 ], [ 117.313624132454436, 42.408092240513675 ], [ 117.31362411002344, 42.408087737568906 ], [ 117.313636262522635, 42.408087704322249 ], [ 117.313636240090773, 42.40808320137748 ], [ 117.313642316339937, 42.408083184753664 ], [ 117.313642293907634, 42.408078681808902 ], [ 117.313617988912725, 42.408078748302209 ], [ 117.313617966482155, 42.408074245357419 ], [ 117.313575432743903, 42.40807436170828 ], [ 117.313575477598931, 42.408083367597875 ], [ 117.313581553848152, 42.408083350977286 ], [ 117.313581598704047, 42.40809235686686 ], [ 117.313593751204181, 42.408092323624707 ], [ 117.313593796061866, 42.40810132951426 ] ] ] } },
{ "type": "Feature", "properties": { "crown_id": 7574, "tree_id": "7580", "top_h_m": 22.97, "H_95_Mean": 23.6464, "DBH": 32.45, "Carbon_kg": 220.19883, "area_m2": 20.5 }, "geometry": { "type": "Polygon", "coordinates": [ [ [ 117.313703168577817, 42.408101030276775 ], [ 117.313715321079471, 42.408100997021727 ], [ 117.31371527620442, 42.408091991132288 ], [ 117.31372135245438, 42.408091974504281 ], [ 117.313721374892353, 42.408096477449 ], [ 117.313727451142739, 42.408096460820666 ], [ 117.313727473581139, 42.408100963765399 ], [ 117.31373962608275, 42.408100930507771 ], [ 117.313739603643484, 42.408096427563052 ], [ 117.313769984895288, 42.408096344413359 ], [ 117.313770007336728, 42.408100847358078 ], [ 117.313776083587527, 42.408100830727172 ], [ 117.31377606114566, 42.408096327782467 ], [ 117.313782137395989, 42.408096311151233 ], [ 117.313782070069095, 42.408082802317146 ], [ 117.31379422256714, 42.408082769053742 ], [ 117.313794200123979, 42.408078266109037 ], [ 117.313782047626788, 42.408078299372441 ], [ 117.31378198029995, 42.408064790538297 ], [ 117.313751599063409, 42.408064873691117 ], [ 117.313751621503513, 42.408069376635844 ], [ 117.313721240264655, 42.408069459780627 ], [ 117.313721285140531, 42.408078465670094 ], [ 117.313709132643211, 42.408078498925768 ], [ 117.313709155080304, 42.408083001870494 ], [ 117.31370307883121, 42.408083018497855 ], [ 117.313703168577817, 42.408101030276775 ] ] ] } },
{ "type": "Feature", "properties": { "crown_id": 7622, "tree_id": "7628", "top_h_m": 24.825, "H_95_Mean": 25.0271, "DBH": 34.1347, "Carbon_kg": 252.170978, "area_m2": 22.5 }, "geometry": { "type": "Polygon", "coordinates": [ [ [ 117.31368485008386, 42.408083068377977 ], [ 117.313697002582089, 42.408083035124882 ], [ 117.313696980145878, 42.408078532180149 ], [ 117.313703056394559, 42.408078515553107 ], [ 117.313703033957935, 42.408074012608374 ], [ 117.313715186454388, 42.408073979353354 ], [ 117.313714894767287, 42.408015441071434 ], [ 117.313708818524717, 42.408015457699072 ], [ 117.313708840961723, 42.408019960643855 ], [ 117.313684535989637, 42.408020027151181 ], [ 117.313684625730744, 42.408038038930336 ], [ 117.313678549485957, 42.408038055556382 ], [ 117.313678594355693, 42.408047061445949 ], [ 117.313672518110039, 42.408047078071668 ], [ 117.313672540544474, 42.408051581016444 ], [ 117.313666464298393, 42.408051597641837 ], [ 117.313666509166396, 42.408060603531389 ], [ 117.31366043291942, 42.408060620156483 ], [ 117.313660500220166, 42.408074128990783 ], [ 117.31367265271669, 42.408074095740275 ], [ 117.313672675151153, 42.40807859868503 ], [ 117.313684827648544, 42.408078565433236 ], [ 117.31368485008386, 42.408083068377977 ] ] ] } },
{ "type": "Feature", "properties": { "crown_id": 7623, "tree_id": "7629", "top_h_m": 22.996, "H_95_Mean": 22.3852, "DBH": 33.3675, "Carbon_kg": 225.49731, "area_m2": 25.25 }, "geometry": { "type": "Polygon", "coordinates": [ [ [ 117.313800276372561, 42.408078249476851 ], [ 117.313818505118306, 42.408078199578384 ], [ 117.313818482673412, 42.408073696633686 ], [ 117.313836711417807, 42.408073646732326 ], [ 117.313836688971605, 42.408069143787635 ], [ 117.313854917714636, 42.408069093883377 ], [ 117.313854872819675, 42.408060087993995 ], [ 117.313860949066452, 42.408060071358605 ], [ 117.313860904170625, 42.408051065469216 ], [ 117.313866980416563, 42.408051048833521 ], [ 117.31386695796823, 42.408046545888816 ], [ 117.313848729231751, 42.408046595794964 ], [ 117.313848706784725, 42.408042092850259 ], [ 117.313836554294554, 42.408042126119412 ], [ 117.313836531848423, 42.4080376231747 ], [ 117.313830455603778, 42.408037639808796 ], [ 117.313830410712342, 42.408028633919344 ], [ 117.313824334468563, 42.408028650553106 ], [ 117.313824312023286, 42.40802414760838 ], [ 117.313800007049863, 42.408024214140198 ], [ 117.313800051936923, 42.408033220029679 ], [ 117.313787899448442, 42.408033253293674 ], [ 117.313787921891119, 42.408037756238407 ], [ 117.313793998135779, 42.40803773960657 ], [ 117.313794065465146, 42.408051248440756 ], [ 117.313787989219165, 42.408051265072601 ], [ 117.313788101432664, 42.408073779796183 ], [ 117.313800253928989, 42.40807374653216 ], [ 117.313800276372561, 42.408078249476851 ] ] ] } },
{ "type": "Feature", "properties": { "crown_id": 7629, "tree_id": "7635", "top_h_m": 23.54, "H_95_Mean": 24.5063, "DBH": 36.003, "Carbon_kg": 277.29185, "area_m2": 28.75 }, "geometry": { "type": "Polygon", "coordinates": [ [ [ 117.313721217826739, 42.408064956835872 ], [ 117.313745522816092, 42.408064890320709 ], [ 117.313745500376413, 42.408060387375961 ], [ 117.313781957857699, 42.408060287593571 ], [ 117.313781890530905, 42.408046778759385 ], [ 117.313787966776488, 42.408046762127867 ], [ 117.313787944333782, 42.408042259183134 ], [ 117.313781868088654, 42.408042275814658 ], [ 117.313781800761959, 42.408028766980429 ], [ 117.313793953249586, 42.408028733717089 ], [ 117.313793930806497, 42.408024230772348 ], [ 117.313781778319708, 42.408024264035681 ], [ 117.313781755877486, 42.408019761090927 ], [ 117.313763527148623, 42.408019810983511 ], [ 117.313763459825893, 42.408006302149211 ], [ 117.313757383584232, 42.408006318779414 ], [ 117.313757361143772, 42.408001815834638 ], [ 117.313745208661288, 42.408001849094077 ], [ 117.313745253540489, 42.408010854983644 ], [ 117.313727024814142, 42.408010904870409 ], [ 117.313727047252442, 42.408015407815192 ], [ 117.313720971009872, 42.408015424443477 ], [ 117.313721217826739, 42.408064956835872 ] ] ] } },
{ "type": "Feature", "properties": { "crown_id": 7638, "tree_id": "7644", "top_h_m": 24.756, "H_95_Mean": 24.0567, "DBH": 35.4493, "Carbon_kg": 265.836401, "area_m2": 28.0 }, "geometry": { "type": "Polygon", "coordinates": [ [ [ 117.313642271475331, 42.40807417886414 ], [ 117.313654423971911, 42.408074145615565 ], [ 117.313654334239331, 42.40805613383646 ], [ 117.313660410485852, 42.4080561172117 ], [ 117.31366036561873, 42.408047111322134 ], [ 117.313666441864385, 42.408047094697061 ], [ 117.313666419430376, 42.408042591752285 ], [ 117.313672495675604, 42.408042575126878 ], [ 117.313672450806777, 42.408033569237311 ], [ 117.31367852705111, 42.408033552611599 ], [ 117.313678437311765, 42.408015540832416 ], [ 117.313648056098671, 42.408015623957709 ], [ 117.313648033666027, 42.408011121012898 ], [ 117.313635881181639, 42.408011154260748 ], [ 117.313635858749848, 42.40800665131593 ], [ 117.313629782508087, 42.408006667939382 ], [ 117.313629760076751, 42.408002164994549 ], [ 117.313623683835388, 42.408002181617661 ], [ 117.313623706266299, 42.408006684562501 ], [ 117.31361763002451, 42.408006701185293 ], [ 117.313617674885464, 42.408015707074966 ], [ 117.313611598642822, 42.408015723697439 ], [ 117.313611621072852, 42.408020226642272 ], [ 117.313593392343549, 42.408020276507806 ], [ 117.313593414772313, 42.408024779452631 ], [ 117.313581262285197, 42.408024812694713 ], [ 117.313581284713095, 42.408029315639546 ], [ 117.313611665932967, 42.408029232531923 ], [ 117.313611688363025, 42.408033735476742 ], [ 117.313617764607443, 42.408033718854249 ], [ 117.313617876760006, 42.408056233578272 ], [ 117.313630029253147, 42.40805620033229 ], [ 117.313630051684527, 42.408060703277073 ], [ 117.313636127931531, 42.408060686653599 ], [ 117.313636150363351, 42.408065189598382 ], [ 117.313642226610781, 42.408065172974588 ], [ 117.313642271475331, 42.40807417886414 ] ] ] } },
{ "type": "Feature", "properties": { "crown_id": 7709, "tree_id": "7715", "top_h_m": 23.059, "H_95_Mean": 22.6051, "DBH": 35.4142, "Carbon_kg": 255.717464, "area_m2": 31.25 }, "geometry": { "type": "Polygon", "coordinates": [ [ [ 117.313684513554364, 42.408015524206391 ], [ 117.313702742282146, 42.408015474326383 ], [ 117.313702719845566, 42.408010971381586 ], [ 117.313720948571998, 42.408010921498679 ], [ 117.313720926134152, 42.408006418553896 ], [ 117.313739154859206, 42.408006368668104 ], [ 117.313739109980887, 42.407997362778531 ], [ 117.313726957499256, 42.407997396036045 ], [ 117.31372693506097, 42.407992893091247 ], [ 117.313720858820588, 42.407992909719496 ], [ 117.313720836382743, 42.407988406774713 ], [ 117.313708683902803, 42.407988440030273 ], [ 117.313708661465853, 42.407983937085469 ], [ 117.313696508986752, 42.407983970339735 ], [ 117.313696464114599, 42.407974964450077 ], [ 117.313690387875909, 42.40797498107672 ], [ 117.313690343004623, 42.407965975187061 ], [ 117.313672114291137, 42.407966025065058 ], [ 117.313672069422495, 42.407957019175356 ], [ 117.313665993185523, 42.407957035800713 ], [ 117.313666015619418, 42.407961538745553 ], [ 117.313659939382006, 42.407961555370591 ], [ 117.313659984248957, 42.407970561260285 ], [ 117.313635679295828, 42.407970627757209 ], [ 117.31363583631807, 42.408002148371104 ], [ 117.313641912559405, 42.408002131747345 ], [ 117.313641934991637, 42.408006634692164 ], [ 117.313654087475157, 42.408006601443667 ], [ 117.313654109908214, 42.408011104388486 ], [ 117.313684491119105, 42.408011021261579 ], [ 117.313684513554364, 42.408015524206391 ] ] ] } },
{ "type": "Feature", "properties": { "crown_id": 7718, "tree_id": "7724", "top_h_m": 21.72, "H_95_Mean": 21.5225, "DBH": 35.8235, "Carbon_kg": 254.221713, "area_m2": 35.75 }, "geometry": { "type": "Polygon", "coordinates": [ [ [ 117.313787832120454, 42.408019744459423 ], [ 117.313812137092199, 42.408019677930191 ], [ 117.313812092203406, 42.408010672040703 ], [ 117.313818168445465, 42.408010655407594 ], [ 117.313818146000656, 42.408006152462853 ], [ 117.313836374725483, 42.408006102561593 ], [ 117.313836352279367, 42.408001599616853 ], [ 117.313842428520545, 42.408001582982465 ], [ 117.313842406073988, 42.407997080037724 ], [ 117.313848482314711, 42.407997063403009 ], [ 117.313848414973819, 42.407983554568773 ], [ 117.313854491213235, 42.407983537933745 ], [ 117.313854468765825, 42.407979034988983 ], [ 117.313848392526864, 42.407979051624004 ], [ 117.31384837007991, 42.407974548679249 ], [ 117.313842293841347, 42.40797456531395 ], [ 117.313842248948333, 42.407965559424419 ], [ 117.313817943997549, 42.407965625959967 ], [ 117.313817921552797, 42.407961123015184 ], [ 117.313805769078229, 42.407961156281019 ], [ 117.313805791522142, 42.407965659225809 ], [ 117.313793639046708, 42.407965692490357 ], [ 117.313793661489711, 42.407970195435162 ], [ 117.313775432775216, 42.407970245329572 ], [ 117.313775455216955, 42.40797474827437 ], [ 117.313757226501096, 42.407974798165903 ], [ 117.313757271381974, 42.407983804055498 ], [ 117.313751195142473, 42.407983820685367 ], [ 117.313751262462503, 42.407997329519745 ], [ 117.31376341494412, 42.407997296259659 ], [ 117.313763437384992, 42.408001799204435 ], [ 117.313769513626227, 42.408001782573898 ], [ 117.31376958095025, 42.408015291408219 ], [ 117.313787809677791, 42.408015241514676 ], [ 117.313787832120454, 42.408019744459423 ] ] ] } },
{ "type": "Feature", "properties": { "crown_id": 7751, "tree_id": "7757", "top_h_m": 23.302, "H_95_Mean": 23.3944, "DBH": 29.5315, "Carbon_kg": 180.954959, "area_m2": 14.5 }, "geometry": { "type": "Polygon", "coordinates": [ [ [ 117.313733011301352, 42.407992876462657 ], [ 117.31374516378213, 42.407992843204511 ], [ 117.313745096463407, 42.407979334370118 ], [ 117.313751172702467, 42.407979317740569 ], [ 117.313751105382494, 42.407965808906162 ], [ 117.313738952906959, 42.40796584216492 ], [ 117.313738908028725, 42.407956836275275 ], [ 117.313720679317996, 42.407956886160981 ], [ 117.313720656880193, 42.407952383216141 ], [ 117.313714580643719, 42.407952399844078 ], [ 117.313714558206357, 42.407947896899238 ], [ 117.313708481970295, 42.407947913526833 ], [ 117.313708504407231, 42.407952416471673 ], [ 117.313690275697724, 42.40795246635254 ], [ 117.313690298133352, 42.407956969297381 ], [ 117.313678145659452, 42.407957002549693 ], [ 117.313678168094214, 42.407961505494534 ], [ 117.31369639680635, 42.407961455615585 ], [ 117.313696441678502, 42.407970461505244 ], [ 117.313702517916724, 42.407970444878295 ], [ 117.313702562789771, 42.407979450767932 ], [ 117.313714715267977, 42.407979417513026 ], [ 117.313714737705368, 42.407983920457845 ], [ 117.313726890184441, 42.407983887201645 ], [ 117.313726912622698, 42.407988390146443 ], [ 117.313732988862654, 42.407988373517853 ], [ 117.313733011301352, 42.407992876462657 ] ] ] } }
]
}
