{
"type": "FeatureCollection",
"name": "tile_10_11",
"crs": { "type": "name", "properties": { "name": "urn:ogc:def:crs:OGC:1.3:CRS84" } },
"features": [
{ "type": "Feature", "properties": { "crown_id": 3907, "tree_id": "3910", "top_h_m": 21.64, "H_95_Mean": 22.0023, "DBH": 33.1811, "Carbon_kg": 220.701941, "area_m2": 25.5 }, "geometry": { "type": "Polygon", "coordinates": [ [ [ 117.312453697873394, 42.409779560599219 ], [ 117.312471927114089, 42.409779510913253 ], [ 117.31247190476418, 42.409775007969323 ], [ 117.312490134003511, 42.409774958280479 ], [ 117.312490111652281, 42.409770455336542 ], [ 117.312502264477629, 42.409770422209036 ], [ 117.312502242125547, 42.409765919265105 ], [ 117.312508318537766, 42.409765902700876 ], [ 117.312508229127772, 42.409747890925139 ], [ 117.312502152717286, 42.409747907489368 ], [ 117.312502175069355, 42.409752410433313 ], [ 117.312477869425621, 42.40975247668699 ], [ 117.3124778470753, 42.409747973743031 ], [ 117.312471770664786, 42.40974799030564 ], [ 117.31247172596504, 42.409738984417736 ], [ 117.312465649555406, 42.409739000980018 ], [ 117.312465537808293, 42.409716486260145 ], [ 117.312459461400806, 42.409716502822093 ], [ 117.31245943905185, 42.409711999878112 ], [ 117.312441209830695, 42.409712049562025 ], [ 117.312441187483032, 42.40970754661803 ], [ 117.312435111076411, 42.409707563178678 ], [ 117.312435245159847, 42.409734580842631 ], [ 117.312429168750612, 42.409734597402988 ], [ 117.312429191097436, 42.409739100346968 ], [ 117.312441343916774, 42.409739067225942 ], [ 117.312441522698535, 42.409775090777636 ], [ 117.312453675524793, 42.409775057655281 ], [ 117.312453697873394, 42.409779560599219 ] ] ] } },
{ "type": "Feature", "properties": { "crown_id": 3925, "tree_id": "3928", "top_h_m": 21.111, "H_95_Mean": 22.5341, "DBH": 28.0694, "Carbon_kg": 159.771785, "area_m2": 12.75 }, "geometry": { "type": "Polygon", "coordinates": [ [ [ 117.312392777327744, 42.409748205590311 ], [ 117.312411006559444, 42.409748155914066 ], [ 117.31241096186838, 42.409739150026098 ], [ 117.312423114687761, 42.409739116906998 ], [ 117.312423069994992, 42.409730111019023 ], [ 117.312429146403801, 42.409730094459 ], [ 117.312429012322994, 42.409703076795005 ], [ 117.312416859510563, 42.409703109914716 ], [ 117.312416837164648, 42.409698606970693 ], [ 117.312398607947301, 42.409698656647819 ], [ 117.312398719670412, 42.409721171367913 ], [ 117.312392643262456, 42.409721187926309 ], [ 117.312392777327744, 42.409748205590311 ] ] ] } },
{ "type": "Feature", "properties": { "crown_id": 3963, "tree_id": "3966", "top_h_m": 20.674, "H_95_Mean": 21.3048, "DBH": 35.1937, "Carbon_kg": 243.823578, "area_m2": 34.0 }, "geometry": { "type": "Polygon", "coordinates": [ [ [ 117.312520493715567, 42.409770372515361 ], [ 117.312526570128213, 42.409770355950151 ], [ 117.312526547774411, 42.409765853006235 ], [ 117.312556929835353, 42.409765770175404 ], [ 117.312556862767423, 42.409752261343677 ], [ 117.312562939178292, 42.409752244776556 ], [ 117.312562916821889, 42.409747741832639 ], [ 117.312538611180116, 42.409747808099198 ], [ 117.312538544116151, 42.409734299267406 ], [ 117.312532467707001, 42.409734315833227 ], [ 117.312532400644386, 42.409720807001385 ], [ 117.312538477052229, 42.409720790435564 ], [ 117.312538387633751, 42.409702778659749 ], [ 117.312526234821547, 42.40970281179105 ], [ 117.312526279529024, 42.409711817678975 ], [ 117.312508050308026, 42.409711867373503 ], [ 117.312508005603149, 42.40970286148557 ], [ 117.312495852790875, 42.409702894613638 ], [ 117.312495785736189, 42.409689385781682 ], [ 117.312489709331345, 42.409689402345229 ], [ 117.312489731682476, 42.409693905289224 ], [ 117.312477578871892, 42.409693938415352 ], [ 117.312477623572434, 42.409702944303348 ], [ 117.312459394353937, 42.409702993990138 ], [ 117.312459372004966, 42.409698491046122 ], [ 117.312453295599212, 42.40969850760775 ], [ 117.312453340296258, 42.409707513495746 ], [ 117.312465493109485, 42.409707480372177 ], [ 117.312465515458896, 42.409711983316157 ], [ 117.312471591865915, 42.409711966753889 ], [ 117.312471703615188, 42.409734481473777 ], [ 117.312477780024395, 42.409734464911161 ], [ 117.312477824725008, 42.409743470799086 ], [ 117.312483901135053, 42.40974345423615 ], [ 117.312483923485814, 42.409747957180102 ], [ 117.3124960763068, 42.409747924053271 ], [ 117.312496053955186, 42.409743421109326 ], [ 117.312514283185337, 42.409743371416653 ], [ 117.312514394949986, 42.40976588613632 ], [ 117.312520471362191, 42.409765869571437 ], [ 117.312520493715567, 42.409770372515361 ] ] ] } },
{ "type": "Feature", "properties": { "crown_id": 3964, "tree_id": "3967", "top_h_m": 19.768, "H_95_Mean": 20.0883, "DBH": 31.1198, "Carbon_kg": 183.776228, "area_m2": 23.5 }, "geometry": { "type": "MultiPolygon", "coordinates": [ [ [ [ 117.312581146053162, 42.409747692129336 ], [ 117.31261152810518, 42.409747609284068 ], [ 117.312611550465064, 42.409752112227956 ], [ 117.312617626875905, 42.409752095657936 ], [ 117.312617649236216, 42.409756598601831 ], [ 117.31262372564747, 42.409756582031484 ], [ 117.312623703286718, 42.409752079087596 ], [ 117.312635856108344, 42.409752045945936 ], [ 117.312635811385121, 42.409743040058167 ], [ 117.312647964204956, 42.409743006915235 ], [ 117.312647897117543, 42.409729498083564 ], [ 117.312653973526167, 42.409729481511619 ], [ 117.312653951163284, 42.409724978567723 ], [ 117.312641798346903, 42.409725011711288 ], [ 117.312641775984872, 42.409720508767393 ], [ 117.312635699577115, 42.409720525338685 ], [ 117.312635654853963, 42.409711519450859 ], [ 117.312611349226358, 42.409711585732786 ], [ 117.312611326866516, 42.409707082788863 ], [ 117.312599174053545, 42.409707115927901 ], [ 117.312599129335624, 42.409698110040011 ], [ 117.312580900118732, 42.409698159746128 ], [ 117.312580944834053, 42.409707165634018 ], [ 117.312587021240546, 42.409707149065632 ], [ 117.312587133031059, 42.409729663785278 ], [ 117.312581056622378, 42.409729680353678 ], [ 117.312581146053162, 42.409747692129336 ] ] ], [ [ [ 117.312581146053162, 42.409747692129336 ], [ 117.312575069642733, 42.409747708697431 ], [ 117.312575092000017, 42.409752211641347 ], [ 117.312581168410858, 42.409752195073246 ], [ 117.312581146053162, 42.409747692129336 ] ] ] ] } },
{ "type": "Feature", "properties": { "crown_id": 3998, "tree_id": "4001", "top_h_m": 19.837, "H_95_Mean": 20.818, "DBH": 30.0655, "Carbon_kg": 175.0999, "area_m2": 19.25 }, "geometry": { "type": "Polygon", "coordinates": [ [ [ 117.312544665235464, 42.409743288589105 ], [ 117.312575047285463, 42.409743205753522 ], [ 117.312574957856469, 42.409725193977835 ], [ 117.31258103426471, 42.409725177409754 ], [ 117.312580967191693, 42.409711668577955 ], [ 117.312574890784745, 42.409711685146021 ], [ 117.312574801355893, 42.409693673370235 ], [ 117.312580877761093, 42.409693656802176 ], [ 117.312580765972967, 42.409671142082395 ], [ 117.312562536763849, 42.409671191785542 ], [ 117.312562603832788, 42.409684700617461 ], [ 117.312550451024094, 42.409684733751313 ], [ 117.31255051809049, 42.409698242583211 ], [ 117.312544441684807, 42.409698259149657 ], [ 117.312544575815139, 42.409725276813376 ], [ 117.31253849940687, 42.409725293379523 ], [ 117.31253852176151, 42.409729796323454 ], [ 117.31254459817022, 42.409729779757306 ], [ 117.312544665235464, 42.409743288589105 ] ] ] } },
{ "type": "Feature", "properties": { "crown_id": 4042, "tree_id": "4045", "top_h_m": 19.27, "H_95_Mean": 19.4992, "DBH": 23.9613, "Carbon_kg": 106.618489, "area_m2": 9.0 }, "geometry": { "type": "MultiPolygon", "coordinates": [ [ [ [ 117.312514104362165, 42.409707347865023 ], [ 117.312520180768729, 42.409707331300169 ], [ 117.312520136062119, 42.409698325412229 ], [ 117.312538365279138, 42.409698275715783 ], [ 117.31253834292454, 42.409693772771817 ], [ 117.312544419329782, 42.409693756205691 ], [ 117.312544352264709, 42.409680247373778 ], [ 117.31255650507255, 42.409680214240574 ], [ 117.312556415649041, 42.409662202464659 ], [ 117.312550339246854, 42.409662219031411 ], [ 117.312550361602291, 42.409666721975398 ], [ 117.312538208797051, 42.409666755107942 ], [ 117.312538253506204, 42.409675760995917 ], [ 117.312520024295665, 42.409675810692328 ], [ 117.312520069002233, 42.409684816580295 ], [ 117.312513992597829, 42.409684833145128 ], [ 117.312514037303558, 42.409693839033103 ], [ 117.312501884493017, 42.409693872161803 ], [ 117.312501906845014, 42.409698375105783 ], [ 117.312514059656408, 42.409698341977069 ], [ 117.312514104362165, 42.409707347865023 ] ] ], [ [ [ 117.312556415649041, 42.409662202464659 ], [ 117.312562492051228, 42.409662185897581 ], [ 117.312562469694939, 42.409657682953608 ], [ 117.312556393293178, 42.409657699520672 ], [ 117.312556415649041, 42.409662202464659 ] ] ] ] } },
{ "type": "Feature", "properties": { "crown_id": 4052, "tree_id": "4055", "top_h_m": 18.73, "H_95_Mean": 19.6579, "DBH": 20.9354, "Carbon_kg": 81.610919, "area_m2": 5.25 }, "geometry": { "type": "MultiPolygon", "coordinates": [ [ [ [ 117.312617380912712, 42.409702563274941 ], [ 117.312617403272981, 42.409707066218864 ], [ 117.312623479679473, 42.409707049648546 ], [ 117.312623457318779, 42.409702546704629 ], [ 117.312617380912712, 42.409702563274941 ] ] ], [ [ [ 117.312617380912712, 42.409702563274941 ], [ 117.312617291471724, 42.409684551499204 ], [ 117.31261121506742, 42.409684568069181 ], [ 117.312611192707621, 42.409680065125229 ], [ 117.312599039899851, 42.409680098264225 ], [ 117.312599017540933, 42.40967559532028 ], [ 117.312586864734044, 42.409675628457983 ], [ 117.312586954166306, 42.409693640233805 ], [ 117.312605183381876, 42.409693590526729 ], [ 117.312605228100637, 42.409702596414611 ], [ 117.312617380912712, 42.409702563274941 ] ] ] ] } },
{ "type": "Feature", "properties": { "crown_id": 4069, "tree_id": "4072", "top_h_m": 20.563, "H_95_Mean": 20.6668, "DBH": 31.9658, "Carbon_kg": 197.269556, "area_m2": 24.75 }, "geometry": { "type": "Polygon", "coordinates": [ [ [ 117.312435088729174, 42.409703060234676 ], [ 117.312441165135382, 42.409703043674028 ], [ 117.312441142787705, 42.409698540730012 ], [ 117.312447219193487, 42.409698524169038 ], [ 117.312447196845383, 42.409694021225036 ], [ 117.312465426061308, 42.409693971540186 ], [ 117.312465448410705, 42.409698474484188 ], [ 117.312471524816445, 42.409698457921927 ], [ 117.312471480116798, 42.40968945203393 ], [ 117.312483632926515, 42.409689418908449 ], [ 117.312483610575811, 42.409684915964455 ], [ 117.31250183978905, 42.409684866273828 ], [ 117.312501862141048, 42.409689369217816 ], [ 117.312507938545849, 42.409689352653622 ], [ 117.312507893841016, 42.409680346765654 ], [ 117.312513970244993, 42.409680330201141 ], [ 117.312513925539321, 42.409671324313159 ], [ 117.312532154748553, 42.409671274617729 ], [ 117.312532110040294, 42.409662268729726 ], [ 117.312519957235864, 42.40966230186033 ], [ 117.312519934882616, 42.409657798916328 ], [ 117.312526011284376, 42.409657782351196 ], [ 117.312525988930702, 42.409653279407188 ], [ 117.312513836128019, 42.409653312537131 ], [ 117.312513813775212, 42.409648809593122 ], [ 117.31250773737429, 42.409648826157614 ], [ 117.312507715021923, 42.409644323213591 ], [ 117.312501638621427, 42.409644339777756 ], [ 117.312501660973354, 42.409648842721772 ], [ 117.312483431770573, 42.409648892412342 ], [ 117.312483476471854, 42.409657898300388 ], [ 117.312477400070037, 42.409657914863267 ], [ 117.312477422420258, 42.40966241780729 ], [ 117.312471346018, 42.409662434369864 ], [ 117.31247139071759, 42.409671440257902 ], [ 117.312459237911327, 42.409671473382069 ], [ 117.312459260260241, 42.409675976326092 ], [ 117.312434954645937, 42.409676042570574 ], [ 117.312434976993131, 42.409680545514604 ], [ 117.312428900589111, 42.409680562074925 ], [ 117.312428945282647, 42.409689567962964 ], [ 117.312422868877761, 42.409689584522965 ], [ 117.31242291357043, 42.409698590411004 ], [ 117.312435066381951, 42.40969855729066 ], [ 117.312435088729174, 42.409703060234676 ] ] ] } },
{ "type": "Feature", "properties": { "crown_id": 4127, "tree_id": "4130", "top_h_m": 18.93, "H_95_Mean": 19.8792, "DBH": 26.5851, "Carbon_kg": 132.967371, "area_m2": 13.0 }, "geometry": { "type": "MultiPolygon", "coordinates": [ [ [ [ 117.31258058711218, 42.409635118530517 ], [ 117.312586663511752, 42.409635101962181 ], [ 117.312586641153743, 42.409630599018179 ], [ 117.312580564754612, 42.409630615586529 ], [ 117.31258058711218, 42.409635118530517 ] ] ], [ [ [ 117.31258058711218, 42.409635118530517 ], [ 117.312574510712636, 42.40963513509854 ], [ 117.312574488355494, 42.409630632154538 ], [ 117.312562335557232, 42.409630665289626 ], [ 117.312562447338635, 42.409653180009613 ], [ 117.312568523739941, 42.409653163442229 ], [ 117.312568546096671, 42.409657666386209 ], [ 117.312574622498403, 42.409657649818492 ], [ 117.312574667212743, 42.409666655706452 ], [ 117.312586820017941, 42.40966662257005 ], [ 117.312586842375993, 42.409671125514016 ], [ 117.312592918778989, 42.409671108945339 ], [ 117.312592896420512, 42.409666606001366 ], [ 117.312611125628251, 42.409666556293374 ], [ 117.312611036189168, 42.409648544517509 ], [ 117.312604959788331, 42.409648561087153 ], [ 117.312604892710354, 42.409635052255204 ], [ 117.312586663511752, 42.409635101962181 ], [ 117.312586685869746, 42.409639604906168 ], [ 117.312580609469777, 42.409639621474511 ], [ 117.31258058711218, 42.409635118530517 ] ] ], [ [ [ 117.312586641153743, 42.409630599018179 ], [ 117.31259271755286, 42.409630582449509 ], [ 117.312592695194397, 42.409626079505507 ], [ 117.312586618795748, 42.409626096074177 ], [ 117.312586641153743, 42.409630599018179 ] ] ] ] } },
{ "type": "Feature", "properties": { "crown_id": 4145, "tree_id": "4148", "top_h_m": 20.301, "H_95_Mean": 20.5273, "DBH": 32.8923, "Carbon_kg": 208.127699, "area_m2": 28.0 }, "geometry": { "type": "Polygon", "coordinates": [ [ [ 117.312392509197338, 42.409694170262185 ], [ 117.312416814818732, 42.409694104026684 ], [ 117.31241677012693, 42.409685098138631 ], [ 117.312422846531405, 42.409685081578957 ], [ 117.312422801838764, 42.409676075690889 ], [ 117.312428878242358, 42.409676059130895 ], [ 117.312428788855385, 42.409658047354739 ], [ 117.312422712453525, 42.409658063914726 ], [ 117.312422623068358, 42.409640052138506 ], [ 117.312410470268105, 42.409640085257493 ], [ 117.312410425577298, 42.409631079369355 ], [ 117.312373967181614, 42.409631178718541 ], [ 117.31237392249605, 42.40962217283036 ], [ 117.312361769699194, 42.40962220594416 ], [ 117.312361792041116, 42.409626708888261 ], [ 117.312343562844475, 42.409626758556556 ], [ 117.312343585185104, 42.409631261500664 ], [ 117.312355737983722, 42.40963122838879 ], [ 117.312355760325218, 42.409635731332884 ], [ 117.312361836724961, 42.409635714776449 ], [ 117.312361859066883, 42.409640217720543 ], [ 117.312367935467066, 42.409640201163789 ], [ 117.312368024836573, 42.409658212940101 ], [ 117.312386254042281, 42.409658163267878 ], [ 117.312386343417089, 42.40967617504409 ], [ 117.312374190609802, 42.409676208159254 ], [ 117.312374235295508, 42.409685214047357 ], [ 117.312380311700011, 42.409685197489935 ], [ 117.312380334043297, 42.409689700433979 ], [ 117.312392486853184, 42.409689667318148 ], [ 117.312392509197338, 42.409694170262185 ] ], [ [ 117.312404617317995, 42.409685131257014 ], [ 117.312404594972975, 42.409680628312984 ], [ 117.312416747781043, 42.409680595194601 ], [ 117.31241677012693, 42.409685098138631 ], [ 117.312404617317995, 42.409685131257014 ] ] ] } },
{ "type": "Feature", "properties": { "crown_id": 4191, "tree_id": "4194", "top_h_m": 20.615, "H_95_Mean": 20.2084, "DBH": 34.3883, "Carbon_kg": 225.548609, "area_m2": 34.25 }, "geometry": { "type": "Polygon", "coordinates": [ [ [ 117.312434932298757, 42.409671539626544 ], [ 117.312453161508202, 42.409671489943669 ], [ 117.312453139159715, 42.409666986999653 ], [ 117.312465291965111, 42.409666953876126 ], [ 117.312465247266402, 42.409657947988066 ], [ 117.312471323668234, 42.409657931425841 ], [ 117.312471301318453, 42.409653428481803 ], [ 117.31247737771983, 42.409653411919251 ], [ 117.312477333019416, 42.409644406031191 ], [ 117.312495562220931, 42.409644356341595 ], [ 117.312495495166459, 42.409630847509504 ], [ 117.312501571565647, 42.409630830945659 ], [ 117.312501549213721, 42.409626328001629 ], [ 117.312489396416225, 42.409626361128964 ], [ 117.312489307012072, 42.409608349352766 ], [ 117.312483230615044, 42.409608365915943 ], [ 117.312483185913877, 42.409599360027826 ], [ 117.312464956725378, 42.409599409715398 ], [ 117.312464979074647, 42.40960391265947 ], [ 117.312428520694908, 42.409604012025959 ], [ 117.312428587734971, 42.409617520858198 ], [ 117.312422511337033, 42.409617537418157 ], [ 117.312422578375788, 42.409631046250389 ], [ 117.312416501976557, 42.409631062810035 ], [ 117.312416524322401, 42.409635565754108 ], [ 117.312428677121758, 42.409635532634489 ], [ 117.312428766508631, 42.409653544410702 ], [ 117.312434842910051, 42.409653527850395 ], [ 117.312434932298757, 42.409671539626544 ] ] ] } },
{ "type": "Feature", "properties": { "crown_id": 4229, "tree_id": "4232", "top_h_m": 18.686, "H_95_Mean": 19.04, "DBH": 20.0946, "Carbon_kg": 73.733536, "area_m2": 4.75 }, "geometry": { "type": "Polygon", "coordinates": [ [ [ 117.312380021237686, 42.409626659217061 ], [ 117.312416479630713, 42.409626559865963 ], [ 117.312416412593251, 42.409613051033716 ], [ 117.312422488990762, 42.409613034474077 ], [ 117.312422466644506, 42.40960853152999 ], [ 117.312398161056166, 42.409608597766599 ], [ 117.312398205745197, 42.409617603654787 ], [ 117.312379976551242, 42.409617653328873 ], [ 117.312380021237686, 42.409626659217061 ] ] ] } },
{ "type": "Feature", "properties": { "crown_id": 4311, "tree_id": "4314", "top_h_m": 9.875, "H_95_Mean": 10.039, "DBH": 23.2255, "Carbon_kg": 67.60808, "area_m2": 28.25 }, "geometry": { "type": "Polygon", "coordinates": [ [ [ 117.312574376569899, 42.409608117434473 ], [ 117.312580452966841, 42.409608100866464 ], [ 117.312580385894236, 42.409594592034402 ], [ 117.312586462289858, 42.409594575466073 ], [ 117.312586507005818, 42.409603581354119 ], [ 117.312592583402306, 42.409603564785478 ], [ 117.312592561043886, 42.409599061841455 ], [ 117.312598637439947, 42.409599045272479 ], [ 117.312598659798795, 42.409603548216502 ], [ 117.312629041781207, 42.409603465366814 ], [ 117.3126290194202, 42.409598962422812 ], [ 117.31265940140031, 42.409598879565088 ], [ 117.312659379037143, 42.409594376621087 ], [ 117.312671531828272, 42.409594343475746 ], [ 117.312671420008101, 42.409571828755759 ], [ 117.312659267221306, 42.409571861901071 ], [ 117.312659244858139, 42.409567358957048 ], [ 117.312665321251117, 42.409567342384562 ], [ 117.312665298887552, 42.409562839440554 ], [ 117.312647069709939, 42.409562889157051 ], [ 117.312647092072211, 42.409567392101074 ], [ 117.312641015679233, 42.409567408672594 ], [ 117.312640970955542, 42.40955840278454 ], [ 117.312634894563431, 42.409558419355733 ], [ 117.312634849840634, 42.409549413467658 ], [ 117.31262877344939, 42.409549430038545 ], [ 117.31262879581034, 42.409553932982568 ], [ 117.312622719418655, 42.409553949553136 ], [ 117.312622764139732, 42.409562955441217 ], [ 117.31260453496202, 42.409563005150972 ], [ 117.312604579680482, 42.409572011039039 ], [ 117.31259850328702, 42.409572027608313 ], [ 117.312598480928216, 42.409567524664276 ], [ 117.312592404535209, 42.409567541233216 ], [ 117.312592449251952, 42.409576547121304 ], [ 117.312580296464162, 42.409576580258253 ], [ 117.312580363536696, 42.409590089090358 ], [ 117.312568210746278, 42.409590122226035 ], [ 117.312568277816268, 42.40960363105814 ], [ 117.312574354212785, 42.409603614490457 ], [ 117.312574376569899, 42.409608117434473 ] ], [ [ 117.312628952337192, 42.409585453590786 ], [ 117.312628885254227, 42.409571944758724 ], [ 117.312647114434483, 42.409571895045097 ], [ 117.31264718152137, 42.409585403877138 ], [ 117.312628952337192, 42.409585453590786 ] ], [ [ 117.31265933431078, 42.409585370733097 ], [ 117.312659311947613, 42.409580867789096 ], [ 117.312665388341898, 42.409580851216589 ], [ 117.312665410705492, 42.40958535416059 ], [ 117.31265933431078, 42.409585370733097 ] ] ] } },
{ "type": "Feature", "properties": { "crown_id": 4340, "tree_id": "4343", "top_h_m": 18.175, "H_95_Mean": 19.14, "DBH": 20.4128, "Carbon_kg": 76.341862, "area_m2": 5.0 }, "geometry": { "type": "Polygon", "coordinates": [ [ [ 117.312379842492064, 42.409590635664216 ], [ 117.31240414807354, 42.409590569431529 ], [ 117.312404125728619, 42.409586066487414 ], [ 117.31241020212353, 42.409586049928443 ], [ 117.312410157432851, 42.409577044040205 ], [ 117.312404081038792, 42.409577060599183 ], [ 117.312404036349008, 42.409568054710938 ], [ 117.312391883562611, 42.409568087827907 ], [ 117.312391905906651, 42.409572590772036 ], [ 117.312379753119387, 42.409572623887719 ], [ 117.312379842492064, 42.409590635664216 ] ] ] } },
{ "type": "Feature", "properties": { "crown_id": 4370, "tree_id": "4373", "top_h_m": 19.38, "H_95_Mean": 19.3827, "DBH": 31.9338, "Carbon_kg": 189.542198, "area_m2": 27.75 }, "geometry": { "type": "Polygon", "coordinates": [ [ [ 117.312373877810501, 42.409613166942158 ], [ 117.312392107003149, 42.409613117269046 ], [ 117.312392062314998, 42.409604111380851 ], [ 117.312422444298264, 42.40960402858591 ], [ 117.312422421952036, 42.409599525641809 ], [ 117.312458880329203, 42.409599426277289 ], [ 117.31245885798036, 42.409594923333195 ], [ 117.312483163563314, 42.409594857083746 ], [ 117.312483141212738, 42.409590354139674 ], [ 117.312489217608004, 42.40959033757651 ], [ 117.312489195257001, 42.409585834632438 ], [ 117.312483118862161, 42.409585851195601 ], [ 117.312483096511599, 42.409581348251521 ], [ 117.312489172906027, 42.409581331688358 ], [ 117.31248915055501, 42.409576828744271 ], [ 117.312483074161051, 42.409576845307434 ], [ 117.312483051810503, 42.40957234236334 ], [ 117.312476975416942, 42.409572358926184 ], [ 117.31247695306682, 42.40956785598209 ], [ 117.312464800280566, 42.409567889106782 ], [ 117.312464755582084, 42.409558883218573 ], [ 117.312458679189831, 42.409558899780436 ], [ 117.312458656841031, 42.409554396836327 ], [ 117.312452580449204, 42.409554413397856 ], [ 117.312452602797563, 42.409558916341972 ], [ 117.31241006805152, 42.409559032263715 ], [ 117.312410135087518, 42.40957254109609 ], [ 117.312416211481121, 42.409572524536806 ], [ 117.312416300864228, 42.409590536313246 ], [ 117.312410224468891, 42.409590552872544 ], [ 117.312410246814238, 42.409595055816638 ], [ 117.312385941231057, 42.409595122050639 ], [ 117.312385985918311, 42.409604127938863 ], [ 117.312379909521638, 42.409604144496562 ], [ 117.312379931864839, 42.409608647440663 ], [ 117.31237385546774, 42.409608663998043 ], [ 117.312373877810501, 42.409613166942158 ] ] ] } }
]
}
