{
"type": "FeatureCollection",
"name": "tile_3_14",
"crs": { "type": "name", "properties": { "name": "urn:ogc:def:crs:OGC:1.3:CRS84" } },
"features": [
{ "type": "Feature", "properties": { "crown_id": 907, "tree_id": "908", "top_h_m": 16.875, "H_95_Mean": 17.2166, "DBH": 24.8198, "Carbon_kg": 106.332309, "area_m2": 13.0 }, "geometry": { "type": "Polygon", "coordinates": [ [ [ 117.313164699338628, 42.411011443720696 ], [ 117.313201158530902, 42.411011344117433 ], [ 117.313201136127859, 42.411006841174789 ], [ 117.313213289191026, 42.411006807971127 ], [ 117.313213199575472, 42.410988796200527 ], [ 117.313207123045629, 42.410988812802508 ], [ 117.313207078238733, 42.410979806917176 ], [ 117.313201001709757, 42.410979823518829 ], [ 117.313200956903756, 42.410970817633476 ], [ 117.313194880375647, 42.410970834234803 ], [ 117.313194925180753, 42.410979840120149 ], [ 117.313176695593768, 42.41097988992221 ], [ 117.313176673192515, 42.410975386979537 ], [ 117.313170596663937, 42.41097540357957 ], [ 117.313170686267256, 42.410993415350291 ], [ 117.313164609736958, 42.410993431950018 ], [ 117.313164699338628, 42.411011443720696 ] ] ] } },
{ "type": "Feature", "properties": { "crown_id": 927, "tree_id": "928", "top_h_m": 18.538, "H_95_Mean": 18.844, "DBH": 28.9584, "Carbon_kg": 153.057888, "area_m2": 20.0 }, "geometry": { "type": "Polygon", "coordinates": [ [ [ 117.313128352135379, 42.411034058025706 ], [ 117.313146581738138, 42.411034008231283 ], [ 117.31314653693984, 42.411025002345959 ], [ 117.313140460406458, 42.411025018944422 ], [ 117.313140393210347, 42.411011510116424 ], [ 117.313158622806569, 42.411011460320111 ], [ 117.313158510806645, 42.410988945606739 ], [ 117.313164587336544, 42.410988929007345 ], [ 117.313164564936145, 42.410984426064665 ], [ 117.313146335347767, 42.410984475861895 ], [ 117.313146312948675, 42.410979972919201 ], [ 117.313140236419642, 42.410979989517635 ], [ 117.313140214020976, 42.410975486574934 ], [ 117.313109831377901, 42.410975569562254 ], [ 117.313109898567362, 42.410989078390365 ], [ 117.313103822037419, 42.410989094986881 ], [ 117.313103844433485, 42.410993597929576 ], [ 117.313097767903116, 42.410993614525765 ], [ 117.313097790298741, 42.410998117468466 ], [ 117.31310386682955, 42.410998100872277 ], [ 117.313103889225616, 42.411002603814971 ], [ 117.313109965756865, 42.411002587218462 ], [ 117.313109988153386, 42.411007090161156 ], [ 117.313116064685062, 42.411007073564313 ], [ 117.313116109478955, 42.411016079449688 ], [ 117.313122186011498, 42.411016062852525 ], [ 117.313122253203716, 42.411029571680523 ], [ 117.313128329737523, 42.411029555083026 ], [ 117.313128352135379, 42.411034058025706 ] ] ] } },
{ "type": "Feature", "properties": { "crown_id": 928, "tree_id": "929", "top_h_m": 16.586, "H_95_Mean": 17.2457, "DBH": 29.3976, "Carbon_kg": 149.714881, "area_m2": 25.0 }, "geometry": { "type": "Polygon", "coordinates": [ [ [ 117.313310603339204, 42.411024554065868 ], [ 117.313322756405654, 42.411024520850589 ], [ 117.313322711582174, 42.411015514965413 ], [ 117.313328788114546, 42.411015498357301 ], [ 117.313328765702366, 42.411010995414706 ], [ 117.313334842234269, 42.411010978806267 ], [ 117.313334819821691, 42.411006475863694 ], [ 117.313340896353168, 42.411006459254928 ], [ 117.313340851527116, 42.410997453369752 ], [ 117.313371234180067, 42.410997370321176 ], [ 117.313371166934516, 42.410983861493406 ], [ 117.313359013875953, 42.410983894713787 ], [ 117.313358991461641, 42.410979391771178 ], [ 117.313352914932793, 42.410979408380889 ], [ 117.313352892518907, 42.410974905438273 ], [ 117.313340739462078, 42.410974938656722 ], [ 117.313340761875068, 42.410979441599338 ], [ 117.313310379230657, 42.410979524639799 ], [ 117.313310356819827, 42.410975021697176 ], [ 117.313298203762912, 42.410975054911113 ], [ 117.313298181352963, 42.410970551968482 ], [ 117.313286028296886, 42.410970585181104 ], [ 117.313286073115052, 42.410979591066379 ], [ 117.313279996586118, 42.410979607672225 ], [ 117.313280018994774, 42.410984110614862 ], [ 117.313286095524134, 42.410984094009017 ], [ 117.313286252387925, 42.411015614607351 ], [ 117.313310558517458, 42.411015548180679 ], [ 117.313310603339204, 42.411024554065868 ] ] ] } },
{ "type": "Feature", "properties": { "crown_id": 942, "tree_id": "943", "top_h_m": 16.08, "H_95_Mean": 16.775, "DBH": 22.7606, "Carbon_kg": 87.938471, "area_m2": 9.75 }, "geometry": { "type": "Polygon", "coordinates": [ [ [ 117.313219320913959, 42.410997785483517 ], [ 117.313267933159452, 42.410997652653464 ], [ 117.313267910751648, 42.410993149710848 ], [ 117.313280063812101, 42.410993116500116 ], [ 117.313280041403445, 42.410988613557492 ], [ 117.313273964873645, 42.410988630163018 ], [ 117.313273897648983, 42.410975121335099 ], [ 117.313279974177476, 42.410975104729587 ], [ 117.313279929360178, 42.410966098844298 ], [ 117.31327385283258, 42.41096611544981 ], [ 117.313273875240782, 42.410970618392454 ], [ 117.313249569128502, 42.410970684811289 ], [ 117.313249636347948, 42.410984193639237 ], [ 117.313231406759797, 42.410984243449995 ], [ 117.313231429164972, 42.410988746392654 ], [ 117.313219276105315, 42.410988779598213 ], [ 117.313219320913959, 42.410997785483517 ] ] ] } },
{ "type": "Feature", "properties": { "crown_id": 1014, "tree_id": "1015", "top_h_m": 18.106, "H_95_Mean": 19.024, "DBH": 30.8904, "Carbon_kg": 175.319458, "area_m2": 25.25 }, "geometry": { "type": "Polygon", "coordinates": [ [ [ 117.31321317717159, 42.410984293257869 ], [ 117.313225330230381, 42.410984260052942 ], [ 117.313225307825647, 42.410979757110276 ], [ 117.313243537412532, 42.410979707300491 ], [ 117.313243470194408, 42.410966198472529 ], [ 117.313267776304954, 42.410966132054995 ], [ 117.313267753897179, 42.410961629112336 ], [ 117.31327990695155, 42.410961595901639 ], [ 117.313279862134294, 42.410952590016343 ], [ 117.313273785607976, 42.410952606621848 ], [ 117.313273763199788, 42.410948103679175 ], [ 117.31326768667391, 42.41094812028436 ], [ 117.313267664266178, 42.41094361734168 ], [ 117.313273740791615, 42.410943600736502 ], [ 117.313273718383428, 42.410939097793836 ], [ 117.313261565333391, 42.410939131003857 ], [ 117.313261542926099, 42.410934628061192 ], [ 117.3132554664015, 42.410934644665709 ], [ 117.313255443994649, 42.410930141723028 ], [ 117.313225061373799, 42.410930224740817 ], [ 117.313225038969108, 42.410925721798108 ], [ 117.313218962445347, 42.410925738400692 ], [ 117.313219007253863, 42.410934744286088 ], [ 117.313212930729236, 42.410934760888374 ], [ 117.313212975536885, 42.410943766773762 ], [ 117.313206899011377, 42.410943783375707 ], [ 117.313206966221614, 42.41095729220379 ], [ 117.313200889694798, 42.410957308805436 ], [ 117.31320093450077, 42.410966314690803 ], [ 117.313207011028453, 42.41096629808915 ], [ 117.313207055835292, 42.410975303974503 ], [ 117.313213132363828, 42.41097528737253 ], [ 117.31321317717159, 42.410984293257869 ] ] ] } },
{ "type": "Feature", "properties": { "crown_id": 1039, "tree_id": "1040", "top_h_m": 20.788, "H_95_Mean": 20.75, "DBH": 33.2121, "Carbon_kg": 213.585076, "area_m2": 28.5 }, "geometry": { "type": "Polygon", "coordinates": [ [ [ 117.313152389477693, 42.410979956320446 ], [ 117.313164542535731, 42.410979923121971 ], [ 117.313164497734945, 42.410970917236597 ], [ 117.313182727319358, 42.410970867436497 ], [ 117.313182749721079, 42.410975370379177 ], [ 117.313188826249629, 42.41097535377849 ], [ 117.313188781445376, 42.410966347893122 ], [ 117.313182704917693, 42.410966364493802 ], [ 117.313182682516015, 42.410961861551108 ], [ 117.313188759043257, 42.410961844950428 ], [ 117.313188736641166, 42.410957342007734 ], [ 117.313194813167982, 42.410957325406741 ], [ 117.313194790765422, 42.410952822464054 ], [ 117.313200867291812, 42.410952805862742 ], [ 117.313200822485882, 42.410943799977346 ], [ 117.313194745960359, 42.410943816578651 ], [ 117.313194701155325, 42.410934810693256 ], [ 117.313182548106028, 42.410934843894886 ], [ 117.313182525704391, 42.410930340952184 ], [ 117.313164296131703, 42.410930390752213 ], [ 117.31316427373136, 42.410925887809483 ], [ 117.313146044159922, 42.410925937606621 ], [ 117.3131460217609, 42.410921434663884 ], [ 117.313127792190727, 42.410921484458115 ], [ 117.313127814588455, 42.410925987400859 ], [ 117.313109585016932, 42.410926037192183 ], [ 117.313109607413367, 42.410930540134942 ], [ 117.313115683937625, 42.410930523538141 ], [ 117.313115751128251, 42.410944032366359 ], [ 117.313121827653845, 42.410944015769246 ], [ 117.313121917243123, 42.410962027540144 ], [ 117.313127993770451, 42.41096201094269 ], [ 117.313128038565992, 42.410971016828121 ], [ 117.313146268150476, 42.410970967033812 ], [ 117.313146290549582, 42.410975469976506 ], [ 117.313152367078175, 42.410975453377759 ], [ 117.313152389477693, 42.410979956320446 ] ], [ [ 117.31314620095327, 42.410957458205687 ], [ 117.313146133756092, 42.41094394937754 ], [ 117.313164363332717, 42.410943899580374 ], [ 117.313164430533817, 42.410957408408493 ], [ 117.31314620095327, 42.410957458205687 ] ] ] } },
{ "type": "Feature", "properties": { "crown_id": 1091, "tree_id": "1092", "top_h_m": 19.51, "H_95_Mean": 19.941, "DBH": 28.1997, "Carbon_kg": 150.020776, "area_m2": 16.25 }, "geometry": { "type": "Polygon", "coordinates": [ [ [ 117.313200800082925, 42.410939297034645 ], [ 117.313206876607978, 42.410939280433027 ], [ 117.31320683180121, 42.41093027454761 ], [ 117.313212908325411, 42.410930257945665 ], [ 117.313212818710184, 42.410912246174817 ], [ 117.313206742187745, 42.410912262776755 ], [ 117.31320667497765, 42.410898753948572 ], [ 117.313182368892996, 42.410898820353061 ], [ 117.313182346491402, 42.410894317410317 ], [ 117.31317626997064, 42.410894334010635 ], [ 117.313176247569487, 42.410889831067877 ], [ 117.31316409452883, 42.410889864267538 ], [ 117.313164161729759, 42.410903373095792 ], [ 117.313152008686473, 42.410903406294182 ], [ 117.313152031085934, 42.410907909236926 ], [ 117.313145954563851, 42.410907925835645 ], [ 117.313145999361879, 42.41091693172114 ], [ 117.31315207588483, 42.410916915122428 ], [ 117.313152098284277, 42.410921418065165 ], [ 117.313170327854394, 42.410921368267076 ], [ 117.313170350255149, 42.410925871209791 ], [ 117.313188579826502, 42.410925821408803 ], [ 117.313188602228578, 42.410930324351526 ], [ 117.313200755277023, 42.410930291149235 ], [ 117.313200800082925, 42.410939297034645 ] ] ] } },
{ "type": "Feature", "properties": { "crown_id": 1108, "tree_id": "1109", "top_h_m": 22.092, "H_95_Mean": 21.1308, "DBH": 42.1474, "Carbon_kg": 348.974651, "area_m2": 69.5 }, "geometry": { "type": "Polygon", "coordinates": [ [ [ 117.313365067990489, 42.410979375161148 ], [ 117.313371144519337, 42.410979358550811 ], [ 117.313371054858692, 42.410961346780383 ], [ 117.313364978331578, 42.410961363390733 ], [ 117.313364933502143, 42.410952357505494 ], [ 117.31335885697591, 42.41095237411551 ], [ 117.313358789733101, 42.410938865287619 ], [ 117.313364866258041, 42.410938848677617 ], [ 117.313364843843374, 42.410934345734979 ], [ 117.313358767318846, 42.410934362344982 ], [ 117.313358677661881, 42.410916350574404 ], [ 117.313364754184647, 42.410916333964416 ], [ 117.313364597282089, 42.410884813365769 ], [ 117.313358520762378, 42.410884829975728 ], [ 117.313358498348194, 42.410880327033055 ], [ 117.313346345309597, 42.41088036025203 ], [ 117.31334632289628, 42.410875857309335 ], [ 117.313315940301862, 42.410875940351119 ], [ 117.313315917890733, 42.410871437408417 ], [ 117.313297688335354, 42.410871487229613 ], [ 117.313297710745189, 42.410875990172329 ], [ 117.313291634226289, 42.41087600677875 ], [ 117.313291589407456, 42.410867000893319 ], [ 117.313303742443537, 42.410866967680157 ], [ 117.313303697623027, 42.410857961794719 ], [ 117.313291544588679, 42.410857995007859 ], [ 117.313291522179313, 42.410853492065137 ], [ 117.313285445662572, 42.410853508671231 ], [ 117.313285468071513, 42.410858011613968 ], [ 117.313279391554346, 42.410858028219728 ], [ 117.313279413962846, 42.410862531162451 ], [ 117.313285490480453, 42.410862514556683 ], [ 117.313285580116329, 42.410880526327567 ], [ 117.313279503596959, 42.410880542933349 ], [ 117.313279570822615, 42.410894051761488 ], [ 117.313285647343278, 42.410894035155685 ], [ 117.313285759388307, 42.410916549869157 ], [ 117.31327968286547, 42.41091656647496 ], [ 117.313279705274056, 42.41092106941764 ], [ 117.313285781797333, 42.410921052811837 ], [ 117.31328582661537, 42.41093005869719 ], [ 117.313291903139515, 42.410930042091067 ], [ 117.313291925548981, 42.410934545033733 ], [ 117.313279772499826, 42.410934578245673 ], [ 117.313279794908439, 42.410939081188339 ], [ 117.313291947958461, 42.410939047976399 ], [ 117.313292082415416, 42.410966065632316 ], [ 117.313304235470596, 42.41096603241904 ], [ 117.313304257880986, 42.41097053536167 ], [ 117.313316410937048, 42.410970502147109 ], [ 117.313316433348305, 42.410975005089732 ], [ 117.313334662933627, 42.410974955265459 ], [ 117.313334640521077, 42.410970452322843 ], [ 117.313358946633045, 42.410970385885975 ], [ 117.313358969047329, 42.410974888828576 ], [ 117.31336504557575, 42.41097487221856 ], [ 117.313365067990489, 42.410979375161148 ] ] ] } },
{ "type": "Feature", "properties": { "crown_id": 1112, "tree_id": "1113", "top_h_m": 18.079, "H_95_Mean": 18.1922, "DBH": 29.6834, "Carbon_kg": 157.564386, "area_m2": 23.5 }, "geometry": { "type": "MultiPolygon", "coordinates": [ [ [ [ 117.313267597042966, 42.410930108513654 ], [ 117.313267619450684, 42.410934611456341 ], [ 117.313273695975255, 42.41093459485117 ], [ 117.31327367356711, 42.410930091908497 ], [ 117.313267597042966, 42.410930108513654 ] ] ], [ [ [ 117.313267597042966, 42.410930108513654 ], [ 117.313267574635233, 42.410925605570974 ], [ 117.313273651158951, 42.410925588965803 ], [ 117.313273583934489, 42.410912080137749 ], [ 117.313279660456885, 42.410912063532272 ], [ 117.313279593231172, 42.410898554704175 ], [ 117.313273516710083, 42.410898571309652 ], [ 117.313273404669502, 42.410876056596081 ], [ 117.313267328150573, 42.410876073201216 ], [ 117.313267305742926, 42.410871570258493 ], [ 117.313261229224409, 42.410871586863308 ], [ 117.313261251631644, 42.410876089806031 ], [ 117.313249098593758, 42.410876123014695 ], [ 117.31324912100014, 42.410880625957432 ], [ 117.31323696796133, 42.410880659164796 ], [ 117.313237012772348, 42.410889665050256 ], [ 117.313218783211553, 42.410889714858925 ], [ 117.31321882801997, 42.410898720744392 ], [ 117.313212751498824, 42.410898737346656 ], [ 117.313212796306402, 42.410907743232102 ], [ 117.313218872828401, 42.410907726629844 ], [ 117.313218940041111, 42.410921235457991 ], [ 117.313231093087751, 42.410921202252503 ], [ 117.31323111549284, 42.410925705195197 ], [ 117.313261498111501, 42.410925622175817 ], [ 117.313261520518822, 42.410930125118497 ], [ 117.313267597042966, 42.410930108513654 ] ] ] ] } },
{ "type": "Feature", "properties": { "crown_id": 1186, "tree_id": "1187", "top_h_m": 20.212, "H_95_Mean": 19.8827, "DBH": 36.61, "Carbon_kg": 253.434466, "area_m2": 45.0 }, "geometry": { "type": "Polygon", "coordinates": [ [ [ 117.313188423012136, 42.410894300809687 ], [ 117.313212729095042, 42.410894234403919 ], [ 117.313212684287492, 42.410885228518438 ], [ 117.313230913847022, 42.410885178710743 ], [ 117.3132308690369, 42.410876172825269 ], [ 117.313243022074815, 42.410876139618544 ], [ 117.313242999668873, 42.410871636675807 ], [ 117.313255152705906, 42.41087160346779 ], [ 117.31325506307877, 42.410853591696849 ], [ 117.313248986562002, 42.410853608300997 ], [ 117.313248941749336, 42.410844602415487 ], [ 117.313242865233434, 42.410844619019322 ], [ 117.313242842827549, 42.410840116076557 ], [ 117.313236766312059, 42.41084013268005 ], [ 117.3132367439066, 42.410835629737292 ], [ 117.313224590876501, 42.410835662943327 ], [ 117.313224523662782, 42.410822154114996 ], [ 117.313218447149055, 42.410822170717523 ], [ 117.313218424744917, 42.41081766777473 ], [ 117.313206271718258, 42.410817700978811 ], [ 117.313206294121528, 42.410822203921605 ], [ 117.313188064580189, 42.410822253725328 ], [ 117.313188086982152, 42.410826756668129 ], [ 117.313175933953687, 42.410826789869006 ], [ 117.313175978755893, 42.410835795754593 ], [ 117.313182055270985, 42.410835779154318 ], [ 117.313182077672522, 42.410840282097105 ], [ 117.313169924641457, 42.410840315297349 ], [ 117.313169947042127, 42.410844818240143 ], [ 117.313157794010181, 42.410844851439116 ], [ 117.313157816409984, 42.410849354381895 ], [ 117.313151739893584, 42.410849370980905 ], [ 117.313151784692323, 42.410858376866486 ], [ 117.313163937726898, 42.410858343668139 ], [ 117.313164072128544, 42.410885361324773 ], [ 117.313182301688201, 42.410885311524815 ], [ 117.31318232408978, 42.410889814467559 ], [ 117.313188400610088, 42.410889797866922 ], [ 117.313188423012136, 42.410894300809687 ] ], [ [ 117.31323683352845, 42.410853641508339 ], [ 117.313236811122977, 42.410849138565595 ], [ 117.313242887639333, 42.410849121962073 ], [ 117.313242910045247, 42.410853624904824 ], [ 117.31323683352845, 42.410853641508339 ] ], [ [ 117.3131881093841, 42.410831259610923 ], [ 117.313188086982152, 42.410826756668129 ], [ 117.313194163496348, 42.410826740067208 ], [ 117.313194185898752, 42.410831243010001 ], [ 117.3131881093841, 42.410831259610923 ] ] ] } },
{ "type": "Feature", "properties": { "crown_id": 1187, "tree_id": "1188", "top_h_m": 20.851, "H_95_Mean": 20.4397, "DBH": 31.8812, "Carbon_kg": 194.940534, "area_m2": 25.0 }, "geometry": { "type": "Polygon", "coordinates": [ [ [ 117.313352399415123, 42.410875840700015 ], [ 117.313370628971711, 42.410875790870122 ], [ 117.313370494481447, 42.410848773213985 ], [ 117.313376570997704, 42.410848756603386 ], [ 117.313376481335879, 42.410830744832566 ], [ 117.313370404821399, 42.410830761443151 ], [ 117.313370359991382, 42.410821755557706 ], [ 117.313364283477782, 42.410821772167971 ], [ 117.313364328306903, 42.410830778053416 ], [ 117.313340022248823, 42.41083084449123 ], [ 117.313340044661658, 42.410835347433952 ], [ 117.313303585571802, 42.410835447081062 ], [ 117.31330360798205, 42.410839950023799 ], [ 117.313297531466631, 42.410839966630526 ], [ 117.313297553876438, 42.410844469573263 ], [ 117.313291477360565, 42.41084448617967 ], [ 117.313291499769932, 42.4108489891224 ], [ 117.313297576286246, 42.410848972516 ], [ 117.313297598696053, 42.410853475458723 ], [ 117.313309751729506, 42.410853442244942 ], [ 117.313309818961571, 42.410866951073089 ], [ 117.313321971997624, 42.410866917857994 ], [ 117.313321994409179, 42.410871420800703 ], [ 117.31335237700138, 42.410871337757321 ], [ 117.313352399415123, 42.410875840700015 ] ] ] } }
]
}
