{
"type": "FeatureCollection",
"name": "tile_21_13",
"crs": { "type": "name", "properties": { "name": "urn:ogc:def:crs:OGC:1.3:CRS84" } },
"features": [
{ "type": "Feature", "properties": { "crown_id": 8124, "tree_id": "8131", "top_h_m": 20.775, "H_95_Mean": 21.2844, "DBH": 41.3616, "Carbon_kg": 337.427737, "area_m2": 63.75 }, "geometry": { "type": "MultiPolygon", "coordinates": [ [ [ [ 117.312996756420659, 42.407787750704998 ], [ 117.313021061304681, 42.407787684343774 ], [ 117.313021016529433, 42.407778678453241 ], [ 117.31302709274955, 42.407778661862125 ], [ 117.3130270703615, 42.407774158916858 ], [ 117.313020994141823, 42.40777417550796 ], [ 117.313020971754199, 42.407769672562672 ], [ 117.313027047973435, 42.407769655971578 ], [ 117.313027025585413, 42.407765153026297 ], [ 117.313039178023033, 42.407765119843127 ], [ 117.313039133245226, 42.40775611395258 ], [ 117.313045209463155, 42.407756097360519 ], [ 117.313045187073826, 42.407751594415238 ], [ 117.313026958421318, 42.407751644190441 ], [ 117.313026824093228, 42.407724626518643 ], [ 117.313002519233592, 42.407724692881004 ], [ 117.313002496847318, 42.407720189935681 ], [ 117.312990344418324, 42.407720223114929 ], [ 117.312990277262202, 42.40770671427893 ], [ 117.312953819982908, 42.407706813808886 ], [ 117.312953842365687, 42.407711316754245 ], [ 117.312941689938341, 42.407711349928327 ], [ 117.312941712320239, 42.407715852873686 ], [ 117.312929559892012, 42.407715886046482 ], [ 117.312929627035118, 42.407729394882544 ], [ 117.31292355081969, 42.407729411468488 ], [ 117.312923573200308, 42.407733914413825 ], [ 117.312911420768572, 42.40773394758471 ], [ 117.312911443148323, 42.407738450530061 ], [ 117.312905366932014, 42.407738467115031 ], [ 117.312905411690664, 42.407747473005728 ], [ 117.312923640342177, 42.407747423249859 ], [ 117.312923662722824, 42.407751926195189 ], [ 117.312929738940412, 42.407751909609246 ], [ 117.312929806083687, 42.40776541844523 ], [ 117.312935882302568, 42.407765401858953 ], [ 117.312935949447152, 42.407778910694915 ], [ 117.312990635428747, 42.407778761403925 ], [ 117.312990657814169, 42.40778326434922 ], [ 117.312996734034769, 42.407783247759724 ], [ 117.312996756420659, 42.407787750704998 ] ] ], [ [ [ 117.313045209463155, 42.407756097360519 ], [ 117.313045231852499, 42.407760600305799 ], [ 117.313051308070854, 42.407760583713404 ], [ 117.313051285681098, 42.407756080768138 ], [ 117.313045209463155, 42.407756097360519 ] ] ], [ [ [ 117.313027047973435, 42.407769655971578 ], [ 117.3130270703615, 42.407774158916858 ], [ 117.313033146581191, 42.407774142325422 ], [ 117.313033124192714, 42.407769639380149 ], [ 117.313027047973435, 42.407769655971578 ] ] ] ] } },
{ "type": "Feature", "properties": { "crown_id": 8138, "tree_id": "8145", "top_h_m": 17.57, "H_95_Mean": 17.8122, "DBH": 28.8049, "Carbon_kg": 146.466772, "area_m2": 21.75 }, "geometry": { "type": "Polygon", "coordinates": [ [ [ 117.313057361899013, 42.407756064175437 ], [ 117.313063438116927, 42.40775604758241 ], [ 117.313063393335668, 42.407747041691863 ], [ 117.313081621986782, 42.407746991910862 ], [ 117.313081577202937, 42.407737986020308 ], [ 117.313105882067546, 42.407737919641171 ], [ 117.313105814886597, 42.407724410805358 ], [ 117.313099738671752, 42.407724427400616 ], [ 117.313099671492139, 42.407710918564753 ], [ 117.313081442851498, 42.407710968348582 ], [ 117.313081420459611, 42.40770646540328 ], [ 117.31306319182022, 42.407706515184209 ], [ 117.3130632142108, 42.407711018129511 ], [ 117.31305713799722, 42.407711034722517 ], [ 117.313057115607094, 42.407706531777215 ], [ 117.313051039393926, 42.407706548369887 ], [ 117.313051061783653, 42.407711051315189 ], [ 117.313044985570059, 42.407711067907549 ], [ 117.31304500795936, 42.407715570852865 ], [ 117.313038931745339, 42.407715587444898 ], [ 117.313038954134171, 42.407720090390207 ], [ 117.313045030348633, 42.407720073798167 ], [ 117.313045052737934, 42.407724576743476 ], [ 117.313032900308144, 42.407724609927243 ], [ 117.313033012250372, 42.407747124653731 ], [ 117.313051240901558, 42.407747074877577 ], [ 117.313051263291314, 42.407751577822857 ], [ 117.313057339508802, 42.407751561230157 ], [ 117.313057361899013, 42.407756064175437 ] ] ] } },
{ "type": "Feature", "properties": { "crown_id": 8154, "tree_id": "8161", "top_h_m": 20.93, "H_95_Mean": 20.8145, "DBH": 29.1157, "Carbon_kg": 164.113524, "area_m2": 17.0 }, "geometry": { "type": "Polygon", "coordinates": [ [ [ 117.31288713828306, 42.407738516867994 ], [ 117.312899290715691, 42.407738483699667 ], [ 117.312899268336821, 42.407733980754308 ], [ 117.312905344552718, 42.40773396416968 ], [ 117.312905322173393, 42.407729461224321 ], [ 117.312917474604262, 42.407729428054068 ], [ 117.312917452224099, 42.407724925108731 ], [ 117.3129235284391, 42.407724908523129 ], [ 117.312923461297288, 42.407711399687038 ], [ 117.312935613724648, 42.407711366514889 ], [ 117.312935568961748, 42.407702360624143 ], [ 117.31292949274895, 42.407702377210384 ], [ 117.312929470367919, 42.407697874265018 ], [ 117.312917317943146, 42.407697907436507 ], [ 117.312917250802755, 42.407684398600345 ], [ 117.312911174591648, 42.407684415185606 ], [ 117.312911219351037, 42.407693421076381 ], [ 117.31287476207919, 42.407693520581191 ], [ 117.312874784456284, 42.407698023526578 ], [ 117.312868708243855, 42.407698040109587 ], [ 117.312868730620536, 42.407702543054988 ], [ 117.312880883046248, 42.407702509888651 ], [ 117.312880994934005, 42.407725024615559 ], [ 117.312887071149035, 42.407725008031896 ], [ 117.31288713828306, 42.407738516867994 ] ] ] } },
{ "type": "Feature", "properties": { "crown_id": 8183, "tree_id": "8190", "top_h_m": 18.85, "H_95_Mean": 19.3406, "DBH": 31.9008, "Carbon_kg": 188.904529, "area_m2": 27.75 }, "geometry": { "type": "Polygon", "coordinates": [ [ [ 117.313008573061794, 42.407720173345567 ], [ 117.313026801705249, 42.40772012357332 ], [ 117.313026779317255, 42.407715620628004 ], [ 117.313032855531304, 42.407715604036611 ], [ 117.31303283314287, 42.407711101091301 ], [ 117.313038909356465, 42.407711084499589 ], [ 117.313038775023472, 42.407684066827613 ], [ 117.313032698812478, 42.407684083419305 ], [ 117.313032609258997, 42.407666071637919 ], [ 117.313026533049737, 42.407666088229277 ], [ 117.3130265106618, 42.407661585283925 ], [ 117.312996129617616, 42.40766166823591 ], [ 117.312996196774904, 42.407675177072008 ], [ 117.312990120564749, 42.40767519366144 ], [ 117.312990142950071, 42.407679696606799 ], [ 117.312971914318297, 42.407679746373198 ], [ 117.312971936702326, 42.407684249318557 ], [ 117.312959784280238, 42.40768428249455 ], [ 117.312959829046591, 42.407693288385282 ], [ 117.312953752834645, 42.407693304972796 ], [ 117.312953797600144, 42.407702310863534 ], [ 117.312996331089607, 42.407702194744125 ], [ 117.312996398247023, 42.407715703580131 ], [ 117.313008550675121, 42.407715670400258 ], [ 117.313008573061794, 42.407720173345567 ] ] ] } },
{ "type": "Feature", "properties": { "crown_id": 8194, "tree_id": "8201", "top_h_m": 21.22, "H_95_Mean": 21.7884, "DBH": 29.5245, "Carbon_kg": 173.418256, "area_m2": 16.5 }, "geometry": { "type": "Polygon", "coordinates": [ [ [ 117.313044940791514, 42.407702062016909 ], [ 117.313081398067709, 42.407701962457978 ], [ 117.31308137567585, 42.407697459512676 ], [ 117.313093528100339, 42.407697426323786 ], [ 117.313093438529407, 42.407679414542542 ], [ 117.313105590950414, 42.407679381352388 ], [ 117.313105523769636, 42.407665872516432 ], [ 117.313069066514416, 42.407665972082974 ], [ 117.313069088905394, 42.407670475028318 ], [ 117.313038707857032, 42.407670557991587 ], [ 117.313038752634668, 42.407679563882283 ], [ 117.313044828845207, 42.407679547290265 ], [ 117.313044940791514, 42.407702062016909 ] ] ] } },
{ "type": "Feature", "properties": { "crown_id": 8206, "tree_id": "8214", "top_h_m": 20.895, "H_95_Mean": 20.3474, "DBH": 32.905, "Carbon_kg": 207.20808, "area_m2": 28.5 }, "geometry": { "type": "Polygon", "coordinates": [ [ [ 117.31281402233175, 42.407698189342184 ], [ 117.312820098544236, 42.407698172762068 ], [ 117.31282005379785, 42.407689166871215 ], [ 117.312844358644242, 42.407689100547586 ], [ 117.312844381019161, 42.407693603493001 ], [ 117.312868685867173, 42.407693537164185 ], [ 117.312868663490519, 42.407689034218791 ], [ 117.312905120759822, 42.407688934715942 ], [ 117.312904986484341, 42.407661917043512 ], [ 117.312898910275393, 42.407661933628113 ], [ 117.312898843139024, 42.407648424791844 ], [ 117.31290491934665, 42.407648408207265 ], [ 117.312904829829833, 42.407630396425539 ], [ 117.312898753623941, 42.407630413010118 ], [ 117.312898798381482, 42.407639418900992 ], [ 117.312880569761177, 42.407639468652818 ], [ 117.312880547383713, 42.407634965707366 ], [ 117.312874471177366, 42.407634982290666 ], [ 117.312874515931441, 42.407643988181547 ], [ 117.312868439724227, 42.407644004764528 ], [ 117.312868484477448, 42.407653010655416 ], [ 117.312862408269353, 42.407653027238069 ], [ 117.312862453021722, 42.407662033128936 ], [ 117.312856376812761, 42.407662049711284 ], [ 117.312856399188519, 42.407666552656714 ], [ 117.312838170560298, 42.407666602401818 ], [ 117.312838148185847, 42.407662099456381 ], [ 117.312825995767867, 42.407662132618178 ], [ 117.312826107635857, 42.407684647345363 ], [ 117.3128139552135, 42.407684680505888 ], [ 117.31281402233175, 42.407698189342184 ] ] ] } },
{ "type": "Feature", "properties": { "crown_id": 8238, "tree_id": "8246", "top_h_m": 20.429, "H_95_Mean": 20.7353, "DBH": 39.6469, "Carbon_kg": 305.074594, "area_m2": 56.75 }, "geometry": { "type": "Polygon", "coordinates": [ [ [ 117.312941667556444, 42.407706846982975 ], [ 117.312947743769683, 42.407706830396087 ], [ 117.312947654240403, 42.407688818614623 ], [ 117.312953730451909, 42.40768880202743 ], [ 117.312953685686452, 42.407679796136676 ], [ 117.312965838107687, 42.407679762961344 ], [ 117.312965815724084, 42.407675260015971 ], [ 117.312984044354593, 42.407675210250567 ], [ 117.312984021969697, 42.407670707305194 ], [ 117.312990098179426, 42.407670690716088 ], [ 117.31299003102346, 42.407657181879948 ], [ 117.313020412065498, 42.407657098929597 ], [ 117.313020389678016, 42.407652595984224 ], [ 117.313014313470063, 42.407652612574935 ], [ 117.313014291083007, 42.407648109629562 ], [ 117.313020367290548, 42.407648093038851 ], [ 117.31302034490308, 42.407643590093478 ], [ 117.313008192488894, 42.407643623274573 ], [ 117.313008170102293, 42.407639120329186 ], [ 117.313014246308938, 42.407639103738809 ], [ 117.313014223921925, 42.407634600793408 ], [ 117.313002071509445, 42.407634633973849 ], [ 117.313002049123298, 42.407630131028455 ], [ 117.313008125329119, 42.407630114438405 ], [ 117.313008058169387, 42.407616605602207 ], [ 117.312983753351361, 42.407616671960461 ], [ 117.31298373096655, 42.407612169015046 ], [ 117.312989807170624, 42.407612152425962 ], [ 117.312989784785344, 42.407607649480546 ], [ 117.31295332756342, 42.407607749010175 ], [ 117.312953349946085, 42.407612251955598 ], [ 117.312947273741969, 42.407612268542749 ], [ 117.312947340888655, 42.407625777379032 ], [ 117.312916959861511, 42.407625860309977 ], [ 117.312916982241575, 42.4076303632554 ], [ 117.312910906035711, 42.40763037984064 ], [ 117.312911017933942, 42.407652894567768 ], [ 117.312904941725861, 42.407652911152681 ], [ 117.312904964105087, 42.407657414098097 ], [ 117.312911040313594, 42.407657397513184 ], [ 117.312911152211967, 42.407679912240205 ], [ 117.312923304633259, 42.407679879069384 ], [ 117.312923371774971, 42.407693387905546 ], [ 117.312935524198849, 42.407693354733404 ], [ 117.312935546580292, 42.407697857678784 ], [ 117.312941622792664, 42.407697841092237 ], [ 117.312941667556444, 42.407706846982975 ] ] ] } },
{ "type": "Feature", "properties": { "crown_id": 8256, "tree_id": "8264", "top_h_m": 23.59, "H_95_Mean": 22.9843, "DBH": 38.5765, "Carbon_kg": 306.831366, "area_m2": 42.25 }, "geometry": { "type": "Polygon", "coordinates": [ [ [ 117.313038685468243, 42.407666055046235 ], [ 117.313062990305184, 42.407665988676271 ], [ 117.313062967914647, 42.407661485730927 ], [ 117.313111577584834, 42.407661352975566 ], [ 117.31311153279681, 42.407652347084905 ], [ 117.313117609004692, 42.40765233048905 ], [ 117.313117586610275, 42.407647827543698 ], [ 117.313123662817716, 42.407647810947523 ], [ 117.313123618028001, 42.407638805056862 ], [ 117.313141846647682, 42.40763875526639 ], [ 117.313141824251517, 42.40763425232106 ], [ 117.313147900457636, 42.407634235723599 ], [ 117.313147878061059, 42.407629732778254 ], [ 117.31314180185538, 42.407629749375722 ], [ 117.313141757063093, 42.40762074348504 ], [ 117.313129604653454, 42.407620776678982 ], [ 117.313129582258199, 42.40761627373363 ], [ 117.313080972622899, 42.407616406496516 ], [ 117.313080950231139, 42.40761190355115 ], [ 117.313074874027137, 42.407611920145058 ], [ 117.313074918809832, 42.407620926035811 ], [ 117.313020232965798, 42.407621075366549 ], [ 117.313020255353237, 42.407625578311936 ], [ 117.313014179147885, 42.407625594902633 ], [ 117.313014201534898, 42.407630097848021 ], [ 117.313020277740677, 42.407630081257324 ], [ 117.313020300128144, 42.407634584202718 ], [ 117.313026376334363, 42.407634567611687 ], [ 117.313026488273877, 42.407657082338559 ], [ 117.313032564482285, 42.407657065747202 ], [ 117.313032586870648, 42.407661568692568 ], [ 117.313038663079453, 42.407661552100876 ], [ 117.313038685468243, 42.407666055046235 ] ] ] } },
{ "type": "Feature", "properties": { "crown_id": 8302, "tree_id": "8310", "top_h_m": 16.963, "H_95_Mean": 16.5948, "DBH": 29.006, "Carbon_kg": 142.443979, "area_m2": 25.5 }, "geometry": { "type": "Polygon", "coordinates": [ [ [ 117.312892655039732, 42.407625926648933 ], [ 117.312910883656087, 42.407625876895182 ], [ 117.312910861276464, 42.407621373949759 ], [ 117.312941242301434, 42.40762129102044 ], [ 117.312941175156084, 42.407607782184137 ], [ 117.312947251359745, 42.407607765597319 ], [ 117.312947228977549, 42.407603262651882 ], [ 117.312965457587239, 42.407603212889484 ], [ 117.312965412820247, 42.407594206998603 ], [ 117.31295933661788, 42.407594223586386 ], [ 117.312959224702595, 42.407571708859138 ], [ 117.312953148502416, 42.407571725446566 ], [ 117.312953126119808, 42.407567222501108 ], [ 117.312947049920055, 42.40756723908823 ], [ 117.312947072302237, 42.407571742033689 ], [ 117.312940996102014, 42.407571758620499 ], [ 117.312940951338561, 42.407562752729547 ], [ 117.31293487513922, 42.407562769316016 ], [ 117.31293489752052, 42.407567272261502 ], [ 117.312922745120972, 42.407567305433481 ], [ 117.312922767501391, 42.407571808378968 ], [ 117.312916691301183, 42.407571824964471 ], [ 117.312916713681162, 42.40757632790995 ], [ 117.312922789881839, 42.407576311324441 ], [ 117.312922857023167, 42.407589820160844 ], [ 117.312910704619227, 42.407589853331572 ], [ 117.312910726998837, 42.407594356277023 ], [ 117.31290465079644, 42.407594372861915 ], [ 117.312904673175581, 42.407598875807373 ], [ 117.312892520769893, 42.407598908976176 ], [ 117.31289254314818, 42.407603411921649 ], [ 117.312886466944889, 42.40760342850556 ], [ 117.312886511700626, 42.407612434396498 ], [ 117.312880435496481, 42.407612450980089 ], [ 117.312880480251366, 42.407621456871013 ], [ 117.312892632661402, 42.407621423703482 ], [ 117.312892655039732, 42.407625926648933 ] ] ] } },
{ "type": "Feature", "properties": { "crown_id": 8315, "tree_id": "8323", "top_h_m": 20.47, "H_95_Mean": 20.0792, "DBH": 31.6942, "Carbon_kg": 190.625931, "area_m2": 25.25 }, "geometry": { "type": "Polygon", "coordinates": [ [ [ 117.3130323629873, 42.407616539238788 ], [ 117.313068820214042, 42.40761643968402 ], [ 117.313068775432228, 42.40760743379326 ], [ 117.313087004042913, 42.407607384011541 ], [ 117.313087026435142, 42.407611886956914 ], [ 117.313129559862958, 42.407611770788279 ], [ 117.313129470281964, 42.407593759006829 ], [ 117.313111241675301, 42.407593808795276 ], [ 117.313111219281382, 42.40758930584991 ], [ 117.313099066877754, 42.407589339040598 ], [ 117.313099044484701, 42.407584836095211 ], [ 117.313092968283328, 42.407584852690071 ], [ 117.313092945890716, 42.407580349744677 ], [ 117.313086869689769, 42.407580366339204 ], [ 117.313086847297598, 42.407575863393802 ], [ 117.313068618696022, 42.407575913175471 ], [ 117.313068573914293, 42.40756690728464 ], [ 117.313062497714654, 42.40756692387788 ], [ 117.313062564885925, 42.40758043271412 ], [ 117.31305648868495, 42.407580449307041 ], [ 117.313056466294967, 42.407575946361625 ], [ 117.313044313893855, 42.407575979546515 ], [ 117.313044403450419, 42.40759399132817 ], [ 117.313038327248151, 42.407594007920139 ], [ 117.313038372025574, 42.407603013810949 ], [ 117.31303229582241, 42.407603030402598 ], [ 117.3130323629873, 42.407616539238788 ] ] ] } }
]
}
