{
"type": "FeatureCollection",
"name": "tile_18_22",
"crs": { "type": "name", "properties": { "name": "urn:ogc:def:crs:OGC:1.3:CRS84" } },
"features": [
{ "type": "Feature", "properties": { "crown_id": 7137, "tree_id": "7143", "top_h_m": 19.097, "H_95_Mean": 19.0365, "DBH": 24.6484, "Carbon_kg": 111.278352, "area_m2": 10.5 }, "geometry": { "type": "Polygon", "coordinates": [ [ [ 117.315192977042145, 42.408322094146307 ], [ 117.315199053313449, 42.408322077439912 ], [ 117.315199008225804, 42.408313071552094 ], [ 117.315205084496242, 42.408313054845387 ], [ 117.315205061951985, 42.40830855190147 ], [ 117.315211138221997, 42.408308535194436 ], [ 117.315211093132646, 42.408299529306625 ], [ 117.315223245670879, 42.408299495891598 ], [ 117.315223223125315, 42.408294992947688 ], [ 117.315198918050598, 42.408295059776428 ], [ 117.315198895506796, 42.408290556832497 ], [ 117.31516851416545, 42.408290640361187 ], [ 117.315168581790331, 42.408304149192979 ], [ 117.315162505520732, 42.408304165897754 ], [ 117.315162550603134, 42.408313171785608 ], [ 117.3151686268736, 42.408313155080826 ], [ 117.315168649415227, 42.408317658024757 ], [ 117.315192954498755, 42.408317591202398 ], [ 117.315192977042145, 42.408322094146307 ] ] ] } },
{ "type": "Feature", "properties": { "crown_id": 7163, "tree_id": "7169", "top_h_m": 22.907, "H_95_Mean": 23.63, "DBH": 23.3801, "Carbon_kg": 113.682819, "area_m2": 5.75 }, "geometry": { "type": "Polygon", "coordinates": [ [ [ 117.315071406545599, 42.408313422318692 ], [ 117.31507748281615, 42.408313405618742 ], [ 117.315077437745899, 42.408304399730817 ], [ 117.315089590285226, 42.408304366329943 ], [ 117.315089545213283, 42.408295360442025 ], [ 117.315083468944493, 42.408295377142608 ], [ 117.315083423873418, 42.408286371254647 ], [ 117.315059118801685, 42.408286438053743 ], [ 117.315059141335482, 42.40829094099773 ], [ 117.315053065067119, 42.408290957696707 ], [ 117.315053132667202, 42.408304466528662 ], [ 117.315071361476257, 42.408304416430759 ], [ 117.315071406545599, 42.408313422318692 ] ] ] } },
{ "type": "Feature", "properties": { "crown_id": 7164, "tree_id": "7170", "top_h_m": 24.002, "H_95_Mean": 24.4566, "DBH": 35.8879, "Carbon_kg": 275.177427, "area_m2": 28.5 }, "geometry": { "type": "Polygon", "coordinates": [ [ [ 117.315101810435095, 42.408317841759668 ], [ 117.315126115518865, 42.408317774951477 ], [ 117.31512609298025, 42.408313272007547 ], [ 117.315156474332667, 42.408313188490084 ], [ 117.315156406710358, 42.408299679658278 ], [ 117.315162482979531, 42.408299662953823 ], [ 117.315162437897143, 42.408290657065947 ], [ 117.315144209092281, 42.408290707178317 ], [ 117.315144186552402, 42.408286204234365 ], [ 117.315138110284522, 42.408286220937832 ], [ 117.315138065205659, 42.408277215049921 ], [ 117.315131988938631, 42.408277231753075 ], [ 117.315131943860663, 42.408268225865129 ], [ 117.315125867594517, 42.408268242567949 ], [ 117.31512582251743, 42.408259236679989 ], [ 117.315119746252165, 42.408259253382482 ], [ 117.315119723714062, 42.408254750438502 ], [ 117.315107571184342, 42.408254783842516 ], [ 117.315107548647134, 42.408250280898514 ], [ 117.315101472382693, 42.408250297600041 ], [ 117.315101494919475, 42.40825480054405 ], [ 117.315095418654607, 42.408254817245258 ], [ 117.315095486263701, 42.408268326077241 ], [ 117.31508940999754, 42.408268342778129 ], [ 117.315089432533483, 42.408272845722117 ], [ 117.315077280000239, 42.40827287912294 ], [ 117.315077325070405, 42.408281885010915 ], [ 117.315089477605369, 42.408281851610084 ], [ 117.315089522677326, 42.408290857498038 ], [ 117.315095598945675, 42.408290840797143 ], [ 117.315095711627734, 42.40831335551696 ], [ 117.315101787898243, 42.408313338815724 ], [ 117.315101810435095, 42.408317841759668 ] ] ] } },
{ "type": "Feature", "properties": { "crown_id": 7179, "tree_id": "7185", "top_h_m": 19.06, "H_95_Mean": 20.09, "DBH": 22.3493, "Carbon_kg": 94.305774, "area_m2": 6.5 }, "geometry": { "type": "Polygon", "coordinates": [ [ [ 117.315229344485942, 42.408303982127507 ], [ 117.315253649564056, 42.408303915292301 ], [ 117.315253604468623, 42.408294909404503 ], [ 117.315241451931314, 42.408294942822749 ], [ 117.315241361744015, 42.408276931047091 ], [ 117.315210980409361, 42.408277014587 ], [ 117.315211002954001, 42.408281517530924 ], [ 117.315204926686633, 42.408281534237943 ], [ 117.315204971775074, 42.408290540125797 ], [ 117.315229276848044, 42.408290473295772 ], [ 117.315229344485942, 42.408303982127507 ] ], [ [ 117.315211025498655, 42.408286020474854 ], [ 117.315211002954001, 42.408281517530924 ], [ 117.315217079221384, 42.408281500823584 ], [ 117.315217101766478, 42.408286003767508 ], [ 117.315211025498655, 42.408286020474854 ] ] ] } },
{ "type": "Feature", "properties": { "crown_id": 7192, "tree_id": "7198", "top_h_m": 21.284, "H_95_Mean": 21.1803, "DBH": 21.9511, "Carbon_kg": 93.837702, "area_m2": 5.5 }, "geometry": { "type": "Polygon", "coordinates": [ [ [ 117.315247505652721, 42.408290423169881 ], [ 117.315253581920942, 42.408290406460594 ], [ 117.315253559373218, 42.408285903516699 ], [ 117.315259635641013, 42.408285886807093 ], [ 117.315259613092891, 42.408281383863184 ], [ 117.315289994429506, 42.408281300310392 ], [ 117.315290016979816, 42.40828580325428 ], [ 117.315296093247554, 42.408285786542756 ], [ 117.315296048146095, 42.408276780654973 ], [ 117.315283895612325, 42.408276814077702 ], [ 117.315283873062469, 42.408272311133786 ], [ 117.315265644263121, 42.40827236126546 ], [ 117.315265599166025, 42.408263355377628 ], [ 117.315259522900433, 42.408263372087532 ], [ 117.315259545448527, 42.408267875031441 ], [ 117.315247392916447, 42.408267908450298 ], [ 117.315247505652721, 42.408290423169881 ] ] ] } },
{ "type": "Feature", "properties": { "crown_id": 7216, "tree_id": "7222", "top_h_m": 24.396, "H_95_Mean": 24.3183, "DBH": 33.4835, "Carbon_kg": 238.481781, "area_m2": 22.0 }, "geometry": { "type": "Polygon", "coordinates": [ [ [ 117.315150262820268, 42.408286187530564 ], [ 117.315198872963023, 42.408286053888567 ], [ 117.315198827875463, 42.408277048000706 ], [ 117.315204904142405, 42.408277031294013 ], [ 117.315204859054006, 42.40826802540613 ], [ 117.315198782787945, 42.408268042112816 ], [ 117.31519869261291, 42.408250030337001 ], [ 117.315174387555473, 42.408250097160497 ], [ 117.31517436501349, 42.408245594216524 ], [ 117.315137907429801, 42.40824569444208 ], [ 117.315137929969197, 42.408250197386067 ], [ 117.315125777440372, 42.408250230792021 ], [ 117.315125799978901, 42.408254733736008 ], [ 117.31513187624374, 42.408254717033188 ], [ 117.315131921321694, 42.408263722921156 ], [ 117.315137997587399, 42.408263706218008 ], [ 117.31513804266622, 42.408272712105955 ], [ 117.315144118932793, 42.408272695402488 ], [ 117.315144164012523, 42.408281701290406 ], [ 117.315150240279948, 42.408281684586612 ], [ 117.315150262820268, 42.408286187530564 ] ] ] } },
{ "type": "Feature", "properties": { "crown_id": 7250, "tree_id": "7256", "top_h_m": 20.883, "H_95_Mean": 21.5081, "DBH": 22.3658, "Carbon_kg": 98.334195, "area_m2": 5.75 }, "geometry": { "type": "Polygon", "coordinates": [ [ [ 117.315077257465163, 42.408268376178938 ], [ 117.315083333731351, 42.40826835947869 ], [ 117.315083311195849, 42.408263856534688 ], [ 117.315089387461612, 42.408263839834135 ], [ 117.315089319853826, 42.408250331002129 ], [ 117.315095396118267, 42.408250314301249 ], [ 117.315095373581897, 42.40824581135724 ], [ 117.315089297317897, 42.408245828058128 ], [ 117.315089274781982, 42.408241325114112 ], [ 117.315058893464069, 42.408241408613655 ], [ 117.31505896106529, 42.408254917445717 ], [ 117.3150650373302, 42.408254900746442 ], [ 117.315065059864381, 42.408259403690451 ], [ 117.315077212395025, 42.408259370290949 ], [ 117.315077257465163, 42.408268376178938 ] ] ] } },
{ "type": "Feature", "properties": { "crown_id": 7251, "tree_id": "7257", "top_h_m": 21.436, "H_95_Mean": 21.5058, "DBH": 28.6312, "Carbon_kg": 161.751645, "area_m2": 15.0 }, "geometry": { "type": "Polygon", "coordinates": [ [ [ 117.315210957864721, 42.408272511643069 ], [ 117.315241339197215, 42.408272428103174 ], [ 117.315241294103586, 42.408263422215313 ], [ 117.315253446634827, 42.408263388797117 ], [ 117.31525342408716, 42.408258885853186 ], [ 117.315259500352326, 42.408258869143609 ], [ 117.315259410159968, 42.408240857367872 ], [ 117.315265486423414, 42.408240840657982 ], [ 117.31526546387488, 42.408236337714044 ], [ 117.3152411588229, 42.408236404551673 ], [ 117.315241136276128, 42.408231901607714 ], [ 117.315235060013549, 42.408231918316311 ], [ 117.315235082559894, 42.408236421260277 ], [ 117.315222930033855, 42.408236454676512 ], [ 117.315222952579319, 42.408240957620464 ], [ 117.315210800052398, 42.408240991035406 ], [ 117.315210845141593, 42.408249996923331 ], [ 117.315204768877265, 42.40825001363033 ], [ 117.315204836509821, 42.408263522462178 ], [ 117.315210912775456, 42.40826350575518 ], [ 117.315210957864721, 42.408272511643069 ] ] ] } },
{ "type": "Feature", "properties": { "crown_id": 7281, "tree_id": "7287", "top_h_m": 21.923, "H_95_Mean": 22.0348, "DBH": 20.6037, "Carbon_kg": 84.545128, "area_m2": 4.0 }, "geometry": { "type": "Polygon", "coordinates": [ [ [ 117.315113624911532, 42.408250264196667 ], [ 117.315119701175973, 42.4082502474945 ], [ 117.31511967863787, 42.408245744550506 ], [ 117.315131831165814, 42.40824571114522 ], [ 117.315131808626859, 42.408241208201218 ], [ 117.315137884890405, 42.408241191498085 ], [ 117.315137839811641, 42.408232185610103 ], [ 117.315131763548976, 42.408232202313215 ], [ 117.315131718471108, 42.408223196425212 ], [ 117.315125642209296, 42.408223213128004 ], [ 117.315125687286312, 42.408232219016021 ], [ 117.315107458498275, 42.408232269122493 ], [ 117.315107526109898, 42.408245777954519 ], [ 117.315113602373899, 42.408245761252672 ], [ 117.315113624911532, 42.408250264196667 ] ], [ [ 117.315113579836236, 42.408241258308671 ], [ 117.315113557298588, 42.408236755364676 ], [ 117.315119633561707, 42.408236738662509 ], [ 117.315119656099768, 42.408241241606511 ], [ 117.315113579836236, 42.408241258308671 ] ] ] } },
{ "type": "Feature", "properties": { "crown_id": 7282, "tree_id": "7288", "top_h_m": 23.82, "H_95_Mean": 23.2719, "DBH": 37.0338, "Carbon_kg": 284.688763, "area_m2": 35.25 }, "geometry": { "type": "Polygon", "coordinates": [ [ [ 117.31518044127742, 42.408245577511138 ], [ 117.31520474633308, 42.40824551068637 ], [ 117.315204723788924, 42.408241007742404 ], [ 117.315198647525435, 42.408241024449076 ], [ 117.315198624981718, 42.408236521505124 ], [ 117.315204701244753, 42.408236504798445 ], [ 117.31520461106814, 42.408218493022545 ], [ 117.315198534806839, 42.408218509729203 ], [ 117.31519844463206, 42.408200497953239 ], [ 117.315204520891626, 42.408200481246581 ], [ 117.315204408171084, 42.408177966526566 ], [ 117.315155798111803, 42.408178100170623 ], [ 117.315155820652421, 42.40818260311466 ], [ 117.315143668136685, 42.408182636522454 ], [ 117.315143713216216, 42.408191642410536 ], [ 117.315137636957459, 42.408191659113946 ], [ 117.315137704575463, 42.408205167946036 ], [ 117.315143780835527, 42.408205151242605 ], [ 117.315143870994675, 42.40822316301864 ], [ 117.315137794732891, 42.408223179722086 ], [ 117.315137817272259, 42.408227682666087 ], [ 117.315143893534483, 42.408227665962649 ], [ 117.315143961153922, 42.40824117479464 ], [ 117.315180418734997, 42.408241074567172 ], [ 117.31518044127742, 42.408245577511138 ] ] ] } },
{ "type": "Feature", "properties": { "crown_id": 7303, "tree_id": "7309", "top_h_m": 22.2, "H_95_Mean": 22.2859, "DBH": 23.474, "Carbon_kg": 110.703244, "area_m2": 6.5 }, "geometry": { "type": "Polygon", "coordinates": [ [ [ 117.315107435961067, 42.408227766178484 ], [ 117.315119588485558, 42.408227732774492 ], [ 117.315119543409438, 42.408218726886474 ], [ 117.315137772193523, 42.408218676778077 ], [ 117.315137727114816, 42.408209670890045 ], [ 117.315131650854326, 42.408209687593157 ], [ 117.315131583237616, 42.408196178761081 ], [ 117.315119430719207, 42.408196212166331 ], [ 117.315119453257253, 42.408200715110361 ], [ 117.315101224478326, 42.40820076521581 ], [ 117.315101269551803, 42.408209771103877 ], [ 117.315107345812322, 42.408209754402385 ], [ 117.315107435961067, 42.408227766178484 ] ] ] } },
{ "type": "Feature", "properties": { "crown_id": 7304, "tree_id": "7310", "top_h_m": 24.745, "H_95_Mean": 24.1259, "DBH": 30.7314, "Carbon_kg": 199.682897, "area_m2": 16.0 }, "geometry": { "type": "MultiPolygon", "coordinates": [ [ [ [ 117.315259117035396, 42.408182319096333 ], [ 117.315259094487402, 42.408177816152353 ], [ 117.315253018230038, 42.408177832861881 ], [ 117.31525304077762, 42.408182335805868 ], [ 117.315259117035396, 42.408182319096333 ] ] ], [ [ [ 117.315246964519829, 42.408182352515077 ], [ 117.315240888262039, 42.408182369223979 ], [ 117.31524091080874, 42.408186872167974 ], [ 117.315246987066971, 42.408186855459086 ], [ 117.315246964519829, 42.408182352515077 ] ] ], [ [ [ 117.315216831225797, 42.408231968440163 ], [ 117.31522898375097, 42.408231935024581 ], [ 117.315228961205094, 42.408227432080615 ], [ 117.315247189991496, 42.408227381954838 ], [ 117.315247212538694, 42.408231884898782 ], [ 117.315253288801273, 42.408231868189539 ], [ 117.315253198610762, 42.408213856413717 ], [ 117.315247122349945, 42.408213873122946 ], [ 117.315247077255606, 42.408204867235007 ], [ 117.315241000995627, 42.40820488394391 ], [ 117.315240933355469, 42.408191375111969 ], [ 117.31522270457944, 42.408191425236716 ], [ 117.31522261439784, 42.408173413460723 ], [ 117.315216538140888, 42.408173430168304 ], [ 117.315216560685855, 42.40817793311232 ], [ 117.315210484428476, 42.408177949819596 ], [ 117.315210619695733, 42.408204967483606 ], [ 117.315204543435755, 42.408204984190576 ], [ 117.315204588524011, 42.408213990078558 ], [ 117.315210664784885, 42.408213973371574 ], [ 117.315210777507787, 42.408236488091454 ], [ 117.315216853770821, 42.408236471384143 ], [ 117.315216831225797, 42.408231968440163 ] ] ] ] } },
{ "type": "Feature", "properties": { "crown_id": 7317, "tree_id": "7323", "top_h_m": 25.014, "H_95_Mean": 25.5684, "DBH": 34.077, "Carbon_kg": 254.513428, "area_m2": 21.5 }, "geometry": { "type": "Polygon", "coordinates": [ [ [ 117.315095351045557, 42.408241308413238 ], [ 117.315101427309116, 42.408241291712031 ], [ 117.315101292088556, 42.408214274047921 ], [ 117.315095215827583, 42.408214290749093 ], [ 117.31509514821866, 42.408200781916982 ], [ 117.315089071959008, 42.408200798617834 ], [ 117.31508904942315, 42.40819629567379 ], [ 117.315034363089893, 42.408196445966929 ], [ 117.315034453217734, 42.408214457743199 ], [ 117.31504052947875, 42.408214441045239 ], [ 117.315040597075978, 42.408227949877393 ], [ 117.315046673338273, 42.408227933179099 ], [ 117.315046695871132, 42.408232436123143 ], [ 117.315058848396603, 42.408232402725595 ], [ 117.315058870930329, 42.408236905669625 ], [ 117.315095328509216, 42.408236805469215 ], [ 117.315095351045557, 42.408241308413238 ] ] ] } },
{ "type": "Feature", "properties": { "crown_id": 7337, "tree_id": "7343", "top_h_m": 23.535, "H_95_Mean": 23.5295, "DBH": 35.0821, "Carbon_kg": 256.92621, "area_m2": 28.0 }, "geometry": { "type": "Polygon", "coordinates": [ [ [ 117.315271540137857, 42.408236321003827 ], [ 117.315295845189766, 42.40823625415976 ], [ 117.315295822639072, 42.408231751215816 ], [ 117.315301898901595, 42.408231734504 ], [ 117.315301853799397, 42.408222728616146 ], [ 117.315307930061053, 42.408222711904003 ], [ 117.315307884957988, 42.408213706016134 ], [ 117.315313961218763, 42.408213689303672 ], [ 117.315313938666819, 42.408209186359734 ], [ 117.315320014927153, 42.408209169646959 ], [ 117.315319902165271, 42.408186654927221 ], [ 117.315301673390778, 42.40818670506453 ], [ 117.315301628288651, 42.408177699176598 ], [ 117.31528339951673, 42.408177749310994 ], [ 117.315283376966974, 42.408173246367014 ], [ 117.315277300710079, 42.408173263077828 ], [ 117.315277323259394, 42.408177766021822 ], [ 117.315265170744723, 42.408177799442491 ], [ 117.315265215841606, 42.408186805330466 ], [ 117.315253063325187, 42.408186838749863 ], [ 117.315253085872783, 42.408191341693843 ], [ 117.315247009614126, 42.408191358403059 ], [ 117.315247054708436, 42.408200364291019 ], [ 117.315253130967946, 42.408200347581797 ], [ 117.315253176063152, 42.408209353469751 ], [ 117.315259252323543, 42.408209336760187 ], [ 117.315259342515745, 42.408227348536037 ], [ 117.315265418777869, 42.408227331826147 ], [ 117.315265441326375, 42.408231834770092 ], [ 117.315271517588926, 42.408231818059882 ], [ 117.315271540137857, 42.408236321003827 ] ] ] } },
{ "type": "Feature", "properties": { "crown_id": 7373, "tree_id": "7379", "top_h_m": 21.8, "H_95_Mean": 21.7267, "DBH": 26.0817, "Carbon_kg": 134.846286, "area_m2": 10.25 }, "geometry": { "type": "Polygon", "coordinates": [ [ [ 117.315095125682362, 42.408196278972937 ], [ 117.31511335446001, 42.408196228868462 ], [ 117.315113331922433, 42.408191725924418 ], [ 117.315131560698703, 42.408191675817051 ], [ 117.315131538159818, 42.408187172873006 ], [ 117.315137614418134, 42.408187156169916 ], [ 117.315137569339498, 42.408178150281834 ], [ 117.315131493082049, 42.408178166984918 ], [ 117.315131425465438, 42.408164658152771 ], [ 117.31511927295314, 42.408164691557978 ], [ 117.315119250415137, 42.408160188613913 ], [ 117.315107097903677, 42.40816022201782 ], [ 117.315107142977908, 42.408169227905965 ], [ 117.315094990464701, 42.408169261308601 ], [ 117.315095125682362, 42.408196278972937 ] ] ] } },
{ "type": "Feature", "properties": { "crown_id": 7383, "tree_id": "7389", "top_h_m": 23.08, "H_95_Mean": 24.4675, "DBH": 30.1602, "Carbon_kg": 193.87861, "area_m2": 14.5 }, "geometry": { "type": "Polygon", "coordinates": [ [ [ 117.315034340557958, 42.40819194302285 ], [ 117.315089026887293, 42.408191792729738 ], [ 117.315088891672261, 42.408164775065352 ], [ 117.315082815416076, 42.408164791765856 ], [ 117.315082792880702, 42.408160288821776 ], [ 117.315076716624944, 42.408160305521967 ], [ 117.31507669409001, 42.40815580257788 ], [ 117.315058465323986, 42.408155852676494 ], [ 117.315058510391268, 42.408164858564668 ], [ 117.315052434135055, 42.408164875263566 ], [ 117.315052456668298, 42.408169378207667 ], [ 117.315034227898309, 42.408169428302436 ], [ 117.315034340557958, 42.40819194302285 ] ] ] } },
{ "type": "Feature", "properties": { "crown_id": 7404, "tree_id": "7410", "top_h_m": 21.11, "H_95_Mean": 21.5132, "DBH": 22.854, "Carbon_kg": 102.722671, "area_m2": 6.25 }, "geometry": { "type": "Polygon", "coordinates": [ [ [ 117.315228713200597, 42.408177899696803 ], [ 117.315246941972703, 42.408177849571096 ], [ 117.315246761595759, 42.408141826019012 ], [ 117.315240685341891, 42.408141842727879 ], [ 117.315240707888563, 42.408146345671909 ], [ 117.315228555379903, 42.408146379088684 ], [ 117.315228600471514, 42.40815538497673 ], [ 117.315222524216324, 42.408155401684645 ], [ 117.315222591852446, 42.408168910516707 ], [ 117.315228668108958, 42.408168893808778 ], [ 117.315228713200597, 42.408177899696803 ] ] ] } },
{ "type": "Feature", "properties": { "crown_id": 7429, "tree_id": "7435", "top_h_m": 21.11, "H_95_Mean": 21.6213, "DBH": 26.0218, "Carbon_kg": 133.837328, "area_m2": 10.25 }, "geometry": { "type": "Polygon", "coordinates": [ [ [ 117.315174004342154, 42.40817354711249 ], [ 117.315210461883964, 42.408173446875587 ], [ 117.315210439339424, 42.408168943931571 ], [ 117.315216515595949, 42.408168927224295 ], [ 117.315216425416182, 42.408150915448211 ], [ 117.315222501670945, 42.408150898740622 ], [ 117.315222479125566, 42.408146395796585 ], [ 117.315198174108218, 42.408146462624984 ], [ 117.315198151564573, 42.408141959680954 ], [ 117.315185999056752, 42.408141993093217 ], [ 117.315186044142266, 42.408150998981306 ], [ 117.315179967887445, 42.408151015686954 ], [ 117.315179990429769, 42.408155518631006 ], [ 117.315173914174551, 42.408155535336327 ], [ 117.315174004342154, 42.40817354711249 ] ] ] } },
{ "type": "Feature", "properties": { "crown_id": 7430, "tree_id": "7436", "top_h_m": 21.48, "H_95_Mean": 22.2983, "DBH": 26.0654, "Carbon_kg": 136.760998, "area_m2": 9.75 }, "geometry": { "type": "Polygon", "coordinates": [ [ [ 117.315252995682471, 42.408173329917894 ], [ 117.315271224453198, 42.408173279788336 ], [ 117.315271201904324, 42.408168776844342 ], [ 117.315283354417247, 42.408168743423026 ], [ 117.315283196569226, 42.408137222815029 ], [ 117.315277120315812, 42.408137239525828 ], [ 117.315277097766568, 42.40813273658182 ], [ 117.315271021513581, 42.408132753292293 ], [ 117.315271044062399, 42.408137256236301 ], [ 117.315252815302131, 42.408137306365802 ], [ 117.315252995682471, 42.408173329917894 ] ] ] } },
{ "type": "Feature", "properties": { "crown_id": 7453, "tree_id": "7459", "top_h_m": 24.56, "H_95_Mean": 24.5456, "DBH": 34.2997, "Carbon_kg": 251.724757, "area_m2": 23.75 }, "geometry": { "type": "Polygon", "coordinates": [ [ [ 117.315143645596933, 42.408178133578417 ], [ 117.315149721854368, 42.408178116874687 ], [ 117.31514969931419, 42.40817361393065 ], [ 117.315167928085174, 42.408173563817506 ], [ 117.315167815377848, 42.408151049097306 ], [ 117.315173891632625, 42.40815103239229 ], [ 117.315173869090771, 42.408146529448238 ], [ 117.315179945345122, 42.408146512742903 ], [ 117.315179810091294, 42.408119495078545 ], [ 117.315173733839544, 42.408119511783859 ], [ 117.315173711297675, 42.408115008839786 ], [ 117.315155482543659, 42.408115058953783 ], [ 117.315155505084206, 42.40811956189787 ], [ 117.315143352580634, 42.4081195953056 ], [ 117.315143420199703, 42.408133104137839 ], [ 117.315137343946617, 42.408133120841228 ], [ 117.315137366485885, 42.408137623785308 ], [ 117.315131290232344, 42.408137640488377 ], [ 117.315131312771186, 42.40814214343245 ], [ 117.31510700775523, 42.408142210241515 ], [ 117.315107030292339, 42.408146713185594 ], [ 117.315094877783466, 42.408146746588208 ], [ 117.315094900319707, 42.408151249532295 ], [ 117.31510097657457, 42.408151232831152 ], [ 117.315100999111252, 42.408155735775217 ], [ 117.315125304132437, 42.408155668967417 ], [ 117.315125326670838, 42.408160171911476 ], [ 117.315137479182283, 42.408160138505636 ], [ 117.315137546800187, 42.40817364733779 ], [ 117.315143623057182, 42.408173630634366 ], [ 117.315143645596933, 42.408178133578417 ] ] ] } }
]
}
