{
"type": "FeatureCollection",
"name": "tile_11_5",
"crs": { "type": "name", "properties": { "name": "urn:ogc:def:crs:OGC:1.3:CRS84" } },
"features": [
{ "type": "Feature", "properties": { "crown_id": 4383, "tree_id": "4386", "top_h_m": 20.161, "H_95_Mean": 21.0923, "DBH": 30.9383, "Carbon_kg": 186.937681, "area_m2": 21.0 }, "geometry": { "type": "Polygon", "coordinates": [ [ [ 117.311006621496475, 42.409603375330441 ], [ 117.311012697893887, 42.409603358845544 ], [ 117.31101267564847, 42.409598855900839 ], [ 117.311030904839313, 42.409598806444187 ], [ 117.311030882592632, 42.409594303499496 ], [ 117.311043035385637, 42.409594270526789 ], [ 117.311042946395403, 42.409576258748004 ], [ 117.311061175579653, 42.409576209286556 ], [ 117.311061131081956, 42.409567203397167 ], [ 117.311055054688083, 42.409567219884629 ], [ 117.311054987942882, 42.409553711050499 ], [ 117.311042835157707, 42.40955374402445 ], [ 117.311042812910188, 42.409549241079731 ], [ 117.31103673651802, 42.409549257566219 ], [ 117.311036692023876, 42.409540251676752 ], [ 117.311024539241302, 42.409540284648756 ], [ 117.311024516995076, 42.409535781704022 ], [ 117.311018440604215, 42.40953579818953 ], [ 117.311018485095772, 42.409544804079012 ], [ 117.311006332312274, 42.409544837049083 ], [ 117.311006376802084, 42.409553842938571 ], [ 117.311000300409461, 42.40955385942312 ], [ 117.311000322653953, 42.409558362367854 ], [ 117.311006399047002, 42.409558345883305 ], [ 117.311006443536868, 42.40956735177275 ], [ 117.311018596324701, 42.409567318802658 ], [ 117.311018663062129, 42.409580827636795 ], [ 117.311000433876458, 42.409580877091486 ], [ 117.311000500610007, 42.409594385925622 ], [ 117.311006577006552, 42.409594369441038 ], [ 117.311006621496475, 42.409603375330441 ] ] ] } },
{ "type": "Feature", "properties": { "crown_id": 4431, "tree_id": "4434", "top_h_m": 21.16, "H_95_Mean": 21.941, "DBH": 20.5623, "Carbon_kg": 83.990894, "area_m2": 4.0 }, "geometry": { "type": "MultiPolygon", "coordinates": [ [ [ [ 117.311067185226548, 42.40956268396468 ], [ 117.311067229725111, 42.409571689854083 ], [ 117.311073306119425, 42.409571673365974 ], [ 117.311073261619981, 42.409562667476564 ], [ 117.311067185226548, 42.40956268396468 ] ] ], [ [ [ 117.311067185226548, 42.40956268396468 ], [ 117.311067096229522, 42.409544672185845 ], [ 117.311073172621221, 42.409544655697736 ], [ 117.311073150371541, 42.409540152753017 ], [ 117.311060997588996, 42.409540185728886 ], [ 117.311060975340197, 42.409535682784174 ], [ 117.311042746167644, 42.409535732245537 ], [ 117.311042790662668, 42.409544738134997 ], [ 117.311048867054396, 42.409544721648189 ], [ 117.311048889302356, 42.409549224592915 ], [ 117.311061042086635, 42.409549191618332 ], [ 117.311061108833115, 42.409562700452462 ], [ 117.311067185226548, 42.40956268396468 ] ] ] ] } },
{ "type": "Feature", "properties": { "crown_id": 4432, "tree_id": "4435", "top_h_m": 21.517, "H_95_Mean": 21.7695, "DBH": 36.9548, "Carbon_kg": 272.495041, "area_m2": 39.5 }, "geometry": { "type": "Polygon", "coordinates": [ [ [ 117.311079382513711, 42.409571656877539 ], [ 117.311085458908011, 42.409571640388783 ], [ 117.311085436657436, 42.409567137444093 ], [ 117.311121895020463, 42.409567038504804 ], [ 117.311121850514098, 42.409558032615443 ], [ 117.311127926907048, 42.409558016124443 ], [ 117.311127904653446, 42.409553513179766 ], [ 117.31113398104597, 42.409553496688432 ], [ 117.3111339365379, 42.409544490799071 ], [ 117.311127860146243, 42.409544507290384 ], [ 117.311127815639054, 42.409535501401002 ], [ 117.311121739248264, 42.409535517891982 ], [ 117.311121716995117, 42.409531014947284 ], [ 117.311109564214405, 42.40953104792829 ], [ 117.311109541962153, 42.409526544983578 ], [ 117.311103465572202, 42.409526561473598 ], [ 117.311103443320377, 42.409522058528879 ], [ 117.31109129054137, 42.409522091507938 ], [ 117.311091268290411, 42.409517588563212 ], [ 117.311073039123187, 42.409517638029392 ], [ 117.311072994623871, 42.409508632139911 ], [ 117.311066918235653, 42.409508648627984 ], [ 117.311066895986443, 42.409504145683243 ], [ 117.311054743210875, 42.409504178658416 ], [ 117.311054720962531, 42.409499675713661 ], [ 117.311048644575152, 42.409499692200768 ], [ 117.311048622327277, 42.409495189255992 ], [ 117.311018240392542, 42.409495271686666 ], [ 117.311018284884, 42.409504277576232 ], [ 117.311000055720484, 42.409504327030774 ], [ 117.311000189187112, 42.409531344699396 ], [ 117.311006265577575, 42.40953132821484 ], [ 117.311006310067356, 42.409540334104342 ], [ 117.311012386458671, 42.409540317619459 ], [ 117.311012341968009, 42.409531311729978 ], [ 117.311030571139312, 42.40953126227344 ], [ 117.311030593385937, 42.40953576521818 ], [ 117.311036669776811, 42.409535748732026 ], [ 117.311036647529747, 42.409531245787285 ], [ 117.311067029481777, 42.40953116335168 ], [ 117.311067051731015, 42.409535666296399 ], [ 117.311079204512666, 42.409535633319891 ], [ 117.311079271263011, 42.409549142154042 ], [ 117.3110731948709, 42.409549158642456 ], [ 117.311073239370302, 42.409558164531866 ], [ 117.31107931576328, 42.409558148043445 ], [ 117.311079382513711, 42.409571656877539 ] ], [ [ 117.311048778062627, 42.409526709869262 ], [ 117.31104871131889, 42.40951320103504 ], [ 117.311066940484878, 42.409513151572725 ], [ 117.311067007232552, 42.409526660406939 ], [ 117.311048778062627, 42.409526709869262 ] ] ] } },
{ "type": "Feature", "properties": { "crown_id": 4450, "tree_id": "4453", "top_h_m": 20.969, "H_95_Mean": 21.5375, "DBH": 39.8524, "Carbon_kg": 315.269175, "area_m2": 54.0 }, "geometry": { "type": "Polygon", "coordinates": [ [ [ 117.310988436791604, 42.409612430672645 ], [ 117.311000589588161, 42.409612397704421 ], [ 117.311000522854528, 42.409598888870327 ], [ 117.310994446457556, 42.409598905354592 ], [ 117.31099433523714, 42.409576390631024 ], [ 117.311012564421532, 42.409576341177306 ], [ 117.311012542176144, 42.409571838232587 ], [ 117.311000389387431, 42.409571871202054 ], [ 117.311000344898446, 42.409562865312594 ], [ 117.310994268504942, 42.409562881796823 ], [ 117.3109942017728, 42.409549372962616 ], [ 117.311000278164997, 42.409549356478379 ], [ 117.31100021143159, 42.409535847644143 ], [ 117.310994135040701, 42.409535864128372 ], [ 117.310993957088641, 42.409499840570206 ], [ 117.310981804313798, 42.409499873537641 ], [ 117.310981782070698, 42.40949537059285 ], [ 117.310975705683703, 42.409495387076092 ], [ 117.31097572792639, 42.409499890020896 ], [ 117.310969651538969, 42.409499906503811 ], [ 117.310969673781187, 42.409504409448608 ], [ 117.310963597393325, 42.409504425931196 ], [ 117.310963641876967, 42.409513431820784 ], [ 117.310915030766864, 42.409513563670018 ], [ 117.310915075243585, 42.409522569559613 ], [ 117.310933304412529, 42.409522520118543 ], [ 117.310933326652176, 42.409527023063333 ], [ 117.310939403042255, 42.409527006582344 ], [ 117.310939447522472, 42.409536012471911 ], [ 117.310945523913418, 42.409535995990581 ], [ 117.31094554615396, 42.40954049893535 ], [ 117.310951622545318, 42.4095404824537 ], [ 117.310951689268308, 42.409553991288 ], [ 117.310933460090297, 42.409554040732012 ], [ 117.310933504569718, 42.409563046621543 ], [ 117.310927428176157, 42.409563063102226 ], [ 117.310927450415434, 42.409567566046995 ], [ 117.310903144839443, 42.409567631966588 ], [ 117.310903189314544, 42.409576637856112 ], [ 117.310921418499149, 42.40957658841689 ], [ 117.310921440738014, 42.409581091361645 ], [ 117.310927517133308, 42.409581074881253 ], [ 117.310927539372585, 42.409585577826007 ], [ 117.31093361576832, 42.409585561345295 ], [ 117.31093363800808, 42.409590064290036 ], [ 117.310951867196508, 42.409590014845953 ], [ 117.310951889437561, 42.40959451779068 ], [ 117.310982271420386, 42.409594435377443 ], [ 117.310982315906827, 42.40960344126686 ], [ 117.310988392304267, 42.409603424783249 ], [ 117.310988436791604, 42.409612430672645 ] ] ] } },
{ "type": "Feature", "properties": { "crown_id": 4543, "tree_id": "4547", "top_h_m": 22.328, "H_95_Mean": 22.514, "DBH": 23.587, "Carbon_kg": 112.455212, "area_m2": 6.5 }, "geometry": { "type": "Polygon", "coordinates": [ [ [ 117.311097344679482, 42.409517572073845 ], [ 117.311103421068538, 42.409517555584166 ], [ 117.31110335431309, 42.409504046749966 ], [ 117.311097277925327, 42.409504063239659 ], [ 117.311097233422586, 42.409495057350178 ], [ 117.311091157035676, 42.409495073839523 ], [ 117.311091134784746, 42.409490570894775 ], [ 117.311078982011821, 42.40949060387252 ], [ 117.311078959761758, 42.409486100927751 ], [ 117.311072883375729, 42.409486117416151 ], [ 117.311072905625338, 42.409490620360899 ], [ 117.311054676465886, 42.40949066982413 ], [ 117.311054698714202, 42.409495172768899 ], [ 117.311060775101126, 42.409495156281466 ], [ 117.311060797349896, 42.409499659226242 ], [ 117.311072950124597, 42.40949962625043 ], [ 117.311072972374234, 42.40950412919517 ], [ 117.311079048762025, 42.40950411270677 ], [ 117.31107909326218, 42.409513118596252 ], [ 117.311097322428083, 42.409513069129126 ], [ 117.311097344679482, 42.409517572073845 ] ] ] } },
{ "type": "Feature", "properties": { "crown_id": 4544, "tree_id": "4548", "top_h_m": 21.481, "H_95_Mean": 21.8864, "DBH": 31.5798, "Carbon_kg": 199.137906, "area_m2": 21.25 }, "geometry": { "type": "Polygon", "coordinates": [ [ [ 117.311133914283857, 42.40953998785438 ], [ 117.311139990675059, 42.40953997136274 ], [ 117.311139968420619, 42.409535468418056 ], [ 117.311152121202142, 42.409535435433824 ], [ 117.311152098946806, 42.409530932489133 ], [ 117.311164251727448, 42.409530899503615 ], [ 117.311164207215072, 42.409521893614233 ], [ 117.311158130825632, 42.409521910107152 ], [ 117.311158086314151, 42.409512904217749 ], [ 117.311152009925578, 42.409512920710334 ], [ 117.311151920904393, 42.409494908931478 ], [ 117.311145844517554, 42.409494925423729 ], [ 117.311145822262731, 42.409490422479003 ], [ 117.311139745876289, 42.409490438970934 ], [ 117.311139723621892, 42.409485936026194 ], [ 117.311121494463904, 42.409485985500055 ], [ 117.31112144995771, 42.40947697961056 ], [ 117.311109297187429, 42.409477012591509 ], [ 117.311109274935234, 42.409472509646747 ], [ 117.311103198550512, 42.409472526136739 ], [ 117.311103220802295, 42.409477029081494 ], [ 117.311097144417147, 42.409477045571158 ], [ 117.311097211171216, 42.40949055440543 ], [ 117.311103287557685, 42.409490537915751 ], [ 117.311103332061279, 42.409499543805232 ], [ 117.311109408448601, 42.409499527315234 ], [ 117.311109519709873, 42.409522042038859 ], [ 117.31111559609937, 42.409522025548519 ], [ 117.311115618352048, 42.409526528493231 ], [ 117.311127771131908, 42.409526495511585 ], [ 117.311127793385481, 42.40953099845629 ], [ 117.311133869775816, 42.409530981964991 ], [ 117.311133914283857, 42.40953998785438 ] ], [ [ 117.311139923911696, 42.40952646252866 ], [ 117.311139901657256, 42.409521959583948 ], [ 117.311145978046724, 42.409521943092003 ], [ 117.311146000301605, 42.409526446036701 ], [ 117.311139923911696, 42.40952646252866 ] ] ] } },
{ "type": "Feature", "properties": { "crown_id": 4590, "tree_id": "4594", "top_h_m": 21.179, "H_95_Mean": 21.003, "DBH": 32.4598, "Carbon_kg": 205.413398, "area_m2": 25.5 }, "geometry": { "type": "MultiPolygon", "coordinates": [ [ [ [ 117.311048600079374, 42.409490686311237 ], [ 117.3110485778315, 42.409486183366461 ], [ 117.311066806989672, 42.40948613390421 ], [ 117.31106678474049, 42.409481630959434 ], [ 117.311085013897312, 42.409481581494298 ], [ 117.311085036147787, 42.40948608443906 ], [ 117.311091112533816, 42.409486067950027 ], [ 117.311091045781083, 42.409472559115741 ], [ 117.311097122165805, 42.409472542626403 ], [ 117.311097099914448, 42.409468039681641 ], [ 117.311103176298744, 42.409468023191984 ], [ 117.311103154046975, 42.409463520247222 ], [ 117.311072772127687, 42.409463602692291 ], [ 117.311072749878079, 42.409459099747508 ], [ 117.311066673494636, 42.40945911623556 ], [ 117.311066651245483, 42.409454613290769 ], [ 117.311060574862481, 42.409454629778487 ], [ 117.311060508116356, 42.409441120944102 ], [ 117.311024049826017, 42.409441219863623 ], [ 117.311024072072115, 42.409445722808456 ], [ 117.311011919307759, 42.409445755779046 ], [ 117.311011963798222, 42.409454761668677 ], [ 117.311018040181281, 42.409454745183538 ], [ 117.311018084672639, 42.409463751073147 ], [ 117.311024161056551, 42.409463734587675 ], [ 117.311024227794917, 42.409477243422053 ], [ 117.311018151409712, 42.409477259907533 ], [ 117.311018218146828, 42.409490768741904 ], [ 117.311048600079374, 42.409490686311237 ] ] ], [ [ [ 117.311012186250878, 42.40949979111663 ], [ 117.311012164005575, 42.409495288171847 ], [ 117.311006087618622, 42.409495304656687 ], [ 117.31100610986347, 42.409499807601478 ], [ 117.311012186250878, 42.40949979111663 ] ] ] ] } },
{ "type": "Feature", "properties": { "crown_id": 4624, "tree_id": "4628", "top_h_m": 20.41, "H_95_Mean": 21.0098, "DBH": 27.292, "Carbon_kg": 144.851969, "area_m2": 13.0 }, "geometry": { "type": "Polygon", "coordinates": [ [ [ 117.310987858457679, 42.409495354109303 ], [ 117.311000011231656, 42.409495321141222 ], [ 117.310999988987234, 42.409490818196424 ], [ 117.311012141760287, 42.409490785227064 ], [ 117.311012052779233, 42.409472773447888 ], [ 117.311018129164012, 42.409472756962742 ], [ 117.311018106918326, 42.409468254017952 ], [ 117.311012030533973, 42.409468270503098 ], [ 117.311011986043454, 42.409459264613488 ], [ 117.311005909659968, 42.409459281098314 ], [ 117.311005865170372, 42.409450275208677 ], [ 117.310993712405107, 42.409450308177362 ], [ 117.310993690161197, 42.409445805232536 ], [ 117.310987613778977, 42.409445821716389 ], [ 117.310987636022475, 42.409450324661215 ], [ 117.310975483257181, 42.409450357627961 ], [ 117.310975594470392, 42.409472872352069 ], [ 117.310981670855199, 42.409472855868842 ], [ 117.310981759827584, 42.40949086764806 ], [ 117.310987836214153, 42.409490851164513 ], [ 117.310987858457679, 42.409495354109303 ] ] ] } },
{ "type": "Feature", "properties": { "crown_id": 4625, "tree_id": "4629", "top_h_m": 19.94, "H_95_Mean": 21.3242, "DBH": 22.7588, "Carbon_kg": 101.331824, "area_m2": 6.25 }, "geometry": { "type": "Polygon", "coordinates": [ [ [ 117.311115351319941, 42.409472493156443 ], [ 117.311127504089328, 42.409472460174861 ], [ 117.311127481835825, 42.409467957230113 ], [ 117.311133558220078, 42.409467940738843 ], [ 117.311133513712178, 42.409458934849326 ], [ 117.311127437328793, 42.409458951340596 ], [ 117.311127370568315, 42.409445442506303 ], [ 117.311133446950407, 42.409445426015047 ], [ 117.311133424696493, 42.409440923070271 ], [ 117.311121271933189, 42.409440956052471 ], [ 117.311121294186236, 42.409445458997247 ], [ 117.311109141422051, 42.409445491978147 ], [ 117.311109163674232, 42.40944999492293 ], [ 117.311097010909137, 42.409450027902544 ], [ 117.311097055411793, 42.409459033792103 ], [ 117.311109208178621, 42.409459000812468 ], [ 117.311109252683025, 42.409468006701992 ], [ 117.311115329067306, 42.409467990211688 ], [ 117.311115351319941, 42.409472493156443 ] ] ] } },
{ "type": "Feature", "properties": { "crown_id": 4626, "tree_id": "4630", "top_h_m": 19.793, "H_95_Mean": 20.8814, "DBH": 31.2535, "Carbon_kg": 189.665414, "area_m2": 22.25 }, "geometry": { "type": "Polygon", "coordinates": [ [ [ 117.311151898649143, 42.409490405986759 ], [ 117.311170127808353, 42.409490356508073 ], [ 117.311170105551767, 42.409485853563339 ], [ 117.311188334709641, 42.409485804081761 ], [ 117.311188245678153, 42.409467792302884 ], [ 117.311194322062377, 42.409467775808395 ], [ 117.311194277545781, 42.409458769918935 ], [ 117.311206430312453, 42.409458736928997 ], [ 117.311206385794151, 42.409449731039544 ], [ 117.311194233029241, 42.409449764029482 ], [ 117.311194210770978, 42.409445261084741 ], [ 117.311169905242807, 42.40944532706073 ], [ 117.311169882986277, 42.409440824115968 ], [ 117.311163806604668, 42.40944084060915 ], [ 117.311163828860771, 42.409445343553912 ], [ 117.31114559971455, 42.409445393031554 ], [ 117.311145577459783, 42.409440890086785 ], [ 117.311139501078131, 42.409440906578695 ], [ 117.311139545586855, 42.409449912468233 ], [ 117.311133469204336, 42.409449928959809 ], [ 117.311133491458278, 42.409454431904564 ], [ 117.311139567841195, 42.409454415412981 ], [ 117.311139656858714, 42.409472427191979 ], [ 117.311133580474035, 42.40947244368359 ], [ 117.311133602727963, 42.409476946628324 ], [ 117.311127526342858, 42.409476963119609 ], [ 117.311127548596374, 42.409481466064349 ], [ 117.311145777753055, 42.409481416589543 ], [ 117.311145800007878, 42.409485919534269 ], [ 117.311151876393851, 42.409485903042025 ], [ 117.311151898649143, 42.409490405986759 ] ] ] } },
{ "type": "Feature", "properties": { "crown_id": 4738, "tree_id": "4742", "top_h_m": 18.98, "H_95_Mean": 20.1342, "DBH": 29.4935, "Carbon_kg": 165.155689, "area_m2": 19.0 }, "geometry": { "type": "Polygon", "coordinates": [ [ [ 117.311078826261507, 42.409459083259136 ], [ 117.311090979028378, 42.409459050281434 ], [ 117.311090912275716, 42.409445541447106 ], [ 117.311103065039944, 42.409445508468124 ], [ 117.31110304278819, 42.409441005523334 ], [ 117.311115195551537, 42.409440972543088 ], [ 117.311115173298916, 42.409436469598305 ], [ 117.311121249680141, 42.409436453107688 ], [ 117.311121182921042, 42.409422944273331 ], [ 117.311102953781258, 42.409422993744172 ], [ 117.311102909277821, 42.409413987854577 ], [ 117.31109683289877, 42.409414004344207 ], [ 117.311096810647499, 42.409409501399395 ], [ 117.311078581511566, 42.409409550866357 ], [ 117.311078559261603, 42.409405047921531 ], [ 117.31107248288339, 42.409405064409867 ], [ 117.311072505132913, 42.409409567354686 ], [ 117.311066428754245, 42.409409583842702 ], [ 117.31106645100337, 42.409414086787521 ], [ 117.311084680140624, 42.409414037322506 ], [ 117.311084746891865, 42.409427546156927 ], [ 117.311066517750689, 42.40942759562197 ], [ 117.311066473252467, 42.409418589732354 ], [ 117.311060396872918, 42.409418606220058 ], [ 117.311060419121617, 42.409423109164869 ], [ 117.311036113601688, 42.409423175112458 ], [ 117.31103615809559, 42.409432181002117 ], [ 117.311030081714719, 42.409432197488215 ], [ 117.311030103961244, 42.409436700433034 ], [ 117.311066562248939, 42.409436601511587 ], [ 117.311066628996343, 42.409450110345979 ], [ 117.311072705378905, 42.409450093857942 ], [ 117.311072727628485, 42.409454596802718 ], [ 117.311078804011501, 42.40945458031436 ], [ 117.311078826261507, 42.409459083259136 ] ] ] } },
{ "type": "Feature", "properties": { "crown_id": 4750, "tree_id": "4754", "top_h_m": 18.925, "H_95_Mean": 19.535, "DBH": 24.3186, "Carbon_kg": 109.96631, "area_m2": 9.5 }, "geometry": { "type": "Polygon", "coordinates": [ [ [ 117.310951177726551, 42.409450423557587 ], [ 117.310957254109212, 42.409450407075667 ], [ 117.310957231867903, 42.409445904130827 ], [ 117.310969384632358, 42.409445871166014 ], [ 117.310969251179316, 42.409418853496923 ], [ 117.310963174799724, 42.409418869979476 ], [ 117.310963152558003, 42.409414367034614 ], [ 117.31095099979963, 42.409414399998745 ], [ 117.310950977558775, 42.40940989705387 ], [ 117.310938824801255, 42.4094099300167 ], [ 117.310938958241181, 42.409436947685904 ], [ 117.310932881859799, 42.409436964166858 ], [ 117.31093290409936, 42.409441467111712 ], [ 117.310938980481168, 42.409441450630759 ], [ 117.310939002721184, 42.409445953575613 ], [ 117.310951155485668, 42.409445920612747 ], [ 117.310951177726551, 42.409450423557587 ] ] ] } },
{ "type": "Feature", "properties": { "crown_id": 4751, "tree_id": "4755", "top_h_m": 18.193, "H_95_Mean": 18.3389, "DBH": 20.9622, "Carbon_kg": 78.528511, "area_m2": 6.0 }, "geometry": { "type": "Polygon", "coordinates": [ [ [ 117.311151653841407, 42.409440873594562 ], [ 117.311157730223044, 42.40944085710202 ], [ 117.311157707967382, 42.409436354157258 ], [ 117.311163784348579, 42.409436337664395 ], [ 117.311163673068222, 42.409413822940543 ], [ 117.311151520310204, 42.409413855925933 ], [ 117.311151542565383, 42.40941835887071 ], [ 117.31114546618592, 42.409418375362925 ], [ 117.311145488440687, 42.409422878307709 ], [ 117.31112725930096, 42.409422927782408 ], [ 117.311127326061367, 42.409436436616751 ], [ 117.311151631586199, 42.409436370649807 ], [ 117.311151653841407, 42.409440873594562 ] ] ] } },
{ "type": "Feature", "properties": { "crown_id": 4776, "tree_id": "4780", "top_h_m": 21.194, "H_95_Mean": 21.3984, "DBH": 25.3927, "Carbon_kg": 126.617534, "area_m2": 9.5 }, "geometry": { "type": "MultiPolygon", "coordinates": [ [ [ [ 117.310975461014579, 42.409445854683135 ], [ 117.310981537396785, 42.409445838199915 ], [ 117.310981515153728, 42.409441335255089 ], [ 117.310975438771933, 42.409441351738295 ], [ 117.310975461014579, 42.409445854683135 ] ] ], [ [ [ 117.310981515153728, 42.409441335255089 ], [ 117.310987591535508, 42.409441318771556 ], [ 117.310987480318147, 42.409418804047341 ], [ 117.310993556697738, 42.409418787563517 ], [ 117.310993534453829, 42.409414284618663 ], [ 117.310999610832994, 42.409414268134505 ], [ 117.310999588588672, 42.409409765189658 ], [ 117.310993512209947, 42.409409781673808 ], [ 117.310993489966066, 42.409405278728947 ], [ 117.310987413587796, 42.409405295212785 ], [ 117.310987369100886, 42.409396289323055 ], [ 117.310963063591174, 42.409396355255126 ], [ 117.310963085832867, 42.409400858200001 ], [ 117.310926627565507, 42.409400957088472 ], [ 117.3109266498046, 42.409405460033355 ], [ 117.310957031696262, 42.409405377627095 ], [ 117.310957053937528, 42.409409880571978 ], [ 117.310969206695034, 42.409409847607208 ], [ 117.310969228937154, 42.409414350552062 ], [ 117.310975305316347, 42.409414334069197 ], [ 117.310975416529331, 42.409436848793447 ], [ 117.31098149291067, 42.409436832310249 ], [ 117.310981515153728, 42.409441335255089 ] ] ] ] } }
]
}
