{
"type": "FeatureCollection",
"name": "tile_8_22",
"crs": { "type": "name", "properties": { "name": "urn:ogc:def:crs:OGC:1.3:CRS84" } },
"features": [
{ "type": "Feature", "properties": { "crown_id": 3068, "tree_id": "3069", "top_h_m": 17.339, "H_95_Mean": 17.1825, "DBH": 31.8249, "Carbon_kg": 175.293557, "area_m2": 34.25 }, "geometry": { "type": "Polygon", "coordinates": [ [ [ 117.315043984701887, 42.410119202761742 ], [ 117.315068290481221, 42.410119135963534 ], [ 117.315068267945321, 42.410114633020989 ], [ 117.315074344389714, 42.410114616320648 ], [ 117.315074366926027, 42.410119119263179 ], [ 117.315080443370846, 42.410119102562497 ], [ 117.315080420834093, 42.410114599619966 ], [ 117.315092573722836, 42.410114566217651 ], [ 117.315092551185202, 42.41011006327512 ], [ 117.315110780516974, 42.410110013169223 ], [ 117.315110735439163, 42.410101007284148 ], [ 117.315116811882206, 42.410100990581554 ], [ 117.315116744264174, 42.410087481753926 ], [ 117.315110667822452, 42.410087498456519 ], [ 117.315110690361337, 42.410092001399079 ], [ 117.315104613919175, 42.410092018101338 ], [ 117.315104546303786, 42.410078509273681 ], [ 117.315092393422006, 42.410078542677248 ], [ 117.315092325809289, 42.410065033849534 ], [ 117.315068020050902, 42.410065100652766 ], [ 117.315067997515087, 42.410060597710178 ], [ 117.315049768197539, 42.410060647809217 ], [ 117.315049790732076, 42.410065150751805 ], [ 117.315037637852811, 42.410065184149559 ], [ 117.315037660386452, 42.410069687092161 ], [ 117.315025507506334, 42.410069720488629 ], [ 117.315025530039108, 42.410074223431231 ], [ 117.315031606479621, 42.410074206733164 ], [ 117.315031786745649, 42.410110230273801 ], [ 117.315037863189616, 42.410110213575379 ], [ 117.315037885723328, 42.410114716517946 ], [ 117.315043962167735, 42.410114699819189 ], [ 117.315043984701887, 42.410119202761742 ] ], [ [ 117.315037727987459, 42.410083195919938 ], [ 117.31503770545379, 42.410078692977343 ], [ 117.31504378189473, 42.41007867627863 ], [ 117.315043804428839, 42.410083179221203 ], [ 117.315037727987459, 42.410083195919938 ] ] ] } },
{ "type": "Feature", "properties": { "crown_id": 3069, "tree_id": "3070", "top_h_m": 20.77, "H_95_Mean": 20.4809, "DBH": 32.8571, "Carbon_kg": 207.40125, "area_m2": 28.0 }, "geometry": { "type": "Polygon", "coordinates": [ [ [ 117.315311370823252, 42.410122970640501 ], [ 117.315317447268285, 42.41012295392725 ], [ 117.315317424714593, 42.410118450984818 ], [ 117.315323501159199, 42.410118434271261 ], [ 117.315323456050919, 42.410109428386392 ], [ 117.315335608938369, 42.410109394958312 ], [ 117.315335518718399, 42.410091383188536 ], [ 117.315329442276422, 42.410091399902733 ], [ 117.315329419721877, 42.41008689696028 ], [ 117.315323343280312, 42.410086913674135 ], [ 117.315323320726208, 42.41008241073169 ], [ 117.315317244285083, 42.410082427445225 ], [ 117.315317199177741, 42.410073421560298 ], [ 117.315311122737498, 42.410073438273507 ], [ 117.31531110018426, 42.410068935331033 ], [ 117.315305023744429, 42.410068952043922 ], [ 117.31530500119166, 42.410064449101434 ], [ 117.315298924752241, 42.410064465813996 ], [ 117.315298902199899, 42.410059962871514 ], [ 117.315262443565956, 42.410060063140115 ], [ 117.315262466115684, 42.410064566082625 ], [ 117.315256389676236, 42.41006458279292 ], [ 117.315256434774852, 42.410073588677932 ], [ 117.315250358334524, 42.410073605387922 ], [ 117.315250380883413, 42.410078108330424 ], [ 117.315256457324168, 42.410078091620427 ], [ 117.315256524972128, 42.410091600447892 ], [ 117.31526260141419, 42.410091583737568 ], [ 117.31526262396396, 42.410096086680035 ], [ 117.315268700406435, 42.410096069969399 ], [ 117.315268722956645, 42.410100572911865 ], [ 117.315286952285362, 42.410100522777981 ], [ 117.315286974836866, 42.410105025720434 ], [ 117.315293051280207, 42.410105009008497 ], [ 117.315293073832166, 42.410109511950942 ], [ 117.315299150275933, 42.410109495238686 ], [ 117.315299172828333, 42.410113998181131 ], [ 117.315311325716706, 42.410113964755624 ], [ 117.315311370823252, 42.410122970640501 ] ] ] } },
{ "type": "Feature", "properties": { "crown_id": 3309, "tree_id": "3311", "top_h_m": 18.363, "H_95_Mean": 18.3982, "DBH": 36.9773, "Carbon_kg": 246.985554, "area_m2": 54.0 }, "geometry": { "type": "MultiPolygon", "coordinates": [ [ [ [ 117.315049565387071, 42.410020121325687 ], [ 117.315073871128135, 42.41002005452642 ], [ 117.315073848591922, 42.410015551583804 ], [ 117.315086001461566, 42.410015518182249 ], [ 117.315085978924486, 42.410011015239633 ], [ 117.315092055358861, 42.410010998538375 ], [ 117.315092010283863, 42.410001992653129 ], [ 117.31509808671737, 42.410001975951559 ], [ 117.315098064179452, 42.409997473008929 ], [ 117.315104140612505, 42.409997456307039 ], [ 117.315104072997457, 42.409983947479148 ], [ 117.315116225860933, 42.409983914074395 ], [ 117.315116180782525, 42.409974908189149 ], [ 117.315122257213417, 42.4099748914863 ], [ 117.315122234673765, 42.409970388543663 ], [ 117.315128311104203, 42.409970371840494 ], [ 117.315128288564139, 42.409965868897856 ], [ 117.315134364994151, 42.409965852194361 ], [ 117.315134342453632, 42.409961349251731 ], [ 117.315122189594518, 42.409961382658381 ], [ 117.315122054356905, 42.409934365002442 ], [ 117.315109901502964, 42.409934398407771 ], [ 117.315109924041693, 42.409938901350458 ], [ 117.315103847614296, 42.409938918052632 ], [ 117.315103870152598, 42.409943420995297 ], [ 117.315097793724732, 42.409943437697166 ], [ 117.315097816262593, 42.409947940639832 ], [ 117.315079586977745, 42.409947990743497 ], [ 117.315079609514314, 42.409952493686177 ], [ 117.315037074513072, 42.409952610583481 ], [ 117.315037097046584, 42.409957113526161 ], [ 117.315031020617369, 42.409957130224491 ], [ 117.315030998084282, 42.409952627281818 ], [ 117.315012768797956, 42.409952677374861 ], [ 117.315012791329735, 42.409957180317555 ], [ 117.315006714900505, 42.409957197014606 ], [ 117.315006737431858, 42.409961699957293 ], [ 117.315000661002216, 42.409961716654003 ], [ 117.315000706064055, 42.409970722539406 ], [ 117.31501285892513, 42.409970689145617 ], [ 117.315012881456937, 42.409975192088304 ], [ 117.315018957887915, 42.409975175390926 ], [ 117.315019002952397, 42.409984181276279 ], [ 117.315031155816058, 42.40998414788055 ], [ 117.315031200882302, 42.409993153765882 ], [ 117.315037277315, 42.409993137067531 ], [ 117.315037322382139, 42.410002142952834 ], [ 117.315043398815703, 42.410002126254149 ], [ 117.315043421349699, 42.410006629196793 ], [ 117.315049497783704, 42.410006612497796 ], [ 117.315049565387071, 42.410020121325687 ] ] ], [ [ [ 117.315086001461566, 42.410015518182249 ], [ 117.315086023998646, 42.410020021124858 ], [ 117.315092100433887, 42.4100200044236 ], [ 117.315092077896381, 42.410015501480984 ], [ 117.315086001461566, 42.410015518182249 ] ] ] ] } },
{ "type": "Feature", "properties": { "crown_id": 3398, "tree_id": "3401", "top_h_m": 11.437, "H_95_Mean": 11.5737, "DBH": 22.1404, "Carbon_kg": 66.781928, "area_m2": 17.75 }, "geometry": { "type": "MultiPolygon", "coordinates": [ [ [ [ 117.315140418883203, 42.409961332547915 ], [ 117.315176877460402, 42.409961232318309 ], [ 117.315176854916857, 42.409956729375686 ], [ 117.315170778487769, 42.409956746081434 ], [ 117.315170755944692, 42.409952243138797 ], [ 117.315176832373339, 42.409952226433063 ], [ 117.315176809829822, 42.409947723490433 ], [ 117.315182886258043, 42.409947706784379 ], [ 117.315182863714085, 42.409943203841749 ], [ 117.315176787286305, 42.409943220547802 ], [ 117.315176697112307, 42.409925208777238 ], [ 117.315164544260199, 42.409925242188343 ], [ 117.315164521717591, 42.409920739245692 ], [ 117.315158445291971, 42.409920755950765 ], [ 117.315158422749775, 42.409916253008099 ], [ 117.315146269899401, 42.409916286417285 ], [ 117.31514629244073, 42.409920789359958 ], [ 117.315134139589432, 42.409920822767837 ], [ 117.315134162129894, 42.409925325710503 ], [ 117.315122009277729, 42.409925359117118 ], [ 117.31512203181731, 42.409929862059784 ], [ 117.315128108243826, 42.409929845356636 ], [ 117.31512824348404, 42.409956863012575 ], [ 117.315140396342272, 42.409956829605285 ], [ 117.315140418883203, 42.409961332547915 ] ] ], [ [ [ 117.315182863714085, 42.409943203841749 ], [ 117.315188940141852, 42.409943187135369 ], [ 117.315188917597467, 42.409938684192753 ], [ 117.315182841170142, 42.409938700899119 ], [ 117.315182863714085, 42.409943203841749 ] ] ] ] } }
]
}
