{
"type": "FeatureCollection",
"name": "tile_22_19",
"crs": { "type": "name", "properties": { "name": "urn:ogc:def:crs:OGC:1.3:CRS84" } },
"features": [
{ "type": "Feature", "properties": { "crown_id": 8345, "tree_id": "8353", "top_h_m": 24.488, "H_95_Mean": 23.7278, "DBH": 36.2314, "Carbon_kg": 275.53709, "area_m2": 31.25 }, "geometry": { "type": "Polygon", "coordinates": [ [ [ 117.314399486377383, 42.407608295055589 ], [ 117.314423791188887, 42.407608228397201 ], [ 117.314423746213251, 42.407599222507599 ], [ 117.314429822415249, 42.407599205842189 ], [ 117.314429799927026, 42.407594702897384 ], [ 117.314448028531643, 42.40759465289927 ], [ 117.314448006042099, 42.407590149954459 ], [ 117.314454082243202, 42.407590133287776 ], [ 117.314454014773332, 42.407576624453355 ], [ 117.314441862373727, 42.407576657786379 ], [ 117.3144417949065, 42.407563148951922 ], [ 117.314435718708012, 42.407563165617937 ], [ 117.314435696219391, 42.407558662673097 ], [ 117.314417467625134, 42.407558712669221 ], [ 117.314417445137835, 42.407554209724374 ], [ 117.314411368940156, 42.407554226389095 ], [ 117.314411346453284, 42.407549723444255 ], [ 117.314405270256074, 42.407549740108664 ], [ 117.314405247769628, 42.407545237163809 ], [ 117.31439917157283, 42.407545253827877 ], [ 117.31439914908681, 42.407540750883008 ], [ 117.314393072890454, 42.407540767546777 ], [ 117.314393185318352, 42.407563282271063 ], [ 117.314387109119821, 42.407563298934512 ], [ 117.31438713160496, 42.40756780187936 ], [ 117.314374979206988, 42.407567835205285 ], [ 117.314375001691289, 42.407572338150132 ], [ 117.314368925491877, 42.407572354812622 ], [ 117.314369060395123, 42.407599372481677 ], [ 117.314381212799205, 42.407599339156363 ], [ 117.314381235283946, 42.407603842101182 ], [ 117.31439946389132, 42.40760379211077 ], [ 117.314399486377383, 42.407608295055589 ] ] ] } },
{ "type": "Feature", "properties": { "crown_id": 8392, "tree_id": "8400", "top_h_m": 23.169, "H_95_Mean": 22.8925, "DBH": 28.135, "Carbon_kg": 162.030455, "area_m2": 12.5 }, "geometry": { "type": "Polygon", "coordinates": [ [ [ 117.314362826809003, 42.407567868529931 ], [ 117.314368903008003, 42.407567851867768 ], [ 117.314368880524142, 42.407563348922906 ], [ 117.314381032921261, 42.407563315597642 ], [ 117.314381010436549, 42.407558812652766 ], [ 117.314387086634639, 42.407558795989651 ], [ 117.314386974208958, 42.407536281265322 ], [ 117.314362669425165, 42.407536347915823 ], [ 117.314362646941774, 42.40753184497094 ], [ 117.31435657074627, 42.407531861632755 ], [ 117.314356593229206, 42.407536364577652 ], [ 117.314344440837274, 42.407536397900309 ], [ 117.314344485801442, 42.407545403790103 ], [ 117.314338409604588, 42.407545420450951 ], [ 117.314338432086245, 42.407549923395827 ], [ 117.31432020349439, 42.40754997337649 ], [ 117.314320225974754, 42.407554476321373 ], [ 117.314332378370196, 42.40755444300126 ], [ 117.314332400851455, 42.407558945946128 ], [ 117.31434455324775, 42.407558912624722 ], [ 117.314344575729862, 42.407563415569605 ], [ 117.314362804325583, 42.407563365585069 ], [ 117.314362826809003, 42.407567868529931 ] ] ] } },
{ "type": "Feature", "properties": { "crown_id": 8393, "tree_id": "8401", "top_h_m": 20.955, "H_95_Mean": 20.9795, "DBH": 30.8598, "Carbon_kg": 185.394005, "area_m2": 21.0 }, "geometry": { "type": "Polygon", "coordinates": [ [ [ 117.314472288355205, 42.407585580341021 ], [ 117.314478364555839, 42.407585563673052 ], [ 117.314478342064149, 42.407581060728255 ], [ 117.314484418264371, 42.40758104405996 ], [ 117.314484440756488, 42.407585547004764 ], [ 117.314496593157742, 42.407585513667208 ], [ 117.31449657066473, 42.407581010722431 ], [ 117.314508723065103, 42.40758097738361 ], [ 117.314508700571253, 42.407576474438812 ], [ 117.314526929170469, 42.407576424428164 ], [ 117.31452688418014, 42.407567418538598 ], [ 117.314532960379012, 42.407567401867745 ], [ 117.314532892892274, 42.407553893033374 ], [ 117.314526816694709, 42.40755390970422 ], [ 117.314526794199551, 42.407549406759415 ], [ 117.314514641805317, 42.407549440100141 ], [ 117.314514619311041, 42.407544937155336 ], [ 117.314502466917631, 42.407544970494754 ], [ 117.314502444424249, 42.407540467549929 ], [ 117.314496368227978, 42.407540484219155 ], [ 117.314496390720905, 42.407544987163988 ], [ 117.314466009737288, 42.407545070505307 ], [ 117.314466054718849, 42.407554076394966 ], [ 117.314472130916471, 42.407554059727339 ], [ 117.314472198390177, 42.407567568561788 ], [ 117.314453969793448, 42.407567618563732 ], [ 117.314453947303491, 42.407563115618906 ], [ 117.314447871105003, 42.407563132285574 ], [ 117.314447916084021, 42.407572138175219 ], [ 117.314466144682086, 42.407572088174241 ], [ 117.31446616717291, 42.407576591119046 ], [ 117.314460090973114, 42.407576607786368 ], [ 117.314460113463497, 42.407581110731165 ], [ 117.314472265863941, 42.407581077396223 ], [ 117.314472288355205, 42.407585580341021 ] ] ] } },
{ "type": "Feature", "properties": { "crown_id": 8411, "tree_id": "8419", "top_h_m": 20.563, "H_95_Mean": 20.6616, "DBH": 24.0835, "Carbon_kg": 111.470188, "area_m2": 8.25 }, "geometry": { "type": "Polygon", "coordinates": [ [ [ 117.314441772417439, 42.407558646007082 ], [ 117.314447848615501, 42.407558629340741 ], [ 117.314447826126013, 42.407554126395908 ], [ 117.314453902323621, 42.407554109729247 ], [ 117.314453879833721, 42.407549606784414 ], [ 117.314459956030902, 42.407549590117441 ], [ 117.314459866069527, 42.407531578338087 ], [ 117.314441637483156, 42.40753162833802 ], [ 117.314441659972204, 42.407536131282875 ], [ 117.314405202796763, 42.407536231274079 ], [ 117.314405225283181, 42.407540734218941 ], [ 117.314411301479524, 42.407540717554539 ], [ 117.314411323966411, 42.407545220499401 ], [ 117.31441740016318, 42.40754520383468 ], [ 117.314417422650521, 42.407549706779534 ], [ 117.314423498847731, 42.407549690114486 ], [ 117.31442352133547, 42.407554193059333 ], [ 117.314441749928392, 42.407554143062249 ], [ 117.314441772417439, 42.407558646007082 ] ] ] } },
{ "type": "Feature", "properties": { "crown_id": 8452, "tree_id": "8460", "top_h_m": 22.095, "H_95_Mean": 22.1058, "DBH": 33.987, "Carbon_kg": 232.282868, "area_m2": 27.75 }, "geometry": { "type": "Polygon", "coordinates": [ [ [ 117.314393050404888, 42.407536264601902 ], [ 117.314399126600833, 42.407536247938147 ], [ 117.314399104114841, 42.407531744993271 ], [ 117.314435561287709, 42.407531645004028 ], [ 117.314435538799103, 42.407527142059173 ], [ 117.314453767384165, 42.407527092060199 ], [ 117.314453609955024, 42.407495571446155 ], [ 117.314459686146989, 42.407495554779203 ], [ 117.314459618676125, 42.407482045944555 ], [ 117.314441390104122, 42.40748209594441 ], [ 117.31444136761516, 42.40747759299952 ], [ 117.314447443805392, 42.407477576333228 ], [ 117.314447398826601, 42.407468570443434 ], [ 117.314441322637236, 42.407468587109726 ], [ 117.31444130014826, 42.407464084164815 ], [ 117.314435223959322, 42.407464100830779 ], [ 117.314435201470829, 42.407459597885861 ], [ 117.314429125282317, 42.407459614551499 ], [ 117.314429102794222, 42.407455111606573 ], [ 117.314423026606136, 42.407455128271899 ], [ 117.31442304909379, 42.407459631216824 ], [ 117.314416972905249, 42.407459647881815 ], [ 117.314417152803131, 42.407495671441076 ], [ 117.314411076611108, 42.407495688105776 ], [ 117.314411121584754, 42.407504693995548 ], [ 117.31439896919899, 42.407504727323975 ], [ 117.314398991684953, 42.407509230268879 ], [ 117.314392915491638, 42.407509246932605 ], [ 117.314392937977175, 42.407513749877502 ], [ 117.314399014170917, 42.407513733213761 ], [ 117.314399081628849, 42.407527242048403 ], [ 117.314393005433786, 42.40752725871215 ], [ 117.314393050404888, 42.407536264601902 ] ] ] } },
{ "type": "Feature", "properties": { "crown_id": 8453, "tree_id": "8461", "top_h_m": 22.37, "H_95_Mean": 23.2668, "DBH": 28.7794, "Carbon_kg": 171.231844, "area_m2": 13.25 }, "geometry": { "type": "Polygon", "coordinates": [ [ [ 117.314544977798036, 42.407540350856316 ], [ 117.314557130190522, 42.407540317512378 ], [ 117.314557107693204, 42.407535814567588 ], [ 117.314569260084795, 42.407535781222379 ], [ 117.314569237586625, 42.407531278277581 ], [ 117.314575313781972, 42.407531261604497 ], [ 117.31457529128339, 42.407526758659699 ], [ 117.314581367478283, 42.407526741986295 ], [ 117.314581344979274, 42.407522239041484 ], [ 117.314593497368222, 42.407522205693709 ], [ 117.314593452368456, 42.407513199804107 ], [ 117.314599528562027, 42.407513183129751 ], [ 117.314599506061711, 42.407508680184954 ], [ 117.314587353675421, 42.407508713533339 ], [ 117.314587331176, 42.407504210588542 ], [ 117.314569102597773, 42.407504260608718 ], [ 117.314569080099659, 42.407499757663899 ], [ 117.31454477533039, 42.407499824352954 ], [ 117.314544977798036, 42.407540350856316 ] ] ] } },
{ "type": "Feature", "properties": { "crown_id": 8461, "tree_id": "8469", "top_h_m": 21.86, "H_95_Mean": 21.5857, "DBH": 34.5796, "Carbon_kg": 237.154832, "area_m2": 31.0 }, "geometry": { "type": "Polygon", "coordinates": [ [ [ 117.314344418355176, 42.407531894955426 ], [ 117.314350494550709, 42.407531878294243 ], [ 117.314350472068213, 42.40752737534936 ], [ 117.314368700653503, 42.407527325363922 ], [ 117.314368723137292, 42.407531828308805 ], [ 117.314386951723833, 42.407531778320461 ], [ 117.314386906753612, 42.407522772430688 ], [ 117.314392982948235, 42.407522755767268 ], [ 117.314392960462698, 42.407518252822385 ], [ 117.314386884268501, 42.407518269485806 ], [ 117.314386816813197, 42.407504760651129 ], [ 117.314392893006115, 42.407504743987708 ], [ 117.314392870520578, 42.407500241042818 ], [ 117.31440502290549, 42.407500207715039 ], [ 117.314404977932725, 42.407491201825245 ], [ 117.314411054124307, 42.407491185160865 ], [ 117.314410941690298, 42.40746867043633 ], [ 117.314404865500904, 42.407468687100675 ], [ 117.314404887987237, 42.407473190045593 ], [ 117.314374507037996, 42.407473273362562 ], [ 117.314374529522169, 42.407477776307495 ], [ 117.314368453331866, 42.407477792969914 ], [ 117.314368475815641, 42.407482295914839 ], [ 117.314338094861881, 42.407482379222174 ], [ 117.314338117343468, 42.407486882167106 ], [ 117.314332041152269, 42.407486898827607 ], [ 117.314332063633415, 42.407491401772546 ], [ 117.314325987441777, 42.40749141843272 ], [ 117.31432607736474, 42.407509430212443 ], [ 117.314332153558112, 42.407509413552255 ], [ 117.314332198520489, 42.407518419442084 ], [ 117.314338274714743, 42.407518402781555 ], [ 117.314338297196358, 42.407522905726452 ], [ 117.314344373391052, 42.407522889065618 ], [ 117.314344418355176, 42.407531894955426 ] ] ] } },
{ "type": "Feature", "properties": { "crown_id": 8462, "tree_id": "8470", "top_h_m": 22.516, "H_95_Mean": 23.4861, "DBH": 38.1752, "Carbon_kg": 304.294481, "area_m2": 39.0 }, "geometry": { "type": "Polygon", "coordinates": [ [ [ 117.31453287039669, 42.407549390088569 ], [ 117.3145389465938, 42.407549373417396 ], [ 117.314538699138069, 42.407499841024418 ], [ 117.314526546753399, 42.407499874366366 ], [ 117.314526479268181, 42.407486365531817 ], [ 117.314520403077125, 42.407486382202308 ], [ 117.314520358087876, 42.407477376312585 ], [ 117.314514281897686, 42.407477392982749 ], [ 117.314514259403509, 42.407472890037873 ], [ 117.314496030834249, 42.407472940046411 ], [ 117.314496075820017, 42.407481945936148 ], [ 117.314489999629373, 42.407481962605026 ], [ 117.314490022121831, 42.407486465549901 ], [ 117.314471793548591, 42.407486515554588 ], [ 117.314471816039756, 42.407491018499464 ], [ 117.314465739848245, 42.407491035167048 ], [ 117.314465784829679, 42.407500041056799 ], [ 117.314459708637301, 42.407500057724071 ], [ 117.314459843579186, 42.40752707539324 ], [ 117.314465919774179, 42.407527058725954 ], [ 117.314465987246493, 42.407540567560474 ], [ 117.314490292031692, 42.407540500888061 ], [ 117.314490269539164, 42.407535997943235 ], [ 117.314508498126685, 42.407535947935557 ], [ 117.314508520620507, 42.407540450880376 ], [ 117.31452067301305, 42.407540417540311 ], [ 117.314520695507738, 42.40754492048513 ], [ 117.314532847901106, 42.407544887143771 ], [ 117.31453287039669, 42.407549390088569 ] ] ] } },
{ "type": "Feature", "properties": { "crown_id": 8543, "tree_id": "8551", "top_h_m": 23.234, "H_95_Mean": 23.5976, "DBH": 33.1099, "Carbon_kg": 229.037249, "area_m2": 22.25 }, "geometry": { "type": "Polygon", "coordinates": [ [ [ 117.314338072380295, 42.407477876277227 ], [ 117.314362377141578, 42.407477809632027 ], [ 117.314362354658257, 42.407473306687088 ], [ 117.31436843084812, 42.407473290024988 ], [ 117.314368408364373, 42.407468787080049 ], [ 117.314398789311483, 42.407468703764721 ], [ 117.314398766825562, 42.407464200819788 ], [ 117.314404843014557, 42.407464184155756 ], [ 117.314404775555531, 42.407450675320973 ], [ 117.314398699367857, 42.407450691984998 ], [ 117.314398654396086, 42.407441686095133 ], [ 117.314380425835665, 42.407441736085239 ], [ 117.314380380866481, 42.407432730195339 ], [ 117.314374304680541, 42.407432746858056 ], [ 117.314374282196411, 42.407428243913103 ], [ 117.314368206010883, 42.407428260575493 ], [ 117.314368228494587, 42.407432763520461 ], [ 117.314343923750712, 42.407432830166854 ], [ 117.314343968714653, 42.40744183605679 ], [ 117.314337892527789, 42.407441852717589 ], [ 117.314337915009332, 42.40744635566255 ], [ 117.314331838822042, 42.407446372323037 ], [ 117.314331928746526, 42.40746438410288 ], [ 117.314338004935564, 42.407464367442387 ], [ 117.314338072380295, 42.407477876277227 ] ] ] } },
{ "type": "Feature", "properties": { "crown_id": 8593, "tree_id": "8602", "top_h_m": 21.241, "H_95_Mean": 20.5634, "DBH": 34.2083, "Carbon_kg": 225.486023, "area_m2": 32.5 }, "geometry": { "type": "Polygon", "coordinates": [ [ [ 117.31441690544365, 42.407446139047039 ], [ 117.314429057818089, 42.407446105716737 ], [ 117.314429035330022, 42.407441602771812 ], [ 117.314435111516801, 42.407441586106181 ], [ 117.314435134005308, 42.407446089051106 ], [ 117.314465514941276, 42.407446005718121 ], [ 117.314465492450594, 42.407441502773217 ], [ 117.31447156863733, 42.407441486105661 ], [ 117.314471546146223, 42.407436983160729 ], [ 117.314465469959927, 42.407436999828292 ], [ 117.31446544746926, 42.407432496883374 ], [ 117.314483676026867, 42.407432446879746 ], [ 117.314483653534921, 42.407427943934827 ], [ 117.314477577349507, 42.407427960603023 ], [ 117.314477554857959, 42.407423457658098 ], [ 117.314465402487983, 42.407423490993523 ], [ 117.314465357506691, 42.407414485103651 ], [ 117.314459281322527, 42.40741450177088 ], [ 117.314459258832343, 42.407409998825955 ], [ 117.31445318264862, 42.407410015492843 ], [ 117.314453160158877, 42.407405512547903 ], [ 117.314441007792311, 42.407405545880714 ], [ 117.314440985303435, 42.40740104293576 ], [ 117.314428832937708, 42.407401076267291 ], [ 117.314428810449684, 42.40739657332233 ], [ 117.314422734267268, 42.40739658998762 ], [ 117.31442271177967, 42.407392087042645 ], [ 117.314416635597681, 42.4073921037076 ], [ 117.314416658084809, 42.407396606652561 ], [ 117.314410581902365, 42.407396623317204 ], [ 117.314410604389096, 42.40740112626218 ], [ 117.3143862996575, 42.407401192917511 ], [ 117.314386344627465, 42.407410198807462 ], [ 117.314374192259919, 42.407410232133209 ], [ 117.314374259712281, 42.407423740968127 ], [ 117.314380335897354, 42.407423724305417 ], [ 117.314380358381925, 42.407428227250378 ], [ 117.314386434567425, 42.407428210587334 ], [ 117.314386479537447, 42.407437216477234 ], [ 117.314398631910208, 42.407437183150165 ], [ 117.314398609424316, 42.407432680205233 ], [ 117.314404685610256, 42.407432663541208 ], [ 117.314404730582865, 42.407441669431108 ], [ 117.314416882956465, 42.407441636102106 ], [ 117.31441690544365, 42.407446139047039 ] ] ] } },
{ "type": "Feature", "properties": { "crown_id": 8613, "tree_id": "8622", "top_h_m": 25.758, "H_95_Mean": 24.8051, "DBH": 41.3747, "Carbon_kg": 369.639157, "area_m2": 48.25 }, "geometry": { "type": "MultiPolygon", "coordinates": [ [ [ [ 117.314514124438531, 42.407445872368598 ], [ 117.314526276812799, 42.407445839027993 ], [ 117.314526254317798, 42.40744133608311 ], [ 117.314532330504477, 42.407441319412328 ], [ 117.314532352999933, 42.407445822357211 ], [ 117.314550581561278, 42.407445772342932 ], [ 117.314550559064529, 42.407441269398056 ], [ 117.314568787624523, 42.407441219380885 ], [ 117.314568742628424, 42.407432213491134 ], [ 117.314593047371531, 42.407432146797078 ], [ 117.314592979872231, 42.407418637962458 ], [ 117.314580827503278, 42.407418671310118 ], [ 117.314580760006621, 42.407405162475456 ], [ 117.314586836189775, 42.407405145801803 ], [ 117.314586746192546, 42.407387134022208 ], [ 117.314592822373982, 42.407387117348229 ], [ 117.314592754874809, 42.407373608513517 ], [ 117.314574526334425, 42.407373658534432 ], [ 117.314574503836013, 42.407369155589507 ], [ 117.314556275296908, 42.407369205607523 ], [ 117.314556297794013, 42.407373708552448 ], [ 117.314550221613857, 42.407373725224488 ], [ 117.314550244110535, 42.407378228169414 ], [ 117.314544167929938, 42.407378244841127 ], [ 117.314544190426176, 42.407382747786052 ], [ 117.314532038064101, 42.407382781128526 ], [ 117.3145320605595, 42.407387284073437 ], [ 117.314507755833574, 42.407387350754512 ], [ 117.314507800820863, 42.407396356644377 ], [ 117.314513877003208, 42.407396339974596 ], [ 117.314513899497314, 42.407400842919522 ], [ 117.3145078233145, 42.407400859589302 ], [ 117.31450784580818, 42.407405362534249 ], [ 117.3144956934417, 42.407405395872864 ], [ 117.314495760920124, 42.407418904707633 ], [ 117.314501837104686, 42.407418888038478 ], [ 117.314501859597925, 42.407423390983404 ], [ 117.314495783412951, 42.407423407652558 ], [ 117.314495828398591, 42.407432413542374 ], [ 117.314507980770287, 42.407432380203723 ], [ 117.314508003263981, 42.40743688314862 ], [ 117.314514079450248, 42.407436866478811 ], [ 117.314514124438531, 42.407445872368598 ] ] ], [ [ [ 117.314593047371531, 42.407432146797078 ], [ 117.314593069871322, 42.407436649741953 ], [ 117.314599146057532, 42.407436633067626 ], [ 117.314599123557301, 42.407432130122757 ], [ 117.314593047371531, 42.407432146797078 ] ] ] ] } }
]
}
