{
"type": "FeatureCollection",
"name": "tile_24_11",
"crs": { "type": "name", "properties": { "name": "urn:ogc:def:crs:OGC:1.3:CRS84" } },
"features": [
{ "type": "Feature", "properties": { "crown_id": 8914, "tree_id": "8923", "top_h_m": 19.789, "H_95_Mean": 19.6881, "DBH": 35.1203, "Carbon_kg": 231.727052, "area_m2": 39.0 }, "geometry": { "type": "Polygon", "coordinates": [ [ [ 117.312629589445763, 42.407266403811128 ], [ 117.312653894129383, 42.407266337528398 ], [ 117.312653804685567, 42.407248325745044 ], [ 117.31265988085471, 42.407248309173561 ], [ 117.312659769047883, 42.407225794444294 ], [ 117.312665845214866, 42.407225777872505 ], [ 117.312665800491303, 42.407216771980778 ], [ 117.312623267328448, 42.407216887976489 ], [ 117.312623200252247, 42.407203379138799 ], [ 117.312598895592856, 42.40720344541495 ], [ 117.312598917949828, 42.407207948360849 ], [ 117.312586765619258, 42.40720798149701 ], [ 117.312586787975377, 42.407212484442915 ], [ 117.312580711809645, 42.407212501010513 ], [ 117.312580734165323, 42.407217003956411 ], [ 117.312568581832977, 42.407217037090632 ], [ 117.312568648897454, 42.40723054592835 ], [ 117.312556496562479, 42.407230579061292 ], [ 117.312556518916438, 42.407235082007197 ], [ 117.312550442748517, 42.407235098573189 ], [ 117.312550465102035, 42.407239601519095 ], [ 117.312568693607147, 42.40723955182014 ], [ 117.312568760671724, 42.407253060657794 ], [ 117.312574836841392, 42.407253044090815 ], [ 117.312574814486098, 42.407248541144931 ], [ 117.31259911916294, 42.407248474873839 ], [ 117.312599141519982, 42.407252977819709 ], [ 117.312605217689608, 42.407252961251132 ], [ 117.312605240047077, 42.407257464196995 ], [ 117.312623468557248, 42.407257414489315 ], [ 117.312623490916039, 42.407261917435164 ], [ 117.312629567086532, 42.407261900865286 ], [ 117.312629589445763, 42.407266403811128 ] ] ] } },
{ "type": "Feature", "properties": { "crown_id": 8926, "tree_id": "8935", "top_h_m": 20.769, "H_95_Mean": 20.7692, "DBH": 34.3018, "Carbon_kg": 228.069284, "area_m2": 32.25 }, "geometry": { "type": "Polygon", "coordinates": [ [ [ 117.312423066665062, 42.407280475844082 ], [ 117.312429142837459, 42.40728045928482 ], [ 117.31242905345789, 42.407262447501111 ], [ 117.312441205799175, 42.407262414381655 ], [ 117.312441183453416, 42.407257911435728 ], [ 117.312459411964028, 42.40725786175414 ], [ 117.312459389616961, 42.407253358808198 ], [ 117.312471541956469, 42.407253325685538 ], [ 117.31247151960855, 42.407248822739604 ], [ 117.312477595777864, 42.40724880617779 ], [ 117.31247752873287, 42.407235297340002 ], [ 117.312483604900862, 42.407235280777876 ], [ 117.312483560203333, 42.407226274886007 ], [ 117.312489636370472, 42.407226258323554 ], [ 117.312489614021302, 42.40722175537762 ], [ 117.312483537854604, 42.407221771940073 ], [ 117.312483515505861, 42.407217268994124 ], [ 117.312477439339588, 42.407217285556236 ], [ 117.312477416991285, 42.407212782610294 ], [ 117.312465264659608, 42.407212815733558 ], [ 117.3124652423122, 42.407208312787596 ], [ 117.312447013815955, 42.40720836247008 ], [ 117.312446991469841, 42.40720385952411 ], [ 117.312434839139854, 42.407203892644148 ], [ 117.312434794449373, 42.40719488675218 ], [ 117.312422642121106, 42.407194919870925 ], [ 117.312422664465473, 42.407199422816916 ], [ 117.312428740630054, 42.407199406257703 ], [ 117.312428785319682, 42.407208412149657 ], [ 117.312422709154248, 42.40720842870887 ], [ 117.312422753843023, 42.407217434600831 ], [ 117.312416677676708, 42.407217451159731 ], [ 117.312416655332754, 42.407212948213754 ], [ 117.312410579166865, 42.407212964772334 ], [ 117.312410556823338, 42.407208461826343 ], [ 117.312404480657889, 42.407208478384597 ], [ 117.312404547687166, 42.407221987222542 ], [ 117.312410623853907, 42.407221970664281 ], [ 117.31241071322809, 42.407239982448147 ], [ 117.312416789396565, 42.407239965889552 ], [ 117.312416811740576, 42.407244468835501 ], [ 117.312422887909491, 42.407244452276601 ], [ 117.312422977287227, 42.407262464060373 ], [ 117.312416901116578, 42.407262480619288 ], [ 117.312416968148625, 42.407275989457098 ], [ 117.312423044320596, 42.407275972898155 ], [ 117.312423066665062, 42.407280475844082 ] ] ] } },
{ "type": "Feature", "properties": { "crown_id": 9004, "tree_id": "9014", "top_h_m": 23.799, "H_95_Mean": 23.5179, "DBH": 37.4866, "Carbon_kg": 293.567955, "area_m2": 36.25 }, "geometry": { "type": "Polygon", "coordinates": [ [ [ 117.312495690187973, 42.407221738814862 ], [ 117.312501766354643, 42.407221722251776 ], [ 117.312501744004607, 42.407217219305835 ], [ 117.31250782017085, 42.407217202742423 ], [ 117.312507797820359, 42.407212699796489 ], [ 117.312526026317755, 42.407212650104334 ], [ 117.312526003965971, 42.407208147158407 ], [ 117.312532080131319, 42.407208130593716 ], [ 117.312532057779123, 42.407203627647782 ], [ 117.312519905449278, 42.407203660776837 ], [ 117.312519838395332, 42.407190151938998 ], [ 117.312507686068059, 42.407190185066753 ], [ 117.312507641367162, 42.407181179174827 ], [ 117.312501565204414, 42.407181195738211 ], [ 117.312501475804439, 42.407163183954324 ], [ 117.312507551965467, 42.407163167390941 ], [ 117.312507529615047, 42.407158664444964 ], [ 117.312489301133269, 42.40715871413412 ], [ 117.312489256435043, 42.407149708242137 ], [ 117.312458875636324, 42.407149791050927 ], [ 117.312458897983234, 42.407154293996932 ], [ 117.312452821823044, 42.407154310557736 ], [ 117.312452844169542, 42.407158813503742 ], [ 117.312446768008897, 42.407158830064219 ], [ 117.31244683504714, 42.407172338902228 ], [ 117.312440758885188, 42.407172355462379 ], [ 117.312440803576493, 42.407181361354375 ], [ 117.312422575088021, 42.407181411032944 ], [ 117.31242261977674, 42.407190416924941 ], [ 117.312440848267812, 42.407190367246351 ], [ 117.31244089295916, 42.407199373138319 ], [ 117.312453045288265, 42.407199340017641 ], [ 117.312453067634806, 42.407203842963604 ], [ 117.312471296129743, 42.407203793280168 ], [ 117.312471318477591, 42.407208296226138 ], [ 117.312483470808374, 42.407208263102227 ], [ 117.312483493157117, 42.407212766048183 ], [ 117.312489569322921, 42.407212749485744 ], [ 117.312489591672104, 42.407217252431678 ], [ 117.312495667838363, 42.40721723586892 ], [ 117.312495690187973, 42.407221738814862 ] ] ] } },
{ "type": "Feature", "properties": { "crown_id": 9037, "tree_id": "9047", "top_h_m": 21.501, "H_95_Mean": 21.6258, "DBH": 34.0204, "Carbon_kg": 229.740702, "area_m2": 29.0 }, "geometry": { "type": "Polygon", "coordinates": [ [ [ 117.31252595926243, 42.407199141266524 ], [ 117.312532035426912, 42.407199124701833 ], [ 117.312532013074744, 42.407194621755899 ], [ 117.312544165402798, 42.407194588625565 ], [ 117.312544143049763, 42.40719008567963 ], [ 117.312550219213364, 42.40719006911398 ], [ 117.312550241566825, 42.407194572059908 ], [ 117.312580622386918, 42.407194489226839 ], [ 117.312580644742582, 42.407198992172766 ], [ 117.31259279707146, 42.407198959037267 ], [ 117.312592774714929, 42.407194456091361 ], [ 117.31258669855093, 42.407194472659263 ], [ 117.312586676194826, 42.407189969713336 ], [ 117.312574523867696, 42.407190002848175 ], [ 117.312574434446802, 42.407171991064445 ], [ 117.312568358284963, 42.40717200763136 ], [ 117.312568291220671, 42.407158498793514 ], [ 117.31256221506014, 42.407158515360109 ], [ 117.312562147997198, 42.407145006522221 ], [ 117.312568224156422, 42.407144989955626 ], [ 117.312568201801668, 42.407140487009663 ], [ 117.312525668689958, 42.40714060296898 ], [ 117.312525646338273, 42.407136100023003 ], [ 117.312519570179859, 42.407136116587331 ], [ 117.312519614882405, 42.407145122479314 ], [ 117.312507462563843, 42.407145155607004 ], [ 117.312507484914235, 42.407149658553003 ], [ 117.312495332594779, 42.407149691679415 ], [ 117.312495354944332, 42.407154194625406 ], [ 117.312513583424789, 42.407154144935291 ], [ 117.312513650477342, 42.407167653773215 ], [ 117.312507574315887, 42.407167670336911 ], [ 117.312507619016742, 42.407176676228865 ], [ 117.312513695179078, 42.407176659665154 ], [ 117.312513739880799, 42.40718566555708 ], [ 117.312525892207177, 42.407185632428693 ], [ 117.31252595926243, 42.407199141266524 ] ] ] } },
{ "type": "Feature", "properties": { "crown_id": 9047, "tree_id": "9058", "top_h_m": 22.416, "H_95_Mean": 22.3889, "DBH": 41.158, "Carbon_kg": 344.236264, "area_m2": 57.0 }, "geometry": { "type": "MultiPolygon", "coordinates": [ [ [ [ 117.312629321135404, 42.407212368460748 ], [ 117.312653625798163, 42.407212302178138 ], [ 117.312653513993709, 42.407189787448715 ], [ 117.312659590157224, 42.407189770877274 ], [ 117.312659366544352, 42.407144741418179 ], [ 117.312653290385185, 42.407144757989592 ], [ 117.312653200941938, 42.407126746205847 ], [ 117.31264712478449, 42.40712676277694 ], [ 117.312647102424123, 42.407122259830992 ], [ 117.312641026267144, 42.407122276401758 ], [ 117.312641003907217, 42.407117773455802 ], [ 117.312647080063755, 42.407117756885043 ], [ 117.312647057703415, 42.407113253939087 ], [ 117.312634905391164, 42.407113287080264 ], [ 117.312634927750636, 42.407117790026234 ], [ 117.312616699280923, 42.407117839735605 ], [ 117.312616676922715, 42.407113336789635 ], [ 117.312610600766575, 42.407113353358781 ], [ 117.312610623124314, 42.407117856304758 ], [ 117.312598470811125, 42.407117889442084 ], [ 117.312598493168011, 42.407122392388061 ], [ 117.312592417010976, 42.407122408956241 ], [ 117.312592461723895, 42.407131414848166 ], [ 117.312586385565979, 42.407131431416047 ], [ 117.31258643027806, 42.40714043730798 ], [ 117.312574277960479, 42.407140470442762 ], [ 117.312574322670841, 42.407149476334681 ], [ 117.312568246511162, 42.407149492901588 ], [ 117.312568268865931, 42.407153995847558 ], [ 117.312574345026022, 42.40715397928065 ], [ 117.312574412091607, 42.407167488118496 ], [ 117.312580488253005, 42.407167471551254 ], [ 117.312580577675604, 42.407185483334999 ], [ 117.312592730001853, 42.407185450199513 ], [ 117.312592752358384, 42.407189953145441 ], [ 117.312598828521942, 42.407189936577218 ], [ 117.312598873235885, 42.407198942469037 ], [ 117.312604949400296, 42.407198925900488 ], [ 117.312604927042884, 42.407194422954582 ], [ 117.312611003206868, 42.407194406385713 ], [ 117.312611025564706, 42.407198909331619 ], [ 117.312629254057924, 42.407198859623072 ], [ 117.312629321135404, 42.407212368460748 ] ] ], [ [ [ 117.312647057703415, 42.407113253939087 ], [ 117.312653133859527, 42.407113237368002 ], [ 117.312653111498733, 42.407108734422053 ], [ 117.312647035343048, 42.407108750993125 ], [ 117.312647057703415, 42.407113253939087 ] ] ] ] } },
{ "type": "Feature", "properties": { "crown_id": 9052, "tree_id": "9063", "top_h_m": 20.879, "H_95_Mean": 21.4706, "DBH": 28.8517, "Carbon_kg": 164.113101, "area_m2": 15.5 }, "geometry": { "type": "Polygon", "coordinates": [ [ [ 117.312398292779264, 42.407185980212539 ], [ 117.312404368942552, 42.407185963654626 ], [ 117.312404346599493, 42.407181460708614 ], [ 117.312416498925188, 42.407181427591816 ], [ 117.312416476581276, 42.407176924645817 ], [ 117.312434705068455, 42.407176874968229 ], [ 117.312434660378017, 42.407167869076218 ], [ 117.312440736539557, 42.40716785251638 ], [ 117.312440669502649, 42.407154343678364 ], [ 117.312428517182198, 42.407154376797699 ], [ 117.312428472492712, 42.407145370905646 ], [ 117.312392015536503, 42.407145470255898 ], [ 117.312392037878652, 42.407149973201939 ], [ 117.312379885559011, 42.407150006316115 ], [ 117.312379952582873, 42.407163515154224 ], [ 117.312386028744001, 42.407163498597292 ], [ 117.312386073427461, 42.407172504489353 ], [ 117.312392149589442, 42.407172487932087 ], [ 117.31239217193162, 42.407176990878099 ], [ 117.312398248094027, 42.407176974320514 ], [ 117.312398292779264, 42.407185980212539 ] ] ] } },
{ "type": "Feature", "properties": { "crown_id": 9109, "tree_id": "9120", "top_h_m": 22.149, "H_95_Mean": 22.0638, "DBH": 30.9033, "Carbon_kg": 191.545905, "area_m2": 19.25 }, "geometry": { "type": "Polygon", "coordinates": [ [ [ 117.312434570997226, 42.407149857292168 ], [ 117.312452799476546, 42.407149807611724 ], [ 117.312452777130076, 42.407145304665711 ], [ 117.312464929448709, 42.407145271543811 ], [ 117.312464884754007, 42.407136265651786 ], [ 117.312458808595551, 42.407136282212896 ], [ 117.312458696861057, 42.407113767482748 ], [ 117.312422239923279, 42.407113866842543 ], [ 117.31242226226756, 42.407118369788598 ], [ 117.312410109954058, 42.407118402905965 ], [ 117.312410132297458, 42.407122905852013 ], [ 117.312391903825855, 42.407122955525651 ], [ 117.312391926167976, 42.407127458471706 ], [ 117.312367621537362, 42.407127524698723 ], [ 117.312367643877749, 42.407132027644792 ], [ 117.312373720035851, 42.407132011088521 ], [ 117.312373742376678, 42.407136514034569 ], [ 117.312379818535192, 42.407136497477978 ], [ 117.312379863217728, 42.407145503370074 ], [ 117.312385939377123, 42.407145486813143 ], [ 117.312385917035414, 42.407140983867109 ], [ 117.312434526306873, 42.407140851400122 ], [ 117.312434570997226, 42.407149857292168 ] ] ] } },
{ "type": "Feature", "properties": { "crown_id": 9110, "tree_id": "9121", "top_h_m": 20.795, "H_95_Mean": 20.9573, "DBH": 25.4781, "Carbon_kg": 125.916435, "area_m2": 10.0 }, "geometry": { "type": "Polygon", "coordinates": [ [ [ 117.312471005608032, 42.407145254982375 ], [ 117.312501386404548, 42.407145172170367 ], [ 117.312501364054583, 42.407140669224376 ], [ 117.312513516372277, 42.407140636097324 ], [ 117.312513449319823, 42.407127127259329 ], [ 117.31250737316229, 42.407127143823011 ], [ 117.312507350811913, 42.407122640877006 ], [ 117.312501274654792, 42.407122657440354 ], [ 117.31250125230487, 42.407118154494341 ], [ 117.312464795364676, 42.407118253867679 ], [ 117.312464862406671, 42.40713176270576 ], [ 117.312470938564687, 42.407131746144337 ], [ 117.312471005608032, 42.407145254982375 ] ] ] } },
{ "type": "Feature", "properties": { "crown_id": 9124, "tree_id": "9135", "top_h_m": 19.83, "H_95_Mean": 20.3429, "DBH": 28.1237, "Carbon_kg": 150.978373, "area_m2": 15.5 }, "geometry": { "type": "Polygon", "coordinates": [ [ [ 117.312549950971842, 42.40713603376247 ], [ 117.31258033176367, 42.407135950929565 ], [ 117.312580287052469, 42.407126945037611 ], [ 117.312586363209959, 42.40712692847007 ], [ 117.312586318497921, 42.407117922578124 ], [ 117.312592394654516, 42.407117906010264 ], [ 117.31259237229807, 42.40711340306428 ], [ 117.312586296141902, 42.40711341963214 ], [ 117.312586273785882, 42.407108916686163 ], [ 117.312580197630155, 42.407108933253689 ], [ 117.312580130563447, 42.407095424415708 ], [ 117.312543673636711, 42.407095523814093 ], [ 117.31254371834261, 42.407104529706118 ], [ 117.31253764218728, 42.407104546271398 ], [ 117.312537753949968, 42.407127061001404 ], [ 117.312549906264991, 42.407127027870494 ], [ 117.312549950971842, 42.40713603376247 ] ] ] } },
{ "type": "Feature", "properties": { "crown_id": 9154, "tree_id": "9165", "top_h_m": 21.37, "H_95_Mean": 22.6664, "DBH": 31.6083, "Carbon_kg": 203.675402, "area_m2": 20.0 }, "geometry": { "type": "MultiPolygon", "coordinates": [ [ [ [ 117.312531700144547, 42.407131580512356 ], [ 117.312531722496672, 42.407136083458354 ], [ 117.312543874813457, 42.407136050328084 ], [ 117.312543852460465, 42.4071315473821 ], [ 117.312531700144547, 42.407131580512356 ] ] ], [ [ [ 117.312531700144547, 42.407131580512356 ], [ 117.312531543679839, 42.407100059890325 ], [ 117.312537619834757, 42.407100043325379 ], [ 117.31253757512971, 42.407091037433339 ], [ 117.312525422821636, 42.407091070562906 ], [ 117.312525355766738, 42.407077561724819 ], [ 117.312507127308464, 42.407077611416724 ], [ 117.312507172009106, 42.407086617308813 ], [ 117.312476791240869, 42.40708670012225 ], [ 117.312476858285351, 42.407100208960394 ], [ 117.312464705975415, 42.407100242083537 ], [ 117.312464773017354, 42.407113750921653 ], [ 117.312507306111186, 42.407113634984974 ], [ 117.31250732846155, 42.407118137930993 ], [ 117.31251340461823, 42.407118121367319 ], [ 117.312513426969034, 42.407122624313324 ], [ 117.31251950312614, 42.407122607749329 ], [ 117.312519547828629, 42.407131613641326 ], [ 117.312531700144547, 42.407131580512356 ] ] ] ] } },
{ "type": "Feature", "properties": { "crown_id": 9167, "tree_id": "9178", "top_h_m": 22.921, "H_95_Mean": 22.5553, "DBH": 40.3366, "Carbon_kg": 331.980904, "area_m2": 52.0 }, "geometry": { "type": "Polygon", "coordinates": [ [ [ 117.31233724074896, 42.407127607475253 ], [ 117.312343316906663, 42.407127590920581 ], [ 117.312343294568024, 42.407123087974519 ], [ 117.312385827668635, 42.407122972082888 ], [ 117.312385805326969, 42.407118469136819 ], [ 117.312404033797279, 42.407118419464162 ], [ 117.312404011454319, 42.407113916518099 ], [ 117.312416163766954, 42.407113883401387 ], [ 117.312416141423128, 42.407109380455324 ], [ 117.312458674514176, 42.407109264536707 ], [ 117.312458629820441, 42.407100258644611 ], [ 117.312452553665466, 42.40710027520538 ], [ 117.312452531319025, 42.407095772259332 ], [ 117.312446455164476, 42.407095788819774 ], [ 117.31244643281849, 42.407091285873712 ], [ 117.312440356664354, 42.40709130243382 ], [ 117.312440311973262, 42.407082296541695 ], [ 117.312434235819993, 42.407082313101476 ], [ 117.3124341464396, 42.407064301317156 ], [ 117.312428070288064, 42.407064317876618 ], [ 117.312428047943413, 42.40705981493052 ], [ 117.312434124094494, 42.407059798371066 ], [ 117.312434079404341, 42.407050792478884 ], [ 117.312428003254126, 42.407050809038331 ], [ 117.31242798090949, 42.407046306092226 ], [ 117.3124158286099, 42.407046339210154 ], [ 117.312415850953656, 42.407050842156266 ], [ 117.312409774803413, 42.40705085871474 ], [ 117.312409797146756, 42.407055361660838 ], [ 117.312379416393313, 42.407055444448439 ], [ 117.312379394052144, 42.40705094150232 ], [ 117.312373317901887, 42.407050958058868 ], [ 117.312373362583358, 42.407059963951099 ], [ 117.312361210281054, 42.407059997063243 ], [ 117.312361277300681, 42.4070735059016 ], [ 117.312355201148236, 42.407073522457182 ], [ 117.312355223487685, 42.407078025403315 ], [ 117.3123491473348, 42.407078041958577 ], [ 117.312349192012846, 42.407087047850801 ], [ 117.312343115859065, 42.407087064405765 ], [ 117.312343160536287, 42.407096070297968 ], [ 117.312355312845568, 42.407096037187713 ], [ 117.312355335185046, 42.407100540133818 ], [ 117.312349259029972, 42.407100556689102 ], [ 117.312349281369023, 42.407105059635192 ], [ 117.312355357524524, 42.407105043079909 ], [ 117.312355379864002, 42.407109546025985 ], [ 117.312349303708075, 42.407109562581283 ], [ 117.312349326047141, 42.407114065527367 ], [ 117.312343249890773, 42.407114082082337 ], [ 117.312343272229384, 42.407118585028428 ], [ 117.312337196072576, 42.407118601583093 ], [ 117.31233724074896, 42.407127607475253 ] ] ] } },
{ "type": "Feature", "properties": { "crown_id": 9195, "tree_id": "9207", "top_h_m": 20.72, "H_95_Mean": 20.8126, "DBH": 32.4822, "Carbon_kg": 204.594229, "area_m2": 26.0 }, "geometry": { "type": "Polygon", "coordinates": [ [ [ 117.312543651283775, 42.407091020868073 ], [ 117.312580108207925, 42.40709092146971 ], [ 117.312579907008171, 42.407050394955533 ], [ 117.312573830858057, 42.407050411522704 ], [ 117.312573808503004, 42.40704590857667 ], [ 117.31256773235333, 42.407045925143521 ], [ 117.312567709998717, 42.40704142219748 ], [ 117.312561633849469, 42.407041438763997 ], [ 117.312561611495283, 42.407036935817956 ], [ 117.312543383048819, 42.407036985515589 ], [ 117.312543360695926, 42.407032482569527 ], [ 117.312525132250741, 42.40703253226426 ], [ 117.312525176953883, 42.407041538156392 ], [ 117.312519100804622, 42.407041554720678 ], [ 117.312519123155781, 42.40704605766674 ], [ 117.31251304700605, 42.407046074230692 ], [ 117.312513069356768, 42.407050577176754 ], [ 117.31251914550694, 42.407050560612802 ], [ 117.312519167858085, 42.407055063558865 ], [ 117.312525244008683, 42.407055046994586 ], [ 117.312525311063482, 42.407068555832737 ], [ 117.312519234911619, 42.407068572397016 ], [ 117.312519257262792, 42.407073075343064 ], [ 117.312531409567413, 42.407073042214165 ], [ 117.312531476623619, 42.407086551052252 ], [ 117.312543628930825, 42.407086517922053 ], [ 117.312543651283775, 42.407091020868073 ] ] ] } },
{ "type": "Feature", "properties": { "crown_id": 9202, "tree_id": "9214", "top_h_m": 21.276, "H_95_Mean": 21.7994, "DBH": 31.5204, "Carbon_kg": 197.91689, "area_m2": 21.25 }, "geometry": { "type": "Polygon", "coordinates": [ [ [ 117.312458607473587, 42.40709575569857 ], [ 117.312470759782656, 42.407095722576074 ], [ 117.312470692739467, 42.407082213737922 ], [ 117.312501073505572, 42.407082130926106 ], [ 117.312501028805798, 42.407073125034003 ], [ 117.312513181110475, 42.40707309190703 ], [ 117.312513136408967, 42.407064086014941 ], [ 117.312519212560431, 42.407064069450975 ], [ 117.312519190209244, 42.407059566504913 ], [ 117.312513114058248, 42.407059583068886 ], [ 117.312513091707501, 42.407055080122824 ], [ 117.312507015556932, 42.407055096686456 ], [ 117.31250699320664, 42.407050593740401 ], [ 117.312470536305568, 42.40705069311543 ], [ 117.312470513957891, 42.407046190169346 ], [ 117.312464437808146, 42.407046206730726 ], [ 117.312464460155383, 42.407050709676817 ], [ 117.312458384005197, 42.407050726237877 ], [ 117.312458406351993, 42.407055229183953 ], [ 117.312446254050727, 42.407055262305114 ], [ 117.31244627639667, 42.407059765251198 ], [ 117.312440200245589, 42.407059781811292 ], [ 117.312440289627702, 42.407077793595612 ], [ 117.312446365780545, 42.407077777035518 ], [ 117.312446410472504, 42.407086782927649 ], [ 117.312452486626171, 42.407086766367215 ], [ 117.312452508972598, 42.407091269313263 ], [ 117.312458585126706, 42.407091252752508 ], [ 117.312458607473587, 42.40709575569857 ] ] ] } },
{ "type": "Feature", "properties": { "crown_id": 9203, "tree_id": "9215", "top_h_m": 20.676, "H_95_Mean": 20.607, "DBH": 34.9667, "Carbon_kg": 235.970387, "area_m2": 35.25 }, "geometry": { "type": "MultiPolygon", "coordinates": [ [ [ [ 117.312598448454239, 42.407113386496107 ], [ 117.312604524610407, 42.4071133699276 ], [ 117.312604502253095, 42.407108866981631 ], [ 117.312616654564536, 42.407108833843672 ], [ 117.312616632206357, 42.407104330897688 ], [ 117.312622708361658, 42.40710431432823 ], [ 117.312622641285841, 42.407090805490292 ], [ 117.312628717439821, 42.407090788920506 ], [ 117.312628672721786, 42.407081783028545 ], [ 117.312634748874871, 42.407081766458447 ], [ 117.312634726515412, 42.407077263512456 ], [ 117.312640802668071, 42.407077246942045 ], [ 117.312640780308186, 42.407072743996061 ], [ 117.312659008764825, 42.407072694282895 ], [ 117.312658919320157, 42.407054682498931 ], [ 117.312664995470612, 42.407054665927241 ], [ 117.312664928385871, 42.407041157089253 ], [ 117.312658852236709, 42.407041173660929 ], [ 117.312658829875573, 42.407036670714916 ], [ 117.312628449131864, 42.40703675356847 ], [ 117.312628471490839, 42.407041256514496 ], [ 117.312610243043252, 42.407041306222759 ], [ 117.31261026540092, 42.407045809168785 ], [ 117.312604189251275, 42.407045825737583 ], [ 117.312604211608502, 42.407050328683603 ], [ 117.312585983158257, 42.407050378388028 ], [ 117.312586251429892, 42.407104413740171 ], [ 117.312592327585193, 42.407104397172318 ], [ 117.312592349941625, 42.407108900118303 ], [ 117.312598426097352, 42.40710888355013 ], [ 117.312598448454239, 42.407113386496107 ] ] ], [ [ [ 117.312658829875573, 42.407036670714916 ], [ 117.312664906024281, 42.407036654143234 ], [ 117.312664861301158, 42.407027648251209 ], [ 117.312658785153317, 42.407027664822877 ], [ 117.312658829875573, 42.407036670714916 ] ] ] ] } },
{ "type": "Feature", "properties": { "crown_id": 9262, "tree_id": "9274", "top_h_m": 20.023, "H_95_Mean": 20.4728, "DBH": 35.0481, "Carbon_kg": 236.164452, "area_m2": 36.0 }, "geometry": { "type": "MultiPolygon", "coordinates": [ [ [ [ 117.312440155554555, 42.407050775919117 ], [ 117.312452307854983, 42.407050742798617 ], [ 117.312452285508598, 42.407046239852519 ], [ 117.312458361658386, 42.407046223291779 ], [ 117.312458339311576, 42.407041720345688 ], [ 117.312476567759546, 42.40704167066157 ], [ 117.31247659010765, 42.407046173607654 ], [ 117.312506970856347, 42.407046090794324 ], [ 117.312506948506055, 42.407041587848255 ], [ 117.312513024655345, 42.40704157128463 ], [ 117.312513002304627, 42.407037068338553 ], [ 117.312519078453491, 42.407037051774608 ], [ 117.312519033751201, 42.407028045882448 ], [ 117.312531186047138, 42.407028012753607 ], [ 117.31253111899116, 42.407014503915363 ], [ 117.312525042844499, 42.407014520479947 ], [ 117.312525020492942, 42.40701001753385 ], [ 117.312531096639177, 42.407010000969279 ], [ 117.312531074287179, 42.407005498023189 ], [ 117.312524998141399, 42.407005514587759 ], [ 117.312524975789856, 42.407001011641661 ], [ 117.312506747353751, 42.407001061333453 ], [ 117.312506725003516, 42.406996558387341 ], [ 117.312458115843796, 42.406996690884576 ], [ 117.31245813819055, 42.407001193830702 ], [ 117.312452062045125, 42.407001210391407 ], [ 117.312452084391438, 42.407005713337533 ], [ 117.312446008245587, 42.407005729897918 ], [ 117.312446097629191, 42.407023741682409 ], [ 117.312433945333993, 42.407023774802234 ], [ 117.312434057059264, 42.407046289532779 ], [ 117.312440133209051, 42.407046272973012 ], [ 117.312440155554555, 42.407050775919117 ] ] ], [ [ [ 117.312452062045125, 42.407001210391407 ], [ 117.312452039698798, 42.406996707445273 ], [ 117.312445963553799, 42.406996724005658 ], [ 117.3124459858997, 42.407001226951792 ], [ 117.312452062045125, 42.407001210391407 ] ] ] ] } },
{ "type": "Feature", "properties": { "crown_id": 9278, "tree_id": "9292", "top_h_m": 18.514, "H_95_Mean": 19.3809, "DBH": 34.508, "Carbon_kg": 221.585823, "area_m2": 37.5 }, "geometry": { "type": "Polygon", "coordinates": [ [ [ 117.312385470202415, 42.407050924945452 ], [ 117.312403698653171, 42.407050875272908 ], [ 117.312403676310282, 42.407046372326796 ], [ 117.312409752460098, 42.407046355768621 ], [ 117.312409730116755, 42.407041852822509 ], [ 117.31242795856484, 42.407041803146122 ], [ 117.312427846841757, 42.407019288415547 ], [ 117.312439999136117, 42.407019255296369 ], [ 117.312439865063368, 42.406992237619569 ], [ 117.31243378891881, 42.406992254179308 ], [ 117.31243376657379, 42.406987751233167 ], [ 117.312391233564711, 42.406987867142284 ], [ 117.312391255906689, 42.406992370088446 ], [ 117.312385179762074, 42.406992386645605 ], [ 117.312385202103613, 42.40699688959176 ], [ 117.312379125958543, 42.406996906148613 ], [ 117.312379192981879, 42.407010414987084 ], [ 117.312373116835516, 42.407010431543604 ], [ 117.312373139176216, 42.407014934489766 ], [ 117.312367063029413, 42.40701495104598 ], [ 117.312367085369672, 42.40701945399212 ], [ 117.312361009222442, 42.407019470548008 ], [ 117.312361031562247, 42.407023973494169 ], [ 117.312354955414577, 42.40702399004973 ], [ 117.312354977753984, 42.407028492995877 ], [ 117.312330673161483, 42.407028559214929 ], [ 117.312330740174488, 42.407042068053407 ], [ 117.31236719707104, 42.407041968722829 ], [ 117.3123672194113, 42.407046471668963 ], [ 117.312385447860819, 42.407046421999326 ], [ 117.312385470202415, 42.407050924945452 ] ] ] } },
{ "type": "Feature", "properties": { "crown_id": 9289, "tree_id": "9305", "top_h_m": 21.105, "H_95_Mean": 21.6794, "DBH": 35.8818, "Carbon_kg": 256.154375, "area_m2": 35.5 }, "geometry": { "type": "Polygon", "coordinates": [ [ [ 117.312579884652664, 42.407045892009492 ], [ 117.312598113101615, 42.407045842306033 ], [ 117.312598090744842, 42.407041339360013 ], [ 117.312604166894033, 42.407041322791549 ], [ 117.31260414453682, 42.407036819845509 ], [ 117.312610220685585, 42.407036803276739 ], [ 117.312610108897331, 42.407014288546534 ], [ 117.312616185043922, 42.407014271977445 ], [ 117.312616117969739, 42.40700076313928 ], [ 117.312628270260291, 42.407000730000149 ], [ 117.312628225542454, 42.406991724108039 ], [ 117.312616073253636, 42.406991757247148 ], [ 117.312616050895613, 42.406987254301079 ], [ 117.312609974751609, 42.406987270870147 ], [ 117.312609952394013, 42.406982767924092 ], [ 117.312603876250463, 42.406982784492833 ], [ 117.312603853893307, 42.406978281546749 ], [ 117.312609930036416, 42.406978264978008 ], [ 117.312609840606058, 42.406960253193667 ], [ 117.312603764464683, 42.406960269762401 ], [ 117.312603809178981, 42.406969275654582 ], [ 117.312597733036725, 42.406969292222996 ], [ 117.31259775539344, 42.406973795169087 ], [ 117.312591679250758, 42.406973811737181 ], [ 117.312591701607033, 42.406978314683279 ], [ 117.312585625463882, 42.406978331251054 ], [ 117.312585647819759, 42.406982834197144 ], [ 117.312579571676181, 42.406982850764592 ], [ 117.312579594031618, 42.406987353710683 ], [ 117.312567441743582, 42.406987386844648 ], [ 117.312567486452707, 42.406996392736822 ], [ 117.312549258018009, 42.406996442435357 ], [ 117.312549325077839, 42.407009951273615 ], [ 117.312537172785397, 42.407009984404375 ], [ 117.312537262195121, 42.407027996188688 ], [ 117.312549414491016, 42.407027963057899 ], [ 117.312549436844336, 42.407032466003969 ], [ 117.31256766528945, 42.407032416305377 ], [ 117.312567687644062, 42.407036919251425 ], [ 117.312573763792884, 42.407036902684581 ], [ 117.312573786147937, 42.407041405630622 ], [ 117.31257986229717, 42.407041389063451 ], [ 117.312579884652664, 42.407045892009492 ] ] ] } },
{ "type": "Feature", "properties": { "crown_id": 9364, "tree_id": "9381", "top_h_m": 17.36, "H_95_Mean": 18.5434, "DBH": 25.4599, "Carbon_kg": 116.95619, "area_m2": 12.5 }, "geometry": { "type": "Polygon", "coordinates": [ [ [ 117.312537150433002, 42.407005481458292 ], [ 117.312543226578782, 42.407005464893068 ], [ 117.312543159520246, 42.406991956054796 ], [ 117.312561387953679, 42.406991906357234 ], [ 117.312561298537176, 42.406973894572843 ], [ 117.312555222394437, 42.406973911139012 ], [ 117.312555155333442, 42.406960402300683 ], [ 117.31254907919201, 42.406960418866511 ], [ 117.312549034485571, 42.406951412974273 ], [ 117.312524729923268, 42.40695147923438 ], [ 117.312524841680727, 42.406973993965018 ], [ 117.312530917823494, 42.406973977400455 ], [ 117.312530984879331, 42.406987486238798 ], [ 117.31252490873527, 42.406987502803361 ], [ 117.312524953438327, 42.40699650869557 ], [ 117.312531029583241, 42.406996492131007 ], [ 117.31253105193521, 42.407000995077091 ], [ 117.312537128080564, 42.407000978512201 ], [ 117.312537150433002, 42.407005481458292 ] ] ] } },
{ "type": "Feature", "properties": { "crown_id": 9373, "tree_id": "9390", "top_h_m": 22.294, "H_95_Mean": 22.3738, "DBH": 35.6712, "Carbon_kg": 257.897859, "area_m2": 32.75 }, "geometry": { "type": "Polygon", "coordinates": [ [ [ 117.312512801148458, 42.406996541823737 ], [ 117.3125188772934, 42.406996525259814 ], [ 117.312518810240135, 42.406983016421492 ], [ 117.312524886383756, 42.406982999857242 ], [ 117.312524864032241, 42.406978496911137 ], [ 117.312518787889061, 42.406978513475366 ], [ 117.312518653782675, 42.406951495798594 ], [ 117.312506501501488, 42.406951528926072 ], [ 117.312506479151324, 42.406947025979917 ], [ 117.312500403011157, 42.406947042543173 ], [ 117.312500358311695, 42.406938036650864 ], [ 117.312482129893752, 42.406938086338677 ], [ 117.312482174590613, 42.406947092231007 ], [ 117.312463946170027, 42.406947141915929 ], [ 117.312463968517164, 42.406951644862083 ], [ 117.312445740095228, 42.406951694544119 ], [ 117.312445762441072, 42.406956197490288 ], [ 117.312439686299996, 42.406956214050332 ], [ 117.312439730990803, 42.406965219942656 ], [ 117.312433654848832, 42.406965236502387 ], [ 117.312433744228784, 42.406983248287027 ], [ 117.312439820372489, 42.406983231727281 ], [ 117.312439842717922, 42.406987734673436 ], [ 117.312458071150317, 42.406987684992302 ], [ 117.312458093497042, 42.406992187938442 ], [ 117.312482398075218, 42.406992121692412 ], [ 117.312482375726731, 42.406987618746285 ], [ 117.31248845187082, 42.406987602183975 ], [ 117.312488474219734, 42.406992105130094 ], [ 117.31251277879781, 42.406992038877625 ], [ 117.312512801148458, 42.406996541823737 ] ] ] } },
{ "type": "Feature", "properties": { "crown_id": 9383, "tree_id": "9400", "top_h_m": 20.479, "H_95_Mean": 20.7091, "DBH": 32.7999, "Carbon_kg": 208.033102, "area_m2": 27.25 }, "geometry": { "type": "Polygon", "coordinates": [ [ [ 117.312373027472816, 42.406992419758957 ], [ 117.312379103617459, 42.406992403202437 ], [ 117.312379081276347, 42.406987900256276 ], [ 117.312385157420536, 42.406987883699436 ], [ 117.312385135079012, 42.406983380753275 ], [ 117.312427668085093, 42.406983264846431 ], [ 117.312427556362323, 42.406960750115623 ], [ 117.312433632503868, 42.406960733556218 ], [ 117.312433610158891, 42.406956230610035 ], [ 117.312415381735576, 42.406956280287261 ], [ 117.312415359391935, 42.406951777341085 ], [ 117.312409283251256, 42.406951793899502 ], [ 117.312409260908012, 42.406947290953312 ], [ 117.312403184767774, 42.406947307511416 ], [ 117.312403095396689, 42.40692929572662 ], [ 117.312397019258142, 42.406929312284383 ], [ 117.312396996915851, 42.406924809338157 ], [ 117.312390920777744, 42.406924825895601 ], [ 117.312390943119638, 42.406929328841834 ], [ 117.31237271470404, 42.406929378512231 ], [ 117.312372759385241, 42.406938384404661 ], [ 117.312366683245841, 42.406938400960819 ], [ 117.312366727926175, 42.406947406853249 ], [ 117.31236065178588, 42.406947423409093 ], [ 117.312360718805124, 42.406960932247706 ], [ 117.312342490380345, 42.406960981913336 ], [ 117.3123425127188, 42.406965484859541 ], [ 117.312354665002871, 42.406965451749443 ], [ 117.312354687342193, 42.406969954695633 ], [ 117.312366839627117, 42.406969921584249 ], [ 117.312366861967334, 42.406974424530432 ], [ 117.312372938110215, 42.406974407974253 ], [ 117.312373027472816, 42.406992419758957 ] ] ] } },
{ "type": "Feature", "properties": { "crown_id": 9402, "tree_id": "9419", "top_h_m": 19.19, "H_95_Mean": 19.7906, "DBH": 30.4678, "Carbon_kg": 174.550192, "area_m2": 22.25 }, "geometry": { "type": "Polygon", "coordinates": [ [ [ 117.312567419389012, 42.40698288389855 ], [ 117.31257349553259, 42.406982867331749 ], [ 117.312573473177608, 42.406978364385644 ], [ 117.312579549320745, 42.406978347818516 ], [ 117.312579526965337, 42.406973844872418 ], [ 117.312585603108047, 42.406973828304956 ], [ 117.312585580752184, 42.406969325358865 ], [ 117.312591656894455, 42.406969308791098 ], [ 117.31259163453818, 42.406964805845007 ], [ 117.312597710680009, 42.406964789276913 ], [ 117.312597665966592, 42.406955783384696 ], [ 117.312603742107541, 42.406955766816296 ], [ 117.312603675036158, 42.406942257977981 ], [ 117.312609751175813, 42.406942241409254 ], [ 117.312609728818273, 42.406937738463142 ], [ 117.312627957235875, 42.40693768875505 ], [ 117.312627934877014, 42.406933185808946 ], [ 117.312621858738254, 42.406933202378625 ], [ 117.312621814021426, 42.406924196486393 ], [ 117.312591433331889, 42.406924279329964 ], [ 117.312591455688136, 42.406928782276097 ], [ 117.312567151134672, 42.406928848545171 ], [ 117.312567173489185, 42.406933351491311 ], [ 117.31254894507272, 42.406933401189733 ], [ 117.31254896742594, 42.406937904135866 ], [ 117.312536815147396, 42.406937937266548 ], [ 117.312536859852074, 42.406946943158836 ], [ 117.312555088272461, 42.406946893462319 ], [ 117.312555132979782, 42.406955899354564 ], [ 117.312561209120759, 42.406955882788395 ], [ 117.312561276183061, 42.406969391626745 ], [ 117.31256735232536, 42.40696937506025 ], [ 117.312567419389012, 42.40698288389855 ] ] ] } },
{ "type": "Feature", "properties": { "crown_id": 9427, "tree_id": "9444", "top_h_m": 23.55, "H_95_Mean": 23.1892, "DBH": 32.8391, "Carbon_kg": 222.963172, "area_m2": 22.25 }, "geometry": { "type": "Polygon", "coordinates": [ [ [ 117.312421435532599, 42.406951760782341 ], [ 117.312439663954592, 42.406951711104163 ], [ 117.312439641609203, 42.406947208157987 ], [ 117.312457870029846, 42.406947158476932 ], [ 117.312457847683135, 42.406942655530756 ], [ 117.312476076102428, 42.406942605846794 ], [ 117.312475919666596, 42.406911085223555 ], [ 117.312457691256441, 42.406911134907453 ], [ 117.312457668909786, 42.406906631961256 ], [ 117.312433364364551, 42.406906698201929 ], [ 117.312433386709472, 42.406911201148148 ], [ 117.312421234435973, 42.406911234266552 ], [ 117.312421256780013, 42.406915737212763 ], [ 117.312415180642816, 42.406915753771486 ], [ 117.312415202986443, 42.406920256717697 ], [ 117.312403050711168, 42.406920289834183 ], [ 117.312403073053929, 42.406924792780401 ], [ 117.312409149191993, 42.406924776222304 ], [ 117.312409238564825, 42.406942788007122 ], [ 117.312415314704623, 42.406942771448698 ], [ 117.312415337048279, 42.406947274394888 ], [ 117.312421413188517, 42.406947257836144 ], [ 117.312421435532599, 42.406951760782341 ] ] ] } },
{ "type": "Feature", "properties": { "crown_id": 9431, "tree_id": "9448", "top_h_m": 19.64, "H_95_Mean": 19.6198, "DBH": 24.3688, "Carbon_kg": 110.707567, "area_m2": 9.5 }, "geometry": { "type": "Polygon", "coordinates": [ [ [ 117.312512555291477, 42.406947009416349 ], [ 117.312530783711935, 42.406946959723697 ], [ 117.312530694304328, 42.406928947939122 ], [ 117.312524618165924, 42.406928964503642 ], [ 117.312524595814466, 42.406924461557473 ], [ 117.312512443538523, 42.406924494685562 ], [ 117.312512421187918, 42.406919991739407 ], [ 117.31250634505038, 42.406920008302961 ], [ 117.312506322700244, 42.406915505356793 ], [ 117.312494170425978, 42.406915538482934 ], [ 117.312494125727454, 42.406906532590561 ], [ 117.312488049591181, 42.406906549153156 ], [ 117.312488071940024, 42.406911052099346 ], [ 117.312481995803324, 42.406911068661614 ], [ 117.312482107545335, 42.406933583392508 ], [ 117.312506412100817, 42.406933517141468 ], [ 117.312506456801145, 42.40694252303377 ], [ 117.312512532940886, 42.406942506470195 ], [ 117.312512555291477, 42.406947009416349 ] ] ] } },
{ "type": "Feature", "properties": { "crown_id": 9481, "tree_id": "9498", "top_h_m": 20.715, "H_95_Mean": 21.3645, "DBH": 27.0911, "Carbon_kg": 144.131083, "area_m2": 12.25 }, "geometry": { "type": "Polygon", "coordinates": [ [ [ 117.312518497325485, 42.406919975175519 ], [ 117.312530649600575, 42.406919942046791 ], [ 117.312530582544966, 42.406906433208306 ], [ 117.312536658681182, 42.406906416643452 ], [ 117.312536613976604, 42.406897410751121 ], [ 117.312530537841226, 42.406897427315961 ], [ 117.312530515489371, 42.406892924369778 ], [ 117.312524439354462, 42.406892940934291 ], [ 117.312524417003047, 42.406888437988101 ], [ 117.312518340868536, 42.406888454552274 ], [ 117.312518273815641, 42.406874945713703 ], [ 117.312487893149566, 42.406875028529754 ], [ 117.312487960195938, 42.406888537368367 ], [ 117.312494036330477, 42.406888520805801 ], [ 117.312494103378199, 42.406902029644392 ], [ 117.312500179514032, 42.406902013081478 ], [ 117.312500224213423, 42.406911018973858 ], [ 117.312512376486808, 42.40691098584707 ], [ 117.312512398837342, 42.406915488793231 ], [ 117.312518474974482, 42.406915472229358 ], [ 117.312518497325485, 42.406919975175519 ] ] ] } },
{ "type": "Feature", "properties": { "crown_id": 9487, "tree_id": "9504", "top_h_m": 22.34, "H_95_Mean": 21.8845, "DBH": 34.877, "Carbon_kg": 243.253561, "area_m2": 31.25 }, "geometry": { "type": "Polygon", "coordinates": [ [ [ 117.312390898435851, 42.406920322949389 ], [ 117.312396974573517, 42.406920306391953 ], [ 117.312396952231197, 42.406915803445727 ], [ 117.312409104505605, 42.406915770329888 ], [ 117.312409082162446, 42.406911267383677 ], [ 117.312415158299203, 42.406911250825274 ], [ 117.31241513595559, 42.406906747879056 ], [ 117.312427288228236, 42.406906714761291 ], [ 117.31242726588377, 42.406902211815073 ], [ 117.31243941815552, 42.406902178696036 ], [ 117.312439351119522, 42.406888669857381 ], [ 117.312457579523226, 42.406888620176417 ], [ 117.312457601869852, 42.406893123122636 ], [ 117.312463678004846, 42.406893106561668 ], [ 117.312463745046074, 42.406906615400281 ], [ 117.312481973454908, 42.406906565715424 ], [ 117.31248195110652, 42.406902062769227 ], [ 117.312488027242367, 42.406902046206966 ], [ 117.312487982544752, 42.406893040314571 ], [ 117.312481906409786, 42.406893056876832 ], [ 117.312481817016319, 42.406875045091994 ], [ 117.312366370483986, 42.406875359713453 ], [ 117.31236648218453, 42.406897874444738 ], [ 117.312378634455513, 42.406897841332146 ], [ 117.312378701478536, 42.406911350170851 ], [ 117.312384777615307, 42.406911333614062 ], [ 117.312384799956746, 42.406915836560295 ], [ 117.312390876093986, 42.406915820003171 ], [ 117.312390898435851, 42.406920322949389 ] ] ] } },
{ "type": "Feature", "properties": { "crown_id": 9498, "tree_id": "9515", "top_h_m": 22.081, "H_95_Mean": 21.935, "DBH": 33.1331, "Carbon_kg": 219.660563, "area_m2": 25.5 }, "geometry": { "type": "Polygon", "coordinates": [ [ [ 117.312536792795072, 42.406933434320408 ], [ 117.312542868933903, 42.406933417755234 ], [ 117.312542846581152, 42.406928914809086 ], [ 117.312561074996282, 42.406928865111631 ], [ 117.312561052642224, 42.406924362165483 ], [ 117.312585357193967, 42.406924295897717 ], [ 117.31258533483819, 42.406919792951577 ], [ 117.312609639388114, 42.406919726678666 ], [ 117.312609617030574, 42.40691522373254 ], [ 117.312603540893548, 42.406915240301245 ], [ 117.312603518536463, 42.406910737355126 ], [ 117.312597442399863, 42.406910753923505 ], [ 117.312597285903436, 42.406879233300444 ], [ 117.312603362037009, 42.406879216732086 ], [ 117.312603339679953, 42.406874713785918 ], [ 117.312524349948831, 42.406874929149531 ], [ 117.312524394651632, 42.406883935041904 ], [ 117.312530470785688, 42.406883918477405 ], [ 117.31253049313753, 42.406888421423581 ], [ 117.312536569272027, 42.406888404858762 ], [ 117.312536591624294, 42.406892907804945 ], [ 117.312542667759246, 42.406892891239792 ], [ 117.312542757170135, 42.406910903024468 ], [ 117.312536681033478, 42.406910919589627 ], [ 117.312536792795072, 42.406933434320408 ] ], [ [ 117.312561007934136, 42.406915356273196 ], [ 117.312560963226048, 42.406906350380886 ], [ 117.312554887089831, 42.406906366947013 ], [ 117.312554820029064, 42.40689285810852 ], [ 117.312573048433762, 42.406892808409204 ], [ 117.31257309314357, 42.406901814301513 ], [ 117.312579169279317, 42.406901797734413 ], [ 117.312579236345343, 42.40691530657287 ], [ 117.312561007934136, 42.406915356273196 ] ] ] } }
]
}
