{
"type": "FeatureCollection",
"name": "tile_22_20",
"crs": { "type": "name", "properties": { "name": "urn:ogc:def:crs:OGC:1.3:CRS84" } },
"features": [
{ "type": "Feature", "properties": { "crown_id": 8334, "tree_id": "8342", "top_h_m": 24.07, "H_95_Mean": 23.34, "DBH": 34.623, "Carbon_kg": 249.000892, "area_m2": 27.0 }, "geometry": { "type": "Polygon", "coordinates": [ [ [ 117.314672915501831, 42.407607544851601 ], [ 117.314733677528068, 42.407607378051033 ], [ 117.314733655018074, 42.407602875106377 ], [ 117.314739731220243, 42.407602858424553 ], [ 117.3147395736475, 42.407571337811781 ], [ 117.314703116452733, 42.407571437897793 ], [ 117.314703093944956, 42.407566934953081 ], [ 117.314697017746255, 42.407566951632951 ], [ 117.314697040253591, 42.407571454577663 ], [ 117.314690964054421, 42.407571471257214 ], [ 117.314690986561317, 42.407575974201926 ], [ 117.314672757962526, 42.407576024238658 ], [ 117.314672735456938, 42.407571521293939 ], [ 117.314648430660199, 42.407571588005055 ], [ 117.314648543179516, 42.40759410272868 ], [ 117.314660695582262, 42.407594069373737 ], [ 117.314660740591762, 42.407603075263147 ], [ 117.314672892996199, 42.40760304190691 ], [ 117.314672915501831, 42.407607544851601 ] ], [ [ 117.314666794288783, 42.40759855564049 ], [ 117.314666771783607, 42.407594052695785 ], [ 117.314672847984937, 42.4075940360175 ], [ 117.314672870490568, 42.407598538962205 ], [ 117.314666794288783, 42.40759855564049 ] ] ] } },
{ "type": "Feature", "properties": { "crown_id": 8346, "tree_id": "8354", "top_h_m": 21.39, "H_95_Mean": 21.7099, "DBH": 32.0169, "Carbon_kg": 203.754094, "area_m2": 22.75 }, "geometry": { "type": "Polygon", "coordinates": [ [ [ 117.314745784911551, 42.40759833879774 ], [ 117.31476401351668, 42.407598288749369 ], [ 117.31476399100454, 42.407593785804707 ], [ 117.314806524413299, 42.407593669013927 ], [ 117.314806546928466, 42.407598171958583 ], [ 117.314812623130152, 42.4075981552729 ], [ 117.314812600614516, 42.407593652328245 ], [ 117.314818676815747, 42.407593635642243 ], [ 117.314818586751599, 42.40757562386365 ], [ 117.314800358153136, 42.407575673920661 ], [ 117.314800335638424, 42.407571170976006 ], [ 117.314794259439353, 42.407571187661027 ], [ 117.314794236925067, 42.407566684716357 ], [ 117.314788160726437, 42.407566701401066 ], [ 117.314788093184944, 42.407553192567015 ], [ 117.314782016987579, 42.40755320925139 ], [ 117.314781994474188, 42.407548706306699 ], [ 117.314775918277292, 42.40754872299074 ], [ 117.314775850738457, 42.407535214156646 ], [ 117.314769774542853, 42.407535230840359 ], [ 117.314769797055362, 42.407539733785065 ], [ 117.31476372085929, 42.407539750468459 ], [ 117.314763810907635, 42.407557762247265 ], [ 117.314757734709843, 42.407557778930354 ], [ 117.314757779733171, 42.407566784819743 ], [ 117.314745627335824, 42.407566818184954 ], [ 117.314745784911551, 42.40759833879774 ] ] ] } },
{ "type": "Feature", "properties": { "crown_id": 8394, "tree_id": "8402", "top_h_m": 23.11, "H_95_Mean": 22.9352, "DBH": 35.8754, "Carbon_kg": 264.734143, "area_m2": 32.0 }, "geometry": { "type": "Polygon", "coordinates": [ [ [ 117.314678811656108, 42.407571504615355 ], [ 117.314684887855279, 42.407571487936444 ], [ 117.314684865348809, 42.407566984991718 ], [ 117.314690941547539, 42.407566968312494 ], [ 117.314690919040643, 42.407562465367782 ], [ 117.314709147635497, 42.407562415328172 ], [ 117.314709170143672, 42.407566918272884 ], [ 117.314739551137137, 42.407566834867083 ], [ 117.314739528626774, 42.407562331922385 ], [ 117.314751681023253, 42.407562298557821 ], [ 117.314751636000821, 42.407553292668418 ], [ 117.314757712198187, 42.407553275985663 ], [ 117.314757599639989, 42.407530761262109 ], [ 117.314763675835152, 42.407530744579049 ], [ 117.314763653323112, 42.407526241634329 ], [ 117.314757577128347, 42.40752625831739 ], [ 117.314757532105105, 42.407517252427944 ], [ 117.314708922553876, 42.407517385880851 ], [ 117.314708967570155, 42.407526391770354 ], [ 117.314702891375362, 42.407526408450515 ], [ 117.314702936390788, 42.407535414340003 ], [ 117.31468470780375, 42.40753546437859 ], [ 117.314684730310162, 42.407539967323331 ], [ 117.314672577917918, 42.40754000068079 ], [ 117.314672622929038, 42.407549006570271 ], [ 117.314666546732042, 42.407549023248521 ], [ 117.314666636752605, 42.407567035027476 ], [ 117.314678789150065, 42.407567001670621 ], [ 117.314678811656108, 42.407571504615355 ] ] ] } },
{ "type": "Feature", "properties": { "crown_id": 8406, "tree_id": "8414", "top_h_m": 23.759, "H_95_Mean": 23.5569, "DBH": 39.7215, "Carbon_kg": 330.234928, "area_m2": 45.25 }, "geometry": { "type": "MultiPolygon", "coordinates": [ [ [ [ 117.314545045287346, 42.407553859690715 ], [ 117.314551121484882, 42.407553843018903 ], [ 117.314551166478665, 42.407562848908469 ], [ 117.314557242677068, 42.407562832236337 ], [ 117.314557287671718, 42.407571838125882 ], [ 117.314569440070258, 42.407571804780623 ], [ 117.314569462568457, 42.407576307725385 ], [ 117.314587691167503, 42.407576257705081 ], [ 117.314587713667038, 42.407580760649836 ], [ 117.314593789867146, 42.40758074397575 ], [ 117.314593767367185, 42.407576241030995 ], [ 117.314599843566867, 42.407576224356589 ], [ 117.314599821066494, 42.407571721411841 ], [ 117.314611973464935, 42.407571688062085 ], [ 117.314611928462483, 42.407562682172582 ], [ 117.31463623325584, 42.407562615469203 ], [ 117.314636255758828, 42.407567118413944 ], [ 117.314660560553861, 42.407567051705414 ], [ 117.314660448030352, 42.40754453698171 ], [ 117.314666524226922, 42.407544520303787 ], [ 117.314666479216669, 42.407535514414285 ], [ 117.314660403020966, 42.407535531092201 ], [ 117.314660290497628, 42.407513016368384 ], [ 117.314605604755627, 42.407513166455054 ], [ 117.31460562725637, 42.407517669399851 ], [ 117.314599551062344, 42.407517686074549 ], [ 117.31459959606299, 42.407526691964129 ], [ 117.314587443673204, 42.40752672531255 ], [ 117.314587466172654, 42.407531228257348 ], [ 117.314581389977334, 42.407531244931079 ], [ 117.314581412476343, 42.407535747875862 ], [ 117.314575336280555, 42.407535764549287 ], [ 117.314575358779166, 42.40754026749407 ], [ 117.314563206386737, 42.407540300839941 ], [ 117.314563228884481, 42.407544803784738 ], [ 117.314545000294487, 42.407544853801127 ], [ 117.314545045287346, 42.407553859690715 ] ], [ [ 117.31457549377086, 42.407567285162749 ], [ 117.314575426274985, 42.407553776328434 ], [ 117.314593654867537, 42.407553726307192 ], [ 117.31459372236732, 42.407567235141485 ], [ 117.31457549377086, 42.407567285162749 ] ] ], [ [ [ 117.314545045287346, 42.407553859690715 ], [ 117.31453896908981, 42.407553876362201 ], [ 117.314539014081831, 42.407562882251781 ], [ 117.314545090280262, 42.407562865580289 ], [ 117.314545045287346, 42.407553859690715 ] ] ] ] } },
{ "type": "Feature", "properties": { "crown_id": 8442, "tree_id": "8450", "top_h_m": 19.736, "H_95_Mean": 20.7678, "DBH": 22.7039, "Carbon_kg": 99.275145, "area_m2": 6.5 }, "geometry": { "type": "Polygon", "coordinates": [ [ [ 117.314672555412358, 42.407535497736042 ], [ 117.314678631608061, 42.407535481057479 ], [ 117.314678609102074, 42.407530978112732 ], [ 117.314696837687819, 42.407530928075118 ], [ 117.314696792673288, 42.407521922185609 ], [ 117.314702868867641, 42.407521905505767 ], [ 117.314702801344538, 42.407508396671496 ], [ 117.31468457276533, 42.407508446710054 ], [ 117.314684595271729, 42.407512949654823 ], [ 117.314666366691171, 42.407512999690475 ], [ 117.314666456711549, 42.407531011469537 ], [ 117.314672532906826, 42.407530994791294 ], [ 117.314672555412358, 42.407535497736042 ] ] ] } },
{ "type": "Feature", "properties": { "crown_id": 8495, "tree_id": "8503", "top_h_m": 21.97, "H_95_Mean": 21.9381, "DBH": 31.9917, "Carbon_kg": 204.69303, "area_m2": 22.25 }, "geometry": { "type": "Polygon", "coordinates": [ [ [ 117.314611658448015, 42.407508646835247 ], [ 117.314629887027422, 42.407508596808299 ], [ 117.31462986452496, 42.407504093863501 ], [ 117.314635940717636, 42.40750407718722 ], [ 117.314635963220539, 42.40750858013201 ], [ 117.314678496572242, 42.407508463388922 ], [ 117.31467842905441, 42.4074949545546 ], [ 117.314684505246206, 42.40749493787574 ], [ 117.314684392714383, 42.407472423151795 ], [ 117.31469046890399, 42.407472406472621 ], [ 117.314690401383686, 42.407458897638236 ], [ 117.314672172818774, 42.407458947674755 ], [ 117.314672195324235, 42.407463450619566 ], [ 117.314666119135495, 42.407463467297767 ], [ 117.314666141640515, 42.407467970242578 ], [ 117.314660065451349, 42.407467986920459 ], [ 117.314660087955929, 42.407472489865263 ], [ 117.314635783197403, 42.40747255657358 ], [ 117.314635805700291, 42.407477059518399 ], [ 117.314623653320126, 42.407477092870629 ], [ 117.314623698324155, 42.407486098760259 ], [ 117.314617622133184, 42.407486115435894 ], [ 117.314617644634765, 42.407490618380713 ], [ 117.314623720826177, 42.407490601705071 ], [ 117.314623788332241, 42.407504110539477 ], [ 117.314611635946832, 42.407504143890456 ], [ 117.314611658448015, 42.407508646835247 ] ] ] } },
{ "type": "Feature", "properties": { "crown_id": 8503, "tree_id": "8511", "top_h_m": 22.745, "H_95_Mean": 22.0499, "DBH": 38.3934, "Carbon_kg": 296.533925, "area_m2": 44.75 }, "geometry": { "type": "Polygon", "coordinates": [ [ [ 117.31470890004573, 42.407512882936096 ], [ 117.31477573817385, 42.407512699433063 ], [ 117.314775693148036, 42.407503693543603 ], [ 117.314781769340584, 42.407503676859591 ], [ 117.314781679287279, 42.407485665080642 ], [ 117.314787755478093, 42.407485648396296 ], [ 117.314787732964348, 42.407481145451563 ], [ 117.314781656773988, 42.407481162135895 ], [ 117.314781634260669, 42.407476659191147 ], [ 117.314775558070721, 42.407476675875159 ], [ 117.314775513044978, 42.407467669985635 ], [ 117.314769436855883, 42.407467686669314 ], [ 117.314769414343459, 42.407463183724552 ], [ 117.314763338154805, 42.407463200407904 ], [ 117.314763315642807, 42.407458697463134 ], [ 117.314757239454579, 42.407458714146173 ], [ 117.31475721694305, 42.407454211201383 ], [ 117.314738988379617, 42.407454261248539 ], [ 117.314738965869381, 42.407449758303741 ], [ 117.314702508744986, 42.40744985838932 ], [ 117.314702531252621, 42.407454361334132 ], [ 117.314696455064762, 42.407454378013938 ], [ 117.314696567600791, 42.407476892737925 ], [ 117.314690491410786, 42.407476909417419 ], [ 117.314690603944769, 42.407499424141314 ], [ 117.314684527752576, 42.407499440820516 ], [ 117.314684550258946, 42.407503943765278 ], [ 117.31470885502948, 42.407503877046587 ], [ 117.31470890004573, 42.407512882936096 ] ] ] } },
{ "type": "Feature", "properties": { "crown_id": 8519, "tree_id": "8527", "top_h_m": 25.366, "H_95_Mean": 24.7718, "DBH": 41.2378, "Carbon_kg": 366.886615, "area_m2": 47.75 }, "geometry": { "type": "Polygon", "coordinates": [ [ [ 117.314593407368704, 42.407504193914491 ], [ 117.314605559754128, 42.407504160565459 ], [ 117.314605537253414, 42.407499657620654 ], [ 117.314617689637956, 42.407499624270329 ], [ 117.314617667136346, 42.407495121325532 ], [ 117.314611590944537, 42.407495138000847 ], [ 117.314611523441073, 42.407481629166391 ], [ 117.314617599631589, 42.407481612491075 ], [ 117.314617554628455, 42.407472606601438 ], [ 117.314623630818133, 42.407472589925803 ], [ 117.314623585814118, 42.407463584036158 ], [ 117.314611433436539, 42.407463617387087 ], [ 117.314611365933217, 42.40745010855256 ], [ 117.314617442120706, 42.407450091877273 ], [ 117.314617397117615, 42.407441085987585 ], [ 117.314611320931007, 42.407441102662879 ], [ 117.314611275928812, 42.407432096773157 ], [ 117.314605199743085, 42.407432113448124 ], [ 117.314605244744385, 42.407441119337847 ], [ 117.314587016184475, 42.407441169360816 ], [ 117.314586993685126, 42.40743666641594 ], [ 117.314574841312691, 42.407436699762982 ], [ 117.314574886309671, 42.407445705652712 ], [ 117.314556657748383, 42.407445755670864 ], [ 117.314556680245559, 42.407450258615732 ], [ 117.31450807074512, 42.407450391983303 ], [ 117.314508115732565, 42.407459397873083 ], [ 117.314502039544109, 42.407459414542579 ], [ 117.314502062037405, 42.407463917487462 ], [ 117.314495985848509, 42.407463934156652 ], [ 117.314495963355654, 42.407459431211763 ], [ 117.314483810978714, 42.407459464549163 ], [ 117.314483833470717, 42.407463967494046 ], [ 117.314489909659628, 42.407463950825516 ], [ 117.314489932152057, 42.407468453770392 ], [ 117.314508160720038, 42.407468403762834 ], [ 117.314508138226287, 42.407463900817966 ], [ 117.314514214415183, 42.407463884148129 ], [ 117.314514236909332, 42.407468387093012 ], [ 117.314520313098654, 42.407468370422855 ], [ 117.314520335593272, 42.407472873367723 ], [ 117.314526411782992, 42.407472856697247 ], [ 117.314526456773109, 42.407481862586963 ], [ 117.314532532963696, 42.407481845916152 ], [ 117.314532600450207, 42.407495354750715 ], [ 117.314575133793426, 42.407495238046018 ], [ 117.314575156291951, 42.407499740990829 ], [ 117.314593384868843, 42.407499690969686 ], [ 117.314593407368704, 42.407504193914491 ] ] ] } },
{ "type": "Feature", "properties": { "crown_id": 8538, "tree_id": "8546", "top_h_m": 19.98, "H_95_Mean": 20.6485, "DBH": 23.4923, "Carbon_kg": 105.984046, "area_m2": 7.5 }, "geometry": { "type": "Polygon", "coordinates": [ [ [ 117.314629684505334, 42.407468070305029 ], [ 117.314653989262155, 42.407468003598019 ], [ 117.314653966757973, 42.407463500653215 ], [ 117.314660042946727, 42.407463483975654 ], [ 117.314660020442147, 42.407458981030835 ], [ 117.314666096630447, 42.407458964352962 ], [ 117.314666074125427, 42.407454461408136 ], [ 117.314659997937554, 42.407454478086009 ], [ 117.314659975432974, 42.407449975141191 ], [ 117.314641746870606, 42.407450025172871 ], [ 117.31464172436732, 42.407445522228038 ], [ 117.314629571993251, 42.407445555580885 ], [ 117.314629504486064, 42.407432046746351 ], [ 117.314617352114567, 42.40743208009787 ], [ 117.314617374616105, 42.407436583042738 ], [ 117.314623450802273, 42.407436566367124 ], [ 117.31462354081016, 42.407454578146499 ], [ 117.314617464622245, 42.407454594822113 ], [ 117.314617487123769, 42.407459097766946 ], [ 117.314629639500481, 42.407459064415391 ], [ 117.314629684505334, 42.407468070305029 ] ] ] } },
{ "type": "Feature", "properties": { "crown_id": 8579, "tree_id": "8587", "top_h_m": 22.385, "H_95_Mean": 22.8561, "DBH": 33.5233, "Carbon_kg": 230.444512, "area_m2": 24.75 }, "geometry": { "type": "Polygon", "coordinates": [ [ [ 117.314672150313299, 42.407454444729936 ], [ 117.314690378876918, 42.407454394693424 ], [ 117.314690356370164, 42.407449891748612 ], [ 117.314696432557568, 42.407449875069133 ], [ 117.314696410050388, 42.407445372124322 ], [ 117.314714638611335, 42.407445322083952 ], [ 117.314714571085887, 42.407431813249531 ], [ 117.314708494900202, 42.407431829929969 ], [ 117.314708449884137, 42.407422824040331 ], [ 117.31469629751453, 42.407422857400228 ], [ 117.314696275007378, 42.407418354455395 ], [ 117.314690198822987, 42.407418371134852 ], [ 117.314690131302868, 42.407404862300339 ], [ 117.314659750387406, 42.407404945692782 ], [ 117.314659727882869, 42.407400442747921 ], [ 117.314653651700198, 42.407400459425432 ], [ 117.314653629196116, 42.407395956480563 ], [ 117.314641476831625, 42.407395989834647 ], [ 117.314641589347758, 42.407418504558962 ], [ 117.314635513163353, 42.407418521235527 ], [ 117.314635625677454, 42.407441035959785 ], [ 117.314647778050656, 42.407441002606312 ], [ 117.314647800554354, 42.407445505551131 ], [ 117.314666029115386, 42.407445455518499 ], [ 117.314666051620407, 42.407449958463317 ], [ 117.314672127807853, 42.407449941785124 ], [ 117.314672150313299, 42.407454444729936 ] ], [ [ 117.31464773304323, 42.407431996716625 ], [ 117.314647665532192, 42.407418487882076 ], [ 117.314665894085422, 42.407418437849493 ], [ 117.314665961600383, 42.407431946684007 ], [ 117.31464773304323, 42.407431996716625 ] ] ] } },
{ "type": "Feature", "properties": { "crown_id": 8588, "tree_id": "8597", "top_h_m": 22.341, "H_95_Mean": 21.9031, "DBH": 41.5393, "Carbon_kg": 346.173275, "area_m2": 61.5 }, "geometry": { "type": "Polygon", "coordinates": [ [ [ 117.314787642909437, 42.40746313367255 ], [ 117.314793719098077, 42.40746311698792 ], [ 117.314793696583919, 42.407458614043165 ], [ 117.314799772772119, 42.4074585973582 ], [ 117.314799795286703, 42.407463100302962 ], [ 117.314818023852581, 42.407463050246129 ], [ 117.31481800133669, 42.407458547301388 ], [ 117.314824077524875, 42.407458530615138 ], [ 117.314824055008557, 42.407454027670376 ], [ 117.314836207384047, 42.40745399429693 ], [ 117.314836184866863, 42.407449491352182 ], [ 117.314842261054139, 42.407449474664958 ], [ 117.314842283571764, 42.407453977609713 ], [ 117.314854435947225, 42.407453944234312 ], [ 117.314854413428719, 42.407449441289572 ], [ 117.314848337241429, 42.407449457977435 ], [ 117.314848269687289, 42.407435949143192 ], [ 117.314842193501306, 42.407435965830722 ], [ 117.314842103430948, 42.40741795405166 ], [ 117.314848179615197, 42.407417937364151 ], [ 117.314848134579151, 42.407408931474613 ], [ 117.314854210762547, 42.407408914786778 ], [ 117.314854188244098, 42.407404411841995 ], [ 117.314848112061156, 42.40740442852983 ], [ 117.314848044507173, 42.40739091969548 ], [ 117.314841968325538, 42.407390936382988 ], [ 117.314841878255351, 42.407372924603791 ], [ 117.31483580207545, 42.407372941290959 ], [ 117.314835824592549, 42.407377444235763 ], [ 117.314805443690759, 42.407377527666767 ], [ 117.314805466205684, 42.407382030611579 ], [ 117.314781161482415, 42.407382097350599 ], [ 117.314781138969224, 42.407377594405787 ], [ 117.314775062788812, 42.407377611089736 ], [ 117.314775085301591, 42.407382114034554 ], [ 117.314769009120738, 42.40738213071819 ], [ 117.314769076657768, 42.407395639552661 ], [ 117.314763000475622, 42.407395656235984 ], [ 117.314763045499419, 42.407404662125614 ], [ 117.314756969316406, 42.407404678808618 ], [ 117.314757104385407, 42.407431696477445 ], [ 117.314763180571035, 42.407431679794442 ], [ 117.314763203082975, 42.407436182739232 ], [ 117.314757126896922, 42.40743619942225 ], [ 117.314757194431522, 42.407449708256607 ], [ 117.314763270618883, 42.407449691573589 ], [ 117.314763293130838, 42.407454194518365 ], [ 117.31476936931864, 42.407454177835007 ], [ 117.314769391831064, 42.407458680779783 ], [ 117.31478762039572, 42.407458630727803 ], [ 117.314787642909437, 42.40746313367255 ] ] ] } },
{ "type": "Feature", "properties": { "crown_id": 8594, "tree_id": "8603", "top_h_m": 22.962, "H_95_Mean": 22.9665, "DBH": 32.207, "Carbon_kg": 213.177644, "area_m2": 21.0 }, "geometry": { "type": "Polygon", "coordinates": [ [ [ 117.314745042056771, 42.40744974162169 ], [ 117.314751118244132, 42.407449724939305 ], [ 117.314750870622348, 42.407400192546461 ], [ 117.314756946804934, 42.407400175863792 ], [ 117.31475690178199, 42.407391169974147 ], [ 117.314762977963696, 42.407391153291151 ], [ 117.3147629329399, 42.407382147401499 ], [ 117.314750780578208, 42.407382180767137 ], [ 117.314750803089225, 42.40738668371197 ], [ 117.314744726907946, 42.407386700394312 ], [ 117.314744749418537, 42.407391203339152 ], [ 117.314732597055055, 42.407391236702885 ], [ 117.314732619564808, 42.407395739647725 ], [ 117.314702238653865, 42.407395823051409 ], [ 117.314702283669007, 42.407404828941104 ], [ 117.314696207485923, 42.407404845620874 ], [ 117.314696252500212, 42.407413851510555 ], [ 117.314702328684163, 42.407413834830784 ], [ 117.314702351191755, 42.407418337775603 ], [ 117.314714503560481, 42.407418304415067 ], [ 117.314714548577413, 42.407427310304712 ], [ 117.314720624762629, 42.407427293623961 ], [ 117.314720647271542, 42.407431796568765 ], [ 117.314726723457198, 42.407431779887688 ], [ 117.314726745966553, 42.407436282832492 ], [ 117.314720669780456, 42.407436299513577 ], [ 117.314720714798284, 42.407445305403201 ], [ 117.314745019546095, 42.4074452386769 ], [ 117.314745042056771, 42.40744974162169 ] ] ] } }
]
}
