{
"type": "FeatureCollection",
"name": "tile_22_24",
"crs": { "type": "name", "properties": { "name": "urn:ogc:def:crs:OGC:1.3:CRS84" } },
"features": [
{ "type": "Feature", "properties": { "crown_id": 8305, "tree_id": "8313", "top_h_m": 21.675, "H_95_Mean": 21.0826, "DBH": 35.1515, "Carbon_kg": 241.731032, "area_m2": 34.5 }, "geometry": { "type": "MultiPolygon", "coordinates": [ [ [ [ 117.315930689339552, 42.407604085513675 ], [ 117.315930644148395, 42.407595079625366 ], [ 117.315948872750496, 42.407595029388602 ], [ 117.315948917944283, 42.407604035276897 ], [ 117.315961070347399, 42.407604001784101 ], [ 117.315961047749624, 42.407599498839957 ], [ 117.315967123950756, 42.407599482093083 ], [ 117.315967101352555, 42.407594979148939 ], [ 117.315985329954572, 42.407594928906384 ], [ 117.315985307355092, 42.407590425962248 ], [ 117.316009612155966, 42.407590358967674 ], [ 117.316009566953539, 42.407581353079401 ], [ 117.31602779555152, 42.40758130283011 ], [ 117.316027705141536, 42.40756329105357 ], [ 117.31600340035115, 42.407563358051959 ], [ 117.316003422951894, 42.40756786099611 ], [ 117.315997346753846, 42.407567877744889 ], [ 117.315997369354179, 42.407572380689039 ], [ 117.315991293155705, 42.407572397437512 ], [ 117.315991270555799, 42.407567894493368 ], [ 117.315979118159703, 42.407567927989341 ], [ 117.315979095560664, 42.407563425045176 ], [ 117.315948714572485, 42.407563508779461 ], [ 117.315948737169307, 42.407568011723633 ], [ 117.315924432376946, 42.407568078705275 ], [ 117.315924454972034, 42.407572581649447 ], [ 117.315900150177825, 42.407572648625951 ], [ 117.31590012758447, 42.407568145681765 ], [ 117.31588797518819, 42.407568179168074 ], [ 117.315888065558241, 42.407586190944841 ], [ 117.315894141758108, 42.407586174201832 ], [ 117.315894232129992, 42.407604185978528 ], [ 117.315930689339552, 42.407604085513675 ] ], [ [ 117.315936629965108, 42.407577051103445 ], [ 117.315954858561966, 42.40757700086575 ], [ 117.315954926353896, 42.407590509698217 ], [ 117.315936697753074, 42.40759055993594 ], [ 117.315936629965108, 42.407577051103445 ] ] ], [ [ [ 117.316027885961617, 42.407599314606585 ], [ 117.316027863359096, 42.407594811662484 ], [ 117.316009634757194, 42.407594861911797 ], [ 117.316009657358421, 42.407599364855919 ], [ 117.316027885961617, 42.407599314606585 ] ] ] ] } },
{ "type": "Feature", "properties": { "crown_id": 8327, "tree_id": "8335", "top_h_m": 21.93, "H_95_Mean": 22.6006, "DBH": 31.9642, "Carbon_kg": 207.966097, "area_m2": 21.0 }, "geometry": { "type": "Polygon", "coordinates": [ [ [ 117.315760623443552, 42.407618063083142 ], [ 117.315772775849624, 42.407618029610298 ], [ 117.315772730681019, 42.407609023721868 ], [ 117.315778806883159, 42.40760900698497 ], [ 117.315778716544287, 42.407590995208089 ], [ 117.315784792744708, 42.407590978470878 ], [ 117.315784702404187, 42.407572966693948 ], [ 117.315778626205528, 42.407572983431152 ], [ 117.31577858103617, 42.407563977542658 ], [ 117.315766428640558, 42.407564011016092 ], [ 117.315766406056738, 42.407559508071834 ], [ 117.315754253661993, 42.407559541543968 ], [ 117.315754276244917, 42.407564044488225 ], [ 117.315717819057937, 42.407564144896902 ], [ 117.315717864218598, 42.407573150785446 ], [ 117.315723940417314, 42.407573134051468 ], [ 117.31572398557887, 42.40758213993999 ], [ 117.315730061778453, 42.407582123205678 ], [ 117.315730084359672, 42.407586626149943 ], [ 117.31573616055968, 42.407586609415304 ], [ 117.315736205722999, 42.407595615303805 ], [ 117.315742281923875, 42.40759559856884 ], [ 117.315742304505989, 42.407600101513076 ], [ 117.315754456908593, 42.407600068042186 ], [ 117.315754502074554, 42.407609073930637 ], [ 117.315760578276709, 42.407609057194705 ], [ 117.315760623443552, 42.407618063083142 ] ] ] } },
{ "type": "Feature", "properties": { "crown_id": 8366, "tree_id": "8374", "top_h_m": 22.35, "H_95_Mean": 22.964, "DBH": 32.6886, "Carbon_kg": 219.63707, "area_m2": 22.25 }, "geometry": { "type": "Polygon", "coordinates": [ [ [ 117.315869836958569, 42.40758624117192 ], [ 117.31588198935836, 42.407586207687523 ], [ 117.315881876397981, 42.407563692966541 ], [ 117.31589402879338, 42.407563659480878 ], [ 117.315894006200452, 42.407559156536671 ], [ 117.3158879300032, 42.407559173279672 ], [ 117.315887907410698, 42.40755467033545 ], [ 117.315881831213872, 42.407554687078125 ], [ 117.315881786029763, 42.407545681189696 ], [ 117.315869633637817, 42.407545714674058 ], [ 117.315869588455499, 42.407536708785599 ], [ 117.315863512260378, 42.407536725527272 ], [ 117.31586353485109, 42.407541228471516 ], [ 117.315851382459982, 42.407541261953924 ], [ 117.315851405049855, 42.407545764898174 ], [ 117.315839252657838, 42.407545798379303 ], [ 117.315839275246844, 42.407550301323525 ], [ 117.31582104665749, 42.407550351542817 ], [ 117.315821091832916, 42.407559357431296 ], [ 117.315808939438242, 42.407559390909235 ], [ 117.315808962025088, 42.407563893853464 ], [ 117.315784657233962, 42.407563960805462 ], [ 117.31578467981906, 42.407568463749712 ], [ 117.315790756017293, 42.407568447012196 ], [ 117.315790801188385, 42.407577452900661 ], [ 117.315809029785669, 42.407577402686158 ], [ 117.315809052372515, 42.40758190563038 ], [ 117.315869814367375, 42.407581738227734 ], [ 117.315869836958569, 42.40758624117192 ] ], [ [ 117.315833311993316, 42.407572832784751 ], [ 117.315833244227562, 42.407559323952086 ], [ 117.315839320424871, 42.407559307211997 ], [ 117.315839297835851, 42.407554804267768 ], [ 117.31585752642647, 42.407554754045563 ], [ 117.315857503836156, 42.407550251101341 ], [ 117.315869656228998, 42.407550217618272 ], [ 117.315869678820164, 42.407554720562494 ], [ 117.31586360262331, 42.407554737304181 ], [ 117.315863625214064, 42.407559240248403 ], [ 117.315857549016769, 42.407559256989785 ], [ 117.315857594197425, 42.407568262878215 ], [ 117.315851517999263, 42.407568279619277 ], [ 117.315851540589151, 42.407572782563491 ], [ 117.315833311993316, 42.407572832784751 ] ] ] } },
{ "type": "Feature", "properties": { "crown_id": 8374, "tree_id": "8382", "top_h_m": 22.294, "H_95_Mean": 22.4339, "DBH": 35.5038, "Carbon_kg": 255.870017, "area_m2": 32.0 }, "geometry": { "type": "Polygon", "coordinates": [ [ [ 117.315669322359298, 42.407586793478551 ], [ 117.315681474759415, 42.407586760015406 ], [ 117.315681429603913, 42.407577754126841 ], [ 117.315699658201467, 42.407577703929725 ], [ 117.315699635622423, 42.407573200985453 ], [ 117.315711788019868, 42.407573167519104 ], [ 117.315711720280191, 42.407559658686282 ], [ 117.3157177964776, 42.407559641952631 ], [ 117.315717728736644, 42.407546133119773 ], [ 117.315687347756025, 42.407546216784766 ], [ 117.315687280021635, 42.407532707951837 ], [ 117.315662975242262, 42.407532774878 ], [ 117.315662997818649, 42.407537277822328 ], [ 117.315644769232748, 42.407537328013568 ], [ 117.315644746657682, 42.407532825069246 ], [ 117.315632594267925, 42.407532858528462 ], [ 117.315632616842123, 42.407537361472805 ], [ 117.315626540646832, 42.40753737820193 ], [ 117.315626563220604, 42.407541881146265 ], [ 117.315614410829085, 42.407541914603563 ], [ 117.315614546266673, 42.407568932269527 ], [ 117.315626698663408, 42.407568898812201 ], [ 117.315626721237223, 42.407573401756494 ], [ 117.31565102603237, 42.407573334837984 ], [ 117.315651048607947, 42.40757783778227 ], [ 117.315669277205544, 42.407577787589986 ], [ 117.315669322359298, 42.407586793478551 ] ], [ [ 117.315626698663408, 42.407568898812201 ], [ 117.315626630941992, 42.407555389979237 ], [ 117.315644859533123, 42.407555339790861 ], [ 117.315644927258461, 42.407568848623782 ], [ 117.315626698663408, 42.407568898812201 ] ] ] } },
{ "type": "Feature", "properties": { "crown_id": 8397, "tree_id": "8405", "top_h_m": 22.633, "H_95_Mean": 22.9561, "DBH": 30.0216, "Carbon_kg": 184.977854, "area_m2": 16.0 }, "geometry": { "type": "Polygon", "coordinates": [ [ [ 117.315572080587671, 42.407582558193013 ], [ 117.315584232987106, 42.407582524740185 ], [ 117.315584210416304, 42.407578021795857 ], [ 117.31559636281483, 42.407577988341743 ], [ 117.315596317671535, 42.4075689824531 ], [ 117.315608470068284, 42.407568948997707 ], [ 117.315608312060846, 42.407537428387378 ], [ 117.315620464451499, 42.407537394930735 ], [ 117.315620441878167, 42.407532891986392 ], [ 117.31562651807306, 42.407532875257587 ], [ 117.315626495499259, 42.407528372313251 ], [ 117.315602190721421, 42.407528439226525 ], [ 117.315602213293459, 42.407532942170874 ], [ 117.315596137098538, 42.407532958898393 ], [ 117.31559615967015, 42.407537461842729 ], [ 117.315577931084093, 42.407537512023367 ], [ 117.315577998795035, 42.407551020856424 ], [ 117.315565846401682, 42.407551054308577 ], [ 117.315565914110067, 42.407564563141605 ], [ 117.31555983791209, 42.40756457986722 ], [ 117.315559883050142, 42.407573585755891 ], [ 117.315572035447843, 42.407573552304356 ], [ 117.315572080587671, 42.407582558193013 ] ] ] } },
{ "type": "Feature", "properties": { "crown_id": 8398, "tree_id": "8406", "top_h_m": 19.747, "H_95_Mean": 20.5353, "DBH": 25.5528, "Carbon_kg": 125.146846, "area_m2": 10.5 }, "geometry": { "type": "Polygon", "coordinates": [ [ [ 117.315906203782589, 42.407568128938117 ], [ 117.315918356178813, 42.407568095449882 ], [ 117.31591833358415, 42.407563592505689 ], [ 117.315942638374821, 42.407563525525354 ], [ 117.315942615778397, 42.407559022581168 ], [ 117.315954768172844, 42.407558989089068 ], [ 117.315954745575596, 42.407554486144896 ], [ 117.315930440788435, 42.407554553127788 ], [ 117.315930395597391, 42.407545547239401 ], [ 117.315918243205516, 42.407545580728907 ], [ 117.315918220610854, 42.407541077784707 ], [ 117.31591214441535, 42.407541094528973 ], [ 117.315912099226949, 42.407532088640536 ], [ 117.315893870643009, 42.407532138871396 ], [ 117.315893915828781, 42.40754114475984 ], [ 117.315887839633263, 42.407541161502813 ], [ 117.315887884818224, 42.40755016739125 ], [ 117.315893961014623, 42.407550150648262 ], [ 117.315893983607523, 42.40755465359247 ], [ 117.315900059804349, 42.407554636849163 ], [ 117.315900104991073, 42.407563642737571 ], [ 117.315906181188765, 42.40756362599393 ], [ 117.315906203782589, 42.407568128938117 ] ] ] } },
{ "type": "Feature", "properties": { "crown_id": 8412, "tree_id": "8420", "top_h_m": 22.434, "H_95_Mean": 22.5206, "DBH": 26.359, "Carbon_kg": 140.706712, "area_m2": 10.0 }, "geometry": { "type": "Polygon", "coordinates": [ [ [ 117.315723872675008, 42.407559625218653 ], [ 117.315748177464613, 42.407559558279551 ], [ 117.315748154882115, 42.407555055335273 ], [ 117.315772459669901, 42.40755498839102 ], [ 117.31577243708567, 42.407550485446762 ], [ 117.315766360889143, 42.407550502183305 ], [ 117.315766315721589, 42.407541496294769 ], [ 117.315772391917207, 42.40754147955824 ], [ 117.315772369333018, 42.407536976613962 ], [ 117.315760216942621, 42.407537010086706 ], [ 117.315760081442662, 42.40750999242097 ], [ 117.315754005250056, 42.407510009156859 ], [ 117.31575409558161, 42.407528020934031 ], [ 117.315748019387243, 42.407528037669593 ], [ 117.315748041969727, 42.407532540613886 ], [ 117.315741965774933, 42.407532557349128 ], [ 117.315741988356976, 42.407537060293421 ], [ 117.315735912161742, 42.407537077028344 ], [ 117.315735934743358, 42.407541579972637 ], [ 117.315729858547698, 42.407541596707233 ], [ 117.315729881128874, 42.407546099651526 ], [ 117.315723804932759, 42.407546116385802 ], [ 117.315723872675008, 42.407559625218653 ] ] ] } },
{ "type": "Feature", "properties": { "crown_id": 8413, "tree_id": "8421", "top_h_m": 23.685, "H_95_Mean": 23.395, "DBH": 30.2903, "Carbon_kg": 190.451275, "area_m2": 16.0 }, "geometry": { "type": "Polygon", "coordinates": [ [ [ 117.315778558451484, 42.407559474598408 ], [ 117.315802863240904, 42.407559407647717 ], [ 117.315802840654484, 42.40755490470346 ], [ 117.315814993048292, 42.407554871226182 ], [ 117.315814947873761, 42.407545865337703 ], [ 117.315833176461823, 42.407545815119384 ], [ 117.31583313128472, 42.407536809230891 ], [ 117.315827055089571, 42.407536825970645 ], [ 117.315827032501446, 42.407532323026395 ], [ 117.315802727722556, 42.40753238998218 ], [ 117.315802705136164, 42.407527887037922 ], [ 117.315796628941868, 42.407527903776064 ], [ 117.315796606355931, 42.407523400831799 ], [ 117.315790530162047, 42.407523417569607 ], [ 117.31579050757658, 42.407518914625335 ], [ 117.315784431383108, 42.407518931362823 ], [ 117.315784386213025, 42.407509925474251 ], [ 117.315772233827843, 42.40750995894826 ], [ 117.315772211243669, 42.407505456003953 ], [ 117.315766135051518, 42.407505472740475 ], [ 117.315766270554036, 42.407532490406219 ], [ 117.31577842294358, 42.407532456932834 ], [ 117.315778558451484, 42.407559474598408 ] ] ] } },
{ "type": "Feature", "properties": { "crown_id": 8414, "tree_id": "8422", "top_h_m": 21.377, "H_95_Mean": 21.3211, "DBH": 33.6418, "Carbon_kg": 222.739562, "area_m2": 28.5 }, "geometry": { "type": "Polygon", "coordinates": [ [ [ 117.3159851717583, 42.407563408297349 ], [ 117.315997324153543, 42.407563374800745 ], [ 117.315997301553224, 42.40755887185658 ], [ 117.316015530144725, 42.407558821609257 ], [ 117.316015417136711, 42.407536306888453 ], [ 117.316003264746726, 42.407536340386969 ], [ 117.316003242145982, 42.407531837442797 ], [ 117.315991089756864, 42.407531870940019 ], [ 117.315991021957331, 42.407518362107453 ], [ 117.315984945764072, 42.407518378855571 ], [ 117.315984923164677, 42.40751387591137 ], [ 117.315978846971817, 42.407513892659161 ], [ 117.315978824372863, 42.407509389714974 ], [ 117.315954519603181, 42.407509456702911 ], [ 117.315954542200387, 42.407513959647126 ], [ 117.315948466007526, 42.407513976393304 ], [ 117.315948488604306, 42.407518479337519 ], [ 117.315936336217703, 42.407518512828922 ], [ 117.315936381409543, 42.407527518717359 ], [ 117.315924229021149, 42.407527552207483 ], [ 117.315924251616224, 42.407532055151698 ], [ 117.315918175421587, 42.407532071896284 ], [ 117.31591819801622, 42.407536574840485 ], [ 117.315924274211284, 42.407536558095913 ], [ 117.315924296806358, 42.407541061040106 ], [ 117.315936449197366, 42.407541027549968 ], [ 117.315936494389248, 42.407550033438355 ], [ 117.315960799174647, 42.407549966454184 ], [ 117.315960844370053, 42.407558972342542 ], [ 117.315985149158863, 42.407558905353191 ], [ 117.3159851717583, 42.407563408297349 ] ] ] } },
{ "type": "Feature", "properties": { "crown_id": 8430, "tree_id": "8438", "top_h_m": 20.807, "H_95_Mean": 20.8069, "DBH": 19.7219, "Carbon_kg": 74.829531, "area_m2": 3.75 }, "geometry": { "type": "Polygon", "coordinates": [ [ [ 117.315693401373579, 42.407541697108101 ], [ 117.315717706156335, 42.407541630175487 ], [ 117.315717660995745, 42.40753262428688 ], [ 117.315711584800923, 42.407532641020524 ], [ 117.315711517061388, 42.407519132187595 ], [ 117.315705440867873, 42.407519148920898 ], [ 117.315705463447287, 42.407523651865212 ], [ 117.315693311059363, 42.407523685330872 ], [ 117.315693401373579, 42.407541697108101 ] ] ] } },
{ "type": "Feature", "properties": { "crown_id": 8436, "tree_id": "8444", "top_h_m": 21.034, "H_95_Mean": 21.0521, "DBH": 24.6692, "Carbon_kg": 118.304359, "area_m2": 8.75 }, "geometry": { "type": "Polygon", "coordinates": [ [ [ 117.315577908513788, 42.407533009079003 ], [ 117.315590060903645, 42.407532975625593 ], [ 117.315590038332473, 42.407528472681221 ], [ 117.315596114526954, 42.407528455954044 ], [ 117.315596091955356, 42.407523953009687 ], [ 117.315608244343437, 42.407523919554343 ], [ 117.315608221770987, 42.407519416609972 ], [ 117.315614297964586, 42.407519399881821 ], [ 117.315614320537463, 42.407523902826178 ], [ 117.315620396731489, 42.407523886097707 ], [ 117.31562035158484, 42.407514880209 ], [ 117.315608199198508, 42.407514913665622 ], [ 117.315608176626071, 42.407510410721258 ], [ 117.315602100433338, 42.407510427449076 ], [ 117.315602055289332, 42.407501421560333 ], [ 117.3155899029056, 42.407501455015016 ], [ 117.315589880334471, 42.407496952070623 ], [ 117.315583804143017, 42.407496968797474 ], [ 117.315583849284423, 42.407505974686238 ], [ 117.315577773092102, 42.407505991412783 ], [ 117.315577795662364, 42.407510494357169 ], [ 117.315571719469602, 42.407510511083373 ], [ 117.315571809749017, 42.407528522860872 ], [ 117.315577885943497, 42.407528506134646 ], [ 117.315577908513788, 42.407533009079003 ] ] ] } },
{ "type": "Feature", "properties": { "crown_id": 8437, "tree_id": "8445", "top_h_m": 20.25, "H_95_Mean": 21.168, "DBH": 23.9721, "Carbon_kg": 112.026359, "area_m2": 7.75 }, "geometry": { "type": "MultiPolygon", "coordinates": [ [ [ [ 117.315723759771274, 42.407537110497231 ], [ 117.315729835966522, 42.407537093762947 ], [ 117.315729813385346, 42.407532590818647 ], [ 117.315735889580139, 42.407532574084051 ], [ 117.315735866998551, 42.407528071139765 ], [ 117.315741943192918, 42.407528054404835 ], [ 117.315741920610876, 42.40752355146055 ], [ 117.315747996804802, 42.4075235347253 ], [ 117.315747906475011, 42.407505522948092 ], [ 117.315711449321881, 42.407505623354638 ], [ 117.315711494481548, 42.407514629243281 ], [ 117.315717570674622, 42.407514612509658 ], [ 117.31571763841545, 42.407528121342587 ], [ 117.315723714609817, 42.407528104608623 ], [ 117.315723759771274, 42.407537110497231 ] ] ], [ [ [ 117.315747906475011, 42.407505522948092 ], [ 117.315753982667189, 42.407505506212537 ], [ 117.315753937501469, 42.407496500323923 ], [ 117.315747861310172, 42.407496517059464 ], [ 117.315747906475011, 42.407505522948092 ] ] ] ] } },
{ "type": "Feature", "properties": { "crown_id": 8438, "tree_id": "8446", "top_h_m": 22.28, "H_95_Mean": 22.6073, "DBH": 35.7044, "Carbon_kg": 259.973389, "area_m2": 32.25 }, "geometry": { "type": "MultiPolygon", "coordinates": [ [ [ [ 117.315832927987927, 42.407496282732517 ], [ 117.315832905399432, 42.407491779788252 ], [ 117.315826829208632, 42.407491796527978 ], [ 117.3158268517967, 42.407496299472257 ], [ 117.315832927987927, 42.407496282732517 ] ] ], [ [ [ 117.315845306264421, 42.407541278694659 ], [ 117.315845283674989, 42.407536775750415 ], [ 117.315857436065258, 42.407536742268647 ], [ 117.315857345704117, 42.407518730491667 ], [ 117.315863421897504, 42.407518713750314 ], [ 117.315863399306792, 42.407514210806063 ], [ 117.315869475499753, 42.40751419406439 ], [ 117.315869452908601, 42.40750969112014 ], [ 117.315857300523575, 42.407509724603173 ], [ 117.31585732311386, 42.407514227547424 ], [ 117.315833018341991, 42.40751429450961 ], [ 117.315832995753468, 42.407509791565346 ], [ 117.315826919560948, 42.407509808305093 ], [ 117.315826874384769, 42.407500802416536 ], [ 117.315808645809739, 42.407500852633817 ], [ 117.315808578049428, 42.407487343800931 ], [ 117.315826806620564, 42.407487293583692 ], [ 117.315826693680307, 42.407464778862192 ], [ 117.315832769868493, 42.40746476212248 ], [ 117.31583272469156, 42.407455756233865 ], [ 117.315814496129576, 42.407455806452028 ], [ 117.315814518716735, 42.407460309396335 ], [ 117.315796290153401, 42.407460359611612 ], [ 117.315796312739252, 42.407464862555933 ], [ 117.315790236551038, 42.40746487929372 ], [ 117.315790281721902, 42.407473885182355 ], [ 117.315778129343698, 42.407473918656969 ], [ 117.315778151928285, 42.407478421601283 ], [ 117.315772075738735, 42.407478438338103 ], [ 117.315772143491188, 42.407491947171046 ], [ 117.315759991109474, 42.407491980643755 ], [ 117.31576003627606, 42.407500986532369 ], [ 117.315778264851232, 42.407500936322812 ], [ 117.315778287435833, 42.407505439267119 ], [ 117.315790439820105, 42.407505405792477 ], [ 117.315790484991084, 42.407514411681049 ], [ 117.315796561184086, 42.407514394943249 ], [ 117.315796583769995, 42.407518897887513 ], [ 117.315802659963438, 42.407518881149379 ], [ 117.315802682549801, 42.407523384093658 ], [ 117.315808758743685, 42.407523367355189 ], [ 117.315808781330475, 42.407527870299468 ], [ 117.315833086107602, 42.40752780334239 ], [ 117.315833108696154, 42.40753230628664 ], [ 117.315839184890876, 42.407532289546566 ], [ 117.315839230068846, 42.40754129543506 ], [ 117.315845306264421, 42.407541278694659 ] ] ] ] } },
{ "type": "Feature", "properties": { "crown_id": 8444, "tree_id": "8452", "top_h_m": 21.75, "H_95_Mean": 21.409, "DBH": 26.062, "Carbon_kg": 133.473116, "area_m2": 10.5 }, "geometry": { "type": "Polygon", "coordinates": [ [ [ 117.316009318340548, 42.407531820693706 ], [ 117.316015394535114, 42.407531803944288 ], [ 117.316015371933531, 42.407527301000115 ], [ 117.316027524321768, 42.407527267500328 ], [ 117.31602732089992, 42.40748674100265 ], [ 117.316021244709717, 42.407486757752672 ], [ 117.316021267311697, 42.407491260696894 ], [ 117.316015191121053, 42.407491277446603 ], [ 117.316015213722579, 42.407495780390811 ], [ 117.316009137531509, 42.4074957971402 ], [ 117.316009160132637, 42.407500300084394 ], [ 117.315984855366523, 42.407500367078761 ], [ 117.315984900565283, 42.407509372967169 ], [ 117.315990976757689, 42.407509356219066 ], [ 117.31599099935751, 42.407513859163274 ], [ 117.315997075550342, 42.407513842414829 ], [ 117.31599714335114, 42.407527351247388 ], [ 117.316009295739406, 42.407527317749533 ], [ 117.316009318340548, 42.407531820693706 ] ] ] } },
{ "type": "Feature", "properties": { "crown_id": 8455, "tree_id": "8463", "top_h_m": 21.639, "H_95_Mean": 21.4153, "DBH": 29.5105, "Carbon_kg": 171.491662, "area_m2": 17.0 }, "geometry": { "type": "Polygon", "coordinates": [ [ [ 117.315650822852547, 42.407532808339155 ], [ 117.315656899047426, 42.407532791608737 ], [ 117.315656876471465, 42.407528288664409 ], [ 117.315687257443528, 42.407528205007537 ], [ 117.315687212287287, 42.40751919911888 ], [ 117.315699364674359, 42.407519165653888 ], [ 117.3156993420954, 42.407514662709566 ], [ 117.315705418288459, 42.407514645976583 ], [ 117.315705373129674, 42.407505640087933 ], [ 117.315699296937453, 42.407505656820909 ], [ 117.315699251779549, 42.407496650932252 ], [ 117.315674947014131, 42.407496717860901 ], [ 117.315674969591328, 42.407501220805244 ], [ 117.315650664824076, 42.407501287728756 ], [ 117.315650687399568, 42.40750579067312 ], [ 117.315638535015026, 42.40750582413294 ], [ 117.315638557589637, 42.407510327077297 ], [ 117.315626405204227, 42.407510360535845 ], [ 117.315626472925516, 42.407523869368909 ], [ 117.315632549119513, 42.407523852639791 ], [ 117.315632571693726, 42.407528355584127 ], [ 117.315650800277027, 42.407528305394827 ], [ 117.315650822852547, 42.407532808339155 ] ] ] } },
{ "type": "Feature", "properties": { "crown_id": 8456, "tree_id": "8464", "top_h_m": 19.01, "H_95_Mean": 19.7213, "DBH": 26.4845, "Carbon_kg": 131.33428, "area_m2": 13.0 }, "geometry": { "type": "MultiPolygon", "coordinates": [ [ [ [ 117.315875506509542, 42.407505171433897 ], [ 117.315875574284235, 42.407518680266641 ], [ 117.315869498090876, 42.407518697008648 ], [ 117.315869520682028, 42.407523199952884 ], [ 117.315863444488201, 42.407523216694571 ], [ 117.315863489669638, 42.40753222258305 ], [ 117.315875642059012, 42.407532189099349 ], [ 117.315875687242198, 42.407541194987814 ], [ 117.31588176343773, 42.407541178245481 ], [ 117.315881740845683, 42.407536675301245 ], [ 117.315887817040817, 42.407536658558598 ], [ 117.31588777185587, 42.407527652670147 ], [ 117.315918152826953, 42.407527568952077 ], [ 117.315918130232333, 42.40752306600784 ], [ 117.31593028261986, 42.407523032518377 ], [ 117.315930214833415, 42.407509523685704 ], [ 117.315918062448489, 42.407509557175167 ], [ 117.315918039853869, 42.407505054230931 ], [ 117.315875506509542, 42.407505171433897 ] ] ], [ [ [ 117.315875506509542, 42.407505171433897 ], [ 117.315875483917992, 42.407500668489632 ], [ 117.315869407726353, 42.407500685231625 ], [ 117.315869430317477, 42.407505188175882 ], [ 117.315875506509542, 42.407505171433897 ] ] ] ] } },
{ "type": "Feature", "properties": { "crown_id": 8491, "tree_id": "8499", "top_h_m": 20.435, "H_95_Mean": 20.875, "DBH": 29.0447, "Carbon_kg": 163.588511, "area_m2": 16.75 }, "geometry": { "type": "Polygon", "coordinates": [ [ [ 117.31561425281879, 42.407510393993107 ], [ 117.315620329011523, 42.407510377264636 ], [ 117.31562030643822, 42.407505874320265 ], [ 117.315632458822762, 42.40750584086237 ], [ 117.315632391100252, 42.407492332029285 ], [ 117.315638467291222, 42.407492315299862 ], [ 117.315638399567447, 42.407478806466742 ], [ 117.315656628136395, 42.407478756276561 ], [ 117.315656650712313, 42.407483259220925 ], [ 117.31566272690236, 42.40748324249023 ], [ 117.315662681749728, 42.407474236601487 ], [ 117.315674834128146, 42.407474203139117 ], [ 117.315674811550963, 42.407469700194753 ], [ 117.315668735362181, 42.407469716926094 ], [ 117.315668667631982, 42.407456208092967 ], [ 117.315662591444521, 42.407456224823974 ], [ 117.315662568868234, 42.407451721879589 ], [ 117.315650416494151, 42.407451755340645 ], [ 117.315650439069572, 42.407456258285031 ], [ 117.315644362882082, 42.407456275015086 ], [ 117.315644385457077, 42.407460777959471 ], [ 117.315638309269161, 42.4074607946892 ], [ 117.315638331843743, 42.407465297633586 ], [ 117.315632255655359, 42.407465314363002 ], [ 117.315632278229515, 42.407469817307387 ], [ 117.315626202040704, 42.407469834036476 ], [ 117.315626224614419, 42.407474336980876 ], [ 117.315614072235931, 42.407474370438088 ], [ 117.315614117381614, 42.407483376326866 ], [ 117.315601965001377, 42.407483409782799 ], [ 117.315601987573359, 42.407487912727191 ], [ 117.315589835192227, 42.407487946181838 ], [ 117.315589857763356, 42.407492449126245 ], [ 117.315595933954356, 42.407492432399074 ], [ 117.315595956525911, 42.407496935343453 ], [ 117.315608108908776, 42.407496901888138 ], [ 117.315608154053649, 42.40750590777688 ], [ 117.315614230245913, 42.407505891048729 ], [ 117.31561425281879, 42.407510393993107 ] ] ] } },
{ "type": "Feature", "properties": { "crown_id": 8497, "tree_id": "8505", "top_h_m": 20.389, "H_95_Mean": 21.0239, "DBH": 18.7118, "Carbon_kg": 67.720168, "area_m2": 3.0 }, "geometry": { "type": "MultiPolygon", "coordinates": [ [ [ [ 117.315638512440415, 42.40750132118859 ], [ 117.315644588632253, 42.40750130445884 ], [ 117.315644566057216, 42.407496801514476 ], [ 117.315638489865805, 42.407496818244219 ], [ 117.315638512440415, 42.40750132118859 ] ] ], [ [ [ 117.315644566057216, 42.407496801514476 ], [ 117.315668870822748, 42.407496734592264 ], [ 117.315668848245963, 42.407492231647915 ], [ 117.315674924436919, 42.407492214916566 ], [ 117.315674856705328, 42.407478706083481 ], [ 117.315668780515708, 42.40747872281483 ], [ 117.315668825669221, 42.407487728703558 ], [ 117.315650597097672, 42.407487778895678 ], [ 117.31565061967315, 42.407492281840049 ], [ 117.315644543482179, 42.407492298570119 ], [ 117.315644566057216, 42.407496801514476 ] ] ], [ [ [ 117.315650597097672, 42.407487778895678 ], [ 117.315650574522223, 42.407483275951307 ], [ 117.315644498332134, 42.40748329268137 ], [ 117.315644520907156, 42.407487795625748 ], [ 117.315650597097672, 42.407487778895678 ] ] ] ] } },
{ "type": "Feature", "properties": { "crown_id": 8499, "tree_id": "8507", "top_h_m": 20.22, "H_95_Mean": 20.861, "DBH": 36.6237, "Carbon_kg": 260.93413, "area_m2": 41.25 }, "geometry": { "type": "Polygon", "coordinates": [ [ [ 117.315936313621762, 42.407514009884714 ], [ 117.315942389814651, 42.407513993139176 ], [ 117.315942367218312, 42.407509490194954 ], [ 117.315948443410733, 42.407509473449096 ], [ 117.315948420813967, 42.407504970504867 ], [ 117.315978801773923, 42.407504886770752 ], [ 117.31597873397709, 42.407491377938115 ], [ 117.315960505405059, 42.407491428179533 ], [ 117.315960482807427, 42.407486925235297 ], [ 117.315954406617166, 42.407486941981787 ], [ 117.315954384019975, 42.407482439037544 ], [ 117.315948307830155, 42.407482455783708 ], [ 117.315948217443193, 42.407464444006727 ], [ 117.315942141255121, 42.40746446075255 ], [ 117.315942118658796, 42.407459957808307 ], [ 117.31594819484647, 42.40745994106247 ], [ 117.315948081862913, 42.407437426341133 ], [ 117.315942005677428, 42.407437443086955 ], [ 117.315941915292427, 42.407419431309819 ], [ 117.315893305822243, 42.407419565264668 ], [ 117.315893283229457, 42.407415062320354 ], [ 117.315887207046117, 42.407415079063263 ], [ 117.315887229638435, 42.407419582007591 ], [ 117.315875077270846, 42.407419615492429 ], [ 117.315875099862296, 42.407424118436751 ], [ 117.315869023678033, 42.407424135178687 ], [ 117.315869046269086, 42.407428638123008 ], [ 117.315875122453775, 42.407428621381051 ], [ 117.315875167636705, 42.407437627269687 ], [ 117.315887320007789, 42.407437593784813 ], [ 117.315887342600163, 42.40744209672912 ], [ 117.315905571158055, 42.407442046499384 ], [ 117.315905797094914, 42.407487075942107 ], [ 117.315917949475505, 42.407487042453965 ], [ 117.315918017259293, 42.407500551286688 ], [ 117.315924093450874, 42.40750053454213 ], [ 117.31592411604592, 42.407505037486359 ], [ 117.315936268429951, 42.407505003996263 ], [ 117.315936313621762, 42.407514009884714 ] ] ] } },
{ "type": "Feature", "properties": { "crown_id": 8512, "tree_id": "8520", "top_h_m": 21.25, "H_95_Mean": 21.1488, "DBH": 34.7347, "Carbon_kg": 236.426881, "area_m2": 32.75 }, "geometry": { "type": "Polygon", "coordinates": [ [ [ 117.315839071946016, 42.407509774825279 ], [ 117.31585122433107, 42.407509741344199 ], [ 117.315851201741253, 42.407505238399928 ], [ 117.315863354125412, 42.407505204917548 ], [ 117.315863308944031, 42.407496199029019 ], [ 117.31588153751764, 42.40749614880307 ], [ 117.315881560109631, 42.407500651747334 ], [ 117.315911941067682, 42.40750056803094 ], [ 117.315911895879381, 42.407491562142461 ], [ 117.31589974349788, 42.407491595629963 ], [ 117.315899517565327, 42.40744656618724 ], [ 117.315881289006114, 42.40744661641601 ], [ 117.315881266414181, 42.40744211347171 ], [ 117.315869114042229, 42.407442146955951 ], [ 117.315869068860138, 42.407433141067322 ], [ 117.315850840304748, 42.407433191291247 ], [ 117.315850930663743, 42.407451203068497 ], [ 117.315844854476865, 42.407451219809175 ], [ 117.315844877066212, 42.407455722753475 ], [ 117.315838800878893, 42.407455739493841 ], [ 117.315838868645599, 42.407469248326734 ], [ 117.315832792456973, 42.407469265066773 ], [ 117.315832882810923, 42.407487276843952 ], [ 117.315838959001297, 42.407487260103906 ], [ 117.315838913823427, 42.407478254215327 ], [ 117.315857142391863, 42.407478203993278 ], [ 117.315857210162562, 42.407491712826108 ], [ 117.315838981590232, 42.407491763048192 ], [ 117.315839026768103, 42.407500768936742 ], [ 117.315832950576436, 42.40750078567681 ], [ 117.315832973164959, 42.407505288621067 ], [ 117.315839049357052, 42.407505271881007 ], [ 117.315839071946016, 42.407509774825279 ] ] ] } },
{ "type": "Feature", "properties": { "crown_id": 8520, "tree_id": "8528", "top_h_m": 21.281, "H_95_Mean": 21.8438, "DBH": 41.7445, "Carbon_kg": 349.06836, "area_m2": 63.0 }, "geometry": { "type": "Polygon", "coordinates": [ [ [ 117.315705350550274, 42.407501137143612 ], [ 117.315741807700846, 42.407501036739014 ], [ 117.315741762536874, 42.407492030850378 ], [ 117.315753914918588, 42.407491997379616 ], [ 117.315753892335763, 42.407487494435294 ], [ 117.315766044716597, 42.407487460963246 ], [ 117.315765976965494, 42.407473952130289 ], [ 117.315772053154575, 42.407473935393782 ], [ 117.315772030570457, 42.407469432449453 ], [ 117.315784182947795, 42.407469398975493 ], [ 117.315784137777811, 42.407460393086851 ], [ 117.315790213965613, 42.407460376349391 ], [ 117.315790168794763, 42.407451370460727 ], [ 117.315765864047023, 42.407451437408596 ], [ 117.315765841463346, 42.407446934464261 ], [ 117.315741536717269, 42.407447001406979 ], [ 117.315741514135354, 42.407442498462615 ], [ 117.315735437949229, 42.407442515197474 ], [ 117.315735099227439, 42.407374971031629 ], [ 117.315722946868263, 42.407375004500331 ], [ 117.3157229694488, 42.407379507444737 ], [ 117.315716893268771, 42.407379524178609 ], [ 117.315716870688661, 42.407375021234181 ], [ 117.315710794509059, 42.407375037967732 ], [ 117.31571086224811, 42.407388546801002 ], [ 117.315704786067215, 42.407388563534226 ], [ 117.315704831225744, 42.407397569423054 ], [ 117.315698755043954, 42.407397586155966 ], [ 117.315698845359321, 42.4074155979336 ], [ 117.315704921542832, 42.407415581200681 ], [ 117.315704989280732, 42.407429090033865 ], [ 117.315698913095915, 42.407429106766791 ], [ 117.315698958253662, 42.407438112655562 ], [ 117.31567465351084, 42.407438179584076 ], [ 117.31567469866512, 42.407447185472861 ], [ 117.31566862247854, 42.407447202204196 ], [ 117.315668645055268, 42.407451705148581 ], [ 117.315674721242274, 42.407451688417247 ], [ 117.315674743819457, 42.407456191361639 ], [ 117.315680820006889, 42.407456174629978 ], [ 117.315680842584499, 42.407460677574342 ], [ 117.315674766396612, 42.407460694306003 ], [ 117.31567478897378, 42.407465197250374 ], [ 117.315680865162093, 42.40746518051872 ], [ 117.315681000627848, 42.407492198184883 ], [ 117.315705305391518, 42.407492131254941 ], [ 117.315705350550274, 42.407501137143612 ] ], [ [ 117.315699161463812, 42.407478639154867 ], [ 117.315699093727048, 42.407465130321796 ], [ 117.315717322291931, 42.407465080121973 ], [ 117.315717390032603, 42.407478588955023 ], [ 117.315699161463812, 42.407478639154867 ] ], [ [ 117.315692949803307, 42.407451638221325 ], [ 117.315692927224859, 42.407447135276939 ], [ 117.315699003411439, 42.407447118544319 ], [ 117.315699025990313, 42.40745162148869 ], [ 117.315692949803307, 42.407451638221325 ] ] ] } },
{ "type": "Feature", "properties": { "crown_id": 8523, "tree_id": "8531", "top_h_m": 20.494, "H_95_Mean": 20.448, "DBH": 30.2025, "Carbon_kg": 174.847335, "area_m2": 20.25 }, "geometry": { "type": "Polygon", "coordinates": [ [ [ 117.315571584050673, 42.407483493417018 ], [ 117.315595888811245, 42.407483426510282 ], [ 117.315595866239704, 42.407478923565897 ], [ 117.315608018619088, 42.407478890110596 ], [ 117.315607973474272, 42.407469884221811 ], [ 117.315620125851893, 42.407469850765246 ], [ 117.315620103278633, 42.407465347820853 ], [ 117.315626179467003, 42.407465331092091 ], [ 117.315626156893316, 42.407460828147691 ], [ 117.315632233081232, 42.407460811418609 ], [ 117.315632210507104, 42.407456308474217 ], [ 117.315638286694593, 42.407456291744815 ], [ 117.315638264120068, 42.407451788800408 ], [ 117.315644340307117, 42.407451772070694 ], [ 117.315644317732122, 42.407447269126287 ], [ 117.315620012985633, 42.407447336043241 ], [ 117.315619990412401, 42.407442833098834 ], [ 117.315589609481322, 42.40744291673775 ], [ 117.315589632052394, 42.407447419682185 ], [ 117.315559251119041, 42.407447503313058 ], [ 117.31555934139466, 42.407465515090784 ], [ 117.315565417583088, 42.407465498365234 ], [ 117.315565462721807, 42.407474504254075 ], [ 117.315571538911072, 42.407474487528205 ], [ 117.315571584050673, 42.407483493417018 ] ] ] } },
{ "type": "Feature", "properties": { "crown_id": 8524, "tree_id": "8532", "top_h_m": 21.02, "H_95_Mean": 21.3405, "DBH": 34.4646, "Carbon_kg": 233.981525, "area_m2": 31.25 }, "geometry": { "type": "Polygon", "coordinates": [ [ [ 117.315984832767128, 42.40749586413456 ], [ 117.316003061340439, 42.40749581388927 ], [ 117.316003038739737, 42.407491310945062 ], [ 117.316009114930409, 42.407491294195992 ], [ 117.31600909232931, 42.407486791251785 ], [ 117.316015168519527, 42.407486774502395 ], [ 117.316015145917973, 42.40748227155818 ], [ 117.316027298297527, 42.407482238058442 ], [ 117.316027230490334, 42.407468729225805 ], [ 117.316015078113423, 42.407468762725529 ], [ 117.3160150329104, 42.407459756837085 ], [ 117.316008956722797, 42.407459773586453 ], [ 117.316008911520655, 42.407450767697981 ], [ 117.316002835333933, 42.407450784447029 ], [ 117.316002790132686, 42.407441778558542 ], [ 117.315990637760933, 42.407441812055659 ], [ 117.315990615161184, 42.407437309111408 ], [ 117.315984538975727, 42.407437325859476 ], [ 117.315984516376446, 42.407432822915204 ], [ 117.315978440191415, 42.40743283966296 ], [ 117.315978394993707, 42.407423833774423 ], [ 117.315948014072845, 42.407423917508297 ], [ 117.315948059266219, 42.407432923396854 ], [ 117.315954135451292, 42.407432906650719 ], [ 117.315954361422797, 42.407477936093308 ], [ 117.315960437612205, 42.407477919346825 ], [ 117.315960460209809, 42.407482422291054 ], [ 117.315966536399614, 42.407482405544236 ], [ 117.315966558997687, 42.407486908488487 ], [ 117.315984787568397, 42.407486858246116 ], [ 117.315984832767128, 42.40749586413456 ] ] ] } },
{ "type": "Feature", "properties": { "crown_id": 8539, "tree_id": "8547", "top_h_m": 20.63, "H_95_Mean": 21.3043, "DBH": 26.7661, "Carbon_kg": 140.432801, "area_m2": 11.75 }, "geometry": { "type": "Polygon", "coordinates": [ [ [ 117.316021131699941, 42.407464243031612 ], [ 117.31602720788797, 42.40746422628159 ], [ 117.316026891455195, 42.40740118506217 ], [ 117.316020815273248, 42.407401201812149 ], [ 117.316020837875115, 42.407405704756414 ], [ 117.316014761692742, 42.40740572150608 ], [ 117.316014806895623, 42.40741472739461 ], [ 117.315990502162563, 42.407414794390064 ], [ 117.315990547361992, 42.407423800278615 ], [ 117.315984471177856, 42.407423817026668 ], [ 117.315984493777151, 42.40742831997094 ], [ 117.315990569961741, 42.407428303222879 ], [ 117.315990592561462, 42.407432806167137 ], [ 117.315996668746479, 42.407432789418742 ], [ 117.315996691346641, 42.407437292363007 ], [ 117.316008843717512, 42.407437258865251 ], [ 117.316008888919612, 42.407446264753737 ], [ 117.316014965105907, 42.407446248004376 ], [ 117.316015010308888, 42.407455253892849 ], [ 117.316021086496079, 42.407455237143161 ], [ 117.316021131699941, 42.407464243031612 ] ] ] } },
{ "type": "Feature", "properties": { "crown_id": 8562, "tree_id": "8570", "top_h_m": 21.02, "H_95_Mean": 21.5727, "DBH": 22.8838, "Carbon_kg": 103.161194, "area_m2": 6.25 }, "geometry": { "type": "MultiPolygon", "coordinates": [ [ [ [ 117.315771895065765, 42.407442414783432 ], [ 117.315771917649869, 42.407446917727775 ], [ 117.315777993836363, 42.407446900990962 ], [ 117.315777971251833, 42.407442398046634 ], [ 117.315771895065765, 42.407442414783432 ] ] ], [ [ [ 117.315771895065765, 42.407442414783432 ], [ 117.315771849897573, 42.407433408894725 ], [ 117.315765773712371, 42.407433425631204 ], [ 117.315765751128708, 42.407428922686847 ], [ 117.315759674943934, 42.407428939422992 ], [ 117.315759607194309, 42.407415430589886 ], [ 117.315753531010841, 42.407415447325704 ], [ 117.315753508428088, 42.407410944381326 ], [ 117.315741356061991, 42.407410977852003 ], [ 117.31574149155341, 42.407437995518251 ], [ 117.315747567739066, 42.407437978783065 ], [ 117.315747590321436, 42.407442481727422 ], [ 117.315771895065765, 42.407442414783432 ] ] ] ] } },
{ "type": "Feature", "properties": { "crown_id": 8571, "tree_id": "8579", "top_h_m": 21.148, "H_95_Mean": 20.3234, "DBH": 35.9452, "Carbon_kg": 247.432099, "area_m2": 40.25 }, "geometry": { "type": "Polygon", "coordinates": [ [ [ 117.315547076177623, 42.40744303381873 ], [ 117.315583533295097, 42.40744293346458 ], [ 117.31558351072448, 42.407438430520145 ], [ 117.315589586910264, 42.407438413793336 ], [ 117.31558956433922, 42.407433910848894 ], [ 117.315583488153848, 42.407433927575703 ], [ 117.315583217306795, 42.407379892242204 ], [ 117.31555891258617, 42.407379959146127 ], [ 117.315558890017357, 42.407375456201635 ], [ 117.315552813837613, 42.407375472926802 ], [ 117.315552836405985, 42.407379975871301 ], [ 117.315522455505075, 42.407380059492326 ], [ 117.315522478071301, 42.407384562436839 ], [ 117.315516401890648, 42.407384579160066 ], [ 117.315516424456433, 42.407389082104586 ], [ 117.315492119732099, 42.407389148994334 ], [ 117.315492142296151, 42.407393651938847 ], [ 117.315504294659192, 42.407393618494595 ], [ 117.315504317224139, 42.407398121439108 ], [ 117.315498241042164, 42.407398138161383 ], [ 117.31549830873567, 42.407411646994881 ], [ 117.315510461102178, 42.407411613549968 ], [ 117.31551050623294, 42.407420619438938 ], [ 117.315516582417075, 42.407420602715995 ], [ 117.315516627548718, 42.407429608604943 ], [ 117.315522703733706, 42.407429591881673 ], [ 117.315522726299974, 42.407434094826137 ], [ 117.315547031041589, 42.407434027929824 ], [ 117.315547076177623, 42.40744303381873 ] ] ] } },
{ "type": "Feature", "properties": { "crown_id": 8573, "tree_id": "8581", "top_h_m": 21.515, "H_95_Mean": 20.5906, "DBH": 39.2438, "Carbon_kg": 297.62, "area_m2": 55.25 }, "geometry": { "type": "Polygon", "coordinates": [ [ [ 117.31565039391873, 42.407447252396253 ], [ 117.315662546291946, 42.407447218935197 ], [ 117.315662523715659, 42.407442715990804 ], [ 117.315668599901826, 42.407442699259803 ], [ 117.315668554748399, 42.407433693371004 ], [ 117.315692859489531, 42.40743362644379 ], [ 117.31569281433265, 42.407424620555012 ], [ 117.315698890517041, 42.407424603822399 ], [ 117.315698867938181, 42.407420100877999 ], [ 117.315692791754216, 42.407420117610613 ], [ 117.315692656283758, 42.407393099944137 ], [ 117.315698732465123, 42.407393083211552 ], [ 117.315698709886291, 42.407388580267124 ], [ 117.315692633705368, 42.407388596999716 ], [ 117.315692611126991, 42.407384094055281 ], [ 117.315680458765996, 42.407384127519485 ], [ 117.315680436188487, 42.407379624575043 ], [ 117.315643979108017, 42.40737972495991 ], [ 117.315643956533094, 42.407375222015446 ], [ 117.315607499455055, 42.407375322388688 ], [ 117.315607522027335, 42.407379825333152 ], [ 117.315589293486951, 42.407379875515439 ], [ 117.315589541768176, 42.407429407904452 ], [ 117.315595617953093, 42.407429391177324 ], [ 117.315595663096047, 42.407438397066187 ], [ 117.315626044024924, 42.407438313425665 ], [ 117.315626066598583, 42.407442816370079 ], [ 117.315650371343324, 42.407442749451853 ], [ 117.31565039391873, 42.407447252396253 ] ], [ [ 117.315619922692719, 42.407429324265578 ], [ 117.31561985497305, 42.407415815432273 ], [ 117.315638083523822, 42.407415765245105 ], [ 117.31563815124737, 42.407429274078375 ], [ 117.315619922692719, 42.407429324265578 ] ] ] } },
{ "type": "Feature", "properties": { "crown_id": 8574, "tree_id": "8582", "top_h_m": 21.626, "H_95_Mean": 21.262, "DBH": 37.6298, "Carbon_kg": 278.704103, "area_m2": 44.25 }, "geometry": { "type": "MultiPolygon", "coordinates": [ [ [ [ 117.315735076646007, 42.407370468087208 ], [ 117.315735054064604, 42.40736596514278 ], [ 117.315722901707161, 42.407365998611468 ], [ 117.315722924287698, 42.40737050155591 ], [ 117.315735076646007, 42.407370468087208 ] ] ], [ [ [ 117.315808419942243, 42.407455823190766 ], [ 117.315808397355525, 42.407451320246437 ], [ 117.315838778289987, 42.407451236549527 ], [ 117.315838755701094, 42.407446733605212 ], [ 117.315844831887546, 42.407446716864861 ], [ 117.315844741530299, 42.407428705087582 ], [ 117.315850817715017, 42.407428688346911 ], [ 117.315850795125272, 42.407424185402597 ], [ 117.315844718941008, 42.407424202143254 ], [ 117.315844696351718, 42.407419699198925 ], [ 117.315832543984044, 42.407419732679266 ], [ 117.31583252139562, 42.407415229734909 ], [ 117.315826445212195, 42.407415246474599 ], [ 117.315826400036258, 42.407406240585914 ], [ 117.315814247671156, 42.407406274064307 ], [ 117.315814225084054, 42.407401771119943 ], [ 117.315802072719791, 42.40740180459705 ], [ 117.315802050133584, 42.407397301652672 ], [ 117.315789897770159, 42.407397335128479 ], [ 117.31578983001414, 42.40738382629533 ], [ 117.315771601472889, 42.4073838765066 ], [ 117.315771511136788, 42.407365864729009 ], [ 117.31574113024331, 42.407365948407964 ], [ 117.315741333480105, 42.40740647490761 ], [ 117.315759562027935, 42.407406424701129 ], [ 117.315759584611115, 42.407410927645508 ], [ 117.315765660794156, 42.40741091090937 ], [ 117.31576572854506, 42.407424419742483 ], [ 117.315771804729394, 42.407424403006011 ], [ 117.315771827313498, 42.407428905950376 ], [ 117.315777903498258, 42.407428889213577 ], [ 117.315777948667304, 42.407437895102298 ], [ 117.315784024852931, 42.407437878365158 ], [ 117.315784070022858, 42.407446884253844 ], [ 117.315796222395832, 42.407446850778612 ], [ 117.315796267567549, 42.407455856667283 ], [ 117.315808419942243, 42.407455823190766 ] ] ] ] } }
]
}
