{
"type": "FeatureCollection",
"name": "tile_24_23",
"crs": { "type": "name", "properties": { "name": "urn:ogc:def:crs:OGC:1.3:CRS84" } },
"features": [
{ "type": "Feature", "properties": { "crown_id": 8959, "tree_id": "8968", "top_h_m": 14.63, "H_95_Mean": 14.2397, "DBH": 21.4267, "Carbon_kg": 70.668603, "area_m2": 10.5 }, "geometry": { "type": "Polygon", "coordinates": [ [ [ 117.315503437195844, 42.407222506600938 ], [ 117.315539894185775, 42.407222406261084 ], [ 117.3155398264838, 42.407208897427196 ], [ 117.315533750320128, 42.407208914151319 ], [ 117.315533727753248, 42.407204411206678 ], [ 117.315527651590017, 42.407204427930452 ], [ 117.315527561324274, 42.407186416151852 ], [ 117.315521485162762, 42.407186432875299 ], [ 117.315521507728747, 42.407190935819955 ], [ 117.31550327924289, 42.407190985988386 ], [ 117.315503256678198, 42.407186483043716 ], [ 117.315497180516672, 42.407186499765878 ], [ 117.315497315902263, 42.407213517433838 ], [ 117.315503392066404, 42.407213500711663 ], [ 117.315503437195844, 42.407222506600938 ] ] ] } },
{ "type": "Feature", "properties": { "crown_id": 9007, "tree_id": "9017", "top_h_m": 22.16, "H_95_Mean": 22.221, "DBH": 38.0825, "Carbon_kg": 293.050833, "area_m2": 42.75 }, "geometry": { "type": "Polygon", "coordinates": [ [ [ 117.315357609234255, 42.407222907844428 ], [ 117.315394066224911, 42.407222807550944 ], [ 117.315394021111103, 42.40721380166157 ], [ 117.315400097275344, 42.407213784944865 ], [ 117.315400074718013, 42.407209282000174 ], [ 117.315406150881813, 42.40720926528315 ], [ 117.315406128324042, 42.407204762338459 ], [ 117.315418280650746, 42.407204728903459 ], [ 117.315418258092123, 42.407200225958761 ], [ 117.315424334255027, 42.407200209240777 ], [ 117.315424289136928, 42.407191203351388 ], [ 117.315418212974876, 42.407191220069372 ], [ 117.315418190416295, 42.407186717124674 ], [ 117.315412114254684, 42.407186733842316 ], [ 117.315412091696516, 42.407182230897618 ], [ 117.3154181678577, 42.407182214179961 ], [ 117.31541810018193, 42.407168705345832 ], [ 117.315412024022052, 42.407168722063467 ], [ 117.315412001463926, 42.407164219118748 ], [ 117.315399849145024, 42.407164252553059 ], [ 117.31539980403052, 42.407155246663592 ], [ 117.315387651713351, 42.407155280096603 ], [ 117.315387629156959, 42.407150777151863 ], [ 117.315381552998801, 42.407150793867892 ], [ 117.315381575554767, 42.407155296812633 ], [ 117.315375499396154, 42.407155313528335 ], [ 117.315375544507233, 42.407164319417824 ], [ 117.315363392188289, 42.40716435284827 ], [ 117.315363414742947, 42.40716885579301 ], [ 117.315339110103267, 42.407168922650058 ], [ 117.315339132656206, 42.407173425594813 ], [ 117.31532698033547, 42.407173459021401 ], [ 117.315327093095874, 42.407195973745118 ], [ 117.315333169258409, 42.407195957031973 ], [ 117.315333259468588, 42.407213968810879 ], [ 117.315345411797125, 42.407213935383595 ], [ 117.315345434350533, 42.4072184383283 ], [ 117.315357586679937, 42.40721840489973 ], [ 117.315357609234255, 42.407222907844428 ] ] ] } },
{ "type": "Feature", "properties": { "crown_id": 9031, "tree_id": "9041", "top_h_m": 21.644, "H_95_Mean": 21.1495, "DBH": 37.59, "Carbon_kg": 277.239013, "area_m2": 44.5 }, "geometry": { "type": "Polygon", "coordinates": [ [ [ 117.315485208700807, 42.40722255676652 ], [ 117.315497361030836, 42.407222523323121 ], [ 117.315497338466542, 42.40721802037848 ], [ 117.315491262301961, 42.407218037100336 ], [ 117.315491172046592, 42.407200025321714 ], [ 117.315485095883759, 42.407200042043243 ], [ 117.315485050756962, 42.407191036153904 ], [ 117.315491126918957, 42.407191019432389 ], [ 117.315491081791308, 42.407182013543043 ], [ 117.315509310274592, 42.407181963376566 ], [ 117.31550933283971, 42.407186466321235 ], [ 117.31551540900125, 42.407186449598427 ], [ 117.315515341304589, 42.407172940764426 ], [ 117.315521417464808, 42.407172924041312 ], [ 117.315521394898838, 42.407168421096635 ], [ 117.315509242579282, 42.40716845454255 ], [ 117.315509129753835, 42.407145939819124 ], [ 117.315515205911453, 42.407145923096337 ], [ 117.315515183345951, 42.407141420151639 ], [ 117.315521259503114, 42.407141403428533 ], [ 117.315521214371245, 42.407132397539144 ], [ 117.315515138214948, 42.407132414262243 ], [ 117.31551516078045, 42.407136917206941 ], [ 117.315496932310225, 42.407136967374306 ], [ 117.315496977438613, 42.407145973263717 ], [ 117.315454444335131, 42.407146090309659 ], [ 117.315454466896284, 42.407150593254386 ], [ 117.31543016226388, 42.407150660130704 ], [ 117.315430184823299, 42.407155163075416 ], [ 117.315405880189076, 42.407155229946611 ], [ 117.315405902746761, 42.407159732891337 ], [ 117.315418055064768, 42.407159699456379 ], [ 117.315418077623349, 42.407164202401106 ], [ 117.315424153782772, 42.407164185683143 ], [ 117.315424266577892, 42.407186700406697 ], [ 117.315430342739475, 42.407186683688401 ], [ 117.315430410417918, 42.407200192522474 ], [ 117.31544863890656, 42.407200142365625 ], [ 117.315448684028183, 42.407209148254985 ], [ 117.315454760191898, 42.407209131535382 ], [ 117.315454692508226, 42.407195622701352 ], [ 117.315472920995518, 42.407195572540658 ], [ 117.315472988683126, 42.407209081374667 ], [ 117.315460836355655, 42.407209114815466 ], [ 117.315460858917334, 42.407213617760142 ], [ 117.315466935081488, 42.407213601039885 ], [ 117.315466957643608, 42.407218103984547 ], [ 117.315485186137366, 42.407218053821872 ], [ 117.315485208700807, 42.40722255676652 ] ] ] } },
{ "type": "Feature", "properties": { "crown_id": 9040, "tree_id": "9051", "top_h_m": 21.702, "H_95_Mean": 21.4993, "DBH": 25.9523, "Carbon_kg": 132.673077, "area_m2": 10.25 }, "geometry": { "type": "Polygon", "coordinates": [ [ [ 117.315320881623478, 42.407168972789457 ], [ 117.315333033943332, 42.407168939363515 ], [ 117.315333011390834, 42.407164436418753 ], [ 117.315357316028809, 42.407164369563006 ], [ 117.315357293474577, 42.407159866618258 ], [ 117.315369445792669, 42.407159833188466 ], [ 117.315369400682471, 42.407150827298963 ], [ 117.315375476840657, 42.407150810583587 ], [ 117.315375454285132, 42.407146307638833 ], [ 117.315381530442849, 42.407146290923137 ], [ 117.315381507886912, 42.407141787978389 ], [ 117.315345050943094, 42.407141888267716 ], [ 117.315345073496431, 42.407146391212493 ], [ 117.315314692707602, 42.407146474778088 ], [ 117.315314737809956, 42.407155480667633 ], [ 117.315320813968597, 42.407155463955164 ], [ 117.315320881623478, 42.407168972789457 ] ] ] } },
{ "type": "Feature", "properties": { "crown_id": 9099, "tree_id": "9110", "top_h_m": 21.389, "H_95_Mean": 21.4736, "DBH": 28.733, "Carbon_kg": 162.768566, "area_m2": 15.25 }, "geometry": { "type": "Polygon", "coordinates": [ [ [ 117.315308593999092, 42.407141988545455 ], [ 117.315338974785774, 42.407141904981479 ], [ 117.315338952232878, 42.407137402036703 ], [ 117.315381485330974, 42.407137285033627 ], [ 117.315381417663176, 42.407123776199342 ], [ 117.315375341507618, 42.407123792915023 ], [ 117.31537531895215, 42.407119289970247 ], [ 117.315332785866175, 42.407119406970992 ], [ 117.315332763313734, 42.407114904026216 ], [ 117.315308458694815, 42.407114970876684 ], [ 117.315308481245538, 42.407119473821488 ], [ 117.315296328935162, 42.407119507244808 ], [ 117.315296351484989, 42.407124010189612 ], [ 117.315302427640617, 42.407123993478095 ], [ 117.315302495291448, 42.407137502312501 ], [ 117.315308571448384, 42.407137485600671 ], [ 117.315308593999092, 42.407141988545455 ] ] ] } },
{ "type": "Feature", "properties": { "crown_id": 9100, "tree_id": "9111", "top_h_m": 23.518, "H_95_Mean": 23.1476, "DBH": 36.5291, "Carbon_kg": 276.047454, "area_m2": 33.75 }, "geometry": { "type": "Polygon", "coordinates": [ [ [ 117.315393705315103, 42.407150760435528 ], [ 117.315424086105764, 42.407150676848978 ], [ 117.315424063546772, 42.407146173904252 ], [ 117.315448368177471, 42.407146107029227 ], [ 117.315448345616758, 42.407141604084487 ], [ 117.315490878717213, 42.407141487040825 ], [ 117.315490833589706, 42.407132481151407 ], [ 117.315509062058666, 42.407132430985016 ], [ 117.315509039493591, 42.40712792804031 ], [ 117.315496887181837, 42.407127961484882 ], [ 117.315496864617671, 42.407123458540163 ], [ 117.315490788462213, 42.407123475261969 ], [ 117.31549076589846, 42.407118972317249 ], [ 117.315460385123288, 42.407119055921413 ], [ 117.315460317438607, 42.40710554708717 ], [ 117.315454241284868, 42.40710556380705 ], [ 117.315454218723758, 42.407101060862288 ], [ 117.315405609497077, 42.407101194609552 ], [ 117.315405654612377, 42.407110200499091 ], [ 117.315399578458141, 42.407110217216065 ], [ 117.315399601015358, 42.407114720160834 ], [ 117.315381372551329, 42.407114770309803 ], [ 117.315381395107266, 42.407119273254565 ], [ 117.315387471262369, 42.407119256538564 ], [ 117.315387606600567, 42.407146274207122 ], [ 117.315393682758284, 42.40714625749078 ], [ 117.315393705315103, 42.407150760435528 ] ], [ [ 117.315399713801483, 42.407137234884623 ], [ 117.315399646129791, 42.407123726050351 ], [ 117.315417874596378, 42.407123675898482 ], [ 117.315417942271964, 42.407137184732719 ], [ 117.315399713801483, 42.407137234884623 ] ] ] } },
{ "type": "Feature", "properties": { "crown_id": 9130, "tree_id": "9141", "top_h_m": 21.943, "H_95_Mean": 22.8241, "DBH": 34.5831, "Carbon_kg": 245.160321, "area_m2": 28.0 }, "geometry": { "type": "Polygon", "coordinates": [ [ [ 117.315515115649475, 42.407127911317538 ], [ 117.315545496428754, 42.407127827698858 ], [ 117.315545451293431, 42.407118821809455 ], [ 117.315551527448406, 42.407118805084757 ], [ 117.315551437176111, 42.407100793305929 ], [ 117.31554536102287, 42.40710081003062 ], [ 117.315545338455266, 42.407096307085901 ], [ 117.315539262302451, 42.407096323810272 ], [ 117.315539194600916, 42.407082814976079 ], [ 117.315527042297887, 42.407082848423826 ], [ 117.315526997165293, 42.407073842534352 ], [ 117.31550269256266, 42.407073909425947 ], [ 117.315502760256365, 42.407087418260197 ], [ 117.315484531800436, 42.407087468425544 ], [ 117.315484554363692, 42.407091971370299 ], [ 117.315466325906414, 42.407092021532755 ], [ 117.315466348468405, 42.407096524477495 ], [ 117.315460272315519, 42.407096541197681 ], [ 117.315460294877084, 42.407101044142429 ], [ 117.315466371030368, 42.407101027422257 ], [ 117.315466438716342, 42.407114536256479 ], [ 117.315496819489312, 42.407114452650724 ], [ 117.315496842053491, 42.407118955595436 ], [ 117.31550291820848, 42.407118938873332 ], [ 117.315502940773101, 42.407123441818037 ], [ 117.315515093083974, 42.407123408372826 ], [ 117.315515115649475, 42.407127911317538 ] ] ] } },
{ "type": "Feature", "properties": { "crown_id": 9159, "tree_id": "9170", "top_h_m": 23.134, "H_95_Mean": 22.9314, "DBH": 34.1715, "Carbon_kg": 239.979769, "area_m2": 26.5 }, "geometry": { "type": "MultiPolygon", "coordinates": [ [ [ [ 117.315290004736895, 42.407069991562828 ], [ 117.315289982187551, 42.407065488617981 ], [ 117.315283906037564, 42.407065505328795 ], [ 117.315283928586481, 42.407070008273656 ], [ 117.315290004736895, 42.407069991562828 ] ] ], [ [ [ 117.315265857968555, 42.407101579018132 ], [ 117.315259781815087, 42.407101595727674 ], [ 117.315259826909497, 42.407110601617347 ], [ 117.315290207681201, 42.407110518066354 ], [ 117.315290230230559, 42.407115021011158 ], [ 117.315302382540068, 42.407114987588493 ], [ 117.315302359989815, 42.407110484643695 ], [ 117.315338816915585, 42.407110384367989 ], [ 117.315338839468467, 42.40711488731278 ], [ 117.315350991777876, 42.40711485388497 ], [ 117.315350969224127, 42.407110350940179 ], [ 117.315344893069877, 42.407110367654248 ], [ 117.315344847963274, 42.407101361764646 ], [ 117.315338771809877, 42.407101378478387 ], [ 117.315338749257023, 42.407096875533576 ], [ 117.315332673104038, 42.40709689224699 ], [ 117.315332537789658, 42.407069874578063 ], [ 117.315296080887308, 42.407069974851687 ], [ 117.31529614853666, 42.407083483686215 ], [ 117.315277920081499, 42.4070835338187 ], [ 117.315277897533022, 42.407079030873852 ], [ 117.315265745230434, 42.407079064293903 ], [ 117.315265857968555, 42.407101579018132 ] ] ], [ [ [ 117.3152657001352, 42.40707005840418 ], [ 117.315259623984758, 42.407070075113715 ], [ 117.315259601437603, 42.407065572168861 ], [ 117.315247449137587, 42.407065605586951 ], [ 117.315247516776509, 42.407079114421556 ], [ 117.315265745230434, 42.407079064293903 ], [ 117.3152657001352, 42.40707005840418 ] ] ] ] } },
{ "type": "Feature", "properties": { "crown_id": 9160, "tree_id": "9171", "top_h_m": 24.136, "H_95_Mean": 24.1308, "DBH": 31.0992, "Carbon_kg": 204.553452, "area_m2": 16.75 }, "geometry": { "type": "Polygon", "coordinates": [ [ [ 117.315357067932595, 42.407114837170582 ], [ 117.315375296396667, 42.407114787025478 ], [ 117.315375273841184, 42.407110284080701 ], [ 117.31539350230392, 42.407110233932713 ], [ 117.315393479747144, 42.407105730987922 ], [ 117.315399555900939, 42.407105714271282 ], [ 117.315399533343736, 42.407101211326513 ], [ 117.315387381036999, 42.40710124475946 ], [ 117.315387313368021, 42.407087735925089 ], [ 117.315381237215959, 42.407087752641075 ], [ 117.315381192104212, 42.40707874675148 ], [ 117.315375115953017, 42.407078763467133 ], [ 117.315375070842137, 42.40706975757751 ], [ 117.315350766240755, 42.407069824436903 ], [ 117.315350721133385, 42.407060818547237 ], [ 117.315344644983881, 42.407060835261284 ], [ 117.315344667537119, 42.407065338206117 ], [ 117.315338591387189, 42.40706535491983 ], [ 117.315338726704169, 42.407092372588764 ], [ 117.315344802856728, 42.407092355875037 ], [ 117.31534482540998, 42.407096858819848 ], [ 117.315350901562965, 42.40709684210578 ], [ 117.315350946670407, 42.407105847995382 ], [ 117.315357022824244, 42.407105831281001 ], [ 117.315357067932595, 42.407114837170582 ] ] ] } },
{ "type": "Feature", "properties": { "crown_id": 9181, "tree_id": "9192", "top_h_m": 22.501, "H_95_Mean": 22.5493, "DBH": 32.1242, "Carbon_kg": 209.78739, "area_m2": 21.5 }, "geometry": { "type": "Polygon", "coordinates": [ [ [ 117.315393434633592, 42.40709672509837 ], [ 117.315454196162662, 42.407096557917527 ], [ 117.315454173601537, 42.407092054972772 ], [ 117.315460249753997, 42.407092038252927 ], [ 117.315460136946385, 42.407069523529081 ], [ 117.315454060796114, 42.407069540248912 ], [ 117.315454038235046, 42.407065037304143 ], [ 117.315441885935357, 42.407065070742846 ], [ 117.315441863375142, 42.407060567798055 ], [ 117.315405406478575, 42.407060668106425 ], [ 117.315405429036176, 42.407065171051244 ], [ 117.315387200586528, 42.40706522120108 ], [ 117.315387223142821, 42.407069724145877 ], [ 117.315381146992479, 42.407069740861871 ], [ 117.315381169548331, 42.407074243806676 ], [ 117.3153872456991, 42.407074227090703 ], [ 117.315387290811714, 42.407083232980291 ], [ 117.315393366963349, 42.407083216263992 ], [ 117.315393434633592, 42.40709672509837 ] ] ] } },
{ "type": "Feature", "properties": { "crown_id": 9182, "tree_id": "9193", "top_h_m": 22.618, "H_95_Mean": 22.6017, "DBH": 28.7945, "Carbon_kg": 168.497674, "area_m2": 14.0 }, "geometry": { "type": "Polygon", "coordinates": [ [ [ 117.315466303344451, 42.407087518587986 ], [ 117.315478455648446, 42.407087485146683 ], [ 117.315478433085616, 42.407082982201914 ], [ 117.315496661540266, 42.407082932037561 ], [ 117.315496593847882, 42.407069423203282 ], [ 117.315508746148339, 42.407069389758782 ], [ 117.315508723583363, 42.40706488681402 ], [ 117.315502647433561, 42.40706490353643 ], [ 117.315502624869026, 42.407060400591668 ], [ 117.315496548719651, 42.407060417313758 ], [ 117.315496481027381, 42.407046908479437 ], [ 117.315478252583148, 42.407046958643733 ], [ 117.315478230020375, 42.407042455698956 ], [ 117.315472153872733, 42.407042472419732 ], [ 117.315472131310386, 42.407037969474942 ], [ 117.315459979015941, 42.407038002915549 ], [ 117.315460001577421, 42.407042505860353 ], [ 117.31544177313441, 42.407042556018858 ], [ 117.31544184081497, 42.407056064853265 ], [ 117.315447916963933, 42.407056048134073 ], [ 117.315447939524574, 42.407060551078864 ], [ 117.315454015673964, 42.407060534359346 ], [ 117.315453947990804, 42.407047025524982 ], [ 117.31547217643508, 42.407046975364537 ], [ 117.315472244122162, 42.407060484198894 ], [ 117.315460091823368, 42.407060517639515 ], [ 117.315460114384877, 42.407065020584298 ], [ 117.315466190534707, 42.407065003864147 ], [ 117.315466303344451, 42.407087518587986 ] ] ] } },
{ "type": "Feature", "properties": { "crown_id": 9217, "tree_id": "9229", "top_h_m": 23.51, "H_95_Mean": 23.2442, "DBH": 32.0877, "Carbon_kg": 213.098612, "area_m2": 20.25 }, "geometry": { "type": "Polygon", "coordinates": [ [ [ 117.315356819836992, 42.407065304777717 ], [ 117.315381124436612, 42.407065237917045 ], [ 117.31538110188076, 42.407060734972234 ], [ 117.315399330329129, 42.407060684823357 ], [ 117.315399307771983, 42.407056181878545 ], [ 117.315435764665978, 42.407056081572129 ], [ 117.315435696986754, 42.407042572737723 ], [ 117.315429620839055, 42.407042589456246 ], [ 117.315429598279763, 42.407038086511434 ], [ 117.315411369837975, 42.407038136665101 ], [ 117.315411324721993, 42.407029130775442 ], [ 117.315405248575587, 42.407029147492679 ], [ 117.315405226018058, 42.407024644547853 ], [ 117.315399149872064, 42.407024661264764 ], [ 117.315399127314961, 42.407020158319924 ], [ 117.31538697502387, 42.407020191752778 ], [ 117.315387020136356, 42.407029197642473 ], [ 117.315380943989936, 42.407029214358417 ], [ 117.31538096654576, 42.40703371730325 ], [ 117.315374890398914, 42.407033734018896 ], [ 117.315374912954283, 42.407038236963722 ], [ 117.315356684512381, 42.407038287108698 ], [ 117.315356707066456, 42.407042790053552 ], [ 117.315350630918715, 42.407042806767898 ], [ 117.315350698579721, 42.407056315602418 ], [ 117.315356774728755, 42.407056298888058 ], [ 117.315356819836992, 42.407065304777717 ] ] ] } },
{ "type": "Feature", "properties": { "crown_id": 9229, "tree_id": "9241", "top_h_m": 23.88, "H_95_Mean": 24.5088, "DBH": 32.0267, "Carbon_kg": 219.039787, "area_m2": 18.25 }, "geometry": { "type": "Polygon", "coordinates": [ [ [ 117.315265677587618, 42.407065555459319 ], [ 117.315277829887592, 42.407065522039289 ], [ 117.315277807339129, 42.407061019094435 ], [ 117.315296035787753, 42.407060968961986 ], [ 117.315296058337537, 42.40706547190684 ], [ 117.315332515237259, 42.40706537163323 ], [ 117.315332492684888, 42.40706086868839 ], [ 117.315338568834392, 42.407060851974997 ], [ 117.315338546281581, 42.407056349030164 ], [ 117.315344622430644, 42.407056332316451 ], [ 117.315344577324183, 42.407047326426763 ], [ 117.31533242502779, 42.407047359853856 ], [ 117.315332379923078, 42.407038353964147 ], [ 117.315326303775734, 42.407038370677206 ], [ 117.315326281223832, 42.407033867732338 ], [ 117.315295900489247, 42.407033951292796 ], [ 117.315295923039002, 42.407038454237657 ], [ 117.315271618449501, 42.407038521080231 ], [ 117.315271640997494, 42.407043024025114 ], [ 117.315259488701855, 42.407043057444469 ], [ 117.315259511248982, 42.407047560389358 ], [ 117.315265587397263, 42.407047543679838 ], [ 117.315265677587618, 42.407065555459319 ] ] ] } },
{ "type": "Feature", "properties": { "crown_id": 9250, "tree_id": "9262", "top_h_m": 22.848, "H_95_Mean": 23.0228, "DBH": 25.1464, "Carbon_kg": 129.645333, "area_m2": 8.0 }, "geometry": { "type": "Polygon", "coordinates": [ [ [ 117.315484306168017, 42.407042438977832 ], [ 117.315532915348953, 42.407042305197358 ], [ 117.315532847648882, 42.407028796363043 ], [ 117.31552677150259, 42.407028813086725 ], [ 117.315526726370109, 42.407019807197152 ], [ 117.315514574079259, 42.407019840643528 ], [ 117.315514596644633, 42.407024343588326 ], [ 117.315496368206965, 42.407024393755492 ], [ 117.315496390771045, 42.407028896700282 ], [ 117.315484238478376, 42.407028930143461 ], [ 117.31548426104159, 42.407033433088252 ], [ 117.315478184894815, 42.407033449809362 ], [ 117.315478207457588, 42.407037952754159 ], [ 117.315484283604803, 42.407037936033049 ], [ 117.315484306168017, 42.407042438977832 ] ] ] } },
{ "type": "Feature", "properties": { "crown_id": 9267, "tree_id": "9281", "top_h_m": 23.921, "H_95_Mean": 23.4977, "DBH": 30.3528, "Carbon_kg": 191.740236, "area_m2": 16.0 }, "geometry": { "type": "Polygon", "coordinates": [ [ [ 117.31533847862319, 42.407042840195629 ], [ 117.315344554770959, 42.407042823481923 ], [ 117.31534453221775, 42.407038320537069 ], [ 117.315350608365065, 42.40703830382305 ], [ 117.315350585811416, 42.407033800878189 ], [ 117.315368814252039, 42.407033750734193 ], [ 117.315368791697097, 42.407029247789339 ], [ 117.315374867843516, 42.407029231074041 ], [ 117.315374845288133, 42.407024728129208 ], [ 117.315380921434127, 42.407024711413577 ], [ 117.315380876322536, 42.407015705523868 ], [ 117.315386952467634, 42.407015688807931 ], [ 117.315386929911426, 42.40701118586307 ], [ 117.315368701477354, 42.407011236009929 ], [ 117.315368678922439, 42.407006733065074 ], [ 117.315356526633892, 42.407006766494689 ], [ 117.315356436417744, 42.406988754715172 ], [ 117.315344284132649, 42.406988788143494 ], [ 117.315344351792163, 42.407002296978135 ], [ 117.315338275648315, 42.407002313691812 ], [ 117.31533829820107, 42.407006816636695 ], [ 117.315332222056782, 42.407006833350067 ], [ 117.315332244609095, 42.40701133629495 ], [ 117.315320092319624, 42.407011369720706 ], [ 117.315320182525468, 42.407029381500209 ], [ 117.315332334818407, 42.407029348074431 ], [ 117.315332357370735, 42.407033851019293 ], [ 117.315338433517638, 42.407033834305913 ], [ 117.31533847862319, 42.407042840195629 ] ] ] } },
{ "type": "Feature", "properties": { "crown_id": 9282, "tree_id": "9298", "top_h_m": 25.113, "H_95_Mean": 24.7232, "DBH": 34.4158, "Carbon_kg": 254.528042, "area_m2": 23.75 }, "geometry": { "type": "Polygon", "coordinates": [ [ [ 117.315435674426993, 42.407038069792897 ], [ 117.315453902868697, 42.407038019635365 ], [ 117.315453880307686, 42.407033516690561 ], [ 117.31547210874804, 42.407033466530144 ], [ 117.315472086185693, 42.407028963585347 ], [ 117.315478162332042, 42.407028946864564 ], [ 117.315478117206524, 42.407019940974941 ], [ 117.315472041061057, 42.407019957695731 ], [ 117.315471883124928, 42.406988437081971 ], [ 117.315459730840061, 42.406988470522521 ], [ 117.315459708278624, 42.406983967577673 ], [ 117.315429327568523, 42.406984051173389 ], [ 117.315429485483321, 42.407015571787312 ], [ 117.315411257048055, 42.407015621940928 ], [ 117.315411211932116, 42.407006616051255 ], [ 117.315405135787913, 42.407006632768478 ], [ 117.315405158345413, 42.407011135713326 ], [ 117.315393006056084, 42.40701116914682 ], [ 117.31539302861276, 42.407015672091667 ], [ 117.315405180902957, 42.407015638658173 ], [ 117.3154052034605, 42.407020141603006 ], [ 117.315411279606025, 42.407020124885776 ], [ 117.315411302164023, 42.407024627830623 ], [ 117.315417378309988, 42.407024611113052 ], [ 117.315417423426808, 42.407033617002703 ], [ 117.315435651867276, 42.407033566848078 ], [ 117.315435674426993, 42.407038069792897 ] ] ] } },
{ "type": "Feature", "properties": { "crown_id": 9283, "tree_id": "9299", "top_h_m": 23.792, "H_95_Mean": 23.7543, "DBH": 28.1757, "Carbon_kg": 166.094142, "area_m2": 11.75 }, "geometry": { "type": "Polygon", "coordinates": [ [ [ 117.315484215915191, 42.407024427198657 ], [ 117.315490292061085, 42.407024410477234 ], [ 117.31549026949746, 42.40701990753243 ], [ 117.315508497933806, 42.407019857366244 ], [ 117.315508475368887, 42.407015354421446 ], [ 117.315520627658898, 42.407015320975709 ], [ 117.315520582527313, 42.407006315086115 ], [ 117.315514506383181, 42.407006331809143 ], [ 117.315514483817836, 42.407001828864331 ], [ 117.315508407674145, 42.407001845587033 ], [ 117.315508317414555, 42.406983833807764 ], [ 117.315496165130597, 42.406983867252166 ], [ 117.315496142566587, 42.40697936430734 ], [ 117.315483990283496, 42.406979397750462 ], [ 117.315484012846625, 42.406983900695295 ], [ 117.315477936704639, 42.406983917416376 ], [ 117.31547809464378, 42.407015438030136 ], [ 117.315484170788807, 42.407015421309048 ], [ 117.315484215915191, 42.407024427198657 ] ] ] } },
{ "type": "Feature", "properties": { "crown_id": 9302, "tree_id": "9318", "top_h_m": 22.815, "H_95_Mean": 23.1791, "DBH": 24.1463, "Carbon_kg": 119.942026, "area_m2": 6.75 }, "geometry": { "type": "Polygon", "coordinates": [ [ [ 117.315320069768191, 42.407006866775824 ], [ 117.315326145912465, 42.407006850063112 ], [ 117.315326123360606, 42.407002347118208 ], [ 117.315332199504454, 42.407002330405177 ], [ 117.315332176952168, 42.406997827460295 ], [ 117.315338253095589, 42.40699781074693 ], [ 117.315338185437398, 42.406984301912253 ], [ 117.315326033153156, 42.406984335338628 ], [ 117.315326010601325, 42.406979832393723 ], [ 117.315319934459637, 42.406979849106435 ], [ 117.315319911908205, 42.406975346161524 ], [ 117.315313835766943, 42.406975362873901 ], [ 117.315313880868914, 42.406984368763723 ], [ 117.315307804726771, 42.406984385475774 ], [ 117.315307827277309, 42.406988888420692 ], [ 117.315295674992143, 42.406988921843855 ], [ 117.315295720091555, 42.406997927733656 ], [ 117.31530787237844, 42.406997894310493 ], [ 117.315307894929006, 42.407002397255397 ], [ 117.31532004721673, 42.407002363830919 ], [ 117.315320069768191, 42.407006866775824 ] ] ] } },
{ "type": "Feature", "properties": { "crown_id": 9310, "tree_id": "9327", "top_h_m": 23.236, "H_95_Mean": 23.1076, "DBH": 27.8123, "Carbon_kg": 159.184692, "area_m2": 11.75 }, "geometry": { "type": "Polygon", "coordinates": [ [ [ 117.315374755066699, 42.407006716349777 ], [ 117.315399059643681, 42.407006649485382 ], [ 117.315399037086564, 42.407002146540528 ], [ 117.315411189374174, 42.407002113106387 ], [ 117.315411166816233, 42.40699761016154 ], [ 117.315423319102919, 42.406997576726134 ], [ 117.315423228867672, 42.40697956494671 ], [ 117.31541715272607, 42.406979581664565 ], [ 117.315417130167717, 42.406975078719704 ], [ 117.315398901744146, 42.406975128871316 ], [ 117.315398946858281, 42.406984134761068 ], [ 117.315374642289996, 42.406984201625406 ], [ 117.315374664845322, 42.406988704570296 ], [ 117.31536251256027, 42.406988738000535 ], [ 117.315362580223692, 42.407002246835162 ], [ 117.315374732511344, 42.407002213404901 ], [ 117.315374755066699, 42.407006716349777 ] ] ] } },
{ "type": "Feature", "properties": { "crown_id": 9346, "tree_id": "9363", "top_h_m": 23.854, "H_95_Mean": 23.5929, "DBH": 27.6123, "Carbon_kg": 158.82648, "area_m2": 11.0 }, "geometry": { "type": "Polygon", "coordinates": [ [ [ 117.315465784420653, 42.406983950857558 ], [ 117.315471860562639, 42.406983934137124 ], [ 117.315471838000363, 42.406979431192283 ], [ 117.315477914141937, 42.406979414471536 ], [ 117.315477756203094, 42.406947893857556 ], [ 117.31545952778751, 42.406947944018796 ], [ 117.315459595471651, 42.406961452853402 ], [ 117.315435290912248, 42.406961519730565 ], [ 117.315435313471909, 42.406966022675441 ], [ 117.31541708505101, 42.406966072829945 ], [ 117.315417107609363, 42.406970575774828 ], [ 117.315423183750084, 42.40697055905698 ], [ 117.315423206308893, 42.406975062001841 ], [ 117.31542928245004, 42.406975045283673 ], [ 117.315429305009289, 42.406979548228534 ], [ 117.315465761858803, 42.406979447912718 ], [ 117.315465784420653, 42.406983950857558 ] ] ] } },
{ "type": "Feature", "properties": { "crown_id": 9357, "tree_id": "9374", "top_h_m": 23.844, "H_95_Mean": 23.7188, "DBH": 31.8667, "Carbon_kg": 212.678229, "area_m2": 19.0 }, "geometry": { "type": "Polygon", "coordinates": [ [ [ 117.315344261579526, 42.40698428519859 ], [ 117.31536856614791, 42.406984218340689 ], [ 117.31536854359301, 42.406979715395792 ], [ 117.31539284815959, 42.406979648532761 ], [ 117.31539280304635, 42.406970642643003 ], [ 117.315411031468614, 42.40697059249235 ], [ 117.315411008910701, 42.406966089547467 ], [ 117.315398856630068, 42.406966122981558 ], [ 117.315398834073008, 42.406961620036661 ], [ 117.315392757933125, 42.406961636753216 ], [ 117.315392712819914, 42.406952630863437 ], [ 117.31537448440281, 42.406952681011155 ], [ 117.31537446184754, 42.406948178066244 ], [ 117.315356233431686, 42.406948228211043 ], [ 117.315356255985691, 42.406952731155968 ], [ 117.315325875290327, 42.406952814724228 ], [ 117.31532598804948, 42.406975329448827 ], [ 117.315332064190713, 42.406975312735803 ], [ 117.315332086743012, 42.406979815680707 ], [ 117.315344239026359, 42.4069797822537 ], [ 117.315344261579526, 42.40698428519859 ] ] ] } },
{ "type": "Feature", "properties": { "crown_id": 9358, "tree_id": "9375", "top_h_m": 23.845, "H_95_Mean": 23.97, "DBH": 32.0248, "Carbon_kg": 216.152924, "area_m2": 19.0 }, "geometry": { "type": "Polygon", "coordinates": [ [ [ 117.315502218708119, 42.406979347585306 ], [ 117.315520447132727, 42.406979297417251 ], [ 117.315520424566984, 42.406974794472426 ], [ 117.315538652990213, 42.406974744301479 ], [ 117.315538562722054, 42.406956732522183 ], [ 117.315544638861397, 42.406956715797897 ], [ 117.315544616293934, 42.406952212853071 ], [ 117.315538540155018, 42.40695222957735 ], [ 117.315538495020988, 42.406943223687669 ], [ 117.315526342744917, 42.406943257135254 ], [ 117.315526320178776, 42.406938754190399 ], [ 117.315514167903544, 42.406938787636697 ], [ 117.31551414533827, 42.406934284691815 ], [ 117.315501993063904, 42.406934318136827 ], [ 117.315502015628311, 42.406938821081688 ], [ 117.315483787215413, 42.40693887124678 ], [ 117.315483967720326, 42.406974894805622 ], [ 117.315502196143697, 42.406974844640473 ], [ 117.315502218708119, 42.406979347585306 ] ] ] } },
{ "type": "Feature", "properties": { "crown_id": 9395, "tree_id": "9412", "top_h_m": 21.802, "H_95_Mean": 22.6984, "DBH": 28.8525, "Carbon_kg": 169.610179, "area_m2": 14.0 }, "geometry": { "type": "Polygon", "coordinates": [ [ [ 117.315404910212891, 42.406961603319786 ], [ 117.315417062492656, 42.406961569885063 ], [ 117.315416972259328, 42.406943558105517 ], [ 117.315423048397463, 42.406943541387676 ], [ 117.315422935603735, 42.406921026663177 ], [ 117.315429011739681, 42.406921009945037 ], [ 117.315428989180518, 42.406916507000126 ], [ 117.315435065316038, 42.406916490281652 ], [ 117.315435042756448, 42.406911987336748 ], [ 117.315441118891513, 42.406911970617962 ], [ 117.315441096331483, 42.406907467673051 ], [ 117.315447172466122, 42.406907450953952 ], [ 117.315447149905694, 42.406902948009048 ], [ 117.315404616966163, 42.406903065035955 ], [ 117.315404639523564, 42.406907567980895 ], [ 117.315398563388896, 42.406907584697748 ], [ 117.31539881151599, 42.406957117091778 ], [ 117.315404887655433, 42.406957100374903 ], [ 117.315404910212891, 42.406961603319786 ] ] ] } },
{ "type": "Feature", "properties": { "crown_id": 9396, "tree_id": "9413", "top_h_m": 23.061, "H_95_Mean": 23.0634, "DBH": 30.0875, "Carbon_kg": 186.310299, "area_m2": 16.0 }, "geometry": { "type": "Polygon", "coordinates": [ [ [ 117.315423138632511, 42.406961553167221 ], [ 117.315429214772394, 42.406961536449067 ], [ 117.315429192213188, 42.406957033504185 ], [ 117.315453496770857, 42.406956966628307 ], [ 117.315453429088038, 42.40694345779368 ], [ 117.315477733640421, 42.406943390912694 ], [ 117.315477665952429, 42.406929882078067 ], [ 117.315471589815658, 42.406929898798801 ], [ 117.31547152212903, 42.406916389964124 ], [ 117.315465445993553, 42.406916406684523 ], [ 117.315465378308261, 42.406902897849818 ], [ 117.315453226039878, 42.406902931289636 ], [ 117.315453271161658, 42.406911937179437 ], [ 117.315447195026593, 42.406911953898856 ], [ 117.31544721758705, 42.406916456843767 ], [ 117.315441141451544, 42.406916473562873 ], [ 117.315441164011574, 42.406920976507784 ], [ 117.315435087875642, 42.406920993226571 ], [ 117.315435110435246, 42.406925496171482 ], [ 117.315429034298845, 42.406925512889941 ], [ 117.315429147094775, 42.406948027614419 ], [ 117.315423070956214, 42.406948044332573 ], [ 117.315423138632511, 42.406961553167221 ] ] ] } },
{ "type": "Feature", "properties": { "crown_id": 9404, "tree_id": "9421", "top_h_m": 23.33, "H_95_Mean": 23.2658, "DBH": 33.538, "Carbon_kg": 233.084684, "area_m2": 24.0 }, "geometry": { "type": "Polygon", "coordinates": [ [ [ 117.315325852738511, 42.406948311779303 ], [ 117.315350157293068, 42.406948244925346 ], [ 117.315350134739532, 42.406943741980427 ], [ 117.315380515430419, 42.406943658405758 ], [ 117.31538053798613, 42.406948161350655 ], [ 117.315392690263323, 42.406948127918533 ], [ 117.315392509810778, 42.406912104359193 ], [ 117.315386433675656, 42.406912121075393 ], [ 117.315386411119547, 42.406907618130454 ], [ 117.315380334984852, 42.406907634846341 ], [ 117.31538031242917, 42.406903131901409 ], [ 117.315374236294915, 42.406903148616962 ], [ 117.315374213739702, 42.406898645672008 ], [ 117.315368137605873, 42.406898662387242 ], [ 117.315368115051086, 42.406894159442288 ], [ 117.315362038917684, 42.406894176157195 ], [ 117.31536210658075, 42.406907684992049 ], [ 117.315343878176634, 42.406907735134858 ], [ 117.315343900729687, 42.406912238079812 ], [ 117.315337824594536, 42.40691225479344 ], [ 117.315337847147163, 42.406916757738387 ], [ 117.31532569487598, 42.40691679116469 ], [ 117.315325785083118, 42.406934802944491 ], [ 117.315319708945765, 42.406934819657167 ], [ 117.315319754048488, 42.406943825547053 ], [ 117.315325830186723, 42.40694380883437 ], [ 117.315325852738511, 42.406948311779303 ] ] ] } },
{ "type": "Feature", "properties": { "crown_id": 9464, "tree_id": "9481", "top_h_m": 23.504, "H_95_Mean": 23.894, "DBH": 37.0783, "Carbon_kg": 289.866379, "area_m2": 33.75 }, "geometry": { "type": "Polygon", "coordinates": [ [ [ 117.315483764652299, 42.406934368301904 ], [ 117.315495916926722, 42.406934334858846 ], [ 117.315495894362741, 42.40692983191397 ], [ 117.31552019890978, 42.406929765023989 ], [ 117.315520221475452, 42.40693426796885 ], [ 117.315526297612649, 42.406934251245545 ], [ 117.315526275046508, 42.406929748300691 ], [ 117.315532351183251, 42.406929731577065 ], [ 117.315532328616683, 42.406925228632211 ], [ 117.315538404752985, 42.406925211908273 ], [ 117.315538382185977, 42.406920708963419 ], [ 117.315544458321838, 42.406920692239154 ], [ 117.315544435754433, 42.406916189294279 ], [ 117.31555658802526, 42.406916155844797 ], [ 117.315556565456959, 42.406911652899936 ], [ 117.315562641591939, 42.406911636174712 ], [ 117.315562573885813, 42.406898127340135 ], [ 117.315556497752141, 42.406898144065352 ], [ 117.315556475183897, 42.406893641120476 ], [ 117.31555039905065, 42.406893657845366 ], [ 117.315550308779379, 42.406875646065828 ], [ 117.315538156516368, 42.40687567951462 ], [ 117.315538111382509, 42.406866673624826 ], [ 117.315507730729237, 42.40686675724114 ], [ 117.31550784355305, 42.406889271965674 ], [ 117.31548961515449, 42.406889322131633 ], [ 117.315489637717988, 42.406893825076544 ], [ 117.315477485451382, 42.40689385851892 ], [ 117.315477508013998, 42.40689836146381 ], [ 117.315471431880255, 42.406898378184522 ], [ 117.31547149956684, 42.406911887019234 ], [ 117.315477575701848, 42.406911870298515 ], [ 117.315477643389784, 42.406925379133192 ], [ 117.315483719526128, 42.406925362412153 ], [ 117.315483764652299, 42.406934368301904 ] ], [ [ 117.31548977309896, 42.406920842745905 ], [ 117.315489705408439, 42.406907333911228 ], [ 117.315507933812199, 42.406907283745248 ], [ 117.315508001506615, 42.406920792579889 ], [ 117.31548977309896, 42.406920842745905 ] ] ] } },
{ "type": "Feature", "properties": { "crown_id": 9491, "tree_id": "9508", "top_h_m": 21.567, "H_95_Mean": 21.7398, "DBH": 29.9439, "Carbon_kg": 178.183601, "area_m2": 17.5 }, "geometry": { "type": "Polygon", "coordinates": [ [ [ 117.315331725907171, 42.406907768561794 ], [ 117.31533780204191, 42.406907751848486 ], [ 117.315337779489255, 42.406903248903532 ], [ 117.31535600789212, 42.40690319876169 ], [ 117.315355895122551, 42.406880684036885 ], [ 117.315343742858332, 42.406880717465064 ], [ 117.315343720305293, 42.406876214520089 ], [ 117.31533764417361, 42.406876231233696 ], [ 117.315337599068428, 42.406867225343717 ], [ 117.315288990021742, 42.406867359040952 ], [ 117.315289080218221, 42.406885370820959 ], [ 117.315301232483378, 42.40688533739857 ], [ 117.315301277583387, 42.406894343288535 ], [ 117.315307353716861, 42.406894326576861 ], [ 117.315307376267299, 42.406898829521836 ], [ 117.315313452401185, 42.406898812809828 ], [ 117.315313474952077, 42.406903315754796 ], [ 117.315331703354971, 42.40690326561684 ], [ 117.315331725907171, 42.406907768561794 ] ] ] } },
{ "type": "Feature", "properties": { "crown_id": 9492, "tree_id": "9509", "top_h_m": 23.57, "H_95_Mean": 23.6138, "DBH": 31.9076, "Carbon_kg": 212.669942, "area_m2": 19.25 }, "geometry": { "type": "Polygon", "coordinates": [ [ [ 117.315386388563439, 42.406903115185536 ], [ 117.315398540831922, 42.406903081752823 ], [ 117.315398518274947, 42.406898578807862 ], [ 117.315453203479009, 42.406898428344711 ], [ 117.315453135796389, 42.406884919509942 ], [ 117.315447059663938, 42.406884936229361 ], [ 117.315446969422268, 42.406866924449616 ], [ 117.315398360376307, 42.406867058193221 ], [ 117.315398405490185, 42.406876064083136 ], [ 117.315386253226919, 42.406876097515813 ], [ 117.31538627578297, 42.406880600460781 ], [ 117.315380199650903, 42.40688061717664 ], [ 117.315380222206556, 42.406885120121615 ], [ 117.315374146074035, 42.406885136837154 ], [ 117.315374191184475, 42.406894142727054 ], [ 117.315380267317863, 42.406894126011522 ], [ 117.315380289873517, 42.406898628956455 ], [ 117.315386366007345, 42.406898612240582 ], [ 117.315386388563439, 42.406903115185536 ] ] ] } },
{ "type": "Feature", "properties": { "crown_id": 9493, "tree_id": "9510", "top_h_m": 23.585, "H_95_Mean": 23.691, "DBH": 26.6408, "Carbon_kg": 148.128003, "area_m2": 9.5 }, "geometry": { "type": "Polygon", "coordinates": [ [ [ 117.315459279612753, 42.406898411624972 ], [ 117.315465355746497, 42.4068983949049 ], [ 117.315465333184761, 42.406893891959989 ], [ 117.315471409318064, 42.406893875239618 ], [ 117.315471386755888, 42.406889372294707 ], [ 117.315483539021642, 42.406889338852984 ], [ 117.315483516458599, 42.406884835908073 ], [ 117.315501744855865, 42.406884785743088 ], [ 117.315501654598535, 42.406866773963436 ], [ 117.315453045552985, 42.406866907730219 ], [ 117.31545311323552, 42.406880416565023 ], [ 117.315459189367544, 42.406880399845292 ], [ 117.315459279612753, 42.406898411624972 ] ] ] } },
{ "type": "Feature", "properties": { "crown_id": 9552, "tree_id": "9569", "top_h_m": 20.83, "H_95_Mean": 20.9417, "DBH": 20.4305, "Carbon_kg": 80.654714, "area_m2": 4.25 }, "geometry": { "type": "Polygon", "coordinates": [ [ [ 117.315362016363324, 42.406889673212234 ], [ 117.315368092496286, 42.406889656497327 ], [ 117.315368047386741, 42.406880650607405 ], [ 117.315374123518808, 42.406880633892186 ], [ 117.315374100963609, 42.406876130947232 ], [ 117.315380177095278, 42.406876114231686 ], [ 117.315380154539625, 42.406871611286718 ], [ 117.315392306802053, 42.406871577854687 ], [ 117.315392284245533, 42.406867074909705 ], [ 117.31534367519923, 42.406867208630132 ], [ 117.315343697752269, 42.406871711575107 ], [ 117.315349773883497, 42.406871694861181 ], [ 117.315349796436962, 42.406876197806156 ], [ 117.315361948700286, 42.406876164377337 ], [ 117.315362016363324, 42.406889673212234 ] ] ] } }
]
}
