{
"type": "FeatureCollection",
"name": "tile_1_4",
"crs": { "type": "name", "properties": { "name": "urn:ogc:def:crs:OGC:1.3:CRS84" } },
"features": [
{ "type": "Feature", "properties": { "crown_id": 4, "tree_id": "5", "top_h_m": 15.15, "H_95_Mean": 15.1267, "DBH": 22.716, "Carbon_kg": 82.393817, "area_m2": 11.75 }, "geometry": { "type": "Polygon", "coordinates": [ [ [ 117.310717879024367, 42.411427875058102 ], [ 117.310778644760831, 42.411427710341869 ], [ 117.310778622530734, 42.411423207398521 ], [ 117.310772545957562, 42.41142322387158 ], [ 117.310772523727906, 42.411418720928218 ], [ 117.31076644715516, 42.411418737400957 ], [ 117.310766424925959, 42.411414234457595 ], [ 117.310772501498263, 42.411414217984841 ], [ 117.310772479268635, 42.411409715041486 ], [ 117.31076032612485, 42.411409747986646 ], [ 117.310760303896103, 42.411405245043255 ], [ 117.31074815075317, 42.411405277987114 ], [ 117.31074812852529, 42.411400775043731 ], [ 117.310723822241087, 42.411400840927577 ], [ 117.310723844467233, 42.411405343870982 ], [ 117.310717767895738, 42.411405360341142 ], [ 117.310717879024367, 42.411427875058102 ] ] ] } },
{ "type": "Feature", "properties": { "crown_id": 5, "tree_id": "6", "top_h_m": 16.677, "H_95_Mean": 16.6635, "DBH": 21.2048, "Carbon_kg": 75.943481, "area_m2": 7.5 }, "geometry": { "type": "Polygon", "coordinates": [ [ [ 117.310845487070338, 42.411427529116821 ], [ 117.310906252805722, 42.411427364332951 ], [ 117.310906208327296, 42.411418358446348 ], [ 117.310900131754664, 42.411418374926178 ], [ 117.310900087277147, 42.411409369039546 ], [ 117.31087578098996, 42.41140943495563 ], [ 117.310875803227006, 42.411413937898949 ], [ 117.310857573510276, 42.411413987332637 ], [ 117.310857595745986, 42.41141849027597 ], [ 117.310851519173298, 42.411418506753229 ], [ 117.310851541408582, 42.411423009696556 ], [ 117.310845464835452, 42.411423026173487 ], [ 117.310845487070338, 42.411427529116821 ] ] ] } },
{ "type": "Feature", "properties": { "crown_id": 6, "tree_id": "7", "top_h_m": 16.21, "H_95_Mean": 17.4909, "DBH": 21.3223, "Carbon_kg": 79.026953, "area_m2": 7.0 }, "geometry": { "type": "Polygon", "coordinates": [ [ [ 117.310912329379235, 42.411427347852801 ], [ 117.310960941967124, 42.411427215999929 ], [ 117.31096091972401, 42.411422713056659 ], [ 117.310954843150967, 42.411422729539389 ], [ 117.310954754180287, 42.411404717766217 ], [ 117.310942601037681, 42.411404750730703 ], [ 117.310942623279473, 42.411409253674002 ], [ 117.310924393564193, 42.411409303118305 ], [ 117.310924415804692, 42.411413806061617 ], [ 117.310918339232515, 42.411413822542414 ], [ 117.310918361472588, 42.411418325485712 ], [ 117.310912284899942, 42.41141834196619 ], [ 117.310912329379235, 42.411427347852801 ] ] ] } },
{ "type": "Feature", "properties": { "crown_id": 84, "tree_id": "85", "top_h_m": 18.425, "H_95_Mean": 18.6641, "DBH": 20.9085, "Carbon_kg": 78.940016, "area_m2": 5.75 }, "geometry": { "type": "Polygon", "coordinates": [ [ [ 117.310875758752957, 42.411404932012296 ], [ 117.310906141609721, 42.41140484961641 ], [ 117.310906074892188, 42.411391340786437 ], [ 117.310899998322142, 42.41139135726624 ], [ 117.310899976083405, 42.411386854322913 ], [ 117.310893899513786, 42.411386870802396 ], [ 117.310893877275504, 42.411382367859048 ], [ 117.310881724137147, 42.411382400817068 ], [ 117.310881746374562, 42.411386903760416 ], [ 117.310875669804943, 42.41138692023894 ], [ 117.310875692041932, 42.411391423182287 ], [ 117.310869615471859, 42.411391439660491 ], [ 117.310869659944998, 42.411400445547166 ], [ 117.310875736515939, 42.411400429068962 ], [ 117.310875758752957, 42.411404932012296 ] ] ] } },
{ "type": "Feature", "properties": { "crown_id": 116, "tree_id": "117", "top_h_m": 17.885, "H_95_Mean": 18.2032, "DBH": 28.932, "Carbon_kg": 149.682308, "area_m2": 21.25 }, "geometry": { "type": "MultiPolygon", "coordinates": [ [ [ [ 117.310906186088104, 42.411413855503035 ], [ 117.31091226266031, 42.411413839022885 ], [ 117.310912240420677, 42.411409336079579 ], [ 117.310906163848927, 42.411409352559716 ], [ 117.310906186088104, 42.411413855503035 ] ] ], [ [ [ 117.310912240420677, 42.411409336079579 ], [ 117.310918316992442, 42.411409319599116 ], [ 117.310918294752383, 42.411404816655796 ], [ 117.310936524466356, 42.411404767212453 ], [ 117.31093650222499, 42.411400264269133 ], [ 117.310960808508483, 42.411400198340203 ], [ 117.310960719536126, 42.411382186566968 ], [ 117.310966796105262, 42.41138217008394 ], [ 117.310966773861765, 42.411377667140634 ], [ 117.310960697293069, 42.411377683623662 ], [ 117.310960675049998, 42.411373180680343 ], [ 117.310954598481757, 42.411373197163037 ], [ 117.310954576239112, 42.411368694219718 ], [ 117.310960652806955, 42.411368677737023 ], [ 117.31096060832084, 42.411359671850356 ], [ 117.310948455186931, 42.411359704815425 ], [ 117.310948477429108, 42.411364207758758 ], [ 117.310930247726915, 42.411364257203957 ], [ 117.310930269967784, 42.411368760147305 ], [ 117.310924193399956, 42.411368776628393 ], [ 117.310924171159513, 42.411364273685045 ], [ 117.310918094592083, 42.411364290165807 ], [ 117.310918050112079, 42.411355284279111 ], [ 117.310911973545515, 42.411355300759553 ], [ 117.310911995785105, 42.411359803702908 ], [ 117.310905919218115, 42.411359820183023 ], [ 117.310905941457236, 42.411364323126378 ], [ 117.310899864889805, 42.411364339606173 ], [ 117.310899909367251, 42.411373345492876 ], [ 117.310893832798925, 42.411373361972373 ], [ 117.310893855037222, 42.411377864915707 ], [ 117.31089993160596, 42.411377848436231 ], [ 117.310899953844682, 42.411382351379565 ], [ 117.310906030413832, 42.411382334899756 ], [ 117.31090605265301, 42.411386837843096 ], [ 117.310912129222601, 42.411386821362967 ], [ 117.310912240420677, 42.411409336079579 ] ] ], [ [ [ 117.310966773861765, 42.411377667140634 ], [ 117.310972850430431, 42.411377650657279 ], [ 117.310972828186493, 42.411373147713967 ], [ 117.310966751618253, 42.411373164197308 ], [ 117.310966773861765, 42.411377667140634 ] ] ] ] } },
{ "type": "Feature", "properties": { "crown_id": 125, "tree_id": "126", "top_h_m": 17.527, "H_95_Mean": 18.5204, "DBH": 20.5942, "Carbon_kg": 76.217389, "area_m2": 5.5 }, "geometry": { "type": "Polygon", "coordinates": [ [ [ 117.310784610181912, 42.411405179151664 ], [ 117.310796763324774, 42.411405146203933 ], [ 117.310796741093412, 42.411400643260563 ], [ 117.310802817664396, 42.411400626786218 ], [ 117.310802795432622, 42.411396123842856 ], [ 117.310808872003179, 42.411396107368191 ], [ 117.310808805306522, 42.411382598538076 ], [ 117.310802728737286, 42.411382615012727 ], [ 117.310802684273739, 42.411373609125967 ], [ 117.310790531136959, 42.411373642074295 ], [ 117.310790553367866, 42.411378145017686 ], [ 117.310784476799043, 42.411378161491378 ], [ 117.310784610181912, 42.411405179151664 ] ] ] } },
{ "type": "Feature", "properties": { "crown_id": 138, "tree_id": "139", "top_h_m": 18.574, "H_95_Mean": 18.3106, "DBH": 32.9327, "Carbon_kg": 195.007184, "area_m2": 34.75 }, "geometry": { "type": "MultiPolygon", "coordinates": [ [ [ [ 117.310814970806376, 42.411400593836561 ], [ 117.31082104737736, 42.411400577361256 ], [ 117.310821114076674, 42.411414086191321 ], [ 117.310833267221241, 42.411414053239717 ], [ 117.310833311689208, 42.411423059126399 ], [ 117.310839388262337, 42.411423042650107 ], [ 117.310839366027921, 42.411418539706773 ], [ 117.310845442600609, 42.411418523230161 ], [ 117.310845420365752, 42.41141402028682 ], [ 117.310851496938014, 42.411414003809895 ], [ 117.31085147470273, 42.411409500866554 ], [ 117.310869704418167, 42.411409451433848 ], [ 117.31086968218159, 42.411404948490507 ], [ 117.310863605610209, 42.411404964968405 ], [ 117.310863516665677, 42.411386953195027 ], [ 117.31086959323531, 42.411386936717143 ], [ 117.310869570998761, 42.411382433773788 ], [ 117.310875647567954, 42.411382417295584 ], [ 117.310875625330979, 42.411377914352229 ], [ 117.310881701899717, 42.411377897873713 ], [ 117.310881679662302, 42.411373394930372 ], [ 117.310869526525664, 42.411373427887078 ], [ 117.310869482052581, 42.411364422000354 ], [ 117.310857328917663, 42.411364454955766 ], [ 117.31085723997505, 42.411346443182239 ], [ 117.310863316540775, 42.411346426704704 ], [ 117.310863294304696, 42.41134192376132 ], [ 117.310845064608785, 42.411341973192947 ], [ 117.310845020139254, 42.411332967306151 ], [ 117.31083286701039, 42.411333000258949 ], [ 117.310832844776513, 42.411328497315552 ], [ 117.310826768212493, 42.41132851379146 ], [ 117.310826790445944, 42.411333016734872 ], [ 117.310820713881469, 42.411333033210468 ], [ 117.310820825046633, 42.411355547927485 ], [ 117.310814748479999, 42.411355564402768 ], [ 117.310814837410504, 42.411373576176338 ], [ 117.310808760842136, 42.411373592651309 ], [ 117.310808783074307, 42.411378095594678 ], [ 117.310814859643131, 42.411378079119707 ], [ 117.310814970806376, 42.411400593836561 ] ] ], [ [ [ 117.310814970806376, 42.411400593836561 ], [ 117.310808894235407, 42.41140061031156 ], [ 117.310808916467636, 42.411405113254922 ], [ 117.31081499303906, 42.411405096779923 ], [ 117.310814970806376, 42.411400593836561 ] ] ] ] } },
{ "type": "Feature", "properties": { "crown_id": 145, "tree_id": "146", "top_h_m": 19.09, "H_95_Mean": 19.1504, "DBH": 26.1167, "Carbon_kg": 125.48488, "area_m2": 13.0 }, "geometry": { "type": "MultiPolygon", "coordinates": [ [ [ [ 117.310723733336559, 42.411382829153958 ], [ 117.310723711110441, 42.411378326210539 ], [ 117.310729787679321, 42.411378309740066 ], [ 117.310729809905865, 42.411382812683485 ], [ 117.310735886475186, 42.411382796212692 ], [ 117.310735864248187, 42.411378293269273 ], [ 117.310741940817067, 42.411378276798168 ], [ 117.310741785225247, 42.411346756194206 ], [ 117.31072355552773, 42.411346805606527 ], [ 117.310723533301655, 42.411342302663073 ], [ 117.310717456736242, 42.411342319133205 ], [ 117.310717478961877, 42.411346822076652 ], [ 117.310705325830185, 42.411346855015935 ], [ 117.310705414729341, 42.411364866789711 ], [ 117.31069933816174, 42.411364883258877 ], [ 117.310699427059234, 42.411382895032609 ], [ 117.310723733336559, 42.411382829153958 ] ] ], [ [ [ 117.310693306041998, 42.41137390561461 ], [ 117.310693283818068, 42.411369402671177 ], [ 117.310687207250027, 42.411369419139703 ], [ 117.31068722947353, 42.411373922083143 ], [ 117.310693306041998, 42.41137390561461 ] ] ] ] } },
{ "type": "Feature", "properties": { "crown_id": 162, "tree_id": "163", "top_h_m": 18.62, "H_95_Mean": 18.5472, "DBH": 32.3736, "Carbon_kg": 189.828139, "area_m2": 31.75 }, "geometry": { "type": "Polygon", "coordinates": [ [ [ 117.31077243480938, 42.411400709154726 ], [ 117.310778511380406, 42.411400692681674 ], [ 117.31077837800018, 42.411373675021345 ], [ 117.310784454568562, 42.41137365854798 ], [ 117.31078443233811, 42.411369155604589 ], [ 117.310808738609936, 42.411369089707925 ], [ 117.310808649681206, 42.411351077934327 ], [ 117.310814726247415, 42.411351061459371 ], [ 117.31081468178219, 42.411342055572554 ], [ 117.310808605216877, 42.41134207204751 ], [ 117.310808582984706, 42.411337569104099 ], [ 117.310814659549607, 42.411337552629156 ], [ 117.310814637317023, 42.411333049685737 ], [ 117.310802484188073, 42.411333082635309 ], [ 117.31080250641979, 42.411337585578735 ], [ 117.310796429854889, 42.411337602053045 ], [ 117.310796407623599, 42.411333099109619 ], [ 117.31077817793016, 42.411333148530602 ], [ 117.310778133470194, 42.411324142643743 ], [ 117.310765980342964, 42.411324175589449 ], [ 117.310766002572052, 42.41132867853289 ], [ 117.310747772879836, 42.411328727949034 ], [ 117.310747795107631, 42.411333230892481 ], [ 117.310729565414064, 42.411333280305726 ], [ 117.310729609867067, 42.411342286192628 ], [ 117.310747839563234, 42.411342236779362 ], [ 117.31074797293023, 42.411369254439926 ], [ 117.310754049498215, 42.411369237968174 ], [ 117.310754071726507, 42.411373740911579 ], [ 117.310747995158081, 42.41137375738333 ], [ 117.310748039613799, 42.411382763270147 ], [ 117.310741963044492, 42.411382779741572 ], [ 117.310741985271903, 42.411387282684984 ], [ 117.310723755562691, 42.41138733209737 ], [ 117.310723777788809, 42.411391835040774 ], [ 117.310729854358982, 42.411391818570308 ], [ 117.310729876585569, 42.411396321513699 ], [ 117.310742029726796, 42.411396288571787 ], [ 117.310742007499357, 42.411391785628382 ], [ 117.310754160639704, 42.411391752685184 ], [ 117.310754138411383, 42.411387249741786 ], [ 117.310766291550848, 42.411387216797294 ], [ 117.310766336009166, 42.411396222684075 ], [ 117.31077241257978, 42.411396206211357 ], [ 117.31077243480938, 42.411400709154726 ] ], [ [ 117.310796563242718, 42.411364619713495 ], [ 117.310796541011413, 42.411360116770091 ], [ 117.310802617578474, 42.411360100295774 ], [ 117.31080263981022, 42.411364603239164 ], [ 117.310796563242718, 42.411364619713495 ] ] ] } },
{ "type": "Feature", "properties": { "crown_id": 238, "tree_id": "239", "top_h_m": 16.41, "H_95_Mean": 16.7764, "DBH": 28.3138, "Carbon_kg": 136.551958, "area_m2": 22.75 }, "geometry": { "type": "Polygon", "coordinates": [ [ [ 117.310875580857001, 42.411368908465526 ], [ 117.310893810560643, 42.411368859029011 ], [ 117.310893766084106, 42.411359853142294 ], [ 117.310899842651111, 42.411359836662825 ], [ 117.310899820412402, 42.41135533371947 ], [ 117.310905896978966, 42.411355317239675 ], [ 117.310905874739831, 42.411350814296313 ], [ 117.310924104438186, 42.411350764854994 ], [ 117.310924148919057, 42.411359770741704 ], [ 117.310942378619956, 42.411359721297472 ], [ 117.310942356378234, 42.411355218354132 ], [ 117.310930203245178, 42.411355251317268 ], [ 117.310930158763441, 42.411346245430565 ], [ 117.310936235329109, 42.411346228949164 ], [ 117.31093625757039, 42.411350731892512 ], [ 117.310942334136499, 42.411350715410791 ], [ 117.310942267411306, 42.411337206580747 ], [ 117.310917961152114, 42.411337272505669 ], [ 117.310917894432194, 42.411323763675554 ], [ 117.310911817868686, 42.411323780155968 ], [ 117.310911795629153, 42.411319277212591 ], [ 117.310899642503003, 42.411319310172459 ], [ 117.310899664741655, 42.41132381311585 ], [ 117.310893588178146, 42.411323829595304 ], [ 117.310893565939907, 42.411319326651913 ], [ 117.31088748937681, 42.411319343131048 ], [ 117.31088746713904, 42.411314840187643 ], [ 117.3108753140137, 42.411314873144924 ], [ 117.310875291776796, 42.411310370201527 ], [ 117.310863138652294, 42.411310403157522 ], [ 117.310863183124383, 42.411319409044339 ], [ 117.310851029998133, 42.411319441999055 ], [ 117.310851052233318, 42.41132394494246 ], [ 117.310857128796883, 42.411323928465272 ], [ 117.310857151032522, 42.411328431408663 ], [ 117.310869304160477, 42.411328398453293 ], [ 117.310869326396983, 42.41133290139669 ], [ 117.310863249832551, 42.411332917874532 ], [ 117.31086327206863, 42.411337420817929 ], [ 117.310869348633474, 42.411337404340081 ], [ 117.310869415342992, 42.411350913170224 ], [ 117.310863338776841, 42.411350929648087 ], [ 117.310863383249043, 42.41135993553484 ], [ 117.310875536383065, 42.411359902578802 ], [ 117.310875580857001, 42.411368908465526 ] ], [ [ 117.310881546237923, 42.411346377270178 ], [ 117.31088147952579, 42.411332868440027 ], [ 117.310899709218987, 42.41133281900261 ], [ 117.310899775935013, 42.411346327832732 ], [ 117.310881546237923, 42.411346377270178 ] ] ] } },
{ "type": "Feature", "properties": { "crown_id": 248, "tree_id": "249", "top_h_m": 16.855, "H_95_Mean": 18.27, "DBH": 19.9644, "Carbon_kg": 71.018452, "area_m2": 5.0 }, "geometry": { "type": "Polygon", "coordinates": [ [ [ 117.31092401547653, 42.411332753081545 ], [ 117.310942245169613, 42.41133270363737 ], [ 117.310942222927892, 42.411328200694008 ], [ 117.310936146363971, 42.411328217175729 ], [ 117.310936124122691, 42.41132371423236 ], [ 117.310942200686199, 42.411323697750653 ], [ 117.310942178444478, 42.411319194807277 ], [ 117.310948255007531, 42.41131917832525 ], [ 117.310948232765398, 42.411314675381881 ], [ 117.310942156202785, 42.4113146918639 ], [ 117.310942133961092, 42.411310188920531 ], [ 117.310936057398905, 42.411310205402224 ], [ 117.310936035157667, 42.41130570245884 ], [ 117.310917805472386, 42.411305751902006 ], [ 117.310917872192235, 42.411319260732164 ], [ 117.310923948755303, 42.411319244251438 ], [ 117.31092401547653, 42.411332753081545 ] ] ] } },
{ "type": "Feature", "properties": { "crown_id": 262, "tree_id": "263", "top_h_m": 16.71, "H_95_Mean": 17.2606, "DBH": 24.4727, "Carbon_kg": 103.512633, "area_m2": 12.25 }, "geometry": { "type": "Polygon", "coordinates": [ [ [ 117.310717434510607, 42.41133781618975 ], [ 117.310723511075579, 42.411337799719632 ], [ 117.310723466623443, 42.411328793832716 ], [ 117.310717390059352, 42.411328810302834 ], [ 117.310717367833703, 42.411324307359365 ], [ 117.310723444397397, 42.411324290889262 ], [ 117.31072342217135, 42.411319787945793 ], [ 117.310729498734574, 42.411319771475362 ], [ 117.310729454281613, 42.411310765588432 ], [ 117.310717301156899, 42.411310798528959 ], [ 117.310717256705686, 42.411301792642007 ], [ 117.310711180144168, 42.411301809111798 ], [ 117.310711091243562, 42.41128379733783 ], [ 117.310698938124034, 42.411283830276396 ], [ 117.310698960348304, 42.411288333219893 ], [ 117.310692883788079, 42.411288349688704 ], [ 117.310692972683484, 42.411306361462678 ], [ 117.310686896121538, 42.411306377931176 ], [ 117.31068698501528, 42.411324389705115 ], [ 117.310693061579002, 42.41132437323661 ], [ 117.310693083802875, 42.411328876180072 ], [ 117.310699160366994, 42.411328859711247 ], [ 117.310699182591321, 42.411333362654716 ], [ 117.310717412284959, 42.411333313246296 ], [ 117.310717434510607, 42.41133781618975 ] ] ] } },
{ "type": "Feature", "properties": { "crown_id": 263, "tree_id": "264", "top_h_m": 16.787, "H_95_Mean": 16.8396, "DBH": 17.5131, "Carbon_kg": 51.971082, "area_m2": 3.5 }, "geometry": { "type": "Polygon", "coordinates": [ [ [ 117.310729543187563, 42.411328777362279 ], [ 117.310741696315745, 42.41132874442043 ], [ 117.310741674088376, 42.411324241476997 ], [ 117.310759903779328, 42.411324192061805 ], [ 117.31075985932199, 42.411315186174917 ], [ 117.310753782759221, 42.411315202646946 ], [ 117.310753738302807, 42.411306196760044 ], [ 117.310747661740891, 42.411306213231754 ], [ 117.310747683968671, 42.411310716175223 ], [ 117.310735530843971, 42.411310749117675 ], [ 117.310735597524712, 42.411324257948067 ], [ 117.310729520961047, 42.411324274418817 ], [ 117.310729543187563, 42.411328777362279 ] ] ] } },
{ "type": "Feature", "properties": { "crown_id": 272, "tree_id": "273", "top_h_m": 16.842, "H_95_Mean": 17.924, "DBH": 22.5066, "Carbon_kg": 89.40741, "area_m2": 8.25 }, "geometry": { "type": "Polygon", "coordinates": [ [ [ 117.310838921340491, 42.411328480839309 ], [ 117.31084499790451, 42.411328464362754 ], [ 117.310844931200265, 42.411314955532518 ], [ 117.310857084325647, 42.411314922578455 ], [ 117.31085703985444, 42.411305916691617 ], [ 117.310850963292623, 42.411305933168812 ], [ 117.310850896587155, 42.411292424338527 ], [ 117.310838743466121, 42.411292457291921 ], [ 117.310838765700382, 42.411296960235362 ], [ 117.310832689139417, 42.411296976711576 ], [ 117.310832666905583, 42.411292473768135 ], [ 117.310814437223954, 42.411292523194845 ], [ 117.31081448168905, 42.41130152908174 ], [ 117.31082055825047, 42.411301512606492 ], [ 117.310820580483465, 42.411306015549918 ], [ 117.310826657045283, 42.411305999074344 ], [ 117.310826745979043, 42.411324010848041 ], [ 117.310838899106173, 42.41132397789589 ], [ 117.310838921340491, 42.411328480839309 ] ] ] } },
{ "type": "Feature", "properties": { "crown_id": 273, "tree_id": "274", "top_h_m": 16.773, "H_95_Mean": 17.2202, "DBH": 18.3219, "Carbon_kg": 57.679489, "area_m2": 4.0 }, "geometry": { "type": "Polygon", "coordinates": [ [ [ 117.310893543701695, 42.411314823708516 ], [ 117.310911773389648, 42.411314774269201 ], [ 117.310911706671106, 42.411301265439029 ], [ 117.310905630109758, 42.411301281919116 ], [ 117.31090560787068, 42.411296778975711 ], [ 117.310887378187957, 42.411296828414024 ], [ 117.310887400425699, 42.411301331357436 ], [ 117.310881323864365, 42.411301347836229 ], [ 117.310881368339025, 42.411310353723053 ], [ 117.310893521463498, 42.411310320765118 ], [ 117.310893543701695, 42.411314823708516 ] ] ] } },
{ "type": "Feature", "properties": { "crown_id": 279, "tree_id": "280", "top_h_m": 16.25, "H_95_Mean": 16.86, "DBH": 18.9576, "Carbon_kg": 61.016399, "area_m2": 4.75 }, "geometry": { "type": "MultiPolygon", "coordinates": [ [ [ [ 117.310759703721544, 42.411283665570657 ], [ 117.310759659264306, 42.411274659683684 ], [ 117.310753582705459, 42.41127467615572 ], [ 117.31075362716183, 42.411283682042679 ], [ 117.310759703721544, 42.411283665570657 ] ] ], [ [ [ 117.310784187803435, 42.411319623226973 ], [ 117.310784143342644, 42.411310617340085 ], [ 117.31077806678033, 42.411310633813407 ], [ 117.31077802232042, 42.411301627926505 ], [ 117.310771945758972, 42.411301644399508 ], [ 117.310771901299958, 42.411292638512585 ], [ 117.310765824739377, 42.41129265498526 ], [ 117.310765802510332, 42.411288152041784 ], [ 117.310759725950163, 42.411288168514133 ], [ 117.310759837093343, 42.411310683231463 ], [ 117.310765913655686, 42.411310666759093 ], [ 117.310765958113862, 42.411319672645995 ], [ 117.310784187803435, 42.411319623226973 ] ] ] ] } },
{ "type": "Feature", "properties": { "crown_id": 292, "tree_id": "293", "top_h_m": 16.484, "H_95_Mean": 16.6273, "DBH": 20.2107, "Carbon_kg": 68.849884, "area_m2": 6.25 }, "geometry": { "type": "Polygon", "coordinates": [ [ [ 117.310723355493209, 42.411306279115387 ], [ 117.310741585178974, 42.411306229703136 ], [ 117.310741562951648, 42.411301726759675 ], [ 117.310753716074586, 42.411301693816576 ], [ 117.310753649390008, 42.411288184986155 ], [ 117.31074757282984, 42.411288201457864 ], [ 117.310747506146583, 42.411274692627401 ], [ 117.310741429587736, 42.411274709098784 ], [ 117.310741451815034, 42.411279212042267 ], [ 117.310735375255717, 42.411279228513322 ], [ 117.310735419709488, 42.41128823440031 ], [ 117.310717190028925, 42.411288283811551 ], [ 117.31071723448008, 42.411297289698517 ], [ 117.310723311041144, 42.411297273228421 ], [ 117.310723355493209, 42.411306279115387 ] ] ] } },
{ "type": "Feature", "properties": { "crown_id": 293, "tree_id": "294", "top_h_m": 17.667, "H_95_Mean": 17.83, "DBH": 19.2044, "Carbon_kg": 64.734703, "area_m2": 4.5 }, "geometry": { "type": "Polygon", "coordinates": [ [ [ 117.310863116416272, 42.411305900214103 ], [ 117.310875269539878, 42.411305867258122 ], [ 117.310875225066084, 42.411296861371291 ], [ 117.31088130162702, 42.41129684489281 ], [ 117.310881257152374, 42.411287839005979 ], [ 117.310875180592305, 42.411287855484453 ], [ 117.310875136118554, 42.411278849597579 ], [ 117.310862983000177, 42.411278882553546 ], [ 117.310863005236172, 42.411283385496986 ], [ 117.310856928676529, 42.411283401974487 ], [ 117.310857017618858, 42.411301413748198 ], [ 117.31086309418022, 42.411301397270698 ], [ 117.310863116416272, 42.411305900214103 ] ] ] } },
{ "type": "Feature", "properties": { "crown_id": 354, "tree_id": "355", "top_h_m": 17.998, "H_95_Mean": 18.2216, "DBH": 34.4467, "Carbon_kg": 212.88349, "area_m2": 41.75 }, "geometry": { "type": "Polygon", "coordinates": [ [ [ 117.310917783232455, 42.411301248958623 ], [ 117.310936012916429, 42.411301199515457 ], [ 117.310935968433952, 42.411292193628675 ], [ 117.31094812155483, 42.411292160664964 ], [ 117.310948077070634, 42.411283154778182 ], [ 117.310984536427952, 42.411283055879373 ], [ 117.310984514183261, 42.411278552935983 ], [ 117.310990590742364, 42.411278536451725 ], [ 117.3109905462521, 42.411269530564951 ], [ 117.310984469693892, 42.411269547049201 ], [ 117.310984425204524, 42.411260541162413 ], [ 117.31097834864714, 42.411260557646344 ], [ 117.310978326402903, 42.411256054702932 ], [ 117.310972249845989, 42.411256071186543 ], [ 117.310972227602178, 42.411251568243131 ], [ 117.310960074489159, 42.411251601209358 ], [ 117.310960052246244, 42.411247098265946 ], [ 117.310941822577959, 42.411247147712878 ], [ 117.310941800336337, 42.411242644769445 ], [ 117.310929647225009, 42.411242677732446 ], [ 117.310929624984283, 42.411238174789013 ], [ 117.310905318763275, 42.411238240711143 ], [ 117.310905341002282, 42.411242743654583 ], [ 117.310899264446576, 42.411242760134314 ], [ 117.310899331162332, 42.411256268964657 ], [ 117.310887178048318, 42.411256301923153 ], [ 117.310887200286018, 42.4112608048666 ], [ 117.310868970613669, 42.41126085430195 ], [ 117.310869037322931, 42.411274363132286 ], [ 117.31088119044044, 42.411274330175701 ], [ 117.310881234915058, 42.41128333606256 ], [ 117.310887311474701, 42.411283319583767 ], [ 117.3108873559502, 42.411292325470612 ], [ 117.310911662192112, 42.411292259552212 ], [ 117.310911684431602, 42.411296762495617 ], [ 117.31091776099251, 42.411296746015211 ], [ 117.310917783232455, 42.411301248958623 ] ], [ [ 117.310978415379893, 42.41127406647653 ], [ 117.310978393135642, 42.411269563533146 ], [ 117.310984469693892, 42.411269547049201 ], [ 117.310984491938555, 42.411274049992599 ], [ 117.310978415379893, 42.41127406647653 ] ] ] } },
{ "type": "Feature", "properties": { "crown_id": 381, "tree_id": "382", "top_h_m": 18.78, "H_95_Mean": 19.7357, "DBH": 32.2093, "Carbon_kg": 194.922104, "area_m2": 27.75 }, "geometry": { "type": "Polygon", "coordinates": [ [ [ 117.310717167803332, 42.411283780868047 ], [ 117.310729320922846, 42.411283747927556 ], [ 117.310729276469957, 42.411274742040561 ], [ 117.310735353028861, 42.411274725569832 ], [ 117.310735330801975, 42.411270222626342 ], [ 117.310759637035716, 42.411270156740208 ], [ 117.310759614807125, 42.411265653796718 ], [ 117.310753538249116, 42.411265670268733 ], [ 117.310753471564666, 42.41125216143822 ], [ 117.310747395007951, 42.411252177909923 ], [ 117.310747350552546, 42.411243172022886 ], [ 117.310735197440877, 42.411243204965274 ], [ 117.310735175214049, 42.411238702021755 ], [ 117.310729098658655, 42.41123871849247 ], [ 117.310729054205879, 42.411229712605405 ], [ 117.310692594878574, 42.411229811422857 ], [ 117.310692617102333, 42.411234314366418 ], [ 117.310680463992313, 42.411234347302994 ], [ 117.310680486215233, 42.411238850246541 ], [ 117.310674409659796, 42.411238866714349 ], [ 117.310674431882276, 42.411243369657896 ], [ 117.310668355326385, 42.411243386125392 ], [ 117.310668466436709, 42.411265900843091 ], [ 117.310680619552841, 42.411265867907758 ], [ 117.310680641775775, 42.411270370851284 ], [ 117.310686718334281, 42.411270354383142 ], [ 117.310686740557657, 42.411274857326653 ], [ 117.310692817116575, 42.411274840858169 ], [ 117.310692839340405, 42.411279343801688 ], [ 117.310717145577769, 42.411279277924557 ], [ 117.310717167803332, 42.411283780868047 ] ], [ [ 117.310735286348276, 42.411261216739334 ], [ 117.310735264121419, 42.411256713795822 ], [ 117.310741340678561, 42.411256697324781 ], [ 117.31074136290583, 42.411261200268292 ], [ 117.310735286348276, 42.411261216739334 ] ], [ [ 117.310698760330013, 42.411247806728255 ], [ 117.310698693657343, 42.411234297897636 ], [ 117.310716923322317, 42.411234248489393 ], [ 117.310716989998909, 42.41124775731997 ], [ 117.310698760330013, 42.411247806728255 ] ] ] } },
{ "type": "Feature", "properties": { "crown_id": 399, "tree_id": "400", "top_h_m": 17.995, "H_95_Mean": 18.4803, "DBH": 38.3187, "Carbon_kg": 266.076246, "area_m2": 61.5 }, "geometry": { "type": "Polygon", "coordinates": [ [ [ 117.310784232264226, 42.411328629113839 ], [ 117.310820691648445, 42.411328530267056 ], [ 117.310820602716447, 42.411310518493352 ], [ 117.310814526154161, 42.411310534968614 ], [ 117.310814503921605, 42.41130603202518 ], [ 117.310808427359731, 42.411306048500116 ], [ 117.310808338431286, 42.411288036726326 ], [ 117.310838721231832, 42.411287954348488 ], [ 117.310838698997557, 42.411283451405041 ], [ 117.310850852116872, 42.411283418451653 ], [ 117.31085082988173, 42.411278915508213 ], [ 117.310856906440961, 42.411278899031032 ], [ 117.310856884205407, 42.411274396087592 ], [ 117.310862960764183, 42.411274379610106 ], [ 117.310862849584254, 42.411251864892854 ], [ 117.310856773027638, 42.41125188137034 ], [ 117.310856728556587, 42.41124287548341 ], [ 117.310838498889353, 42.411242924913907 ], [ 117.310838387718306, 42.411220410196478 ], [ 117.310832311164717, 42.411220426672656 ], [ 117.310832266697204, 42.411211420785655 ], [ 117.310807960486329, 42.411211486687094 ], [ 117.31080800495036, 42.411220492574131 ], [ 117.310801928396756, 42.41122050904869 ], [ 117.310801972859934, 42.411229514935705 ], [ 117.310777666641997, 42.411229580830756 ], [ 117.310777688871866, 42.411234083774268 ], [ 117.310771612316927, 42.411234100247235 ], [ 117.310771567858097, 42.411225094360191 ], [ 117.310759414749938, 42.411225127305144 ], [ 117.310759392521391, 42.411220624361626 ], [ 117.310753315967759, 42.411220640833605 ], [ 117.310753360423973, 42.411229646720649 ], [ 117.310735130760406, 42.411229696134697 ], [ 117.310735152987235, 42.411234199078237 ], [ 117.310741229542188, 42.411234182607195 ], [ 117.310741251769457, 42.411238685550721 ], [ 117.310753404880245, 42.411238652607693 ], [ 117.310753449336502, 42.411247658494723 ], [ 117.310759525892763, 42.411247642022715 ], [ 117.310759592578506, 42.411261150853221 ], [ 117.31076566913606, 42.411261134380894 ], [ 117.310765713594137, 42.411270140267874 ], [ 117.310771790152558, 42.411270123795212 ], [ 117.310771812382029, 42.411274626738688 ], [ 117.310765735823182, 42.411274643211357 ], [ 117.310765780281258, 42.411283649098316 ], [ 117.310771856841001, 42.41128363262564 ], [ 117.310771879070487, 42.411288135569123 ], [ 117.310777955630627, 42.41128811909612 ], [ 117.31077800009048, 42.411297124983051 ], [ 117.310784076651501, 42.411297108509721 ], [ 117.310784121112263, 42.411306114396638 ], [ 117.310790197674152, 42.411306097922996 ], [ 117.310790286597438, 42.411324109696757 ], [ 117.31078421003383, 42.411324126170406 ], [ 117.310784232264226, 42.411328629113839 ] ], [ [ 117.310826523644835, 42.411278981413695 ], [ 117.310826501411455, 42.41127447847024 ], [ 117.31083257797026, 42.411274461994346 ], [ 117.310832600204066, 42.4112789649378 ], [ 117.310826523644835, 42.411278981413695 ] ], [ [ 117.310844753322527, 42.411278931985059 ], [ 117.310844731087826, 42.411274429041626 ], [ 117.310850807646602, 42.411274412564765 ], [ 117.31085082988173, 42.411278915508213 ], [ 117.310844753322527, 42.411278931985059 ] ], [ [ 117.310802150712917, 42.411265538483612 ], [ 117.310802084018007, 42.41125202965317 ], [ 117.310820313687941, 42.411251980228464 ], [ 117.310820380386744, 42.411265489058877 ], [ 117.310802150712917, 42.411265538483612 ] ], [ [ 117.31076566913606, 42.411261134380894 ], [ 117.310765646907043, 42.411256631437396 ], [ 117.310771723464157, 42.411256614964742 ], [ 117.310771745693614, 42.411261117908232 ], [ 117.31076566913606, 42.411261134380894 ] ], [ [ 117.310832511268814, 42.411260953163975 ], [ 117.310832444567382, 42.411247444333576 ], [ 117.310850674235951, 42.411247394904038 ], [ 117.310850740941262, 42.411260903734416 ], [ 117.310832511268814, 42.411260953163975 ] ] ] } },
{ "type": "Feature", "properties": { "crown_id": 417, "tree_id": "418", "top_h_m": 17.951, "H_95_Mean": 17.6522, "DBH": 28.3349, "Carbon_kg": 140.935791, "area_m2": 20.75 }, "geometry": { "type": "Polygon", "coordinates": [ [ [ 117.310868948377234, 42.41125635135851 ], [ 117.310881101491304, 42.411256318401932 ], [ 117.310881079254003, 42.411251815458492 ], [ 117.310893232367178, 42.411251782500628 ], [ 117.310893165652757, 42.411238273670271 ], [ 117.310899242208009, 42.411238257190867 ], [ 117.310899219969471, 42.411233754247412 ], [ 117.310929602743542, 42.411233671845558 ], [ 117.310929558262089, 42.411224665958663 ], [ 117.310923481708159, 42.411224682439681 ], [ 117.310923503948445, 42.411229185383121 ], [ 117.310905274285304, 42.411229234824226 ], [ 117.310905185329389, 42.411211223050366 ], [ 117.310899108776724, 42.411211239530076 ], [ 117.310899086538214, 42.4112067365866 ], [ 117.310862627224779, 42.411206835458088 ], [ 117.31086267169664, 42.411215841345076 ], [ 117.310844442037236, 42.411215890776489 ], [ 117.310844553210444, 42.411238405493918 ], [ 117.31086278287637, 42.411238356062462 ], [ 117.310862827348274, 42.4112473619494 ], [ 117.310868903904435, 42.411247345471601 ], [ 117.310868948377234, 42.41125635135851 ] ] ] } },
{ "type": "Feature", "properties": { "crown_id": 449, "tree_id": "450", "top_h_m": 18.951, "H_95_Mean": 18.847, "DBH": 22.2986, "Carbon_kg": 90.395041, "area_m2": 7.25 }, "geometry": { "type": "Polygon", "coordinates": [ [ [ 117.310777644412155, 42.411225077887245 ], [ 117.310795874074302, 42.411225028466447 ], [ 117.310795829612005, 42.411216022579417 ], [ 117.310801906165182, 42.411216006105185 ], [ 117.310801861702018, 42.411207000218141 ], [ 117.310795785149708, 42.41120701669238 ], [ 117.310795762918573, 42.411202513748854 ], [ 117.310801839470457, 42.411202497274623 ], [ 117.310801817238882, 42.411197994331097 ], [ 117.310783587584552, 42.411198043752819 ], [ 117.31078360981482, 42.411202546696352 ], [ 117.31076538015914, 42.411202596115174 ], [ 117.310765424617074, 42.411211602002247 ], [ 117.310759348064309, 42.41121161847456 ], [ 117.310759370292857, 42.411216121418093 ], [ 117.310765446846048, 42.41121610494578 ], [ 117.310765469075022, 42.411220607889305 ], [ 117.3107776221823, 42.411220574943727 ], [ 117.310777644412155, 42.411225077887245 ] ] ] } },
{ "type": "Feature", "properties": { "crown_id": 484, "tree_id": "485", "top_h_m": 18.23, "H_95_Mean": 17.9604, "DBH": 25.5759, "Carbon_kg": 115.823509, "area_m2": 13.5 }, "geometry": { "type": "Polygon", "coordinates": [ [ [ 117.310947876892016, 42.411242628287454 ], [ 117.310953953447651, 42.41124261180515 ], [ 117.310953931205205, 42.411238108861724 ], [ 117.310960007760414, 42.411238092379101 ], [ 117.310959941031683, 42.411224583548794 ], [ 117.310966017585599, 42.411224567065851 ], [ 117.310965973098959, 42.411215561178977 ], [ 117.31095989654591, 42.411215577661913 ], [ 117.310959874303038, 42.411211074718459 ], [ 117.310965950855632, 42.41121105823553 ], [ 117.310965928612333, 42.411206555292082 ], [ 117.310953775507983, 42.411206588257613 ], [ 117.310953753265551, 42.411202085314166 ], [ 117.310929447058555, 42.411202151241362 ], [ 117.310929402577173, 42.41119314535441 ], [ 117.310917249475381, 42.411193178316068 ], [ 117.310917293955029, 42.411202184203034 ], [ 117.310905140851474, 42.411202217163414 ], [ 117.310905163090425, 42.41120672010689 ], [ 117.310911239642621, 42.411206703626853 ], [ 117.310911284121431, 42.411215709513804 ], [ 117.310923437227586, 42.411215676552764 ], [ 117.310923459467858, 42.411220179496212 ], [ 117.310935612574866, 42.411220146533893 ], [ 117.31093570153952, 42.411238158307668 ], [ 117.310947854649967, 42.411238125344028 ], [ 117.310947876892016, 42.411242628287454 ] ] ] } }
]
}
