{
"type": "FeatureCollection",
"name": "tile_15_12",
"crs": { "type": "name", "properties": { "name": "urn:ogc:def:crs:OGC:1.3:CRS84" } },
"features": [
{ "type": "Feature", "properties": { "crown_id": 5982, "tree_id": "5988", "top_h_m": 22.68, "H_95_Mean": 22.7332, "DBH": 27.897, "Carbon_kg": 158.623298, "area_m2": 12.25 }, "geometry": { "type": "Polygon", "coordinates": [ [ [ 117.31280773151677, 42.408877994081756 ], [ 117.312813807843114, 42.408877977501611 ], [ 117.312813785469459, 42.408873474557112 ], [ 117.312819861795376, 42.40887345797664 ], [ 117.312819817047185, 42.408864452087649 ], [ 117.312825893372221, 42.408864435506857 ], [ 117.312825870997699, 42.408859932562358 ], [ 117.312813718348508, 42.4088599657236 ], [ 117.312813673601241, 42.408850959834581 ], [ 117.312807597277498, 42.408850976414712 ], [ 117.312807463038396, 42.40882395874754 ], [ 117.31281353935951, 42.408823942167423 ], [ 117.312813494612342, 42.408814936278347 ], [ 117.312789189331255, 42.408815002596853 ], [ 117.31278923407497, 42.408824008485958 ], [ 117.312783157753827, 42.408824025064781 ], [ 117.312783247239594, 42.408842036842941 ], [ 117.312777170916689, 42.408842053421473 ], [ 117.312777215658727, 42.408851059310535 ], [ 117.312795444630012, 42.408851009574008 ], [ 117.312795489374665, 42.408860015463041 ], [ 117.312801565699289, 42.408859998883557 ], [ 117.312801588072048, 42.408864501828056 ], [ 117.312807664397127, 42.408864485248252 ], [ 117.31280773151677, 42.408877994081756 ] ] ] } },
{ "type": "Feature", "properties": { "crown_id": 6085, "tree_id": "6091", "top_h_m": 22.95, "H_95_Mean": 22.964, "DBH": 39.5791, "Carbon_kg": 322.947239, "area_m2": 46.75 }, "geometry": { "type": "Polygon", "coordinates": [ [ [ 117.312728627435988, 42.408855694871662 ], [ 117.312734703760242, 42.408855678295723 ], [ 117.312734636656288, 42.408842169462062 ], [ 117.31274071297922, 42.408842152885804 ], [ 117.312740690610809, 42.40883764994124 ], [ 117.312746766933302, 42.408837633364662 ], [ 117.312746722195655, 42.408828627475543 ], [ 117.312740645874015, 42.408828644052122 ], [ 117.31274060113725, 42.408819638162988 ], [ 117.312728448495747, 42.408819671315165 ], [ 117.312728359025726, 42.408801659536827 ], [ 117.312734435344765, 42.408801642960917 ], [ 117.31273439060891, 42.408792637071734 ], [ 117.312728314290766, 42.408792653647637 ], [ 117.312728180085955, 42.408765635979989 ], [ 117.312697798508154, 42.408765718854632 ], [ 117.312697820873439, 42.408770221799259 ], [ 117.312691744557426, 42.408770238373236 ], [ 117.312691789287115, 42.408779244262483 ], [ 117.31268571297025, 42.408779260836127 ], [ 117.312685690605804, 42.4087747578915 ], [ 117.312679614289365, 42.408774774464824 ], [ 117.312679636653343, 42.408779277409458 ], [ 117.312673560336449, 42.408779293982469 ], [ 117.3126735827, 42.408783796927104 ], [ 117.312667506382667, 42.408783813499788 ], [ 117.312667484019556, 42.408779310555147 ], [ 117.312661407702649, 42.408779327127505 ], [ 117.312661385339965, 42.408774824182863 ], [ 117.312655309023484, 42.408774840754909 ], [ 117.312655376110257, 42.408788349588825 ], [ 117.312649299792469, 42.408788366160543 ], [ 117.312649523410983, 42.408833395606727 ], [ 117.312667752377379, 42.408833345890514 ], [ 117.312667774740547, 42.408837848835098 ], [ 117.312673851063096, 42.408837832262378 ], [ 117.312673828699488, 42.408833329317801 ], [ 117.312698133987908, 42.408833263023723 ], [ 117.31269815635325, 42.408837765968293 ], [ 117.312704232675785, 42.408837749393967 ], [ 117.312704255041567, 42.408842252338538 ], [ 117.312710331364528, 42.408842235763892 ], [ 117.312710376097016, 42.408851241653011 ], [ 117.312728605068443, 42.40885119192712 ], [ 117.312728627435988, 42.408855694871662 ] ], [ [ 117.312667730014184, 42.408828842945923 ], [ 117.312667662924682, 42.40881533411212 ], [ 117.312685891885792, 42.408815284393043 ], [ 117.312685958979202, 42.408828793226817 ], [ 117.312667730014184, 42.408828842945923 ] ], [ [ 117.312703964286612, 42.408783714058842 ], [ 117.312703897189451, 42.408770205224975 ], [ 117.312722126137416, 42.408770155500186 ], [ 117.312722193238528, 42.408783664334017 ], [ 117.312703964286612, 42.408783714058842 ] ] ] } },
{ "type": "Feature", "properties": { "crown_id": 6111, "tree_id": "6117", "top_h_m": 19.96, "H_95_Mean": 19.9433, "DBH": 25.9413, "Carbon_kg": 126.798459, "area_m2": 11.75 }, "geometry": { "type": "Polygon", "coordinates": [ [ [ 117.312807395918924, 42.408810449913908 ], [ 117.312825624878371, 42.408810400172619 ], [ 117.312825602503935, 42.408805897228071 ], [ 117.312831678823301, 42.408805880647002 ], [ 117.312831701198192, 42.408810383591536 ], [ 117.312837777517998, 42.40881036701014 ], [ 117.312837732767363, 42.408801361121064 ], [ 117.312831656448424, 42.40880137770246 ], [ 117.312831566948944, 42.408783365924236 ], [ 117.312819414314532, 42.408783399086033 ], [ 117.312819369566569, 42.408774393196893 ], [ 117.31281329325023, 42.408774409777301 ], [ 117.312813226129606, 42.408760900943562 ], [ 117.312807149814574, 42.40876091752363 ], [ 117.312807082695301, 42.408747408689855 ], [ 117.312801006381548, 42.408747425269603 ], [ 117.3128010734995, 42.408760934103398 ], [ 117.312794997184454, 42.408760950682826 ], [ 117.312795019556688, 42.408765453627424 ], [ 117.312801095872189, 42.408765437047997 ], [ 117.312801207735575, 42.408787951770883 ], [ 117.312795131417914, 42.408787968350325 ], [ 117.312795198534687, 42.408801477184042 ], [ 117.312807351172637, 42.408801444024796 ], [ 117.312807395918924, 42.408810449913908 ] ], [ [ 117.312807351172637, 42.408801444024796 ], [ 117.312807328799494, 42.408796941080233 ], [ 117.312813405117993, 42.40879692450013 ], [ 117.312813427491577, 42.408801427444693 ], [ 117.312807351172637, 42.408801444024796 ] ] ] } },
{ "type": "Feature", "properties": { "crown_id": 6134, "tree_id": "6140", "top_h_m": 19.76, "H_95_Mean": 20.1741, "DBH": 29.0082, "Carbon_kg": 159.911387, "area_m2": 17.75 }, "geometry": { "type": "Polygon", "coordinates": [ [ [ 117.31284997490998, 42.408819339735437 ], [ 117.312856051230639, 42.408819323153075 ], [ 117.312856028854014, 42.408814820208548 ], [ 117.312868181494437, 42.40881478704285 ], [ 117.312868159116945, 42.408810284098323 ], [ 117.312874235436709, 42.408810267514994 ], [ 117.312874190680859, 42.408801261625953 ], [ 117.31288026699977, 42.408801245042305 ], [ 117.312880177486363, 42.408783233264181 ], [ 117.312886253803526, 42.408783216680213 ], [ 117.312886231424756, 42.408778713735671 ], [ 117.312892307741478, 42.408778697151405 ], [ 117.312892285362281, 42.408774194206856 ], [ 117.312886209045999, 42.408774210791137 ], [ 117.312886164288486, 42.408765204902039 ], [ 117.312849706395895, 42.408765304400895 ], [ 117.312849728772051, 42.40876980734545 ], [ 117.312843652456166, 42.408769823927472 ], [ 117.312843674831868, 42.408774326872027 ], [ 117.312837598515557, 42.408774343453729 ], [ 117.31283771039206, 42.408796858176508 ], [ 117.31284378671053, 42.4087968415948 ], [ 117.312843853837791, 42.408810350428432 ], [ 117.312849930157597, 42.408810333846382 ], [ 117.31284997490998, 42.408819339735437 ] ] ] } },
{ "type": "Feature", "properties": { "crown_id": 6157, "tree_id": "6163", "top_h_m": 21.78, "H_95_Mean": 22.1358, "DBH": 37.368, "Carbon_kg": 281.434655, "area_m2": 40.0 }, "geometry": { "type": "Polygon", "coordinates": [ [ [ 117.312752843255808, 42.408837616787764 ], [ 117.312777148545692, 42.408837550476925 ], [ 117.312777059061673, 42.408819538698737 ], [ 117.312783135382418, 42.408819522120226 ], [ 117.31278309063957, 42.408810516231114 ], [ 117.312801319599089, 42.408810466493684 ], [ 117.312801297226386, 42.408805963549135 ], [ 117.312789144587569, 42.408805996707741 ], [ 117.312789032728404, 42.408783481984884 ], [ 117.312795109045666, 42.408783465405747 ], [ 117.312795041928908, 42.408769956572009 ], [ 117.312788965612981, 42.408769973151131 ], [ 117.312788898497601, 42.408756464317349 ], [ 117.312794974812235, 42.408756447738234 ], [ 117.312794952440015, 42.408751944793636 ], [ 117.312776723497436, 42.408751994529993 ], [ 117.312776701126495, 42.408747491585387 ], [ 117.312752395871399, 42.408747557896014 ], [ 117.312752373502221, 42.40874305495138 ], [ 117.312740220875497, 42.408743088104757 ], [ 117.312740243243809, 42.408747591049391 ], [ 117.312734166929985, 42.408747607625592 ], [ 117.312734211665742, 42.408756613514853 ], [ 117.31272813535108, 42.408756630090743 ], [ 117.312728157718524, 42.40876113303537 ], [ 117.312734234033613, 42.408761116459473 ], [ 117.312734368240982, 42.408788134127136 ], [ 117.312740444558699, 42.408788117550898 ], [ 117.31274053403213, 42.408806129329257 ], [ 117.312734457712679, 42.408806145905501 ], [ 117.312734502448563, 42.408815151794663 ], [ 117.3127466550892, 42.408815118641854 ], [ 117.312746699826832, 42.408824124530987 ], [ 117.312752776148002, 42.408824107954089 ], [ 117.312752843255808, 42.408837616787764 ] ] ] } },
{ "type": "Feature", "properties": { "crown_id": 6170, "tree_id": "6176", "top_h_m": 18.96, "H_95_Mean": 19.3354, "DBH": 22.1605, "Carbon_kg": 90.63134, "area_m2": 6.75 }, "geometry": { "type": "Polygon", "coordinates": [ [ [ 117.312825468257316, 42.408778879560728 ], [ 117.312831544574095, 42.40877886297968 ], [ 117.31283149982437, 42.40876985709054 ], [ 117.312837576140282, 42.408769840509166 ], [ 117.312837553765007, 42.408765337564596 ], [ 117.312843630080451, 42.408765320982909 ], [ 117.312843607704735, 42.408760818038324 ], [ 117.312837531389732, 42.408760834620011 ], [ 117.312837486639225, 42.408751828730864 ], [ 117.312831410325046, 42.408751845312231 ], [ 117.312831320825808, 42.408733833533852 ], [ 117.312819168200946, 42.408733866695584 ], [ 117.312819190574871, 42.40873836964019 ], [ 117.312813114262028, 42.408738386220584 ], [ 117.312813203756093, 42.408756397998978 ], [ 117.31281928007067, 42.408756381418563 ], [ 117.312819347192587, 42.408769890252316 ], [ 117.3128254235085, 42.408769873671595 ], [ 117.312825468257316, 42.408778879560728 ] ] ] } },
{ "type": "Feature", "properties": { "crown_id": 6183, "tree_id": "6189", "top_h_m": 20.414, "H_95_Mean": 20.7867, "DBH": 25.8569, "Carbon_kg": 129.092492, "area_m2": 10.75 }, "geometry": { "type": "Polygon", "coordinates": [ [ [ 117.312667461656432, 42.40877480761052 ], [ 117.312673537972898, 42.408774791037828 ], [ 117.312673515609347, 42.408770288093194 ], [ 117.3126856682414, 42.408770254946866 ], [ 117.312685645876982, 42.408765752002239 ], [ 117.312691722192582, 42.408765735428595 ], [ 117.312691699827738, 42.408761232483954 ], [ 117.312697776142883, 42.408761215909998 ], [ 117.312697731412342, 42.408752210020715 ], [ 117.312691655098064, 42.408752226594679 ], [ 117.312691610368432, 42.408743220705375 ], [ 117.312685534055021, 42.408743237279005 ], [ 117.312685489326256, 42.40873423138968 ], [ 117.312667260388594, 42.408734281108629 ], [ 117.312667305114743, 42.408743286997947 ], [ 117.312655152487892, 42.408743320142307 ], [ 117.312655174850093, 42.408747823086976 ], [ 117.312661251163973, 42.40874780651496 ], [ 117.312661273526629, 42.408752309459615 ], [ 117.312655197212322, 42.408752326031646 ], [ 117.312655286661254, 42.408770337810267 ], [ 117.312667439293321, 42.408770304665872 ], [ 117.312667461656432, 42.40877480761052 ] ] ] } },
{ "type": "Feature", "properties": { "crown_id": 6200, "tree_id": "6206", "top_h_m": 19.308, "H_95_Mean": 19.3462, "DBH": 27.7964, "Carbon_kg": 143.141046, "area_m2": 16.25 }, "geometry": { "type": "MultiPolygon", "coordinates": [ [ [ [ 117.312849684019753, 42.408760801456317 ], [ 117.312892218224718, 42.408760685373224 ], [ 117.312892195845549, 42.408756182428661 ], [ 117.312898272160083, 42.408756165844075 ], [ 117.312898227400865, 42.408747159954956 ], [ 117.312892151087198, 42.408747176539542 ], [ 117.312892128708057, 42.408742673594979 ], [ 117.312886052394802, 42.408742690179231 ], [ 117.312886030016088, 42.408738187234661 ], [ 117.312879953703273, 42.408738203818594 ], [ 117.312879931325, 42.408733700874016 ], [ 117.312873855012597, 42.408733717457622 ], [ 117.312873810256932, 42.408724711568453 ], [ 117.312867733945396, 42.408724728151732 ], [ 117.312867711568018, 42.408720225207141 ], [ 117.312861635256937, 42.408720241790093 ], [ 117.312861612879985, 42.408715738845494 ], [ 117.312849460258647, 42.408715772010439 ], [ 117.312849527386931, 42.408729280844234 ], [ 117.312837374762978, 42.4087293140079 ], [ 117.312837464263936, 42.40874732578628 ], [ 117.31284354057766, 42.4087473092046 ], [ 117.312843585329063, 42.40875631509374 ], [ 117.312849661643639, 42.408756298511747 ], [ 117.312849684019753, 42.408760801456317 ] ] ], [ [ [ 117.312861612879985, 42.408715738845494 ], [ 117.312867689190625, 42.408715722262535 ], [ 117.312867666813233, 42.408711219317944 ], [ 117.312861590503019, 42.408711235900896 ], [ 117.312861612879985, 42.408715738845494 ] ] ] ] } },
{ "type": "Feature", "properties": { "crown_id": 6204, "tree_id": "6210", "top_h_m": 21.363, "H_95_Mean": 21.3817, "DBH": 24.4773, "Carbon_kg": 117.531849, "area_m2": 8.25 }, "geometry": { "type": "Polygon", "coordinates": [ [ [ 117.312703852458029, 42.408761199335714 ], [ 117.312722081403408, 42.408761149610932 ], [ 117.312722036669385, 42.408752143721685 ], [ 117.312728112983635, 42.408752127146116 ], [ 117.312728068248774, 42.408743121256848 ], [ 117.312734144562143, 42.408743104680958 ], [ 117.312734099826415, 42.40873409879169 ], [ 117.312715870888894, 42.408734148518349 ], [ 117.312715848522345, 42.4087296455737 ], [ 117.312709772210283, 42.408729662148609 ], [ 117.31270974984416, 42.408725159203946 ], [ 117.312703673532511, 42.408725175778528 ], [ 117.312703695898193, 42.408729678723205 ], [ 117.312691543273985, 42.408729711871409 ], [ 117.312691588003602, 42.40873871776072 ], [ 117.312697664316559, 42.408738701186778 ], [ 117.312697709047072, 42.408747707076081 ], [ 117.31270378536091, 42.408747690501798 ], [ 117.312703852458029, 42.408761199335714 ] ] ] } },
{ "type": "Feature", "properties": { "crown_id": 6292, "tree_id": "6298", "top_h_m": 21.835, "H_95_Mean": 21.4637, "DBH": 33.517, "Carbon_kg": 221.950667, "area_m2": 27.75 }, "geometry": { "type": "Polygon", "coordinates": [ [ [ 117.312782777440276, 42.408747475006919 ], [ 117.31279493006781, 42.40874744184903 ], [ 117.31279490769559, 42.408742938904425 ], [ 117.312807060322214, 42.40874290574525 ], [ 117.312807037949142, 42.408738402800644 ], [ 117.31280096163627, 42.408738419380384 ], [ 117.312800849773154, 42.408715904657299 ], [ 117.312794773462443, 42.408715921236706 ], [ 117.312794728718117, 42.408706915347437 ], [ 117.312776499788555, 42.408706965083724 ], [ 117.312776410305162, 42.408688953305116 ], [ 117.312770333997037, 42.408688969883222 ], [ 117.312770311626622, 42.40868446693856 ], [ 117.312752082703526, 42.408684516670938 ], [ 117.312752060334432, 42.408680013726268 ], [ 117.312745984027174, 42.408680030303067 ], [ 117.312746028764508, 42.40868903619242 ], [ 117.312739952456326, 42.408689052768914 ], [ 117.312739997192821, 42.408698058658267 ], [ 117.312733920883801, 42.40869807523444 ], [ 117.312734010355072, 42.40871608701309 ], [ 117.312740086665841, 42.408716070436903 ], [ 117.312740198507228, 42.40873858516013 ], [ 117.312758427445985, 42.408738535429578 ], [ 117.31275844981559, 42.408743038374205 ], [ 117.312782755068937, 42.408742972062306 ], [ 117.312782777440276, 42.408747475006919 ] ] ] } },
{ "type": "Feature", "properties": { "crown_id": 6293, "tree_id": "6299", "top_h_m": 19.805, "H_95_Mean": 20.058, "DBH": 27.7011, "Carbon_kg": 145.22426, "area_m2": 15.0 }, "geometry": { "type": "Polygon", "coordinates": [ [ [ 117.312807015576084, 42.408733899856045 ], [ 117.312813091888529, 42.408733883275978 ], [ 117.31281306951503, 42.408729380331366 ], [ 117.312831298450988, 42.40872933058926 ], [ 117.312831276076196, 42.40872482764464 ], [ 117.312843428699281, 42.408724794481628 ], [ 117.31284336157232, 42.408711285647797 ], [ 117.31285551419279, 42.408711252483521 ], [ 117.312855491816293, 42.408706749538908 ], [ 117.312861568126067, 42.408706732956276 ], [ 117.312861545749129, 42.40870223001167 ], [ 117.312855469439768, 42.408702246594288 ], [ 117.312855447063271, 42.408697743649668 ], [ 117.312849370754364, 42.408697760231981 ], [ 117.312849326002222, 42.408688754342727 ], [ 117.312831097078018, 42.408688804087674 ], [ 117.312831119452781, 42.408693307032301 ], [ 117.312812890527226, 42.408693356774364 ], [ 117.312812912900696, 42.408697859719005 ], [ 117.312794683973792, 42.408697909458155 ], [ 117.31279470634594, 42.40870241240281 ], [ 117.312800782655358, 42.408702395823397 ], [ 117.312800827400551, 42.408711401712672 ], [ 117.312806903710836, 42.408711385132946 ], [ 117.312807015576084, 42.408733899856045 ] ], [ [ 117.312831253701404, 42.408720324700035 ], [ 117.312831231326626, 42.408715821755429 ], [ 117.312837307637295, 42.408715805174083 ], [ 117.312837330012528, 42.408720308118696 ], [ 117.312831253701404, 42.408720324700035 ] ] ] } },
{ "type": "Feature", "properties": { "crown_id": 6302, "tree_id": "6308", "top_h_m": 20.49, "H_95_Mean": 21.6974, "DBH": 23.8406, "Carbon_kg": 112.421797, "area_m2": 7.25 }, "geometry": { "type": "Polygon", "coordinates": [ [ [ 117.312873743123433, 42.408711202734672 ], [ 117.312879819433647, 42.408711186151081 ], [ 117.312879797055416, 42.408706683206475 ], [ 117.312885873365161, 42.408706666622564 ], [ 117.312885806229147, 42.408693157788754 ], [ 117.312879729920681, 42.408693174372658 ], [ 117.312879685164219, 42.408684168483425 ], [ 117.312873608856634, 42.40868418506701 ], [ 117.312873541723292, 42.408670676233122 ], [ 117.31286138911068, 42.408670709399289 ], [ 117.31286136673377, 42.408666206454662 ], [ 117.312855290427891, 42.408666223037272 ], [ 117.312855424686774, 42.408693240705063 ], [ 117.312861500995268, 42.408693224122445 ], [ 117.312861523372206, 42.408697727067057 ], [ 117.312867599681113, 42.40869771048412 ], [ 117.312867644435869, 42.408706716373331 ], [ 117.312873720745642, 42.408706699790059 ], [ 117.312873743123433, 42.408711202734672 ] ] ] } },
{ "type": "Feature", "properties": { "crown_id": 6343, "tree_id": "6349", "top_h_m": 22.733, "H_95_Mean": 22.4544, "DBH": 40.6447, "Carbon_kg": 336.218725, "area_m2": 54.0 }, "geometry": { "type": "Polygon", "coordinates": [ [ [ 117.312667238025526, 42.408729778163959 ], [ 117.312685466961881, 42.408729728445024 ], [ 117.312685444597506, 42.408725225500362 ], [ 117.312697597220847, 42.408725192352797 ], [ 117.312697574855619, 42.408720689408135 ], [ 117.312715803789303, 42.408720639684383 ], [ 117.312715826155824, 42.408725142629045 ], [ 117.312721902467459, 42.40872512605381 ], [ 117.312721924834435, 42.408729628998472 ], [ 117.3127340774586, 42.408729595847042 ], [ 117.312734032722901, 42.408720589957753 ], [ 117.312727956411692, 42.408720606533613 ], [ 117.312727822207407, 42.408693588865624 ], [ 117.312733898515987, 42.408693572289771 ], [ 117.312733853780387, 42.408684566400403 ], [ 117.3127399300881, 42.408684549824237 ], [ 117.312739885351661, 42.408675543934869 ], [ 117.312758114272185, 42.408675494204445 ], [ 117.312758136641719, 42.408679997149122 ], [ 117.312764212948963, 42.408679980571669 ], [ 117.312764168209071, 42.408670974682316 ], [ 117.312758091902651, 42.408670991259768 ], [ 117.312757980055139, 42.408648476536321 ], [ 117.312751903750922, 42.408648493113439 ], [ 117.312751836643784, 42.40863498427931 ], [ 117.312739684037922, 42.408635017432559 ], [ 117.312739773510643, 42.408653029211401 ], [ 117.312733697205957, 42.408653045787567 ], [ 117.312733719573728, 42.408657548732258 ], [ 117.312727643268616, 42.408657565308097 ], [ 117.312727665635947, 42.408662068252802 ], [ 117.312721589330394, 42.408662084828315 ], [ 117.312721566963489, 42.40865758188361 ], [ 117.312703338048081, 42.408657631608193 ], [ 117.312703315682498, 42.408653128663495 ], [ 117.312691163073083, 42.408653161811607 ], [ 117.312691185437799, 42.408657664756333 ], [ 117.312685109132659, 42.408657681329906 ], [ 117.312685131496934, 42.408662184274633 ], [ 117.312679055191339, 42.408662200847893 ], [ 117.312679077555217, 42.408666703792605 ], [ 117.312673001249181, 42.408666720365545 ], [ 117.312673045976055, 42.408675726254977 ], [ 117.312654817055304, 42.408675775971879 ], [ 117.312654794693174, 42.408671273027167 ], [ 117.312642642080192, 42.408671306170149 ], [ 117.312642709163995, 42.408684815004321 ], [ 117.312648785471794, 42.408684798432986 ], [ 117.312648852556933, 42.408698307267116 ], [ 117.312654928866053, 42.408698290695455 ], [ 117.312654995952542, 42.408711799529556 ], [ 117.312661072262927, 42.408711782957553 ], [ 117.31266113935078, 42.408725291791605 ], [ 117.312667215662458, 42.408725275219282 ], [ 117.312667238025526, 42.408729778163959 ] ] ] } }
]
}
