{
"type": "FeatureCollection",
"name": "tile_17_24",
"crs": { "type": "name", "properties": { "name": "urn:ogc:def:crs:OGC:1.3:CRS84" } },
"features": [
{ "type": "Feature", "properties": { "crown_id": 6785, "tree_id": "6791", "top_h_m": 21.508, "H_95_Mean": 21.7068, "DBH": 26.549, "Carbon_kg": 139.684307, "area_m2": 11.0 }, "geometry": { "type": "Polygon", "coordinates": [ [ [ 117.315789355048622, 42.408500573131775 ], [ 117.315819736489487, 42.408500489438246 ], [ 117.315819713901107, 42.408495986494749 ], [ 117.315825790188825, 42.40849596975508 ], [ 117.315825767600046, 42.408491466811569 ], [ 117.315831843887324, 42.408491450071587 ], [ 117.315831776119694, 42.408477941241088 ], [ 117.315819623547739, 42.408477974720739 ], [ 117.315819600959401, 42.408473471777221 ], [ 117.315795295817182, 42.408473538732629 ], [ 117.315795273230577, 42.408469035789103 ], [ 117.31578919694546, 42.408469052527145 ], [ 117.315789219531595, 42.408473555470678 ], [ 117.31577706696045, 42.408473588945803 ], [ 117.315777112131016, 42.408482594832869 ], [ 117.315783188417484, 42.408482578095445 ], [ 117.315783233588945, 42.408491583982496 ], [ 117.31578930987628, 42.408491567244752 ], [ 117.315789355048622, 42.408500573131775 ] ] ] } },
{ "type": "Feature", "properties": { "crown_id": 6802, "tree_id": "6808", "top_h_m": 20.27, "H_95_Mean": 20.3191, "DBH": 28.339, "Carbon_kg": 153.210835, "area_m2": 16.0 }, "geometry": { "type": "Polygon", "coordinates": [ [ [ 117.315989849955301, 42.408495517662224 ], [ 117.316008078818015, 42.408495467415193 ], [ 117.316008056216205, 42.408490964471774 ], [ 117.316032361364663, 42.408490897471239 ], [ 117.316032203139883, 42.408459376867292 ], [ 117.316013974287657, 42.408459427118117 ], [ 117.316013996889865, 42.408463930061558 ], [ 117.315983615467246, 42.408464013806523 ], [ 117.315983638067308, 42.40846851674997 ], [ 117.315977561782319, 42.408468533497995 ], [ 117.31597758438194, 42.40847303644145 ], [ 117.315965431811108, 42.408473069936541 ], [ 117.315965477008632, 42.408482075823443 ], [ 117.315971553294915, 42.40848205907605 ], [ 117.315971575894139, 42.40848656201949 ], [ 117.315977652180848, 42.408486545271764 ], [ 117.315977674780498, 42.408491048215197 ], [ 117.315989827354784, 42.408491014718798 ], [ 117.315989849955301, 42.408495517662224 ] ] ] } },
{ "type": "Feature", "properties": { "crown_id": 6811, "tree_id": "6817", "top_h_m": 19.917, "H_95_Mean": 19.6049, "DBH": 29.5097, "Carbon_kg": 162.753805, "area_m2": 20.0 }, "geometry": { "type": "Polygon", "coordinates": [ [ [ 117.315722561041127, 42.408509763116278 ], [ 117.31575901877568, 42.40850966270429 ], [ 117.315758973607629, 42.40850065681726 ], [ 117.315740744742996, 42.408500707024693 ], [ 117.315740699577589, 42.408491701137621 ], [ 117.315734623290226, 42.408491717872792 ], [ 117.315734555543472, 42.408478209042158 ], [ 117.315746708115569, 42.408478175571538 ], [ 117.31574668553246, 42.408473672627991 ], [ 117.315740609246831, 42.408473689363468 ], [ 117.315740518916172, 42.408455677589238 ], [ 117.315734442632277, 42.408455694324374 ], [ 117.315734465214504, 42.408460197267935 ], [ 117.315716236361538, 42.408460247471432 ], [ 117.315716213780618, 42.408455744527856 ], [ 117.315704061212799, 42.408455777995236 ], [ 117.315704038632759, 42.408451275051654 ], [ 117.315691886065807, 42.408451308517741 ], [ 117.315691840907448, 42.408442302630569 ], [ 117.315685764624831, 42.408442319363118 ], [ 117.315685877518561, 42.408464834081059 ], [ 117.315698030088143, 42.408464800615604 ], [ 117.315698142986335, 42.408487315333424 ], [ 117.315704219273286, 42.4084872986002 ], [ 117.315704241853368, 42.408491801543747 ], [ 117.315716394428136, 42.408491768076331 ], [ 117.315716462171039, 42.408505276906943 ], [ 117.315722538459696, 42.408505260172745 ], [ 117.315722561041127, 42.408509763116278 ] ] ] } },
{ "type": "Feature", "properties": { "crown_id": 6821, "tree_id": "6827", "top_h_m": 20.144, "H_95_Mean": 21.2807, "DBH": 22.0002, "Carbon_kg": 94.525246, "area_m2": 5.5 }, "geometry": { "type": "Polygon", "coordinates": [ [ [ 117.315746662949351, 42.408469169684444 ], [ 117.315783120660313, 42.408469069264868 ], [ 117.31578309807459, 42.408464566321335 ], [ 117.315789174359296, 42.408464549583613 ], [ 117.315789129187024, 42.408455543696526 ], [ 117.315776976619333, 42.408455577171637 ], [ 117.315776954034092, 42.408451074228097 ], [ 117.315764801467239, 42.408451107701914 ], [ 117.315764824051641, 42.408455610645461 ], [ 117.315746595200054, 42.408455660853775 ], [ 117.315746662949351, 42.408469169684444 ] ] ] } },
{ "type": "Feature", "properties": { "crown_id": 6838, "tree_id": "6844", "top_h_m": 22.91, "H_95_Mean": 22.98, "DBH": 25.3244, "Carbon_kg": 131.356951, "area_m2": 8.25 }, "geometry": { "type": "Polygon", "coordinates": [ [ [ 117.315825677244959, 42.408473455037559 ], [ 117.315831753530503, 42.408473438297577 ], [ 117.315831640584591, 42.408450923579998 ], [ 117.315825564301221, 42.408450940319945 ], [ 117.315825519123763, 42.408441934432894 ], [ 117.315801213993723, 42.408442001389517 ], [ 117.315801236580697, 42.408446504333057 ], [ 117.315795160297739, 42.408446521071419 ], [ 117.315795250644015, 42.408464532845571 ], [ 117.315801326928693, 42.408464516107202 ], [ 117.315801349515723, 42.408469019050735 ], [ 117.315825654656194, 42.408468952094047 ], [ 117.315825677244959, 42.408473455037559 ] ] ] } },
{ "type": "Feature", "properties": { "crown_id": 6839, "tree_id": "6845", "top_h_m": 21.308, "H_95_Mean": 22.4901, "DBH": 23.3382, "Carbon_kg": 110.008116, "area_m2": 6.25 }, "geometry": { "type": "Polygon", "coordinates": [ [ [ 117.315898570077138, 42.408468751193062 ], [ 117.315910722647232, 42.408468717705048 ], [ 117.31591054188867, 42.408432694157113 ], [ 117.315892313043946, 42.408432744388577 ], [ 117.315892426011501, 42.408455259106105 ], [ 117.315886349727762, 42.408455275849292 ], [ 117.315886394913932, 42.4084642817363 ], [ 117.315898547483172, 42.408464248249572 ], [ 117.315898570077138, 42.408468751193062 ] ] ] } },
{ "type": "Feature", "properties": { "crown_id": 6847, "tree_id": "6853", "top_h_m": 23.173, "H_95_Mean": 23.1934, "DBH": 33.216, "Carbon_kg": 228.175282, "area_m2": 23.25 }, "geometry": { "type": "Polygon", "coordinates": [ [ [ 117.315843906101563, 42.408473404816647 ], [ 117.315874287529141, 42.408473321108701 ], [ 117.315874242344677, 42.408464315221721 ], [ 117.315880318629311, 42.408464298479167 ], [ 117.315880250851336, 42.408450789648661 ], [ 117.315886327134677, 42.408450772905788 ], [ 117.315886281948508, 42.408441767018793 ], [ 117.315874129383587, 42.408441800504193 ], [ 117.315874106791398, 42.408437297560667 ], [ 117.315861954227344, 42.408437331044766 ], [ 117.315861931636022, 42.40843282810124 ], [ 117.315837626509563, 42.40843289506558 ], [ 117.315837558740853, 42.408419386234947 ], [ 117.31583148246051, 42.408419402975206 ], [ 117.315831437282256, 42.408410397088105 ], [ 117.315825361002794, 42.408410413828044 ], [ 117.315825338414101, 42.408405910884483 ], [ 117.315819262135093, 42.408405927624102 ], [ 117.315819307311585, 42.408414933511239 ], [ 117.315813231031683, 42.408414950250538 ], [ 117.315813208443871, 42.40841044730697 ], [ 117.315807132164409, 42.40841046404595 ], [ 117.315807109577023, 42.408405961102368 ], [ 117.315794957018923, 42.408405994579347 ], [ 117.315794979605442, 42.408410497522929 ], [ 117.315801055884904, 42.408410480784596 ], [ 117.315801101058838, 42.40841948667174 ], [ 117.315807177339167, 42.408419469933072 ], [ 117.315807245101396, 42.408432978763742 ], [ 117.315801168819732, 42.408432995502416 ], [ 117.31580119140672, 42.40843749844597 ], [ 117.315831572817089, 42.408437414749386 ], [ 117.315831617995428, 42.408446420636466 ], [ 117.315837694278358, 42.408446403896171 ], [ 117.315837807226416, 42.408468918613778 ], [ 117.315843883511505, 42.408468901873157 ], [ 117.315843906101563, 42.408473404816647 ] ] ] } },
{ "type": "Feature", "properties": { "crown_id": 6848, "tree_id": "6854", "top_h_m": 23.34, "H_95_Mean": 23.0374, "DBH": 33.202, "Carbon_kg": 227.073285, "area_m2": 23.5 }, "geometry": { "type": "Polygon", "coordinates": [ [ [ 117.315928996694609, 42.408477673357567 ], [ 117.315959378123992, 42.408477589627061 ], [ 117.315959332927363, 42.408468583740152 ], [ 117.315971485497343, 42.408468550245708 ], [ 117.31597137250148, 42.408446035528399 ], [ 117.31596529621865, 42.408446052275771 ], [ 117.315965228422499, 42.408432543445343 ], [ 117.315953075859468, 42.408432576939099 ], [ 117.315953008065975, 42.408419068108614 ], [ 117.31592870294503, 42.408419135092238 ], [ 117.315928748137239, 42.408428140979261 ], [ 117.315922671856114, 42.408428157724366 ], [ 117.315922694451785, 42.408432660667863 ], [ 117.315916618170235, 42.408432677412648 ], [ 117.315916821527537, 42.408473203904038 ], [ 117.315928974098469, 42.408473170414105 ], [ 117.315928996694609, 42.408477673357567 ] ] ] } },
{ "type": "Feature", "properties": { "crown_id": 6857, "tree_id": "6863", "top_h_m": 21.11, "H_95_Mean": 21.4399, "DBH": 19.6512, "Carbon_kg": 75.618417, "area_m2": 3.5 }, "geometry": { "type": "Polygon", "coordinates": [ [ [ 117.316013951685434, 42.408454924174677 ], [ 117.316032180536368, 42.408454873923851 ], [ 117.316032067518833, 42.408432359206621 ], [ 117.316025991237382, 42.408432375957211 ], [ 117.316026013840442, 42.408436878900666 ], [ 117.316019937558522, 42.408436895650929 ], [ 117.316019960161185, 42.408441398594377 ], [ 117.316007807596492, 42.408441432093952 ], [ 117.316007852800027, 42.408450437980861 ], [ 117.31601392908324, 42.40845042123123 ], [ 117.316013951685434, 42.408454924174677 ] ] ] } },
{ "type": "Feature", "properties": { "crown_id": 6865, "tree_id": "6871", "top_h_m": 18.34, "H_95_Mean": 18.2999, "DBH": 22.5518, "Carbon_kg": 90.878456, "area_m2": 8.0 }, "geometry": { "type": "Polygon", "coordinates": [ [ [ 117.315600832103598, 42.408469571246798 ], [ 117.315612984674189, 42.408469537790346 ], [ 117.315612962100644, 42.408465034846749 ], [ 117.315606885815811, 42.408465051575128 ], [ 117.315606795523394, 42.408447039800635 ], [ 117.315600719240294, 42.408447056528694 ], [ 117.315600674094995, 42.408438050641415 ], [ 117.315594597812719, 42.408438067369147 ], [ 117.31559455266833, 42.408429061481854 ], [ 117.315588476386935, 42.408429078209252 ], [ 117.315588498958689, 42.408433581152899 ], [ 117.315576346395019, 42.408433614606722 ], [ 117.315576368965907, 42.408438117550368 ], [ 117.315570292683645, 42.408438134276807 ], [ 117.315570337824568, 42.4084471401641 ], [ 117.315552108975083, 42.408447190341484 ], [ 117.31555213154428, 42.408451693285137 ], [ 117.31556428411146, 42.408451659833858 ], [ 117.315564306681523, 42.408456162777505 ], [ 117.315570382965547, 42.408456146051371 ], [ 117.315570360395057, 42.408451643107746 ], [ 117.315594665529375, 42.408451576200051 ], [ 117.315594733246058, 42.408465085030919 ], [ 117.315600809530949, 42.408465068303187 ], [ 117.315600832103598, 42.408469571246798 ] ] ] } },
{ "type": "Feature", "properties": { "crown_id": 6877, "tree_id": "6883", "top_h_m": 20.412, "H_95_Mean": 20.7343, "DBH": 27.7709, "Carbon_kg": 148.853839, "area_m2": 14.25 }, "geometry": { "type": "MultiPolygon", "coordinates": [ [ [ [ 117.315722290064514, 42.40845572779368 ], [ 117.315728366348409, 42.40845571105919 ], [ 117.315728343766622, 42.408451208115622 ], [ 117.315758725183827, 42.408451124438336 ], [ 117.315758702599865, 42.408446621494768 ], [ 117.315783007731795, 42.408446554547155 ], [ 117.315783030317505, 42.408451057490709 ], [ 117.315789106600889, 42.408451040752993 ], [ 117.315789061428646, 42.408442034865899 ], [ 117.315795137711163, 42.408442018127865 ], [ 117.315795069951534, 42.408428509297202 ], [ 117.315776841107862, 42.408428559510298 ], [ 117.315776818522608, 42.408424056566723 ], [ 117.315764665960998, 42.408424090040512 ], [ 117.315764711129731, 42.408433095927663 ], [ 117.315752558566345, 42.408433129400166 ], [ 117.315752581149866, 42.408437632343734 ], [ 117.315734352303437, 42.408437682550087 ], [ 117.315734329721238, 42.408433179606511 ], [ 117.315728253439531, 42.408433196341306 ], [ 117.315728276021289, 42.408437699284889 ], [ 117.31569789461048, 42.408437782954088 ], [ 117.315697939769677, 42.408446788841275 ], [ 117.315710092335735, 42.408446755374555 ], [ 117.315710114916229, 42.408451258318131 ], [ 117.315722267483153, 42.408451224850111 ], [ 117.315722290064514, 42.40845572779368 ] ] ], [ [ [ 117.315795069951534, 42.408428509297202 ], [ 117.315801146232758, 42.408428492558855 ], [ 117.315801123645784, 42.408423989615294 ], [ 117.315795047365015, 42.408424006353627 ], [ 117.315795069951534, 42.408428509297202 ] ] ] ] } },
{ "type": "Feature", "properties": { "crown_id": 6884, "tree_id": "6890", "top_h_m": 17.896, "H_95_Mean": 18.4007, "DBH": 31.1515, "Carbon_kg": 174.839945, "area_m2": 27.75 }, "geometry": { "type": "Polygon", "coordinates": [ [ [ 117.315619060959492, 42.408469521061654 ], [ 117.315637289815328, 42.408469470873605 ], [ 117.315637267240035, 42.408464967930001 ], [ 117.315649419809702, 42.408464934469698 ], [ 117.315649374657411, 42.408455928582498 ], [ 117.315667603509254, 42.408455878389653 ], [ 117.315667580931816, 42.408451375446049 ], [ 117.315679733498825, 42.408451341982548 ], [ 117.315679643185632, 42.40843333020814 ], [ 117.315685719467382, 42.408433313475925 ], [ 117.315685674309947, 42.408424307588696 ], [ 117.315661369186401, 42.408424374515654 ], [ 117.315661324032448, 42.408415368628397 ], [ 117.31563701891227, 42.408415435550182 ], [ 117.315637041487491, 42.408419938493822 ], [ 117.315600583804468, 42.408420038866844 ], [ 117.315600651522359, 42.40843354769779 ], [ 117.31560672780418, 42.408433530969745 ], [ 117.315606772950318, 42.408442536857017 ], [ 117.31561284923302, 42.408442520128652 ], [ 117.315612939527114, 42.408460531903131 ], [ 117.315619015811535, 42.408460515174433 ], [ 117.315619060959492, 42.408469521061654 ] ] ] } },
{ "type": "Feature", "properties": { "crown_id": 6903, "tree_id": "6909", "top_h_m": 20.496, "H_95_Mean": 21.7467, "DBH": 23.8662, "Carbon_kg": 112.816576, "area_m2": 7.25 }, "geometry": { "type": "Polygon", "coordinates": [ [ [ 117.315880183073432, 42.408437280818127 ], [ 117.315886259355452, 42.408437264075268 ], [ 117.315886191576283, 42.408423755244705 ], [ 117.31588011529557, 42.408423771987565 ], [ 117.31588009270294, 42.408419269044025 ], [ 117.315867940142368, 42.408419302528749 ], [ 117.315867894958899, 42.408410296641684 ], [ 117.315861818679451, 42.408410313383563 ], [ 117.315861796088186, 42.408405810440001 ], [ 117.315843567251164, 42.408405860663684 ], [ 117.315843589841151, 42.408410363607253 ], [ 117.315837513561704, 42.408410380347838 ], [ 117.315837536151278, 42.408414883291393 ], [ 117.315843612431152, 42.408414866550793 ], [ 117.315843680201169, 42.40842837538144 ], [ 117.315867985325866, 42.408428308415829 ], [ 117.315868007917629, 42.408432811359361 ], [ 117.315880160480788, 42.408432777874609 ], [ 117.315880183073432, 42.408437280818127 ] ] ] } },
{ "type": "Feature", "properties": { "crown_id": 6914, "tree_id": "6920", "top_h_m": 19.596, "H_95_Mean": 20.4244, "DBH": 26.3793, "Carbon_kg": 133.012555, "area_m2": 12.0 }, "geometry": { "type": "Polygon", "coordinates": [ [ [ 117.315703948312617, 42.408433263277296 ], [ 117.315722177157795, 42.408433213075789 ], [ 117.315722154576463, 42.408428710132206 ], [ 117.315734307139053, 42.408428676662929 ], [ 117.315734239392498, 42.408415167832146 ], [ 117.315703857992574, 42.40841525150288 ], [ 117.315703835412563, 42.408410748559277 ], [ 117.315697759133002, 42.408410765292459 ], [ 117.315697736553432, 42.408406262348841 ], [ 117.315691660274311, 42.408406279081689 ], [ 117.315691615116066, 42.408397273194453 ], [ 117.315667310002937, 42.408397340122626 ], [ 117.315667287425583, 42.40839283717898 ], [ 117.315661211147713, 42.408392853910215 ], [ 117.315661301455492, 42.408410865684772 ], [ 117.315667377735082, 42.40841084895353 ], [ 117.315667422889874, 42.40841985484078 ], [ 117.315673499170344, 42.408419838109197 ], [ 117.315673476592508, 42.408415335165571 ], [ 117.315685629152554, 42.408415301701467 ], [ 117.315685651731243, 42.408419804645092 ], [ 117.3156917280117, 42.408419787912543 ], [ 117.315691773169988, 42.408428793799757 ], [ 117.315703925732592, 42.408428760333706 ], [ 117.315703948312617, 42.408433263277296 ] ], [ [ 117.315673431436863, 42.408406329278328 ], [ 117.315673408859055, 42.408401826334689 ], [ 117.315679485137764, 42.408401809602807 ], [ 117.315679507716013, 42.408406312546433 ], [ 117.315673431436863, 42.408406329278328 ] ] ] } },
{ "type": "Feature", "properties": { "crown_id": 6915, "tree_id": "6921", "top_h_m": 21.049, "H_95_Mean": 20.9575, "DBH": 32.094, "Carbon_kg": 200.517126, "area_m2": 24.5 }, "geometry": { "type": "Polygon", "coordinates": [ [ [ 117.315740406002945, 42.408433162871376 ], [ 117.315746482284666, 42.408433146135927 ], [ 117.315746459701572, 42.408428643192359 ], [ 117.315758612264105, 42.408428609720495 ], [ 117.315758567096253, 42.408419603833337 ], [ 117.315782872217753, 42.408419536885781 ], [ 117.315782894803434, 42.408424039829349 ], [ 117.315788971084231, 42.408424023091655 ], [ 117.31578894849811, 42.408419520148087 ], [ 117.315795024778467, 42.408419503410066 ], [ 117.315795002191962, 42.408415000466505 ], [ 117.315788925912031, 42.408415017204518 ], [ 117.315788858153795, 42.408401508373778 ], [ 117.315746324203303, 42.4084016255308 ], [ 117.31574627903727, 42.408392619643593 ], [ 117.315740202759471, 42.408392636379013 ], [ 117.315740225342054, 42.408397139322624 ], [ 117.315721996507349, 42.408397189526973 ], [ 117.315721973926074, 42.408392686583355 ], [ 117.315715897648261, 42.408392703317496 ], [ 117.315715852486576, 42.408383697430232 ], [ 117.315709776209616, 42.408383714164046 ], [ 117.315709708468432, 42.408370205333121 ], [ 117.315697555917126, 42.408370238799755 ], [ 117.315697533337641, 42.408365735856115 ], [ 117.315691457062385, 42.408365752588942 ], [ 117.315691434483327, 42.408361249645282 ], [ 117.31568535820854, 42.408361266377796 ], [ 117.315685380787173, 42.408365769321449 ], [ 117.315679304511917, 42.408365786053636 ], [ 117.315679349668372, 42.40837479194095 ], [ 117.315685425944451, 42.408374775208763 ], [ 117.315685448523112, 42.408379278152402 ], [ 117.315673295970015, 42.408379311616478 ], [ 117.315673363703425, 42.408392820447418 ], [ 117.315697668814792, 42.408392753517965 ], [ 117.315697713973876, 42.408401759405209 ], [ 117.315703790252584, 42.408401742672048 ], [ 117.315703812832567, 42.408406245615666 ], [ 117.315709889111702, 42.408406228882157 ], [ 117.31570991169211, 42.408410731825775 ], [ 117.315740293089846, 42.408410648153442 ], [ 117.315740406002945, 42.408433162871376 ] ] ] } },
{ "type": "Feature", "properties": { "crown_id": 6916, "tree_id": "6922", "top_h_m": 22.506, "H_95_Mean": 22.619, "DBH": 30.8409, "Carbon_kg": 193.591964, "area_m2": 18.25 }, "geometry": { "type": "Polygon", "coordinates": [ [ [ 117.315977516583104, 42.408459527611093 ], [ 117.316007898003576, 42.408459443867763 ], [ 117.316007875401795, 42.408454940924308 ], [ 117.316001799118155, 42.408454957673612 ], [ 117.316001708712818, 42.408436945899794 ], [ 117.316013861276645, 42.408436912400866 ], [ 117.316013838674451, 42.408432409457411 ], [ 117.316019914955902, 42.408432392707468 ], [ 117.31601989235331, 42.408427889764013 ], [ 117.316013816072257, 42.408427906513957 ], [ 117.316013770867897, 42.408418900627005 ], [ 117.316007694587739, 42.408418917376615 ], [ 117.316007626782536, 42.408405408546166 ], [ 117.316001550503685, 42.408405425295449 ], [ 117.316001505301102, 42.408396419408469 ], [ 117.315995429023104, 42.408396436157432 ], [ 117.31599540642226, 42.40839193321392 ], [ 117.315983253867088, 42.408391966710859 ], [ 117.315983299067042, 42.40840097259786 ], [ 117.31597722278859, 42.40840098934585 ], [ 117.315977267987691, 42.408409995232859 ], [ 117.315971191708343, 42.408410011980529 ], [ 117.315971214307481, 42.408414514924019 ], [ 117.315965138027707, 42.408414531671369 ], [ 117.315965160626391, 42.408419034614866 ], [ 117.315959084346176, 42.408419051361911 ], [ 117.315959129542705, 42.408428057248898 ], [ 117.315971282104869, 42.408428023754489 ], [ 117.315971349902313, 42.408441532584931 ], [ 117.315977426184688, 42.408441515837232 ], [ 117.315977403585094, 42.408437012893764 ], [ 117.315995632430884, 42.408436962648764 ], [ 117.315995700233586, 42.408450471479156 ], [ 117.315977471383874, 42.40845052172417 ], [ 117.315977516583104, 42.408459527611093 ] ] ] } },
{ "type": "Feature", "properties": { "crown_id": 6932, "tree_id": "6938", "top_h_m": 19.59, "H_95_Mean": 19.2658, "DBH": 23.8243, "Carbon_kg": 104.645441, "area_m2": 9.0 }, "geometry": { "type": "Polygon", "coordinates": [ [ [ 117.315606637511948, 42.408415519195167 ], [ 117.315630942632211, 42.408415452279826 ], [ 117.31563092005743, 42.408410949336179 ], [ 117.315649148896298, 42.408410899146304 ], [ 117.31564912632021, 42.408406396202658 ], [ 117.315655202599373, 42.408406379472055 ], [ 117.315655112293356, 42.408388367697469 ], [ 117.315661188570786, 42.408388350966568 ], [ 117.315661165993859, 42.408383848022915 ], [ 117.315655089716856, 42.408383864753823 ], [ 117.315655067140369, 42.408379361810169 ], [ 117.315648990863792, 42.408379378540758 ], [ 117.315649013439852, 42.408383881484411 ], [ 117.315642937162849, 42.408383898214673 ], [ 117.315642959738483, 42.408388401158341 ], [ 117.315636883461025, 42.408388417888276 ], [ 117.315636906036218, 42.408392920831943 ], [ 117.315630829758348, 42.408392937561565 ], [ 117.315630852333115, 42.408397440505226 ], [ 117.31562477605479, 42.408397457234535 ], [ 117.315624798629116, 42.408401960178189 ], [ 117.31560656979282, 42.408402010364185 ], [ 117.315606592365853, 42.408406513307852 ], [ 117.315600516086633, 42.408406530035869 ], [ 117.31560053865924, 42.408411032979544 ], [ 117.315606614938886, 42.408411016251513 ], [ 117.315606637511948, 42.408415519195167 ] ] ] } },
{ "type": "Feature", "properties": { "crown_id": 6933, "tree_id": "6939", "top_h_m": 21.159, "H_95_Mean": 21.2528, "DBH": 26.5878, "Carbon_kg": 138.355529, "area_m2": 11.5 }, "geometry": { "type": "Polygon", "coordinates": [ [ [ 117.315892290450464, 42.408428241445066 ], [ 117.31591659557499, 42.408428174469144 ], [ 117.315916572979759, 42.40842367152564 ], [ 117.315922649260457, 42.408423654780847 ], [ 117.315922604069144, 42.408414648893839 ], [ 117.315916527789327, 42.408414665638603 ], [ 117.31591646000372, 42.408401156808033 ], [ 117.315922536282216, 42.408401140063262 ], [ 117.315922513686587, 42.408396637119743 ], [ 117.315904284852351, 42.408396687353068 ], [ 117.315904239663723, 42.408387681465982 ], [ 117.315898163386493, 42.408387698209779 ], [ 117.315898185980359, 42.408392201153319 ], [ 117.315892109702716, 42.408392217896797 ], [ 117.315892132296156, 42.408396720840344 ], [ 117.315886056018059, 42.408396737583494 ], [ 117.315886078611072, 42.408401240527049 ], [ 117.315867849775429, 42.408401290754597 ], [ 117.315867872367164, 42.40840579369813 ], [ 117.315873948646157, 42.408405776955938 ], [ 117.315873993830493, 42.408414782843025 ], [ 117.315886146390199, 42.408414749357654 ], [ 117.315886168983226, 42.408419252301179 ], [ 117.315892245263512, 42.408419235558014 ], [ 117.315892290450464, 42.408428241445066 ] ] ] } },
{ "type": "Feature", "properties": { "crown_id": 6934, "tree_id": "6940", "top_h_m": 23.415, "H_95_Mean": 23.5305, "DBH": 23.3338, "Carbon_kg": 112.947292, "area_m2": 5.75 }, "geometry": { "type": "MultiPolygon", "coordinates": [ [ [ [ 117.316007558977418, 42.408391899715696 ], [ 117.316007604180825, 42.40840090560269 ], [ 117.316013680459264, 42.40840088885308 ], [ 117.316013748265732, 42.408414397683529 ], [ 117.316019824545464, 42.408414380933607 ], [ 117.316019869750676, 42.408423386820537 ], [ 117.316025946031274, 42.408423370070288 ], [ 117.316025968634321, 42.408427873013757 ], [ 117.316032044915346, 42.408427856263174 ], [ 117.316031864087634, 42.408391832715395 ], [ 117.316007558977418, 42.408391899715696 ] ] ], [ [ [ 117.316007558977418, 42.408391899715696 ], [ 117.316007536375707, 42.408387396772198 ], [ 117.316001460098576, 42.408387413521467 ], [ 117.316001482699832, 42.408391916464979 ], [ 117.316007558977418, 42.408391899715696 ] ] ] ] } },
{ "type": "Feature", "properties": { "crown_id": 6944, "tree_id": "6950", "top_h_m": 22.827, "H_95_Mean": 22.2126, "DBH": 39.7961, "Carbon_kg": 320.163676, "area_m2": 50.75 }, "geometry": { "type": "Polygon", "coordinates": [ [ [ 117.315533902693431, 42.408451743459622 ], [ 117.315539978977043, 42.408451726735109 ], [ 117.315539956408742, 42.40844722379147 ], [ 117.315546032691927, 42.408447207066637 ], [ 117.315546010123199, 42.408442704122983 ], [ 117.315564238971376, 42.40844265394658 ], [ 117.315564193831321, 42.408433648059273 ], [ 117.315570270113184, 42.40843363133316 ], [ 117.315570247542723, 42.4084291283895 ], [ 117.315582400105527, 42.408429094936324 ], [ 117.315582377534199, 42.408424591992663 ], [ 117.315594530096135, 42.408424558538201 ], [ 117.315594417235246, 42.408402043819912 ], [ 117.31560049351404, 42.408402027092215 ], [ 117.315600470941433, 42.408397524148548 ], [ 117.315618699776465, 42.408397473963518 ], [ 117.315618677202565, 42.408392971019865 ], [ 117.315624753480463, 42.408392954290875 ], [ 117.315624730906123, 42.408388451347207 ], [ 117.315630807183581, 42.408388434617898 ], [ 117.315630784608828, 42.408383931674251 ], [ 117.315636860885846, 42.408383914944622 ], [ 117.315636838310652, 42.408379412000954 ], [ 117.315642914587229, 42.40837939527102 ], [ 117.315642892011624, 42.408374892327345 ], [ 117.315636815735488, 42.408374909057279 ], [ 117.315636793160309, 42.408370406113612 ], [ 117.315612488057425, 42.408370473030139 ], [ 117.315612465484008, 42.408365970086457 ], [ 117.315576007832121, 42.408366070451557 ], [ 117.315575985261304, 42.408361567507853 ], [ 117.315563832711518, 42.408361600960305 ], [ 117.315563810141569, 42.408357098016594 ], [ 117.315557733867109, 42.408357114742337 ], [ 117.315557756436604, 42.40836161768604 ], [ 117.315545603886804, 42.408361651136566 ], [ 117.315545626455432, 42.408366154080284 ], [ 117.315527397629367, 42.40836620425366 ], [ 117.315527442764051, 42.408375210141109 ], [ 117.315515290211579, 42.408375243588424 ], [ 117.315515312778075, 42.408379746532148 ], [ 117.315521389054737, 42.408379729808651 ], [ 117.31552141162166, 42.408384232752361 ], [ 117.31553356417588, 42.408384199304386 ], [ 117.315533654447108, 42.408402211079199 ], [ 117.315539730725945, 42.408402194354714 ], [ 117.31553991127214, 42.408438217904134 ], [ 117.315533834989822, 42.408438234628633 ], [ 117.315533902693431, 42.408451743459622 ] ] ] } },
{ "type": "Feature", "properties": { "crown_id": 6973, "tree_id": "6979", "top_h_m": 22.274, "H_95_Mean": 22.4073, "DBH": 24.6251, "Carbon_kg": 122.309352, "area_m2": 7.75 }, "geometry": { "type": "Polygon", "coordinates": [ [ [ 117.315728050203873, 42.408392669848894 ], [ 117.315734126481686, 42.408392653114113 ], [ 117.315734103899516, 42.408388150170488 ], [ 117.315740180176903, 42.408388133435402 ], [ 117.315740067264059, 42.408365618717269 ], [ 117.315733990988861, 42.408365635452348 ], [ 117.315733968406747, 42.408361132508723 ], [ 117.315727892131974, 42.408361149243483 ], [ 117.315727869550315, 42.408356646299836 ], [ 117.315721793275998, 42.408356663034276 ], [ 117.315721748113518, 42.408347657146969 ], [ 117.315715671840053, 42.408347673881075 ], [ 117.315715717001666, 42.408356679768382 ], [ 117.315697488178614, 42.408356729968794 ], [ 117.315697510758113, 42.408361232912455 ], [ 117.3157035870329, 42.408361216179308 ], [ 117.315703609612854, 42.408365719122955 ], [ 117.315715762163279, 42.408365685655681 ], [ 117.315715829905727, 42.408379194486606 ], [ 117.315721906182247, 42.408379177752472 ], [ 117.315721951344798, 42.408388183639723 ], [ 117.315728027622157, 42.408388166905269 ], [ 117.315728050203873, 42.408392669848894 ] ] ] } },
{ "type": "Feature", "properties": { "crown_id": 6974, "tree_id": "6980", "top_h_m": 23.224, "H_95_Mean": 22.6619, "DBH": 36.0969, "Carbon_kg": 266.145057, "area_m2": 33.5 }, "geometry": { "type": "Polygon", "coordinates": [ [ [ 117.31583141469315, 42.408405894144536 ], [ 117.315837490972157, 42.408405877404277 ], [ 117.315837468382611, 42.408401374460709 ], [ 117.315861773496877, 42.408401307496455 ], [ 117.315861750905597, 42.408396804552901 ], [ 117.315879979739947, 42.408396754326333 ], [ 117.315879957147374, 42.408392251382786 ], [ 117.315886033425031, 42.408392234639948 ], [ 117.315886010832031, 42.408387731696394 ], [ 117.315892087109262, 42.408387714953243 ], [ 117.31589201932897, 42.408374206122588 ], [ 117.315873790501144, 42.408374256351053 ], [ 117.315873700132698, 42.408356244576744 ], [ 117.315867623858495, 42.408356261318907 ], [ 117.315867601266817, 42.408351758375311 ], [ 117.315861524993039, 42.408351775117147 ], [ 117.315861502401816, 42.408347272173565 ], [ 117.315855426128479, 42.408347288915088 ], [ 117.315855448719276, 42.408351791858678 ], [ 117.315837219897887, 42.408351842081309 ], [ 117.315837197308383, 42.408347339137705 ], [ 117.315818968488273, 42.408347389357424 ], [ 117.315819036252833, 42.408360898188249 ], [ 117.315806883703473, 42.408360931666465 ], [ 117.315806928878132, 42.40836993755368 ], [ 117.315800852602578, 42.408369954292304 ], [ 117.315800897776384, 42.408378960179498 ], [ 117.315806974052819, 42.408378943440866 ], [ 117.31580706440225, 42.408396955215217 ], [ 117.315800988124082, 42.40839697195387 ], [ 117.315801010711027, 42.408401474897445 ], [ 117.31583139210403, 42.408401391200975 ], [ 117.31583141469315, 42.408405894144536 ] ] ] } },
{ "type": "Feature", "properties": { "crown_id": 6985, "tree_id": "6991", "top_h_m": 22.267, "H_95_Mean": 22.4114, "DBH": 32.9521, "Carbon_kg": 220.027221, "area_m2": 24.0 }, "geometry": { "type": "Polygon", "coordinates": [ [ [ 117.315752377898491, 42.408397105851449 ], [ 117.315794911845913, 42.408396988692196 ], [ 117.315794889259422, 42.4083924857486 ], [ 117.31580096553715, 42.408392469010288 ], [ 117.315800920363301, 42.408383463123101 ], [ 117.315794844086426, 42.408383479861421 ], [ 117.315794753740533, 42.408365468087005 ], [ 117.315800830015661, 42.408365451348701 ], [ 117.31580076225498, 42.408351942517854 ], [ 117.315770380885766, 42.408352026206124 ], [ 117.315770358301052, 42.408347523262492 ], [ 117.315764282027644, 42.408347539999184 ], [ 117.31576425944337, 42.408343037055538 ], [ 117.315758183170388, 42.408343053791903 ], [ 117.315758205754207, 42.408347556735542 ], [ 117.31574605320732, 42.408347590207313 ], [ 117.315746030624368, 42.408343087263667 ], [ 117.315727801805323, 42.408343137468883 ], [ 117.315727846968642, 42.40835214335619 ], [ 117.315733923242533, 42.408352126621431 ], [ 117.315733945824647, 42.408356629565077 ], [ 117.31574002209895, 42.408356612829998 ], [ 117.315740044681505, 42.408361115773644 ], [ 117.315746120956248, 42.408361099038238 ], [ 117.315746233871224, 42.408383613756364 ], [ 117.315752310148156, 42.408383597020624 ], [ 117.315752377898491, 42.408397105851449 ] ] ] } },
{ "type": "Feature", "properties": { "crown_id": 6990, "tree_id": "6996", "top_h_m": 21.3, "H_95_Mean": 22.0627, "DBH": 22.6364, "Carbon_kg": 102.275323, "area_m2": 5.75 }, "geometry": { "type": "Polygon", "coordinates": [ [ [ 117.315898140792612, 42.408383195266225 ], [ 117.315928522176506, 42.40838311154404 ], [ 117.315928499580451, 42.408378608600515 ], [ 117.315934575856787, 42.408378591855111 ], [ 117.315934530663853, 42.408369585968018 ], [ 117.315928454388384, 42.408369602713414 ], [ 117.315928409196331, 42.408360596826313 ], [ 117.315910180372526, 42.408360647060555 ], [ 117.31591020296726, 42.408365150004116 ], [ 117.315904126692217, 42.408365166748204 ], [ 117.315904171880803, 42.408374172635334 ], [ 117.315898095604865, 42.408374189379124 ], [ 117.315898140792612, 42.408383195266225 ] ] ] } },
{ "type": "Feature", "properties": { "crown_id": 6991, "tree_id": "6997", "top_h_m": 22.25, "H_95_Mean": 23.0076, "DBH": 27.2879, "Carbon_kg": 152.800804, "area_m2": 11.0 }, "geometry": { "type": "Polygon", "coordinates": [ [ [ 117.316013612652839, 42.40838738002261 ], [ 117.316031841484204, 42.408387329771898 ], [ 117.316031660656833, 42.408351306223871 ], [ 117.315989126741258, 42.408351423470862 ], [ 117.315989194542368, 42.408364932301446 ], [ 117.315995270817325, 42.408364915552845 ], [ 117.315995338619786, 42.408378424383393 ], [ 117.31600141489605, 42.408378407634459 ], [ 117.316001369693552, 42.408369401747414 ], [ 117.31600744596895, 42.408369384998167 ], [ 117.316007513773997, 42.408382893828694 ], [ 117.316013590050687, 42.408382877079106 ], [ 117.316013612652839, 42.40838738002261 ] ] ] } },
{ "type": "Feature", "properties": { "crown_id": 6999, "tree_id": "7005", "top_h_m": 21.317, "H_95_Mean": 22.058, "DBH": 34.1089, "Carbon_kg": 233.665716, "area_m2": 28.25 }, "geometry": { "type": "Polygon", "coordinates": [ [ [ 117.315928680348947, 42.408414632148727 ], [ 117.315959061747932, 42.408414548418406 ], [ 117.315959039149661, 42.408410045474902 ], [ 117.315965115428995, 42.408410028727879 ], [ 117.315965092830325, 42.40840552578436 ], [ 117.315971169109233, 42.408405509037017 ], [ 117.315971123910998, 42.408396503150016 ], [ 117.315977200189053, 42.408396486402353 ], [ 117.31597715498998, 42.40838748051533 ], [ 117.315995383821416, 42.408387430270416 ], [ 117.315995361220601, 42.408382927326912 ], [ 117.315989284943882, 42.408382944075527 ], [ 117.315989217142729, 42.408369435244971 ], [ 117.315983140867331, 42.408369451993273 ], [ 117.315983073067514, 42.408355943162682 ], [ 117.315970920519291, 42.408355976658292 ], [ 117.315970897920224, 42.408351473714738 ], [ 117.315958745372868, 42.408351507209055 ], [ 117.315958632382006, 42.408328992491249 ], [ 117.315952556110474, 42.40832900923791 ], [ 117.315952533512757, 42.408324506294335 ], [ 117.315946457241665, 42.408324523040676 ], [ 117.315946525033524, 42.408338031871395 ], [ 117.31594044876114, 42.408338048617409 ], [ 117.315940516551734, 42.4083515574481 ], [ 117.315934440278042, 42.408351574193802 ], [ 117.315934508067386, 42.408365083024471 ], [ 117.3159405843424, 42.408365066278755 ], [ 117.31594067473003, 42.408383078052921 ], [ 117.315934598453254, 42.408383094798644 ], [ 117.315934621049749, 42.40838759774217 ], [ 117.315910315940926, 42.408387664721872 ], [ 117.315910338535687, 42.408392167665404 ], [ 117.315928567368601, 42.40839211743112 ], [ 117.315928635156808, 42.40840562626169 ], [ 117.315922558877844, 42.408405643006787 ], [ 117.315922581473501, 42.408410145950313 ], [ 117.315928657752863, 42.408410129205215 ], [ 117.315928680348947, 42.408414632148727 ] ], [ [ 117.315934711435744, 42.408405609516272 ], [ 117.315934643646244, 42.40839210068571 ], [ 117.315952872479102, 42.408392050447553 ], [ 117.315952940272496, 42.408405559278101 ], [ 117.315934711435744, 42.408405609516272 ] ] ] } },
{ "type": "Feature", "properties": { "crown_id": 7034, "tree_id": "7040", "top_h_m": 21.21, "H_95_Mean": 21.8729, "DBH": 24.7415, "Carbon_kg": 121.727041, "area_m2": 8.25 }, "geometry": { "type": "Polygon", "coordinates": [ [ [ 117.315879844184522, 42.408369736664973 ], [ 117.315898073011027, 42.408369686435549 ], [ 117.315898027823309, 42.408360680548427 ], [ 117.315904104097925, 42.408360663804658 ], [ 117.315904036315104, 42.408347154973931 ], [ 117.315897960041795, 42.408347171717701 ], [ 117.315897937447971, 42.408342668774125 ], [ 117.315891861175089, 42.408342685517567 ], [ 117.315891793394925, 42.408329176686784 ], [ 117.315879640851762, 42.408329210172695 ], [ 117.315879663444264, 42.408333713116292 ], [ 117.315873587172248, 42.408333729858768 ], [ 117.31587360976431, 42.408338232802372 ], [ 117.31586753349184, 42.408338249544528 ], [ 117.315867578675153, 42.408347255431728 ], [ 117.31587365494849, 42.408347238689572 ], [ 117.31587367754058, 42.408351741633155 ], [ 117.315879753814357, 42.408351724890672 ], [ 117.315879844184522, 42.408369736664973 ] ] ] } },
{ "type": "Feature", "properties": { "crown_id": 7040, "tree_id": "7046", "top_h_m": 12.42, "H_95_Mean": 13.565, "DBH": 18.114, "Carbon_kg": 48.949269, "area_m2": 6.0 }, "geometry": { "type": "Polygon", "coordinates": [ [ [ 117.31558206153619, 42.408361550781137 ], [ 117.315588137811076, 42.408361534054109 ], [ 117.315588070096055, 42.408348025222963 ], [ 117.315600222643184, 42.408347991767961 ], [ 117.315600132353097, 42.408329979993098 ], [ 117.315594056081252, 42.408329996720759 ], [ 117.315594078653348, 42.408334499664477 ], [ 117.31557584983652, 42.408334549845527 ], [ 117.315575894978096, 42.408343555732984 ], [ 117.315563742431777, 42.408343589185421 ], [ 117.315563765001713, 42.408348092129138 ], [ 117.315557688728092, 42.408348108854881 ], [ 117.315557711297615, 42.408352611798598 ], [ 117.315569863845667, 42.4083525783468 ], [ 117.315569886416057, 42.408357081290525 ], [ 117.315582038964962, 42.408357047837434 ], [ 117.31558206153619, 42.408361550781137 ] ] ] } },
{ "type": "Feature", "properties": { "crown_id": 7046, "tree_id": "7052", "top_h_m": 20.93, "H_95_Mean": 21.3536, "DBH": 26.6473, "Carbon_kg": 139.369773, "area_m2": 11.5 }, "geometry": { "type": "Polygon", "coordinates": [ [ [ 117.315976974193916, 42.408351456967097 ], [ 117.315983050467594, 42.408351440219143 ], [ 117.315983027867688, 42.408346937275603 ], [ 117.316013409233818, 42.408346853530986 ], [ 117.316013386631724, 42.408342350587446 ], [ 117.316007310358955, 42.408342367337006 ], [ 117.316007219952397, 42.40832435556284 ], [ 117.316001143681348, 42.408324372312073 ], [ 117.316001098478978, 42.408315366424951 ], [ 117.315988945938585, 42.408315399922436 ], [ 117.315988923338267, 42.408310896978875 ], [ 117.315982847068526, 42.408310913727135 ], [ 117.315982869668403, 42.40831541667071 ], [ 117.315976793398193, 42.40831543341865 ], [ 117.31597681599763, 42.408319936362211 ], [ 117.315970739726993, 42.408319953109824 ], [ 117.315970784925042, 42.408328958996968 ], [ 117.315964708653539, 42.408328975744276 ], [ 117.315964799047933, 42.408346987518513 ], [ 117.315976951594422, 42.408346954023564 ], [ 117.315976974193916, 42.408351456967097 ] ] ] } },
{ "type": "Feature", "properties": { "crown_id": 7055, "tree_id": "7061", "top_h_m": 21.33, "H_95_Mean": 22.0236, "DBH": 29.4403, "Carbon_kg": 173.521351, "area_m2": 16.0 }, "geometry": { "type": "Polygon", "coordinates": [ [ [ 117.315910157777822, 42.408356144116979 ], [ 117.315928386600319, 42.408356093882759 ], [ 117.315928341408309, 42.408347087995629 ], [ 117.315934417681589, 42.408347071250247 ], [ 117.315934349892302, 42.408333562419529 ], [ 117.315940426164261, 42.408333545673827 ], [ 117.315940380970559, 42.408324539786683 ], [ 117.315934304699468, 42.408324556532371 ], [ 117.315934282103044, 42.408320053588788 ], [ 117.315916053290991, 42.408320103823918 ], [ 117.31591591772046, 42.408293086162303 ], [ 117.315909841452367, 42.40829310290669 ], [ 117.315909864047001, 42.408297605850294 ], [ 117.315891635241414, 42.408297656081523 ], [ 117.315891612648073, 42.408293153137905 ], [ 117.31588553637998, 42.408293169880992 ], [ 117.315885626751623, 42.408311181655485 ], [ 117.315897779291305, 42.408311148168941 ], [ 117.315897914854133, 42.408338165830543 ], [ 117.315903991126575, 42.408338149086767 ], [ 117.315904013720825, 42.408342652030363 ], [ 117.315910089993707, 42.40834263528626 ], [ 117.315910157777822, 42.408356144116979 ] ] ] } },
{ "type": "Feature", "properties": { "crown_id": 7056, "tree_id": "7062", "top_h_m": 22.177, "H_95_Mean": 22.4413, "DBH": 22.2903, "Carbon_kg": 100.150892, "area_m2": 5.25 }, "geometry": { "type": "Polygon", "coordinates": [ [ [ 117.316019485507027, 42.408346836781092 ], [ 117.316031638053445, 42.408346803280338 ], [ 117.316031457226472, 42.408310779732041 ], [ 117.316025380956745, 42.40831079648256 ], [ 117.316025403559649, 42.408315299426114 ], [ 117.31600717474916, 42.408315349675725 ], [ 117.316007197350757, 42.408319852619279 ], [ 117.31601327362138, 42.408319835869719 ], [ 117.316013364029658, 42.408337847643907 ], [ 117.316019440302014, 42.40833783089402 ], [ 117.316019485507027, 42.408346836781092 ] ] ] } },
{ "type": "Feature", "properties": { "crown_id": 7080, "tree_id": "7086", "top_h_m": 21.33, "H_95_Mean": 21.785, "DBH": 22.99, "Carbon_kg": 104.733273, "area_m2": 6.25 }, "geometry": { "type": "MultiPolygon", "coordinates": [ [ [ [ 117.315794663394712, 42.408347456312541 ], [ 117.3158068159415, 42.408347422835625 ], [ 117.315806793354184, 42.408342919892 ], [ 117.31582502217303, 42.408342869674222 ], [ 117.315824999584422, 42.408338366730604 ], [ 117.31583107585692, 42.4083383499907 ], [ 117.315831008089845, 42.408324841159839 ], [ 117.315837084361036, 42.408324824419623 ], [ 117.315837039182128, 42.408315818532365 ], [ 117.315830962911789, 42.408315835272568 ], [ 117.315830985500796, 42.4083203382162 ], [ 117.315818832959266, 42.408320371695666 ], [ 117.315818855547434, 42.408324874639298 ], [ 117.315806703005009, 42.408324908117478 ], [ 117.315806748179597, 42.408333914004736 ], [ 117.31580067190751, 42.408333930743353 ], [ 117.315800694494357, 42.408338433686986 ], [ 117.31579461822183, 42.408338450425269 ], [ 117.315794663394712, 42.408347456312541 ] ] ], [ [ [ 117.315837039182128, 42.408315818532365 ], [ 117.315843115452438, 42.408315801791829 ], [ 117.315843092862565, 42.408311298848197 ], [ 117.315837016592681, 42.408311315588726 ], [ 117.315837039182128, 42.408315818532365 ] ] ] ] } },
{ "type": "Feature", "properties": { "crown_id": 7081, "tree_id": "7087", "top_h_m": 21.86, "H_95_Mean": 22.2823, "DBH": 27.9211, "Carbon_kg": 157.027891, "area_m2": 12.75 }, "geometry": { "type": "Polygon", "coordinates": [ [ [ 117.315843273581748, 42.408347322397155 ], [ 117.315849349855114, 42.408347305656278 ], [ 117.315849327264758, 42.408342802712674 ], [ 117.315861479810593, 42.408342769229968 ], [ 117.315861434628161, 42.408333763342753 ], [ 117.315867510900205, 42.408333746600924 ], [ 117.315867488308569, 42.40832924365732 ], [ 117.315873564580158, 42.408329226915171 ], [ 117.315873541988097, 42.40832472397156 ], [ 117.315885694530422, 42.40832469048631 ], [ 117.315885671937465, 42.408320187542699 ], [ 117.315891748208173, 42.408320170799577 ], [ 117.315891725614819, 42.408315667855973 ], [ 117.315879573074241, 42.40831570134187 ], [ 117.315879482704332, 42.408297689567391 ], [ 117.315867330167222, 42.408297723051973 ], [ 117.315867307575616, 42.408293220108348 ], [ 117.315861231307494, 42.408293236850156 ], [ 117.315861253898674, 42.408297739793795 ], [ 117.315855177630084, 42.408297756535283 ], [ 117.315855245402318, 42.408311265366173 ], [ 117.315849169132434, 42.408311282107356 ], [ 117.315849214313076, 42.408320287994599 ], [ 117.315843138042339, 42.408320304735454 ], [ 117.315843183222114, 42.408329310622698 ], [ 117.315837106950482, 42.408329327363241 ], [ 117.315837174718922, 42.408342836194088 ], [ 117.315843250991847, 42.408342819453544 ], [ 117.315843273581748, 42.408347322397155 ] ] ] } },
{ "type": "Feature", "properties": { "crown_id": 7115, "tree_id": "7121", "top_h_m": 22.49, "H_95_Mean": 23.0678, "DBH": 27.1602, "Carbon_kg": 151.597139, "area_m2": 10.75 }, "geometry": { "type": "Polygon", "coordinates": [ [ [ 117.315739886603794, 42.408329595168077 ], [ 117.315745962875496, 42.408329578432685 ], [ 117.31574591770962, 42.408320572545357 ], [ 117.31573984143877, 42.408320589280748 ], [ 117.315739796273775, 42.408311583393399 ], [ 117.315745872543758, 42.408311566658028 ], [ 117.315745895126682, 42.408316069601696 ], [ 117.315751971397063, 42.408316052865985 ], [ 117.31575201656382, 42.408325058753327 ], [ 117.315764169106345, 42.408325025280945 ], [ 117.315764191690604, 42.408329528224598 ], [ 117.315770267962293, 42.408329511487928 ], [ 117.315770109869618, 42.408297990882296 ], [ 117.315733652257677, 42.408298091297397 ], [ 117.31573367483972, 42.408302594241093 ], [ 117.315721522301487, 42.408302627710228 ], [ 117.315721612626234, 42.408320639484955 ], [ 117.315727688897084, 42.408320622750537 ], [ 117.315727711478715, 42.408325125694219 ], [ 117.315739864021296, 42.408325092224416 ], [ 117.315739886603794, 42.408329595168077 ] ] ] } },
{ "type": "Feature", "properties": { "crown_id": 7129, "tree_id": "7135", "top_h_m": 18.347, "H_95_Mean": 18.6119, "DBH": 31.9573, "Carbon_kg": 185.321662, "area_m2": 30.0 }, "geometry": { "type": "Polygon", "coordinates": [ [ [ 117.315642869436019, 42.408370389383677 ], [ 117.315655021987396, 42.408370355922841 ], [ 117.315654954257994, 42.408356847091831 ], [ 117.315667106806785, 42.408356813629709 ], [ 117.315667061652121, 42.408347807742359 ], [ 117.315660985378614, 42.408347824473566 ], [ 117.315660962801729, 42.408343321529891 ], [ 117.315654886528648, 42.408343338260778 ], [ 117.315654863952204, 42.408338835317082 ], [ 117.31564878767955, 42.408338852047635 ], [ 117.315648765103546, 42.408334349103932 ], [ 117.315642688831332, 42.408334365834179 ], [ 117.315642621104672, 42.408320857003055 ], [ 117.315648697375593, 42.408320840272822 ], [ 117.315648674799604, 42.408316337329119 ], [ 117.315636522258629, 42.408316370789244 ], [ 117.315636409383131, 42.408293856070614 ], [ 117.315642485651466, 42.408293839340729 ], [ 117.315642395349428, 42.408275827565767 ], [ 117.315636319082842, 42.408275844295645 ], [ 117.31563629650779, 42.408271341351899 ], [ 117.31563022024163, 42.408271358081457 ], [ 117.315630197667019, 42.40826685513769 ], [ 117.315624121401299, 42.408266871866921 ], [ 117.315624143975469, 42.408271374810688 ], [ 117.315618067709337, 42.4082713915396 ], [ 117.315618158004369, 42.408289403314619 ], [ 117.315612081736475, 42.408289420043225 ], [ 117.315612126883167, 42.408298425930703 ], [ 117.315606050614392, 42.408298442658996 ], [ 117.315606073187297, 42.408302945602728 ], [ 117.315612149456513, 42.408302928874441 ], [ 117.315612262323356, 42.408325443593093 ], [ 117.31560618605198, 42.408325460321393 ], [ 117.315606321489739, 42.408352477983684 ], [ 117.315594168941743, 42.408352511439347 ], [ 117.315594214085976, 42.408361517326753 ], [ 117.315618519185435, 42.408361450414112 ], [ 117.315618541759278, 42.408365953357801 ], [ 117.315642846860413, 42.408365886440002 ], [ 117.315642869436019, 42.408370389383677 ] ], [ [ 117.315612375190327, 42.408347958311666 ], [ 117.315612307470133, 42.408334449480527 ], [ 117.315630536286861, 42.408334399293679 ], [ 117.315630604010977, 42.408347908124796 ], [ 117.315612375190327, 42.408347958311666 ] ] ] } },
{ "type": "Feature", "properties": { "crown_id": 7138, "tree_id": "7144", "top_h_m": 16.716, "H_95_Mean": 16.9442, "DBH": 30.013, "Carbon_kg": 154.478827, "area_m2": 28.0 }, "geometry": { "type": "MultiPolygon", "coordinates": [ [ [ [ 117.315508852879177, 42.408303213211511 ], [ 117.315508875445133, 42.408307716155299 ], [ 117.315502799175405, 42.408307732878114 ], [ 117.315502844306494, 42.40831673876567 ], [ 117.315508920577102, 42.408316722042848 ], [ 117.315508943143087, 42.408321224986615 ], [ 117.315521095685156, 42.408321191540004 ], [ 117.315521073118305, 42.408316688596244 ], [ 117.315527149388899, 42.408316671872448 ], [ 117.315527171956177, 42.408321174816223 ], [ 117.315533248227212, 42.4083211580921 ], [ 117.315533270794916, 42.408325661035853 ], [ 117.315545423337824, 42.408325627586677 ], [ 117.315545468475037, 42.408334633474169 ], [ 117.315551544747336, 42.408334616749087 ], [ 117.315551499609256, 42.408325610861588 ], [ 117.315563652152122, 42.40832557741048 ], [ 117.315563674722029, 42.408330080354212 ], [ 117.315557598450155, 42.408330097079933 ], [ 117.315557643589131, 42.40833910296741 ], [ 117.315569796134582, 42.408339069515634 ], [ 117.315569750993888, 42.408330063628163 ], [ 117.315587979809422, 42.408330013448094 ], [ 117.315587957237781, 42.408325510504362 ], [ 117.315600109780576, 42.408325477049381 ], [ 117.315600087208068, 42.408320974105635 ], [ 117.315606163479018, 42.408320957377668 ], [ 117.315606095760231, 42.408307448546466 ], [ 117.315600019490574, 42.40830746527444 ], [ 117.315599951773109, 42.40829395644321 ], [ 117.315606028041458, 42.408293939715229 ], [ 117.315606005468553, 42.408289436771497 ], [ 117.31557562412894, 42.408289520408047 ], [ 117.315575669270416, 42.408298526295567 ], [ 117.31555136419513, 42.408298593199042 ], [ 117.315551341626147, 42.408294090255275 ], [ 117.315545265357741, 42.408294106980328 ], [ 117.31554524278917, 42.408289604036568 ], [ 117.315539166521219, 42.408289620761295 ], [ 117.31553918908935, 42.408294123705069 ], [ 117.315533112820944, 42.40829414042949 ], [ 117.315533157956324, 42.408303146317039 ], [ 117.315527081687051, 42.40830316304114 ], [ 117.315527059119773, 42.408298660097365 ], [ 117.315514906582081, 42.408298693544594 ], [ 117.315514929148463, 42.408303196488376 ], [ 117.315508852879177, 42.408303213211511 ] ], [ [ 117.315508875445133, 42.408307716155299 ], [ 117.315521027984616, 42.408307682708703 ], [ 117.315521050551467, 42.408312185652477 ], [ 117.315508898011117, 42.408312219099074 ], [ 117.315508875445133, 42.408307716155299 ] ] ], [ [ [ 117.31550273147883, 42.408294224046742 ], [ 117.31550277660989, 42.408303229934326 ], [ 117.315508852879177, 42.408303213211511 ], [ 117.315508807747264, 42.408294207323941 ], [ 117.31550273147883, 42.408294224046742 ] ] ], [ [ [ 117.31550273147883, 42.408294224046742 ], [ 117.3155027089133, 42.408289721102953 ], [ 117.315496632645278, 42.408289737825427 ], [ 117.315496655210382, 42.408294240769223 ], [ 117.31550273147883, 42.408294224046742 ] ] ] ] } },
{ "type": "Feature", "properties": { "crown_id": 7139, "tree_id": "7145", "top_h_m": 19.13, "H_95_Mean": 19.0251, "DBH": 32.4999, "Carbon_kg": 194.224334, "area_m2": 30.75 }, "geometry": { "type": "Polygon", "coordinates": [ [ [ 117.31566703907481, 42.408343304798684 ], [ 117.315679191620958, 42.408343271335305 ], [ 117.315679169042781, 42.408338768391616 ], [ 117.315685245315407, 42.408338751659443 ], [ 117.315685267894011, 42.408343254603125 ], [ 117.315697420440131, 42.408343221137798 ], [ 117.315697397860632, 42.40833871819413 ], [ 117.315709550405856, 42.408338684727532 ], [ 117.315709527825533, 42.408334181783864 ], [ 117.315703451553361, 42.408334198517316 ], [ 117.315703428973436, 42.408329695573634 ], [ 117.315715581516898, 42.408329662106404 ], [ 117.315715423451636, 42.408298141500616 ], [ 117.315709347182917, 42.408298158234359 ], [ 117.315709302022327, 42.408289152346967 ], [ 117.315684996950978, 42.408289219278757 ], [ 117.315684974372431, 42.408284716335032 ], [ 117.315648516767865, 42.40828481672304 ], [ 117.315648584495719, 42.408298325554242 ], [ 117.315642508226986, 42.408298342284461 ], [ 117.315642575953575, 42.408311851115627 ], [ 117.315654728493683, 42.408311817654855 ], [ 117.31565479622293, 42.408325326485979 ], [ 117.315648719951582, 42.408325343216532 ], [ 117.315648742527557, 42.408329846160242 ], [ 117.315654818799345, 42.408329829429682 ], [ 117.31565484137576, 42.408334332373379 ], [ 117.315660917647989, 42.408334315642499 ], [ 117.315660940224859, 42.408338818586195 ], [ 117.315667016497514, 42.408338801854981 ], [ 117.31566703907481, 42.408343304798684 ] ] ] } }
]
}
