{
"type": "FeatureCollection",
"name": "tile_11_3",
"crs": { "type": "name", "properties": { "name": "urn:ogc:def:crs:OGC:1.3:CRS84" } },
"features": [
{ "type": "Feature", "properties": { "crown_id": 4347, "tree_id": "4350", "top_h_m": 18.943, "H_95_Mean": 20.2452, "DBH": 26.8165, "Carbon_kg": 136.778304, "area_m2": 13.0 }, "geometry": { "type": "Polygon", "coordinates": [ [ [ 117.310660266836422, 42.409604314437878 ], [ 117.310666343234104, 42.409604297971327 ], [ 117.310666276572221, 42.409590789136779 ], [ 117.310672352968609, 42.409590772669915 ], [ 117.310672375189668, 42.409595275614762 ], [ 117.310678451586469, 42.409595259147572 ], [ 117.310678407143513, 42.409586253257878 ], [ 117.310684483539433, 42.409586236790375 ], [ 117.31068443909561, 42.409577230900673 ], [ 117.31067228630549, 42.409577263835345 ], [ 117.31067219742134, 42.409559252055885 ], [ 117.310647891847978, 42.409559317921342 ], [ 117.31064786962871, 42.409554814976453 ], [ 117.310641793235774, 42.409554831442009 ], [ 117.310641837673472, 42.409563837331788 ], [ 117.310635761279684, 42.409563853797025 ], [ 117.310635805716529, 42.409572859686797 ], [ 117.310641882111184, 42.409572843221547 ], [ 117.31064199320555, 42.409595357945882 ], [ 117.310648069602394, 42.409595341480305 ], [ 117.31064809182169, 42.409599844425159 ], [ 117.31066024461623, 42.409599811493024 ], [ 117.310660266836422, 42.409604314437878 ] ] ] } },
{ "type": "Feature", "properties": { "crown_id": 4382, "tree_id": "4385", "top_h_m": 21.7, "H_95_Mean": 22.0862, "DBH": 34.8099, "Carbon_kg": 243.629659, "area_m2": 30.5 }, "geometry": { "type": "Polygon", "coordinates": [ [ [ 117.310544748643579, 42.409591118406453 ], [ 117.310556901436541, 42.409591085485289 ], [ 117.310556834798192, 42.409577576650577 ], [ 117.310575063983663, 42.409577527266421 ], [ 117.310575019555515, 42.409568521376613 ], [ 117.310587172344071, 42.409568488452258 ], [ 117.310587150129109, 42.40956398550734 ], [ 117.310593226522954, 42.409563969044676 ], [ 117.310593204307594, 42.409559466099772 ], [ 117.310587127914189, 42.409559482562436 ], [ 117.310587105699256, 42.409554979617525 ], [ 117.310581029306277, 42.409554996079862 ], [ 117.310581051520771, 42.409559499024773 ], [ 117.310574975127366, 42.409559515486784 ], [ 117.310574952913299, 42.409555012541873 ], [ 117.310562800127343, 42.409555045464948 ], [ 117.310562777914143, 42.409550542520009 ], [ 117.310544548736459, 42.409550591902175 ], [ 117.310544393253423, 42.409519071287548 ], [ 117.31053831686387, 42.409519087747604 ], [ 117.31053829465246, 42.409514584802643 ], [ 117.310532218263376, 42.409514601262373 ], [ 117.310532196052392, 42.409510098317398 ], [ 117.310526119663734, 42.409510114776808 ], [ 117.310526164084791, 42.409519120666758 ], [ 117.310514011305699, 42.409519153584618 ], [ 117.310514033515361, 42.409523656529593 ], [ 117.310501880735387, 42.409523689446175 ], [ 117.310501969570666, 42.409541701226054 ], [ 117.31049589317891, 42.409541717683865 ], [ 117.310495915387335, 42.409546220628826 ], [ 117.310489838995139, 42.409546237086325 ], [ 117.31048988341108, 42.409555242976253 ], [ 117.31053241816231, 42.409555127766957 ], [ 117.310532484795388, 42.409568636601755 ], [ 117.31052640840106, 42.4095686530612 ], [ 117.31052643061166, 42.409573156006125 ], [ 117.310520354216905, 42.409573172465244 ], [ 117.310520398637266, 42.409582178355095 ], [ 117.310526475032887, 42.409582161895962 ], [ 117.310526497243487, 42.409586664840887 ], [ 117.310544726431658, 42.409586615461556 ], [ 117.310544748643579, 42.409591118406453 ] ] ] } },
{ "type": "Feature", "properties": { "crown_id": 4395, "tree_id": "4398", "top_h_m": 21.38, "H_95_Mean": 21.725, "DBH": 25.2214, "Carbon_kg": 126.02591, "area_m2": 9.0 }, "geometry": { "type": "MultiPolygon", "coordinates": [ [ [ [ 117.310514388870871, 42.409595703648655 ], [ 117.310526541664743, 42.409595670730695 ], [ 117.310526519454115, 42.409591167785798 ], [ 117.310520443057626, 42.409591184244938 ], [ 117.310520420847439, 42.40958668130002 ], [ 117.310514344451349, 42.409586697758826 ], [ 117.310514255612404, 42.409568685979124 ], [ 117.310520332006732, 42.409568669520311 ], [ 117.310520309796587, 42.409564166575379 ], [ 117.310508157008769, 42.40956419949265 ], [ 117.310508134799491, 42.40955969654771 ], [ 117.310489905619065, 42.4095597459212 ], [ 117.310489927827035, 42.409564248866154 ], [ 117.310477775039175, 42.409564281780199 ], [ 117.310477819453439, 42.409573287670099 ], [ 117.310483895848222, 42.40957327121324 ], [ 117.310483940263367, 42.409582277103112 ], [ 117.310490016659017, 42.409582260645919 ], [ 117.31049003886703, 42.409586763590852 ], [ 117.310502191659211, 42.409586730675478 ], [ 117.310502213868091, 42.409591233620397 ], [ 117.31051436666111, 42.409591200703744 ], [ 117.310514388870871, 42.409595703648655 ] ] ], [ [ [ 117.310520309796587, 42.409564166575379 ], [ 117.310526386190475, 42.409564150116253 ], [ 117.310526363979875, 42.409559647171328 ], [ 117.310520287586414, 42.409559663630446 ], [ 117.310520309796587, 42.409564166575379 ] ] ] ] } },
{ "type": "Feature", "properties": { "crown_id": 4430, "tree_id": "4433", "top_h_m": 20.67, "H_95_Mean": 20.8953, "DBH": 22.7699, "Carbon_kg": 100.219803, "area_m2": 6.5 }, "geometry": { "type": "Polygon", "coordinates": [ [ [ 117.310678273814673, 42.409559235588709 ], [ 117.310696502994659, 42.40955918618527 ], [ 117.310696414103674, 42.409541174405788 ], [ 117.310684261320517, 42.409541207341718 ], [ 117.310684239098649, 42.409536704396835 ], [ 117.310659933534012, 42.409536770264808 ], [ 117.310660000194389, 42.409550279099498 ], [ 117.310653923801922, 42.409550295565687 ], [ 117.310653946021631, 42.409554798510584 ], [ 117.310678251593245, 42.409554732643841 ], [ 117.310678273814673, 42.409559235588709 ] ] ] } },
{ "type": "Feature", "properties": { "crown_id": 4449, "tree_id": "4452", "top_h_m": 20.849, "H_95_Mean": 20.7577, "DBH": 33.1427, "Carbon_kg": 212.733179, "area_m2": 28.25 }, "geometry": { "type": "Polygon", "coordinates": [ [ [ 117.310629596013982, 42.409545858482346 ], [ 117.31063567240605, 42.409545842017451 ], [ 117.310635650187663, 42.40954133907254 ], [ 117.310653879362519, 42.409541289675907 ], [ 117.310653834923158, 42.409532283786092 ], [ 117.310690293267513, 42.409532184984144 ], [ 117.310690315489794, 42.409536687929034 ], [ 117.310702468272083, 42.409536654992465 ], [ 117.310702490495231, 42.40954115793734 ], [ 117.310738948844573, 42.409541059119888 ], [ 117.310738926618811, 42.409536556175027 ], [ 117.310745003009899, 42.409536539704327 ], [ 117.310744980783696, 42.409532036759465 ], [ 117.310751057174357, 42.409532020288452 ], [ 117.3107510349477, 42.409527517343591 ], [ 117.310744958557493, 42.40952753381459 ], [ 117.310744936331304, 42.409523030869728 ], [ 117.310738859941509, 42.409523047340414 ], [ 117.310738837715732, 42.409518544395553 ], [ 117.310720608547612, 42.409518593805679 ], [ 117.310720541874289, 42.409505084971002 ], [ 117.310726618262379, 42.409505068501289 ], [ 117.310726596037497, 42.409500565556399 ], [ 117.310714443262199, 42.409500598495498 ], [ 117.310714465486214, 42.409505101440402 ], [ 117.310678007157605, 42.409505200249988 ], [ 117.310678029379034, 42.409509703194907 ], [ 117.310653723824771, 42.409509769061529 ], [ 117.310653746044437, 42.409514272006469 ], [ 117.310641593266425, 42.409514304937851 ], [ 117.310641615485238, 42.409518807882762 ], [ 117.310629462706331, 42.409518840812872 ], [ 117.310629507142195, 42.409527846702716 ], [ 117.31062343075186, 42.409527863167291 ], [ 117.310623452969352, 42.409532366112209 ], [ 117.310635605750889, 42.409532333182739 ], [ 117.310635627969276, 42.409536836127643 ], [ 117.310629551578074, 42.409536852592538 ], [ 117.310629596013982, 42.409545858482346 ] ], [ [ 117.310641659922823, 42.409527813772598 ], [ 117.310641637704038, 42.409523310827687 ], [ 117.310647714093903, 42.409523294362145 ], [ 117.310647736313157, 42.409527797307057 ], [ 117.310641659922823, 42.409527813772598 ] ] ] } },
{ "type": "Feature", "properties": { "crown_id": 4475, "tree_id": "4478", "top_h_m": 19.265, "H_95_Mean": 19.5956, "DBH": 27.9664, "Carbon_kg": 146.012978, "area_m2": 16.25 }, "geometry": { "type": "MultiPolygon", "coordinates": [ [ [ [ 117.310568854306695, 42.409550526058645 ], [ 117.310581007091784, 42.409550493134944 ], [ 117.310580984877319, 42.409545990190018 ], [ 117.310587061269402, 42.409545973727695 ], [ 117.310587039054496, 42.409541470782763 ], [ 117.310593115446153, 42.409541454320106 ], [ 117.310593093230821, 42.409536951375188 ], [ 117.310599169622037, 42.409536934912225 ], [ 117.310599147406251, 42.409532431967307 ], [ 117.310593071015461, 42.409532448430262 ], [ 117.310593026584812, 42.40952344254039 ], [ 117.310586950194889, 42.409523459003033 ], [ 117.310586883550229, 42.409509950168207 ], [ 117.310562577995682, 42.409510016015503 ], [ 117.31056253356941, 42.409501010125588 ], [ 117.310556457181647, 42.409501026586597 ], [ 117.310556434968959, 42.409496523641621 ], [ 117.310550358581608, 42.40949654010231 ], [ 117.310550380793856, 42.409501043047293 ], [ 117.310544304406079, 42.409501059507669 ], [ 117.310544326617901, 42.409505562452637 ], [ 117.310538250229683, 42.409505578912693 ], [ 117.310538272441065, 42.409510081857661 ], [ 117.310544348829723, 42.409510065397612 ], [ 117.310544371041573, 42.40951456834258 ], [ 117.310550447430657, 42.409514551882204 ], [ 117.310550602916706, 42.409546072496845 ], [ 117.310568832093097, 42.409546023113705 ], [ 117.310568854306695, 42.409550526058645 ] ] ], [ [ [ 117.310599147406251, 42.409532431967307 ], [ 117.31060522379704, 42.40953241550401 ], [ 117.310605201580842, 42.409527912559078 ], [ 117.310599125190478, 42.409527929022367 ], [ 117.310599147406251, 42.409532431967307 ] ] ] ] } },
{ "type": "Feature", "properties": { "crown_id": 4569, "tree_id": "4573", "top_h_m": 20.4, "H_95_Mean": 20.6267, "DBH": 25.6067, "Carbon_kg": 126.010017, "area_m2": 10.5 }, "geometry": { "type": "Polygon", "coordinates": [ [ [ 117.310653701605133, 42.409505266116604 ], [ 117.310671930769516, 42.409505216717122 ], [ 117.310671908548557, 42.409500713772211 ], [ 117.310696214099252, 42.409500647901737 ], [ 117.310696147431216, 42.409487139066982 ], [ 117.310677918272106, 42.409487188470301 ], [ 117.310677873829363, 42.409478182580429 ], [ 117.310665721058356, 42.409478215514355 ], [ 117.3106656543969, 42.409464706679515 ], [ 117.310659578012675, 42.40946472314598 ], [ 117.31065953357259, 42.409455717256066 ], [ 117.310647380805904, 42.409455750188037 ], [ 117.310647358586749, 42.409451247243069 ], [ 117.310641282203818, 42.409451263708576 ], [ 117.310641348860003, 42.409464772543473 ], [ 117.310647425244227, 42.409464756077966 ], [ 117.31064744746341, 42.409469259022927 ], [ 117.31065352384806, 42.409469242557094 ], [ 117.310653590506917, 42.409482751391941 ], [ 117.310659666892889, 42.409482734925788 ], [ 117.310659755773159, 42.409500746705518 ], [ 117.310653679385481, 42.409500763171685 ], [ 117.310653701605133, 42.409505266116604 ] ] ] } },
{ "type": "Feature", "properties": { "crown_id": 4587, "tree_id": "4591", "top_h_m": 20.94, "H_95_Mean": 20.614, "DBH": 39.1731, "Carbon_kg": 296.739599, "area_m2": 54.75 }, "geometry": { "type": "Polygon", "coordinates": [ [ [ 117.310483651565363, 42.409523738818635 ], [ 117.310495804345393, 42.409523705903986 ], [ 117.310495782137025, 42.409519202959011 ], [ 117.310507934916131, 42.409519170043069 ], [ 117.31050791270691, 42.409514667098094 ], [ 117.31052006548515, 42.40951463418088 ], [ 117.310520021064946, 42.409505628290908 ], [ 117.310526097453192, 42.409505611831833 ], [ 117.310526075242663, 42.40950110888685 ], [ 117.310519998854872, 42.409501125345933 ], [ 117.310519821174339, 42.409465101785933 ], [ 117.310513744790001, 42.409465118244668 ], [ 117.310513700370791, 42.409456112354626 ], [ 117.310501547603835, 42.409456145271143 ], [ 117.310501503186373, 42.409447139381072 ], [ 117.31048935042115, 42.409447172296289 ], [ 117.310489239381937, 42.409424657571023 ], [ 117.310483163001507, 42.409424674028138 ], [ 117.310483185208895, 42.409429176973205 ], [ 117.310440650542546, 42.409429292163956 ], [ 117.310440694951268, 42.409438298054098 ], [ 117.310446771333076, 42.409438281599236 ], [ 117.310446815742679, 42.409447287489364 ], [ 117.310458968507973, 42.409447254578666 ], [ 117.310459035125035, 42.409460763413804 ], [ 117.310452958741067, 42.409460779869327 ], [ 117.310453003151608, 42.409469785759406 ], [ 117.310428697612267, 42.40946985157828 ], [ 117.310428786426442, 42.409487863358457 ], [ 117.310434862813025, 42.409487846904213 ], [ 117.310434929425014, 42.409501355739295 ], [ 117.310441005812905, 42.409501339284716 ], [ 117.310441028017323, 42.409505842229734 ], [ 117.31044710440564, 42.409505825774836 ], [ 117.310447126610526, 42.409510328719847 ], [ 117.310471432165428, 42.409510262897015 ], [ 117.310471476578698, 42.409519268787008 ], [ 117.310483629357861, 42.409519235873653 ], [ 117.310483651565363, 42.409523738818635 ] ] ] } },
{ "type": "Feature", "properties": { "crown_id": 4588, "tree_id": "4592", "top_h_m": 20.655, "H_95_Mean": 20.7278, "DBH": 26.5644, "Carbon_kg": 136.082041, "area_m2": 12.0 }, "geometry": { "type": "Polygon", "coordinates": [ [ [ 117.310635494659053, 42.409509818458126 ], [ 117.310647647436227, 42.409509785527383 ], [ 117.310647580778564, 42.4094962766926 ], [ 117.310653657165844, 42.40949626022676 ], [ 117.310653612726554, 42.409487254336881 ], [ 117.310647536340156, 42.409487270802714 ], [ 117.310647469682579, 42.409473761967867 ], [ 117.310641393297487, 42.409473778433387 ], [ 117.310641371078745, 42.409469275488433 ], [ 117.310635294694066, 42.409469291953613 ], [ 117.310635183602599, 42.409446777228773 ], [ 117.31062910722008, 42.409446793693611 ], [ 117.3106290627844, 42.409437787803647 ], [ 117.310622986402777, 42.409437804268165 ], [ 117.31062303083759, 42.409446810158144 ], [ 117.310616954455071, 42.40944682662235 ], [ 117.310616998889046, 42.409455832512315 ], [ 117.310623075272431, 42.409455816048094 ], [ 117.310623230794505, 42.409487336662856 ], [ 117.310617154408092, 42.409487353127084 ], [ 117.310617176625115, 42.409491856072044 ], [ 117.310623253011983, 42.40949183960781 ], [ 117.310623297446924, 42.409500845497703 ], [ 117.31063545022235, 42.409500812568261 ], [ 117.310635494659053, 42.409509818458126 ] ] ] } },
{ "type": "Feature", "properties": { "crown_id": 4622, "tree_id": "4626", "top_h_m": 21.417, "H_95_Mean": 21.5958, "DBH": 37.6292, "Carbon_kg": 281.274745, "area_m2": 43.0 }, "geometry": { "type": "Polygon", "coordinates": [ [ [ 117.31059910297472, 42.409523426077428 ], [ 117.310623408534369, 42.409523360222366 ], [ 117.310623364099371, 42.409514354332515 ], [ 117.310629440488398, 42.409514337867947 ], [ 117.310629396052533, 42.409505331978075 ], [ 117.310605090499891, 42.409505397834394 ], [ 117.310605023851394, 42.40949188899954 ], [ 117.310611100238262, 42.409491872535952 ], [ 117.310611055805069, 42.40948286664603 ], [ 117.310617132191084, 42.409482850182137 ], [ 117.31061702110604, 42.409460335457283 ], [ 117.310610944722214, 42.409460351921176 ], [ 117.310610878072552, 42.409446843086229 ], [ 117.310580496159901, 42.409446925400822 ], [ 117.310580473945535, 42.409442422455811 ], [ 117.310562244799172, 42.409442471840698 ], [ 117.31056226701223, 42.409446974785716 ], [ 117.310556190629669, 42.409446991246696 ], [ 117.3105562128423, 42.409451494191714 ], [ 117.310550136459298, 42.409451510652367 ], [ 117.310550158671504, 42.409456013597378 ], [ 117.310531929521176, 42.409456062977455 ], [ 117.310531973942986, 42.409465068867483 ], [ 117.310525897558662, 42.409465085326865 ], [ 117.310526053032163, 42.409496605941861 ], [ 117.310532129419514, 42.409496589482458 ], [ 117.310532151630468, 42.409501092427448 ], [ 117.310538228018288, 42.409501075967718 ], [ 117.310538205806893, 42.409496573022736 ], [ 117.310544282194243, 42.409496556562694 ], [ 117.310544259982422, 42.409492053617704 ], [ 117.310562489143166, 42.409492004235645 ], [ 117.310562511356295, 42.409496507180613 ], [ 117.310568587743617, 42.409496490719278 ], [ 117.310568632170757, 42.409505496609214 ], [ 117.310592937723527, 42.409505430760625 ], [ 117.31059300436948, 42.409518939595458 ], [ 117.310599080758976, 42.409518923132502 ], [ 117.31059910297472, 42.409523426077428 ] ], [ [ 117.310568521102979, 42.409482981884352 ], [ 117.31056845446237, 42.409469473049398 ], [ 117.310586683616521, 42.409469423663502 ], [ 117.310586750261052, 42.409482932498435 ], [ 117.310568521102979, 42.409482981884352 ] ] ] } },
{ "type": "Feature", "properties": { "crown_id": 4704, "tree_id": "4708", "top_h_m": 17.699, "H_95_Mean": 18.7605, "DBH": 18.7745, "Carbon_kg": 63.736366, "area_m2": 3.75 }, "geometry": { "type": "Polygon", "coordinates": [ [ [ 117.310507601778141, 42.40945162586803 ], [ 117.310525830927233, 42.409451576491826 ], [ 117.31052580871679, 42.409447073546801 ], [ 117.31053188509938, 42.409447057087426 ], [ 117.310531862888467, 42.409442554142394 ], [ 117.310519710124169, 42.409442587060816 ], [ 117.310519665704135, 42.409433581170745 ], [ 117.310495360178919, 42.409433647003702 ], [ 117.310495404595486, 42.409442652893794 ], [ 117.310507557359841, 42.409442619977945 ], [ 117.310507601778141, 42.40945162586803 ] ] ] } },
{ "type": "Feature", "properties": { "crown_id": 4749, "tree_id": "4753", "top_h_m": 19.31, "H_95_Mean": 19.0293, "DBH": 30.2446, "Carbon_kg": 168.038256, "area_m2": 23.25 }, "geometry": { "type": "MultiPolygon", "coordinates": [ [ [ [ 117.310544060076296, 42.409451527112715 ], [ 117.310544037864517, 42.409447024167704 ], [ 117.310550114247093, 42.409447007707364 ], [ 117.310550092034916, 42.409442504762339 ], [ 117.310556168417051, 42.409442488301686 ], [ 117.31055603514136, 42.409415470631522 ], [ 117.31054995876184, 42.409415487092161 ], [ 117.31054989212538, 42.40940197825703 ], [ 117.31056204488182, 42.409401945335432 ], [ 117.310562000455775, 42.40939293944534 ], [ 117.310555924078443, 42.409392955906284 ], [ 117.310555879653293, 42.409383950016171 ], [ 117.310519421394332, 42.409384048775109 ], [ 117.310519465814238, 42.409393054665259 ], [ 117.310513389436863, 42.409393071123951 ], [ 117.310513433855931, 42.409402077014093 ], [ 117.310507357477675, 42.40940209347248 ], [ 117.310507446314134, 42.409420105252721 ], [ 117.310495293554126, 42.409420138168542 ], [ 117.310495315762395, 42.409424641113603 ], [ 117.310501392142825, 42.409424624655848 ], [ 117.310501414351521, 42.409429127600902 ], [ 117.310525719874988, 42.409429061766666 ], [ 117.310525764295861, 42.409438067656737 ], [ 117.310537917059293, 42.409438034737668 ], [ 117.310537983693294, 42.409451543572736 ], [ 117.310544060076296, 42.409451527112715 ] ] ], [ [ [ 117.310525875348176, 42.409460582381854 ], [ 117.310525853137705, 42.409456079436836 ], [ 117.310519776754248, 42.409456095895898 ], [ 117.310519798964293, 42.409460598840909 ], [ 117.310525875348176, 42.409460582381854 ] ] ] ] } },
{ "type": "Feature", "properties": { "crown_id": 4775, "tree_id": "4779", "top_h_m": 20.428, "H_95_Mean": 20.8885, "DBH": 28.3598, "Carbon_kg": 155.966335, "area_m2": 15.25 }, "geometry": { "type": "Polygon", "coordinates": [ [ [ 117.310586550327642, 42.409442405993552 ], [ 117.310616932238105, 42.409442323677354 ], [ 117.310616887804159, 42.409433317787368 ], [ 117.310610811422933, 42.409433334251254 ], [ 117.310610766989896, 42.40942432836124 ], [ 117.310604690609537, 42.409424344824792 ], [ 117.310604623961325, 42.409410835989753 ], [ 117.310598547582259, 42.409410852452972 ], [ 117.310598503151013, 42.409401846562908 ], [ 117.310592426772814, 42.409401863025806 ], [ 117.310592404557624, 42.409397360080767 ], [ 117.310580251802108, 42.409397393005577 ], [ 117.310580207373491, 42.409388387115484 ], [ 117.310574130996599, 42.40938840357741 ], [ 117.310574153210453, 42.409392906522463 ], [ 117.310568076833135, 42.409392922984061 ], [ 117.310568143473489, 42.409406431819193 ], [ 117.310555990716182, 42.409406464741437 ], [ 117.310556012928771, 42.409410967686483 ], [ 117.310562089307851, 42.409410951225517 ], [ 117.310562222586114, 42.409437968895681 ], [ 117.310586528112836, 42.409437903048541 ], [ 117.310586550327642, 42.409442405993552 ] ], [ [ 117.310574308707729, 42.409424427137701 ], [ 117.310574242066025, 42.409410918302619 ], [ 117.310592471203208, 42.409410868915863 ], [ 117.310592537848819, 42.409424377750916 ], [ 117.310574308707729, 42.409424427137701 ] ] ] } }
]
}
