{
"type": "FeatureCollection",
"name": "tile_1_13",
"crs": { "type": "name", "properties": { "name": "urn:ogc:def:crs:OGC:1.3:CRS84" } },
"features": [
{ "type": "Feature", "properties": { "crown_id": 18, "tree_id": "19", "top_h_m": 17.58, "H_95_Mean": 18.1901, "DBH": 18.8096, "Carbon_kg": 62.819018, "area_m2": 4.0 }, "geometry": { "type": "Polygon", "coordinates": [ [ [ 117.312947981217917, 42.411421808872717 ], [ 117.313002670363844, 42.411421659565711 ], [ 117.313002647974699, 42.411417156623301 ], [ 117.312996571403389, 42.411417173214247 ], [ 117.312996549014642, 42.411412670271837 ], [ 117.312954013018341, 42.411412786399474 ], [ 117.312954035404005, 42.411417289341912 ], [ 117.312947958832666, 42.411417305930286 ], [ 117.312947981217917, 42.411421808872717 ] ] ] } },
{ "type": "Feature", "properties": { "crown_id": 19, "tree_id": "20", "top_h_m": 20.31, "H_95_Mean": 20.6683, "DBH": 28.9081, "Carbon_kg": 161.090624, "area_m2": 16.75 }, "geometry": { "type": "Polygon", "coordinates": [ [ [ 117.313075589224468, 42.411421460449105 ], [ 117.313160661227599, 42.411421228087782 ], [ 117.313160594026257, 42.411407719260758 ], [ 117.313142364315269, 42.411407769057753 ], [ 117.313142386714418, 42.411412272000106 ], [ 117.313124157002122, 42.411412321794209 ], [ 117.313124134604266, 42.411407818851863 ], [ 117.313118058033922, 42.411407835449246 ], [ 117.313118035636535, 42.411403332506872 ], [ 117.313111959066617, 42.411403349103928 ], [ 117.313111891875735, 42.411389840276804 ], [ 117.313099738738501, 42.41138987346995 ], [ 117.313099716342407, 42.411385370527562 ], [ 117.313093639774223, 42.411385387123644 ], [ 117.313093617378584, 42.411380884181241 ], [ 117.313087540810827, 42.411380900777012 ], [ 117.313087563206025, 42.4113854037194 ], [ 117.313081486637813, 42.411385420314858 ], [ 117.313081553822144, 42.411398929142052 ], [ 117.313075477252639, 42.411398945737183 ], [ 117.313075499646999, 42.411403448679565 ], [ 117.313069423077053, 42.411403465274383 ], [ 117.313069445470987, 42.411407968216764 ], [ 117.313075522041359, 42.411407951621953 ], [ 117.313075589224468, 42.411421460449105 ] ] ] } },
{ "type": "Feature", "properties": { "crown_id": 87, "tree_id": "88", "top_h_m": 20.858, "H_95_Mean": 21.234, "DBH": 34.312, "Carbon_kg": 231.212966, "area_m2": 31.0 }, "geometry": { "type": "Polygon", "coordinates": [ [ [ 117.312862909212271, 42.411422041076214 ], [ 117.312923674930687, 42.411421875223027 ], [ 117.312923630163667, 42.411412869338115 ], [ 117.312941859876474, 42.411412819575894 ], [ 117.312941815106882, 42.41140381369101 ], [ 117.312929661966749, 42.411403846866143 ], [ 117.312929617198904, 42.411394840981224 ], [ 117.312923540629697, 42.411394857568297 ], [ 117.312923495862734, 42.411385851683377 ], [ 117.312917419294394, 42.411385868270116 ], [ 117.31291737452834, 42.411376862385161 ], [ 117.312911297960866, 42.411376878971588 ], [ 117.312911275578259, 42.411372376029099 ], [ 117.312905199011212, 42.411372392615199 ], [ 117.312905176629073, 42.411367889672718 ], [ 117.312893023495818, 42.41136792284393 ], [ 117.312893001114531, 42.411363419901441 ], [ 117.312874771415949, 42.411363469655846 ], [ 117.312874838555885, 42.411376978483347 ], [ 117.312868761988355, 42.411376995067521 ], [ 117.312868784367907, 42.411381498010023 ], [ 117.312856631232023, 42.411381531177391 ], [ 117.312856653610709, 42.411386034119893 ], [ 117.312850577042283, 42.411386050703094 ], [ 117.312850599420571, 42.411390553645596 ], [ 117.312856675989394, 42.411390537062381 ], [ 117.312856720746794, 42.411399542947372 ], [ 117.312862797316484, 42.411399526363837 ], [ 117.312862909212271, 42.411422041076214 ] ] ] } },
{ "type": "Feature", "properties": { "crown_id": 88, "tree_id": "89", "top_h_m": 20.29, "H_95_Mean": 20.1424, "DBH": 35.4443, "Carbon_kg": 239.262548, "area_m2": 38.75 }, "geometry": { "type": "Polygon", "coordinates": [ [ [ 117.313014823507345, 42.411421626382825 ], [ 117.313069512652802, 42.411421477043923 ], [ 117.313069467864921, 42.411412471159167 ], [ 117.313063391294079, 42.411412487753651 ], [ 117.313063324113614, 42.411398978926478 ], [ 117.313069400683133, 42.411398962331994 ], [ 117.313069378289228, 42.411394459389577 ], [ 117.313075454858307, 42.41139444279478 ], [ 117.313075387675269, 42.411380933967571 ], [ 117.313081464243055, 42.411380917372448 ], [ 117.313081419453511, 42.411371911487635 ], [ 117.31307534288662, 42.411371928082744 ], [ 117.313075320492302, 42.411367425140327 ], [ 117.313063167359346, 42.411367458329593 ], [ 117.313063144965895, 42.411362955387162 ], [ 117.313050991833791, 42.411362988575121 ], [ 117.313050969441207, 42.411358485632697 ], [ 117.31303273974433, 42.411358535412226 ], [ 117.313032717353053, 42.411354032469774 ], [ 117.313020564222654, 42.411354065654507 ], [ 117.31302058661305, 42.411358568596953 ], [ 117.313014510047381, 42.411358585188843 ], [ 117.313014532437364, 42.411363088131289 ], [ 117.313002379305161, 42.41136312131411 ], [ 117.31300251363983, 42.41139013896877 ], [ 117.312996437071135, 42.411390155559701 ], [ 117.312996504237219, 42.411403664386995 ], [ 117.313002580807236, 42.411403647796043 ], [ 117.313002625585526, 42.411412653680877 ], [ 117.313008702156424, 42.411412637089612 ], [ 117.313008724546023, 42.411417140032022 ], [ 117.313014801117319, 42.41141712344043 ], [ 117.313014823507345, 42.411421626382825 ] ] ] } },
{ "type": "Feature", "properties": { "crown_id": 99, "tree_id": "100", "top_h_m": 18.445, "H_95_Mean": 18.87, "DBH": 18.495, "Carbon_kg": 62.051633, "area_m2": 3.5 }, "geometry": { "type": "MultiPolygon", "coordinates": [ [ [ [ 117.313117946046972, 42.411385320737359 ], [ 117.313118013239119, 42.41139882956449 ], [ 117.313124089808596, 42.411398812967121 ], [ 117.313124112206452, 42.411403315909489 ], [ 117.313130188776341, 42.411403299311772 ], [ 117.313130211174624, 42.411407802254139 ], [ 117.313136287744953, 42.41140778565611 ], [ 117.313136175751467, 42.411385270944258 ], [ 117.313117946046972, 42.411385320737359 ] ] ], [ [ [ 117.313117946046972, 42.411385320737359 ], [ 117.313117923649585, 42.411380817794971 ], [ 117.313105770514099, 42.411380850988756 ], [ 117.313105792910591, 42.411385353931145 ], [ 117.313117946046972, 42.411385320737359 ] ] ] ] } },
{ "type": "Feature", "properties": { "crown_id": 140, "tree_id": "141", "top_h_m": 20.87, "H_95_Mean": 20.9797, "DBH": 34.7383, "Carbon_kg": 235.356105, "area_m2": 33.25 }, "geometry": { "type": "Polygon", "coordinates": [ [ [ 117.312947914062178, 42.411408300045409 ], [ 117.312960067203136, 42.411408266868335 ], [ 117.312960044817046, 42.411403763925904 ], [ 117.312978274527154, 42.411403714157899 ], [ 117.312978252139771, 42.411399211215468 ], [ 117.312972175570152, 42.41139922780512 ], [ 117.312972153183196, 42.411394724862674 ], [ 117.312990382890661, 42.411394675092751 ], [ 117.312990360502411, 42.41139017215032 ], [ 117.312984283933687, 42.411390188740612 ], [ 117.312984261545864, 42.411385685798173 ], [ 117.312996414682445, 42.411385652617263 ], [ 117.31299628035039, 42.411358634962568 ], [ 117.313002356916058, 42.411358618371658 ], [ 117.313002334526971, 42.411354115429184 ], [ 117.31297195170076, 42.411354198380558 ], [ 117.312971929313846, 42.411349695438084 ], [ 117.312965852749031, 42.411349712027388 ], [ 117.312965830362543, 42.411345209084899 ], [ 117.312929370976121, 42.411345308613946 ], [ 117.312929415743852, 42.411354314498936 ], [ 117.312917262613254, 42.411354347672727 ], [ 117.31291730737928, 42.411363353557711 ], [ 117.3129112308131, 42.411363370144137 ], [ 117.312911253195679, 42.411367873086611 ], [ 117.312917329762286, 42.411367856500199 ], [ 117.312917352145305, 42.411372359442687 ], [ 117.312923428712352, 42.411372342855941 ], [ 117.312923473479259, 42.411381348740903 ], [ 117.312929550047173, 42.41138133215383 ], [ 117.312929594814975, 42.411390338038771 ], [ 117.312935671383755, 42.411390321451371 ], [ 117.312935716152452, 42.411399327336291 ], [ 117.312947869291705, 42.41139929416051 ], [ 117.312947914062178, 42.411408300045409 ] ] ] } },
{ "type": "Feature", "properties": { "crown_id": 215, "tree_id": "216", "top_h_m": 19.29, "H_95_Mean": 19.0974, "DBH": 28.7609, "Carbon_kg": 152.158649, "area_m2": 19.0 }, "geometry": { "type": "Polygon", "coordinates": [ [ [ 117.313008411092198, 42.411354098837947 ], [ 117.313014487657412, 42.41135408224639 ], [ 117.313014465267486, 42.411349579303931 ], [ 117.313020541832259, 42.411349562712054 ], [ 117.313020474661116, 42.411336053884654 ], [ 117.31301439809765, 42.411336070476537 ], [ 117.31301442048759, 42.411340573419004 ], [ 117.31300834392367, 42.411340590010553 ], [ 117.31300829914467, 42.411331584125612 ], [ 117.312990069455481, 42.411331633898328 ], [ 117.312990047067288, 42.41132713095584 ], [ 117.312977893942019, 42.41132716413604 ], [ 117.312977849167382, 42.411318158251049 ], [ 117.312971772605607, 42.411318174840645 ], [ 117.31297175021875, 42.411313671898149 ], [ 117.312959597096039, 42.411313705076402 ], [ 117.31295955232406, 42.411304699191369 ], [ 117.312947399203082, 42.411304732368315 ], [ 117.312947421588206, 42.41130923531081 ], [ 117.312941345027269, 42.411309251898814 ], [ 117.312941389796649, 42.411318257783869 ], [ 117.312929236673043, 42.411318290958896 ], [ 117.312929303824561, 42.411331799786439 ], [ 117.312935380387685, 42.411331783199081 ], [ 117.312935425156255, 42.411340789084079 ], [ 117.312971884540033, 42.411340689553114 ], [ 117.312971906926947, 42.411345192495602 ], [ 117.312977983491322, 42.411345175905979 ], [ 117.312978005878676, 42.411349678848453 ], [ 117.313002312137897, 42.411349612486724 ], [ 117.313002289748809, 42.41134510954425 ], [ 117.31300836631317, 42.41134509295302 ], [ 117.313008411092198, 42.411354098837947 ] ] ] } },
{ "type": "Feature", "properties": { "crown_id": 216, "tree_id": "217", "top_h_m": 18.672, "H_95_Mean": 18.781, "DBH": 33.1473, "Carbon_kg": 200.56334, "area_m2": 34.0 }, "geometry": { "type": "Polygon", "coordinates": [ [ [ 117.313069221531947, 42.411362938792706 ], [ 117.313081374664023, 42.4113629056028 ], [ 117.313081329874535, 42.411353899717952 ], [ 117.313087406439692, 42.41135388312253 ], [ 117.313087384044522, 42.411349380180098 ], [ 117.313093460609252, 42.411349363584357 ], [ 117.313093393422477, 42.41133585475707 ], [ 117.313099469985872, 42.411335838161001 ], [ 117.313099380401837, 42.41131782639124 ], [ 117.313087227278487, 42.411317859583015 ], [ 117.313087204883345, 42.411313356640562 ], [ 117.313081128322096, 42.41131337323597 ], [ 117.313081083532737, 42.411304367351043 ], [ 117.313068930411958, 42.411304400540871 ], [ 117.313068863230555, 42.411290891713449 ], [ 117.313062786671452, 42.411290908307855 ], [ 117.313062809064817, 42.411295411250343 ], [ 117.313044579386201, 42.411295461031692 ], [ 117.313044624170345, 42.411304466916661 ], [ 117.3130263944891, 42.411304516695125 ], [ 117.313026439270644, 42.411313522580102 ], [ 117.313020362709324, 42.411313539172284 ], [ 117.313020452270734, 42.411331550942201 ], [ 117.313026528833788, 42.411331534350005 ], [ 117.313026618397046, 42.411349546119851 ], [ 117.313038771526578, 42.411349512934478 ], [ 117.313038793918267, 42.411354015876924 ], [ 117.313057023613851, 42.411353966096435 ], [ 117.313057046006833, 42.411358469038866 ], [ 117.31306919913807, 42.411358435850275 ], [ 117.313069221531947, 42.411362938792706 ] ] ] } },
{ "type": "Feature", "properties": { "crown_id": 225, "tree_id": "226", "top_h_m": 17.64, "H_95_Mean": 18.206, "DBH": 31.9565, "Carbon_kg": 182.911222, "area_m2": 31.25 }, "geometry": { "type": "Polygon", "coordinates": [ [ [ 117.31289907768074, 42.411363403315988 ], [ 117.31290515424692, 42.411363386730223 ], [ 117.312905131864767, 42.41135888378772 ], [ 117.312911208430521, 42.411358867201628 ], [ 117.312911163665376, 42.411349861316637 ], [ 117.312923316795121, 42.4113498281435 ], [ 117.312923272028272, 42.411340822258495 ], [ 117.312929348592263, 42.41134080567145 ], [ 117.312929326208405, 42.411336302728941 ], [ 117.312923249644854, 42.411336319315993 ], [ 117.312923137727822, 42.411313804603402 ], [ 117.312935290850589, 42.411313771429022 ], [ 117.312935246082091, 42.411304765543967 ], [ 117.312941322642601, 42.411304748956297 ], [ 117.312941277873236, 42.411295743071243 ], [ 117.312935201313593, 42.411295759658898 ], [ 117.312935223697835, 42.411300262601436 ], [ 117.312929147137766, 42.411300279188779 ], [ 117.312929124753964, 42.411295776246249 ], [ 117.312904818515349, 42.411295842592388 ], [ 117.312904796133282, 42.411291339649829 ], [ 117.312898719574051, 42.411291356235559 ], [ 117.312898741955692, 42.411295859178118 ], [ 117.312886588836335, 42.411295892348605 ], [ 117.31288661121711, 42.411300395291164 ], [ 117.312874458096857, 42.411300428460372 ], [ 117.312874480476779, 42.411304931402931 ], [ 117.312880557037332, 42.41130491481848 ], [ 117.312880601798014, 42.411313920703591 ], [ 117.312874525236595, 42.411313937288035 ], [ 117.312874547616502, 42.411318440230581 ], [ 117.312868471054642, 42.411318456814712 ], [ 117.312868672470202, 42.41135898329749 ], [ 117.312899055299027, 42.411358900373479 ], [ 117.31289907768074, 42.411363403315988 ] ] ] } },
{ "type": "Feature", "properties": { "crown_id": 285, "tree_id": "286", "top_h_m": 20.545, "H_95_Mean": 21.2179, "DBH": 29.9235, "Carbon_kg": 175.399937, "area_m2": 18.25 }, "geometry": { "type": "MultiPolygon", "coordinates": [ [ [ [ 117.312996123629915, 42.411327114365257 ], [ 117.313002200192557, 42.411327097774354 ], [ 117.313002177803483, 42.41132259483188 ], [ 117.31300825436567, 42.411322578240657 ], [ 117.313008231976184, 42.411318075298169 ], [ 117.313014308537944, 42.411318058706627 ], [ 117.31301426375812, 42.41130905282165 ], [ 117.313020340318985, 42.411309036229795 ], [ 117.313020273147984, 42.411295527402309 ], [ 117.313008120028854, 42.4112955605857 ], [ 117.313008075249954, 42.411286554700681 ], [ 117.313001998691263, 42.411286571291882 ], [ 117.313001976302246, 42.411282068349365 ], [ 117.312989823185688, 42.411282101530794 ], [ 117.312989800797553, 42.411277598588264 ], [ 117.3129654945661, 42.411277664947249 ], [ 117.31296553933889, 42.411286670832318 ], [ 117.312959462780142, 42.41128668742126 ], [ 117.312959507552108, 42.411295693306322 ], [ 117.31294735443285, 42.411295726483253 ], [ 117.312947376817974, 42.411300229425791 ], [ 117.312965606498111, 42.411300179659889 ], [ 117.312965651270957, 42.411309185544923 ], [ 117.312977804392787, 42.411309152366044 ], [ 117.312977826780099, 42.411313655308547 ], [ 117.312983903341419, 42.411313638718617 ], [ 117.312983948116909, 42.411322644603608 ], [ 117.312996101241296, 42.411322611422769 ], [ 117.312996123629915, 42.411327114365257 ] ] ], [ [ [ 117.31300825436567, 42.411322578240657 ], [ 117.31300827675517, 42.411327081183131 ], [ 117.313014353317783, 42.411327064591589 ], [ 117.313014330927857, 42.411322561649115 ], [ 117.31300825436567, 42.411322578240657 ] ] ] ] } },
{ "type": "Feature", "properties": { "crown_id": 300, "tree_id": "301", "top_h_m": 17.86, "H_95_Mean": 18.4679, "DBH": 31.3497, "Carbon_kg": 177.471475, "area_m2": 28.25 }, "geometry": { "type": "Polygon", "coordinates": [ [ [ 117.313105456963484, 42.411317809794866 ], [ 117.313111533525159, 42.411317793198172 ], [ 117.313111511128312, 42.411313290255727 ], [ 117.313123664250739, 42.41131325706138 ], [ 117.313123641852997, 42.411308754118934 ], [ 117.313135794974571, 42.411308720923294 ], [ 117.313135750177366, 42.411299715038417 ], [ 117.313141826737265, 42.411299698440125 ], [ 117.313141849136301, 42.411304201382563 ], [ 117.313147925696626, 42.411304184783944 ], [ 117.313147858498255, 42.411290675956614 ], [ 117.313141781939251, 42.411290692555227 ], [ 117.313141714742216, 42.411277183727861 ], [ 117.313129561626752, 42.411277216924098 ], [ 117.313129539228655, 42.411272713981631 ], [ 117.313123462671328, 42.411272730579263 ], [ 117.313123417875971, 42.411263724694315 ], [ 117.313111264763108, 42.411263757888605 ], [ 117.313111242366304, 42.411259254946117 ], [ 117.313105165810271, 42.411259271542782 ], [ 117.313105121017557, 42.411250265657792 ], [ 117.313099044462419, 42.411250282254116 ], [ 117.313099066858328, 42.411254785196626 ], [ 117.313092990302735, 42.411254801792637 ], [ 117.313093035093758, 42.411263807677628 ], [ 117.31308088198081, 42.411263840868692 ], [ 117.313080926770098, 42.411272846753683 ], [ 117.313074850212743, 42.411272863348749 ], [ 117.313074872606961, 42.411277366291245 ], [ 117.313062719491398, 42.411277399480397 ], [ 117.313062764278101, 42.411286405365374 ], [ 117.313074917395397, 42.411286372176207 ], [ 117.313074984578108, 42.411299881003636 ], [ 117.313087137697991, 42.411299847813176 ], [ 117.313087182488246, 42.411308853698102 ], [ 117.313093259049054, 42.411308837102375 ], [ 117.313093281444608, 42.411313340044842 ], [ 117.313105434567063, 42.411313306852421 ], [ 117.313105456963484, 42.411317809794866 ] ] ] } },
{ "type": "Feature", "properties": { "crown_id": 326, "tree_id": "327", "top_h_m": 19.344, "H_95_Mean": 19.4421, "DBH": 22.0037, "Carbon_kg": 89.634778, "area_m2": 6.5 }, "geometry": { "type": "Polygon", "coordinates": [ [ [ 117.313026372098321, 42.411300013752637 ], [ 117.313038525218289, 42.411299980567321 ], [ 117.313038458043422, 42.411286471739849 ], [ 117.313032381484746, 42.411286488332657 ], [ 117.313032291920052, 42.411268476562611 ], [ 117.313026215363109, 42.411268493155092 ], [ 117.313026237753832, 42.411272996097615 ], [ 117.313001931524255, 42.411273062464311 ], [ 117.313001909135266, 42.411268559521787 ], [ 117.312989756021295, 42.411268592703202 ], [ 117.312989733633174, 42.411264089760664 ], [ 117.312983657076643, 42.411264106350899 ], [ 117.312983701852005, 42.411273112235961 ], [ 117.312995854966829, 42.411273079055192 ], [ 117.312995877355391, 42.411277581997723 ], [ 117.313008030471082, 42.41127754881564 ], [ 117.313008052860511, 42.411282051758171 ], [ 117.313014129418789, 42.411282035166636 ], [ 117.313014174198543, 42.411291041051662 ], [ 117.313026327316791, 42.411291007867646 ], [ 117.313026372098321, 42.411300013752637 ] ] ] } },
{ "type": "Feature", "properties": { "crown_id": 358, "tree_id": "359", "top_h_m": 19.02, "H_95_Mean": 19.4964, "DBH": 33.7432, "Carbon_kg": 212.544761, "area_m2": 34.0 }, "geometry": { "type": "Polygon", "coordinates": [ [ [ 117.313044556994157, 42.411290958089197 ], [ 117.313056710112377, 42.411290924901955 ], [ 117.313056620540692, 42.411272913131995 ], [ 117.313068773655402, 42.411272879943482 ], [ 117.313068751261625, 42.411268377000987 ], [ 117.313074827818539, 42.411268360406254 ], [ 117.313074783030146, 42.411259354521249 ], [ 117.313086936142227, 42.411259321330832 ], [ 117.3130868913521, 42.411250315445827 ], [ 117.313092967907252, 42.411250298850135 ], [ 117.313092855929881, 42.411227784137573 ], [ 117.313086779376874, 42.411227800733243 ], [ 117.313086801771931, 42.411232303675774 ], [ 117.313062495558185, 42.411232370055252 ], [ 117.313062473164891, 42.411227867112729 ], [ 117.313038166952822, 42.411227933487055 ], [ 117.313038144561276, 42.41122343054451 ], [ 117.313025991456072, 42.411223463729733 ], [ 117.313025969065407, 42.411218960787181 ], [ 117.313019892513225, 42.411218977379313 ], [ 117.313019914903464, 42.411223480321866 ], [ 117.312995608692987, 42.411223546687154 ], [ 117.312995743024103, 42.411250564342502 ], [ 117.312989666468866, 42.411250580933043 ], [ 117.312989711245066, 42.411259586818133 ], [ 117.312995787801171, 42.4112595702276 ], [ 117.312995810189733, 42.41126407317013 ], [ 117.313007963302809, 42.411264039988069 ], [ 117.313007985692224, 42.4112685429306 ], [ 117.313020138806138, 42.411268509747252 ], [ 117.313020116415842, 42.411264006804728 ], [ 117.31303226952889, 42.411263973620095 ], [ 117.313032247137741, 42.411259470677592 ], [ 117.313050476805941, 42.411259420898226 ], [ 117.313050543983323, 42.411272929725754 ], [ 117.31303839086857, 42.411272962912335 ], [ 117.313038435651805, 42.41128196879734 ], [ 117.313044512210041, 42.411281952204213 ], [ 117.313044556994157, 42.411290958089197 ] ], [ [ 117.313038301302228, 42.411254951142261 ], [ 117.313038234127504, 42.411241442314676 ], [ 117.313056463790474, 42.411241392534386 ], [ 117.313056530969106, 42.41125490136195 ], [ 117.313038301302228, 42.411254951142261 ] ] ] } },
{ "type": "Feature", "properties": { "crown_id": 375, "tree_id": "376", "top_h_m": 20.7, "H_95_Mean": 20.8662, "DBH": 36.0428, "Carbon_kg": 252.696926, "area_m2": 38.75 }, "geometry": { "type": "Polygon", "coordinates": [ [ [ 117.312910872692512, 42.411291323063772 ], [ 117.312923025810946, 42.41129128989072 ], [ 117.312923003427585, 42.411286786948175 ], [ 117.312941233103899, 42.411286737186167 ], [ 117.312941255488539, 42.411291240128698 ], [ 117.31295340860693, 42.41129120695242 ], [ 117.312953363835859, 42.411282201067344 ], [ 117.312959440394181, 42.411282184478722 ], [ 117.312959395622272, 42.411273178593646 ], [ 117.312977625294579, 42.411273128825862 ], [ 117.312977558132843, 42.411259619998241 ], [ 117.312983634688948, 42.411259603408354 ], [ 117.312983567525961, 42.411246094580711 ], [ 117.312989644080758, 42.411246077990491 ], [ 117.312989576916507, 42.41123256916282 ], [ 117.312977423809471, 42.411232602342906 ], [ 117.312977446196683, 42.41123710528548 ], [ 117.312953139980849, 42.411237171641787 ], [ 117.312953117595384, 42.411232668699206 ], [ 117.312898428613337, 42.411232817982047 ], [ 117.312898450994908, 42.411237320924648 ], [ 117.312886297886877, 42.411237354095071 ], [ 117.31288634264827, 42.411246359980268 ], [ 117.312880266093373, 42.411246376565011 ], [ 117.312880288473636, 42.411250879507605 ], [ 117.31289244158431, 42.411250846337801 ], [ 117.312892419203152, 42.41124634339522 ], [ 117.312898495758063, 42.411246326809838 ], [ 117.312898607665971, 42.411268841522741 ], [ 117.312904684223042, 42.411268824937032 ], [ 117.312904728987121, 42.411277830822151 ], [ 117.312910805545044, 42.411277814236129 ], [ 117.312910872692512, 42.411291323063772 ] ] ] } },
{ "type": "Feature", "properties": { "crown_id": 444, "tree_id": "445", "top_h_m": 18.945, "H_95_Mean": 19.3532, "DBH": 26.754, "Carbon_kg": 132.556284, "area_m2": 14.0 }, "geometry": { "type": "Polygon", "coordinates": [ [ [ 117.312959194148917, 42.411232652110613 ], [ 117.312971347255967, 42.411232618932466 ], [ 117.312971324869181, 42.4112281159899 ], [ 117.312977401422287, 42.41122809940034 ], [ 117.312977356647878, 42.411219093515179 ], [ 117.312959126991203, 42.411219143282871 ], [ 117.312959037447698, 42.411201131512499 ], [ 117.31294080779621, 42.411201181277249 ], [ 117.312940785411641, 42.411196678334647 ], [ 117.312934708861576, 42.411196694922253 ], [ 117.312934686477448, 42.411192191979644 ], [ 117.312916456828503, 42.411192241740508 ], [ 117.312916635891213, 42.411228265281409 ], [ 117.312947018656814, 42.411228182344892 ], [ 117.312946996271791, 42.411223679402305 ], [ 117.312953072824456, 42.411223662814038 ], [ 117.312953095209906, 42.411228165756626 ], [ 117.312959171763012, 42.411228149168046 ], [ 117.312959194148917, 42.411232652110613 ] ] ] } },
{ "type": "Feature", "properties": { "crown_id": 476, "tree_id": "477", "top_h_m": 15.93, "H_95_Mean": 16.0105, "DBH": 23.6019, "Carbon_kg": 92.03818, "area_m2": 12.25 }, "geometry": { "type": "Polygon", "coordinates": [ [ [ 117.312874167158625, 42.411241890206817 ], [ 117.312880243713096, 42.411241873622401 ], [ 117.31288019895257, 42.411232867737183 ], [ 117.312892352059762, 42.411232834567421 ], [ 117.312892329678633, 42.41122833162482 ], [ 117.31290448278493, 42.41122829845375 ], [ 117.312904460402962, 42.411223795511141 ], [ 117.312910536955656, 42.411223778925141 ], [ 117.312910402661231, 42.411196761269451 ], [ 117.312892173010923, 42.411196811026471 ], [ 117.312892150629835, 42.411192308083841 ], [ 117.312873920980792, 42.411192357837947 ], [ 117.312874167158625, 42.411241890206817 ] ] ] } }
]
}
