{
"type": "FeatureCollection",
"name": "tile_4_17",
"crs": { "type": "name", "properties": { "name": "urn:ogc:def:crs:OGC:1.3:CRS84" } },
"features": [
{ "type": "Feature", "properties": { "crown_id": 1303, "tree_id": "1304", "top_h_m": 21.208, "H_95_Mean": 21.0977, "DBH": 33.8468, "Carbon_kg": 224.083243, "area_m2": 29.75 }, "geometry": { "type": "MultiPolygon", "coordinates": [ [ [ [ 117.313935318548985, 42.410788688798505 ], [ 117.313941395059103, 42.410788672157985 ], [ 117.313941417514911, 42.410793175100487 ], [ 117.313953570535972, 42.410793141818488 ], [ 117.313953592992675, 42.410797644760969 ], [ 117.313959669503646, 42.410797628119482 ], [ 117.313959736875049, 42.410811136946933 ], [ 117.313965813387298, 42.410811120305119 ], [ 117.313965790929714, 42.410806617362645 ], [ 117.313971867441538, 42.410806600720505 ], [ 117.313971889899534, 42.410811103662972 ], [ 117.313984042924034, 42.410811070377733 ], [ 117.313984087841817, 42.410820076262652 ], [ 117.313990164354919, 42.410820059619553 ], [ 117.313990119436269, 42.410811053734641 ], [ 117.314008348972976, 42.410811003803396 ], [ 117.314008259130532, 42.410792992033535 ], [ 117.314002182620044, 42.410793008677601 ], [ 117.31400202539902, 42.410761488080205 ], [ 117.313995948891574, 42.410761504723922 ], [ 117.313995881512511, 42.410747995896401 ], [ 117.313959422475534, 42.410748095751913 ], [ 117.313959444932621, 42.410752598694437 ], [ 117.313953368425999, 42.410752615335888 ], [ 117.313953480709273, 42.410775130048478 ], [ 117.313947404200476, 42.41077514668963 ], [ 117.313947426656725, 42.41077964963214 ], [ 117.313941350147488, 42.41077966627298 ], [ 117.313941372603296, 42.410784169215482 ], [ 117.313935296093604, 42.410784185855988 ], [ 117.313935318548985, 42.410788688798505 ] ] ], [ [ [ 117.313935318548985, 42.410788688798505 ], [ 117.313929242038881, 42.410788705438691 ], [ 117.313929264493822, 42.4107932083812 ], [ 117.313935341004381, 42.410793191741007 ], [ 117.313935318548985, 42.410788688798505 ] ] ] ] } },
{ "type": "Feature", "properties": { "crown_id": 1319, "tree_id": "1320", "top_h_m": 23.0, "H_95_Mean": 23.759, "DBH": 38.9417, "Carbon_kg": 318.90585, "area_m2": 41.25 }, "geometry": { "type": "MultiPolygon", "coordinates": [ [ [ [ 117.314069069164987, 42.410801831460098 ], [ 117.314062992653703, 42.410801848107383 ], [ 117.314062947724679, 42.410792842222499 ], [ 117.314069024235096, 42.410792825575221 ], [ 117.314069001770164, 42.410788322632783 ], [ 117.314075078280155, 42.410788305985172 ], [ 117.314075055814783, 42.410783803042719 ], [ 117.314068979305219, 42.410783819690323 ], [ 117.3140688220508, 42.410752299093076 ], [ 117.314056669037754, 42.410752332387261 ], [ 117.314056646573732, 42.410747829444794 ], [ 117.314050570067621, 42.410747846091404 ], [ 117.314050547604026, 42.410743343148916 ], [ 117.314038394592686, 42.410743376441154 ], [ 117.314038372129986, 42.410738873498666 ], [ 117.314032295624742, 42.410738890144309 ], [ 117.314032273162468, 42.410734387201792 ], [ 117.314026196657665, 42.410734403847108 ], [ 117.314026151733984, 42.410725397962089 ], [ 117.314013998726068, 42.410725431251734 ], [ 117.314014043648001, 42.410734437136774 ], [ 117.314007967143169, 42.410734453781131 ], [ 117.314007989603709, 42.410738956723641 ], [ 117.313995836593151, 42.410738990011374 ], [ 117.313995859052838, 42.410743492953891 ], [ 117.314001935558551, 42.410743476310181 ], [ 117.314002002938892, 42.410756985137702 ], [ 117.314008079445912, 42.410756968493665 ], [ 117.314008236669935, 42.410788489091054 ], [ 117.314014313179982, 42.410788472446683 ], [ 117.314014447946249, 42.410815490101442 ], [ 117.314044830509431, 42.410815406874626 ], [ 117.314044808046191, 42.410810903932187 ], [ 117.314056961070563, 42.410810870639224 ], [ 117.31405698353467, 42.410815373581656 ], [ 117.314063060047289, 42.410815356934684 ], [ 117.314063015118208, 42.410806351049828 ], [ 117.31406909162996, 42.410806334402537 ], [ 117.314069069164987, 42.410801831460098 ] ] ], [ [ [ 117.314069114094934, 42.410810837344961 ], [ 117.314075190607085, 42.410810820697343 ], [ 117.314075168141684, 42.410806317754918 ], [ 117.31406909162996, 42.410806334402537 ], [ 117.314069114094934, 42.410810837344961 ] ] ], [ [ [ 117.314008393894213, 42.41082000968828 ], [ 117.314008371433601, 42.410815506745834 ], [ 117.313996218408263, 42.410815540033653 ], [ 117.313996240868022, 42.41082004297612 ], [ 117.314008393894213, 42.41082000968828 ] ] ] ] } },
{ "type": "Feature", "properties": { "crown_id": 1340, "tree_id": "1341", "top_h_m": 20.16, "H_95_Mean": 20.3211, "DBH": 34.4792, "Carbon_kg": 227.498954, "area_m2": 34.25 }, "geometry": { "type": "Polygon", "coordinates": [ [ [ 117.313844238243362, 42.410802447195188 ], [ 117.313862467777824, 42.410802397287142 ], [ 117.313862445327644, 42.410797894344618 ], [ 117.313874598349713, 42.410797861070989 ], [ 117.313874575898666, 42.410793358128466 ], [ 117.313880652409267, 42.410793341491164 ], [ 117.313880674860727, 42.410797844433688 ], [ 117.313892827882782, 42.410797811158133 ], [ 117.313892805430442, 42.410793308215602 ], [ 117.313898881941014, 42.410793291577342 ], [ 117.313898859488233, 42.410788788634818 ], [ 117.31390493599838, 42.410788771996245 ], [ 117.313904913545173, 42.410784269053721 ], [ 117.313910990054865, 42.410784252414814 ], [ 117.313910945147626, 42.410775246529781 ], [ 117.313898792129947, 42.410775279807247 ], [ 117.313898702318966, 42.410757268037095 ], [ 117.313892625811874, 42.410757284675334 ], [ 117.313892536002697, 42.410739272905118 ], [ 117.313886459497326, 42.410739289543024 ], [ 117.313886414593682, 42.410730283657884 ], [ 117.313868185080153, 42.41073033356966 ], [ 117.313868117728575, 42.410716824741911 ], [ 117.313862041225363, 42.410716841378516 ], [ 117.31386210857562, 42.410730350206286 ], [ 117.313856032071101, 42.410730366842571 ], [ 117.313856054520755, 42.410734869785159 ], [ 117.313843901510836, 42.410734903056792 ], [ 117.313843946408426, 42.41074390894196 ], [ 117.31383179339673, 42.410743942212306 ], [ 117.313831815844679, 42.41074844515488 ], [ 117.313837892350961, 42.410748428519867 ], [ 117.31383800459291, 42.41077094323272 ], [ 117.313850157609835, 42.410770909961698 ], [ 117.313850247406933, 42.410788921731893 ], [ 117.313844170896758, 42.410788938367574 ], [ 117.313844238243362, 42.410802447195188 ] ] ] } },
{ "type": "Feature", "properties": { "crown_id": 1374, "tree_id": "1375", "top_h_m": 22.18, "H_95_Mean": 22.8353, "DBH": 34.5911, "Carbon_kg": 245.345817, "area_m2": 28.0 }, "geometry": { "type": "Polygon", "coordinates": [ [ [ 117.313923120619762, 42.410779716193538 ], [ 117.313935273638251, 42.410779682913486 ], [ 117.313935251182869, 42.410775179970976 ], [ 117.31394132769168, 42.410775163330463 ], [ 117.313941305235886, 42.410770660387954 ], [ 117.313947381744256, 42.410770643747128 ], [ 117.313947269463171, 42.410748129034516 ], [ 117.313953345969352, 42.410748112393371 ], [ 117.313953211229631, 42.410721094738143 ], [ 117.313947134726078, 42.410721111379253 ], [ 117.313947089813738, 42.410712105494135 ], [ 117.313916707300109, 42.41071218869488 ], [ 117.313916752208101, 42.41072119458002 ], [ 117.31387421668272, 42.410721311047574 ], [ 117.313874239133696, 42.410725813990155 ], [ 117.313892468645903, 42.410725764077419 ], [ 117.313892513550428, 42.410734769962545 ], [ 117.313898590055359, 42.410734753324313 ], [ 117.313898679866227, 42.410752765094543 ], [ 117.313904756372892, 42.410752748455984 ], [ 117.313904846185608, 42.41077076022615 ], [ 117.313916999202391, 42.410770726948037 ], [ 117.313917021656451, 42.410775229890568 ], [ 117.313923098165247, 42.410775213251014 ], [ 117.313923120619762, 42.410779716193538 ] ] ] } },
{ "type": "Feature", "properties": { "crown_id": 1375, "tree_id": "1376", "top_h_m": 20.827, "H_95_Mean": 21.2861, "DBH": 27.9906, "Carbon_kg": 153.604584, "area_m2": 14.0 }, "geometry": { "type": "Polygon", "coordinates": [ [ [ 117.3140627230798, 42.410747812797851 ], [ 117.314068799585911, 42.410747796150602 ], [ 117.314068777121022, 42.410743293208114 ], [ 117.314074853626664, 42.410743276560538 ], [ 117.314074786230705, 42.410729767733088 ], [ 117.314080862735054, 42.410729751085199 ], [ 117.314080840269298, 42.410725248142718 ], [ 117.314086916773206, 42.410725231494496 ], [ 117.314086894307053, 42.410720728552015 ], [ 117.314080817803557, 42.410720745200216 ], [ 117.31408075040639, 42.410707236372708 ], [ 117.31406859740207, 42.410707269668144 ], [ 117.314068574937224, 42.410702766725635 ], [ 117.314062498435476, 42.410702783372855 ], [ 117.314062475971056, 42.410698280430331 ], [ 117.314056399469763, 42.410698297077239 ], [ 117.314056421933714, 42.410702800019763 ], [ 117.314050345431994, 42.410702816666351 ], [ 117.314050367895518, 42.410707319608868 ], [ 117.31404429139333, 42.410707336255129 ], [ 117.314044313856442, 42.41071183919766 ], [ 117.314038237353827, 42.410711855843601 ], [ 117.314038282279185, 42.410720861728642 ], [ 117.314032205775675, 42.410720878374264 ], [ 117.314032250700194, 42.41072988425929 ], [ 117.314038327204571, 42.410729867613661 ], [ 117.314038349667271, 42.410734370556163 ], [ 117.314044426172075, 42.410734353910193 ], [ 117.314044448635215, 42.41073885685271 ], [ 117.314056601645689, 42.410738823559818 ], [ 117.314056624109696, 42.410743326502306 ], [ 117.314062700615366, 42.410743309855377 ], [ 117.3140627230798, 42.410747812797851 ] ] ] } },
{ "type": "Feature", "properties": { "crown_id": 1404, "tree_id": "1405", "top_h_m": 21.113, "H_95_Mean": 21.4085, "DBH": 28.8122, "Carbon_kg": 163.380432, "area_m2": 15.5 }, "geometry": { "type": "Polygon", "coordinates": [ [ [ 117.313959400018476, 42.410743592809389 ], [ 117.313989782547139, 42.410743509597275 ], [ 117.313989737628646, 42.410734503712241 ], [ 117.314001890638337, 42.410734470425147 ], [ 117.314001868178252, 42.410729967482631 ], [ 117.314007944682643, 42.410729950838601 ], [ 117.31400789976162, 42.41072094495356 ], [ 117.314001823258081, 42.410720961597583 ], [ 117.314001778337911, 42.410711955712522 ], [ 117.313995701835239, 42.410711972356204 ], [ 117.313995679375608, 42.410707469413666 ], [ 117.313989602873377, 42.410707486057035 ], [ 117.313989557954997, 42.410698480171924 ], [ 117.313983481453619, 42.410698496814973 ], [ 117.31398343653612, 42.410689490929862 ], [ 117.313977360035622, 42.410689507572563 ], [ 117.313977404952254, 42.410698513457689 ], [ 117.313971328450847, 42.410698530100078 ], [ 117.313971373366641, 42.410707535985196 ], [ 117.313959220362122, 42.410707569269036 ], [ 117.313959242819152, 42.410712072211595 ], [ 117.313953166316438, 42.410712088853018 ], [ 117.313953188773027, 42.410716591795584 ], [ 117.313959265276182, 42.410716575154133 ], [ 117.313959400018476, 42.410743592809389 ] ] ] } },
{ "type": "Feature", "properties": { "crown_id": 1466, "tree_id": "1467", "top_h_m": 23.601, "H_95_Mean": 24.0979, "DBH": 35.3959, "Carbon_kg": 265.298283, "area_m2": 27.75 }, "geometry": { "type": "Polygon", "coordinates": [ [ [ 117.313874194231772, 42.410716808104979 ], [ 117.313910653250943, 42.410716708276631 ], [ 117.313910608343818, 42.410707702391491 ], [ 117.31392883785071, 42.410707652472979 ], [ 117.313928770486186, 42.410694143645252 ], [ 117.313916617484196, 42.410694176924558 ], [ 117.313916527668397, 42.410676165154186 ], [ 117.31392260416763, 42.410676148514696 ], [ 117.313922559258884, 42.410667142629499 ], [ 117.31391648276049, 42.410667159268975 ], [ 117.313916415398708, 42.410653650441134 ], [ 117.313892109410318, 42.410653716995796 ], [ 117.313892131862517, 42.410658219938426 ], [ 117.313886055364961, 42.410658236576289 ], [ 117.313886077816719, 42.410662739518905 ], [ 117.313880001318736, 42.410662756156455 ], [ 117.313880046221399, 42.410671762041702 ], [ 117.31387396972255, 42.410671778678925 ], [ 117.313873992173455, 42.410676281621548 ], [ 117.313861839174834, 42.410676314895042 ], [ 117.313861861624858, 42.410680817837665 ], [ 117.313855785125128, 42.410680834473929 ], [ 117.313855830024352, 42.410689840359176 ], [ 117.313861906524963, 42.410689823722905 ], [ 117.313861928975015, 42.410694326665521 ], [ 117.313868005476053, 42.410694310028916 ], [ 117.313868095278053, 42.410712321799316 ], [ 117.313874171780824, 42.410712305162392 ], [ 117.313874194231772, 42.410716808104979 ] ] ] } },
{ "type": "Feature", "properties": { "crown_id": 1467, "tree_id": "1468", "top_h_m": 22.207, "H_95_Mean": 22.3364, "DBH": 34.1538, "Carbon_kg": 236.030535, "area_m2": 27.75 }, "geometry": { "type": "Polygon", "coordinates": [ [ [ 117.31401397626513, 42.410720928309225 ], [ 117.314026129272165, 42.410720895019573 ], [ 117.314026106810346, 42.410716392077056 ], [ 117.314032183313429, 42.41071637543174 ], [ 117.314032138388924, 42.410707369546699 ], [ 117.314038214891141, 42.410707352901078 ], [ 117.314038192428455, 42.410702849958547 ], [ 117.314044268930218, 42.410702833312605 ], [ 117.314044246467134, 42.410698330370082 ], [ 117.314050322968441, 42.41069831372382 ], [ 117.314050300504903, 42.410693810781304 ], [ 117.314062453506679, 42.410693777487815 ], [ 117.314062431042274, 42.410689274545291 ], [ 117.314050278041378, 42.410689307838759 ], [ 117.314050165723827, 42.410666793126055 ], [ 117.314044089225561, 42.410666809772295 ], [ 117.314044066762506, 42.410662306829735 ], [ 117.314037990264652, 42.410662323475655 ], [ 117.314037967802022, 42.410657820533096 ], [ 117.314019738309767, 42.410657870468903 ], [ 117.314019715848431, 42.410653367526336 ], [ 117.314001486357412, 42.410653417459244 ], [ 117.314001553737441, 42.410666926286964 ], [ 117.313989400740809, 42.41066695957398 ], [ 117.313989535495821, 42.410693977229386 ], [ 117.313995611996731, 42.410693960586023 ], [ 117.313995656915992, 42.410702966471121 ], [ 117.314001733417797, 42.410702949827439 ], [ 117.314001755877854, 42.410707452769969 ], [ 117.314007832380085, 42.410707436125961 ], [ 117.314007877301094, 42.410716442011029 ], [ 117.314013953804178, 42.410716425366701 ], [ 117.31401397626513, 42.410720928309225 ] ] ] } },
{ "type": "Feature", "properties": { "crown_id": 1485, "tree_id": "1486", "top_h_m": 20.926, "H_95_Mean": 21.3118, "DBH": 26.4723, "Carbon_kg": 137.371892, "area_m2": 11.25 }, "geometry": { "type": "Polygon", "coordinates": [ [ [ 117.314074651438958, 42.41070275007808 ], [ 117.314080727940677, 42.410702733430199 ], [ 117.314080705474979, 42.410698230487696 ], [ 117.314105011480095, 42.410698163892981 ], [ 117.314104989012662, 42.410693660950493 ], [ 117.314123218515149, 42.410693611001086 ], [ 117.31412319604641, 42.410689108058577 ], [ 117.314111043045628, 42.410689141358503 ], [ 117.314110975642038, 42.41067563253096 ], [ 117.314092746144752, 42.410675682478406 ], [ 117.314092701211649, 42.410666676593351 ], [ 117.314080548215173, 42.410666709890023 ], [ 117.314080570680829, 42.410671212832547 ], [ 117.314074494182151, 42.410671229480407 ], [ 117.314074516647381, 42.410675732422931 ], [ 117.314062363649114, 42.410675765717684 ], [ 117.314062386113491, 42.410680268660222 ], [ 117.314056309613932, 42.410680285307116 ], [ 117.314056332077882, 42.410684788249661 ], [ 117.314068485077883, 42.410684754955547 ], [ 117.314068552472378, 42.410698263783111 ], [ 117.314074628973671, 42.410698247135556 ], [ 117.314074651438958, 42.41070275007808 ] ] ] } },
{ "type": "Feature", "properties": { "crown_id": 1521, "tree_id": "1522", "top_h_m": 23.13, "H_95_Mean": 22.9519, "DBH": 33.7629, "Carbon_kg": 234.355221, "area_m2": 25.25 }, "geometry": { "type": "Polygon", "coordinates": [ [ [ 117.313934914352998, 42.410707635832836 ], [ 117.313953143859834, 42.410707585910465 ], [ 117.313953121403259, 42.410703082967906 ], [ 117.313965274406925, 42.410703049684727 ], [ 117.313965229492013, 42.410694043799595 ], [ 117.313971305992979, 42.410694027157525 ], [ 117.313971261077242, 42.410685021272386 ], [ 117.313983414077384, 42.410684987987295 ], [ 117.31398330178375, 42.410662473274421 ], [ 117.313995454779544, 42.410662439988052 ], [ 117.31399543231997, 42.410657937045485 ], [ 117.313971126330117, 42.410658003616902 ], [ 117.313971103872291, 42.410653500674314 ], [ 117.313965027375247, 42.410653517316355 ], [ 117.313965004917833, 42.410649014373753 ], [ 117.313946775427993, 42.410649064297957 ], [ 117.313946730515809, 42.410640058412724 ], [ 117.313940654020072, 42.410640075053479 ], [ 117.313940676475696, 42.410644577996088 ], [ 117.313934599979518, 42.41064459463653 ], [ 117.31393464488994, 42.410653600521755 ], [ 117.313922491895795, 42.410653633801665 ], [ 117.313922536804526, 42.410662639686883 ], [ 117.313928613302451, 42.410662623047088 ], [ 117.313928703121704, 42.410680634817489 ], [ 117.313922626622016, 42.410680651457305 ], [ 117.313922671530804, 42.410689657342488 ], [ 117.313934824531927, 42.410689624062542 ], [ 117.313934914352998, 42.410707635832836 ] ] ] } }
]
}
