{
"type": "FeatureCollection",
"name": "tile_11_20",
"crs": { "type": "name", "properties": { "name": "urn:ogc:def:crs:OGC:1.3:CRS84" } },
"features": [
{ "type": "Feature", "properties": { "crown_id": 4378, "tree_id": "4381", "top_h_m": 20.746, "H_95_Mean": 21.7823, "DBH": 30.1898, "Carbon_kg": 181.354429, "area_m2": 18.0 }, "geometry": { "type": "Polygon", "coordinates": [ [ [ 117.314664566790796, 42.409584387266605 ], [ 117.314688872364513, 42.40958432054952 ], [ 117.314688849856182, 42.409579817606385 ], [ 117.314707079035145, 42.409579767565198 ], [ 117.314706988996676, 42.409561755792673 ], [ 117.314694836214201, 42.409561789153763 ], [ 117.314694723670556, 42.409539274438004 ], [ 117.3146886472815, 42.409539291118058 ], [ 117.314688669789774, 42.409543794061214 ], [ 117.314652211452596, 42.409543894134778 ], [ 117.314652188946937, 42.409539391191593 ], [ 117.314646112557824, 42.409539407869396 ], [ 117.314646225084076, 42.409561922585254 ], [ 117.314652301475348, 42.409561905907452 ], [ 117.314652368992455, 42.409575414736921 ], [ 117.31466452177763, 42.409575381380321 ], [ 117.314664566790796, 42.409584387266605 ] ] ] } },
{ "type": "Feature", "properties": { "crown_id": 4389, "tree_id": "4392", "top_h_m": 20.6, "H_95_Mean": 21.7784, "DBH": 30.6107, "Carbon_kg": 186.466733, "area_m2": 19.0 }, "geometry": { "type": "Polygon", "coordinates": [ [ [ 117.314579474781567, 42.409580117792643 ], [ 117.314585551174645, 42.409580101118372 ], [ 117.314585528673703, 42.409575598175188 ], [ 117.314603757851614, 42.409575548150436 ], [ 117.314603735349365, 42.409571045207265 ], [ 117.314609811741562, 42.409571028531701 ], [ 117.314609789238901, 42.409566525588531 ], [ 117.314615865630657, 42.409566508912654 ], [ 117.314615843127555, 42.409562005969477 ], [ 117.314621919518871, 42.40956198929328 ], [ 117.314621897015357, 42.409557486350089 ], [ 117.314634049797093, 42.409557452996744 ], [ 117.314634027292698, 42.409552950053566 ], [ 117.314640103683118, 42.409552933376403 ], [ 117.314640081178325, 42.409548430433226 ], [ 117.314627928398323, 42.40954846378721 ], [ 117.314627905894397, 42.409543960844033 ], [ 117.314615753115234, 42.409543994196738 ], [ 117.314615730612175, 42.40953949125354 ], [ 117.314609654223034, 42.409539507929402 ], [ 117.314609631720401, 42.409535004986203 ], [ 117.314597478942972, 42.409535038336955 ], [ 117.314597456441234, 42.409530535393749 ], [ 117.314573150888052, 42.409530602091387 ], [ 117.314573173388055, 42.409535105034607 ], [ 117.314567096999312, 42.409535121708217 ], [ 117.314567164498087, 42.409548630537863 ], [ 117.314573240888137, 42.409548613864239 ], [ 117.314573353388354, 42.409571128580239 ], [ 117.314579429780565, 42.409571111906281 ], [ 117.314579474781567, 42.409580117792643 ] ] ] } },
{ "type": "Feature", "properties": { "crown_id": 4390, "tree_id": "4393", "top_h_m": 21.87, "H_95_Mean": 22.3924, "DBH": 32.0186, "Carbon_kg": 207.540906, "area_m2": 21.5 }, "geometry": { "type": "Polygon", "coordinates": [ [ [ 117.314749703836554, 42.409597662563549 ], [ 117.314755780231238, 42.40959764588024 ], [ 117.314755690178771, 42.409579634107857 ], [ 117.314749613785835, 42.409579650791159 ], [ 117.314749478709899, 42.409552633132456 ], [ 117.314755555100234, 42.409552616449176 ], [ 117.314755487561015, 42.409539107619793 ], [ 117.314749411172016, 42.409539124303059 ], [ 117.314749388659379, 42.40953462135991 ], [ 117.314731159493576, 42.409534671407791 ], [ 117.314731182004905, 42.40953917435094 ], [ 117.314706876448696, 42.409539241076942 ], [ 117.314706853939128, 42.409534738133779 ], [ 117.31470077755047, 42.409534754814473 ], [ 117.314700890096262, 42.409557269530239 ], [ 117.314713042877855, 42.409557236168503 ], [ 117.314713155428123, 42.409579750884156 ], [ 117.314719231821073, 42.409579734202801 ], [ 117.314719276842084, 42.409588740089028 ], [ 117.314731429629745, 42.409588706725323 ], [ 117.314731452141132, 42.409593209668429 ], [ 117.314749681323875, 42.409593159620457 ], [ 117.314749703836554, 42.409597662563549 ] ] ] } },
{ "type": "Feature", "properties": { "crown_id": 4429, "tree_id": "4432", "top_h_m": 22.984, "H_95_Mean": 22.9831, "DBH": 25.126, "Carbon_kg": 129.301386, "area_m2": 8.0 }, "geometry": { "type": "Polygon", "coordinates": [ [ [ 117.314779860661474, 42.409552549712835 ], [ 117.314785937051781, 42.409552533027941 ], [ 117.314785914536529, 42.409548030084828 ], [ 117.314804143706098, 42.409547980028243 ], [ 117.314804166222672, 42.409552482971343 ], [ 117.314810242612964, 42.409552466285163 ], [ 117.314810175062021, 42.409538957455858 ], [ 117.314816251450978, 42.409538940769359 ], [ 117.314816228933566, 42.409534437826252 ], [ 117.314804076156491, 42.409534471198903 ], [ 117.314804031123458, 42.409525465312662 ], [ 117.314779725572706, 42.409525532054083 ], [ 117.314779748087503, 42.409530034997218 ], [ 117.314773671699356, 42.409530051681777 ], [ 117.31477371672807, 42.409539057568047 ], [ 117.314761563950057, 42.409539090936185 ], [ 117.314761586463547, 42.40954359387932 ], [ 117.314773739242426, 42.409543560511167 ], [ 117.314773761756811, 42.409548063454274 ], [ 117.314779838146691, 42.409548046769721 ], [ 117.314779860661474, 42.409552549712835 ] ] ] } },
{ "type": "Feature", "properties": { "crown_id": 4470, "tree_id": "4473", "top_h_m": 18.965, "H_95_Mean": 21.0257, "DBH": 23.0602, "Carbon_kg": 103.190734, "area_m2": 6.75 }, "geometry": { "type": "MultiPolygon", "coordinates": [ [ [ [ 117.314633959779584, 42.40953944122402 ], [ 117.314633937275218, 42.409534938280821 ], [ 117.314627860886517, 42.40953495495765 ], [ 117.314627838382592, 42.409530452014458 ], [ 117.314639991159112, 42.409530418660488 ], [ 117.314640013663904, 42.409534921603672 ], [ 117.314652166441249, 42.409534888248416 ], [ 117.314652076418625, 42.409516876475649 ], [ 117.314646000031686, 42.40951689315343 ], [ 117.314645977526482, 42.409512390210232 ], [ 117.314633824753457, 42.40951242356482 ], [ 117.314633802249119, 42.409507920621614 ], [ 117.314621649476962, 42.409507953974924 ], [ 117.314621761994317, 42.40953046869096 ], [ 117.314615685606057, 42.409530485367149 ], [ 117.314615708109116, 42.409534988310341 ], [ 117.314621784497817, 42.409534971634159 ], [ 117.314621807001302, 42.409539474577365 ], [ 117.314633959779584, 42.40953944122402 ] ], [ [ 117.314639991159112, 42.409530418660488 ], [ 117.314639968654319, 42.409525915717296 ], [ 117.314646045042124, 42.409525899039828 ], [ 117.314646067547358, 42.409530401983019 ], [ 117.314639991159112, 42.409530418660488 ] ] ], [ [ [ 117.314633959779584, 42.40953944122402 ], [ 117.314633982283937, 42.409543944167211 ], [ 117.314640058673504, 42.409543927490049 ], [ 117.314640036168683, 42.409539424546864 ], [ 117.314633959779584, 42.40953944122402 ] ] ] ] } },
{ "type": "Feature", "properties": { "crown_id": 4471, "tree_id": "4474", "top_h_m": 23.08, "H_95_Mean": 22.9235, "DBH": 26.7498, "Carbon_kg": 146.47107, "area_m2": 10.25 }, "geometry": { "type": "MultiPolygon", "coordinates": [ [ [ [ 117.314712930327758, 42.409534721452765 ], [ 117.314725083104975, 42.409534688089771 ], [ 117.314725060594114, 42.409530185146622 ], [ 117.314749366146756, 42.409530118416768 ], [ 117.314749343634162, 42.409525615473626 ], [ 117.314743267246413, 42.409525632156566 ], [ 117.314743199709937, 42.409512123327097 ], [ 117.314737123323496, 42.409512140009703 ], [ 117.314737033276657, 42.409494128237021 ], [ 117.31473095689195, 42.409494144919293 ], [ 117.314731024425782, 42.409507653748825 ], [ 117.314700642495723, 42.409507737155437 ], [ 117.314700755041358, 42.40953025187131 ], [ 117.314712907817722, 42.409530218509602 ], [ 117.314712930327758, 42.409534721452765 ] ] ], [ [ [ 117.314737033276657, 42.409494128237021 ], [ 117.314743109661336, 42.409494111554416 ], [ 117.314743087149196, 42.409489608611239 ], [ 117.314737010764944, 42.409489625293844 ], [ 117.314737033276657, 42.409494128237021 ] ] ] ] } },
{ "type": "Feature", "properties": { "crown_id": 4486, "tree_id": "4489", "top_h_m": 20.168, "H_95_Mean": 21.2493, "DBH": 29.6225, "Carbon_kg": 172.012463, "area_m2": 17.5 }, "geometry": { "type": "Polygon", "coordinates": [ [ [ 117.314658265336021, 42.409539374513479 ], [ 117.314682570892415, 42.409539307797793 ], [ 117.314682548384567, 42.409534804854616 ], [ 117.314694701161841, 42.40953477149484 ], [ 117.314694521092349, 42.409498747949399 ], [ 117.314688444707187, 42.409498764629426 ], [ 117.314688377182506, 42.409485255799822 ], [ 117.314694453566375, 42.40948523911981 ], [ 117.314694408549087, 42.409476233233384 ], [ 117.314688332166085, 42.409476249913403 ], [ 117.314688354674303, 42.409480752856609 ], [ 117.314682278290874, 42.409480769536316 ], [ 117.314682323306428, 42.409489775422728 ], [ 117.314676246922133, 42.409489792102107 ], [ 117.314676269429498, 42.409494295045313 ], [ 117.314664116659998, 42.409494328403099 ], [ 117.314664139166467, 42.409498831346319 ], [ 117.314633757240486, 42.409498914735181 ], [ 117.314633779744796, 42.409503417678401 ], [ 117.314639856130441, 42.409503401001274 ], [ 117.314639878635205, 42.40950790394448 ], [ 117.314652031407348, 42.409507870589252 ], [ 117.314652053912994, 42.409512373532451 ], [ 117.314658130299492, 42.409512356854343 ], [ 117.314658265336021, 42.409539374513479 ] ] ] } },
{ "type": "Feature", "properties": { "crown_id": 4501, "tree_id": "4504", "top_h_m": 22.966, "H_95_Mean": 23.3164, "DBH": 29.3533, "Carbon_kg": 178.408181, "area_m2": 14.25 }, "geometry": { "type": "Polygon", "coordinates": [ [ [ 117.314755465047966, 42.409534604676644 ], [ 117.31476761782514, 42.409534571309138 ], [ 117.314767572797294, 42.409525565422875 ], [ 117.314773649185, 42.409525548738635 ], [ 117.314773626670672, 42.409521045795508 ], [ 117.314791855832425, 42.409520995740891 ], [ 117.314791810801168, 42.4095119898546 ], [ 117.314785734414784, 42.409512006539799 ], [ 117.31478559932367, 42.409484988880862 ], [ 117.314761293788493, 42.409485055618333 ], [ 117.31476131630194, 42.409489558561511 ], [ 117.314749163533435, 42.40948959192832 ], [ 117.314749208558595, 42.409498597814668 ], [ 117.314743132173476, 42.409498614497586 ], [ 117.314743177197769, 42.409507620383934 ], [ 117.31474925358377, 42.409507603701009 ], [ 117.314749321121553, 42.40952111253047 ], [ 117.314755397508833, 42.409521095847218 ], [ 117.314755465047966, 42.409534604676644 ] ] ] } },
{ "type": "Feature", "properties": { "crown_id": 4521, "tree_id": "4525", "top_h_m": 22.37, "H_95_Mean": 23.8634, "DBH": 27.2602, "Carbon_kg": 155.818063, "area_m2": 10.25 }, "geometry": { "type": "Polygon", "coordinates": [ [ [ 117.314797932219676, 42.409520979055372 ], [ 117.314816161381415, 42.409520928996891 ], [ 117.314816138864032, 42.409516426053763 ], [ 117.314840444411175, 42.409516359304632 ], [ 117.314840421892058, 42.409511856361512 ], [ 117.314834345505702, 42.409511873049276 ], [ 117.314834322987039, 42.409507370106155 ], [ 117.314822170215209, 42.40950740348071 ], [ 117.314822057626245, 42.409484888765007 ], [ 117.31479167570744, 42.409484972195699 ], [ 117.314791788285532, 42.409507486911465 ], [ 117.314797864671462, 42.409507470225961 ], [ 117.314797932219676, 42.409520979055372 ] ] ] } },
{ "type": "Feature", "properties": { "crown_id": 4539, "tree_id": "4543", "top_h_m": 19.978, "H_95_Mean": 20.9451, "DBH": 23.0183, "Carbon_kg": 102.579895, "area_m2": 6.75 }, "geometry": { "type": "Polygon", "coordinates": [ [ [ 117.31470061998661, 42.409503234212245 ], [ 117.314724925528921, 42.409503167487614 ], [ 117.31472485799641, 42.409489658658075 ], [ 117.314730934380691, 42.409489641976116 ], [ 117.314730889358188, 42.409480636089732 ], [ 117.314724812974774, 42.409480652771684 ], [ 117.314724790463956, 42.409476149828485 ], [ 117.314700484932061, 42.409476216553053 ], [ 117.314700552459314, 42.40948972538267 ], [ 117.314694476075033, 42.409489742063009 ], [ 117.314694498583691, 42.409494245006208 ], [ 117.314700574968398, 42.409494228325869 ], [ 117.31470061998661, 42.409503234212245 ] ] ] } },
{ "type": "Feature", "properties": { "crown_id": 4565, "tree_id": "4569", "top_h_m": 19.15, "H_95_Mean": 20.1316, "DBH": 22.5899, "Carbon_kg": 96.48114, "area_m2": 6.75 }, "geometry": { "type": "Polygon", "coordinates": [ [ [ 117.314615550587845, 42.409503467707864 ], [ 117.314627703359136, 42.409503434355223 ], [ 117.314627635847486, 42.409489925525541 ], [ 117.314621559463134, 42.409489942202015 ], [ 117.314621514456277, 42.409480936315539 ], [ 117.314615438072792, 42.4094809529917 ], [ 117.314615415569804, 42.409476450048444 ], [ 117.314609339186731, 42.409476466724271 ], [ 117.314609361689307, 42.40948096966752 ], [ 117.314578979771767, 42.409481053041844 ], [ 117.314579047272957, 42.409494561871604 ], [ 117.314615505581799, 42.409494461821403 ], [ 117.314615550587845, 42.409503467707864 ] ] ] } },
{ "type": "Feature", "properties": { "crown_id": 4575, "tree_id": "4579", "top_h_m": 19.61, "H_95_Mean": 20.4698, "DBH": 23.7879, "Carbon_kg": 108.131702, "area_m2": 8.0 }, "geometry": { "type": "Polygon", "coordinates": [ [ [ 117.314633734736148, 42.409494411791954 ], [ 117.314658040275233, 42.409494345081526 ], [ 117.314658017769176, 42.409489842138314 ], [ 117.314670170537823, 42.409489808781167 ], [ 117.314670148030899, 42.409485305837947 ], [ 117.314676224414768, 42.409485289158894 ], [ 117.314676179400095, 42.409476283272461 ], [ 117.31465795025106, 42.409476333308639 ], [ 117.314657927745031, 42.409471830365419 ], [ 117.31462146944942, 42.409471930429056 ], [ 117.314621491952835, 42.409476433372305 ], [ 117.314627568335894, 42.409476416695824 ], [ 117.314627613343617, 42.4094854225823 ], [ 117.314633689727529, 42.409485405905507 ], [ 117.314633734736148, 42.409494411791954 ] ] ] } },
{ "type": "Feature", "properties": { "crown_id": 4610, "tree_id": "4614", "top_h_m": 22.76, "H_95_Mean": 23.0314, "DBH": 26.639, "Carbon_kg": 145.654839, "area_m2": 10.0 }, "geometry": { "type": "Polygon", "coordinates": [ [ [ 117.314736988253259, 42.409485122350652 ], [ 117.314755217404681, 42.409485072301898 ], [ 117.314755194891703, 42.40948056935872 ], [ 117.314767347658417, 42.409480535991278 ], [ 117.314767325144572, 42.409476033048101 ], [ 117.314761248761641, 42.409476049731964 ], [ 117.314761181221385, 42.40946254090241 ], [ 117.314767257603023, 42.40946252421854 ], [ 117.314767235089192, 42.409458021275348 ], [ 117.314761158707995, 42.409458037959212 ], [ 117.3147611136812, 42.409449032072814 ], [ 117.314736808159864, 42.409449098805048 ], [ 117.314736830671521, 42.409453601748254 ], [ 117.314730754290736, 42.409453618430511 ], [ 117.314730799313196, 42.40946262431693 ], [ 117.314724722931544, 42.409462640998868 ], [ 117.314724767953152, 42.409471646885294 ], [ 117.314730844335671, 42.409471630203342 ], [ 117.314730866846929, 42.409476133146541 ], [ 117.314736943229875, 42.409476116464276 ], [ 117.314736988253259, 42.409485122350652 ] ] ] } },
{ "type": "Feature", "properties": { "crown_id": 4635, "tree_id": "4639", "top_h_m": 23.25, "H_95_Mean": 23.069, "DBH": 33.9299, "Carbon_kg": 237.410926, "area_m2": 25.5 }, "geometry": { "type": "MultiPolygon", "coordinates": [ [ [ [ 117.314773424041775, 42.409480519307074 ], [ 117.314822035108477, 42.409480385821858 ], [ 117.31482201259071, 42.409475882878695 ], [ 117.314828088973584, 42.409475866191592 ], [ 117.314828066455391, 42.409471363248443 ], [ 117.314821990072943, 42.409471379935532 ], [ 117.314821967555176, 42.409466876992362 ], [ 117.314815891173168, 42.409466893679138 ], [ 117.314815868655828, 42.409462390735975 ], [ 117.314809792274247, 42.409462407422424 ], [ 117.314809589622513, 42.409421880933735 ], [ 117.314797436867167, 42.409421914305611 ], [ 117.314797414351204, 42.409417411362405 ], [ 117.314779185219422, 42.409417461417796 ], [ 117.314779207734077, 42.409421964361023 ], [ 117.31476705497866, 42.40942199772968 ], [ 117.31476710000625, 42.409431003616113 ], [ 117.314761023627682, 42.409431020299969 ], [ 117.314761068654434, 42.409440026186395 ], [ 117.31475499227497, 42.409440042869932 ], [ 117.314755014787934, 42.409444545813145 ], [ 117.3147671675477, 42.409444512445745 ], [ 117.314767212575347, 42.409453518332157 ], [ 117.314773288956118, 42.409453501647967 ], [ 117.314773356498932, 42.409467010477535 ], [ 117.314767280116868, 42.409467027161718 ], [ 117.314767302630713, 42.409471530104916 ], [ 117.314773379013218, 42.409471513420719 ], [ 117.314773424041775, 42.409480519307074 ] ] ], [ [ [ 117.314779185219422, 42.409417461417796 ], [ 117.314779162704752, 42.409412958474576 ], [ 117.314773086327932, 42.409412975159064 ], [ 117.314773108842147, 42.409417478102291 ], [ 117.314779185219422, 42.409417461417796 ] ] ] ] } },
{ "type": "Feature", "properties": { "crown_id": 4649, "tree_id": "4653", "top_h_m": 21.79, "H_95_Mean": 22.2901, "DBH": 28.9939, "Carbon_kg": 169.46053, "area_m2": 14.75 }, "geometry": { "type": "Polygon", "coordinates": [ [ [ 117.31457895727138, 42.409476550098574 ], [ 117.314603262803672, 42.409476483399779 ], [ 117.314603240301551, 42.40947198045653 ], [ 117.314615393066802, 42.40947194710521 ], [ 117.314615370563814, 42.40946744416194 ], [ 117.314633599710362, 42.409467394132548 ], [ 117.3146335547018, 42.409458388246058 ], [ 117.314627478320489, 42.409458404922837 ], [ 117.314627410808995, 42.409444896093063 ], [ 117.314621334428992, 42.409444912769509 ], [ 117.31462128942222, 42.409435906882969 ], [ 117.314615213043083, 42.409435923559094 ], [ 117.314615235546043, 42.409440426502364 ], [ 117.314603082786874, 42.409440459853663 ], [ 117.314603105288938, 42.409444962796933 ], [ 117.31457879976881, 42.409445029495657 ], [ 117.314578844769514, 42.409454035382225 ], [ 117.314572768388601, 42.409454052056105 ], [ 117.314572835888384, 42.409467560885936 ], [ 117.314578912270633, 42.409467544212049 ], [ 117.31457895727138, 42.409476550098574 ] ] ] } },
{ "type": "Feature", "properties": { "crown_id": 4669, "tree_id": "4673", "top_h_m": 21.689, "H_95_Mean": 22.7275, "DBH": 32.9001, "Carbon_kg": 221.152418, "area_m2": 23.25 }, "geometry": { "type": "Polygon", "coordinates": [ [ [ 117.314664004127621, 42.409471813687013 ], [ 117.314694386040458, 42.409471730290171 ], [ 117.314694363531814, 42.409467227346951 ], [ 117.314700439913935, 42.40946721066662 ], [ 117.314700394895794, 42.409458204780179 ], [ 117.314694318514555, 42.409458221460511 ], [ 117.314694228480121, 42.409440209687581 ], [ 117.314688152100601, 42.409440226367572 ], [ 117.31468810708428, 42.409431220481082 ], [ 117.314675954326972, 42.409431253840083 ], [ 117.314675931819693, 42.409426750896834 ], [ 117.314663779063224, 42.409426784254549 ], [ 117.31466375655684, 42.409422281311286 ], [ 117.314657680179025, 42.409422297989657 ], [ 117.314657702685011, 42.409426800932927 ], [ 117.314627320793747, 42.409426884319963 ], [ 117.314627388305169, 42.409440393149794 ], [ 117.314633464684746, 42.409440376473015 ], [ 117.314633532197533, 42.409453885302803 ], [ 117.314639608578403, 42.409453868625697 ], [ 117.314639676092526, 42.409467377455428 ], [ 117.314663981621152, 42.409467310743779 ], [ 117.314664004127621, 42.409471813687013 ] ] ] } },
{ "type": "Feature", "properties": { "crown_id": 4685, "tree_id": "4689", "top_h_m": 20.21, "H_95_Mean": 20.24, "DBH": 28.3997, "Carbon_kg": 153.518396, "area_m2": 16.25 }, "geometry": { "type": "Polygon", "coordinates": [ [ [ 117.314706538805538, 42.409471696929188 ], [ 117.314718691570604, 42.409471663566912 ], [ 117.314718624039514, 42.40945815473728 ], [ 117.31472470042074, 42.409458138055669 ], [ 117.314724655399175, 42.409449132169229 ], [ 117.314730731779505, 42.409449115487291 ], [ 117.314730709268304, 42.409444612544078 ], [ 117.31474893840803, 42.409444562496361 ], [ 117.314748893382998, 42.409435556609935 ], [ 117.314754969762035, 42.409435539926726 ], [ 117.314754924736178, 42.409426534040279 ], [ 117.31476100111432, 42.409426517356756 ], [ 117.314760978600944, 42.409422014413529 ], [ 117.314742749467797, 42.409422064463136 ], [ 117.314742726955728, 42.409417561519909 ], [ 117.314724497823818, 42.409417611566603 ], [ 117.314724520334551, 42.409422114509844 ], [ 117.314712367579062, 42.409422147872711 ], [ 117.314712390088943, 42.409426650815952 ], [ 117.314694160954346, 42.409426700857843 ], [ 117.31469420597152, 42.40943570674434 ], [ 117.3147002823506, 42.409435690064036 ], [ 117.314700372386767, 42.409453701836959 ], [ 117.314706448767552, 42.409453685156322 ], [ 117.314706538805538, 42.409471696929188 ] ] ] } },
{ "type": "Feature", "properties": { "crown_id": 4734, "tree_id": "4738", "top_h_m": 21.63, "H_95_Mean": 22.3182, "DBH": 28.4911, "Carbon_kg": 163.711675, "area_m2": 13.75 }, "geometry": { "type": "Polygon", "coordinates": [ [ [ 117.31457877726848, 42.409440526552387 ], [ 117.314597006407283, 42.409440476528822 ], [ 117.314596983905616, 42.409435973585545 ], [ 117.314609136663947, 42.409435940234893 ], [ 117.314609114161442, 42.409431437291616 ], [ 117.314621266918849, 42.409431403939685 ], [ 117.314621244415477, 42.409426900996408 ], [ 117.314615168037207, 42.409426917672533 ], [ 117.314615145534276, 42.409422414729249 ], [ 117.314609069156447, 42.409422431405041 ], [ 117.314609024151466, 42.409413425518458 ], [ 117.314590795020493, 42.409413475543893 ], [ 117.314590727516986, 42.409399966713956 ], [ 117.314566422014181, 42.409400033410009 ], [ 117.31456644451363, 42.409404536353328 ], [ 117.314560368137464, 42.409404553026548 ], [ 117.314560480632522, 42.409427067743117 ], [ 117.314572633389162, 42.409427034396359 ], [ 117.314572655889037, 42.409431537339657 ], [ 117.31457873226779, 42.409431520665784 ], [ 117.31457877726848, 42.409440526552387 ] ] ] } },
{ "type": "Feature", "properties": { "crown_id": 4760, "tree_id": "4764", "top_h_m": 21.33, "H_95_Mean": 22.6135, "DBH": 22.6405, "Carbon_kg": 103.815788, "area_m2": 5.5 }, "geometry": { "type": "Polygon", "coordinates": [ [ [ 117.31462122191212, 42.409422398053131 ], [ 117.314651603801238, 42.409422314667715 ], [ 117.314651513779125, 42.409404302894593 ], [ 117.314627208274786, 42.409404369603529 ], [ 117.314627185771016, 42.40939986666023 ], [ 117.314621109395361, 42.409399883336661 ], [ 117.314621176905391, 42.409413392166542 ], [ 117.314615100528442, 42.40941340884266 ], [ 117.314615123031345, 42.409417911785958 ], [ 117.314621199408748, 42.40941789510984 ], [ 117.31462122191212, 42.409422398053131 ] ] ] } },
{ "type": "Feature", "properties": { "crown_id": 4784, "tree_id": "4788", "top_h_m": 22.106, "H_95_Mean": 23.6555, "DBH": 30.8099, "Carbon_kg": 198.388326, "area_m2": 16.75 }, "geometry": { "type": "Polygon", "coordinates": [ [ [ 117.314682008197906, 42.409426734217504 ], [ 117.314688084576133, 42.409426717537826 ], [ 117.314688062067987, 42.409422214594585 ], [ 117.31470629120129, 42.409422164553654 ], [ 117.31470626869185, 42.409417661610419 ], [ 117.3147184214465, 42.4094176282482 ], [ 117.314718331405288, 42.409399616475184 ], [ 117.314706178654106, 42.409399649837368 ], [ 117.314706156144695, 42.409395146894099 ], [ 117.314700079769551, 42.409395163574708 ], [ 117.314700057260552, 42.409390660631445 ], [ 117.314693980885821, 42.409390677311727 ], [ 117.314693958377291, 42.40938617436845 ], [ 117.314681805628695, 42.409386207728041 ], [ 117.314681760613354, 42.409377201841458 ], [ 117.314675684239916, 42.409377218520774 ], [ 117.31467572925439, 42.409386224407363 ], [ 117.314669652880056, 42.409386241086359 ], [ 117.314669675386867, 42.40939074402965 ], [ 117.314663599012107, 42.409390760708327 ], [ 117.314663621518491, 42.409395263651611 ], [ 117.314657545143305, 42.409395280329967 ], [ 117.314657657673052, 42.409417795046387 ], [ 117.314669810427787, 42.409417761689326 ], [ 117.314669832934626, 42.409422264632582 ], [ 117.3146819856902, 42.409422231274235 ], [ 117.314682008197906, 42.409426734217504 ] ] ] } },
{ "type": "Feature", "properties": { "crown_id": 4834, "tree_id": "4838", "top_h_m": 23.431, "H_95_Mean": 24.174, "DBH": 32.3684, "Carbon_kg": 221.962384, "area_m2": 19.5 }, "geometry": { "type": "Polygon", "coordinates": [ [ [ 117.314748803333032, 42.409417544837027 ], [ 117.314760956087582, 42.409417511470302 ], [ 117.314760933574249, 42.409413008527061 ], [ 117.314767009951098, 42.409412991843219 ], [ 117.314766987437324, 42.409408488899999 ], [ 117.314773063813703, 42.40940847221583 ], [ 117.314772951242702, 42.409385957499623 ], [ 117.314760798494234, 42.409385990867605 ], [ 117.314760821007567, 42.409390493810861 ], [ 117.314742591883515, 42.409390543860418 ], [ 117.314742569371504, 42.409386040917155 ], [ 117.314736492997255, 42.409386057599697 ], [ 117.31473647048567, 42.409381554656434 ], [ 117.31473039411182, 42.409381571338649 ], [ 117.314730371600703, 42.409377068395372 ], [ 117.314724295227307, 42.409377085077246 ], [ 117.314724250205899, 42.409368079190699 ], [ 117.314718173833384, 42.409368095872267 ], [ 117.314718128812885, 42.409359089985678 ], [ 117.314705976069519, 42.409359123347826 ], [ 117.314705998578916, 42.409363626291125 ], [ 117.314699922206771, 42.409363642971719 ], [ 117.314699944715741, 42.40936814591501 ], [ 117.314693868343198, 42.409368162595285 ], [ 117.31469391336023, 42.409377168481868 ], [ 117.314687836986792, 42.40937718516183 ], [ 117.314687859494896, 42.409381688105121 ], [ 117.314700012242611, 42.409381654744884 ], [ 117.314700034751596, 42.409386157688168 ], [ 117.314706111125872, 42.409386141007559 ], [ 117.314706133635298, 42.409390643950836 ], [ 117.314712210010001, 42.409390627269907 ], [ 117.314712232519852, 42.40939513021317 ], [ 117.314724385270139, 42.409395096850339 ], [ 117.314724475313071, 42.409413108623355 ], [ 117.314748780820551, 42.409413041893785 ], [ 117.314748803333032, 42.409417544837027 ] ], [ [ 117.3147548571974, 42.40941302521059 ], [ 117.314754834684493, 42.409408522267356 ], [ 117.314760911060901, 42.409408505583833 ], [ 117.314760933574249, 42.409413008527061 ], [ 117.3147548571974, 42.40941302521059 ] ] ] } },
{ "type": "Feature", "properties": { "crown_id": 4835, "tree_id": "4839", "top_h_m": 22.244, "H_95_Mean": 22.3559, "DBH": 31.8977, "Carbon_kg": 205.765841, "area_m2": 21.25 }, "geometry": { "type": "Polygon", "coordinates": [ [ [ 117.314803490728437, 42.409417394676623 ], [ 117.314827796237395, 42.409417327930292 ], [ 117.314827773719244, 42.409412824987086 ], [ 117.314833850096036, 42.409412808299706 ], [ 117.314833760021813, 42.409394796526861 ], [ 117.314827683646783, 42.409394813214242 ], [ 117.314827593574378, 42.40937680144134 ], [ 117.314821517201054, 42.409376818128386 ], [ 117.314821449648136, 42.409363309298662 ], [ 117.314803220532042, 42.409363359357833 ], [ 117.314803243048388, 42.409367862301089 ], [ 117.314785013930972, 42.409367912357375 ], [ 117.314785081476117, 42.409381421187135 ], [ 117.314779005102324, 42.409381437871922 ], [ 117.314779140190126, 42.409408455531349 ], [ 117.314785216566506, 42.40940843884654 ], [ 117.314785239081601, 42.409412941789768 ], [ 117.314803468212034, 42.409412891733403 ], [ 117.314803490728437, 42.409417394676623 ] ] ] } }
]
}
