{
"type": "FeatureCollection",
"name": "tile_9_19",
"crs": { "type": "name", "properties": { "name": "urn:ogc:def:crs:OGC:1.3:CRS84" } },
"features": [
{ "type": "Feature", "properties": { "crown_id": 2621, "tree_id": "2621", "top_h_m": 26.18, "H_95_Mean": 25.9888, "DBH": 39.1441, "Carbon_kg": 339.814816, "area_m2": 35.75 }, "geometry": { "type": "Polygon", "coordinates": [ [ [ 117.314569234482818, 42.409962901298073 ], [ 117.314581387342855, 42.409962867950028 ], [ 117.314581319840073, 42.409949359121391 ], [ 117.314593472697496, 42.409949325772082 ], [ 117.314593427693922, 42.40994031988631 ], [ 117.314599504121759, 42.409940303211187 ], [ 117.314599481619538, 42.409935800268293 ], [ 117.314605558046935, 42.409935783592843 ], [ 117.314605445533743, 42.409913268878356 ], [ 117.314611521958994, 42.409913252202593 ], [ 117.314611454449832, 42.40989974337387 ], [ 117.314599301602001, 42.409899776725055 ], [ 117.314599279099824, 42.409895273782134 ], [ 117.314593202676349, 42.409895290457243 ], [ 117.314593180174612, 42.409890787514321 ], [ 117.314587103751549, 42.409890804189097 ], [ 117.31458705874897, 42.409881798303225 ], [ 117.314580982326774, 42.409881814977666 ], [ 117.31458100482763, 42.409886317920616 ], [ 117.31457492840498, 42.409886334594752 ], [ 117.314574950905396, 42.409890837537681 ], [ 117.314556721636166, 42.409890887558163 ], [ 117.314556744135274, 42.409895390501106 ], [ 117.314544591288225, 42.409895423846478 ], [ 117.314544613786481, 42.409899926789421 ], [ 117.314526384514551, 42.409899976805072 ], [ 117.314526407011499, 42.409904479748036 ], [ 117.314532483435926, 42.409904463076465 ], [ 117.314532550928135, 42.409917971905287 ], [ 117.314538627353841, 42.409917955233382 ], [ 117.314538694847414, 42.409931464062161 ], [ 117.314544771274413, 42.409931447389937 ], [ 117.314544793772725, 42.409935950332844 ], [ 117.314550870200179, 42.409935933660293 ], [ 117.314550892698904, 42.409940436603208 ], [ 117.31455696912677, 42.409940419930329 ], [ 117.314557059123516, 42.409958431701931 ], [ 117.314569211982729, 42.40995839835518 ], [ 117.314569234482818, 42.409962901298073 ] ] ] } },
{ "type": "Feature", "properties": { "crown_id": 2649, "tree_id": "2649", "top_h_m": 20.8, "H_95_Mean": 20.8205, "DBH": 24.8941, "Carbon_kg": 119.702438, "area_m2": 9.25 }, "geometry": { "type": "Polygon", "coordinates": [ [ [ 117.31448400700404, 42.409931614097694 ], [ 117.314496159858166, 42.40993158075873 ], [ 117.314496137363349, 42.409927077815787 ], [ 117.314502213789964, 42.409927061145815 ], [ 117.314502191294707, 42.409922558202879 ], [ 117.314508267720896, 42.409922541532588 ], [ 117.314508245225213, 42.40991803858963 ], [ 117.314514321650961, 42.409918021919033 ], [ 117.314514299154851, 42.40991351897609 ], [ 117.314526452005438, 42.409913485633908 ], [ 117.314526429508447, 42.409908982690972 ], [ 117.314520353083623, 42.40990899936223 ], [ 117.31452030809055, 42.409899993476323 ], [ 117.314514231666564, 42.40990001014724 ], [ 117.314514209170468, 42.40989550720429 ], [ 117.314495979899789, 42.409895557215101 ], [ 117.314496002394549, 42.409900060158066 ], [ 117.314483849546505, 42.409900093497008 ], [ 117.314483872040427, 42.409904596439972 ], [ 117.314477795615986, 42.409904613108971 ], [ 117.314477818109481, 42.409909116051935 ], [ 117.314483894534362, 42.409909099382944 ], [ 117.31448400700404, 42.409931614097694 ] ] ] } },
{ "type": "Feature", "properties": { "crown_id": 2674, "tree_id": "2674", "top_h_m": 23.884, "H_95_Mean": 23.7128, "DBH": 35.4509, "Carbon_kg": 263.606084, "area_m2": 28.75 }, "geometry": { "type": "Polygon", "coordinates": [ [ [ 117.314404923498614, 42.409913818997715 ], [ 117.314429229200144, 42.409913752335257 ], [ 117.314429161730118, 42.4099002435063 ], [ 117.314435238154189, 42.409900226839888 ], [ 117.314435170682899, 42.40988671801091 ], [ 117.31442909426012, 42.409886734677315 ], [ 117.314429049280164, 42.409877728791294 ], [ 117.314422972858281, 42.409877745457379 ], [ 117.314422950368737, 42.409873242514365 ], [ 117.314429026790179, 42.409873225848287 ], [ 117.314428981810266, 42.409864219962259 ], [ 117.31440467612785, 42.409864286624597 ], [ 117.314404631151419, 42.409855280738533 ], [ 117.314386401892165, 42.40985533073188 ], [ 117.314386356918362, 42.409846324845788 ], [ 117.314380280499478, 42.409846341509585 ], [ 117.314380347958888, 42.409859850338734 ], [ 117.314374271538682, 42.409859867002218 ], [ 117.314374338996842, 42.409873375831346 ], [ 117.314368262575329, 42.409873392494525 ], [ 117.314368307546587, 42.409882398380596 ], [ 117.314362231124221, 42.409882415043455 ], [ 117.314362298579837, 42.409895923872547 ], [ 117.314368375003525, 42.40989590720968 ], [ 117.314368419974841, 42.409904913095716 ], [ 117.314386649248476, 42.409904863105169 ], [ 117.314386671735463, 42.409909366048176 ], [ 117.314404901010349, 42.409909316054723 ], [ 117.314404923498614, 42.409913818997715 ] ] ] } },
{ "type": "Feature", "properties": { "crown_id": 2703, "tree_id": "2703", "top_h_m": 22.686, "H_95_Mean": 22.524, "DBH": 27.7757, "Carbon_kg": 156.378822, "area_m2": 12.25 }, "geometry": { "type": "Polygon", "coordinates": [ [ [ 117.314441314578247, 42.409900210173163 ], [ 117.314477773122491, 42.409900110165992 ], [ 117.314477750629024, 42.409895607223021 ], [ 117.314489903476201, 42.409895573884739 ], [ 117.314489880981867, 42.409891070941761 ], [ 117.314483804558705, 42.409891087611065 ], [ 117.314483759570905, 42.409882081725108 ], [ 117.31447768314861, 42.409882098394085 ], [ 117.314477638161705, 42.409873092508107 ], [ 117.314465485318863, 42.409873125845088 ], [ 117.314465440333706, 42.409864119959082 ], [ 117.314453287492583, 42.409864153294762 ], [ 117.314453309984287, 42.409868656237769 ], [ 117.314435080721239, 42.409868706238889 ], [ 117.314435148192487, 42.409882215067903 ], [ 117.314441224614797, 42.409882198401185 ], [ 117.314441314578247, 42.409900210173163 ] ] ] } },
{ "type": "Feature", "properties": { "crown_id": 2710, "tree_id": "2710", "top_h_m": 21.714, "H_95_Mean": 21.5569, "DBH": 27.4881, "Carbon_kg": 149.208848, "area_m2": 12.75 }, "geometry": { "type": "Polygon", "coordinates": [ [ [ 117.314325840037597, 42.409896023842975 ], [ 117.31435622215615, 42.409895940535087 ], [ 117.314356132217057, 42.409877928762953 ], [ 117.314362208639025, 42.40987791210042 ], [ 117.314362163668619, 42.409868906214342 ], [ 117.314368240089721, 42.409868889551483 ], [ 117.314368172632868, 42.409855380722348 ], [ 117.314374249052648, 42.409855364059176 ], [ 117.314374204080565, 42.409846358173063 ], [ 117.314368127661666, 42.409846374836221 ], [ 117.314368150147274, 42.409850877779292 ], [ 117.314362073727935, 42.409850894442123 ], [ 117.314362096213102, 42.409855397385179 ], [ 117.314356019793308, 42.409855414047698 ], [ 117.31435604227805, 42.409859916990754 ], [ 117.314325660176905, 42.409860000298544 ], [ 117.314325840037597, 42.409896023842975 ] ] ] } },
{ "type": "Feature", "properties": { "crown_id": 2711, "tree_id": "2711", "top_h_m": 19.498, "H_95_Mean": 19.4078, "DBH": 25.1762, "Carbon_kg": 117.467571, "area_m2": 11.0 }, "geometry": { "type": "Polygon", "coordinates": [ [ [ 117.314520285594028, 42.409895490533373 ], [ 117.314538514864694, 42.409895440518689 ], [ 117.314538492366879, 42.409890937575724 ], [ 117.31455064521306, 42.409890904231013 ], [ 117.314550622714364, 42.40988640128807 ], [ 117.31456885198233, 42.409886351268561 ], [ 117.314568829482354, 42.409881848325611 ], [ 117.314574905904564, 42.409881831651809 ], [ 117.314574838403345, 42.409868322822959 ], [ 117.314580914824234, 42.409868306148837 ], [ 117.31458089232342, 42.40986380320588 ], [ 117.314532280959554, 42.409863936589822 ], [ 117.314532348451635, 42.409877445418736 ], [ 117.314526272029823, 42.409877462090286 ], [ 117.31452633952064, 42.409890970919179 ], [ 117.314520263097506, 42.409890987590401 ], [ 117.314520285594028, 42.409895490533373 ] ] ] } },
{ "type": "Feature", "properties": { "crown_id": 2730, "tree_id": "2730", "top_h_m": 23.243, "H_95_Mean": 23.2372, "DBH": 31.0123, "Carbon_kg": 198.913704, "area_m2": 17.75 }, "geometry": { "type": "Polygon", "coordinates": [ [ [ 117.314495957404986, 42.409891054272144 ], [ 117.314514186674401, 42.409891004261326 ], [ 117.31451416417832, 42.409886501318361 ], [ 117.314520240601013, 42.409886484647458 ], [ 117.314520173111532, 42.409872975818544 ], [ 117.314526249532904, 42.409872959147322 ], [ 117.314526159545238, 42.409854947375401 ], [ 117.314514006705949, 42.409854980717505 ], [ 117.314513939217861, 42.409841471888519 ], [ 117.314489633544426, 42.409841538568848 ], [ 117.314489611050149, 42.409837035625841 ], [ 117.314483534632231, 42.409837052295103 ], [ 117.314483602113782, 42.409850561124152 ], [ 117.314477525694514, 42.409850577793108 ], [ 117.314477548187966, 42.409855080736108 ], [ 117.314465395348577, 42.409855114073068 ], [ 117.314465417841149, 42.409859617016075 ], [ 117.314471494261269, 42.409859600347751 ], [ 117.314471539247265, 42.409868606233758 ], [ 117.314483692089254, 42.409868572896144 ], [ 117.314483737077012, 42.409877578782115 ], [ 117.314489813498867, 42.409877562112833 ], [ 117.314489858487505, 42.409886567998797 ], [ 117.314495934910227, 42.409886551329173 ], [ 117.314495957404986, 42.409891054272144 ] ] ] } },
{ "type": "Feature", "properties": { "crown_id": 2778, "tree_id": "2778", "top_h_m": 25.739, "H_95_Mean": 25.5009, "DBH": 36.598, "Carbon_kg": 293.42952, "area_m2": 28.5 }, "geometry": { "type": "Polygon", "coordinates": [ [ [ 117.314435058230856, 42.409864203295861 ], [ 117.314447211071993, 42.409864169962113 ], [ 117.314447188580743, 42.409859667019106 ], [ 117.314459341421028, 42.409859633684079 ], [ 117.314459296436752, 42.40985062779805 ], [ 117.314471449275288, 42.40985059446173 ], [ 117.314471426782291, 42.409846091518723 ], [ 117.314477503201104, 42.40984607485008 ], [ 117.314477345747306, 42.409814554248911 ], [ 117.314465192915762, 42.409814587585807 ], [ 117.314465147930761, 42.409805581699729 ], [ 117.314459071515842, 42.409805598367683 ], [ 117.314459049023782, 42.409801095424633 ], [ 117.314440819780316, 42.409801145426592 ], [ 117.314440887252601, 42.409814654255769 ], [ 117.314434810836801, 42.409814670922458 ], [ 117.314434833327141, 42.409819173865507 ], [ 117.3144287569109, 42.40981919053187 ], [ 117.314428779400814, 42.409823693474934 ], [ 117.314422702984118, 42.409823710140969 ], [ 117.314422725473619, 42.409828213084019 ], [ 117.314416649056497, 42.409828229749756 ], [ 117.31441667154553, 42.409832732692799 ], [ 117.314410595127981, 42.409832749358202 ], [ 117.314410617616616, 42.409837252301259 ], [ 117.314398464780609, 42.409837285631106 ], [ 117.314398487268377, 42.409841788574155 ], [ 117.314392410849919, 42.409841805238599 ], [ 117.314392455824574, 42.409850811124706 ], [ 117.314410685082507, 42.409850761130393 ], [ 117.314410730059805, 42.409859767016457 ], [ 117.314435035740459, 42.409859700352847 ], [ 117.314435058230856, 42.409864203295861 ] ] ] } },
{ "type": "Feature", "properties": { "crown_id": 2779, "tree_id": "2779", "top_h_m": 23.217, "H_95_Mean": 23.0192, "DBH": 31.3141, "Carbon_kg": 201.706823, "area_m2": 18.75 }, "geometry": { "type": "Polygon", "coordinates": [ [ [ 117.314532258462222, 42.409859433646837 ], [ 117.314580869822592, 42.409859300262937 ], [ 117.314580824820951, 42.409850294377016 ], [ 117.314586901240119, 42.409850277702567 ], [ 117.314586856237625, 42.409841271816639 ], [ 117.314592932655927, 42.409841255141885 ], [ 117.314592910154246, 42.409836752198913 ], [ 117.314586833736399, 42.409836768873667 ], [ 117.314586811235174, 42.409832265930689 ], [ 117.314574658400346, 42.409832299279216 ], [ 117.314574635899973, 42.409827796336231 ], [ 117.314550330231981, 42.409827863029406 ], [ 117.314550307733384, 42.409823360086406 ], [ 117.314532078483609, 42.409823410102895 ], [ 117.314532055986319, 42.409818907159895 ], [ 117.314525979570163, 42.409818923831409 ], [ 117.314526024563889, 42.40982792971743 ], [ 117.314519948146867, 42.409827946388624 ], [ 117.314520060629121, 42.40985046110363 ], [ 117.314532213467544, 42.409850427760887 ], [ 117.314532258462222, 42.409859433646837 ] ] ] } },
{ "type": "Feature", "properties": { "crown_id": 2804, "tree_id": "2804", "top_h_m": 21.105, "H_95_Mean": 21.2033, "DBH": 23.3701, "Carbon_kg": 106.533478, "area_m2": 7.0 }, "geometry": { "type": "Polygon", "coordinates": [ [ [ 117.314495687468082, 42.409837018956246 ], [ 117.31451391672185, 42.40983696894552 ], [ 117.314513849233819, 42.409823460116492 ], [ 117.31451992565043, 42.40982344344561 ], [ 117.314519880657571, 42.409814437559575 ], [ 117.314513804241841, 42.409814454230442 ], [ 117.314513781745845, 42.409809951287428 ], [ 117.314507705330527, 42.409809967957976 ], [ 117.314507682834986, 42.409805465014941 ], [ 117.314501606420123, 42.409805481685162 ], [ 117.314501651410339, 42.409814487571218 ], [ 117.314483422163079, 42.409814537579962 ], [ 117.314483512138381, 42.409832549352082 ], [ 117.314495664973364, 42.409832516013225 ], [ 117.314495687468082, 42.409837018956246 ] ] ] } },
{ "type": "Feature", "properties": { "crown_id": 2832, "tree_id": "2833", "top_h_m": 23.592, "H_95_Mean": 23.4016, "DBH": 34.9115, "Carbon_kg": 253.595415, "area_m2": 27.75 }, "geometry": { "type": "Polygon", "coordinates": [ [ [ 117.314374136622504, 42.409832849343871 ], [ 117.314404518710418, 42.409832766023285 ], [ 117.314404496222238, 42.409828263080229 ], [ 117.314410572639375, 42.409828246415152 ], [ 117.314410550150754, 42.409823743472096 ], [ 117.31441662656745, 42.409823726806692 ], [ 117.314416604078417, 42.409819223863636 ], [ 117.314422680494644, 42.40981920719792 ], [ 117.314422658005171, 42.409814704254856 ], [ 117.314428734421, 42.409814687588813 ], [ 117.3144287119311, 42.409810184645757 ], [ 117.31443478834646, 42.409810167979394 ], [ 117.314434720875468, 42.409796659150196 ], [ 117.314446873703616, 42.409796625816533 ], [ 117.314446806230052, 42.40978311698732 ], [ 117.314428576991787, 42.40978316698731 ], [ 117.314428554501902, 42.409778664044225 ], [ 117.314367790378313, 42.409778830689916 ], [ 117.31436781286385, 42.409783333633023 ], [ 117.314373889276666, 42.4097833169699 ], [ 117.314374136622504, 42.409832849343871 ] ] ] } },
{ "type": "Feature", "properties": { "crown_id": 2840, "tree_id": "2841", "top_h_m": 23.242, "H_95_Mean": 22.9369, "DBH": 31.9882, "Carbon_kg": 210.108483, "area_m2": 20.5 }, "geometry": { "type": "Polygon", "coordinates": [ [ [ 117.31459288765258, 42.409832249255942 ], [ 117.314598964070015, 42.409832232580875 ], [ 117.314598919065816, 42.409823226694932 ], [ 117.314592842649276, 42.409823243369992 ], [ 117.314592820147624, 42.409818740427006 ], [ 117.314598896563723, 42.409818723751947 ], [ 117.314598806555452, 42.40980071197999 ], [ 117.314592730141101, 42.409800728655043 ], [ 117.314592640134634, 42.409782716883008 ], [ 117.314586563722017, 42.409782733557726 ], [ 117.314586541220834, 42.409778230614705 ], [ 117.314580464808657, 42.409778247289097 ], [ 117.3145804423079, 42.409773744346069 ], [ 117.314562213072591, 42.409773794367311 ], [ 117.314562235572012, 42.409778297310339 ], [ 117.314556159159764, 42.409778313983452 ], [ 117.314556249155785, 42.409796325755543 ], [ 117.314550172741804, 42.409796342428344 ], [ 117.314550195240386, 42.409800845371358 ], [ 117.314544118825992, 42.409800862043838 ], [ 117.314544163822291, 42.409809867929859 ], [ 117.314532010991726, 42.40980990127386 ], [ 117.314532033489016, 42.409814404216874 ], [ 117.314538109904746, 42.409814387545033 ], [ 117.314538132402475, 42.40981889048804 ], [ 117.314556361650901, 42.409818840470592 ], [ 117.314556384149938, 42.409823343413592 ], [ 117.314580689816182, 42.409823276719159 ], [ 117.314580712316967, 42.409827779662137 ], [ 117.314592865150942, 42.409827746312963 ], [ 117.31459288765258, 42.409832249255942 ] ] ] } },
{ "type": "Feature", "properties": { "crown_id": 2870, "tree_id": "2871", "top_h_m": 24.161, "H_95_Mean": 24.031, "DBH": 29.3609, "Carbon_kg": 181.717023, "area_m2": 13.5 }, "geometry": { "type": "Polygon", "coordinates": [ [ [ 117.314471246838593, 42.409810067974476 ], [ 117.31449555249992, 42.409810001298091 ], [ 117.314495507510571, 42.40980099541202 ], [ 117.314507660339444, 42.409800962071905 ], [ 117.314507457879785, 42.409760435584424 ], [ 117.314501381469285, 42.409760452254623 ], [ 117.314501403964329, 42.409764955197694 ], [ 117.31449532755336, 42.409764971867574 ], [ 117.314495350048006, 42.409769474810652 ], [ 117.314483197225172, 42.409769508149424 ], [ 117.314483219718952, 42.409774011092502 ], [ 117.314477143307087, 42.409774027761408 ], [ 117.314477165800426, 42.409778530704479 ], [ 117.314471089388121, 42.409778547373065 ], [ 117.314471111881019, 42.40978305031615 ], [ 117.314465035468302, 42.409783066984417 ], [ 117.314465125438261, 42.409801078756679 ], [ 117.314471201852712, 42.409801062088391 ], [ 117.314471246838593, 42.409810067974476 ] ] ] } },
{ "type": "Feature", "properties": { "crown_id": 2871, "tree_id": "2872", "top_h_m": 23.804, "H_95_Mean": 23.6091, "DBH": 30.7815, "Carbon_kg": 197.790101, "area_m2": 16.75 }, "geometry": { "type": "Polygon", "coordinates": [ [ [ 117.314519858161148, 42.409809934616554 ], [ 117.314525934576437, 42.409809917945367 ], [ 117.314525912079588, 42.409805415002353 ], [ 117.3145380649093, 42.409805381659005 ], [ 117.314538019913869, 42.409796375772956 ], [ 117.314544096327836, 42.409796359100817 ], [ 117.314544073829722, 42.409791856157781 ], [ 117.31455015024325, 42.409791839485315 ], [ 117.314550060249005, 42.409773827713188 ], [ 117.314556136660812, 42.409773811040417 ], [ 117.314556114161817, 42.409769308097374 ], [ 117.31456219057317, 42.409769291424276 ], [ 117.31456212307495, 42.409755782595134 ], [ 117.314556046664904, 42.40975579926824 ], [ 117.314556069163871, 42.409760302211275 ], [ 117.314549992753385, 42.40976031888404 ], [ 117.314549970254845, 42.409755815940997 ], [ 117.31451958820449, 42.409755899300009 ], [ 117.314519610700856, 42.409760402243073 ], [ 117.314513534290327, 42.409760418913912 ], [ 117.314513759249863, 42.409805448344393 ], [ 117.314519835664726, 42.409805431673533 ], [ 117.314519858161148, 42.409809934616554 ] ] ] } },
{ "type": "Feature", "properties": { "crown_id": 2914, "tree_id": "2915", "top_h_m": 22.823, "H_95_Mean": 22.7437, "DBH": 28.1921, "Carbon_kg": 162.06761, "area_m2": 12.75 }, "geometry": { "type": "Polygon", "coordinates": [ [ [ 117.31445292762605, 42.409792106206147 ], [ 117.314459004039662, 42.40979208953852 ], [ 117.314458936563511, 42.409778580709308 ], [ 117.31446501297583, 42.409778564041346 ], [ 117.314464990483344, 42.409774061098275 ], [ 117.314471066895237, 42.409774044430009 ], [ 117.314471044402325, 42.409769541486938 ], [ 117.314477120813748, 42.409769524818344 ], [ 117.31447709832041, 42.409765021875266 ], [ 117.31448925114239, 42.409764988537127 ], [ 117.314489228648185, 42.409760485594049 ], [ 117.314495305058742, 42.409760468924503 ], [ 117.31449528256411, 42.409755965981418 ], [ 117.314489206154008, 42.409755982650971 ], [ 117.31448918365983, 42.409751479707886 ], [ 117.314464878021099, 42.40975154638285 ], [ 117.314464855528655, 42.409747043439758 ], [ 117.314452702710128, 42.409747076775297 ], [ 117.314452657727003, 42.409738070889084 ], [ 117.314446581318578, 42.40973808755637 ], [ 117.314446603809714, 42.409742590499469 ], [ 117.314440527400876, 42.409742607166429 ], [ 117.314440684835844, 42.409774127768138 ], [ 117.314434608423966, 42.409774144434806 ], [ 117.314434630914249, 42.409778647377877 ], [ 117.314452860151221, 42.409778597376921 ], [ 117.31445292762605, 42.409792106206147 ] ] ] } },
{ "type": "Feature", "properties": { "crown_id": 2940, "tree_id": "2941", "top_h_m": 21.692, "H_95_Mean": 21.6223, "DBH": 32.1352, "Carbon_kg": 204.784011, "area_m2": 23.25 }, "geometry": { "type": "Polygon", "coordinates": [ [ [ 117.314355615068891, 42.40977436107206 ], [ 117.314428532012045, 42.409774161101133 ], [ 117.314428509522202, 42.409769658158034 ], [ 117.314434585933668, 42.4097696414917 ], [ 117.31443442850177, 42.409738120889969 ], [ 117.314440504910181, 42.409738104223322 ], [ 117.314440459928818, 42.409729098337088 ], [ 117.31441007789104, 42.409729181667039 ], [ 117.314410100379547, 42.409733684610174 ], [ 117.314391871155522, 42.409733734604281 ], [ 117.314391893642721, 42.409738237547423 ], [ 117.3143797408258, 42.409738270875216 ], [ 117.314379830771202, 42.409756282647756 ], [ 117.314373754361, 42.409756299311184 ], [ 117.31437379933287, 42.409765305197439 ], [ 117.314361646510719, 42.409765338523343 ], [ 117.314361668995787, 42.409769841466478 ], [ 117.314355592584249, 42.409769858128939 ], [ 117.314355615068891, 42.40977436107206 ] ] ] } }
]
}
