{
"type": "FeatureCollection",
"name": "tile_21_5",
"crs": { "type": "name", "properties": { "name": "urn:ogc:def:crs:OGC:1.3:CRS84" } },
"features": [
{ "type": "Feature", "properties": { "crown_id": 6196, "tree_id": "6200", "top_h_m": 21.283, "H_95_Mean": 20.9232, "DBH": 34.9598, "Carbon_kg": 238.010592, "area_m2": 34.25 }, "geometry": { "type": "Polygon", "coordinates": [ [ [ 117.310918755245808, 42.407806914374099 ], [ 117.310924831469862, 42.407806897894403 ], [ 117.310924809232134, 42.407802394948256 ], [ 117.310936961679403, 42.407802361987919 ], [ 117.310936872725094, 42.407784350203301 ], [ 117.310942948946945, 42.407784333722667 ], [ 117.310942926707952, 42.407779830776491 ], [ 117.310949002929391, 42.40777981429553 ], [ 117.310948958450552, 42.4077708084032 ], [ 117.310955034671096, 42.407770791921912 ], [ 117.310954967951545, 42.407757283083413 ], [ 117.310961044170824, 42.40775726660182 ], [ 117.310961021930552, 42.407752763655651 ], [ 117.310967098149362, 42.407752747173738 ], [ 117.310967075908664, 42.407748244227555 ], [ 117.31096099969028, 42.407748260709475 ], [ 117.310960955209737, 42.407739254817109 ], [ 117.310942726557172, 42.407739304260893 ], [ 117.310942659840364, 42.407725795422287 ], [ 117.310930507407903, 42.407725828383192 ], [ 117.31093048516982, 42.407721325436981 ], [ 117.310918332738225, 42.407721358396586 ], [ 117.310918354975414, 42.407725861342804 ], [ 117.31090620254291, 42.407725894301116 ], [ 117.310906335960979, 42.407752911978392 ], [ 117.310894183523246, 42.407752944935446 ], [ 117.310894339171782, 42.407784465558805 ], [ 117.310900415393704, 42.40778444908041 ], [ 117.310900459865636, 42.407793454972747 ], [ 117.310906536088424, 42.407793438494039 ], [ 117.310906558324817, 42.407797941440194 ], [ 117.310912634548032, 42.407797924961159 ], [ 117.310912656784865, 42.40780242790732 ], [ 117.310918733008521, 42.407802411427944 ], [ 117.310918755245808, 42.407806914374099 ] ] ] } },
{ "type": "Feature", "properties": { "crown_id": 6218, "tree_id": "6222", "top_h_m": 18.443, "H_95_Mean": 18.217, "DBH": 34.9114, "Carbon_kg": 218.678738, "area_m2": 44.0 }, "geometry": { "type": "Polygon", "coordinates": [ [ [ 117.311034159011086, 42.407797595312687 ], [ 117.311046311457289, 42.407797562340768 ], [ 117.311046289210879, 42.407793059394642 ], [ 117.31105236543354, 42.407793042908203 ], [ 117.311052120718657, 42.407743510500829 ], [ 117.311039968282898, 42.407743543473337 ], [ 117.3110399237911, 42.407734537581049 ], [ 117.31103384757408, 42.407734554066806 ], [ 117.311033825328622, 42.407730051120659 ], [ 117.311027749112014, 42.407730067606103 ], [ 117.31102772686701, 42.407725564659927 ], [ 117.311015574434691, 42.407725597629842 ], [ 117.311015507702251, 42.407712088791314 ], [ 117.311003355272547, 42.407712121759928 ], [ 117.311003377515789, 42.407716624706104 ], [ 117.310997301300489, 42.407716641189936 ], [ 117.310997345786163, 42.407725647082309 ], [ 117.310973040921411, 42.407725713014408 ], [ 117.310973063162521, 42.407730215960598 ], [ 117.3109548345126, 42.407730265406308 ], [ 117.310954812272783, 42.40772576246011 ], [ 117.310948736056574, 42.407725778941355 ], [ 117.310948780535327, 42.407734784833764 ], [ 117.310967009186569, 42.407734735389013 ], [ 117.310967053667952, 42.407743741281372 ], [ 117.310973129885895, 42.40774372479914 ], [ 117.310973196609311, 42.40775723363766 ], [ 117.31096712039006, 42.407757250119893 ], [ 117.310967142630773, 42.407761753066076 ], [ 117.310961066411096, 42.407761769547996 ], [ 117.310961088651354, 42.407766272494158 ], [ 117.310973241091602, 42.407766239529991 ], [ 117.31097326333277, 42.407770742476146 ], [ 117.310985415773843, 42.407770709510693 ], [ 117.310985438015877, 42.407775212456833 ], [ 117.310997590457788, 42.407775179490081 ], [ 117.310997612700703, 42.407779682436221 ], [ 117.311009765143496, 42.407779649468182 ], [ 117.311009809631059, 42.407788655360442 ], [ 117.311034114520012, 42.407788589420463 ], [ 117.311034159011086, 42.407797595312687 ] ] ] } },
{ "type": "Feature", "properties": { "crown_id": 6222, "tree_id": "6226", "top_h_m": 18.195, "H_95_Mean": 17.2394, "DBH": 36.8286, "Carbon_kg": 235.740305, "area_m2": 60.0 }, "geometry": { "type": "MultiPolygon", "coordinates": [ [ [ [ 117.311070594101466, 42.407792993446925 ], [ 117.311070571853335, 42.407788490500835 ], [ 117.311076648075527, 42.407788474013103 ], [ 117.311076625826971, 42.407783971067005 ], [ 117.311082702048736, 42.407783954578953 ], [ 117.311082724297734, 42.407788457525051 ], [ 117.311088800519926, 42.407788441036672 ], [ 117.311088778270459, 42.407783938090581 ], [ 117.311094854492225, 42.407783921601883 ], [ 117.311094876742089, 42.407788424547981 ], [ 117.311119181630772, 42.407788358589968 ], [ 117.311119114875964, 42.407774849751696 ], [ 117.311125191096835, 42.407774833261399 ], [ 117.311125168844811, 42.407770330315309 ], [ 117.311131245065226, 42.407770313824692 ], [ 117.311131267317677, 42.407774816770775 ], [ 117.311137343538533, 42.407774800279839 ], [ 117.311137321285642, 42.407770297333734 ], [ 117.311143397506029, 42.407770280842485 ], [ 117.311143375252698, 42.407765777896401 ], [ 117.311149451472687, 42.407765761404818 ], [ 117.311149340203954, 42.407743246674343 ], [ 117.311143263986168, 42.407743263165919 ], [ 117.311143219479561, 42.407734257273702 ], [ 117.311124990828787, 42.407734306746462 ], [ 117.311124968576777, 42.407729803800351 ], [ 117.311112816143762, 42.407729836780568 ], [ 117.311112793892661, 42.407725333834428 ], [ 117.311106717676566, 42.407725350324064 ], [ 117.311106650924586, 42.407711841485657 ], [ 117.311100574709798, 42.407711857974952 ], [ 117.311100507959168, 42.407698349136489 ], [ 117.311094431745673, 42.40769836562545 ], [ 117.311094387246158, 42.407689359733133 ], [ 117.311088311033529, 42.407689376221775 ], [ 117.311088333282854, 42.407693879167944 ], [ 117.311070104643647, 42.407693928631936 ], [ 117.311070126891678, 42.407698431578112 ], [ 117.311064050678155, 42.407698448065474 ], [ 117.311064095173379, 42.407707453957812 ], [ 117.311058018958974, 42.407707470444848 ], [ 117.311058063453331, 42.407716476337178 ], [ 117.311051987238073, 42.407716492823909 ], [ 117.31105200948484, 42.40772099577007 ], [ 117.311033780837718, 42.407721045228321 ], [ 117.311033803083149, 42.407725548174483 ], [ 117.311039879299301, 42.407725531688719 ], [ 117.311039901545186, 42.407730034634881 ], [ 117.311045977761779, 42.407730018148797 ], [ 117.31104602225443, 42.407739024041092 ], [ 117.311058174689308, 42.407738991067944 ], [ 117.311058441656186, 42.407793026421437 ], [ 117.311070594101466, 42.407792993446925 ] ] ], [ [ [ 117.311058486150728, 42.40780203231364 ], [ 117.311058463903464, 42.407797529367542 ], [ 117.311052387680377, 42.407797545854322 ], [ 117.311052409927214, 42.407802048800413 ], [ 117.311058486150728, 42.40780203231364 ] ] ] ] } },
{ "type": "Feature", "properties": { "crown_id": 6269, "tree_id": "6273", "top_h_m": 12.032, "H_95_Mean": 12.1058, "DBH": 23.1209, "Carbon_kg": 74.840221, "area_m2": 19.25 }, "geometry": { "type": "Polygon", "coordinates": [ [ [ 117.311131044793299, 42.407729787309755 ], [ 117.311161425875753, 42.407729704851938 ], [ 117.311161336857452, 42.407711693067476 ], [ 117.311155260642707, 42.407711709559671 ], [ 117.311155238388565, 42.407707206613544 ], [ 117.311161314602884, 42.407707190121343 ], [ 117.311161292348331, 42.407702687175217 ], [ 117.311155216134452, 42.407702703667404 ], [ 117.311155171626211, 42.407693697775144 ], [ 117.311143019200188, 42.40769373075856 ], [ 117.311142952440505, 42.407680221920103 ], [ 117.311124723805335, 42.407680271392778 ], [ 117.31112474605726, 42.407684774338925 ], [ 117.31110044120858, 42.407684840297996 ], [ 117.311100485708977, 42.40769384619032 ], [ 117.311106561922003, 42.407693829701039 ], [ 117.31110662867394, 42.40770733853951 ], [ 117.311112704888288, 42.40770732204988 ], [ 117.311112771641575, 42.407720830888309 ], [ 117.311118847857202, 42.407720814398353 ], [ 117.311118870108743, 42.407725317344493 ], [ 117.311131022540891, 42.407725284363622 ], [ 117.311131044793299, 42.407729787309755 ] ] ] } },
{ "type": "Feature", "properties": { "crown_id": 6287, "tree_id": "6291", "top_h_m": 18.603, "H_95_Mean": 18.0542, "DBH": 35.0633, "Carbon_kg": 219.432494, "area_m2": 45.5 }, "geometry": { "type": "Polygon", "coordinates": [ [ [ 117.310960888489006, 42.407725745978524 ], [ 117.310966964705216, 42.407725729496619 ], [ 117.310966942464546, 42.407721226550436 ], [ 117.310991247327564, 42.407721160619623 ], [ 117.310991202842786, 42.40771215472725 ], [ 117.310997279057645, 42.407712138243745 ], [ 117.310997256814829, 42.407707635297541 ], [ 117.311003333029262, 42.407707618813724 ], [ 117.311003310785992, 42.407703115867541 ], [ 117.311033691855954, 42.40770303344361 ], [ 117.311033625119691, 42.407689524605047 ], [ 117.311021472694335, 42.407689557575573 ], [ 117.31102140596073, 42.407676048736953 ], [ 117.311015329749353, 42.407676065221722 ], [ 117.311015285261149, 42.407667059329285 ], [ 117.310997056629603, 42.407667108781645 ], [ 117.310997034386816, 42.407662605835419 ], [ 117.310984881966618, 42.407662638802051 ], [ 117.310984859724698, 42.407658135855804 ], [ 117.31097878351504, 42.407658152338634 ], [ 117.310978761273574, 42.407653649392387 ], [ 117.310948380227316, 42.407653731801666 ], [ 117.310948402466593, 42.407658234747942 ], [ 117.310942326256892, 42.407658251228824 ], [ 117.310942348495757, 42.407662754175078 ], [ 117.310930196075461, 42.407662787135912 ], [ 117.310930240551457, 42.40767179302842 ], [ 117.310936316762479, 42.407671776548163 ], [ 117.310936383477809, 42.407685285386883 ], [ 117.310930307265494, 42.407685301867168 ], [ 117.310930351741561, 42.407694307759634 ], [ 117.310936427954744, 42.40769429127937 ], [ 117.310936450193211, 42.407698794225603 ], [ 117.310930373979588, 42.407698810705867 ], [ 117.310930418455669, 42.407707816598325 ], [ 117.310936494670159, 42.40770780011804 ], [ 117.310936516908654, 42.407712303064258 ], [ 117.310942593123571, 42.407712286583667 ], [ 117.310942637601414, 42.407721292476076 ], [ 117.310960866248763, 42.407721243032334 ], [ 117.310960888489006, 42.407725745978524 ] ] ] } }
]
}
