{
"type": "FeatureCollection",
"name": "tile_7_23",
"crs": { "type": "name", "properties": { "name": "urn:ogc:def:crs:OGC:1.3:CRS84" } },
"features": [
{ "type": "Feature", "properties": { "crown_id": 2010, "tree_id": "2010", "top_h_m": 19.494, "H_95_Mean": 19.3774, "DBH": 30.507, "Carbon_kg": 172.832724, "area_m2": 23.25 }, "geometry": { "type": "Polygon", "coordinates": [ [ [ 117.315306173943057, 42.410298602105762 ], [ 117.315324403329058, 42.410298551965724 ], [ 117.315324380774726, 42.410294049023427 ], [ 117.315330457236271, 42.410294032309444 ], [ 117.315330434681485, 42.410289529367155 ], [ 117.315342587603695, 42.410289495938216 ], [ 117.315342542492431, 42.410280490053623 ], [ 117.315348618952669, 42.41028047333868 ], [ 117.315348596396603, 42.410275970396398 ], [ 117.315354672856401, 42.410275953681129 ], [ 117.315354627743417, 42.410266947796536 ], [ 117.31536070420232, 42.410266931080947 ], [ 117.315360681645416, 42.410262428138651 ], [ 117.315354605186911, 42.410262444854226 ], [ 117.315354560073985, 42.410253438969612 ], [ 117.31534240715871, 42.410253472399795 ], [ 117.315342384603113, 42.410248969457477 ], [ 117.315330231688719, 42.410249002886353 ], [ 117.315330209134004, 42.410244499944021 ], [ 117.315311979763678, 42.410244550084926 ], [ 117.315311957210255, 42.410240047142601 ], [ 117.315305880753897, 42.410240063855575 ], [ 117.315305970965852, 42.410258075624931 ], [ 117.315293818049653, 42.410258109049956 ], [ 117.315293975914699, 42.410289629646229 ], [ 117.315300052375846, 42.410289612933852 ], [ 117.315300074928444, 42.410294115876148 ], [ 117.315306151390018, 42.410294099163458 ], [ 117.315306173943057, 42.410298602105762 ] ] ] } },
{ "type": "Feature", "properties": { "crown_id": 2011, "tree_id": "2011", "top_h_m": 22.93, "H_95_Mean": 22.7383, "DBH": 36.4292, "Carbon_kg": 271.646446, "area_m2": 34.5 }, "geometry": { "type": "Polygon", "coordinates": [ [ [ 117.315500643291557, 42.410302570071515 ], [ 117.315506719753827, 42.410302553348181 ], [ 117.315506697186436, 42.410298050405977 ], [ 117.315512773648265, 42.410298033682324 ], [ 117.315512751080448, 42.410293530740113 ], [ 117.315518827541823, 42.410293514016146 ], [ 117.31551878240532, 42.410284508131717 ], [ 117.315512705944812, 42.410284524855676 ], [ 117.315512615673626, 42.410266513086775 ], [ 117.315506539214823, 42.410266529810393 ], [ 117.31550649408014, 42.410257523925914 ], [ 117.315500417622218, 42.410257540649226 ], [ 117.315500372488415, 42.410248534764719 ], [ 117.315494296031346, 42.410248551487705 ], [ 117.315494273464878, 42.410244048545444 ], [ 117.315488197008264, 42.410244065268095 ], [ 117.315488174442237, 42.410239562325827 ], [ 117.315451715704938, 42.410239662654973 ], [ 117.315451693141526, 42.410235159712691 ], [ 117.315433463774127, 42.410235209872894 ], [ 117.315433508898323, 42.410244215757473 ], [ 117.315427432441638, 42.410244232476906 ], [ 117.315427477565009, 42.410253238361491 ], [ 117.315433554022562, 42.410253221642037 ], [ 117.315433666833229, 42.410275736353391 ], [ 117.31543974329297, 42.410275719633617 ], [ 117.315439765855544, 42.410280222575878 ], [ 117.315445842315697, 42.410280205855784 ], [ 117.315445864878726, 42.410284708798038 ], [ 117.315470170721014, 42.410284641914409 ], [ 117.315470193285776, 42.410289144856648 ], [ 117.315476269746767, 42.410289128134927 ], [ 117.315476292311985, 42.410293631077167 ], [ 117.315494521696237, 42.410293580910093 ], [ 117.315494544262748, 42.410298083852304 ], [ 117.315500620724578, 42.410298067129304 ], [ 117.315500643291557, 42.410302570071515 ] ] ] } },
{ "type": "Feature", "properties": { "crown_id": 2026, "tree_id": "2026", "top_h_m": 19.03, "H_95_Mean": 18.8798, "DBH": 26.6802, "Carbon_kg": 129.903565, "area_m2": 14.5 }, "geometry": { "type": "Polygon", "coordinates": [ [ [ 117.315372879677938, 42.410271400591121 ], [ 117.315415414893195, 42.410271283568513 ], [ 117.315415392332355, 42.410266780626245 ], [ 117.315421468791229, 42.41026676390743 ], [ 117.31542142366871, 42.410257758022873 ], [ 117.315415347210717, 42.41025777474168 ], [ 117.315415302089079, 42.410248768857109 ], [ 117.315421378546205, 42.410248752138315 ], [ 117.315421355984952, 42.410244249196026 ], [ 117.315415279528253, 42.410244265914805 ], [ 117.315415256967469, 42.410239762972509 ], [ 117.315403104054923, 42.410239796409115 ], [ 117.315403081494992, 42.410235293466819 ], [ 117.315390928583312, 42.410235326902125 ], [ 117.315390951142376, 42.410239829844436 ], [ 117.315378798229787, 42.410239863278463 ], [ 117.315378820787984, 42.410244366220773 ], [ 117.31537274433127, 42.4102443829373 ], [ 117.315372766889041, 42.410248885879625 ], [ 117.315366690431858, 42.410248902595846 ], [ 117.315366712989189, 42.410253405538157 ], [ 117.315360636531594, 42.410253422254044 ], [ 117.315360659088483, 42.410257925196348 ], [ 117.315366735546533, 42.410257908480439 ], [ 117.31536678066125, 42.410266914365046 ], [ 117.315372857120153, 42.410266897648832 ], [ 117.315372879677938, 42.410271400591121 ] ] ] } },
{ "type": "Feature", "properties": { "crown_id": 2041, "tree_id": "2041", "top_h_m": 22.259, "H_95_Mean": 22.2956, "DBH": 29.9628, "Carbon_kg": 181.094217, "area_m2": 16.75 }, "geometry": { "type": "Polygon", "coordinates": [ [ [ 117.315530957895476, 42.410288977625022 ], [ 117.315555263739213, 42.410288910723359 ], [ 117.315555241168369, 42.410284407781155 ], [ 117.315549164707861, 42.410284424507054 ], [ 117.315549096996648, 42.410270915680428 ], [ 117.315555173455834, 42.410270898954529 ], [ 117.315555128314173, 42.410261893070107 ], [ 117.315561204772493, 42.410261876343895 ], [ 117.315561114487508, 42.410243864574994 ], [ 117.31556719094408, 42.410243847848484 ], [ 117.315567168372397, 42.410239344906252 ], [ 117.315561091916265, 42.410239361632769 ], [ 117.315561069345037, 42.410234858690544 ], [ 117.315548916433613, 42.41023489214259 ], [ 117.315548939003975, 42.410239395084837 ], [ 117.315542862547815, 42.41023941181038 ], [ 117.315542885117765, 42.410243914752613 ], [ 117.315524655747978, 42.410243964927339 ], [ 117.315524678316606, 42.410248467869593 ], [ 117.31550644894547, 42.410248518041428 ], [ 117.315506471512805, 42.410253020983667 ], [ 117.315512547970286, 42.410253004260049 ], [ 117.315512593105836, 42.410262010144535 ], [ 117.315518669564185, 42.410261993420569 ], [ 117.315518759837104, 42.410280005189492 ], [ 117.315524836297172, 42.410279988465206 ], [ 117.315524858865857, 42.410284491407424 ], [ 117.315530935326365, 42.410284474682818 ], [ 117.315530957895476, 42.410288977625022 ] ] ] } },
{ "type": "Feature", "properties": { "crown_id": 2095, "tree_id": "2095", "top_h_m": 18.558, "H_95_Mean": 18.3668, "DBH": 32.0912, "Carbon_kg": 185.430388, "area_m2": 31.25 }, "geometry": { "type": "Polygon", "coordinates": [ [ [ 117.31534846106031, 42.410248952742556 ], [ 117.31536061397469, 42.410248919311734 ], [ 117.315360591417786, 42.410244416369409 ], [ 117.315366667874528, 42.410244399653521 ], [ 117.315366645317198, 42.410239896711197 ], [ 117.3153727217735, 42.410239879994997 ], [ 117.315372699215743, 42.410235377052686 ], [ 117.315384852127465, 42.410235343619306 ], [ 117.315384829568828, 42.410230840676981 ], [ 117.315390906024248, 42.410230823959807 ], [ 117.315390838347113, 42.410217315132854 ], [ 117.315396914801227, 42.410217298415375 ], [ 117.315396892241765, 42.410212795473036 ], [ 117.315384739334405, 42.410212828907689 ], [ 117.315384694217229, 42.410203823023018 ], [ 117.315372541311575, 42.410203856456349 ], [ 117.315372496196147, 42.410194850571663 ], [ 117.315366419744194, 42.410194867287842 ], [ 117.315366397186935, 42.410190364345482 ], [ 117.315354244283881, 42.410190397776873 ], [ 117.315354221727489, 42.41018589483452 ], [ 117.315342068825274, 42.41018592826461 ], [ 117.315342091380799, 42.410190431206985 ], [ 117.315336014929258, 42.410190447921551 ], [ 117.315336037484343, 42.410194950863925 ], [ 117.31532388458038, 42.410194984292112 ], [ 117.315323929688844, 42.410203990176839 ], [ 117.315311776783119, 42.41020402360374 ], [ 117.315311889550046, 42.410226538315548 ], [ 117.315317966005082, 42.410226521602247 ], [ 117.315318011112751, 42.41023552748694 ], [ 117.315324087568669, 42.410235510773312 ], [ 117.315324110122958, 42.410240013715651 ], [ 117.315336263035618, 42.410239980287415 ], [ 117.315336285590774, 42.410244483229754 ], [ 117.315348438504273, 42.410244449800224 ], [ 117.31534846106031, 42.410248952742556 ] ] ] } },
{ "type": "Feature", "properties": { "crown_id": 2096, "tree_id": "2096", "top_h_m": 22.483, "H_95_Mean": 22.5161, "DBH": 28.1995, "Carbon_kg": 161.19163, "area_m2": 13.0 }, "geometry": { "type": "Polygon", "coordinates": [ [ [ 117.315500349921521, 42.410244031822465 ], [ 117.315518579291364, 42.410243981651611 ], [ 117.315518556723163, 42.410239478709357 ], [ 117.315536786091656, 42.410239428535618 ], [ 117.315536763522189, 42.410234925593372 ], [ 117.315542839977908, 42.410234908868141 ], [ 117.315542817407987, 42.410230405925887 ], [ 117.315554970318544, 42.41023037247448 ], [ 117.315554947747742, 42.410225869532226 ], [ 117.31556102420258, 42.410225852806043 ], [ 117.315560979060152, 42.41021684692155 ], [ 117.315518443882269, 42.410216963998053 ], [ 117.315518421314124, 42.410212461055785 ], [ 117.315506268406978, 42.410212494503305 ], [ 117.3155062458397, 42.410207991561016 ], [ 117.315500169386539, 42.410208008284293 ], [ 117.315500259653987, 42.4102260200534 ], [ 117.315494183199107, 42.410226036776372 ], [ 117.315494250898439, 42.410239545603176 ], [ 117.315500327354613, 42.410239528880211 ], [ 117.315500349921521, 42.410244031822465 ] ] ] } },
{ "type": "Feature", "properties": { "crown_id": 2122, "tree_id": "2122", "top_h_m": 22.573, "H_95_Mean": 22.3745, "DBH": 29.0456, "Carbon_kg": 170.450685, "area_m2": 14.75 }, "geometry": { "type": "Polygon", "coordinates": [ [ [ 117.31546384605312, 42.410235126270933 ], [ 117.315488151876224, 42.410235059383567 ], [ 117.315488084178213, 42.410221550556734 ], [ 117.315494160632667, 42.410221533834104 ], [ 117.315494070366967, 42.410203522064961 ], [ 117.315500146819687, 42.410203505342004 ], [ 117.31550012425285, 42.410199002399722 ], [ 117.315494047800584, 42.410199019122672 ], [ 117.315493957534983, 42.410181007353465 ], [ 117.315487881084451, 42.410181024076081 ], [ 117.315487903650393, 42.410185527018392 ], [ 117.315475750748405, 42.410185560462651 ], [ 117.315475773313494, 42.410190063404961 ], [ 117.315469696862081, 42.410190080126625 ], [ 117.315469719426744, 42.410194583068943 ], [ 117.31545756652298, 42.410194616511298 ], [ 117.315457747033506, 42.41023064004969 ], [ 117.315463823488841, 42.410230623328658 ], [ 117.31546384605312, 42.410235126270933 ] ] ] } },
{ "type": "Feature", "properties": { "crown_id": 2147, "tree_id": "2147", "top_h_m": 22.817, "H_95_Mean": 22.4155, "DBH": 35.7025, "Carbon_kg": 258.638847, "area_m2": 32.75 }, "geometry": { "type": "Polygon", "coordinates": [ [ [ 117.315415211845874, 42.410230757087916 ], [ 117.3154395176674, 42.410230690210859 ], [ 117.315439495104869, 42.410226187268563 ], [ 117.315451648014744, 42.410226153828106 ], [ 117.315451467507756, 42.410190130289656 ], [ 117.315463620410625, 42.410190096847955 ], [ 117.315463597846431, 42.410185593905645 ], [ 117.315469674297418, 42.410185577184308 ], [ 117.315469538909596, 42.410158559530338 ], [ 117.31545738601281, 42.410158592972657 ], [ 117.315457363449056, 42.410154090030311 ], [ 117.315451287001068, 42.410154106750973 ], [ 117.315451354691035, 42.410167615578004 ], [ 117.315445278241754, 42.410167632298361 ], [ 117.315445300804654, 42.4101721352407 ], [ 117.315433147905225, 42.41017216868044 ], [ 117.31543317046723, 42.410176671622793 ], [ 117.315427094017082, 42.41017668834219 ], [ 117.315427116578689, 42.410181191284522 ], [ 117.315402810776234, 42.410181258158886 ], [ 117.315402788216375, 42.410176755216526 ], [ 117.315378482415568, 42.410176822085724 ], [ 117.315378504973708, 42.410181325028098 ], [ 117.315384581424354, 42.41018130831128 ], [ 117.315384649100039, 42.410194817138326 ], [ 117.3153785726481, 42.410194833855158 ], [ 117.315378595206255, 42.410199336797504 ], [ 117.315390748111014, 42.410199303363527 ], [ 117.315390793229056, 42.410208309248198 ], [ 117.315402946135521, 42.410208275812913 ], [ 117.315402991255326, 42.410217281697562 ], [ 117.315409067709425, 42.410217264979437 ], [ 117.315409090269753, 42.410221767921755 ], [ 117.315415166724293, 42.410221751203302 ], [ 117.315415211845874, 42.410230757087916 ] ] ] } },
{ "type": "Feature", "properties": { "crown_id": 2148, "tree_id": "2148", "top_h_m": 20.999, "H_95_Mean": 20.6092, "DBH": 29.3033, "Carbon_kg": 165.279892, "area_m2": 17.75 }, "geometry": { "type": "Polygon", "coordinates": [ [ [ 117.315524497767683, 42.410212444331535 ], [ 117.315554880035421, 42.410212360705486 ], [ 117.315554857464676, 42.410207857763211 ], [ 117.315560933917752, 42.410207841037035 ], [ 117.31556091134658, 42.410203338094782 ], [ 117.315573064251865, 42.41020330464147 ], [ 117.315573019107759, 42.410194298756956 ], [ 117.315560866204194, 42.410194332210253 ], [ 117.315560843633023, 42.410189829267978 ], [ 117.315554767181652, 42.410189845994132 ], [ 117.315554744610907, 42.410185343051864 ], [ 117.315542591709061, 42.410185376503222 ], [ 117.315542569139183, 42.410180873560932 ], [ 117.315536492688665, 42.410180890286128 ], [ 117.315536402411013, 42.410162878516921 ], [ 117.315530325962243, 42.410162895241797 ], [ 117.315530348531198, 42.4101673981841 ], [ 117.315518195632777, 42.410167431632857 ], [ 117.315518263337125, 42.410180940459774 ], [ 117.315500033985529, 42.410180990630522 ], [ 117.315500101686027, 42.410194499457432 ], [ 117.315506178137852, 42.410194482734155 ], [ 117.315506223272422, 42.410203488618734 ], [ 117.315512299725114, 42.410203471895144 ], [ 117.315512322292832, 42.410207974837419 ], [ 117.315524475199084, 42.41020794138926 ], [ 117.315524497767683, 42.410212444331535 ] ] ] } },
{ "type": "Feature", "properties": { "crown_id": 2238, "tree_id": "2238", "top_h_m": 21.378, "H_95_Mean": 21.3395, "DBH": 29.8981, "Carbon_kg": 175.692828, "area_m2": 18.0 }, "geometry": { "type": "Polygon", "coordinates": [ [ [ 117.315487858518495, 42.410176521133756 ], [ 117.315512164318918, 42.410176454241373 ], [ 117.315512096615876, 42.410162945414449 ], [ 117.315524249513459, 42.410162911966331 ], [ 117.315524181807874, 42.410149403139386 ], [ 117.315518105360397, 42.4101494198636 ], [ 117.315518015088088, 42.410131408094266 ], [ 117.315469403521959, 42.410131541876261 ], [ 117.315469493780384, 42.410149553645667 ], [ 117.31546341733285, 42.410149570366976 ], [ 117.31546343989703, 42.410154073309315 ], [ 117.315475592792922, 42.410154039866363 ], [ 117.315475637923043, 42.410163045751048 ], [ 117.31548171437187, 42.410163029029086 ], [ 117.315481759502873, 42.410172034913735 ], [ 117.315487835952567, 42.410172018191446 ], [ 117.315487858518495, 42.410176521133756 ] ] ] } },
{ "type": "Feature", "properties": { "crown_id": 2247, "tree_id": "2247", "top_h_m": 22.08, "H_95_Mean": 21.7112, "DBH": 32.8052, "Carbon_kg": 213.999211, "area_m2": 25.0 }, "geometry": { "type": "Polygon", "coordinates": [ [ [ 117.31531173167636, 42.410195017718991 ], [ 117.31531780812837, 42.410195001005718 ], [ 117.315317785574578, 42.410190498063336 ], [ 117.315329938477703, 42.410190464635804 ], [ 117.315329915923044, 42.410185961693429 ], [ 117.315335992374159, 42.41018594497919 ], [ 117.31533596981906, 42.410181442036809 ], [ 117.315342046269748, 42.41018142532225 ], [ 117.315341933492221, 42.410158910610313 ], [ 117.31534800994072, 42.410158893895449 ], [ 117.315347987384783, 42.410154390953053 ], [ 117.315341910936723, 42.410154407667925 ], [ 117.315341888381241, 42.410149904725529 ], [ 117.315335811933608, 42.41014992144008 ], [ 117.315335721713467, 42.410131909670433 ], [ 117.315329645267553, 42.410131926384651 ], [ 117.315329600158364, 42.410122920499802 ], [ 117.315323523713332, 42.410122937213686 ], [ 117.315323478605038, 42.410113931328823 ], [ 117.315317402160872, 42.410113948042387 ], [ 117.315317424714593, 42.410118450984818 ], [ 117.315311348269958, 42.410118467698055 ], [ 117.315311370823252, 42.410122970640501 ], [ 117.315299217933131, 42.410123004066008 ], [ 117.315299240485544, 42.410127507008454 ], [ 117.315287087594555, 42.41012754043269 ], [ 117.315287132697648, 42.41013654631756 ], [ 117.315281056251266, 42.410136563029205 ], [ 117.315281123904668, 42.410150071856499 ], [ 117.315293276800034, 42.410150038432882 ], [ 117.315293321904036, 42.410159044317709 ], [ 117.315299398352579, 42.410159027605417 ], [ 117.315299420905035, 42.410163530547834 ], [ 117.315311573802973, 42.410163497122262 ], [ 117.31531159635631, 42.410168000064665 ], [ 117.315317672805691, 42.410167983351393 ], [ 117.315317717913231, 42.41017698923617 ], [ 117.315311641462955, 42.41017700594945 ], [ 117.31531173167636, 42.410195017718991 ] ] ] } },
{ "type": "Feature", "properties": { "crown_id": 2248, "tree_id": "2248", "top_h_m": 20.6, "H_95_Mean": 20.4448, "DBH": 27.2048, "Carbon_kg": 141.618797, "area_m2": 13.5 }, "geometry": { "type": "Polygon", "coordinates": [ [ [ 117.315408864666551, 42.410176738498429 ], [ 117.315421017566905, 42.410176705061254 ], [ 117.315420995005752, 42.4101722021189 ], [ 117.315427071455474, 42.410172185399837 ], [ 117.315427048893895, 42.410167682457484 ], [ 117.315439201792486, 42.410167649018391 ], [ 117.315439179230012, 42.410163146076052 ], [ 117.315445255678867, 42.410163129356022 ], [ 117.315445187990235, 42.410149620528969 ], [ 117.315439111542702, 42.410149637248992 ], [ 117.315439066417824, 42.410140631364264 ], [ 117.315432989971143, 42.41014064808396 ], [ 117.315432967409151, 42.410136145141593 ], [ 117.315420814516628, 42.410136178580011 ], [ 117.315420837077752, 42.410140681522378 ], [ 117.315408684184348, 42.410140714959518 ], [ 117.315408706744606, 42.410145217901899 ], [ 117.315402630297484, 42.410145234619975 ], [ 117.315402652857316, 42.410149737562364 ], [ 117.31539049996212, 42.410149770997563 ], [ 117.315390567639028, 42.410163279824687 ], [ 117.315396644087912, 42.410163263107243 ], [ 117.31539668920675, 42.410172268991957 ], [ 117.315408842106265, 42.410172235556082 ], [ 117.315408864666551, 42.410176738498429 ] ] ] } },
{ "type": "Feature", "properties": { "crown_id": 2275, "tree_id": "2275", "top_h_m": 20.87, "H_95_Mean": 20.833, "DBH": 27.5786, "Carbon_kg": 147.196562, "area_m2": 13.75 }, "geometry": { "type": "Polygon", "coordinates": [ [ [ 117.315354108945584, 42.410163380122633 ], [ 117.31538449119013, 42.410163296541832 ], [ 117.315384333280477, 42.410131775945125 ], [ 117.31537825683462, 42.410131792661936 ], [ 117.315378211718482, 42.410122786777123 ], [ 117.315335676603397, 42.410122903785584 ], [ 117.31533569915841, 42.410127406728023 ], [ 117.315341775603883, 42.410127390013493 ], [ 117.315341865825772, 42.410145401783133 ], [ 117.315347942272936, 42.410145385068262 ], [ 117.315347964828874, 42.410149888010665 ], [ 117.315354041276478, 42.410149871295467 ], [ 117.315354108945584, 42.410163380122633 ] ] ] } },
{ "type": "Feature", "properties": { "crown_id": 2307, "tree_id": "2307", "top_h_m": 23.448, "H_95_Mean": 23.2726, "DBH": 28.4989, "Carbon_kg": 167.909548, "area_m2": 12.75 }, "geometry": { "type": "Polygon", "coordinates": [ [ [ 117.315390477403156, 42.410145268055189 ], [ 117.315396553850334, 42.410145251337745 ], [ 117.315396531290943, 42.410140748395357 ], [ 117.315402607737653, 42.410140731677608 ], [ 117.315402585177836, 42.410136228735219 ], [ 117.315414738070373, 42.410136195298733 ], [ 117.315414715509704, 42.410131692356352 ], [ 117.315420791955532, 42.410131675637629 ], [ 117.315420679150037, 42.410109160925693 ], [ 117.315414602706369, 42.410109177644401 ], [ 117.315414557585072, 42.410100171759588 ], [ 117.315384175371079, 42.410100255348283 ], [ 117.315384152812598, 42.410095752405844 ], [ 117.315378076370209, 42.410095769122634 ], [ 117.315378189160441, 42.410118283834713 ], [ 117.31538426560499, 42.41011826711793 ], [ 117.315384310721967, 42.410127273002743 ], [ 117.315390387167383, 42.410127256285634 ], [ 117.315390477403156, 42.410145268055189 ] ] ] } },
{ "type": "Feature", "properties": { "crown_id": 2332, "tree_id": "2332", "top_h_m": 22.325, "H_95_Mean": 21.9823, "DBH": 31.1546, "Carbon_kg": 194.272538, "area_m2": 20.0 }, "geometry": { "type": "Polygon", "coordinates": [ [ [ 117.315445165427377, 42.410145117586609 ], [ 117.31546339476867, 42.410145067424629 ], [ 117.315463304512036, 42.410127055655195 ], [ 117.315469380957381, 42.410127038933894 ], [ 117.315469268134521, 42.410104524222028 ], [ 117.31546319169135, 42.410104540943315 ], [ 117.315463123998995, 42.410091032116149 ], [ 117.315457047557103, 42.41009104883711 ], [ 117.315457024993435, 42.410086545894714 ], [ 117.315444872110547, 42.410086579335641 ], [ 117.315444849547731, 42.410082076393245 ], [ 117.315432696665681, 42.410082109832878 ], [ 117.315432719227616, 42.410086612775281 ], [ 117.31542056634467, 42.410086646213649 ], [ 117.31542058890571, 42.410091149156067 ], [ 117.315414512463803, 42.410091165874768 ], [ 117.315414535024445, 42.410095668817178 ], [ 117.315420611466791, 42.410095652098477 ], [ 117.315420656588941, 42.410104657983283 ], [ 117.315426733032169, 42.410104641264255 ], [ 117.315426845839795, 42.410127155976213 ], [ 117.315432922285197, 42.410127139256851 ], [ 117.31543294484716, 42.410131642199225 ], [ 117.315439021292988, 42.410131625479522 ], [ 117.315439043855406, 42.410136128421897 ], [ 117.315445120301646, 42.410136111701881 ], [ 117.315445165427377, 42.410145117586609 ] ] ] } },
{ "type": "Feature", "properties": { "crown_id": 2333, "tree_id": "2333", "top_h_m": 21.366, "H_95_Mean": 21.0537, "DBH": 29.1622, "Carbon_kg": 165.758684, "area_m2": 16.75 }, "geometry": { "type": "Polygon", "coordinates": [ [ [ 117.315475457402712, 42.410127022212286 ], [ 117.315524068965331, 42.410126888427733 ], [ 117.315524001259874, 42.410113379600695 ], [ 117.315536154147864, 42.410113346151356 ], [ 117.315536131578511, 42.410108843209009 ], [ 117.315548284465621, 42.410108809758391 ], [ 117.315548261895401, 42.410104306816038 ], [ 117.315536109009173, 42.410104340266656 ], [ 117.315536086439835, 42.410099837324303 ], [ 117.315523933554431, 42.410099870773635 ], [ 117.315523910985988, 42.410095367831268 ], [ 117.315505681659175, 42.41009541800284 ], [ 117.315505659092011, 42.410090915060465 ], [ 117.315499582650176, 42.410090931783671 ], [ 117.315499560083467, 42.410086428841289 ], [ 117.31549348364203, 42.410086445564168 ], [ 117.315493506208327, 42.410090948506557 ], [ 117.315487429766463, 42.410090965229124 ], [ 117.31548745233232, 42.410095468171491 ], [ 117.31548137589003, 42.410095484893745 ], [ 117.315481398455432, 42.410099987836126 ], [ 117.315475322012716, 42.410100004558046 ], [ 117.315475457402712, 42.410127022212286 ] ] ] } }
]
}
