{
"type": "FeatureCollection",
"name": "tile_16_13",
"crs": { "type": "name", "properties": { "name": "urn:ogc:def:crs:OGC:1.3:CRS84" } },
"features": [
{ "type": "Feature", "properties": { "crown_id": 4801, "tree_id": "4803", "top_h_m": 24.605, "H_95_Mean": 24.4862, "DBH": 34.7164, "Carbon_kg": 257.557096, "area_m2": 25.0 }, "geometry": { "type": "Polygon", "coordinates": [ [ [ 117.312970785008133, 42.408674913801939 ], [ 117.312976861314809, 42.408674897213217 ], [ 117.312976838929629, 42.408670394268633 ], [ 117.313007220460648, 42.408670311320186 ], [ 117.313007242847959, 42.408674814264749 ], [ 117.313019395461197, 42.408674781083114 ], [ 117.31301937307299, 42.408670278138551 ], [ 117.313049754603824, 42.408670195178829 ], [ 117.313049732213429, 42.408665692234273 ], [ 117.313055808519167, 42.408665675641366 ], [ 117.313055763737566, 42.40865666975224 ], [ 117.313043611127867, 42.408656702937719 ], [ 117.313043566348014, 42.408647697048586 ], [ 117.313037490044039, 42.408647713640846 ], [ 117.313037445265095, 42.408638707751663 ], [ 117.313031368961958, 42.408638724343589 ], [ 117.313031346572913, 42.408634221398998 ], [ 117.312982736151255, 42.408634354122782 ], [ 117.312982758536819, 42.408638857067395 ], [ 117.312976682233625, 42.408638873656422 ], [ 117.312976704618748, 42.408643376601042 ], [ 117.31296455201155, 42.408643409778136 ], [ 117.312964619164347, 42.40865691861196 ], [ 117.312970695469261, 42.408656902023573 ], [ 117.312970785008133, 42.408674913801939 ] ] ] } },
{ "type": "Feature", "properties": { "crown_id": 4836, "tree_id": "4838", "top_h_m": 22.131, "H_95_Mean": 21.9504, "DBH": 30.9309, "Carbon_kg": 191.306912, "area_m2": 19.5 }, "geometry": { "type": "Polygon", "coordinates": [ [ [ 117.312849191745968, 42.408661736674894 ], [ 117.312867420662315, 42.408661686927097 ], [ 117.312867398284979, 42.408657183982449 ], [ 117.312879550894991, 42.40865715081565 ], [ 117.312879528516788, 42.408652647871016 ], [ 117.312903833734964, 42.408652581533552 ], [ 117.312903811355056, 42.408648078588911 ], [ 117.31290988765916, 42.408648062003749 ], [ 117.312909753377099, 42.408621044335874 ], [ 117.312915829678587, 42.408621027750399 ], [ 117.312915784917081, 42.408612021861074 ], [ 117.312903632315852, 42.408612055031703 ], [ 117.312903609935972, 42.408607552087041 ], [ 117.312885381035372, 42.408607601840529 ], [ 117.312885425792516, 42.408616607729883 ], [ 117.312879349491453, 42.408616624313744 ], [ 117.312879371869599, 42.408621127258414 ], [ 117.312867219266565, 42.408621160425163 ], [ 117.312867264021151, 42.408630166314516 ], [ 117.312861187718752, 42.408630182897419 ], [ 117.312861254849338, 42.40864369173142 ], [ 117.312855178545618, 42.40864370831401 ], [ 117.312855200922073, 42.408648211258672 ], [ 117.312849124617927, 42.408648227840935 ], [ 117.312849191745968, 42.408661736674894 ] ] ] } },
{ "type": "Feature", "properties": { "crown_id": 4837, "tree_id": "4839", "top_h_m": 23.035, "H_95_Mean": 22.7052, "DBH": 33.6769, "Carbon_kg": 231.668134, "area_m2": 25.5 }, "geometry": { "type": "Polygon", "coordinates": [ [ [ 117.313080180919613, 42.408679118100139 ], [ 117.313098409840563, 42.4086790683156 ], [ 117.313098387446715, 42.408674565371072 ], [ 117.313104463753263, 42.408674548775579 ], [ 117.313104396570395, 42.408661039941975 ], [ 117.313098320265155, 42.408661056537454 ], [ 117.313098297871335, 42.408656553592913 ], [ 117.31310437417612, 42.40865653699742 ], [ 117.313104217416353, 42.408625016385542 ], [ 117.313092064812821, 42.408625049576138 ], [ 117.313092042419456, 42.40862054663156 ], [ 117.31306773721407, 42.408620613008871 ], [ 117.313067714822466, 42.408616110064294 ], [ 117.313055562220597, 42.408616143251017 ], [ 117.313055584611348, 42.408620646195601 ], [ 117.313049508309987, 42.408620662788493 ], [ 117.31304955309065, 42.408629668677676 ], [ 117.313043476788408, 42.408629685270242 ], [ 117.313043543958102, 42.408643194104009 ], [ 117.313049620261651, 42.408643177511429 ], [ 117.313049665042357, 42.408652183400577 ], [ 117.313061817651175, 42.408652150214451 ], [ 117.313061907216095, 42.408670161992688 ], [ 117.313067983522231, 42.408670145399135 ], [ 117.313068005913919, 42.408674648343677 ], [ 117.313080158527058, 42.408674615155597 ], [ 117.313080180919613, 42.408679118100139 ] ] ] } },
{ "type": "Feature", "properties": { "crown_id": 4870, "tree_id": "4872", "top_h_m": 23.461, "H_95_Mean": 22.855, "DBH": 35.6713, "Carbon_kg": 261.165709, "area_m2": 31.5 }, "geometry": { "type": "Polygon", "coordinates": [ [ [ 117.312934327168136, 42.408675013327525 ], [ 117.3129647087015, 42.40867493039034 ], [ 117.312964641548632, 42.408661421556566 ], [ 117.312958565243264, 42.408661438144641 ], [ 117.3129584533241, 42.408638923421577 ], [ 117.312970605930474, 42.408638890245129 ], [ 117.312970583545777, 42.408634387300516 ], [ 117.312976659848502, 42.408634370711816 ], [ 117.312976637463407, 42.408629867767189 ], [ 117.31298879006799, 42.40862983458883 ], [ 117.312988745296039, 42.40862082869959 ], [ 117.312982668994607, 42.40862084528893 ], [ 117.312982512295946, 42.408589324676484 ], [ 117.312970359699179, 42.408589357854154 ], [ 117.312970382083819, 42.408593860798803 ], [ 117.312964305784988, 42.408593877387155 ], [ 117.312964350553401, 42.408602883276451 ], [ 117.312927892755084, 42.408602982799863 ], [ 117.312927915136697, 42.408607485744533 ], [ 117.312921838836516, 42.408607502330639 ], [ 117.312921928361277, 42.408625514109261 ], [ 117.312915852059362, 42.408625530695048 ], [ 117.312915963963235, 42.408648045418254 ], [ 117.312934192875474, 42.408647995659855 ], [ 117.312934215257584, 42.408652498604482 ], [ 117.312940291562086, 42.4086524820177 ], [ 117.312940381092261, 42.408670493796144 ], [ 117.312934304786026, 42.408670510382926 ], [ 117.312934327168136, 42.408675013327525 ] ] ] } },
{ "type": "Feature", "properties": { "crown_id": 4884, "tree_id": "4886", "top_h_m": 23.039, "H_95_Mean": 22.9627, "DBH": 31.0608, "Carbon_kg": 198.143626, "area_m2": 18.25 }, "geometry": { "type": "Polygon", "coordinates": [ [ [ 117.312994866370289, 42.408629817999163 ], [ 117.313037400486138, 42.40862970186248 ], [ 117.313037378096681, 42.408625198917889 ], [ 117.313043454398496, 42.40862518232565 ], [ 117.313043409618729, 42.408616176436446 ], [ 117.313049485919677, 42.408616159843895 ], [ 117.313049418748747, 42.408602651010078 ], [ 117.313043342449106, 42.408602667602629 ], [ 117.313043320059251, 42.408598164658017 ], [ 117.31302509116162, 42.408598214433724 ], [ 117.313025068773072, 42.408593711489104 ], [ 117.313006839876692, 42.408593761261898 ], [ 117.313006817489452, 42.408589258317264 ], [ 117.313000741191075, 42.408589274907548 ], [ 117.313000718804275, 42.4085847719629 ], [ 117.312988566208389, 42.408584805142503 ], [ 117.312988722910049, 42.408616325754963 ], [ 117.31299479921104, 42.408616309165318 ], [ 117.312994866370289, 42.408629817999163 ] ] ] } },
{ "type": "Feature", "properties": { "crown_id": 4914, "tree_id": "4916", "top_h_m": 21.188, "H_95_Mean": 21.7412, "DBH": 34.6248, "Carbon_kg": 238.791676, "area_m2": 30.75 }, "geometry": { "type": "Polygon", "coordinates": [ [ [ 117.313098118720788, 42.408620530036416 ], [ 117.313110271323438, 42.408620496845181 ], [ 117.313110248928766, 42.408615993900618 ], [ 117.313116325229672, 42.408615977304507 ], [ 117.313116302834572, 42.408611474359944 ], [ 117.313128455435432, 42.408611441166784 ], [ 117.313128343455716, 42.408588926443898 ], [ 117.313134419753965, 42.408588909846841 ], [ 117.313134374961251, 42.408579903957673 ], [ 117.313140451258633, 42.408579887360304 ], [ 117.313140428861857, 42.408575384415713 ], [ 117.313134352564902, 42.408575401013074 ], [ 117.313134307772202, 42.408566395123884 ], [ 117.313097849995586, 42.408566494701269 ], [ 117.313097872389349, 42.408570997645889 ], [ 117.313061414609962, 42.408571097211706 ], [ 117.31306152656569, 42.408593611934798 ], [ 117.31305545026693, 42.408593628527981 ], [ 117.313055539829847, 42.408611640306418 ], [ 117.313073768731329, 42.408611590525858 ], [ 117.313073791123372, 42.408616093470442 ], [ 117.313098096326982, 42.408616027091853 ], [ 117.313098118720788, 42.408620530036416 ] ] ] } },
{ "type": "Feature", "properties": { "crown_id": 4936, "tree_id": "4938", "top_h_m": 22.411, "H_95_Mean": 22.3435, "DBH": 26.7549, "Carbon_kg": 144.323129, "area_m2": 10.75 }, "geometry": { "type": "Polygon", "coordinates": [ [ [ 117.312909686236154, 42.408607535501893 ], [ 117.312915762536335, 42.408607518916433 ], [ 117.312915740155617, 42.408603015971757 ], [ 117.312921816455344, 42.40860299938597 ], [ 117.312921794074185, 42.408598496441307 ], [ 117.312958251869901, 42.408598396919842 ], [ 117.312958207102369, 42.408589391030539 ], [ 117.312964283400774, 42.408589374442514 ], [ 117.31296426101656, 42.408584871497851 ], [ 117.312958184718596, 42.408584888085869 ], [ 117.312958162334851, 42.408580385141207 ], [ 117.312952086037313, 42.408580401728912 ], [ 117.312952063653995, 42.408575898784242 ], [ 117.312921682168394, 42.408575981717924 ], [ 117.312921704549524, 42.4085804846626 ], [ 117.312915628251972, 42.408580501248387 ], [ 117.312915650632689, 42.408585004193057 ], [ 117.312903498036661, 42.40858503736365 ], [ 117.312903542796377, 42.408594043253011 ], [ 117.312909619095251, 42.408594026667878 ], [ 117.312909641475542, 42.408598529612547 ], [ 117.312903565176228, 42.408598546197695 ], [ 117.312903587556107, 42.408603049142364 ], [ 117.312909663855862, 42.408603032557217 ], [ 117.312909686236154, 42.408607535501893 ] ] ] } },
{ "type": "Feature", "properties": { "crown_id": 4942, "tree_id": "4944", "top_h_m": 22.247, "H_95_Mean": 21.9444, "DBH": 29.2713, "Carbon_kg": 171.154512, "area_m2": 15.75 }, "geometry": { "type": "Polygon", "coordinates": [ [ [ 117.313031145071847, 42.408593694897519 ], [ 117.31304937396817, 42.408593645120852 ], [ 117.313049351577874, 42.40858914217624 ], [ 117.313055427876208, 42.408589125583376 ], [ 117.313055293531988, 42.4085621079156 ], [ 117.313043140940536, 42.408562141100973 ], [ 117.313043096160925, 42.408553135211669 ], [ 117.313030943571192, 42.408553168395748 ], [ 117.313030965960138, 42.408557671340411 ], [ 117.31301881336951, 42.408557704523197 ], [ 117.313018835757589, 42.40856220746786 ], [ 117.313000606870332, 42.408562257239637 ], [ 117.313000629257104, 42.4085667601843 ], [ 117.312994552960916, 42.408566776774251 ], [ 117.31299462011998, 42.408580285608217 ], [ 117.313006772714985, 42.408580252427967 ], [ 117.313006795102211, 42.408584755372615 ], [ 117.313012871400133, 42.408584738782011 ], [ 117.3130128937878, 42.408589241726652 ], [ 117.313031122682858, 42.408589191952892 ], [ 117.313031145071847, 42.408593694897519 ] ] ] } },
{ "type": "Feature", "properties": { "crown_id": 4977, "tree_id": "4979", "top_h_m": 23.683, "H_95_Mean": 23.3913, "DBH": 31.4423, "Carbon_kg": 205.312705, "area_m2": 18.5 }, "geometry": { "type": "Polygon", "coordinates": [ [ [ 117.312891345440619, 42.408585070532936 ], [ 117.31289742173864, 42.40858505394845 ], [ 117.31289739935923, 42.408580551003766 ], [ 117.312909551954405, 42.408580517833833 ], [ 117.312909529574114, 42.408576014889142 ], [ 117.312915605871268, 42.408575998303689 ], [ 117.31291558349055, 42.408571495359006 ], [ 117.312945964974006, 42.408571412426951 ], [ 117.312945830676838, 42.408544394758806 ], [ 117.312885067735905, 42.408544560614715 ], [ 117.312885090114392, 42.408549063559434 ], [ 117.312879013819824, 42.40854908014326 ], [ 117.312879058575987, 42.408558086032698 ], [ 117.312885134871408, 42.40855806944888 ], [ 117.312885179628452, 42.40856707533829 ], [ 117.312879103332165, 42.408567091922137 ], [ 117.312879148088342, 42.408576097811547 ], [ 117.312885224385496, 42.408576081227714 ], [ 117.312885246764054, 42.408580584172412 ], [ 117.312891323061649, 42.408580567588253 ], [ 117.312891345440619, 42.408585070532936 ] ] ] } },
{ "type": "Feature", "properties": { "crown_id": 4984, "tree_id": "4986", "top_h_m": 23.255, "H_95_Mean": 23.136, "DBH": 29.3775, "Carbon_kg": 177.885679, "area_m2": 14.5 }, "geometry": { "type": "Polygon", "coordinates": [ [ [ 117.312970337314539, 42.408584854909492 ], [ 117.312976413612503, 42.408584838320813 ], [ 117.312976391227423, 42.408580335376165 ], [ 117.31298854382247, 42.408580302197848 ], [ 117.312988454278795, 42.408562290419212 ], [ 117.312994530574571, 42.408562273829581 ], [ 117.312994485801909, 42.408553267940242 ], [ 117.312988409506985, 42.408553284529859 ], [ 117.312988387121095, 42.408548781585189 ], [ 117.312982310826612, 42.408548798174486 ], [ 117.312982266055727, 42.408539792285119 ], [ 117.312976189762111, 42.408539808874096 ], [ 117.31297614499212, 42.4085308029847 ], [ 117.312957916113859, 42.408530852749657 ], [ 117.312957960881263, 42.40853985863906 ], [ 117.312951884587648, 42.408539875226744 ], [ 117.312952041270677, 42.408571395839573 ], [ 117.312958117567348, 42.408571379251875 ], [ 117.312958139951093, 42.408575882196544 ], [ 117.312964216248204, 42.408575865608519 ], [ 117.312964238632375, 42.408580368553174 ], [ 117.312970314929913, 42.408580351964829 ], [ 117.312970337314539, 42.408584854909492 ] ] ] } },
{ "type": "Feature", "properties": { "crown_id": 5010, "tree_id": "5013", "top_h_m": 24.563, "H_95_Mean": 24.4512, "DBH": 34.422, "Carbon_kg": 252.959875, "area_m2": 24.25 }, "geometry": { "type": "Polygon", "coordinates": [ [ [ 117.313061392218827, 42.408566594267064 ], [ 117.313091773699483, 42.408566511296371 ], [ 117.313091751306189, 42.408562008351758 ], [ 117.31311605648888, 42.408561941969417 ], [ 117.313116011698824, 42.408552936080177 ], [ 117.313122087993619, 42.408552919483796 ], [ 117.313122065598165, 42.408548416539176 ], [ 117.31312814189252, 42.408548399942468 ], [ 117.313128097100758, 42.408539394053221 ], [ 117.313109868220295, 42.408539443842358 ], [ 117.313109845825736, 42.408534940897724 ], [ 117.313097693239584, 42.408534974088852 ], [ 117.313097648452185, 42.408525968199569 ], [ 117.313091572159991, 42.408525984794643 ], [ 117.313091549766725, 42.408521481850002 ], [ 117.313055092015986, 42.408521581413702 ], [ 117.313055136797288, 42.408530587303034 ], [ 117.313049060504611, 42.408530603895862 ], [ 117.31304908289485, 42.408535106840539 ], [ 117.313043006601717, 42.40853512343304 ], [ 117.313043073771112, 42.408548632267021 ], [ 117.313049150065524, 42.408548615674512 ], [ 117.313049194846016, 42.408557621563808 ], [ 117.313061347436559, 42.408557588377796 ], [ 117.313061392218827, 42.408566594267064 ] ] ] } },
{ "type": "Feature", "properties": { "crown_id": 5028, "tree_id": "5031", "top_h_m": 22.871, "H_95_Mean": 22.8419, "DBH": 29.8299, "Carbon_kg": 182.067126, "area_m2": 15.75 }, "geometry": { "type": "Polygon", "coordinates": [ [ [ 117.312897197944764, 42.408540024501391 ], [ 117.312945808294003, 42.408539891814108 ], [ 117.312945785911168, 42.408535388869396 ], [ 117.312951862204372, 42.408535372282039 ], [ 117.31295183982111, 42.408530869337341 ], [ 117.312945763528333, 42.408530885924691 ], [ 117.312945718762691, 42.408521880035266 ], [ 117.312939642470795, 42.408521896622297 ], [ 117.312939620088414, 42.408517393677563 ], [ 117.312933543796944, 42.408517410264267 ], [ 117.31293352141499, 42.40851290731954 ], [ 117.312921368832903, 42.408512940491967 ], [ 117.312921301689713, 42.408499431657752 ], [ 117.312896996530711, 42.408499497998726 ], [ 117.312897041289332, 42.408508503888228 ], [ 117.312890964998715, 42.408508520472672 ], [ 117.31289105451431, 42.408526532251656 ], [ 117.312897130806689, 42.408526515667198 ], [ 117.312897153186029, 42.408531018611932 ], [ 117.312891076893223, 42.408531035196376 ], [ 117.31289109927215, 42.408535538141116 ], [ 117.312897175565411, 42.408535521556658 ], [ 117.312897197944764, 42.408540024501391 ] ] ] } },
{ "type": "Feature", "properties": { "crown_id": 5029, "tree_id": "5032", "top_h_m": 23.619, "H_95_Mean": 23.4754, "DBH": 34.3814, "Carbon_kg": 246.352716, "area_m2": 26.0 }, "geometry": { "type": "Polygon", "coordinates": [ [ [ 117.313000584483547, 42.408557754294968 ], [ 117.313012737074189, 42.408557721114114 ], [ 117.313012714686579, 42.408553218169445 ], [ 117.313024867276326, 42.408553184987305 ], [ 117.313024844887821, 42.40854868204265 ], [ 117.313036997476672, 42.408548648859224 ], [ 117.313036907919255, 42.40853063708056 ], [ 117.313042984211933, 42.408530620488364 ], [ 117.313042961822148, 42.408526117543701 ], [ 117.3130490381144, 42.408526100951192 ], [ 117.313049015724204, 42.408521598006523 ], [ 117.313042939432393, 42.408521614599039 ], [ 117.313042917042608, 42.408517111654348 ], [ 117.313036840751238, 42.40851712824653 ], [ 117.313036818361908, 42.408512625301839 ], [ 117.313030742070936, 42.408512641893694 ], [ 117.313030652515423, 42.408494630114916 ], [ 117.313018499936973, 42.408494663297631 ], [ 117.313018522324967, 42.408499166242336 ], [ 117.312988140876598, 42.408499249193511 ], [ 117.312988208034142, 42.408512758027655 ], [ 117.312976055452154, 42.408512791205879 ], [ 117.312976122607097, 42.408526300039995 ], [ 117.312982198899405, 42.408526283451039 ], [ 117.312982243670277, 42.408535289340428 ], [ 117.312988319963452, 42.408535272751138 ], [ 117.312988364735205, 42.408544278640512 ], [ 117.312994441029232, 42.408544262050896 ], [ 117.312994463415563, 42.408548764995565 ], [ 117.313000539710046, 42.408548748405636 ], [ 117.313000584483547, 42.408557754294968 ] ] ] } },
{ "type": "Feature", "properties": { "crown_id": 5083, "tree_id": "5086", "top_h_m": 21.754, "H_95_Mean": 21.5981, "DBH": 28.8117, "Carbon_kg": 164.228956, "area_m2": 15.25 }, "geometry": { "type": "Polygon", "coordinates": [ [ [ 117.313048993333993, 42.408517095061846 ], [ 117.313085451082159, 42.408516995500086 ], [ 117.31308533911816, 42.408494480776731 ], [ 117.313091415407328, 42.408494464181992 ], [ 117.31309137062091, 42.408485458292638 ], [ 117.313073141755993, 42.408485508075884 ], [ 117.313073119364105, 42.408481005131186 ], [ 117.313036661636744, 42.408481104688946 ], [ 117.313036795972593, 42.408508122357162 ], [ 117.313042872263097, 42.40850810576498 ], [ 117.313042894652853, 42.408512608709671 ], [ 117.313048970943797, 42.40851259211717 ], [ 117.313048993333993, 42.408517095061846 ] ] ] } }
]
}
