{
"type": "FeatureCollection",
"name": "tile_8_14",
"crs": { "type": "name", "properties": { "name": "urn:ogc:def:crs:OGC:1.3:CRS84" } },
"features": [
{ "type": "Feature", "properties": { "crown_id": 2350, "tree_id": "2350", "top_h_m": 22.205, "H_95_Mean": 21.9841, "DBH": 32.914, "Carbon_kg": 217.029608, "area_m2": 24.75 }, "geometry": { "type": "Polygon", "coordinates": [ [ [ 117.313275761442142, 42.410128551450299 ], [ 117.313293990782455, 42.410128501633288 ], [ 117.313293968373458, 42.410123998689983 ], [ 117.313300044819798, 42.410123982083668 ], [ 117.313299977591541, 42.410110473253752 ], [ 117.313306054036559, 42.410110456647111 ], [ 117.313306031626723, 42.41010595370382 ], [ 117.313312108071301, 42.410105937096873 ], [ 117.313312085661039, 42.41010143415356 ], [ 117.31331816210519, 42.410101417546301 ], [ 117.313318117283785, 42.410092411659662 ], [ 117.313312040840529, 42.410092428266914 ], [ 117.313312018430295, 42.410087925323595 ], [ 117.313305941987451, 42.410087941930534 ], [ 117.313305829938457, 42.410065427213844 ], [ 117.313293677057118, 42.410065460426722 ], [ 117.31329369946603, 42.410069963370063 ], [ 117.313281546583795, 42.410069996581669 ], [ 117.31328152417575, 42.410065493638314 ], [ 117.313275447735052, 42.410065510243619 ], [ 117.313275425327461, 42.41006100730025 ], [ 117.313263272446932, 42.410061040509909 ], [ 117.313263406887458, 42.410088058170054 ], [ 117.313257330444571, 42.410088074774407 ], [ 117.313257442476313, 42.410110589491111 ], [ 117.313263518921374, 42.410110572886737 ], [ 117.313263541328155, 42.41011507583007 ], [ 117.313269617773642, 42.410115059225376 ], [ 117.313269640180877, 42.410119562168695 ], [ 117.313275716626777, 42.410119545563667 ], [ 117.313275761442142, 42.410128551450299 ] ] ] } },
{ "type": "Feature", "properties": { "crown_id": 2369, "tree_id": "2369", "top_h_m": 22.765, "H_95_Mean": 22.4275, "DBH": 33.65, "Carbon_kg": 229.617936, "area_m2": 26.0 }, "geometry": { "type": "Polygon", "coordinates": [ [ [ 117.313184547536451, 42.410115291661796 ], [ 117.313196700427554, 42.410115258460458 ], [ 117.313196678025534, 42.410110755517103 ], [ 117.313202754470638, 42.410110738915954 ], [ 117.313202732068191, 42.410106235972606 ], [ 117.313196655623514, 42.410106252573748 ], [ 117.313196566015534, 42.410088240800263 ], [ 117.313190489572605, 42.410088257401085 ], [ 117.31319046717104, 42.410083754457716 ], [ 117.313178314286034, 42.410083787658365 ], [ 117.31317829188535, 42.410079284714975 ], [ 117.313172215443274, 42.410079301314823 ], [ 117.31317219304303, 42.410074798371426 ], [ 117.31316611660138, 42.410074814970947 ], [ 117.313166094201591, 42.410070312027543 ], [ 117.313147864877905, 42.410070361824161 ], [ 117.313147842479424, 42.410065858880756 ], [ 117.313129613157017, 42.410065908674461 ], [ 117.313129635554205, 42.410070411617873 ], [ 117.313117482671686, 42.410070444812085 ], [ 117.313117505068007, 42.410074947755504 ], [ 117.3131114286263, 42.41007496435212 ], [ 117.313111473418104, 42.410083970238965 ], [ 117.313123626303209, 42.410083937045385 ], [ 117.313123738287132, 42.410106451762388 ], [ 117.313135891176572, 42.410106418567509 ], [ 117.313135913574243, 42.410110921510892 ], [ 117.313184525135298, 42.410110788718448 ], [ 117.313184547536451, 42.410115291661796 ] ] ] } },
{ "type": "Feature", "properties": { "crown_id": 2370, "tree_id": "2370", "top_h_m": 20.191, "H_95_Mean": 20.1318, "DBH": 27.5081, "Carbon_kg": 143.503556, "area_m2": 14.5 }, "geometry": { "type": "Polygon", "coordinates": [ [ [ 117.313208830915727, 42.410110722314478 ], [ 117.313214907360816, 42.410110705712675 ], [ 117.313214884957503, 42.410106202769335 ], [ 117.313245267180704, 42.410106119755547 ], [ 117.313245244775217, 42.410101616812206 ], [ 117.313251321219411, 42.410101600208485 ], [ 117.313251231595785, 42.410083588435086 ], [ 117.31325730803826, 42.410083571831059 ], [ 117.313257218412971, 42.41006556005761 ], [ 117.313251141972259, 42.410065576661637 ], [ 117.313251119566402, 42.410061073718254 ], [ 117.313245043126116, 42.410061090321967 ], [ 117.313245065531547, 42.410065593265337 ], [ 117.313238989090834, 42.410065609868724 ], [ 117.313239011495838, 42.410070112812093 ], [ 117.313226858613518, 42.410070146017887 ], [ 117.313226903421807, 42.41007915190464 ], [ 117.313220826979773, 42.410079168507053 ], [ 117.313220849383484, 42.410083671450423 ], [ 117.313208696498521, 42.410083704654298 ], [ 117.313208718901379, 42.410088207597674 ], [ 117.31320264245845, 42.410088224199136 ], [ 117.313202709665731, 42.410101733029236 ], [ 117.313208786109982, 42.410101716427768 ], [ 117.313208830915727, 42.410110722314478 ] ] ] } },
{ "type": "Feature", "properties": { "crown_id": 2396, "tree_id": "2396", "top_h_m": 22.788, "H_95_Mean": 22.6211, "DBH": 31.5785, "Carbon_kg": 203.048168, "area_m2": 20.0 }, "geometry": { "type": "Polygon", "coordinates": [ [ [ 117.31336071962771, 42.410105804229723 ], [ 117.313366796072231, 42.410105787619877 ], [ 117.313366706415579, 42.410087775846684 ], [ 117.313354553529976, 42.410087809066027 ], [ 117.313354396637109, 42.410056288462791 ], [ 117.313348320197349, 42.410056305071969 ], [ 117.313348297784529, 42.410051802128628 ], [ 117.313342221345195, 42.410051818737465 ], [ 117.313342198932816, 42.410047315794131 ], [ 117.313336122493908, 42.410047332402648 ], [ 117.313336100081997, 42.410042829459286 ], [ 117.313317870766582, 42.410042879282912 ], [ 117.313317982819783, 42.41006539399968 ], [ 117.313311906379127, 42.410065410606926 ], [ 117.313311996020033, 42.410083422380268 ], [ 117.313318072462451, 42.410083405773015 ], [ 117.313318094873111, 42.410087908716328 ], [ 117.313324171315941, 42.410087892108763 ], [ 117.313324238549299, 42.410101400938707 ], [ 117.31336069721398, 42.410101301286424 ], [ 117.31336071962771, 42.410105804229723 ] ] ] } },
{ "type": "Feature", "properties": { "crown_id": 2452, "tree_id": "2452", "top_h_m": 22.494, "H_95_Mean": 22.0296, "DBH": 40.5182, "Carbon_kg": 330.359882, "area_m2": 55.25 }, "geometry": { "type": "Polygon", "coordinates": [ [ [ 117.313196543613529, 42.410083737856901 ], [ 117.313202620056032, 42.410083721255759 ], [ 117.313202597653628, 42.410079218312383 ], [ 117.313214750537725, 42.410079185109154 ], [ 117.313214728134454, 42.410074682165771 ], [ 117.313220804576048, 42.410074665563684 ], [ 117.313220759768654, 42.410065659676931 ], [ 117.313232912650108, 42.410065626471777 ], [ 117.31323289024553, 42.410061123528394 ], [ 117.313238966685816, 42.410061106925326 ], [ 117.313238944280812, 42.410056603981964 ], [ 117.313245020720686, 42.410056587378577 ], [ 117.313244975909825, 42.410047581491817 ], [ 117.313220670153882, 42.410047647903355 ], [ 117.3132206477502, 42.410043144959957 ], [ 117.313214571311633, 42.410043161562029 ], [ 117.313214526505178, 42.41003415567522 ], [ 117.31320237362975, 42.410034188878392 ], [ 117.313202351227403, 42.41002968593498 ], [ 117.31319627479013, 42.410029702536093 ], [ 117.313196252388209, 42.41002519959266 ], [ 117.313190175951362, 42.410025216193439 ], [ 117.313190153549883, 42.410020713250006 ], [ 117.313178000677027, 42.410020746450598 ], [ 117.313177933475245, 42.41000723762027 ], [ 117.313171857040103, 42.410007254220069 ], [ 117.313171812239801, 42.409998248333167 ], [ 117.313153582937005, 42.409998298130624 ], [ 117.313153627734707, 42.41000730401754 ], [ 117.313147551299551, 42.41000732061606 ], [ 117.313147573697975, 42.410011823559522 ], [ 117.313135420826782, 42.410011856755588 ], [ 117.313135465621912, 42.410020862642497 ], [ 117.313129389185463, 42.410020879240051 ], [ 117.313129411582594, 42.410025382183512 ], [ 117.313123335145676, 42.410025398780746 ], [ 117.313123379939071, 42.410034404667662 ], [ 117.31311122706353, 42.410034437861178 ], [ 117.313111249459368, 42.410038940804611 ], [ 117.313105173021157, 42.4100389574009 ], [ 117.313105195416554, 42.41004346034434 ], [ 117.313099118977902, 42.410043476940309 ], [ 117.313099163767873, 42.410052482827211 ], [ 117.31310524020742, 42.410052466231249 ], [ 117.313105307393712, 42.410065975061563 ], [ 117.313123536716205, 42.410065925271724 ], [ 117.313123514319443, 42.41006142232829 ], [ 117.3131538965213, 42.410061339338789 ], [ 117.313153918920221, 42.410065842282208 ], [ 117.313172148242572, 42.41006579248463 ], [ 117.313172170642815, 42.410070295428028 ], [ 117.313178247084011, 42.410070278828194 ], [ 117.313178269484681, 42.410074781771584 ], [ 117.313184345926317, 42.410074765171423 ], [ 117.313184368327413, 42.410079268114814 ], [ 117.313196521211566, 42.410079234913511 ], [ 117.313196543613529, 42.410083737856901 ] ] ] } },
{ "type": "Feature", "properties": { "crown_id": 2496, "tree_id": "2496", "top_h_m": 21.534, "H_95_Mean": 21.1652, "DBH": 36.226, "Carbon_kg": 257.449721, "area_m2": 38.5 }, "geometry": { "type": "Polygon", "coordinates": [ [ [ 117.313226724188752, 42.410043128357565 ], [ 117.313238877065871, 42.410043095151785 ], [ 117.313238854660909, 42.410038592208394 ], [ 117.313251007537104, 42.41003855900135 ], [ 117.313250985131276, 42.41003405605796 ], [ 117.313244908693591, 42.410034072661652 ], [ 117.313244819072025, 42.410016060888026 ], [ 117.313250895507949, 42.410016044284362 ], [ 117.313250850696321, 42.410007038397524 ], [ 117.313263003566448, 42.410007005189229 ], [ 117.313262936346447, 42.409993496358979 ], [ 117.313256859912684, 42.409993512963275 ], [ 117.313256815100246, 42.40998450707643 ], [ 117.313244662234467, 42.409984540284064 ], [ 117.313244639829136, 42.409980037340617 ], [ 117.313238563396666, 42.409980053943947 ], [ 117.313238540991776, 42.409975551000507 ], [ 117.313214235263615, 42.409975617410588 ], [ 117.313214190457273, 42.409966611523672 ], [ 117.313208114026111, 42.409966628125382 ], [ 117.313208136428813, 42.409971131068851 ], [ 117.313195983565592, 42.40997116427129 ], [ 117.313196005967427, 42.409975667214766 ], [ 117.313171700239138, 42.409975733615845 ], [ 117.313171722639254, 42.409980236559313 ], [ 117.313159569774214, 42.409980269757924 ], [ 117.313159592173463, 42.409984772701385 ], [ 117.31316566860643, 42.409984756102247 ], [ 117.313165713405823, 42.40999376198917 ], [ 117.313177866273477, 42.409993728789921 ], [ 117.313177911074646, 42.410002734676823 ], [ 117.313183987509319, 42.410002718076697 ], [ 117.313184054712409, 42.41001622690704 ], [ 117.313196207584369, 42.410016193705808 ], [ 117.313196229986289, 42.410020696649234 ], [ 117.313202306422696, 42.410020680048135 ], [ 117.313202328825056, 42.410025182991561 ], [ 117.313208405261875, 42.410025166390142 ], [ 117.313208427664676, 42.410029669333568 ], [ 117.313220580539209, 42.410029636129742 ], [ 117.313220625346531, 42.410038642016559 ], [ 117.313226701784643, 42.410038625414167 ], [ 117.313226724188752, 42.410043128357565 ] ] ] } },
{ "type": "Feature", "properties": { "crown_id": 2497, "tree_id": "2497", "top_h_m": 20.733, "H_95_Mean": 20.3665, "DBH": 36.9239, "Carbon_kg": 261.525622, "area_m2": 44.5 }, "geometry": { "type": "Polygon", "coordinates": [ [ [ 117.31326322763347, 42.410052034623156 ], [ 117.313269304072861, 42.410052018018497 ], [ 117.313269259258547, 42.410043012131744 ], [ 117.313275335697071, 42.410042995526766 ], [ 117.313275313289481, 42.410038492583396 ], [ 117.313281389727564, 42.410038475978091 ], [ 117.313281412135595, 42.410042978921467 ], [ 117.31328748857409, 42.410042962315849 ], [ 117.313287510982548, 42.410047465259225 ], [ 117.313299663860434, 42.410047432047008 ], [ 117.313299686269758, 42.410051934990371 ], [ 117.313311839148483, 42.410051901776868 ], [ 117.313311771917895, 42.410038392946788 ], [ 117.313336077670058, 42.410038326515931 ], [ 117.313336032846209, 42.410029320629228 ], [ 117.313342109283369, 42.410029304020718 ], [ 117.313342086871032, 42.410024801077356 ], [ 117.313348163307751, 42.410024784468526 ], [ 117.31334807365667, 42.410006772695063 ], [ 117.313335920786699, 42.410006805912374 ], [ 117.313335875962906, 42.409997800025607 ], [ 117.313329799528788, 42.409997816633776 ], [ 117.313329754705919, 42.409988810746995 ], [ 117.313311525406121, 42.409988860569563 ], [ 117.313311480585881, 42.409979854682739 ], [ 117.31329932772104, 42.409979887896156 ], [ 117.313299238084085, 42.409961876122473 ], [ 117.313293161653391, 42.409961892728688 ], [ 117.313293228879814, 42.409975401558974 ], [ 117.313287152447828, 42.409975418164876 ], [ 117.313287174856214, 42.409979921108302 ], [ 117.313268945558931, 42.409979970924077 ], [ 117.313268967966025, 42.40998447386751 ], [ 117.313262891533142, 42.409984490472134 ], [ 117.313262913939795, 42.409988993415553 ], [ 117.313268990373103, 42.409988976810936 ], [ 117.313269102408597, 42.410011491528003 ], [ 117.313256949537632, 42.410011524736952 ], [ 117.313256994350141, 42.410020530623761 ], [ 117.313250917913791, 42.410020547227766 ], [ 117.313250962725434, 42.410029553114562 ], [ 117.313257039162664, 42.410029536510564 ], [ 117.313257061568933, 42.410034039453947 ], [ 117.31326313800659, 42.410034022849622 ], [ 117.313263160413314, 42.41003852579302 ], [ 117.313257083975202, 42.410038542397338 ], [ 117.313257128787768, 42.410047548284112 ], [ 117.313263205226747, 42.410047531679787 ], [ 117.31326322763347, 42.410052034623156 ] ] ] } },
{ "type": "Feature", "properties": { "crown_id": 2560, "tree_id": "2560", "top_h_m": 21.205, "H_95_Mean": 20.873, "DBH": 36.1677, "Carbon_kg": 254.513994, "area_m2": 39.25 }, "geometry": { "type": "Polygon", "coordinates": [ [ [ 117.313341974809362, 42.410002286360502 ], [ 117.313348051243921, 42.410002269751672 ], [ 117.313347984005659, 42.409988760921529 ], [ 117.313366213305358, 42.40998871109317 ], [ 117.313366168477273, 42.409979705206403 ], [ 117.313384397774314, 42.40997965537516 ], [ 117.313384173621216, 42.409934625941176 ], [ 117.313372020765215, 42.409934659162275 ], [ 117.313371975936391, 42.409925653275437 ], [ 117.313359823082109, 42.409925686495235 ], [ 117.313359800668565, 42.409921183551795 ], [ 117.313347647815135, 42.409921216770293 ], [ 117.313347692640477, 42.409930222657188 ], [ 117.313323386930065, 42.409930289090347 ], [ 117.31332340934101, 42.409934792033788 ], [ 117.313311256484909, 42.409934825248449 ], [ 117.313311301305063, 42.409943831135337 ], [ 117.3132991484472, 42.409943864348726 ], [ 117.313299170856411, 42.409948367292159 ], [ 117.313305247285783, 42.409948350685632 ], [ 117.313305292105085, 42.409957356572512 ], [ 117.313311368535324, 42.409957339965636 ], [ 117.313311390945429, 42.409961842909077 ], [ 117.313305314514736, 42.409961859515931 ], [ 117.313305381743774, 42.409975368346196 ], [ 117.313317534607719, 42.409975335132138 ], [ 117.313317579428841, 42.409984341018955 ], [ 117.313335808727317, 42.409984291195428 ], [ 117.313335853551038, 42.409993297082217 ], [ 117.31334192998473, 42.409993280473735 ], [ 117.313341974809362, 42.410002286360502 ] ] ] } },
{ "type": "Feature", "properties": { "crown_id": 2588, "tree_id": "2588", "top_h_m": 24.536, "H_95_Mean": 24.0503, "DBH": 33.6934, "Carbon_kg": 239.926765, "area_m2": 23.0 }, "geometry": { "type": "Polygon", "coordinates": [ [ [ 117.313250716261578, 42.409980020736974 ], [ 117.31326286912649, 42.4099799875287 ], [ 117.313262846719837, 42.409975484585267 ], [ 117.313281076015841, 42.409975434770452 ], [ 117.313281053607895, 42.409970931827026 ], [ 117.31328713003947, 42.40997091522145 ], [ 117.313287062814354, 42.40995740639115 ], [ 117.31329921567486, 42.40995737317904 ], [ 117.313299193265635, 42.409952870235593 ], [ 117.313293116835823, 42.409952886841815 ], [ 117.31329304960947, 42.409939378011472 ], [ 117.313244438181258, 42.409939510849512 ], [ 117.31324446058656, 42.409944013792988 ], [ 117.313220154870592, 42.409944080204291 ], [ 117.31322019967773, 42.409953086091235 ], [ 117.313201970388093, 42.409953135896345 ], [ 117.313202015192644, 42.409962141783296 ], [ 117.313220244484882, 42.409962091978173 ], [ 117.313220289292047, 42.409971097865089 ], [ 117.31324459501846, 42.409971031453729 ], [ 117.313244617423791, 42.409975534397184 ], [ 117.313250693855821, 42.409975517793541 ], [ 117.313250716261578, 42.409980020736974 ] ] ] } }
]
}
