{
"type": "FeatureCollection",
"name": "tile_9_10",
"crs": { "type": "name", "properties": { "name": "urn:ogc:def:crs:OGC:1.3:CRS84" } },
"features": [
{ "type": "Feature", "properties": { "crown_id": 2656, "tree_id": "2656", "top_h_m": 21.188, "H_95_Mean": 21.2108, "DBH": 32.4455, "Carbon_kg": 206.429604, "area_m2": 25.0 }, "geometry": { "type": "Polygon", "coordinates": [ [ [ 117.312174986677505, 42.409942428071403 ], [ 117.312211445254121, 42.409942328784915 ], [ 117.312211422922701, 42.409937825840998 ], [ 117.31219927006471, 42.409937858937774 ], [ 117.312199203073121, 42.409924350105996 ], [ 117.31219312664544, 42.409924366653897 ], [ 117.312193104315355, 42.409919863709966 ], [ 117.3121870278881, 42.409919880257533 ], [ 117.312186826921462, 42.409879353761923 ], [ 117.312180750498115, 42.409879370309142 ], [ 117.312180705839793, 42.409870364421181 ], [ 117.312174629417299, 42.40987038096808 ], [ 117.312174674074754, 42.409879386856048 ], [ 117.312162521228004, 42.409879419948886 ], [ 117.312162543555857, 42.409883922892874 ], [ 117.31214431428441, 42.409883972529741 ], [ 117.312144381264147, 42.409897481361689 ], [ 117.312132228413859, 42.409897514451337 ], [ 117.31213231771676, 42.409915526227238 ], [ 117.312138394143631, 42.409915509682563 ], [ 117.312138416469807, 42.409920012626529 ], [ 117.312144492897104, 42.409919996081534 ], [ 117.312144515223707, 42.409924499025486 ], [ 117.312162744506892, 42.409924449388562 ], [ 117.312162766834817, 42.409928952332514 ], [ 117.312168843262953, 42.409928935786226 ], [ 117.312168865591318, 42.409933438730164 ], [ 117.312174942019894, 42.409933422183535 ], [ 117.312174986677505, 42.409942428071403 ] ] ] } },
{ "type": "Feature", "properties": { "crown_id": 2667, "tree_id": "2667", "top_h_m": 19.765, "H_95_Mean": 19.6508, "DBH": 30.7111, "Carbon_kg": 176.628771, "area_m2": 23.25 }, "geometry": { "type": "Polygon", "coordinates": [ [ [ 117.312229674542337, 42.409942279137326 ], [ 117.312235750971752, 42.409942262587478 ], [ 117.312235661639178, 42.409924250811841 ], [ 117.312247814494498, 42.409924217711207 ], [ 117.312247680490572, 42.409897200047673 ], [ 117.312241604065534, 42.409897216598132 ], [ 117.312241537064963, 42.409883707766312 ], [ 117.312217231369956, 42.409883773964907 ], [ 117.312217209038181, 42.409879271020941 ], [ 117.312192903344823, 42.409879337214363 ], [ 117.312193081985257, 42.409915360766021 ], [ 117.312199158412099, 42.409915344218128 ], [ 117.312199180742596, 42.409919847162058 ], [ 117.31220525716985, 42.409919830613838 ], [ 117.312205324162747, 42.409933339445629 ], [ 117.312217477019843, 42.409933306348215 ], [ 117.312217499351689, 42.409937809292124 ], [ 117.312229652209624, 42.409937776193424 ], [ 117.312229674542337, 42.409942279137326 ] ] ] } },
{ "type": "Feature", "properties": { "crown_id": 2697, "tree_id": "2697", "top_h_m": 20.354, "H_95_Mean": 19.7498, "DBH": 39.0882, "Carbon_kg": 288.055034, "area_m2": 58.75 }, "geometry": { "type": "Polygon", "coordinates": [ [ [ 117.312278308313594, 42.409946649673465 ], [ 117.312284384743378, 42.409946633121038 ], [ 117.312284362406757, 42.40994213017715 ], [ 117.312290438836115, 42.40994211362441 ], [ 117.312290416499053, 42.409937610680537 ], [ 117.312296492927956, 42.40993759412747 ], [ 117.312296515265459, 42.409942097071351 ], [ 117.31230866812416, 42.409942063964259 ], [ 117.312308690462515, 42.409946566908125 ], [ 117.312326919751797, 42.409946517245068 ], [ 117.312326897412149, 42.409942014301208 ], [ 117.312357279558682, 42.409941931523008 ], [ 117.312357257216831, 42.409937428579155 ], [ 117.312363333645692, 42.409937412022543 ], [ 117.312363244276668, 42.409919400247119 ], [ 117.312369320703766, 42.409919383690209 ], [ 117.312369276018416, 42.409910377802468 ], [ 117.312357123165896, 42.409910410915963 ], [ 117.312357078482307, 42.409901405028201 ], [ 117.312351002056914, 42.409901421584465 ], [ 117.312350979715561, 42.409896918640577 ], [ 117.312344903290594, 42.409896935196514 ], [ 117.312344813926956, 42.409878923420912 ], [ 117.312338737503723, 42.409878939976515 ], [ 117.31233871516325, 42.409874437032606 ], [ 117.312326562317651, 42.409874470142846 ], [ 117.312326539978073, 42.409869967198915 ], [ 117.312296157866172, 42.409870049968852 ], [ 117.312296180203589, 42.40987455291279 ], [ 117.312265798089385, 42.409874635674683 ], [ 117.312265865095156, 42.409888144506503 ], [ 117.312271941519299, 42.409888127954765 ], [ 117.312272030862118, 42.409906139730445 ], [ 117.312253801584447, 42.409906189384749 ], [ 117.312253890922122, 42.409924201160408 ], [ 117.312272120205051, 42.409924151506083 ], [ 117.312272142540792, 42.409928654449992 ], [ 117.312259989684662, 42.409928687553204 ], [ 117.312260056689297, 42.409942196384883 ], [ 117.312278285977385, 42.40994214672957 ], [ 117.312278308313594, 42.409946649673465 ] ] ] } },
{ "type": "Feature", "properties": { "crown_id": 2727, "tree_id": "2727", "top_h_m": 18.698, "H_95_Mean": 18.7867, "DBH": 30.3069, "Carbon_kg": 167.46095, "area_m2": 24.0 }, "geometry": { "type": "Polygon", "coordinates": [ [ [ 117.312363177249935, 42.409905891415498 ], [ 117.312387482953142, 42.409905825185945 ], [ 117.312387460609159, 42.409901322242085 ], [ 117.312393537034524, 42.409901305683888 ], [ 117.312393514690115, 42.409896802740022 ], [ 117.312399591115039, 42.409896786181505 ], [ 117.312399546425382, 42.409887780293758 ], [ 117.312405622849425, 42.409887763734922 ], [ 117.312405600504164, 42.409883260791055 ], [ 117.312411676927752, 42.409883244231906 ], [ 117.312411632236405, 42.409874238344145 ], [ 117.312417708659126, 42.409874221784683 ], [ 117.312417686313012, 42.409869718840802 ], [ 117.312423762735307, 42.409869702281021 ], [ 117.31242374038878, 42.409865199337133 ], [ 117.312405511123202, 42.409865249015517 ], [ 117.312405488777969, 42.409860746071622 ], [ 117.312387259513642, 42.4098607957471 ], [ 117.312387237169716, 42.409856292803198 ], [ 117.312369007906668, 42.409856342475756 ], [ 117.312368985564063, 42.409851839531846 ], [ 117.312362909143445, 42.409851856088721 ], [ 117.312362886801267, 42.409847353144798 ], [ 117.31235073396094, 42.409847386257574 ], [ 117.312350957374193, 42.409892415696689 ], [ 117.312357033798719, 42.409892399140432 ], [ 117.312357056140513, 42.40989690208432 ], [ 117.312363132565451, 42.409896885527736 ], [ 117.312363177249935, 42.409905891415498 ] ] ] } },
{ "type": "Feature", "properties": { "crown_id": 2750, "tree_id": "2750", "top_h_m": 21.787, "H_95_Mean": 21.6057, "DBH": 34.7376, "Carbon_kg": 239.475023, "area_m2": 31.5 }, "geometry": { "type": "Polygon", "coordinates": [ [ [ 117.312253779250028, 42.409901686440818 ], [ 117.312265932100971, 42.409901653338288 ], [ 117.312265887430414, 42.409892647450434 ], [ 117.312259811005831, 42.409892664001859 ], [ 117.312259632327326, 42.409856640450293 ], [ 117.312265708748455, 42.409856623898889 ], [ 117.312265664077998, 42.409847618010957 ], [ 117.312259587657763, 42.409847634562361 ], [ 117.312259520653427, 42.409834125730441 ], [ 117.312241291396575, 42.409834175382677 ], [ 117.312241269063108, 42.40982967243869 ], [ 117.312216963388963, 42.40982973863715 ], [ 117.312216985720681, 42.409834241581152 ], [ 117.312198756463701, 42.409834291226616 ], [ 117.312198801124552, 42.409843297114627 ], [ 117.312192724704701, 42.409843313662478 ], [ 117.312192747034686, 42.409847816606472 ], [ 117.312186670614381, 42.409847833154018 ], [ 117.312186737603099, 42.409861341985987 ], [ 117.312180661181472, 42.409861358533213 ], [ 117.312180683510647, 42.409865861477201 ], [ 117.312186759932672, 42.409865844929975 ], [ 117.31218680459186, 42.409874850817943 ], [ 117.312223263129297, 42.409874751527823 ], [ 117.312223285461485, 42.409879254471775 ], [ 117.312247591154744, 42.409879188271915 ], [ 117.312247658156622, 42.409892697103743 ], [ 117.312253734581219, 42.409892680552964 ], [ 117.312253779250028, 42.409901686440818 ] ] ] } },
{ "type": "Feature", "properties": { "crown_id": 2759, "tree_id": "2759", "top_h_m": 19.983, "H_95_Mean": 19.8651, "DBH": 29.5023, "Carbon_kg": 163.945084, "area_m2": 19.5 }, "geometry": { "type": "Polygon", "coordinates": [ [ [ 117.312265775754142, 42.409870132730745 ], [ 117.312290081443777, 42.409870066521883 ], [ 117.3122900591068, 42.409865563577938 ], [ 117.312332594060436, 42.409865447700049 ], [ 117.31233261640044, 42.409869950643966 ], [ 117.312344769245158, 42.409869917533101 ], [ 117.312344635199906, 42.409842899869552 ], [ 117.312350711619658, 42.409842883313644 ], [ 117.312350666937064, 42.409833877425783 ], [ 117.31232636126154, 42.409833943647442 ], [ 117.312326383601089, 42.40983844659138 ], [ 117.312302077923746, 42.409838512807895 ], [ 117.312302100261562, 42.409843015751861 ], [ 117.3122777945824, 42.409843081963245 ], [ 117.312277816918481, 42.409847584907197 ], [ 117.312271740498247, 42.409847601459241 ], [ 117.312271807505226, 42.409861110291118 ], [ 117.312265731083684, 42.409861126842841 ], [ 117.312265775754142, 42.409870132730745 ] ] ] } },
{ "type": "Feature", "properties": { "crown_id": 2797, "tree_id": "2797", "top_h_m": 21.875, "H_95_Mean": 21.7603, "DBH": 28.1527, "Carbon_kg": 157.441153, "area_m2": 13.75 }, "geometry": { "type": "Polygon", "coordinates": [ [ [ 117.312168486009952, 42.409856888682683 ], [ 117.31218063885234, 42.409856855589211 ], [ 117.312180571864928, 42.409843346757228 ], [ 117.312186648284793, 42.409843330210009 ], [ 117.312186625955249, 42.409838827266007 ], [ 117.312192702374688, 42.409838810718469 ], [ 117.312192680044703, 42.409834307774474 ], [ 117.31218660362569, 42.409834324321992 ], [ 117.312186558966602, 42.409825318433967 ], [ 117.31218048254847, 42.409825334981171 ], [ 117.312180415561173, 42.409811826149088 ], [ 117.312174339144335, 42.409811842695959 ], [ 117.312174316815657, 42.409807339751929 ], [ 117.312168240399245, 42.409807356298465 ], [ 117.312168218071051, 42.409802853354428 ], [ 117.312162141655065, 42.409802869900652 ], [ 117.312162186310644, 42.409811875788726 ], [ 117.312150033476897, 42.409811908880215 ], [ 117.312150078130742, 42.409820914768289 ], [ 117.312137925295275, 42.409820947858492 ], [ 117.312137969947415, 42.409829953746566 ], [ 117.312144046366015, 42.409829937201621 ], [ 117.312144068692504, 42.409834440145652 ], [ 117.312150145111573, 42.40983442360038 ], [ 117.312150189765461, 42.409843429488426 ], [ 117.312162342605262, 42.409843396396901 ], [ 117.312162364933087, 42.409847899340917 ], [ 117.312168441353407, 42.409847882794679 ], [ 117.312168486009952, 42.409856888682683 ] ] ] } },
{ "type": "Feature", "properties": { "crown_id": 2827, "tree_id": "2828", "top_h_m": 22.299, "H_95_Mean": 22.0735, "DBH": 32.891, "Carbon_kg": 217.244887, "area_m2": 24.5 }, "geometry": { "type": "Polygon", "coordinates": [ [ [ 117.312265641742783, 42.409843115066998 ], [ 117.312271718162606, 42.409843098515282 ], [ 117.312271695826951, 42.409838595571308 ], [ 117.312296001504407, 42.409838529361231 ], [ 117.312295979167033, 42.409834026417272 ], [ 117.312320284842656, 42.40983396020205 ], [ 117.312320262503533, 42.409829457258098 ], [ 117.312362797432641, 42.409829341369075 ], [ 117.312362775090492, 42.409824838425138 ], [ 117.312350622254513, 42.409824871537893 ], [ 117.312350599913231, 42.409820368593941 ], [ 117.312314141407739, 42.409820467924455 ], [ 117.312314096730432, 42.409811462036515 ], [ 117.312308020313694, 42.40981147859047 ], [ 117.312307975637282, 42.409802472702502 ], [ 117.312301899221396, 42.409802489256144 ], [ 117.312301876883623, 42.409797986312149 ], [ 117.312289724052761, 42.409798019418439 ], [ 117.312289679378978, 42.409789013530443 ], [ 117.312277526549806, 42.409789046635417 ], [ 117.312277548885831, 42.409793549579426 ], [ 117.312271472470812, 42.409793566131434 ], [ 117.312271494806396, 42.409798069075428 ], [ 117.312259341975462, 42.409798102178492 ], [ 117.312259364310208, 42.409802605122493 ], [ 117.312253287894308, 42.409802621673556 ], [ 117.312253332562904, 42.40981162756156 ], [ 117.312259408979671, 42.409811611010497 ], [ 117.312259431314416, 42.409816113954498 ], [ 117.312253354897194, 42.409816130505554 ], [ 117.312253421900152, 42.409829639337524 ], [ 117.312265574737182, 42.409829606235071 ], [ 117.312265641742783, 42.409843115066998 ] ] ] } },
{ "type": "Feature", "properties": { "crown_id": 2849, "tree_id": "2850", "top_h_m": 21.611, "H_95_Mean": 21.4553, "DBH": 32.5375, "Carbon_kg": 209.023187, "area_m2": 24.75 }, "geometry": { "type": "Polygon", "coordinates": [ [ [ 117.312192657714732, 42.409829804830458 ], [ 117.312210886970405, 42.409829755185967 ], [ 117.312210864639127, 42.409825252241966 ], [ 117.312235170311567, 42.409825186044799 ], [ 117.312235147978555, 42.40982068310079 ], [ 117.312241224396217, 42.409820666550701 ], [ 117.312241202062765, 42.409816163606699 ], [ 117.312247278479987, 42.40981614705629 ], [ 117.312247233812229, 42.409807141168301 ], [ 117.312241157395889, 42.409807157718703 ], [ 117.312241090395631, 42.409793648886655 ], [ 117.312222861150431, 42.409793698535928 ], [ 117.312222816486241, 42.409784692647861 ], [ 117.312216740072031, 42.40978470919697 ], [ 117.31221671774037, 42.409780206252933 ], [ 117.312210641326573, 42.409780222801714 ], [ 117.312210618995366, 42.40977571985767 ], [ 117.312192389755324, 42.409775769502083 ], [ 117.312192367425411, 42.409771266558025 ], [ 117.31218021459955, 42.409771299652675 ], [ 117.312180326244857, 42.409793814372954 ], [ 117.312168173414634, 42.409793847466339 ], [ 117.312168195742842, 42.409798350410384 ], [ 117.312174272158387, 42.409798333863847 ], [ 117.312174294487022, 42.409802836807891 ], [ 117.312180370903008, 42.409802820261028 ], [ 117.312180393232083, 42.409807323205065 ], [ 117.312186469648495, 42.409807306657875 ], [ 117.312186536637071, 42.409820815489944 ], [ 117.312192613054762, 42.409820798942434 ], [ 117.312192657714732, 42.409829804830458 ] ] ] } },
{ "type": "Feature", "properties": { "crown_id": 2850, "tree_id": "2851", "top_h_m": 22.184, "H_95_Mean": 22.1522, "DBH": 30.8576, "Carbon_kg": 191.427616, "area_m2": 19.0 }, "geometry": { "type": "Polygon", "coordinates": [ [ [ 117.312320195486251, 42.409815948426207 ], [ 117.312350577571976, 42.409815865649989 ], [ 117.312350555230708, 42.409811362706037 ], [ 117.312356631647404, 42.409811346149823 ], [ 117.312356609305709, 42.409806843205878 ], [ 117.312362685721979, 42.409806826649344 ], [ 117.31236261869563, 42.40979331781746 ], [ 117.312350465865705, 42.409793350930173 ], [ 117.31235042118324, 42.409784345042219 ], [ 117.31234434476913, 42.409784361598092 ], [ 117.312344322428359, 42.409779858654105 ], [ 117.312338246014704, 42.409779875209658 ], [ 117.312338223674331, 42.409775372265671 ], [ 117.312332147261102, 42.40977538882089 ], [ 117.312332124921184, 42.409770885876895 ], [ 117.312326048508382, 42.409770902431788 ], [ 117.312326026168904, 42.409766399487786 ], [ 117.312301720519386, 42.409766465704138 ], [ 117.312301809870362, 42.409784477480166 ], [ 117.31229573345621, 42.409784494033453 ], [ 117.31229577813086, 42.409793499921456 ], [ 117.31230793096087, 42.409793466814548 ], [ 117.312307953299069, 42.409797969758529 ], [ 117.312314029714486, 42.409797953204581 ], [ 117.312314074391765, 42.409806959092549 ], [ 117.312320150808077, 42.409806942538275 ], [ 117.312320195486251, 42.409815948426207 ] ] ] } }
]
}
