{
"type": "FeatureCollection",
"name": "tile_18_14",
"crs": { "type": "name", "properties": { "name": "urn:ogc:def:crs:OGC:1.3:CRS84" } },
"features": [
{ "type": "Feature", "properties": { "crown_id": 5448, "tree_id": "5451", "top_h_m": 21.804, "H_95_Mean": 21.502, "DBH": 33.6229, "Carbon_kg": 223.602001, "area_m2": 28.0 }, "geometry": { "type": "Polygon", "coordinates": [ [ [ 117.313345655859337, 42.408300140292354 ], [ 117.313363884670082, 42.408300090465964 ], [ 117.313363862257532, 42.408295587521252 ], [ 117.313376014797157, 42.40829555430205 ], [ 117.313375969970338, 42.408286548412619 ], [ 117.313382046239255, 42.408286531802538 ], [ 117.313381978997768, 42.408273022968366 ], [ 117.313388055265392, 42.408273006357973 ], [ 117.31338798802264, 42.408259497523794 ], [ 117.313394064288943, 42.408259480913095 ], [ 117.313394041874261, 42.408254977968355 ], [ 117.313387965608371, 42.408254994579046 ], [ 117.313387920779903, 42.408245988689572 ], [ 117.313345386924709, 42.408246104955452 ], [ 117.313345409335881, 42.408250607900214 ], [ 117.31333325680491, 42.40825064111614 ], [ 117.313333279215229, 42.408255144060909 ], [ 117.313321126683363, 42.408255177275556 ], [ 117.313321171502309, 42.408264183165095 ], [ 117.313315095235481, 42.408264199771935 ], [ 117.313315184871684, 42.408282211550961 ], [ 117.313321261140217, 42.4082821949441 ], [ 117.313321283549712, 42.40828669788884 ], [ 117.3133273598187, 42.408286681281659 ], [ 117.313327382228636, 42.408291184226393 ], [ 117.313339534767422, 42.408291151011063 ], [ 117.313339557178253, 42.40829565395579 ], [ 117.31334563344808, 42.408295637347642 ], [ 117.313345655859337, 42.408300140292354 ] ] ] } },
{ "type": "Feature", "properties": { "crown_id": 5457, "tree_id": "5460", "top_h_m": 19.193, "H_95_Mean": 18.9416, "DBH": 33.3451, "Carbon_kg": 204.00767, "area_m2": 34.25 }, "geometry": { "type": "Polygon", "coordinates": [ [ [ 117.313163412545521, 42.408309644286504 ], [ 117.313181641359378, 42.408309594489083 ], [ 117.313181596560327, 42.408300588599509 ], [ 117.313175520289903, 42.408300605198967 ], [ 117.313175497890839, 42.40829610225417 ], [ 117.313193726700732, 42.408296052454844 ], [ 117.313193681899989, 42.408287046565242 ], [ 117.313199758169063, 42.408287029964832 ], [ 117.313199735768251, 42.408282527020035 ], [ 117.313205812036912, 42.408282510419305 ], [ 117.313205789635688, 42.408278007474507 ], [ 117.313217942172074, 42.408277974272075 ], [ 117.313217897367906, 42.40826896838248 ], [ 117.31321182110058, 42.408268984983849 ], [ 117.313211753895629, 42.408255476149414 ], [ 117.313205677629597, 42.408255492750456 ], [ 117.313205655228387, 42.408250989805644 ], [ 117.3131327400408, 42.408251188993027 ], [ 117.313132874416794, 42.408278206662068 ], [ 117.313126798148517, 42.408278223258932 ], [ 117.313126887730874, 42.408296235038243 ], [ 117.313151192810892, 42.408296168648782 ], [ 117.313151215208237, 42.408300671593587 ], [ 117.313157291478674, 42.408300654995415 ], [ 117.313157313876445, 42.408305157940219 ], [ 117.313163390147309, 42.408305141341714 ], [ 117.313163412545521, 42.408309644286504 ] ] ] } },
{ "type": "Feature", "properties": { "crown_id": 5508, "tree_id": "5511", "top_h_m": 19.017, "H_95_Mean": 19.0585, "DBH": 26.8003, "Carbon_kg": 131.817263, "area_m2": 14.5 }, "geometry": { "type": "MultiPolygon", "coordinates": [ [ [ [ 117.313138793910056, 42.408246669450996 ], [ 117.313211709092386, 42.40824647025979 ], [ 117.31321168669075, 42.408241967314964 ], [ 117.31320561042601, 42.408241983916007 ], [ 117.313205565623647, 42.408232978026341 ], [ 117.313199489359789, 42.408232994627049 ], [ 117.313199444558293, 42.408223988737369 ], [ 117.313193368295316, 42.408224005337757 ], [ 117.313193345895002, 42.408219502392896 ], [ 117.313187269632451, 42.408219518992951 ], [ 117.313187247232591, 42.408215016048111 ], [ 117.313181170970452, 42.408215032647838 ], [ 117.313181193369857, 42.408219535592693 ], [ 117.313162964582105, 42.408219585389965 ], [ 117.313162986980231, 42.408224088334833 ], [ 117.3131447581911, 42.408224138129214 ], [ 117.313144825381599, 42.408237646963798 ], [ 117.313138749117243, 42.408237663561287 ], [ 117.313138793910056, 42.408246669450996 ] ] ], [ [ [ 117.313187247232591, 42.408215016048111 ], [ 117.313193323494716, 42.408214999448056 ], [ 117.313193301094444, 42.408210496503195 ], [ 117.313187224832731, 42.408210513103249 ], [ 117.313187247232591, 42.408215016048111 ] ] ] ] } },
{ "type": "Feature", "properties": { "crown_id": 5524, "tree_id": "5527", "top_h_m": 22.118, "H_95_Mean": 21.8258, "DBH": 33.9388, "Carbon_kg": 229.879675, "area_m2": 28.25 }, "geometry": { "type": "Polygon", "coordinates": [ [ [ 117.313308974151496, 42.408255210488917 ], [ 117.31331505041743, 42.408255193882397 ], [ 117.313315028008404, 42.408250690937628 ], [ 117.313327180539403, 42.408250657723634 ], [ 117.313327158129525, 42.408246154778865 ], [ 117.313339310659643, 42.408246121563579 ], [ 117.313339288248883, 42.40824161861881 ], [ 117.313387898365704, 42.408241485744824 ], [ 117.313387763880428, 42.408214468076267 ], [ 117.313363458832512, 42.408214534515771 ], [ 117.313363436420062, 42.408210031570995 ], [ 117.313351283896921, 42.408210064788811 ], [ 117.313351239073768, 42.408201058899216 ], [ 117.313345162813079, 42.408201075507641 ], [ 117.31334514040195, 42.408196572562836 ], [ 117.31333298788141, 42.408196605778713 ], [ 117.313332965471133, 42.408192102833908 ], [ 117.313314736691581, 42.408192152655289 ], [ 117.313314893554377, 42.408223673268928 ], [ 117.313308817291471, 42.408223689875442 ], [ 117.313308974151496, 42.408255210488917 ] ] ] } },
{ "type": "Feature", "properties": { "crown_id": 5542, "tree_id": "5545", "top_h_m": 20.667, "H_95_Mean": 20.5642, "DBH": 26.0284, "Carbon_kg": 129.993957, "area_m2": 11.25 }, "geometry": { "type": "Polygon", "coordinates": [ [ [ 117.313126618984057, 42.408242199700169 ], [ 117.313132695248839, 42.408242183103312 ], [ 117.313132650456922, 42.408233177213589 ], [ 117.313138726720837, 42.408233160616426 ], [ 117.313138659531674, 42.40821965178182 ], [ 117.313132583269052, 42.408219668378983 ], [ 117.3131325608731, 42.4082151654341 ], [ 117.313126484610919, 42.408215182030936 ], [ 117.313126439819925, 42.408206176141164 ], [ 117.313120363558596, 42.408206192737666 ], [ 117.313120341163525, 42.408201689792783 ], [ 117.313114264902623, 42.408201706388951 ], [ 117.313114242508007, 42.408197203444054 ], [ 117.313102089987083, 42.408197236635452 ], [ 117.313102134774581, 42.40820624252526 ], [ 117.313089982251881, 42.408206275715365 ], [ 117.313090004644792, 42.408210778660276 ], [ 117.313096080906575, 42.40821076206538 ], [ 117.313096125693235, 42.408219767955167 ], [ 117.313102201955886, 42.408219751359944 ], [ 117.313102269137218, 42.408233260194592 ], [ 117.313108345401176, 42.408233243599042 ], [ 117.313108367795408, 42.408237746543904 ], [ 117.313126596588518, 42.408237696755307 ], [ 117.313126618984057, 42.408242199700169 ] ] ] } },
{ "type": "Feature", "properties": { "crown_id": 5549, "tree_id": "5552", "top_h_m": 18.546, "H_95_Mean": 18.7126, "DBH": 35.8194, "Carbon_kg": 233.978625, "area_m2": 46.25 }, "geometry": { "type": "Polygon", "coordinates": [ [ [ 117.313248189087489, 42.408250873591591 ], [ 117.31327857041525, 42.408250790571891 ], [ 117.313278548008853, 42.408246287627101 ], [ 117.313284624273948, 42.408246271022207 ], [ 117.31328460186711, 42.408241768077417 ], [ 117.313296754396433, 42.408241734866643 ], [ 117.313296709581024, 42.408232728977062 ], [ 117.313302785844812, 42.408232712371202 ], [ 117.313302718620434, 42.408219203536802 ], [ 117.313308794882914, 42.408219186930637 ], [ 117.313308705248772, 42.40820117515139 ], [ 117.313302628988026, 42.40820119175757 ], [ 117.313302539355703, 42.408183179978266 ], [ 117.313290386837679, 42.408183213189609 ], [ 117.313290409244885, 42.408187716134435 ], [ 117.313284332985432, 42.408187732739634 ], [ 117.313284310578666, 42.408183229794801 ], [ 117.313272158060613, 42.408183263004211 ], [ 117.313272135654714, 42.408178760059364 ], [ 117.313284288171886, 42.408178726849968 ], [ 117.313284265765134, 42.408174223905114 ], [ 117.313266036990655, 42.408174273718735 ], [ 117.31326601458521, 42.408169770773888 ], [ 117.313253862069743, 42.408169803981338 ], [ 117.313253929283519, 42.408183312815915 ], [ 117.313247853024478, 42.408183329419174 ], [ 117.313247875428644, 42.408187832364021 ], [ 117.313235722909667, 42.408187865569573 ], [ 117.313235790119577, 42.408201374404122 ], [ 117.313229713858775, 42.408201391006429 ], [ 117.313229736261661, 42.408205893951276 ], [ 117.313223660000418, 42.408205910553264 ], [ 117.313223682402864, 42.408210413498111 ], [ 117.313211529879524, 42.408210446701105 ], [ 117.313211574682697, 42.408219452590799 ], [ 117.313223727207799, 42.408219419387784 ], [ 117.313223749610273, 42.408223922332624 ], [ 117.313217673347296, 42.408223938934292 ], [ 117.313217695749316, 42.408228441879132 ], [ 117.313223772012734, 42.408228425277457 ], [ 117.313223794415208, 42.408232928222269 ], [ 117.313229870679052, 42.408232911620281 ], [ 117.313229915484911, 42.408241917509926 ], [ 117.313235991749622, 42.408241900907605 ], [ 117.313236014152992, 42.408246403852417 ], [ 117.313248166683252, 42.4082463706468 ], [ 117.313248189087489, 42.408250873591591 ] ] ] } },
{ "type": "Feature", "properties": { "crown_id": 5574, "tree_id": "5577", "top_h_m": 22.087, "H_95_Mean": 21.7081, "DBH": 29.1219, "Carbon_kg": 168.317137, "area_m2": 15.75 }, "geometry": { "type": "Polygon", "coordinates": [ [ [ 117.313144735794296, 42.408219635184338 ], [ 117.313156888319497, 42.408219601988407 ], [ 117.313156865921798, 42.408215099043545 ], [ 117.313175094708285, 42.408215049247246 ], [ 117.313175072309321, 42.408210546302392 ], [ 117.313181148571019, 42.408210529702977 ], [ 117.313181058973399, 42.408192517923496 ], [ 117.313174982713448, 42.408192534522904 ], [ 117.313174937915534, 42.408183528633138 ], [ 117.313114175324188, 42.408183694609342 ], [ 117.313114220113391, 42.408192700499164 ], [ 117.313120296373427, 42.408192683902975 ], [ 117.313120318768469, 42.408197186847886 ], [ 117.313126395028931, 42.408197170251384 ], [ 117.313126417424414, 42.408201673196274 ], [ 117.313132493685316, 42.408201656599445 ], [ 117.313132538477163, 42.408210662489218 ], [ 117.313138614738932, 42.408210645892076 ], [ 117.313138637135296, 42.408215148836952 ], [ 117.313144713397463, 42.408215132239469 ], [ 117.313144735794296, 42.408219635184338 ] ] ] } },
{ "type": "Feature", "properties": { "crown_id": 5600, "tree_id": "5603", "top_h_m": 20.449, "H_95_Mean": 20.186, "DBH": 31.2767, "Carbon_kg": 186.181994, "area_m2": 23.75 }, "geometry": { "type": "Polygon", "coordinates": [ [ [ 117.313199377356128, 42.408210479902827 ], [ 117.31320545361784, 42.408210463302126 ], [ 117.313205431216687, 42.408205960357272 ], [ 117.313217583739188, 42.408205927154917 ], [ 117.313217561337169, 42.40820142421007 ], [ 117.313223637597986, 42.408201407608409 ], [ 117.31322361519554, 42.408196904663555 ], [ 117.313229691455902, 42.408196888061575 ], [ 117.313229624247313, 42.408183379227005 ], [ 117.313241776765423, 42.408183346022106 ], [ 117.313241754361698, 42.408178843077245 ], [ 117.313247830620298, 42.40817882647432 ], [ 117.31324778581201, 42.40816982058459 ], [ 117.313241709554262, 42.408169837187522 ], [ 117.31324166474684, 42.408160831297778 ], [ 117.313247741003721, 42.408160814694845 ], [ 117.313247718599584, 42.408156311749984 ], [ 117.313241642343144, 42.408156328352895 ], [ 117.313241619939447, 42.408151825408012 ], [ 117.313211238659335, 42.408151908417764 ], [ 117.31321128346238, 42.408160914307551 ], [ 117.3131869784347, 42.408160980709575 ], [ 117.31318702323432, 42.408169986599361 ], [ 117.313180946976502, 42.408170003199061 ], [ 117.313181036574022, 42.40818801497862 ], [ 117.313187112833546, 42.408187998378907 ], [ 117.313187202432871, 42.408206010158381 ], [ 117.313199354955429, 42.408205976957966 ], [ 117.313199377356128, 42.408210479902827 ] ] ] } },
{ "type": "Feature", "properties": { "crown_id": 5629, "tree_id": "5632", "top_h_m": 22.989, "H_95_Mean": 22.8194, "DBH": 33.2335, "Carbon_kg": 226.231885, "area_m2": 24.0 }, "geometry": { "type": "Polygon", "coordinates": [ [ [ 117.3131141529296, 42.408179191664424 ], [ 117.313174915516598, 42.408179025688248 ], [ 117.313174848319775, 42.408165516853558 ], [ 117.313180924577154, 42.408165500254178 ], [ 117.313180879778429, 42.408156494364377 ], [ 117.313186956034926, 42.408156477764685 ], [ 117.313186933635137, 42.408151974819766 ], [ 117.313174781123024, 42.408152008018838 ], [ 117.313174758724102, 42.408147505073934 ], [ 117.313168682468472, 42.40814752167298 ], [ 117.313168615273071, 42.408134012838211 ], [ 117.313162539018748, 42.40813402943693 ], [ 117.313162516620721, 42.408129526491997 ], [ 117.313144287859004, 42.408129576286214 ], [ 117.313144310255694, 42.408134079231154 ], [ 117.313138234001343, 42.408134095828579 ], [ 117.313138256397636, 42.408138598773526 ], [ 117.313132180142844, 42.408138615370639 ], [ 117.313132202538682, 42.408143118315579 ], [ 117.313126126283464, 42.408143134912365 ], [ 117.31312617107433, 42.40815214080223 ], [ 117.313114018562104, 42.408152173994864 ], [ 117.313114063351236, 42.408161179884736 ], [ 117.313107987094256, 42.40816119648057 ], [ 117.313108054276711, 42.408174705315346 ], [ 117.313114130534984, 42.408174688719512 ], [ 117.3131141529296, 42.408179191664424 ] ] ] } },
{ "type": "Feature", "properties": { "crown_id": 5647, "tree_id": "5650", "top_h_m": 22.759, "H_95_Mean": 22.5997, "DBH": 31.9636, "Carbon_kg": 207.953331, "area_m2": 21.0 }, "geometry": { "type": "Polygon", "coordinates": [ [ [ 117.313314669464731, 42.408178643820811 ], [ 117.313326821981846, 42.408178610606896 ], [ 117.313326799572039, 42.408174107662063 ], [ 117.313338952088259, 42.408174074446862 ], [ 117.313338929677585, 42.408169571502036 ], [ 117.313351082192909, 42.408169538285563 ], [ 117.313351059781368, 42.40816503534073 ], [ 117.313363212295812, 42.408165002122971 ], [ 117.313363189883404, 42.408160499178152 ], [ 117.313375342396952, 42.408160465959099 ], [ 117.313375319983692, 42.408155963014288 ], [ 117.313381396240032, 42.408155946404285 ], [ 117.31338135141263, 42.408146940514634 ], [ 117.313387427668104, 42.408146923904319 ], [ 117.313387382839863, 42.40813791801466 ], [ 117.313344849057671, 42.4081380342801 ], [ 117.313344826646613, 42.40813353133526 ], [ 117.313314445375624, 42.408133614372332 ], [ 117.313314422966727, 42.408129111427456 ], [ 117.313308346712958, 42.408129128033913 ], [ 117.313308324304501, 42.408124625089044 ], [ 117.313302248051158, 42.40812464169516 ], [ 117.313302292867192, 42.408133647584904 ], [ 117.313308369121387, 42.408133630978774 ], [ 117.313308391529844, 42.40813813392365 ], [ 117.313314467784508, 42.408138117317193 ], [ 117.313314579829012, 42.408160632041458 ], [ 117.313308503572216, 42.408160648647922 ], [ 117.313308525980702, 42.408165151592769 ], [ 117.313320678495188, 42.408165118379515 ], [ 117.313320723313907, 42.408174124269181 ], [ 117.31331464705579, 42.408174140875971 ], [ 117.313314669464731, 42.408178643820811 ] ] ] } }
]
}
