{
"type": "FeatureCollection",
"name": "tile_2_14",
"crs": { "type": "name", "properties": { "name": "urn:ogc:def:crs:OGC:1.3:CRS84" } },
"features": [
{ "type": "Feature", "properties": { "crown_id": 388, "tree_id": "388", "top_h_m": 20.13, "H_95_Mean": 20.2224, "DBH": 29.5548, "Carbon_kg": 166.277585, "area_m2": 19.0 }, "geometry": { "type": "Polygon", "coordinates": [ [ [ 117.313226450474218, 42.411209407181325 ], [ 117.31323252702532, 42.411209390578257 ], [ 117.31323248221446, 42.411200384693295 ], [ 117.313226405664196, 42.411200401296369 ], [ 117.31322638325922, 42.411195898353881 ], [ 117.313238536358853, 42.41119586514742 ], [ 117.313238513952996, 42.411191362204939 ], [ 117.313244590502379, 42.411191345601232 ], [ 117.313244545689813, 42.411182339716248 ], [ 117.313232392592795, 42.411182372923335 ], [ 117.313232302971201, 42.411164361153311 ], [ 117.31321407333084, 42.411164410961483 ], [ 117.31321405092676, 42.411159908018966 ], [ 117.313195821287664, 42.411159957824239 ], [ 117.313195843690409, 42.411164460766763 ], [ 117.313189767143598, 42.411164477367876 ], [ 117.313189789545959, 42.4111689803104 ], [ 117.313177636451456, 42.411169013511675 ], [ 117.313177658852922, 42.411173516454213 ], [ 117.313183735400628, 42.411173499853739 ], [ 117.313183802606403, 42.411187008681289 ], [ 117.313189879155402, 42.411186992080474 ], [ 117.313189968764917, 42.411205003850498 ], [ 117.313226428069186, 42.411204904238843 ], [ 117.313226450474218, 42.411209407181325 ] ] ] } },
{ "type": "Feature", "properties": { "crown_id": 410, "tree_id": "410", "top_h_m": 19.043, "H_95_Mean": 18.7308, "DBH": 27.3713, "Carbon_kg": 136.135234, "area_m2": 16.25 }, "geometry": { "type": "Polygon", "coordinates": [ [ [ 117.313281117025255, 42.411204754799613 ], [ 117.31329327012655, 42.411204721587346 ], [ 117.313293247716786, 42.411200218644893 ], [ 117.313305400817185, 42.411200185431355 ], [ 117.31330537840654, 42.411195682488902 ], [ 117.313311454956306, 42.41119566588165 ], [ 117.313311432545234, 42.41119116293919 ], [ 117.313317509094531, 42.411191146331625 ], [ 117.31331744186005, 42.411177637504238 ], [ 117.313311365312046, 42.411177654111803 ], [ 117.31331132048993, 42.411168648226862 ], [ 117.313305243942793, 42.411168664834079 ], [ 117.313305176710998, 42.411155156006657 ], [ 117.313299100165125, 42.411155172613554 ], [ 117.313299122575287, 42.411159675556036 ], [ 117.313280892936405, 42.411159725374844 ], [ 117.31328091534526, 42.411164228317325 ], [ 117.313268762251781, 42.411164261528256 ], [ 117.313268784659783, 42.411168764470752 ], [ 117.313262708112589, 42.411168781075737 ], [ 117.313262752927727, 42.411177786960721 ], [ 117.313256676379666, 42.411177803565387 ], [ 117.31325669878683, 42.411182306507875 ], [ 117.313268851883819, 42.411182273298216 ], [ 117.313268896699839, 42.411191279183178 ], [ 117.313274973249193, 42.411191262577859 ], [ 117.31327499565765, 42.411195765520333 ], [ 117.313281072207445, 42.411195748914693 ], [ 117.313281117025255, 42.411204754799613 ] ] ] } },
{ "type": "Feature", "properties": { "crown_id": 432, "tree_id": "432", "top_h_m": 20.08, "H_95_Mean": 19.7514, "DBH": 28.0719, "Carbon_kg": 147.816016, "area_m2": 16.25 }, "geometry": { "type": "Polygon", "coordinates": [ [ [ 117.313323585643843, 42.411191129723733 ], [ 117.313329662193155, 42.4111911131155 ], [ 117.313329617368424, 42.411182107230601 ], [ 117.313341770465286, 42.411182074013212 ], [ 117.313341725638821, 42.411173068128299 ], [ 117.313359955281484, 42.41117301829982 ], [ 117.313359932866973, 42.41116851535736 ], [ 117.31335385631985, 42.411168531967171 ], [ 117.31335378907761, 42.411155023139806 ], [ 117.313347712531808, 42.411155039749282 ], [ 117.313347690118192, 42.411150536806808 ], [ 117.313341613572803, 42.411150553415972 ], [ 117.313341523920059, 42.41113254164604 ], [ 117.313335447376403, 42.411132558254863 ], [ 117.313335424963668, 42.411128055312375 ], [ 117.31331719533398, 42.41112810513691 ], [ 117.313317240156877, 42.411137111021908 ], [ 117.313311163612767, 42.411137127629459 ], [ 117.313311186023768, 42.411141630571947 ], [ 117.313305109479245, 42.411141647179178 ], [ 117.313305154300409, 42.411150653064162 ], [ 117.313311230845827, 42.411150636456931 ], [ 117.313311298078901, 42.411164145284381 ], [ 117.313317374625626, 42.411164128676837 ], [ 117.313317419448566, 42.411173134561778 ], [ 117.313323495996144, 42.411173117953879 ], [ 117.313323585643843, 42.411191129723733 ] ] ] } },
{ "type": "Feature", "properties": { "crown_id": 456, "tree_id": "456", "top_h_m": 20.554, "H_95_Mean": 20.5586, "DBH": 32.1325, "Carbon_kg": 198.730527, "area_m2": 25.5 }, "geometry": { "type": "Polygon", "coordinates": [ [ [ 117.313122969923469, 42.411173665843997 ], [ 117.313147276114393, 42.41117359945175 ], [ 117.313147253715073, 42.411169096509205 ], [ 117.313171559904191, 42.411169030111822 ], [ 117.313171537503123, 42.411164527169291 ], [ 117.313183690596787, 42.411164493968663 ], [ 117.313183668194895, 42.411159991026139 ], [ 117.31318974474128, 42.411159974425345 ], [ 117.313189699936601, 42.411150968540269 ], [ 117.313183623391083, 42.411150985141049 ], [ 117.31318353378353, 42.411132973370854 ], [ 117.313177457239775, 42.4111329899713 ], [ 117.3131774124369, 42.411123984086174 ], [ 117.313165259351052, 42.411124017286113 ], [ 117.313165236950482, 42.41111951434354 ], [ 117.313159160407992, 42.411119530943019 ], [ 117.313159182808135, 42.411124033885592 ], [ 117.31315310626519, 42.411124050484752 ], [ 117.313153128664894, 42.411128553427325 ], [ 117.31313489903475, 42.411128603222878 ], [ 117.313134921433161, 42.411133106165458 ], [ 117.313116691801667, 42.411133155958119 ], [ 117.313116826184327, 42.411160173613567 ], [ 117.313122902730768, 42.411160157016319 ], [ 117.313122969923469, 42.411173665843997 ] ] ] } },
{ "type": "Feature", "properties": { "crown_id": 466, "tree_id": "466", "top_h_m": 21.33, "H_95_Mean": 20.8935, "DBH": 32.7812, "Carbon_kg": 208.886498, "area_m2": 26.75 }, "geometry": { "type": "Polygon", "coordinates": [ [ [ 117.313256609158287, 42.411164294737901 ], [ 117.313262685705027, 42.411164278133242 ], [ 117.313262663297479, 42.411159775190747 ], [ 117.313274816390091, 42.411159741980462 ], [ 117.313274793981691, 42.411155239037974 ], [ 117.313293023619281, 42.411155189220146 ], [ 117.313293001209544, 42.411150686277651 ], [ 117.313299077754991, 42.411150669671059 ], [ 117.31329901052456, 42.411137160843573 ], [ 117.313305087068642, 42.411137144236676 ], [ 117.313305064658081, 42.411132641294166 ], [ 117.313311141201766, 42.41113262468695 ], [ 117.313311118790764, 42.411128121744447 ], [ 117.313305042247535, 42.411128138351657 ], [ 117.313304975015853, 42.411114629524114 ], [ 117.313298898473917, 42.411114646130997 ], [ 117.313298876063811, 42.411110143188488 ], [ 117.313286722980791, 42.411110176401266 ], [ 117.313286700571538, 42.411105673458742 ], [ 117.313274547489357, 42.411105706670241 ], [ 117.313274569897743, 42.411110209612787 ], [ 117.31326849335619, 42.411110226218057 ], [ 117.313268470948273, 42.411105723275504 ], [ 117.313256317866063, 42.411105756485085 ], [ 117.313256362680207, 42.411114762370175 ], [ 117.31324420959622, 42.411114795578456 ], [ 117.31324425440863, 42.411123801463546 ], [ 117.313238177865784, 42.411123818067217 ], [ 117.313238222677342, 42.411132823952293 ], [ 117.313232146133601, 42.411132840555638 ], [ 117.31323216853896, 42.411137343498176 ], [ 117.313238245083127, 42.411137326894831 ], [ 117.313238267488927, 42.411141829837348 ], [ 117.313244344033535, 42.411141813233669 ], [ 117.313244411252242, 42.411155322061234 ], [ 117.313250487798143, 42.411155305457221 ], [ 117.313250510204824, 42.411159808399731 ], [ 117.313256586751152, 42.411159791795392 ], [ 117.313256609158287, 42.411164294737901 ] ] ] } },
{ "type": "Feature", "properties": { "crown_id": 509, "tree_id": "509", "top_h_m": 14.154, "H_95_Mean": 14.1538, "DBH": 17.1741, "Carbon_kg": 45.083889, "area_m2": 4.5 }, "geometry": { "type": "MultiPolygon", "coordinates": [ [ [ [ 117.313195664468353, 42.411128437226431 ], [ 117.313195686871083, 42.411132940168983 ], [ 117.313201763414838, 42.411132923567564 ], [ 117.313201741011682, 42.411128420625012 ], [ 117.313195664468353, 42.411128437226431 ] ] ], [ [ [ 117.313195664468353, 42.411128437226431 ], [ 117.313195619662878, 42.411119431341319 ], [ 117.31320169620534, 42.411119414739908 ], [ 117.313201651399012, 42.411110408854775 ], [ 117.313189498315836, 42.411110442057264 ], [ 117.313189475913546, 42.411105939114691 ], [ 117.31317124629004, 42.411105988915999 ], [ 117.313171313492973, 42.411119497743741 ], [ 117.313183466577925, 42.411119464543177 ], [ 117.313183511381666, 42.411128470428295 ], [ 117.313195664468353, 42.411128437226431 ] ] ] ] } },
{ "type": "Feature", "properties": { "crown_id": 522, "tree_id": "522", "top_h_m": 18.307, "H_95_Mean": 18.1531, "DBH": 24.5274, "Carbon_kg": 107.126667, "area_m2": 11.25 }, "geometry": { "type": "Polygon", "coordinates": [ [ [ 117.313116669404565, 42.411128653015531 ], [ 117.313128822491379, 42.411128619820751 ], [ 117.313128800093395, 42.411124116878163 ], [ 117.313147029722259, 42.411124067083591 ], [ 117.313147007322996, 42.411119564141003 ], [ 117.313153083865501, 42.411119547542171 ], [ 117.313153061465826, 42.411115044599583 ], [ 117.31316521454994, 42.411115011400952 ], [ 117.313165169748856, 42.411106005515791 ], [ 117.313159093207659, 42.411106022115263 ], [ 117.313159048407456, 42.41109701623008 ], [ 117.313140818786479, 42.411097066026535 ], [ 117.313140796387685, 42.41109256308394 ], [ 117.313128643307877, 42.411092596279957 ], [ 117.313128688103703, 42.411101602165175 ], [ 117.313116535022132, 42.41110163535992 ], [ 117.313116602213327, 42.411115144187747 ], [ 117.31311052567122, 42.411115160784639 ], [ 117.313110570464531, 42.411124166669843 ], [ 117.313116647007476, 42.411124150072943 ], [ 117.313116669404565, 42.411128653015531 ] ] ] } },
{ "type": "Feature", "properties": { "crown_id": 566, "tree_id": "566", "top_h_m": 21.822, "H_95_Mean": 21.3724, "DBH": 33.6037, "Carbon_kg": 222.547534, "area_m2": 28.25 }, "geometry": { "type": "Polygon", "coordinates": [ [ [ 117.313195552454701, 42.41110592251362 ], [ 117.31321985861932, 42.411105856106069 ], [ 117.313219836214856, 42.411101353163495 ], [ 117.31322591275557, 42.411101336560804 ], [ 117.313225890350694, 42.411096833618231 ], [ 117.313238043431227, 42.411096800411897 ], [ 117.313237953808283, 42.411078788641618 ], [ 117.313250106885292, 42.411078755434019 ], [ 117.313250039665547, 42.411065246606285 ], [ 117.313243963128315, 42.411065263210247 ], [ 117.31324389590992, 42.411051754382477 ], [ 117.313213513230352, 42.411051837397402 ], [ 117.313213490826385, 42.411047334454771 ], [ 117.313201337755387, 42.411047367658483 ], [ 117.313201360158473, 42.411051870601092 ], [ 117.31319528362252, 42.411051887202476 ], [ 117.313195328427838, 42.411060893087686 ], [ 117.313183175354212, 42.41106092628948 ], [ 117.313183309765051, 42.411087943945105 ], [ 117.313177233225616, 42.41108796054553 ], [ 117.313177278028419, 42.411096966430719 ], [ 117.313165124947787, 42.411096999630615 ], [ 117.3131651473483, 42.411101502573203 ], [ 117.313195530051999, 42.411101419571025 ], [ 117.313195552454701, 42.41110592251362 ] ] ] } },
{ "type": "Feature", "properties": { "crown_id": 578, "tree_id": "578", "top_h_m": 19.932, "H_95_Mean": 20.0276, "DBH": 24.6082, "Carbon_kg": 114.292776, "area_m2": 9.5 }, "geometry": { "type": "Polygon", "coordinates": [ [ [ 117.313146872927589, 42.411092546485435 ], [ 117.313171179087135, 42.411092480088229 ], [ 117.313171134285227, 42.411083474203032 ], [ 117.313177210824236, 42.411083457602935 ], [ 117.313177098817363, 42.411060942889897 ], [ 117.313152792670024, 42.411061009288318 ], [ 117.313152815069628, 42.411065512230941 ], [ 117.313146738532353, 42.411065528829738 ], [ 117.313146760931559, 42.411070031772368 ], [ 117.313140684393815, 42.41107004837086 ], [ 117.313140729191346, 42.411079054256085 ], [ 117.313134652652749, 42.411079070854257 ], [ 117.313134697449414, 42.41108807673951 ], [ 117.313146850528369, 42.41108804354284 ], [ 117.313146872927589, 42.411092546485435 ] ] ] } },
{ "type": "Feature", "properties": { "crown_id": 605, "tree_id": "605", "top_h_m": 18.977, "H_95_Mean": 18.851, "DBH": 23.0557, "Carbon_kg": 96.699708, "area_m2": 8.25 }, "geometry": { "type": "Polygon", "coordinates": [ [ [ 117.313122477178069, 42.411074601107018 ], [ 117.313134630254424, 42.411074567911641 ], [ 117.31313458545776, 42.411065562026394 ], [ 117.313140661995064, 42.411065545428229 ], [ 117.313140639596298, 42.411061042485599 ], [ 117.313146716133161, 42.411061025887122 ], [ 117.313146648935628, 42.41104751705921 ], [ 117.313140572400073, 42.411047533657673 ], [ 117.313140527602627, 42.411038527772391 ], [ 117.313128374533221, 42.41103856096835 ], [ 117.313128352135379, 42.411034058025706 ], [ 117.313122275601103, 42.411034074623196 ], [ 117.313122297998547, 42.411038577565854 ], [ 117.313110144929112, 42.411038610759888 ], [ 117.313110167325661, 42.411043113702547 ], [ 117.313116243860819, 42.411043097105697 ], [ 117.313116311051829, 42.411056605933645 ], [ 117.313110234515364, 42.411056622530516 ], [ 117.313110256911941, 42.411061125473147 ], [ 117.313122409985695, 42.411061092279105 ], [ 117.313122477178069, 42.411074601107018 ] ] ] } },
{ "type": "Feature", "properties": { "crown_id": 611, "tree_id": "611", "top_h_m": 20.493, "H_95_Mean": 20.0516, "DBH": 33.1117, "Carbon_kg": 208.030187, "area_m2": 30.0 }, "geometry": { "type": "Polygon", "coordinates": [ [ [ 117.313304818142157, 42.411083108926384 ], [ 117.313316971219948, 42.411083075711694 ], [ 117.313316926397192, 42.411074069826618 ], [ 117.313323002935206, 42.41107405321879 ], [ 117.313322980523395, 42.411069550276245 ], [ 117.313316903985807, 42.411069566884066 ], [ 117.313316747106384, 42.41103804628613 ], [ 117.313310670571852, 42.411038062893624 ], [ 117.313310603339204, 42.411024554065868 ], [ 117.313292373739444, 42.411024603886354 ], [ 117.313292328920312, 42.411015598001157 ], [ 117.313268022790737, 42.411015664423964 ], [ 117.313268067606387, 42.411024670309175 ], [ 117.313261991073105, 42.411024686914082 ], [ 117.313262080702756, 42.411042698684483 ], [ 117.313256004167727, 42.411042715289078 ], [ 117.313256026574734, 42.411047218231666 ], [ 117.313249950039264, 42.411047234835934 ], [ 117.313250017258966, 42.411060743663704 ], [ 117.313256093795729, 42.411060727059429 ], [ 117.313256138609745, 42.41106973294459 ], [ 117.313274368222636, 42.41106968312981 ], [ 117.313274390630937, 42.411074186072383 ], [ 117.313280467169008, 42.411074169466808 ], [ 117.313280489577764, 42.411078672409374 ], [ 117.313304795731639, 42.411078605983853 ], [ 117.313304818142157, 42.411083108926384 ] ] ] } },
{ "type": "Feature", "properties": { "crown_id": 626, "tree_id": "626", "top_h_m": 19.852, "H_95_Mean": 19.7461, "DBH": 28.2883, "Carbon_kg": 150.097791, "area_m2": 16.75 }, "geometry": { "type": "Polygon", "coordinates": [ [ [ 117.313152770270392, 42.411056506345687 ], [ 117.313189229488799, 42.411056406746141 ], [ 117.313189184684376, 42.411047400860902 ], [ 117.313195261219889, 42.411047384259845 ], [ 117.313195194011968, 42.411033875431983 ], [ 117.313201270546159, 42.411033858830613 ], [ 117.313201203337002, 42.411020350002723 ], [ 117.313158667606601, 42.411020466205422 ], [ 117.313158645206585, 42.41101596326277 ], [ 117.31315256867407, 42.411015979861872 ], [ 117.313152591073646, 42.411020482804524 ], [ 117.31314043800775, 42.411020516001763 ], [ 117.313140482805181, 42.41102952188708 ], [ 117.313134406271359, 42.411029538485217 ], [ 117.313134428669642, 42.411034041427889 ], [ 117.313146581738138, 42.411034008231283 ], [ 117.313146626536479, 42.411043014116565 ], [ 117.313152703071594, 42.411042997517782 ], [ 117.313152770270392, 42.411056506345687 ] ] ] } },
{ "type": "Feature", "properties": { "crown_id": 633, "tree_id": "633", "top_h_m": 17.826, "H_95_Mean": 17.222, "DBH": 33.6816, "Carbon_kg": 196.783446, "area_m2": 42.5 }, "geometry": { "type": "Polygon", "coordinates": [ [ [ 117.313335156011206, 42.411074020002161 ], [ 117.313347309087206, 42.41107398678426 ], [ 117.31334726426013, 42.411064980899184 ], [ 117.313353340797249, 42.411064964289757 ], [ 117.313353318383278, 42.411060461347205 ], [ 117.313383701066613, 42.411060378295232 ], [ 117.313383678650496, 42.411055875352709 ], [ 117.313389755186705, 42.411055858741349 ], [ 117.313389598270888, 42.411024338143548 ], [ 117.313395674804028, 42.411024321531897 ], [ 117.313395629970117, 42.411015315646786 ], [ 117.313383476905528, 42.411015348869775 ], [ 117.313383432073365, 42.411006342984635 ], [ 117.313377355541917, 42.411006359595639 ], [ 117.313377333126283, 42.411001856653073 ], [ 117.313371256595275, 42.41100187326375 ], [ 117.313371211764874, 42.410992867378589 ], [ 117.313359058704577, 42.410992900598977 ], [ 117.313358991461641, 42.410979391771178 ], [ 117.313346838403945, 42.410979424990273 ], [ 117.313346860817362, 42.41098392793289 ], [ 117.313340784288073, 42.41098394454194 ], [ 117.313340851527116, 42.410997453369752 ], [ 117.313334774996505, 42.410997469978497 ], [ 117.313334797409084, 42.411001972921092 ], [ 117.313328720878047, 42.411001989529524 ], [ 117.313328788114546, 42.411015498357301 ], [ 117.313316635049816, 42.411015531573206 ], [ 117.313316724695071, 42.411033543343549 ], [ 117.313322801229162, 42.41103352673575 ], [ 117.313322958111598, 42.411065047333693 ], [ 117.313329034648746, 42.411065030725545 ], [ 117.313329057060969, 42.411069533668091 ], [ 117.313335133598557, 42.411069517059623 ], [ 117.313335156011206, 42.411074020002161 ] ] ] } },
{ "type": "Feature", "properties": { "crown_id": 651, "tree_id": "651", "top_h_m": 19.229, "H_95_Mean": 19.038, "DBH": 28.8151, "Carbon_kg": 152.455968, "area_m2": 19.25 }, "geometry": { "type": "Polygon", "coordinates": [ [ [ 117.313219567361884, 42.41104731785245 ], [ 117.313243873503808, 42.411047251439875 ], [ 117.313243851097681, 42.41104274849728 ], [ 117.313249927632725, 42.411042731893339 ], [ 117.313249905226172, 42.41103822895073 ], [ 117.313255981760747, 42.411038212346469 ], [ 117.313255892132872, 42.41102020057604 ], [ 117.313261968665714, 42.411020183971466 ], [ 117.313261923850931, 42.411011178086241 ], [ 117.313255847318956, 42.411011194690801 ], [ 117.313255824911991, 42.411006691748177 ], [ 117.313213289191026, 42.411006807971127 ], [ 117.31321326678713, 42.411002305028482 ], [ 117.31320719025598, 42.41100232163047 ], [ 117.313207167852511, 42.410997818687825 ], [ 117.313201091321801, 42.410997835289486 ], [ 117.313201136127859, 42.411006841174789 ], [ 117.313195059596254, 42.41100685777613 ], [ 117.313195104401473, 42.411015863661426 ], [ 117.313207257466402, 42.41101583045841 ], [ 117.313207369483862, 42.411038345171555 ], [ 117.31320129294923, 42.411038361773244 ], [ 117.313201315352316, 42.41104286471586 ], [ 117.313219544957491, 42.411042814909834 ], [ 117.313219567361884, 42.41104731785245 ] ] ] } }
]
}
