{
"type": "FeatureCollection",
"name": "tile_20_3",
"crs": { "type": "name", "properties": { "name": "urn:ogc:def:crs:OGC:1.3:CRS84" } },
"features": [
{ "type": "Feature", "properties": { "crown_id": 5980, "tree_id": "5984", "top_h_m": 24.239, "H_95_Mean": 23.5265, "DBH": 41.695, "Carbon_kg": 363.859882, "area_m2": 54.75 }, "geometry": { "type": "Polygon", "coordinates": [ [ [ 117.310482066519072, 42.407970206131331 ], [ 117.31049421899921, 42.407970173217812 ], [ 117.310494196792163, 42.407965670271608 ], [ 117.310506349271407, 42.407965637356817 ], [ 117.310506304855608, 42.407956631464408 ], [ 117.310512381094341, 42.407956615006526 ], [ 117.310512358886001, 42.407952112060315 ], [ 117.310518435124322, 42.40795209560212 ], [ 117.31051839070679, 42.407943089709697 ], [ 117.310524466944216, 42.40794307325119 ], [ 117.310524444735023, 42.407938570304971 ], [ 117.310530520972023, 42.407938553846144 ], [ 117.310530498762418, 42.407934050899925 ], [ 117.310536574998963, 42.407934034440771 ], [ 117.310536552788918, 42.40792953149456 ], [ 117.310542629025022, 42.407929515035079 ], [ 117.310542562393607, 42.407916006196423 ], [ 117.310536486158782, 42.40791602265589 ], [ 117.31053646394875, 42.407911519709657 ], [ 117.310530387714365, 42.407911536168797 ], [ 117.310530365504775, 42.407907033222571 ], [ 117.310512136802899, 42.407907082598037 ], [ 117.310512114594616, 42.40790257965179 ], [ 117.31049388589399, 42.40790262902437 ], [ 117.310493863687, 42.407898126078109 ], [ 117.310487787453894, 42.407898142534975 ], [ 117.310487765247359, 42.407893639588721 ], [ 117.310481689014651, 42.407893656045275 ], [ 117.310481644602476, 42.407884650152731 ], [ 117.310475568370649, 42.407884666608958 ], [ 117.310475546165009, 42.407880163662675 ], [ 117.310469469933622, 42.407880180118575 ], [ 117.310469492138836, 42.407884683064857 ], [ 117.310457339675153, 42.407884715975705 ], [ 117.3104573618795, 42.40788921892198 ], [ 117.310451285647233, 42.407889235376921 ], [ 117.310451307851139, 42.407893738323196 ], [ 117.310445231618431, 42.407893754777831 ], [ 117.310445253821911, 42.407898257724106 ], [ 117.310439177588776, 42.407898274178407 ], [ 117.310439244197966, 42.407911783017248 ], [ 117.31043316796351, 42.407911799471236 ], [ 117.310433190166137, 42.407916302417497 ], [ 117.310421037696329, 42.407916335324515 ], [ 117.310421104301682, 42.407929844163327 ], [ 117.310427180537886, 42.407929827709978 ], [ 117.310427202740115, 42.407934330656232 ], [ 117.310439355213418, 42.407934297748554 ], [ 117.310439421822736, 42.407947806587316 ], [ 117.310445498060673, 42.407947790132987 ], [ 117.310445520264224, 42.407952293079219 ], [ 117.310475901456016, 42.407952210802733 ], [ 117.310475945867495, 42.407961216695178 ], [ 117.310482022106711, 42.407961200238908 ], [ 117.310482066519072, 42.407970206131331 ] ] ] } },
{ "type": "Feature", "properties": { "crown_id": 5981, "tree_id": "5985", "top_h_m": 23.735, "H_95_Mean": 23.5741, "DBH": 35.8195, "Carbon_kg": 268.227097, "area_m2": 30.25 }, "geometry": { "type": "Polygon", "coordinates": [ [ [ 117.310670407739408, 42.407965192880958 ], [ 117.310676483978881, 42.407965176414372 ], [ 117.310676439538724, 42.407956170522112 ], [ 117.310694668254541, 42.407956121120463 ], [ 117.310694557147713, 42.407933606389761 ], [ 117.31070063338413, 42.407933589921917 ], [ 117.310700522275241, 42.407911075191151 ], [ 117.310706598509498, 42.407911058723002 ], [ 117.310706576287302, 42.40790655577684 ], [ 117.310639737715121, 42.407906736908828 ], [ 117.310639759932542, 42.407911239855011 ], [ 117.310633683698228, 42.407911256319636 ], [ 117.310633705915222, 42.407915759265812 ], [ 117.310621553445742, 42.407915792194082 ], [ 117.310621642310267, 42.407933803978828 ], [ 117.310639871019703, 42.407933754585912 ], [ 117.310639959889485, 42.407951766370552 ], [ 117.310646036127707, 42.4079517499056 ], [ 117.310646058345583, 42.407956252851754 ], [ 117.310664287061485, 42.407956203454944 ], [ 117.310664309280682, 42.40796070640107 ], [ 117.310670385519742, 42.407960689934825 ], [ 117.310670407739408, 42.407965192880958 ] ] ] } },
{ "type": "Feature", "properties": { "crown_id": 6038, "tree_id": "6042", "top_h_m": 20.178, "H_95_Mean": 19.8905, "DBH": 30.5408, "Carbon_kg": 175.917249, "area_m2": 22.25 }, "geometry": { "type": "Polygon", "coordinates": [ [ [ 117.310536441738734, 42.407907016763438 ], [ 117.310542517972678, 42.407907000303965 ], [ 117.310542473551749, 42.407897994411499 ], [ 117.310548549784841, 42.407897977951706 ], [ 117.310548483152218, 42.407884469113 ], [ 117.310542406920433, 42.407884485572765 ], [ 117.310542295868331, 42.407861970841459 ], [ 117.310536219638735, 42.40786198730089 ], [ 117.310536197428775, 42.407857484354629 ], [ 117.310517968741252, 42.407857533730983 ], [ 117.310517946532585, 42.407853030784707 ], [ 117.310499717846298, 42.407853080158162 ], [ 117.310499740053672, 42.407857583104438 ], [ 117.310481511366049, 42.407857632475007 ], [ 117.310481533572116, 42.407862135421311 ], [ 117.31048760980174, 42.407862118964772 ], [ 117.310487743040824, 42.407889136642453 ], [ 117.310493819273077, 42.407889120185587 ], [ 117.310493841480039, 42.407893623131841 ], [ 117.310499917712718, 42.407893606674655 ], [ 117.310499939920106, 42.407898109620909 ], [ 117.310518168619438, 42.407898060247376 ], [ 117.310518190828134, 42.407902563193623 ], [ 117.310536419528717, 42.407902513817191 ], [ 117.310536441738734, 42.407907016763438 ] ] ] } },
{ "type": "Feature", "properties": { "crown_id": 6039, "tree_id": "6043", "top_h_m": 21.736, "H_95_Mean": 21.6986, "DBH": 34.9497, "Carbon_kg": 243.04717, "area_m2": 32.0 }, "geometry": { "type": "Polygon", "coordinates": [ [ [ 117.310566956181688, 42.407933952140169 ], [ 117.310579108654721, 42.407933919217683 ], [ 117.310579086441635, 42.407929416271486 ], [ 117.310585162677711, 42.407929399809767 ], [ 117.310585140464184, 42.40792489686357 ], [ 117.310579064228563, 42.407924913325296 ], [ 117.310579042015462, 42.407920410379084 ], [ 117.310597270721104, 42.407920360992961 ], [ 117.31059724850671, 42.407915858046749 ], [ 117.310603324741479, 42.407915841584071 ], [ 117.310603235882255, 42.407897829799239 ], [ 117.310597159649234, 42.407897846261918 ], [ 117.310597137434868, 42.407893343315706 ], [ 117.310603213667477, 42.407893326853035 ], [ 117.310603191452671, 42.407888823906809 ], [ 117.310615343916979, 42.407888790980508 ], [ 117.310615299485676, 42.40787978508807 ], [ 117.310609223254403, 42.407879801551367 ], [ 117.31060911217844, 42.407857286820203 ], [ 117.310590883491088, 42.407857336208153 ], [ 117.310590905704956, 42.4078618391544 ], [ 117.310578753245835, 42.407861872078101 ], [ 117.31057877545885, 42.407866375024348 ], [ 117.310548394308796, 42.40786645732797 ], [ 117.310548460941334, 42.407879966166739 ], [ 117.310554537172663, 42.407879949706647 ], [ 117.310554648229214, 42.407902464437861 ], [ 117.310548571995724, 42.407902480897953 ], [ 117.310548683050229, 42.407924995629081 ], [ 117.310554759285907, 42.407924979168975 ], [ 117.31055478149726, 42.407929482115179 ], [ 117.310566933969454, 42.407929449193965 ], [ 117.310566956181688, 42.407933952140169 ] ] ] } },
{ "type": "Feature", "properties": { "crown_id": 6040, "tree_id": "6044", "top_h_m": 22.121, "H_95_Mean": 21.7415, "DBH": 38.3567, "Carbon_kg": 293.507528, "area_m2": 45.75 }, "geometry": { "type": "Polygon", "coordinates": [ [ [ 117.310639715497729, 42.407902233962631 ], [ 117.310706554065121, 42.407902052830671 ], [ 117.310706509620758, 42.407893046938334 ], [ 117.310712585853253, 42.407893030469879 ], [ 117.310712474740257, 42.407870515738978 ], [ 117.310718550970591, 42.407870499270196 ], [ 117.310718417632543, 42.407843481593012 ], [ 117.310706265177117, 42.407843514530214 ], [ 117.310706287399242, 42.407848017476425 ], [ 117.310681982486571, 42.40784808334697 ], [ 117.31068196026618, 42.407843580400751 ], [ 117.310669807810697, 42.407843613334094 ], [ 117.310669785591188, 42.407839110387869 ], [ 117.310657633136543, 42.407839143319919 ], [ 117.310657655355158, 42.407843646266151 ], [ 117.310651579127409, 42.407843662731686 ], [ 117.310651601345626, 42.407848165677912 ], [ 117.310645525117394, 42.407848182143141 ], [ 117.310645547335199, 42.407852685089374 ], [ 117.310639471106541, 42.407852701554269 ], [ 117.31063949332389, 42.407857204500509 ], [ 117.310645569552975, 42.407857188035599 ], [ 117.310645591770779, 42.407861690981825 ], [ 117.310633439311744, 42.407861723911324 ], [ 117.31063341709482, 42.407857220965084 ], [ 117.310615188407525, 42.407857270356899 ], [ 117.310615277270045, 42.407875282141852 ], [ 117.310621353500892, 42.407875265678214 ], [ 117.310621375716963, 42.407879768624433 ], [ 117.310627451948207, 42.407879752160476 ], [ 117.310627474164747, 42.407884255106708 ], [ 117.310621397933033, 42.407884271570659 ], [ 117.310621464581303, 42.407897780409286 ], [ 117.310639693280294, 42.407897731016433 ], [ 117.310639715497729, 42.407902233962631 ] ] ] } },
{ "type": "Feature", "properties": { "crown_id": 6113, "tree_id": "6117", "top_h_m": 22.208, "H_95_Mean": 21.7218, "DBH": 36.2999, "Carbon_kg": 262.508888, "area_m2": 37.0 }, "geometry": { "type": "Polygon", "coordinates": [ [ [ 117.310548372097941, 42.407861954381708 ], [ 117.310572677016253, 42.407861888539465 ], [ 117.310572654803693, 42.407857385593218 ], [ 117.310584807261947, 42.407857352670156 ], [ 117.310584785048519, 42.407852849723909 ], [ 117.310627318649253, 42.407852734483114 ], [ 117.31062729643277, 42.407848231536867 ], [ 117.310615143976307, 42.407848264464427 ], [ 117.310615121760705, 42.407843761518166 ], [ 117.31062119798851, 42.407843745054564 ], [ 117.31062115355644, 42.407834739162055 ], [ 117.310627229783364, 42.407834722698126 ], [ 117.310627185350455, 42.407825716805611 ], [ 117.310633261576484, 42.40782570034137 ], [ 117.310633239359603, 42.407821197395108 ], [ 117.310639315585206, 42.407821180930547 ], [ 117.310639271150592, 42.407812175038025 ], [ 117.31062711870112, 42.407812207966806 ], [ 117.310627096484694, 42.407807705020552 ], [ 117.310602791587385, 42.407807770874257 ], [ 117.310602769372707, 42.407803267927967 ], [ 117.310578464477061, 42.407803333776521 ], [ 117.310578442264116, 42.407798830830217 ], [ 117.310572366040631, 42.407798847291545 ], [ 117.310572343828142, 42.407794344345248 ], [ 117.310566267605083, 42.407794360806243 ], [ 117.310566312029238, 42.407803366698865 ], [ 117.310560235805283, 42.407803383159546 ], [ 117.3105602802286, 42.407812389052147 ], [ 117.310554204003793, 42.407812405512523 ], [ 117.310554292848721, 42.407830417297703 ], [ 117.310548216622166, 42.407830433757759 ], [ 117.310548283254619, 42.407843942596621 ], [ 117.310542207026742, 42.407843959056365 ], [ 117.310542273657944, 42.407857467895198 ], [ 117.3105483498871, 42.40785745143544 ], [ 117.310548372097941, 42.407861954381708 ] ] ] } },
{ "type": "Feature", "properties": { "crown_id": 6140, "tree_id": "6144", "top_h_m": 21.744, "H_95_Mean": 21.4192, "DBH": 32.2549, "Carbon_kg": 205.175858, "area_m2": 24.0 }, "geometry": { "type": "Polygon", "coordinates": [ [ [ 117.310524022761342, 42.40785301432625 ], [ 117.3105361752188, 42.407852981408347 ], [ 117.310536108588934, 42.407839472569499 ], [ 117.31054218481637, 42.407839456110075 ], [ 117.310542118185253, 42.407825947271206 ], [ 117.310548194411368, 42.407825930811477 ], [ 117.310548105568188, 42.407807919026261 ], [ 117.310554181792568, 42.407807902566219 ], [ 117.310554137370147, 42.407798896673604 ], [ 117.310560213593646, 42.407798880213235 ], [ 117.310560169170373, 42.407789874320613 ], [ 117.310566245393005, 42.407789857859932 ], [ 117.310566223180956, 42.407785354913607 ], [ 117.310554070736558, 42.40778538783465 ], [ 117.310554092947754, 42.407789890780968 ], [ 117.310548016725122, 42.407789907241003 ], [ 117.310548061146633, 42.407798913133639 ], [ 117.31053590869962, 42.407798946052765 ], [ 117.310535930909509, 42.407803448999083 ], [ 117.310517702237632, 42.407803498375344 ], [ 117.310517724446257, 42.407808001321662 ], [ 117.310511648221848, 42.407808017779779 ], [ 117.310511670430003, 42.407812520726104 ], [ 117.310505594205168, 42.407812537183887 ], [ 117.310505616412911, 42.407817040130212 ], [ 117.310493463962345, 42.407817073044853 ], [ 117.310493486169221, 42.407821575991171 ], [ 117.310487409943491, 42.407821592448002 ], [ 117.310487454356405, 42.407830598340631 ], [ 117.310481378129779, 42.407830614797156 ], [ 117.310481466953945, 42.4078486265824 ], [ 117.310524000552235, 42.407848511379946 ], [ 117.310524022761342, 42.40785301432625 ] ] ] } },
{ "type": "Feature", "properties": { "crown_id": 6175, "tree_id": "6179", "top_h_m": 20.078, "H_95_Mean": 19.8015, "DBH": 31.5651, "Carbon_kg": 187.513238, "area_m2": 25.5 }, "geometry": { "type": "Polygon", "coordinates": [ [ [ 117.310481311511737, 42.407817105958188 ], [ 117.310487387737041, 42.40781708950167 ], [ 117.310487365530591, 42.407812586555345 ], [ 117.310499517980318, 42.407812553641371 ], [ 117.310499495773001, 42.407808050695039 ], [ 117.310505571997439, 42.407808034237569 ], [ 117.310505549789681, 42.407803531291243 ], [ 117.310511626013664, 42.407803514833461 ], [ 117.310511603805494, 42.407799011887128 ], [ 117.310529832476107, 42.407798962511841 ], [ 117.310529810266615, 42.407794459565515 ], [ 117.31054196271279, 42.407794426647037 ], [ 117.310541918292145, 42.407785420754401 ], [ 117.310547994514337, 42.407785404294685 ], [ 117.31054797230361, 42.407780901348346 ], [ 117.31054189608183, 42.407780917808054 ], [ 117.310541829450912, 42.407767408969043 ], [ 117.31054790567137, 42.407767392509342 ], [ 117.310547883460643, 42.407762889563003 ], [ 117.310529654800519, 42.407762938941126 ], [ 117.310529632591084, 42.407758435994772 ], [ 117.310523556371464, 42.4077584524535 ], [ 117.310523578580458, 42.407762955399861 ], [ 117.310517502360412, 42.407762971858268 ], [ 117.310517524568979, 42.407767474804629 ], [ 117.310499295907476, 42.407767524177927 ], [ 117.310499318114722, 42.407772027124295 ], [ 117.310487165672825, 42.407772060038219 ], [ 117.310487187879232, 42.40777656298458 ], [ 117.31047503543644, 42.407776595897232 ], [ 117.310475079847521, 42.407785601789961 ], [ 117.31046292740298, 42.407785634701327 ], [ 117.310462949607654, 42.407790137647694 ], [ 117.31045687338495, 42.407790154102898 ], [ 117.310456917793431, 42.407799159995619 ], [ 117.31046299401703, 42.407799143540409 ], [ 117.310463016221703, 42.407803646486748 ], [ 117.310469092445729, 42.407803630031218 ], [ 117.310469114650857, 42.407808132977557 ], [ 117.310481267099718, 42.407808100065523 ], [ 117.310481311511737, 42.407817105958188 ] ] ] } }
]
}
