{
"type": "FeatureCollection",
"name": "tile_11_2",
"crs": { "type": "name", "properties": { "name": "urn:ogc:def:crs:OGC:1.3:CRS84" } },
"features": [
{ "type": "Feature", "properties": { "crown_id": 3303, "tree_id": "3304", "top_h_m": 23.281, "H_95_Mean": 22.9968, "DBH": 32.1277, "Carbon_kg": 212.286543, "area_m2": 20.75 }, "geometry": { "type": "Polygon", "coordinates": [ [ [ 117.310392838729925, 42.409591529812388 ], [ 117.310398915126541, 42.409591513360013 ], [ 117.31039884852207, 42.409578004525095 ], [ 117.310404924917364, 42.409577988072407 ], [ 117.310404902715462, 42.409573485127439 ], [ 117.31041097911033, 42.409573468674431 ], [ 117.310410956907958, 42.409568965729463 ], [ 117.310417033302386, 42.409568949276135 ], [ 117.310416966694092, 42.409555440441181 ], [ 117.310410890300972, 42.409555456894502 ], [ 117.310410801491713, 42.409537445114516 ], [ 117.310404725100341, 42.409537461567503 ], [ 117.310404702898467, 42.409532958622499 ], [ 117.310380397334612, 42.409533024431205 ], [ 117.310380441734878, 42.409542030321241 ], [ 117.310362212559355, 42.409542079674402 ], [ 117.310362301354715, 42.409560091454459 ], [ 117.310368377748304, 42.409560075003711 ], [ 117.310368399947606, 42.409564577948707 ], [ 117.310362323553562, 42.409564594399455 ], [ 117.310362345752438, 42.409569097344466 ], [ 117.310368422146894, 42.409569080893718 ], [ 117.31036851094413, 42.409587092673668 ], [ 117.310392816528875, 42.409587026867413 ], [ 117.310392838729925, 42.409591529812388 ] ] ] } },
{ "type": "Feature", "properties": { "crown_id": 3327, "tree_id": "3328", "top_h_m": 22.581, "H_95_Mean": 22.2471, "DBH": 34.6307, "Carbon_kg": 242.145804, "area_m2": 29.5 }, "geometry": { "type": "Polygon", "coordinates": [ [ [ 117.310332008173461, 42.40957818548339 ], [ 117.310350237359501, 42.409578136134982 ], [ 117.310350215161506, 42.409573633189993 ], [ 117.310356291556403, 42.409573616739891 ], [ 117.310356224961126, 42.409560107904881 ], [ 117.310350148567522, 42.409560124354982 ], [ 117.310350126369528, 42.409555621409964 ], [ 117.310356202762719, 42.409555604959863 ], [ 117.310356158365892, 42.409546599069834 ], [ 117.310350081973596, 42.409546615519922 ], [ 117.310350059775644, 42.409542112574911 ], [ 117.310337906991904, 42.409542145474113 ], [ 117.310337884794805, 42.409537642529088 ], [ 117.310331808403362, 42.409537658978202 ], [ 117.310331786206703, 42.40953315603317 ], [ 117.310325709815672, 42.409533172481957 ], [ 117.310325687619482, 42.409528669536918 ], [ 117.310319611228891, 42.409528685985386 ], [ 117.310319589033128, 42.40952418304034 ], [ 117.310307436252785, 42.409524215936301 ], [ 117.310307414057917, 42.409519712991248 ], [ 117.310295261278441, 42.409519745885916 ], [ 117.310295239084411, 42.40951524294087 ], [ 117.310289162695128, 42.409515259387717 ], [ 117.31028914050151, 42.409510756442636 ], [ 117.310283064112653, 42.40951077288917 ], [ 117.310283130692099, 42.40952428172438 ], [ 117.31027705430192, 42.409524298170602 ], [ 117.310277076494657, 42.40952880111567 ], [ 117.310264923713419, 42.409528834007133 ], [ 117.310264968097144, 42.409537839897276 ], [ 117.310271044488644, 42.4095378234517 ], [ 117.310271066680954, 42.409542326396753 ], [ 117.310277143072881, 42.409542309950851 ], [ 117.310277165265617, 42.409546812895911 ], [ 117.310289318050351, 42.409546780003133 ], [ 117.310289340243969, 42.409551282948186 ], [ 117.31028326385119, 42.409551299394735 ], [ 117.310283286044381, 42.409555802339781 ], [ 117.310277209651147, 42.409555818786011 ], [ 117.310277231843926, 42.409560321731057 ], [ 117.310289384631218, 42.409560288838271 ], [ 117.310289406824879, 42.409564791783296 ], [ 117.310319788795269, 42.40956470954567 ], [ 117.310319810991089, 42.409569212490688 ], [ 117.310325887385559, 42.409569196042192 ], [ 117.310325909581834, 42.409573698987202 ], [ 117.310331985976745, 42.409573682538387 ], [ 117.310332008173461, 42.40957818548339 ] ] ] } },
{ "type": "Feature", "properties": { "crown_id": 3358, "tree_id": "3359", "top_h_m": 21.464, "H_95_Mean": 21.2087, "DBH": 31.5752, "Carbon_kg": 195.410058, "area_m2": 22.5 }, "geometry": { "type": "Polygon", "coordinates": [ [ [ 117.310210369325318, 42.409555999673316 ], [ 117.310222522111886, 42.409555966787607 ], [ 117.310222499923043, 42.40955146384254 ], [ 117.310246805494344, 42.409551398067286 ], [ 117.310246783303768, 42.409546895122212 ], [ 117.310252859696149, 42.409546878677602 ], [ 117.310252837505146, 42.409542375732535 ], [ 117.310258913897073, 42.409542359287599 ], [ 117.310258891705629, 42.409537856342538 ], [ 117.310252815314129, 42.40953787278746 ], [ 117.310252770932138, 42.409528866897318 ], [ 117.310246694541476, 42.409528883341927 ], [ 117.310246672350928, 42.409524380396846 ], [ 117.310252748741135, 42.409524363952244 ], [ 117.310252704359158, 42.409515358062073 ], [ 117.310240551580478, 42.409515390950951 ], [ 117.31024052939037, 42.409510888005855 ], [ 117.310222300223614, 42.409510937336748 ], [ 117.3102222780348, 42.409506434391631 ], [ 117.310204048869295, 42.409506483719618 ], [ 117.310204071056802, 42.409510986664735 ], [ 117.310191918278903, 42.409511019548454 ], [ 117.310192073585412, 42.409542540164175 ], [ 117.310185997193429, 42.409542556605579 ], [ 117.310186019379657, 42.409547059550668 ], [ 117.310210324949352, 42.409546993783152 ], [ 117.310210369325318, 42.409555999673316 ] ] ] } },
{ "type": "Feature", "properties": { "crown_id": 3359, "tree_id": "3360", "top_h_m": 21.719, "H_95_Mean": 21.6702, "DBH": 28.7345, "Carbon_kg": 163.665547, "area_m2": 15.0 }, "geometry": { "type": "Polygon", "coordinates": [ [ [ 117.310343961186234, 42.40953762607964 ], [ 117.310374343143337, 42.409537543827604 ], [ 117.310374298743966, 42.409528537937554 ], [ 117.3103803751345, 42.409528521486173 ], [ 117.310380352934374, 42.409524018541163 ], [ 117.310386429324481, 42.409524002089469 ], [ 117.310386407123929, 42.409519499144444 ], [ 117.310380330734262, 42.409519515596131 ], [ 117.310380308534164, 42.409515012651099 ], [ 117.310374232144923, 42.409515029102465 ], [ 117.31037414334628, 42.40949701732228 ], [ 117.310361990571266, 42.409497050224019 ], [ 117.310362012770071, 42.409501553169065 ], [ 117.310355936382095, 42.409501569619472 ], [ 117.310355958580459, 42.409506072564518 ], [ 117.310337729415295, 42.409506121913751 ], [ 117.310337751612366, 42.409510624858811 ], [ 117.310319522445823, 42.409510674205158 ], [ 117.310319544641587, 42.409515177150219 ], [ 117.310313468252303, 42.409515193598374 ], [ 117.310313490447641, 42.409519696543427 ], [ 117.310325643227046, 42.409519663646812 ], [ 117.310325665423278, 42.409524166591865 ], [ 117.3103317418134, 42.409524150143078 ], [ 117.310331764010058, 42.409528653088117 ], [ 117.310337840400621, 42.40952863663901 ], [ 117.31033786259772, 42.409533139584049 ], [ 117.310343938988709, 42.409533123134601 ], [ 117.310343961186234, 42.40953762607964 ] ] ] } },
{ "type": "Feature", "properties": { "crown_id": 3378, "tree_id": "3379", "top_h_m": 21.661, "H_95_Mean": 21.5989, "DBH": 27.087, "Carbon_kg": 145.020046, "area_m2": 12.0 }, "geometry": { "type": "Polygon", "coordinates": [ [ [ 117.310410779289398, 42.409532942169513 ], [ 117.310429008462236, 42.409532892808635 ], [ 117.310428986258628, 42.409528389863624 ], [ 117.310459368211042, 42.409528307589063 ], [ 117.31045934600526, 42.409523804644074 ], [ 117.310471498785333, 42.409523771731997 ], [ 117.310471476578698, 42.409519268787008 ], [ 117.310465400189102, 42.409519285243199 ], [ 117.310465377982908, 42.40951478229821 ], [ 117.310447148815399, 42.409514831664865 ], [ 117.31044710440564, 42.409505825774836 ], [ 117.31043495162902, 42.409505858684312 ], [ 117.310434929425014, 42.409501355739295 ], [ 117.310422776649233, 42.409501388647477 ], [ 117.310422821055511, 42.409510394537527 ], [ 117.310416744666753, 42.409510410991125 ], [ 117.310416766869466, 42.409514913936164 ], [ 117.310398537701829, 42.409514963295081 ], [ 117.310398559903248, 42.409519466240098 ], [ 117.310392483513596, 42.409519482692438 ], [ 117.310392505714589, 42.409523985637456 ], [ 117.310398582104668, 42.40952396918513 ], [ 117.310398604306073, 42.409528472130134 ], [ 117.310410757087126, 42.409528439224502 ], [ 117.310410779289398, 42.409532942169513 ] ] ] } },
{ "type": "Feature", "properties": { "crown_id": 3421, "tree_id": "3423", "top_h_m": 22.531, "H_95_Mean": 22.2418, "DBH": 28.4451, "Carbon_kg": 162.84876, "area_m2": 13.75 }, "geometry": { "type": "Polygon", "coordinates": [ [ [ 117.310246605779298, 42.409510871561579 ], [ 117.310258758557083, 42.409510838672063 ], [ 117.310258714174282, 42.409501832781878 ], [ 117.310270866950333, 42.409501799891075 ], [ 117.31027084475808, 42.409497296945986 ], [ 117.310276921145658, 42.409497280500105 ], [ 117.310276898952949, 42.409492777555023 ], [ 117.310270822565798, 42.409492794000897 ], [ 117.310270778181305, 42.409483788110684 ], [ 117.310210014318244, 42.40948395255166 ], [ 117.310209969942434, 42.409474946661391 ], [ 117.310203893556988, 42.409474963103705 ], [ 117.310204004494324, 42.409497477829369 ], [ 117.310197928106689, 42.409497494271385 ], [ 117.310197950293727, 42.409501997216509 ], [ 117.310228332234061, 42.409501915003219 ], [ 117.310228354423302, 42.409506417948329 ], [ 117.31024658358875, 42.409506368616483 ], [ 117.310246605779298, 42.409510871561579 ] ] ] } },
{ "type": "Feature", "properties": { "crown_id": 3422, "tree_id": "3424", "top_h_m": 22.601, "H_95_Mean": 22.413, "DBH": 28.4135, "Carbon_kg": 163.222909, "area_m2": 13.5 }, "geometry": { "type": "Polygon", "coordinates": [ [ [ 117.310301315473723, 42.409515226493689 ], [ 117.310307391863006, 42.409515210046187 ], [ 117.310307369668138, 42.40951070710112 ], [ 117.310313446056995, 42.409510690653299 ], [ 117.310313423861658, 42.409506187708232 ], [ 117.310331653026893, 42.409506138362865 ], [ 117.310331630830262, 42.40950163541779 ], [ 117.310349859994162, 42.409501586069531 ], [ 117.310349837796224, 42.409497083124478 ], [ 117.310355914183759, 42.409497066674412 ], [ 117.310355891985424, 42.409492563729344 ], [ 117.310368044759571, 42.40949253082826 ], [ 117.31036802256034, 42.409488027883192 ], [ 117.3103619461737, 42.409488044333898 ], [ 117.310361923974966, 42.40948354138883 ], [ 117.310355847588752, 42.409483557839216 ], [ 117.310355803192067, 42.40947455194906 ], [ 117.310349726806734, 42.409474568399112 ], [ 117.310349749004629, 42.409479071344194 ], [ 117.310337596233055, 42.409479104243324 ], [ 117.310337618430097, 42.409483607188413 ], [ 117.310319389271385, 42.409483656534718 ], [ 117.310319411467106, 42.409488159479793 ], [ 117.310295105920389, 42.409488225270366 ], [ 117.310295150308363, 42.409497231160557 ], [ 117.310289073920799, 42.409497247607391 ], [ 117.310289118307935, 42.409506253497561 ], [ 117.31029519469638, 42.409506237050714 ], [ 117.310295216890395, 42.409510739995788 ], [ 117.310301293279252, 42.409510723548614 ], [ 117.310301315473723, 42.409515226493689 ] ] ] } },
{ "type": "Feature", "properties": { "crown_id": 3429, "tree_id": "3431", "top_h_m": 21.798, "H_95_Mean": 21.5928, "DBH": 28.8083, "Carbon_kg": 164.166066, "area_m2": 15.25 }, "geometry": { "type": "Polygon", "coordinates": [ [ [ 117.310386384923376, 42.409514996199412 ], [ 117.310392461312617, 42.409514979747406 ], [ 117.310392439111638, 42.409510476802375 ], [ 117.310410668277967, 42.409510427444431 ], [ 117.310410646075709, 42.409505924499406 ], [ 117.310416722464041, 42.409505908046114 ], [ 117.31041667805863, 42.40949690215605 ], [ 117.310422754446108, 42.409496885702438 ], [ 117.310422599024335, 42.409465365087151 ], [ 117.310416522639912, 42.409465381540734 ], [ 117.310416567045237, 42.409474387430834 ], [ 117.310367955962761, 42.409474519047997 ], [ 117.310368000361137, 42.409483524938132 ], [ 117.310374076747351, 42.409483508487106 ], [ 117.310374121146623, 42.409492514377227 ], [ 117.310380197533703, 42.409492497925875 ], [ 117.310380286334052, 42.409510509706053 ], [ 117.310386362722852, 42.409510493254373 ], [ 117.310386384923376, 42.409514996199412 ] ] ] } },
{ "type": "Feature", "properties": { "crown_id": 3461, "tree_id": "3463", "top_h_m": 21.675, "H_95_Mean": 21.4811, "DBH": 27.7156, "Carbon_kg": 151.392493, "area_m2": 13.25 }, "geometry": { "type": "MultiPolygon", "coordinates": [ [ [ [ 117.310215979762944, 42.409461421383327 ], [ 117.310216068516212, 42.409479433163881 ], [ 117.310264679603193, 42.409479301611121 ], [ 117.310264613027798, 42.409465792775777 ], [ 117.310258536643246, 42.409465809220983 ], [ 117.310258514451903, 42.409461306275851 ], [ 117.310252438067778, 42.409461322720745 ], [ 117.310252371495025, 42.409447813885343 ], [ 117.310234142346559, 42.409447863218055 ], [ 117.310234164536169, 42.409452366163201 ], [ 117.310222011769625, 42.409452399050082 ], [ 117.310222056147083, 42.409461404940359 ], [ 117.310215979762944, 42.409461421383327 ] ] ], [ [ [ 117.310215979762944, 42.409461421383327 ], [ 117.310215957574627, 42.409456918438174 ], [ 117.310209881190914, 42.409456934880815 ], [ 117.310209836815176, 42.409447928990495 ], [ 117.310197684049442, 42.40944796187479 ], [ 117.310197706236465, 42.40945246481995 ], [ 117.310191629853151, 42.409452481261617 ], [ 117.310191652039705, 42.40945698420677 ], [ 117.310197728423447, 42.409456967765102 ], [ 117.31019775061047, 42.409461470710255 ], [ 117.310203826994623, 42.409461454268275 ], [ 117.310203849182059, 42.409465957213428 ], [ 117.310209925566667, 42.409465940771099 ], [ 117.310209903378791, 42.409461437825954 ], [ 117.310215979762944, 42.409461421383327 ] ] ] ] } },
{ "type": "Feature", "properties": { "crown_id": 3462, "tree_id": "3464", "top_h_m": 22.285, "H_95_Mean": 22.1289, "DBH": 32.0294, "Carbon_kg": 206.233076, "area_m2": 22.0 }, "geometry": { "type": "Polygon", "coordinates": [ [ [ 117.310282953146981, 42.409488258163719 ], [ 117.310289029533664, 42.409488241717199 ], [ 117.310289007340117, 42.40948373877211 ], [ 117.310313312885157, 42.409483672982844 ], [ 117.310313290689848, 42.409479170037741 ], [ 117.310331519847281, 42.409479120692417 ], [ 117.310331497650665, 42.409474617747328 ], [ 117.310343650421387, 42.409474584848837 ], [ 117.310343628223933, 42.409470081903756 ], [ 117.31035578099376, 42.409470049003986 ], [ 117.310355736597131, 42.409461043113815 ], [ 117.310349660213092, 42.409461059563867 ], [ 117.310349593619506, 42.409447550728586 ], [ 117.310343517236774, 42.40944756717829 ], [ 117.310343472841936, 42.409438561288077 ], [ 117.310337396460042, 42.409438577737461 ], [ 117.310337418657042, 42.409443080682571 ], [ 117.310331342274722, 42.409443097131636 ], [ 117.310331364471281, 42.409447600076746 ], [ 117.310307058940211, 42.409447665869799 ], [ 117.310307081135036, 42.40945216881493 ], [ 117.310288851985391, 42.409452218156339 ], [ 117.310288874178909, 42.409456721101456 ], [ 117.310276721411583, 42.409456753994128 ], [ 117.31027674360422, 42.409461256939245 ], [ 117.310270667220124, 42.409461273385105 ], [ 117.310270733796813, 42.409474782220464 ], [ 117.310276810182216, 42.409474765774604 ], [ 117.310276854567562, 42.409483771664817 ], [ 117.310282930953846, 42.409483755218623 ], [ 117.310282953146981, 42.409488258163719 ] ] ] } },
{ "type": "Feature", "properties": { "crown_id": 3511, "tree_id": "3513", "top_h_m": 22.149, "H_95_Mean": 21.8866, "DBH": 28.9929, "Carbon_kg": 167.627742, "area_m2": 15.25 }, "geometry": { "type": "Polygon", "coordinates": [ [ [ 117.310361857378666, 42.409470032553621 ], [ 117.310410468457718, 42.409469900939058 ], [ 117.310410424053273, 42.409460895048937 ], [ 117.310416500437242, 42.409460878595681 ], [ 117.310416389424063, 42.409438363870329 ], [ 117.310379931133085, 42.409438462584994 ], [ 117.310379953333097, 42.40944296553009 ], [ 117.310355647803959, 42.409443031333431 ], [ 117.310355714398824, 42.409456540168726 ], [ 117.310361790782437, 42.409456523718369 ], [ 117.310361857378666, 42.409470032553621 ] ] ] } },
{ "type": "Feature", "properties": { "crown_id": 3541, "tree_id": "3543", "top_h_m": 18.61, "H_95_Mean": 18.3072, "DBH": 28.9227, "Carbon_kg": 150.090237, "area_m2": 21.0 }, "geometry": { "type": "Polygon", "coordinates": [ [ [ 117.31025849226053, 42.409456803330727 ], [ 117.310270645027899, 42.409456770439988 ], [ 117.310270622835688, 42.409452267494856 ], [ 117.310282775602147, 42.409452234602838 ], [ 117.310282753409084, 42.4094477316577 ], [ 117.310300982557436, 42.409447682317264 ], [ 117.310300960363065, 42.409443179372133 ], [ 117.310325265892402, 42.409443113580373 ], [ 117.310325243696283, 42.409438610635263 ], [ 117.310331320078163, 42.409438594186533 ], [ 117.310331275685101, 42.409429588296291 ], [ 117.310337352066128, 42.409429571847234 ], [ 117.310337307672199, 42.409420565956985 ], [ 117.31032515491188, 42.409420598854773 ], [ 117.310325132715818, 42.409416095909641 ], [ 117.310319056336098, 42.409416112358045 ], [ 117.310319034140448, 42.409411609412906 ], [ 117.310276499485298, 42.409411724542714 ], [ 117.310276543870529, 42.409420730433027 ], [ 117.310270467490326, 42.409420746878858 ], [ 117.310270489682509, 42.409425249824011 ], [ 117.310264413301866, 42.40942526626953 ], [ 117.310264479877134, 42.409438775104974 ], [ 117.310258403495197, 42.40943879155018 ], [ 117.31025849226053, 42.409456803330727 ] ] ] } },
{ "type": "Feature", "properties": { "crown_id": 3569, "tree_id": "3571", "top_h_m": 21.914, "H_95_Mean": 21.4686, "DBH": 32.9628, "Carbon_kg": 214.64503, "area_m2": 26.0 }, "geometry": { "type": "Polygon", "coordinates": [ [ [ 117.310355625605681, 42.409438528388335 ], [ 117.310373854751248, 42.409438479036318 ], [ 117.310373832551662, 42.409433976091215 ], [ 117.310422443602789, 42.409433844471671 ], [ 117.310422465805871, 42.409438347416753 ], [ 117.31042854218768, 42.409438330962857 ], [ 117.310428497780691, 42.409429325072701 ], [ 117.310434574161604, 42.409429308618485 ], [ 117.310434551957698, 42.40942480567341 ], [ 117.310428475577211, 42.409424822127626 ], [ 117.310428453373731, 42.40942031918253 ], [ 117.310422376993657, 42.409420335636412 ], [ 117.310422288181528, 42.409402323856028 ], [ 117.310416211803215, 42.409402340309576 ], [ 117.310416145195475, 42.409388831474246 ], [ 117.310385763310222, 42.409388913737118 ], [ 117.310385785510618, 42.409393416682263 ], [ 117.310379709133144, 42.409393433133879 ], [ 117.310379731333114, 42.409397936079003 ], [ 117.310373654955171, 42.409397952530298 ], [ 117.310373699354258, 42.409406958420547 ], [ 117.310361546596653, 42.409406991322179 ], [ 117.310361568795315, 42.409411494267317 ], [ 117.310355492416079, 42.409411510717653 ], [ 117.310355514614315, 42.409416013662771 ], [ 117.310349438234624, 42.409416030112787 ], [ 117.310349460432448, 42.409420533057911 ], [ 117.310343384052317, 42.409420549507608 ], [ 117.310343428447112, 42.409429555397857 ], [ 117.310355581209123, 42.409429522498129 ], [ 117.310355625605681, 42.409438528388335 ] ] ] } },
{ "type": "Feature", "properties": { "crown_id": 3600, "tree_id": "3602", "top_h_m": 20.972, "H_95_Mean": 20.9169, "DBH": 30.1331, "Carbon_kg": 176.388059, "area_m2": 19.25 }, "geometry": { "type": "Polygon", "coordinates": [ [ [ 117.310221967392152, 42.409443393159762 ], [ 117.310234120156963, 42.409443360272903 ], [ 117.310234097967353, 42.40943885732775 ], [ 117.310252327113233, 42.409438807995045 ], [ 117.310252304922358, 42.409434305049899 ], [ 117.310258381303854, 42.409434288605027 ], [ 117.310258314729907, 42.409420779769569 ], [ 117.310264391110124, 42.40942076332437 ], [ 117.310264368918396, 42.40941626037921 ], [ 117.310270445298144, 42.409416243933705 ], [ 117.310270400913808, 42.409407238043364 ], [ 117.310264324534927, 42.409407254488876 ], [ 117.310264302343199, 42.409402751543723 ], [ 117.310258225964731, 42.409402767988887 ], [ 117.310258203773444, 42.409398265043713 ], [ 117.310239974639316, 42.409398314377313 ], [ 117.310239952449351, 42.409393811432125 ], [ 117.310233876071734, 42.409393827876002 ], [ 117.31023385388221, 42.409389324930821 ], [ 117.310215624750626, 42.40938937426052 ], [ 117.310215868821459, 42.409438906657542 ], [ 117.310221945203438, 42.409438890214602 ], [ 117.310221967392152, 42.409443393159762 ] ] ] } }
]
}
