{
"type": "FeatureCollection",
"name": "tile_18_21",
"crs": { "type": "name", "properties": { "name": "urn:ogc:def:crs:OGC:1.3:CRS84" } },
"features": [
{ "type": "Feature", "properties": { "crown_id": 5410, "tree_id": "5413", "top_h_m": 21.719, "H_95_Mean": 24.774, "DBH": 30.4707, "Carbon_kg": 199.385227, "area_m2": 14.75 }, "geometry": { "type": "Polygon", "coordinates": [ [ [ 117.314980262486927, 42.408313672779308 ], [ 117.315016720110549, 42.40831357260376 ], [ 117.31501669757975, 42.408309069659765 ], [ 117.315022773849904, 42.408309052962728 ], [ 117.315022751318708, 42.40830455001872 ], [ 117.315028827588407, 42.408304533321349 ], [ 117.31502880505677, 42.408300030377369 ], [ 117.315040957595301, 42.408299996981668 ], [ 117.315040935062839, 42.408295494037674 ], [ 117.315047011331643, 42.408295477339351 ], [ 117.315046988798713, 42.408290974395356 ], [ 117.315016607456727, 42.408291057883773 ], [ 117.315016584925957, 42.408286554939764 ], [ 117.314998356122004, 42.408286605028934 ], [ 117.314998311063135, 42.408277599140909 ], [ 117.314992234795994, 42.408277615836639 ], [ 117.314992212267015, 42.408273112892608 ], [ 117.3149800597336, 42.408273146283129 ], [ 117.314980127317995, 42.408286655115212 ], [ 117.314974051049987, 42.408286671809996 ], [ 117.314974118633117, 42.408300180642065 ], [ 117.314980194902432, 42.408300163947281 ], [ 117.314980262486927, 42.408313672779308 ] ] ] } },
{ "type": "Feature", "properties": { "crown_id": 5430, "tree_id": "5433", "top_h_m": 23.14, "H_95_Mean": 23.2244, "DBH": 29.5602, "Carbon_kg": 180.529156, "area_m2": 14.75 }, "geometry": { "type": "Polygon", "coordinates": [ [ [ 117.314882997113969, 42.408304933969319 ], [ 117.314889073383796, 42.408304917279366 ], [ 117.314889050862163, 42.408300414335308 ], [ 117.314919432209024, 42.408300330880699 ], [ 117.314919252018726, 42.408264307328238 ], [ 117.314894946955135, 42.408264374092518 ], [ 117.314894969477152, 42.408268877036576 ], [ 117.314888893210821, 42.408268893726841 ], [ 117.314888915732425, 42.408273396670928 ], [ 117.314870686932053, 42.408273446739784 ], [ 117.314870709452364, 42.408277949683864 ], [ 117.314858556917883, 42.408277983061517 ], [ 117.314858579437328, 42.408282486005596 ], [ 117.31486465570498, 42.40828246931693 ], [ 117.314864678224865, 42.408286972261003 ], [ 117.314870754492958, 42.408286955572024 ], [ 117.314870777013297, 42.408291458516096 ], [ 117.314876853281831, 42.40829144182679 ], [ 117.314876898323348, 42.408300447714915 ], [ 117.314882974592763, 42.408300431025268 ], [ 117.314882997113969, 42.408304933969319 ] ] ] } },
{ "type": "Feature", "properties": { "crown_id": 5450, "tree_id": "5453", "top_h_m": 25.469, "H_95_Mean": 25.2535, "DBH": 33.7779, "Carbon_kg": 248.20513, "area_m2": 21.25 }, "geometry": { "type": "Polygon", "coordinates": [ [ [ 117.314937593441798, 42.40828677197193 ], [ 117.314967974781979, 42.408286688504461 ], [ 117.31496795225469, 42.408282185560424 ], [ 117.314974028522272, 42.408282168865973 ], [ 117.314973938411512, 42.408264157089825 ], [ 117.314980014677374, 42.408264140395048 ], [ 117.314980037205473, 42.408268643339085 ], [ 117.314986113471761, 42.408268626643988 ], [ 117.314986023357591, 42.408250614867825 ], [ 117.314973870828524, 42.408250648257656 ], [ 117.314973825773194, 42.408241642369539 ], [ 117.31496774950952, 42.408241659063975 ], [ 117.314967726982317, 42.40823715611991 ], [ 117.314955574455809, 42.408237189507815 ], [ 117.314955551929472, 42.408232686563736 ], [ 117.314949475666666, 42.408232703257177 ], [ 117.314949498192547, 42.408237206201271 ], [ 117.314937345666053, 42.408237239587237 ], [ 117.314937413241182, 42.408250748419469 ], [ 117.314931336976628, 42.408250765111973 ], [ 117.314931359501244, 42.408255268056053 ], [ 117.314925283236221, 42.408255284748236 ], [ 117.314925418381478, 42.408282302412616 ], [ 117.314937570916697, 42.408282269027879 ], [ 117.314937593441798, 42.40828677197193 ] ] ] } },
{ "type": "Feature", "properties": { "crown_id": 5451, "tree_id": "5454", "top_h_m": 24.386, "H_95_Mean": 24.1477, "DBH": 31.4624, "Carbon_kg": 209.483595, "area_m2": 17.5 }, "geometry": { "type": "Polygon", "coordinates": [ [ [ 117.31502266119395, 42.40828653824272 ], [ 117.315053042533748, 42.408286454752705 ], [ 117.315052997467049, 42.408277448864709 ], [ 117.315046921199965, 42.408277465563359 ], [ 117.315046808535485, 42.4082549508433 ], [ 117.315034656005651, 42.408254984239591 ], [ 117.315034610941638, 42.40824597835153 ], [ 117.315022458413509, 42.40824601174652 ], [ 117.315022435882383, 42.408241508802476 ], [ 117.315016359618753, 42.408241525499491 ], [ 117.315016382149466, 42.408246028443529 ], [ 117.314992077093137, 42.408246095228364 ], [ 117.314992189738021, 42.408268609948578 ], [ 117.314998266004267, 42.408268593252842 ], [ 117.314998288533715, 42.408273096196879 ], [ 117.315004364800387, 42.408273079500809 ], [ 117.315004409860109, 42.408282085388855 ], [ 117.315022638662768, 42.408282035298711 ], [ 117.31502266119395, 42.40828653824272 ] ] ] } },
{ "type": "Feature", "properties": { "crown_id": 5468, "tree_id": "5471", "top_h_m": 23.206, "H_95_Mean": 23.3355, "DBH": 30.8461, "Carbon_kg": 197.262921, "area_m2": 17.25 }, "geometry": { "type": "Polygon", "coordinates": [ [ [ 117.314822121831142, 42.408282586130795 ], [ 117.314840350634256, 42.408282536069642 ], [ 117.314840080416957, 42.408228500740314 ], [ 117.314834004154477, 42.408228517427659 ], [ 117.314834026672116, 42.408233020371789 ], [ 117.314815797883355, 42.408233070431884 ], [ 117.314815842916033, 42.408242076320157 ], [ 117.314803690388416, 42.408242109691969 ], [ 117.314803712903924, 42.408246612636091 ], [ 117.314785484111127, 42.408246662691376 ], [ 117.314785506625327, 42.408251165635519 ], [ 117.314791582890024, 42.408251148950754 ], [ 117.314791650433932, 42.408264657783128 ], [ 117.314797726699922, 42.408264641098022 ], [ 117.314797749214989, 42.408269144042144 ], [ 117.314803825481434, 42.408269127356711 ], [ 117.314803847996941, 42.408273630300826 ], [ 117.314809924263784, 42.408273613615073 ], [ 117.314809946779746, 42.408278116559174 ], [ 117.314822099314313, 42.408278083186701 ], [ 117.314822121831142, 42.408282586130795 ] ] ] } },
{ "type": "Feature", "properties": { "crown_id": 5481, "tree_id": "5484", "top_h_m": 22.907, "H_95_Mean": 22.8022, "DBH": 27.0124, "Carbon_kg": 148.915536, "area_m2": 10.75 }, "geometry": { "type": "Polygon", "coordinates": [ [ [ 117.31484640438336, 42.408278016437862 ], [ 117.314852480650615, 42.408277999749842 ], [ 117.314852458131625, 42.408273496805755 ], [ 117.314864610665254, 42.40827346342877 ], [ 117.314864588145369, 42.408268960484683 ], [ 117.314882816944476, 42.408268910416794 ], [ 117.314882794423298, 42.4082644074727 ], [ 117.314888870689231, 42.408264390782769 ], [ 117.314888848167627, 42.408259887838682 ], [ 117.314901000698569, 42.408259854457839 ], [ 117.314900978176127, 42.408255351513759 ], [ 117.314888825646037, 42.408255384894595 ], [ 117.314888803124447, 42.408250881950501 ], [ 117.314876650595238, 42.408250915330044 ], [ 117.314876628074515, 42.408246412385935 ], [ 117.314864475546131, 42.408246445764192 ], [ 117.314864453026303, 42.408241942820084 ], [ 117.31485837676253, 42.408241959508715 ], [ 117.314858354243142, 42.408237456564599 ], [ 117.314846201716463, 42.408237489940909 ], [ 117.31484640438336, 42.408278016437862 ] ] ] } },
{ "type": "Feature", "properties": { "crown_id": 5534, "tree_id": "5537", "top_h_m": 27.154, "H_95_Mean": 26.5373, "DBH": 46.3815, "Carbon_kg": 484.289873, "area_m2": 66.5 }, "geometry": { "type": "Polygon", "coordinates": [ [ [ 117.314907076964047, 42.408259837766956 ], [ 117.314919229494976, 42.408259804384173 ], [ 117.314919184447461, 42.40825079849602 ], [ 117.314925260712045, 42.408250781804156 ], [ 117.314925238187868, 42.408246278860084 ], [ 117.314931314451982, 42.4082462621679 ], [ 117.314931246878174, 42.408232753335646 ], [ 117.31494339940383, 42.408232719950327 ], [ 117.314943376878361, 42.408228217006247 ], [ 117.314949453140756, 42.408228200313104 ], [ 117.314949385563082, 42.408214691480829 ], [ 117.314961538085228, 42.408214658093605 ], [ 117.314961470505011, 42.408201149261316 ], [ 117.314955394245231, 42.408201165955084 ], [ 117.314955371718938, 42.408196663010983 ], [ 117.314943219200245, 42.408196696397539 ], [ 117.314943129098566, 42.408178684621063 ], [ 117.314937052840961, 42.408178701313851 ], [ 117.314937030315988, 42.408174198369721 ], [ 117.314943106573168, 42.408174181676934 ], [ 117.314943084047769, 42.408169678732804 ], [ 117.314876245223289, 42.408169862335697 ], [ 117.314876222702665, 42.408165359391518 ], [ 117.314857993933543, 42.408165409458277 ], [ 117.31485801645286, 42.40816991240245 ], [ 117.314864092709684, 42.408169895713854 ], [ 117.31486411522944, 42.408174398658012 ], [ 117.314858038972176, 42.408174415346615 ], [ 117.314858129049483, 42.408192427123247 ], [ 117.314852052790499, 42.408192443811537 ], [ 117.31485212034724, 42.408205952643982 ], [ 117.314846044086948, 42.408205969331966 ], [ 117.314846089123932, 42.408214975220254 ], [ 117.31484001286276, 42.408214991907897 ], [ 117.314840057898877, 42.408223997796185 ], [ 117.314846134160916, 42.408223981108527 ], [ 117.314846179197957, 42.408232986996779 ], [ 117.314864407986647, 42.408232936931846 ], [ 117.314864430506475, 42.408237439875968 ], [ 117.314870506769807, 42.408237423187011 ], [ 117.314870529290076, 42.408241926131133 ], [ 117.314882681817565, 42.408241892752237 ], [ 117.314882704338714, 42.408246395696331 ], [ 117.314894856867042, 42.408246362316156 ], [ 117.314894879389058, 42.40825086526025 ], [ 117.314907031918281, 42.408250831878775 ], [ 117.314907076964047, 42.408259837766956 ] ] ] } },
{ "type": "Feature", "properties": { "crown_id": 5535, "tree_id": "5538", "top_h_m": 24.337, "H_95_Mean": 24.4502, "DBH": 31.8773, "Carbon_kg": 216.678255, "area_m2": 18.0 }, "geometry": { "type": "Polygon", "coordinates": [ [ [ 117.314979924564952, 42.408246128618842 ], [ 117.314986000829052, 42.408246111923766 ], [ 117.314985978300527, 42.408241608979701 ], [ 117.315010283355122, 42.408241542196173 ], [ 117.315010260824863, 42.408237039252128 ], [ 117.315016337088082, 42.40823702255544 ], [ 117.315016314557383, 42.408232519611381 ], [ 117.315010238294605, 42.40823253630807 ], [ 117.315010080582979, 42.408201015699603 ], [ 117.315016156842717, 42.408200999002936 ], [ 117.31501608925079, 42.408187490170683 ], [ 117.31501001299236, 42.40818750686735 ], [ 117.315010058052778, 42.408196512755516 ], [ 117.314997905534184, 42.40819654614787 ], [ 117.314997928063505, 42.408201049091957 ], [ 117.314967546764763, 42.408201132567228 ], [ 117.314967636873504, 42.408219144343597 ], [ 117.314955484350463, 42.408219177731475 ], [ 117.314955529403122, 42.408228183619642 ], [ 117.31496160566553, 42.408228166925859 ], [ 117.314961628192307, 42.408232669869946 ], [ 117.314973780717906, 42.408232636481401 ], [ 117.31497380324555, 42.408237139425488 ], [ 117.314979879508783, 42.408237122730725 ], [ 117.314979924564952, 42.408246128618842 ] ] ] } },
{ "type": "Feature", "properties": { "crown_id": 5536, "tree_id": "5539", "top_h_m": 26.791, "H_95_Mean": 26.5681, "DBH": 34.2705, "Carbon_kg": 263.341243, "area_m2": 20.5 }, "geometry": { "type": "Polygon", "coordinates": [ [ [ 117.315028512146014, 42.408241492105148 ], [ 117.315040664673248, 42.408241458709512 ], [ 117.315040642140815, 42.408236955765481 ], [ 117.315071023456653, 42.408236872270777 ], [ 117.315071000922032, 42.40823236932674 ], [ 117.315077077184768, 42.408232352626847 ], [ 117.315077032114729, 42.408223346738779 ], [ 117.31507095585286, 42.408223363438687 ], [ 117.315070933318282, 42.40821886049465 ], [ 117.31508308584111, 42.408218827094537 ], [ 117.315083018234787, 42.408205318262411 ], [ 117.315058713194333, 42.408205385061322 ], [ 117.315058690660635, 42.408200882117256 ], [ 117.315052614400955, 42.408200898816176 ], [ 117.315052591867698, 42.40819639587211 ], [ 117.315022210571357, 42.40819647936187 ], [ 117.315022255633508, 42.408205485250015 ], [ 117.315016179373359, 42.408205501947009 ], [ 117.315016292026698, 42.40822801666733 ], [ 117.315022368289007, 42.408227999970329 ], [ 117.315022413351258, 42.408237005858432 ], [ 117.315028489614448, 42.408236989161111 ], [ 117.315028512146014, 42.408241492105148 ] ] ] } },
{ "type": "Feature", "properties": { "crown_id": 5588, "tree_id": "5591", "top_h_m": 24.466, "H_95_Mean": 24.353, "DBH": 31.7034, "Carbon_kg": 213.798156, "area_m2": 17.75 }, "geometry": { "type": "Polygon", "coordinates": [ [ [ 117.315064766920329, 42.408200865418017 ], [ 117.315082995699356, 42.408200815318366 ], [ 117.315082973163939, 42.408196312374322 ], [ 117.315076896904685, 42.408196329074521 ], [ 117.315076739159892, 42.40816480846604 ], [ 117.315058510391268, 42.408164858564668 ], [ 117.315058487857627, 42.408160355620581 ], [ 117.315052411601854, 42.408160372319479 ], [ 117.315052389068654, 42.408155869375385 ], [ 117.315046312813308, 42.408155886073956 ], [ 117.315046290280534, 42.408151383129855 ], [ 117.315040214025615, 42.408151399828093 ], [ 117.315040259090281, 42.408160405716302 ], [ 117.315034182834509, 42.408160422414227 ], [ 117.315034205366388, 42.408164925358335 ], [ 117.315015976597707, 42.408164975450191 ], [ 117.315016066720162, 42.408182987226596 ], [ 117.315022142978137, 42.408182970529616 ], [ 117.315022188040288, 42.40819197641779 ], [ 117.315058645593268, 42.408191876229132 ], [ 117.315058668126966, 42.408196379173205 ], [ 117.315064744386206, 42.408196362473959 ], [ 117.315064766920329, 42.408200865418017 ] ] ] } },
{ "type": "Feature", "properties": { "crown_id": 5595, "tree_id": "5598", "top_h_m": 25.609, "H_95_Mean": 25.4503, "DBH": 32.0071, "Carbon_kg": 223.702001, "area_m2": 17.0 }, "geometry": { "type": "Polygon", "coordinates": [ [ [ 117.314961447978249, 42.408196646317222 ], [ 117.314991829274874, 42.408196562843564 ], [ 117.314991806745965, 42.408192059899477 ], [ 117.315003959263706, 42.408192026507763 ], [ 117.315003914204183, 42.408183020619575 ], [ 117.315009990462173, 42.408183003923249 ], [ 117.315009877811278, 42.408160489202736 ], [ 117.314973420276289, 42.408160589375818 ], [ 117.314973442803847, 42.408165092319933 ], [ 117.314949137778683, 42.408165159095567 ], [ 117.314949182830333, 42.408174164983819 ], [ 117.314955259087512, 42.408174148290406 ], [ 117.314955281613777, 42.408178651234529 ], [ 117.314949205356186, 42.408178667927956 ], [ 117.314949272933731, 42.408192176760316 ], [ 117.314961425451528, 42.408192143373114 ], [ 117.314961447978249, 42.408196646317222 ] ] ] } },
{ "type": "Feature", "properties": { "crown_id": 5631, "tree_id": "5634", "top_h_m": 22.444, "H_95_Mean": 22.3846, "DBH": 24.1941, "Carbon_kg": 117.962362, "area_m2": 7.25 }, "geometry": { "type": "Polygon", "coordinates": [ [ [ 117.314882298959034, 42.408165342701963 ], [ 117.314943061522371, 42.40816517578866 ], [ 117.314943016471588, 42.408156169900394 ], [ 117.314936940216143, 42.40815618659316 ], [ 117.314936917691199, 42.408151683649024 ], [ 117.314882231395913, 42.408151833869468 ], [ 117.314882298959034, 42.408165342701963 ] ] ] } },
{ "type": "Feature", "properties": { "crown_id": 5653, "tree_id": "5656", "top_h_m": 24.122, "H_95_Mean": 23.9691, "DBH": 33.6399, "Carbon_kg": 238.681636, "area_m2": 23.0 }, "geometry": { "type": "Polygon", "coordinates": [ [ [ 117.314949115252858, 42.408160656151431 ], [ 117.314967344020431, 42.408160606070197 ], [ 117.314967321493299, 42.408156103126068 ], [ 117.315015931536493, 42.408155969561982 ], [ 117.315015954067078, 42.40816047250609 ], [ 117.315028106578694, 42.408160439111839 ], [ 117.315028084047242, 42.408155936167745 ], [ 117.315034160302588, 42.408155919470133 ], [ 117.315034070175031, 42.408137907693686 ], [ 117.315027993921419, 42.408137924391276 ], [ 117.315027971389952, 42.408133421447154 ], [ 117.315009742630352, 42.408133471537994 ], [ 117.315009720100221, 42.408128968593857 ], [ 117.314973262583493, 42.408129068766833 ], [ 117.314973240055949, 42.408124565822675 ], [ 117.314955011298835, 42.408124615904818 ], [ 117.314955033825058, 42.408129118848969 ], [ 117.314942881319396, 42.40812915223546 ], [ 117.314942993946218, 42.408151666956243 ], [ 117.314949070201209, 42.408151650263143 ], [ 117.314949115252858, 42.408160656151431 ] ] ] } },
{ "type": "Feature", "properties": { "crown_id": 5674, "tree_id": "5677", "top_h_m": 25.001, "H_95_Mean": 24.6861, "DBH": 34.9385, "Carbon_kg": 262.1465, "area_m2": 25.25 }, "geometry": { "type": "Polygon", "coordinates": [ [ [ 117.314845818902356, 42.408160939890308 ], [ 117.314876200182056, 42.408160856447367 ], [ 117.314876132620242, 42.408147347614836 ], [ 117.314930818911691, 42.408147197397312 ], [ 117.314930796387188, 42.408142694453154 ], [ 117.31493687264134, 42.408142677760701 ], [ 117.314936805066566, 42.408129168928212 ], [ 117.314930728813735, 42.408129185620645 ], [ 117.314930706289246, 42.40812468267648 ], [ 117.314918553784423, 42.408124716060378 ], [ 117.314918508737208, 42.408115710172012 ], [ 117.314912432485656, 42.408115726863471 ], [ 117.314912387439335, 42.408106720975084 ], [ 117.314906311188665, 42.408106737666216 ], [ 117.314906243620527, 42.408093228833607 ], [ 117.314894091121744, 42.408093262214891 ], [ 117.314894113643575, 42.408097765159106 ], [ 117.314888037393757, 42.408097781849271 ], [ 117.314888104958001, 42.408111290681894 ], [ 117.314882028706847, 42.408111307371748 ], [ 117.314882051227812, 42.408115810315962 ], [ 117.31487597497626, 42.408115827005481 ], [ 117.314875997496799, 42.408120329949689 ], [ 117.314869921244778, 42.408120346638896 ], [ 117.31487003384548, 42.408142861359885 ], [ 117.314857881337076, 42.408142894737352 ], [ 117.314857903856364, 42.408147397681546 ], [ 117.3148518276017, 42.4081474143698 ], [ 117.314851850120561, 42.408151917314001 ], [ 117.3148457738655, 42.408151934001936 ], [ 117.314845818902356, 42.408160939890308 ] ] ] } }
]
}
