{
"type": "FeatureCollection",
"name": "tile_19_15",
"crs": { "type": "name", "properties": { "name": "urn:ogc:def:crs:OGC:1.3:CRS84" } },
"features": [
{ "type": "Feature", "properties": { "crown_id": 5687, "tree_id": "5690", "top_h_m": 21.918, "H_95_Mean": 21.8246, "DBH": 30.7447, "Carbon_kg": 188.351498, "area_m2": 19.25 }, "geometry": { "type": "Polygon", "coordinates": [ [ [ 117.313466441408309, 42.40815121088562 ], [ 117.313472517664152, 42.408151194270786 ], [ 117.313472495243929, 42.408146691326003 ], [ 117.313484647754677, 42.40814665809539 ], [ 117.313484602912553, 42.408137652205809 ], [ 117.31349067916706, 42.408137635590023 ], [ 117.313490656745572, 42.408133132645226 ], [ 117.313496732999624, 42.40813311602912 ], [ 117.313496598468163, 42.408106098360335 ], [ 117.31347229346234, 42.408106164822783 ], [ 117.313472271042187, 42.408101661877957 ], [ 117.313466194791133, 42.408101678492756 ], [ 117.313466172371434, 42.408097175547937 ], [ 117.313441867368965, 42.408097242003919 ], [ 117.313441979458887, 42.408119756728077 ], [ 117.313435903206084, 42.408119773341276 ], [ 117.313435925623651, 42.408124276286095 ], [ 117.313448078130122, 42.408124243059362 ], [ 117.313448100548555, 42.408128746004174 ], [ 117.313454176802225, 42.408128729390327 ], [ 117.313454244058875, 42.408142238224734 ], [ 117.313460320313837, 42.408142221610554 ], [ 117.313460342733165, 42.408146724555351 ], [ 117.313466418988554, 42.40814670794083 ], [ 117.313466441408309, 42.40815121088562 ] ] ] } },
{ "type": "Feature", "properties": { "crown_id": 5713, "tree_id": "5716", "top_h_m": 19.38, "H_95_Mean": 19.3107, "DBH": 26.0898, "Carbon_kg": 125.843431, "area_m2": 12.75 }, "geometry": { "type": "Polygon", "coordinates": [ [ [ 117.313393436679917, 42.408133398459192 ], [ 117.313411665442331, 42.408133348625341 ], [ 117.313411643026484, 42.408128845680523 ], [ 117.313417719280181, 42.408128829068602 ], [ 117.313417696863908, 42.408124326123783 ], [ 117.313429849370408, 42.408124292898989 ], [ 117.31342980453617, 42.408115287009323 ], [ 117.313435880788546, 42.408115270396436 ], [ 117.313435746283261, 42.408088252727417 ], [ 117.313417517533964, 42.408088302565041 ], [ 117.313417539950208, 42.408092805509895 ], [ 117.313405387449762, 42.408092838733374 ], [ 117.31340543228049, 42.40810184462309 ], [ 117.313399356029393, 42.40810186123435 ], [ 117.313399400859254, 42.408110867124037 ], [ 117.31339332460729, 42.408110883734992 ], [ 117.313393436679917, 42.408133398459192 ] ] ] } },
{ "type": "Feature", "properties": { "crown_id": 5714, "tree_id": "5717", "top_h_m": 22.653, "H_95_Mean": 22.8733, "DBH": 34.3769, "Carbon_kg": 242.531774, "area_m2": 27.25 }, "geometry": { "type": "Polygon", "coordinates": [ [ [ 117.31353926677788, 42.408132999707327 ], [ 117.313563571793935, 42.408132933230654 ], [ 117.313563549367231, 42.408128430285892 ], [ 117.313569625620801, 42.408128413665921 ], [ 117.31356960319367, 42.408123910721159 ], [ 117.313575679446771, 42.408123894100861 ], [ 117.313575634591672, 42.408114888211344 ], [ 117.313569558339424, 42.408114904831628 ], [ 117.313569468630988, 42.408096893052516 ], [ 117.313563392380473, 42.40809690967248 ], [ 117.313563369953798, 42.408092406727675 ], [ 117.31355729370371, 42.40809242334732 ], [ 117.313557226425061, 42.408078914512913 ], [ 117.313563302673842, 42.40807889789329 ], [ 117.31356325782059, 42.408069892003688 ], [ 117.313545029076806, 42.408069941861562 ], [ 117.313545073927472, 42.408078947751193 ], [ 117.313532921429868, 42.408078980988179 ], [ 117.313532943854341, 42.408083483932984 ], [ 117.313526867605091, 42.408083500551015 ], [ 117.313526890029124, 42.40808800349582 ], [ 117.313520813779448, 42.408088020113517 ], [ 117.313520858626674, 42.408097026003126 ], [ 117.313508706125532, 42.408097059237569 ], [ 117.3135087285483, 42.408101562182374 ], [ 117.313502652297302, 42.408101578799112 ], [ 117.31350276440898, 42.408124093523114 ], [ 117.313508840662166, 42.408124076906361 ], [ 117.313508863084948, 42.408128579851144 ], [ 117.313539244352938, 42.408128496762572 ], [ 117.31353926677788, 42.408132999707327 ] ] ] } },
{ "type": "Feature", "properties": { "crown_id": 5743, "tree_id": "5747", "top_h_m": 23.281, "H_95_Mean": 23.0463, "DBH": 33.9142, "Carbon_kg": 237.051496, "area_m2": 25.5 }, "geometry": { "type": "Polygon", "coordinates": [ [ [ 117.3133689971866, 42.408106447230686 ], [ 117.313393302192779, 42.408106380790137 ], [ 117.313393257363799, 42.408097374900422 ], [ 117.313399333614441, 42.408097358289481 ], [ 117.313399288784609, 42.408088352399766 ], [ 117.313411441284188, 42.40808831917694 ], [ 117.313411374036846, 42.408074810342342 ], [ 117.313405297788378, 42.408074826953907 ], [ 117.313405275373015, 42.408070324009032 ], [ 117.313393122876931, 42.40807035723121 ], [ 117.313393078047994, 42.408061351341431 ], [ 117.313362696811993, 42.408061434391172 ], [ 117.313362651987418, 42.408052428501364 ], [ 117.313344423248367, 42.408052478327321 ], [ 117.31334455771426, 42.408079495996773 ], [ 117.313338481465294, 42.408079512604793 ], [ 117.313338503875869, 42.408084015549697 ], [ 117.313332427626449, 42.408084032157404 ], [ 117.313332472446717, 42.408093038047191 ], [ 117.313320319946143, 42.408093071261654 ], [ 117.313320342355425, 42.408097574206543 ], [ 117.313356799859704, 42.408097474559284 ], [ 117.313356822271601, 42.40810197750416 ], [ 117.313368974773837, 42.408101944285825 ], [ 117.3133689971866, 42.408106447230686 ] ] ] } },
{ "type": "Feature", "properties": { "crown_id": 5771, "tree_id": "5775", "top_h_m": 21.714, "H_95_Mean": 21.7164, "DBH": 32.6386, "Carbon_kg": 211.844454, "area_m2": 24.5 }, "geometry": { "type": "Polygon", "coordinates": [ [ [ 117.313478347293199, 42.408101645262832 ], [ 117.313496576046276, 42.408101595415523 ], [ 117.313496553624404, 42.408097092470705 ], [ 117.313502629874975, 42.4080970758543 ], [ 117.313502607452648, 42.408092572909474 ], [ 117.313514759952938, 42.4080925396757 ], [ 117.313514715106578, 42.408083533786062 ], [ 117.313520791355828, 42.408083517168699 ], [ 117.313520768932221, 42.40807901422388 ], [ 117.313526845181059, 42.408078997606189 ], [ 117.313526822757012, 42.408074494661371 ], [ 117.313538975253763, 42.408074461425031 ], [ 117.313538952828864, 42.408069958480219 ], [ 117.31353287658095, 42.408069975098542 ], [ 117.313532854156492, 42.408065472153723 ], [ 117.31352070166146, 42.408065505389402 ], [ 117.313520679237868, 42.408061002444562 ], [ 117.313514602990779, 42.408061019061925 ], [ 117.313514580567642, 42.408056516117085 ], [ 117.313502428074329, 42.408056549350825 ], [ 117.313502405652045, 42.408052046405984 ], [ 117.313496329405837, 42.408052063022367 ], [ 117.313496306983993, 42.408047560077506 ], [ 117.313490230738182, 42.408047576693569 ], [ 117.313490185895418, 42.408038570803846 ], [ 117.313484109650474, 42.408038587419583 ], [ 117.313484087229554, 42.408034084474714 ], [ 117.313478010985037, 42.408034101090124 ], [ 117.313478100667098, 42.408052112869591 ], [ 117.313472024420847, 42.408052129484687 ], [ 117.313472114101273, 42.408070141264112 ], [ 117.313466037853274, 42.408070157878896 ], [ 117.313466105112312, 42.408083666713431 ], [ 117.313453952613699, 42.408083699942054 ], [ 117.313453975032544, 42.408088202886894 ], [ 117.313447898782798, 42.408088219500726 ], [ 117.313447921201202, 42.408092722445566 ], [ 117.313472226201881, 42.408092655988298 ], [ 117.313472248622048, 42.408097158933131 ], [ 117.313478324872634, 42.408097142318006 ], [ 117.313478347293199, 42.408101645262832 ] ] ] } },
{ "type": "Feature", "properties": { "crown_id": 5789, "tree_id": "5793", "top_h_m": 23.359, "H_95_Mean": 23.0656, "DBH": 34.5127, "Carbon_kg": 245.680181, "area_m2": 27.25 }, "geometry": { "type": "Polygon", "coordinates": [ [ [ 117.313587809524591, 42.408119357914565 ], [ 117.313593885777266, 42.4081193412933 ], [ 117.313593818490702, 42.408105832459022 ], [ 117.313599894742083, 42.408105815837459 ], [ 117.313599849883516, 42.408096809947914 ], [ 117.313605926134002, 42.408096793326017 ], [ 117.313605858844909, 42.408083284491703 ], [ 117.31362408759243, 42.408083234624144 ], [ 117.313624065161463, 42.408078731679353 ], [ 117.313617988912725, 42.408078748302209 ], [ 117.313617876760006, 42.408056233578272 ], [ 117.313611800513442, 42.408056250200779 ], [ 117.313611778083356, 42.408051747255975 ], [ 117.313605701837218, 42.408051763878156 ], [ 117.313605634548281, 42.408038255043721 ], [ 117.313599558303437, 42.408038271665575 ], [ 117.313599535874246, 42.408033768720756 ], [ 117.313575230896561, 42.408033835204932 ], [ 117.313575298178961, 42.408047344039417 ], [ 117.313569221933221, 42.408047360659666 ], [ 117.313569289214371, 42.408060869494115 ], [ 117.313563212967324, 42.40806088611405 ], [ 117.313563235393943, 42.408065389058869 ], [ 117.31356931164143, 42.408065372438934 ], [ 117.31356940134971, 42.408083384218138 ], [ 117.313563325100489, 42.408083400838095 ], [ 117.31356334752715, 42.408087903782892 ], [ 117.313569423776798, 42.408087887162942 ], [ 117.3135694462039, 42.408092390107733 ], [ 117.313575522453988, 42.408092373487456 ], [ 117.313575612164129, 42.408110385266575 ], [ 117.313581688415937, 42.408110368645957 ], [ 117.31358171084392, 42.408114871590733 ], [ 117.313587787096154, 42.408114854969796 ], [ 117.313587809524591, 42.408119357914565 ] ] ] } },
{ "type": "Feature", "properties": { "crown_id": 5793, "tree_id": "5797", "top_h_m": 20.231, "H_95_Mean": 20.2927, "DBH": 31.1837, "Carbon_kg": 185.64586, "area_m2": 23.25 }, "geometry": { "type": "Polygon", "coordinates": [ [ [ 117.313423571367082, 42.40808378300796 ], [ 117.313447876364378, 42.408083716555872 ], [ 117.313447853946002, 42.408079213611032 ], [ 117.313460006443776, 42.408079180383062 ], [ 117.313459939186032, 42.408065671548499 ], [ 117.313466015433605, 42.408065654934042 ], [ 117.31346592575494, 42.408047643154589 ], [ 117.313472002000765, 42.408047626539819 ], [ 117.313471889900384, 42.408025111815448 ], [ 117.313477966144035, 42.408025095200372 ], [ 117.313477921303047, 42.4080160893106 ], [ 117.313471845060263, 42.408016105925675 ], [ 117.313471867480331, 42.408020608870572 ], [ 117.313465791237107, 42.408020625485321 ], [ 117.313465813656748, 42.408025128430218 ], [ 117.313441508682089, 42.408025194886022 ], [ 117.313441531099954, 42.408029697830926 ], [ 117.313435454855863, 42.408029714444069 ], [ 117.313435499690783, 42.408038720333856 ], [ 117.313423347200825, 42.408038753559204 ], [ 117.313423436867254, 42.408056765338749 ], [ 117.313417360620534, 42.408056781950954 ], [ 117.313417383036722, 42.408061284895822 ], [ 117.313411306789547, 42.408061301507708 ], [ 117.31341135162107, 42.408070307397473 ], [ 117.313417427869112, 42.408070290785588 ], [ 117.313417472701516, 42.408079296675318 ], [ 117.313423548950439, 42.408079280063106 ], [ 117.313423571367082, 42.40808378300796 ] ] ] } },
{ "type": "Feature", "properties": { "crown_id": 5813, "tree_id": "5817", "top_h_m": 22.185, "H_95_Mean": 21.891, "DBH": 35.0249, "Carbon_kg": 245.380203, "area_m2": 31.75 }, "geometry": { "type": "Polygon", "coordinates": [ [ [ 117.313399176710078, 42.408065837675409 ], [ 117.313405252957693, 42.408065821064149 ], [ 117.313405208127065, 42.40805681517439 ], [ 117.313411284373785, 42.408056798562832 ], [ 117.313411261958052, 42.408052295617935 ], [ 117.313417338204331, 42.408052279006071 ], [ 117.313417248539665, 42.40803426722649 ], [ 117.313429401028756, 42.408034234001796 ], [ 117.313429266526697, 42.408007216332365 ], [ 117.313423190284723, 42.408007232944861 ], [ 117.31342316786818, 42.408002729999943 ], [ 117.313417091626647, 42.408002746612119 ], [ 117.31341706921053, 42.407998243667187 ], [ 117.313410992969452, 42.40799826027903 ], [ 117.313411015385142, 42.408002763223962 ], [ 117.313392786660543, 42.408002813057571 ], [ 117.313392809074927, 42.408007316002511 ], [ 117.313386732832939, 42.408007332613067 ], [ 117.313386755246896, 42.408011835558 ], [ 117.313368526519625, 42.408011885387765 ], [ 117.313368504106961, 42.408007382442825 ], [ 117.313362427864973, 42.408007399052103 ], [ 117.313362495101643, 42.408020907886915 ], [ 117.313356418858362, 42.408020924495872 ], [ 117.313356441270145, 42.408025427440805 ], [ 117.313350365026409, 42.40802544404945 ], [ 117.31335040984915, 42.408034449939322 ], [ 117.313344333604533, 42.408034466547633 ], [ 117.313344400837394, 42.408047975382416 ], [ 117.313368705821077, 42.408047908947147 ], [ 117.31336875064649, 42.408056914836969 ], [ 117.313399131880317, 42.408056831785622 ], [ 117.313399176710078, 42.408065837675409 ] ] ] } },
{ "type": "Feature", "properties": { "crown_id": 5814, "tree_id": "5818", "top_h_m": 22.606, "H_95_Mean": 22.1557, "DBH": 34.7877, "Carbon_kg": 243.76917, "area_m2": 30.25 }, "geometry": { "type": "Polygon", "coordinates": [ [ [ 117.313545006651481, 42.408065438916744 ], [ 117.313557159146455, 42.408065405678485 ], [ 117.313557114294099, 42.40805639978884 ], [ 117.313563190540719, 42.408056383169239 ], [ 117.313563123260892, 42.408042874334754 ], [ 117.31356919950619, 42.40804285771484 ], [ 117.313569132225098, 42.408029348880333 ], [ 117.313556979737086, 42.40802938211985 ], [ 117.313556934884815, 42.408020376230155 ], [ 117.313550858641648, 42.408020392849423 ], [ 117.313550836215967, 42.408015889904561 ], [ 117.31354475997324, 42.408015906523502 ], [ 117.313544737547986, 42.408011403578641 ], [ 117.313538661305685, 42.408011420197255 ], [ 117.313538638880871, 42.408006917252393 ], [ 117.313526486397137, 42.408006950488655 ], [ 117.31352646397319, 42.408002447543787 ], [ 117.313520387731757, 42.408002464161427 ], [ 117.313520410155277, 42.40800696710631 ], [ 117.313508257671529, 42.408007000340632 ], [ 117.313508280094183, 42.408011503285508 ], [ 117.313483975124896, 42.408011569750308 ], [ 117.313484064808605, 42.408029581529838 ], [ 117.313490141052682, 42.408029564914109 ], [ 117.313490163474043, 42.408034067858978 ], [ 117.313496239718546, 42.408034051242929 ], [ 117.313496284562177, 42.408043057132659 ], [ 117.313502360807533, 42.408043040516269 ], [ 117.313502383229803, 42.408047543461123 ], [ 117.313508459475585, 42.408047526844413 ], [ 117.313508481898296, 42.408052029789275 ], [ 117.313520634390713, 42.408051996554889 ], [ 117.313520656814291, 42.408056499499729 ], [ 117.313526733060939, 42.408056482882053 ], [ 117.313526755484943, 42.408060985826886 ], [ 117.313544984226155, 42.408060935971911 ], [ 117.313545006651481, 42.408065438916744 ] ] ] } },
{ "type": "Feature", "properties": { "crown_id": 5880, "tree_id": "5884", "top_h_m": 20.742, "H_95_Mean": 20.4938, "DBH": 31.0664, "Carbon_kg": 185.318813, "area_m2": 22.5 }, "geometry": { "type": "Polygon", "coordinates": [ [ [ 117.313563033554516, 42.408024862555415 ], [ 117.313569109798081, 42.4080248459355 ], [ 117.313569087371079, 42.40802034299066 ], [ 117.313587316100438, 42.408020293128999 ], [ 117.313587293672128, 42.408015790184166 ], [ 117.313605522400138, 42.408015740319613 ], [ 117.313605455111329, 42.408002231485092 ], [ 117.313611531352691, 42.40800221486294 ], [ 117.313611508922676, 42.407997711918107 ], [ 117.313617585163598, 42.40799769529562 ], [ 117.313617562733128, 42.407993192350773 ], [ 117.313623638973624, 42.407993175727988 ], [ 117.313623594111846, 42.407984169838294 ], [ 117.31355675547583, 42.407984352671249 ], [ 117.313556733049737, 42.407979849726352 ], [ 117.313544580571275, 42.407979882964518 ], [ 117.313544602996501, 42.407984385909401 ], [ 117.31353852675683, 42.407984402528008 ], [ 117.313538549181615, 42.407988905472884 ], [ 117.313532472941517, 42.407988922091171 ], [ 117.313532540214624, 42.408002430925819 ], [ 117.313544692697462, 42.408002397688911 ], [ 117.313544715122703, 42.408006900633779 ], [ 117.313550791364577, 42.408006884014846 ], [ 117.313550813790258, 42.408011386959707 ], [ 117.31355689003253, 42.408011370340446 ], [ 117.313556912458665, 42.408015873285301 ], [ 117.313562988701364, 42.40801585666572 ], [ 117.313563033554516, 42.408024862555415 ] ] ] } },
{ "type": "Feature", "properties": { "crown_id": 5900, "tree_id": "5904", "top_h_m": 21.641, "H_95_Mean": 21.5468, "DBH": 30.4564, "Carbon_kg": 183.413678, "area_m2": 19.0 }, "geometry": { "type": "Polygon", "coordinates": [ [ [ 117.313374580348977, 42.408007365833228 ], [ 117.313380656590951, 42.408007349223311 ], [ 117.31338063417742, 42.408002846278372 ], [ 117.313386710418982, 42.408002829668128 ], [ 117.313386688005025, 42.407998326723195 ], [ 117.313404916728359, 42.407998276890559 ], [ 117.313404894313109, 42.407993773945613 ], [ 117.313398818072429, 42.407993790556816 ], [ 117.313398773242824, 42.40798478466693 ], [ 117.313392697003025, 42.407984801277799 ], [ 117.31339256251691, 42.40795778360804 ], [ 117.313343952619192, 42.407957916483298 ], [ 117.313343997440924, 42.407966922373284 ], [ 117.313337921202802, 42.407966938981232 ], [ 117.313337988434128, 42.407980447816172 ], [ 117.313344064673544, 42.407980431208202 ], [ 117.313344087084417, 42.407984934153177 ], [ 117.313356239564101, 42.40798490093627 ], [ 117.313356284387638, 42.407993906826185 ], [ 117.313362360628332, 42.407993890217249 ], [ 117.313362383040555, 42.407998393162195 ], [ 117.313368459281676, 42.407998376552932 ], [ 117.31336848169434, 42.408002879497886 ], [ 117.313374557935887, 42.408002862888289 ], [ 117.313374580348977, 42.408007365833228 ] ] ] } },
{ "type": "Feature", "properties": { "crown_id": 5913, "tree_id": "5917", "top_h_m": 23.516, "H_95_Mean": 23.3302, "DBH": 35.3374, "Carbon_kg": 259.400145, "area_m2": 29.25 }, "geometry": { "type": "Polygon", "coordinates": [ [ [ 117.313465723978254, 42.408007116650637 ], [ 117.313477876462088, 42.408007083420827 ], [ 117.313477854041622, 42.408002580475923 ], [ 117.313490006524532, 42.40800254724482 ], [ 117.313490028945893, 42.40800705018971 ], [ 117.313502181429669, 42.408007016957313 ], [ 117.313502159007442, 42.408002514012431 ], [ 117.313514311490323, 42.408002480778748 ], [ 117.313514289067271, 42.407997977833865 ], [ 117.313526441549257, 42.407997944598911 ], [ 117.313526374277444, 42.407984435764241 ], [ 117.313532450517144, 42.407984419146288 ], [ 117.313532428092785, 42.407979916201391 ], [ 117.31353850433203, 42.407979899583118 ], [ 117.313538481907244, 42.407975396638221 ], [ 117.313532405668425, 42.407975413256501 ], [ 117.313532271122412, 42.407948395587063 ], [ 117.31352011864999, 42.407948428822607 ], [ 117.31352009622654, 42.407943925877682 ], [ 117.313483638811718, 42.407944025576583 ], [ 117.313483616390897, 42.407939522631644 ], [ 117.313477540155517, 42.407939539246996 ], [ 117.313477831621142, 42.407998077531026 ], [ 117.313465679139043, 42.407998110760829 ], [ 117.313465723978254, 42.408007116650637 ] ] ] } },
{ "type": "Feature", "properties": { "crown_id": 5920, "tree_id": "5924", "top_h_m": 23.097, "H_95_Mean": 22.8056, "DBH": 35.34, "Carbon_kg": 255.972193, "area_m2": 30.5 }, "geometry": { "type": "Polygon", "coordinates": [ [ [ 117.313429244109685, 42.408002713387454 ], [ 117.313441396592694, 42.408002680161509 ], [ 117.313441374174829, 42.407998177216591 ], [ 117.313459602898007, 42.407998127375251 ], [ 117.313459580478849, 42.407993624430333 ], [ 117.313471732960068, 42.407993591201169 ], [ 117.31347150876006, 42.407948561751923 ], [ 117.313416822633528, 42.407948711272766 ], [ 117.313416800217453, 42.407944208327798 ], [ 117.313410723981576, 42.407944224939605 ], [ 117.31341074639721, 42.40794872788458 ], [ 117.313404670160892, 42.407948744496075 ], [ 117.313404714991293, 42.407957750386004 ], [ 117.313398638754109, 42.407957766997185 ], [ 117.313398750828028, 42.407980281721983 ], [ 117.313404827067401, 42.407980265110794 ], [ 117.313404871897845, 42.40798927100068 ], [ 117.313417024378296, 42.407989237777322 ], [ 117.313417046794413, 42.407993740722269 ], [ 117.313423123035051, 42.407993724110092 ], [ 117.313423145451608, 42.407998227055025 ], [ 117.313429221692701, 42.407998210442535 ], [ 117.313429244109685, 42.408002713387454 ] ] ] } },
{ "type": "Feature", "properties": { "crown_id": 5921, "tree_id": "5925", "top_h_m": 22.575, "H_95_Mean": 22.3464, "DBH": 34.474, "Carbon_kg": 240.575409, "area_m2": 28.75 }, "geometry": { "type": "Polygon", "coordinates": [ [ [ 117.313562809288982, 42.407979833106793 ], [ 117.313617495441775, 42.407979683516231 ], [ 117.313617473011334, 42.40797518057137 ], [ 117.3136113967726, 42.407975197193828 ], [ 117.313611307052639, 42.407957185414347 ], [ 117.313605230815611, 42.407957202036478 ], [ 117.313605208386093, 42.407952699091595 ], [ 117.313599132149491, 42.4079527157134 ], [ 117.313599064862203, 42.407939206878723 ], [ 117.313592988626908, 42.407939223500208 ], [ 117.313592921340984, 42.407925714665488 ], [ 117.313580768872995, 42.407925747907441 ], [ 117.313580746445226, 42.407921244962537 ], [ 117.313562517744529, 42.407921294823062 ], [ 117.313562540170977, 42.407925797767973 ], [ 117.313556463936976, 42.407925814387511 ], [ 117.313556531215099, 42.407939323222266 ], [ 117.313550454979776, 42.407939339841484 ], [ 117.3135504774054, 42.407943842786409 ], [ 117.313544401169622, 42.407943859405314 ], [ 117.31354442359482, 42.407948362350218 ], [ 117.313538347358602, 42.407948378968804 ], [ 117.313538459482444, 42.407970893693332 ], [ 117.313544535720823, 42.407970877074746 ], [ 117.313544558146049, 42.407975380019629 ], [ 117.313562786862434, 42.407975330161918 ], [ 117.313562809288982, 42.407979833106793 ] ] ] } }
]
}
