{
"type": "FeatureCollection",
"name": "tile_1_3",
"crs": { "type": "name", "properties": { "name": "urn:ogc:def:crs:OGC:1.3:CRS84" } },
"features": [
{ "type": "Feature", "properties": { "crown_id": 1, "tree_id": "1", "top_h_m": 18.096, "H_95_Mean": 17.7147, "DBH": 24.2419, "Carbon_kg": 103.126335, "area_m2": 11.25 }, "geometry": { "type": "Polygon", "coordinates": [ [ [ 117.310517352090443, 42.411428418393136 ], [ 117.310584194402367, 42.411428237320436 ], [ 117.310584172186196, 42.411423734376982 ], [ 117.31057809561284, 42.411423750839745 ], [ 117.31057805118138, 42.411414744952843 ], [ 117.310565898036415, 42.411414777877397 ], [ 117.310565875821553, 42.411410274933942 ], [ 117.310547646105334, 42.411410324318346 ], [ 117.310547623891807, 42.411405821374871 ], [ 117.310541547320156, 42.411405837835694 ], [ 117.31054150289394, 42.411396831948728 ], [ 117.310535426323156, 42.411396848409225 ], [ 117.310535470748519, 42.411405854296198 ], [ 117.310523317605188, 42.411405887216219 ], [ 117.31052333981701, 42.411410390159695 ], [ 117.310517263244904, 42.411410406619225 ], [ 117.310517352090443, 42.411428418393136 ] ] ] } },
{ "type": "Feature", "properties": { "crown_id": 2, "tree_id": "2", "top_h_m": 16.206, "H_95_Mean": 15.9232, "DBH": 25.114, "Carbon_kg": 103.972664, "area_m2": 15.75 }, "geometry": { "type": "Polygon", "coordinates": [ [ [ 117.310626730418718, 42.411428122072046 ], [ 117.310705725877028, 42.411427907997478 ], [ 117.310705592527896, 42.411400890337092 ], [ 117.310693439385744, 42.411400923275146 ], [ 117.310693417161758, 42.411396420331748 ], [ 117.310669110879132, 42.411396486203984 ], [ 117.310669155323595, 42.411405492090836 ], [ 117.310663078752043, 42.411405508558097 ], [ 117.310663100973869, 42.411410011501523 ], [ 117.310657024401863, 42.411410027968451 ], [ 117.310657046623248, 42.41141453091187 ], [ 117.310632740333531, 42.411414596776439 ], [ 117.310632762553183, 42.411419099719858 ], [ 117.310626685980296, 42.411419116185193 ], [ 117.310626730418718, 42.411428122072046 ] ] ] } },
{ "type": "Feature", "properties": { "crown_id": 71, "tree_id": "71", "top_h_m": 19.174, "H_95_Mean": 19.0648, "DBH": 31.3851, "Carbon_kg": 181.253864, "area_m2": 26.75 }, "geometry": { "type": "Polygon", "coordinates": [ [ [ 117.310590270976164, 42.411428220857331 ], [ 117.310620653844992, 42.411428138537069 ], [ 117.310620587188652, 42.411414629706783 ], [ 117.310626663761084, 42.41141461324176 ], [ 117.310626641541887, 42.411410110298334 ], [ 117.310650947829885, 42.411410044435073 ], [ 117.310650881167106, 42.411396535604794 ], [ 117.310638728025722, 42.411396568537043 ], [ 117.310638683585637, 42.411387562650155 ], [ 117.310632607015791, 42.411387579115797 ], [ 117.3106326292354, 42.411392082059258 ], [ 117.310620476094854, 42.411392114989575 ], [ 117.310620409438641, 42.411378606159197 ], [ 117.310602179731717, 42.411378655552241 ], [ 117.310602157514296, 42.411374152608772 ], [ 117.310596080945743, 42.411374169072467 ], [ 117.310596103162737, 42.411378672015935 ], [ 117.310583950024736, 42.411378704942386 ], [ 117.310583994456977, 42.411387710829331 ], [ 117.310547535037671, 42.411387809600953 ], [ 117.310547579464725, 42.411396815487919 ], [ 117.310559732606251, 42.411396782565319 ], [ 117.310559777035081, 42.411405788452264 ], [ 117.310571930178327, 42.411405755528371 ], [ 117.310571952393616, 42.411410258471825 ], [ 117.3105841055377, 42.411410225546639 ], [ 117.310584149970026, 42.411419231433541 ], [ 117.310590226542942, 42.411419214970465 ], [ 117.310590270976164, 42.411428220857331 ] ] ] } },
{ "type": "Feature", "properties": { "crown_id": 134, "tree_id": "134", "top_h_m": 17.926, "H_95_Mean": 17.7888, "DBH": 30.1413, "Carbon_kg": 160.360625, "area_m2": 26.0 }, "geometry": { "type": "Polygon", "coordinates": [ [ [ 117.310492890327581, 42.411396963623652 ], [ 117.310498966898379, 42.411396947165422 ], [ 117.310498944688348, 42.411392444221924 ], [ 117.310511097829092, 42.411392411304476 ], [ 117.310511031196341, 42.41137890247397 ], [ 117.310517107765406, 42.411378886014774 ], [ 117.310517152188112, 42.411387891901775 ], [ 117.310523228758029, 42.411387875442252 ], [ 117.310523250969794, 42.411392378385756 ], [ 117.310535404110496, 42.411392345465742 ], [ 117.310535381897864, 42.411387842522245 ], [ 117.310541458467753, 42.411387826061762 ], [ 117.310541436254681, 42.411383323118265 ], [ 117.310559665963069, 42.411383273734884 ], [ 117.310559643748704, 42.411378770791394 ], [ 117.310553567179667, 42.411378787252843 ], [ 117.310553500537836, 42.411365278422352 ], [ 117.310547423970107, 42.411365294883474 ], [ 117.310547357329654, 42.411351786052947 ], [ 117.310553433896089, 42.411351769591832 ], [ 117.310553367254357, 42.411338260761283 ], [ 117.310498678168088, 42.411338408899624 ], [ 117.310498700378076, 42.411342911843164 ], [ 117.310492623812493, 42.411342928301373 ], [ 117.31049271265077, 42.411360940075525 ], [ 117.310498789218101, 42.411360923617302 ], [ 117.310498855848166, 42.411374432447879 ], [ 117.310492779279528, 42.411374448906102 ], [ 117.310492823698752, 42.411383454793125 ], [ 117.310498900268257, 42.411383438334902 ], [ 117.310498922478303, 42.41138794127842 ], [ 117.310492845908357, 42.411387957736643 ], [ 117.310492890327581, 42.411396963623652 ] ], [ [ 117.310529305327947, 42.411387858982415 ], [ 117.310529283115713, 42.411383356038918 ], [ 117.310535359685204, 42.411383339578755 ], [ 117.310535381897864, 42.411387842522245 ], [ 117.310529305327947, 42.411387858982415 ] ] ] } },
{ "type": "Feature", "properties": { "crown_id": 150, "tree_id": "150", "top_h_m": 17.871, "H_95_Mean": 17.7144, "DBH": 29.4669, "Carbon_kg": 152.831851, "area_m2": 24.0 }, "geometry": { "type": "Polygon", "coordinates": [ [ [ 117.310565720317697, 42.411378754329618 ], [ 117.310577873455728, 42.411378721405114 ], [ 117.310577851240041, 42.411374218461646 ], [ 117.310590004377175, 42.411374185535848 ], [ 117.310589982160622, 42.411369682592372 ], [ 117.310608211864988, 42.411369633201268 ], [ 117.310608234082835, 42.411374136144737 ], [ 117.310614310651388, 42.411374119680403 ], [ 117.310614243996554, 42.411360610849968 ], [ 117.3106203205638, 42.411360594385322 ], [ 117.310620298345071, 42.411356091441846 ], [ 117.310626374911863, 42.411356074976858 ], [ 117.310626352692736, 42.411351572033368 ], [ 117.310620276126386, 42.411351588498356 ], [ 117.310620253907686, 42.411347085554873 ], [ 117.31062633047361, 42.411347069089899 ], [ 117.310626308254484, 42.411342566146416 ], [ 117.310620231689001, 42.411342582611375 ], [ 117.310620209470301, 42.411338079667885 ], [ 117.310608056340186, 42.411338112596859 ], [ 117.310608034122353, 42.411333609653354 ], [ 117.310595880993077, 42.411333642581035 ], [ 117.310595814342292, 42.4113201337505 ], [ 117.310583661215603, 42.411320166676873 ], [ 117.310583683431659, 42.411324669620392 ], [ 117.310571530304088, 42.411324702545478 ], [ 117.310571574734468, 42.411333708432522 ], [ 117.310565498169794, 42.41133372489459 ], [ 117.310565520384571, 42.411338227838108 ], [ 117.310559443819457, 42.411338244299863 ], [ 117.310559532676834, 42.411356256073915 ], [ 117.310553456109986, 42.411356272535343 ], [ 117.310553478323897, 42.411360775478862 ], [ 117.310559554891199, 42.41136075901742 ], [ 117.31055962153431, 42.411374267847904 ], [ 117.310565698102906, 42.411374251386142 ], [ 117.310565720317697, 42.411378754329618 ] ] ] } },
{ "type": "Feature", "properties": { "crown_id": 173, "tree_id": "173", "top_h_m": 19.708, "H_95_Mean": 19.4527, "DBH": 29.8633, "Carbon_kg": 165.941628, "area_m2": 21.25 }, "geometry": { "type": "Polygon", "coordinates": [ [ [ 117.310662856534293, 42.411360479123694 ], [ 117.310675009668657, 42.411360446188901 ], [ 117.310674987446049, 42.411355943245432 ], [ 117.310681064012812, 42.411355926777567 ], [ 117.31068108623586, 42.411360429721014 ], [ 117.310699315937399, 42.411360380315443 ], [ 117.310699271488687, 42.411351374428548 ], [ 117.310687118356071, 42.411351407365906 ], [ 117.310687096132597, 42.411346904422444 ], [ 117.310705325830185, 42.411346855015935 ], [ 117.310705348054967, 42.411351357959376 ], [ 117.310711424621275, 42.411351341489897 ], [ 117.310711357945621, 42.411337832659548 ], [ 117.310699204815663, 42.411337865598185 ], [ 117.310699115918368, 42.41131985382431 ], [ 117.310686962791834, 42.411319886761632 ], [ 117.310686918344956, 42.411310880874659 ], [ 117.310674765220156, 42.411310913810688 ], [ 117.310674787442721, 42.411315416754171 ], [ 117.310662634317026, 42.411315449688921 ], [ 117.310662678760451, 42.411324455575908 ], [ 117.310656602196744, 42.4113244720428 ], [ 117.310656624418002, 42.411328974986283 ], [ 117.310644471289663, 42.411329007919115 ], [ 117.310644493510082, 42.411333510862598 ], [ 117.310632340380863, 42.411333543794136 ], [ 117.310632362600415, 42.411338046737626 ], [ 117.310638439165459, 42.41133803027202 ], [ 117.31063848360543, 42.411347036158986 ], [ 117.310644560171355, 42.411347019693046 ], [ 117.310644604612236, 42.411356025579991 ], [ 117.310662834312552, 42.411355976180232 ], [ 117.310662856534293, 42.411360479123694 ] ] ] } },
{ "type": "Feature", "properties": { "crown_id": 209, "tree_id": "209", "top_h_m": 19.349, "H_95_Mean": 18.9134, "DBH": 31.4895, "Carbon_kg": 181.612649, "area_m2": 27.5 }, "geometry": { "type": "Polygon", "coordinates": [ [ [ 117.310498655958099, 42.411333905956063 ], [ 117.31055942160512, 42.411333741356337 ], [ 117.310559399390797, 42.411329238412804 ], [ 117.310565475955016, 42.411329221951064 ], [ 117.310565431525518, 42.411320216064006 ], [ 117.31057150808887, 42.411320199601953 ], [ 117.310571485873695, 42.411315696658413 ], [ 117.31057756243662, 42.41131568019604 ], [ 117.310577540221033, 42.411311177252507 ], [ 117.31056538709602, 42.41131121017694 ], [ 117.310565364881299, 42.4113067072334 ], [ 117.310559288319212, 42.411306723695127 ], [ 117.310559266104931, 42.41130222075158 ], [ 117.310541036420005, 42.41130227013484 ], [ 117.310541014207004, 42.411297767191272 ], [ 117.310534937645798, 42.411297783651705 ], [ 117.310534848795626, 42.411279771877425 ], [ 117.310522695676653, 42.41127980479731 ], [ 117.310522673465002, 42.411275301853721 ], [ 117.310516596905956, 42.411275318313187 ], [ 117.310516663539644, 42.411288827143935 ], [ 117.310498433858513, 42.411288876520395 ], [ 117.310498456068458, 42.411293379463977 ], [ 117.31049237950765, 42.411293395922158 ], [ 117.310492423926661, 42.411302401809323 ], [ 117.310498500488336, 42.411302385351149 ], [ 117.310498567118202, 42.41131589418184 ], [ 117.310486413992209, 42.411315927097895 ], [ 117.310486436201316, 42.411320430041478 ], [ 117.310492512764739, 42.411320413583603 ], [ 117.310492557183835, 42.411329419470711 ], [ 117.310498633748125, 42.411329403012523 ], [ 117.310498655958099, 42.411333905956063 ] ] ] } },
{ "type": "Feature", "properties": { "crown_id": 221, "tree_id": "221", "top_h_m": 21.486, "H_95_Mean": 20.837, "DBH": 32.7392, "Carbon_kg": 208.014024, "area_m2": 26.75 }, "geometry": { "type": "Polygon", "coordinates": [ [ [ 117.310614110687013, 42.411333593189042 ], [ 117.31062626381626, 42.411333560259429 ], [ 117.310626241597134, 42.411329057315925 ], [ 117.310632318161325, 42.411329040850646 ], [ 117.310632273722234, 42.411320034963644 ], [ 117.310638350285558, 42.411320018498039 ], [ 117.310638372505537, 42.41132452144155 ], [ 117.310650525633008, 42.411324488509365 ], [ 117.310650503412177, 42.411319985565875 ], [ 117.310656579975443, 42.41131996909931 ], [ 117.310656535532928, 42.411310963212323 ], [ 117.310668688657742, 42.411310930278219 ], [ 117.310668666435618, 42.411306427334722 ], [ 117.310674742997591, 42.411306410867198 ], [ 117.31067472077504, 42.411301907923708 ], [ 117.310680797336587, 42.411301891455849 ], [ 117.310680775113596, 42.411297388512345 ], [ 117.310668621991383, 42.411297421447713 ], [ 117.310668599769286, 42.411292918504209 ], [ 117.310656446647926, 42.411292951438284 ], [ 117.310656424426682, 42.411288448494766 ], [ 117.310650347866428, 42.411288464961316 ], [ 117.310650325645625, 42.411283962017798 ], [ 117.310619942846486, 42.411284044345699 ], [ 117.310619920627872, 42.411279541402159 ], [ 117.310613844068456, 42.411279557866777 ], [ 117.310613799632094, 42.411270551979683 ], [ 117.310607723073545, 42.411270568443967 ], [ 117.310607789726774, 42.411284077274608 ], [ 117.310595636607076, 42.411284110202232 ], [ 117.310595792125383, 42.411315630806968 ], [ 117.310601868688281, 42.411315614343316 ], [ 117.310601935340358, 42.41132912317385 ], [ 117.310614088468753, 42.411329090245538 ], [ 117.310614110687013, 42.411333593189042 ] ] ] } },
{ "type": "Feature", "properties": { "crown_id": 252, "tree_id": "252", "top_h_m": 18.543, "H_95_Mean": 18.1668, "DBH": 28.4564, "Carbon_kg": 144.593179, "area_m2": 20.0 }, "geometry": { "type": "Polygon", "coordinates": [ [ [ 117.310571441443358, 42.411306690771347 ], [ 117.310589671129492, 42.411306641383263 ], [ 117.310589648913037, 42.41130213843973 ], [ 117.310583572351419, 42.411302154902742 ], [ 117.310583550135405, 42.411297651959202 ], [ 117.310589626696569, 42.41129763549619 ], [ 117.310589537830751, 42.411279623721995 ], [ 117.310601690949625, 42.411279590795033 ], [ 117.310601579863118, 42.411257076077241 ], [ 117.310571197076783, 42.411257158392189 ], [ 117.310571219291916, 42.411261661335772 ], [ 117.310565142734191, 42.411261677797789 ], [ 117.310565164948883, 42.411266180741379 ], [ 117.310540858716237, 42.411266246586266 ], [ 117.310540880929196, 42.411270749529848 ], [ 117.310528727811956, 42.411270782450373 ], [ 117.310528750024062, 42.411275285393941 ], [ 117.31054090314214, 42.411275252473416 ], [ 117.310540991994046, 42.411293264247703 ], [ 117.310547068554797, 42.411293247786958 ], [ 117.310547090768225, 42.411297750730512 ], [ 117.310565320451829, 42.411297701346307 ], [ 117.31056534266655, 42.411302204289854 ], [ 117.310571419228168, 42.411302187827808 ], [ 117.310571441443358, 42.411306690771347 ] ] ] } },
{ "type": "Feature", "properties": { "crown_id": 277, "tree_id": "277", "top_h_m": 20.448, "H_95_Mean": 20.255, "DBH": 29.9708, "Carbon_kg": 171.191467, "area_m2": 20.0 }, "geometry": { "type": "Polygon", "coordinates": [ [ [ 117.310662500986936, 42.411288432027895 ], [ 117.310668577547176, 42.411288415560705 ], [ 117.31066855532508, 42.411283912617186 ], [ 117.310686785004449, 42.411283863213676 ], [ 117.310686740557657, 42.411274857326653 ], [ 117.310680663998752, 42.411274873794802 ], [ 117.310680552884008, 42.411252359077174 ], [ 117.310668399770506, 42.411252392012486 ], [ 117.310668377548453, 42.411247889068946 ], [ 117.310662300992121, 42.411247905536115 ], [ 117.310662278770508, 42.411243402592561 ], [ 117.310656202214602, 42.41124341905941 ], [ 117.310656157772229, 42.411234413172288 ], [ 117.310650081217204, 42.411234429638803 ], [ 117.310650103437951, 42.411238932582371 ], [ 117.310644026882457, 42.411238949048574 ], [ 117.310644049102791, 42.411243451992128 ], [ 117.310637972546857, 42.411243468458018 ], [ 117.310637994766751, 42.411247971401579 ], [ 117.31062584165403, 42.411248004332371 ], [ 117.310625863873057, 42.41125250727594 ], [ 117.310619787316242, 42.411252523740856 ], [ 117.310619898409257, 42.411275038458626 ], [ 117.310625974968232, 42.411275021993696 ], [ 117.310625997187259, 42.411279524937228 ], [ 117.310656379984238, 42.411279442607722 ], [ 117.310656402205439, 42.411283945551254 ], [ 117.310662478765266, 42.411283929084377 ], [ 117.310662500986936, 42.411288432027895 ] ] ] } },
{ "type": "Feature", "properties": { "crown_id": 295, "tree_id": "295", "top_h_m": 19.566, "H_95_Mean": 19.1835, "DBH": 29.5754, "Carbon_kg": 161.397312, "area_m2": 21.0 }, "geometry": { "type": "Polygon", "coordinates": [ [ [ 117.310492335088625, 42.411284390034979 ], [ 117.310498411648567, 42.411284373576812 ], [ 117.310498389438663, 42.411279870633223 ], [ 117.310504465998164, 42.411279854174722 ], [ 117.310504421577477, 42.411270848287536 ], [ 117.310510498136097, 42.411270831828723 ], [ 117.310510409293002, 42.411252820054322 ], [ 117.310504332736102, 42.411252836513121 ], [ 117.310504288315457, 42.411243830625892 ], [ 117.31049213520339, 42.411243863542509 ], [ 117.310492112993956, 42.411239360598891 ], [ 117.310443500548956, 42.411239492252484 ], [ 117.31044354496089, 42.411248498139763 ], [ 117.310437468404388, 42.411248514595016 ], [ 117.310437512815469, 42.411257520482295 ], [ 117.310449665930236, 42.411257487571454 ], [ 117.310449710343093, 42.411266493458719 ], [ 117.310455786901343, 42.411266477002805 ], [ 117.310455809108205, 42.411270979946423 ], [ 117.310461885666868, 42.411270963490189 ], [ 117.310461907874185, 42.4112754664338 ], [ 117.310467984433302, 42.411275449977246 ], [ 117.310468006641045, 42.41127995292085 ], [ 117.310492312879148, 42.411279887091382 ], [ 117.310492335088625, 42.411284390034979 ] ] ] } },
{ "type": "Feature", "properties": { "crown_id": 319, "tree_id": "319", "top_h_m": 20.322, "H_95_Mean": 19.886, "DBH": 30.6255, "Carbon_kg": 176.878275, "area_m2": 22.5 }, "geometry": { "type": "Polygon", "coordinates": [ [ [ 117.310522629041685, 42.411266295966563 ], [ 117.310534782158072, 42.411266263046691 ], [ 117.310534759945554, 42.411261760103095 ], [ 117.310559066176481, 42.411261694259501 ], [ 117.310559043962243, 42.411257191315912 ], [ 117.310565120519513, 42.411257174854214 ], [ 117.310565098304835, 42.411252671910624 ], [ 117.310577251418522, 42.411252638986269 ], [ 117.310577140340882, 42.411230124268322 ], [ 117.310571063786199, 42.411230140730652 ], [ 117.310571019356047, 42.411221134843437 ], [ 117.310558866248442, 42.411221167767117 ], [ 117.310558844034233, 42.411216664823513 ], [ 117.310534537820686, 42.411216730667 ], [ 117.310534515608225, 42.411212227723375 ], [ 117.310528439055275, 42.411212244183439 ], [ 117.310528505691352, 42.411225753014321 ], [ 117.310516352582823, 42.411225785933496 ], [ 117.310516441427509, 42.411243797707982 ], [ 117.31051036487149, 42.411243814167101 ], [ 117.310510387082246, 42.411248317110719 ], [ 117.310516463638706, 42.411248300651593 ], [ 117.310516530272295, 42.411261809482404 ], [ 117.310522606830048, 42.411261793022959 ], [ 117.310522629041685, 42.411266295966563 ] ] ] } },
{ "type": "Feature", "properties": { "crown_id": 333, "tree_id": "333", "top_h_m": 18.244, "H_95_Mean": 17.9464, "DBH": 28.736, "Carbon_kg": 146.410059, "area_m2": 21.25 }, "geometry": { "type": "Polygon", "coordinates": [ [ [ 117.310583327975365, 42.411252622523612 ], [ 117.310601557645825, 42.411252573133687 ], [ 117.31060153542856, 42.411248070190112 ], [ 117.310607611984935, 42.411248053726162 ], [ 117.310607589767216, 42.411243550782579 ], [ 117.310613666323164, 42.411243534318324 ], [ 117.310613688541295, 42.411248037261892 ], [ 117.310619765097684, 42.411248020797302 ], [ 117.310619742879084, 42.41124351785372 ], [ 117.310631895990937, 42.411243484923581 ], [ 117.310631873771499, 42.411238981980013 ], [ 117.310637950326992, 42.411238965514457 ], [ 117.310637928107113, 42.411234462570881 ], [ 117.310644004662166, 42.411234446105006 ], [ 117.310643982441874, 42.411229943161437 ], [ 117.31063182933265, 42.411229976092855 ], [ 117.310631807113211, 42.411225473149287 ], [ 117.310643960221569, 42.411225440217862 ], [ 117.310643915780986, 42.411216434330719 ], [ 117.310637839227681, 42.411216450796587 ], [ 117.310637817007844, 42.411211947852983 ], [ 117.310607434243408, 42.411212030177474 ], [ 117.310607389808055, 42.41120302429028 ], [ 117.310583083599909, 42.411203090144042 ], [ 117.310583128031752, 42.411212096031264 ], [ 117.310564898372988, 42.411212145418212 ], [ 117.310564920587609, 42.411216648361837 ], [ 117.310577073694333, 42.41121661543751 ], [ 117.310577118125337, 42.411225621324725 ], [ 117.31058319467958, 42.411225604862075 ], [ 117.310583327975365, 42.411252622523612 ] ] ] } },
{ "type": "Feature", "properties": { "crown_id": 359, "tree_id": "359", "top_h_m": 18.859, "H_95_Mean": 18.4357, "DBH": 28.7489, "Carbon_kg": 148.89269, "area_m2": 20.25 }, "geometry": { "type": "Polygon", "coordinates": [ [ [ 117.310498189549548, 42.411239344140746 ], [ 117.310510342660734, 42.411239311223483 ], [ 117.310510253817796, 42.411221299448968 ], [ 117.310522406925486, 42.411221266530447 ], [ 117.310522295867571, 42.411198751812265 ], [ 117.310510142764215, 42.411198784730772 ], [ 117.310510098342846, 42.41118977884345 ], [ 117.310497945241195, 42.411189811760643 ], [ 117.310497900821574, 42.411180805873322 ], [ 117.310485747721657, 42.411180838789228 ], [ 117.310485769930608, 42.411185341732896 ], [ 117.310473616829796, 42.411185374647523 ], [ 117.310473794494584, 42.41122139819683 ], [ 117.310467717940725, 42.411221414653681 ], [ 117.310467784563784, 42.411234923484621 ], [ 117.310498167339688, 42.411234841197121 ], [ 117.310498189549548, 42.411239344140746 ] ] ] } }
]
}
