{
"type": "FeatureCollection",
"name": "tile_11_5",
"crs": { "type": "name", "properties": { "name": "urn:ogc:def:crs:OGC:1.3:CRS84" } },
"features": [
{ "type": "Feature", "properties": { "crown_id": 3279, "tree_id": "3280", "top_h_m": 20.075, "H_95_Mean": 19.6821, "DBH": 27.8003, "Carbon_kg": 144.646725, "area_m2": 15.75 }, "geometry": { "type": "Polygon", "coordinates": [ [ [ 117.311152432777192, 42.409598476659106 ], [ 117.311188891158167, 42.409598377698451 ], [ 117.311188824384175, 42.409584868864584 ], [ 117.311182747988653, 42.409584885358811 ], [ 117.311182725731101, 42.40958038241417 ], [ 117.311176649336019, 42.409580398908084 ], [ 117.31117660482181, 42.409571393018794 ], [ 117.311164452033353, 42.409571426005648 ], [ 117.311164429777136, 42.409566923061 ], [ 117.311158353383348, 42.409566939553933 ], [ 117.311158308871754, 42.409557933664601 ], [ 117.311140079692962, 42.409557983141475 ], [ 117.311140035183996, 42.409548977252122 ], [ 117.311133958791928, 42.409548993743762 ], [ 117.311134025554068, 42.409562502577799 ], [ 117.311121872767288, 42.409562535560127 ], [ 117.311121895020463, 42.409567038504804 ], [ 117.311127971414308, 42.409567022013803 ], [ 117.311128015921568, 42.409576027903135 ], [ 117.311134092316252, 42.409576011411808 ], [ 117.311134159078478, 42.409589520245774 ], [ 117.311146311870445, 42.409589487262132 ], [ 117.311146334125397, 42.409593990206773 ], [ 117.311152410521814, 42.409593973714458 ], [ 117.311152432777192, 42.409598476659106 ] ] ] } },
{ "type": "Feature", "properties": { "crown_id": 3304, "tree_id": "3305", "top_h_m": 22.742, "H_95_Mean": 22.5436, "DBH": 29.5237, "Carbon_kg": 176.938964, "area_m2": 15.5 }, "geometry": { "type": "Polygon", "coordinates": [ [ [ 117.310976172781039, 42.409589948916015 ], [ 117.310982249177172, 42.409589932432723 ], [ 117.310982226933945, 42.409585429488004 ], [ 117.310988303329623, 42.409585413004386 ], [ 117.310988281085969, 42.409580910059667 ], [ 117.310994357481206, 42.409580893575729 ], [ 117.3109942017728, 42.409549372962616 ], [ 117.311000278164997, 42.409549356478379 ], [ 117.311000255920518, 42.409544853533632 ], [ 117.310982026745222, 42.40954490298536 ], [ 117.310982048988393, 42.409549405930122 ], [ 117.310963819811761, 42.409549455378958 ], [ 117.310963842053624, 42.409553958323706 ], [ 117.310951689268308, 42.409553991288 ], [ 117.310951711509318, 42.409558494232748 ], [ 117.310945635116212, 42.409558510714419 ], [ 117.310945657356783, 42.409563013659167 ], [ 117.31093958096325, 42.409563030140511 ], [ 117.310939625443567, 42.409572036030021 ], [ 117.310945701837966, 42.409572019548669 ], [ 117.310945724078564, 42.409576522493417 ], [ 117.310951800473404, 42.409576506011753 ], [ 117.310951822714429, 42.409581008956486 ], [ 117.31095789910971, 42.409580992474488 ], [ 117.310957921351175, 42.409585495419222 ], [ 117.310976150538266, 42.409585445971295 ], [ 117.310976172781039, 42.409589948916015 ] ] ] } },
{ "type": "Feature", "properties": { "crown_id": 3308, "tree_id": "3309", "top_h_m": 21.991, "H_95_Mean": 21.8277, "DBH": 28.0609, "Carbon_kg": 156.694505, "area_m2": 13.5 }, "geometry": { "type": "Polygon", "coordinates": [ [ [ 117.311012542176144, 42.409571838232587 ], [ 117.311061153330797, 42.409571706341872 ], [ 117.311061131081956, 42.409567203397167 ], [ 117.311055054688083, 42.409567219884629 ], [ 117.311054987942882, 42.409553711050499 ], [ 117.311048911550301, 42.409553727537634 ], [ 117.311048889302356, 42.409549224592915 ], [ 117.311042812910188, 42.409549241079731 ], [ 117.311042790662668, 42.409544738134997 ], [ 117.311030637879227, 42.409544771107655 ], [ 117.311030615632575, 42.409540268162921 ], [ 117.311018462849972, 42.409540301134271 ], [ 117.311018440604215, 42.40953579818953 ], [ 117.31100628782248, 42.409535831159594 ], [ 117.311006376802084, 42.409553842938571 ], [ 117.311000300409461, 42.40955385942312 ], [ 117.311000367142938, 42.409567368257328 ], [ 117.311012519930784, 42.409567335287875 ], [ 117.311012542176144, 42.409571838232587 ] ] ] } },
{ "type": "Feature", "properties": { "crown_id": 3337, "tree_id": "3338", "top_h_m": 22.84, "H_95_Mean": 22.7964, "DBH": 32.1924, "Carbon_kg": 212.048506, "area_m2": 21.25 }, "geometry": { "type": "Polygon", "coordinates": [ [ [ 117.31106720747583, 42.409567186909378 ], [ 117.311091513051281, 42.409567120955018 ], [ 117.311091490800266, 42.40956261801032 ], [ 117.311109719980493, 42.409562568541169 ], [ 117.311109697728199, 42.409558065596485 ], [ 117.311115774121149, 42.409558049106117 ], [ 117.311115640604768, 42.409531031437957 ], [ 117.311097411433693, 42.409531080908003 ], [ 117.311097366930895, 42.409522075018572 ], [ 117.311085214151888, 42.409522107996992 ], [ 117.311085191901327, 42.409517605052258 ], [ 117.311079115512271, 42.409517621540992 ], [ 117.31107909326218, 42.409513118596252 ], [ 117.311073016873522, 42.409513135084659 ], [ 117.311073061372852, 42.409522140974126 ], [ 117.311066984983299, 42.409522157462206 ], [ 117.311067007232552, 42.409526660406939 ], [ 117.311060930842586, 42.4095266768947 ], [ 117.311060953091371, 42.409531179839441 ], [ 117.311054876700965, 42.409531196326888 ], [ 117.311054921197723, 42.409540202216334 ], [ 117.31104884480645, 42.409540218703469 ], [ 117.311048867054396, 42.409544721648189 ], [ 117.311054943446109, 42.409544705161061 ], [ 117.311054965694495, 42.409549208105787 ], [ 117.311061042086635, 42.409549191618332 ], [ 117.311061108833115, 42.409562700452462 ], [ 117.311067185226548, 42.40956268396468 ], [ 117.31106720747583, 42.409567186909378 ] ] ] } },
{ "type": "Feature", "properties": { "crown_id": 3340, "tree_id": "3341", "top_h_m": 23.584, "H_95_Mean": 23.2502, "DBH": 36.0337, "Carbon_kg": 269.257427, "area_m2": 31.75 }, "geometry": { "type": "Polygon", "coordinates": [ [ [ 117.310927405936866, 42.409558560157464 ], [ 117.310939558723106, 42.409558527195749 ], [ 117.310939536482962, 42.409554024250994 ], [ 117.310945612875642, 42.409554007769657 ], [ 117.310945590635086, 42.409549504824888 ], [ 117.310957743419536, 42.409549471861254 ], [ 117.310957721178099, 42.409544968916485 ], [ 117.310975950353452, 42.409544919468622 ], [ 117.310975928110736, 42.409540416523882 ], [ 117.310994157284725, 42.40954036707312 ], [ 117.310994135040701, 42.409535864128372 ], [ 117.31100021143159, 42.409535847644143 ], [ 117.311000189187112, 42.409531344699396 ], [ 117.310988036406229, 42.409531377667513 ], [ 117.310987991919049, 42.409522371777975 ], [ 117.310975839139857, 42.409522404744806 ], [ 117.310975816897141, 42.409517901800022 ], [ 117.310981893286311, 42.409517885316788 ], [ 117.310981826556926, 42.409504376482438 ], [ 117.310987902944788, 42.409504359998877 ], [ 117.310987880701234, 42.409499857054094 ], [ 117.310969651538969, 42.409499906503811 ], [ 117.310969629296707, 42.409495403559006 ], [ 117.310957476522688, 42.409495436523862 ], [ 117.310957498764068, 42.409499939468681 ], [ 117.310951422376618, 42.409499955950629 ], [ 117.310951444617572, 42.409504458895427 ], [ 117.310939291841791, 42.409504491858364 ], [ 117.310939314081864, 42.409508994803168 ], [ 117.310927161305202, 42.409509027764827 ], [ 117.310927183544422, 42.409513530709638 ], [ 117.31092110715565, 42.409513547189981 ], [ 117.310921129394444, 42.409518050134785 ], [ 117.310896823837538, 42.409518116052965 ], [ 117.310896890548733, 42.409531624887386 ], [ 117.310909043329772, 42.409531591928918 ], [ 117.310909087805655, 42.409540597818506 ], [ 117.310915164197056, 42.409540581338781 ], [ 117.310915186435452, 42.409545084283565 ], [ 117.310921262827279, 42.409545067803521 ], [ 117.310921285066101, 42.409549570748304 ], [ 117.31092736145834, 42.409549554267933 ], [ 117.310927405936866, 42.409558560157464 ] ] ] } },
{ "type": "Feature", "properties": { "crown_id": 3385, "tree_id": "3387", "top_h_m": 23.526, "H_95_Mean": 23.3465, "DBH": 32.4567, "Carbon_kg": 218.633701, "area_m2": 21.0 }, "geometry": { "type": "Polygon", "coordinates": [ [ [ 117.311036692023876, 42.409540251676752 ], [ 117.311042768415177, 42.409540235190278 ], [ 117.311042746167644, 42.409535732245537 ], [ 117.311048822558519, 42.409535715758736 ], [ 117.311048778062627, 42.409526709869262 ], [ 117.311054854452607, 42.409526693382141 ], [ 117.311054832204249, 42.409522190437407 ], [ 117.311060908593788, 42.409522173949959 ], [ 117.31106088634499, 42.409517671005226 ], [ 117.311066962734103, 42.409517654517465 ], [ 117.311066918235653, 42.409508648627984 ], [ 117.311072994623871, 42.409508632139911 ], [ 117.311072972374234, 42.40950412919517 ], [ 117.311060819598666, 42.409504162170997 ], [ 117.311060797349896, 42.409499659226242 ], [ 117.311030415413043, 42.409499741660156 ], [ 117.311030393166433, 42.409495238715373 ], [ 117.311006087618622, 42.409495304656687 ], [ 117.31100610986347, 42.409499807601478 ], [ 117.310993957088641, 42.409499840570206 ], [ 117.310994023820612, 42.409513349404548 ], [ 117.311000100209341, 42.409513332920334 ], [ 117.311000122453791, 42.409517835865103 ], [ 117.310994046064621, 42.409517852349317 ], [ 117.310994090552654, 42.409526858238841 ], [ 117.31100624333267, 42.409526825270078 ], [ 117.311006265577575, 42.40953132821484 ], [ 117.311024494748906, 42.409531278759275 ], [ 117.311024516995076, 42.409535781704022 ], [ 117.311036669776811, 42.409535748732026 ], [ 117.311036692023876, 42.409540251676752 ] ] ] } },
{ "type": "Feature", "properties": { "crown_id": 3386, "tree_id": "3388", "top_h_m": 21.408, "H_95_Mean": 21.3134, "DBH": 30.703, "Carbon_kg": 185.222109, "area_m2": 20.0 }, "geometry": { "type": "Polygon", "coordinates": [ [ [ 117.31114604481138, 42.409535451926089 ], [ 117.311170350374383, 42.40953538595506 ], [ 117.311170328117754, 42.409530883010369 ], [ 117.311176404508061, 42.40953086651681 ], [ 117.31117638225102, 42.40952636357212 ], [ 117.311188535030738, 42.409526330584036 ], [ 117.311188490514908, 42.409517324694676 ], [ 117.311194566903893, 42.409517308200144 ], [ 117.311194500128863, 42.409503799366078 ], [ 117.311200576516541, 42.409503782871241 ], [ 117.311200531999006, 42.409494776981838 ], [ 117.31119445561221, 42.409494793476668 ], [ 117.31119441109557, 42.409485787587265 ], [ 117.311170105551767, 42.409485853563339 ], [ 117.311170127808353, 42.409490356508073 ], [ 117.311157975035528, 42.409490389494181 ], [ 117.311157997291247, 42.4094948924389 ], [ 117.311145844517554, 42.409494925423729 ], [ 117.311145911282125, 42.40950843425788 ], [ 117.31113983489395, 42.409508450749819 ], [ 117.311139946166151, 42.409530965473358 ], [ 117.311146022556471, 42.409530948981413 ], [ 117.31114604481138, 42.409535451926089 ] ] ] } },
{ "type": "Feature", "properties": { "crown_id": 3410, "tree_id": "3412", "top_h_m": 23.118, "H_95_Mean": 22.9549, "DBH": 33.2365, "Carbon_kg": 227.066768, "area_m2": 23.75 }, "geometry": { "type": "Polygon", "coordinates": [ [ [ 117.311121739248264, 42.409535517891982 ], [ 117.311127815639054, 42.409535501401002 ], [ 117.311127793385481, 42.40953099845629 ], [ 117.311133869775816, 42.409530981964991 ], [ 117.311133736251804, 42.409503964296718 ], [ 117.311139812639539, 42.409503947805121 ], [ 117.311139745876289, 42.409490438970934 ], [ 117.311133669489877, 42.409490455462553 ], [ 117.311133647235891, 42.409485952517805 ], [ 117.311127570849905, 42.409485969009097 ], [ 117.311127548596374, 42.409481466064349 ], [ 117.3111214722108, 42.409481482555307 ], [ 117.31112144995771, 42.40947697961056 ], [ 117.311115373572576, 42.409476996101191 ], [ 117.311115351319941, 42.409472493156443 ], [ 117.311109274935234, 42.409472509646747 ], [ 117.311109252683025, 42.409468006701992 ], [ 117.311091023530167, 42.409468056170986 ], [ 117.311091068031985, 42.409477062060503 ], [ 117.311084991646823, 42.409477078549536 ], [ 117.311085058398291, 42.409490587383814 ], [ 117.311078982011821, 42.40949060387252 ], [ 117.311079071012088, 42.409508615651511 ], [ 117.311085147400306, 42.409508599162784 ], [ 117.311085169650838, 42.409513102107532 ], [ 117.311091246039453, 42.409513085618492 ], [ 117.311091268290411, 42.409517588563212 ], [ 117.311103421068538, 42.409517555584166 ], [ 117.311103465572202, 42.409526561473598 ], [ 117.311121694741985, 42.409526512002572 ], [ 117.311121739248264, 42.409535517891982 ] ] ] } },
{ "type": "Feature", "properties": { "crown_id": 3448, "tree_id": "3450", "top_h_m": 23.347, "H_95_Mean": 23.3162, "DBH": 29.485, "Carbon_kg": 180.024277, "area_m2": 14.5 }, "geometry": { "type": "Polygon", "coordinates": [ [ [ 117.311066873737246, 42.409499642738496 ], [ 117.311072950124597, 42.40949962625043 ], [ 117.311072883375729, 42.409486117416151 ], [ 117.311078959761758, 42.409486100927751 ], [ 117.311078893011612, 42.409472592093458 ], [ 117.311084969396347, 42.409472575604767 ], [ 117.31108490264495, 42.409459066770452 ], [ 117.311048444344308, 42.409459165697761 ], [ 117.311048488840015, 42.409468171587349 ], [ 117.311042412455677, 42.409468188074115 ], [ 117.311042434703097, 42.409472691018891 ], [ 117.311036358318347, 42.409472707505337 ], [ 117.311036380565355, 42.409477210450127 ], [ 117.311030304180136, 42.409477226936247 ], [ 117.31103034867327, 42.40948623282582 ], [ 117.311018195901113, 42.409486265797099 ], [ 117.311018218146828, 42.409490768741904 ], [ 117.311036447306378, 42.409490719284463 ], [ 117.311036469553386, 42.409495222229225 ], [ 117.31106685148805, 42.409495139793727 ], [ 117.311066873737246, 42.409499642738496 ] ] ] } },
{ "type": "Feature", "properties": { "crown_id": 3477, "tree_id": "3479", "top_h_m": 22.978, "H_95_Mean": 22.8421, "DBH": 31.4126, "Carbon_kg": 202.062509, "area_m2": 19.25 }, "geometry": { "type": "Polygon", "coordinates": [ [ [ 117.310975705683703, 42.409495387076092 ], [ 117.311000011231656, 42.409495321141222 ], [ 117.310999766543389, 42.409445788748364 ], [ 117.310981537396785, 42.409445838199915 ], [ 117.310981515153728, 42.409441335255089 ], [ 117.310957209626594, 42.409441401185966 ], [ 117.310957231867903, 42.409445904130827 ], [ 117.310951155485668, 42.409445920612747 ], [ 117.310951244449242, 42.409463932392086 ], [ 117.310957320833211, 42.409463915910152 ], [ 117.310957343074548, 42.409468418854992 ], [ 117.310963419458957, 42.409468402372724 ], [ 117.310963530667905, 42.409490917096797 ], [ 117.310975683441015, 42.409490884131301 ], [ 117.310975705683703, 42.409495387076092 ] ] ] } },
{ "type": "Feature", "properties": { "crown_id": 3478, "tree_id": "3480", "top_h_m": 21.744, "H_95_Mean": 21.6971, "DBH": 26.6975, "Carbon_kg": 141.226172, "area_m2": 11.25 }, "geometry": { "type": "Polygon", "coordinates": [ [ [ 117.311006020884093, 42.409481795822323 ], [ 117.311024250041072, 42.409481746366851 ], [ 117.311024205548804, 42.409472740477256 ], [ 117.311030281933554, 42.409472723991456 ], [ 117.311030259687001, 42.40946822104668 ], [ 117.311036336071354, 42.409468204560554 ], [ 117.311036313824374, 42.409463701615771 ], [ 117.311042390208257, 42.409463685129325 ], [ 117.311042345713417, 42.40945467923973 ], [ 117.311048422096448, 42.409454662752971 ], [ 117.311048399848602, 42.409450159808166 ], [ 117.311042323466026, 42.409450176294939 ], [ 117.311042301218606, 42.409445673350135 ], [ 117.311036224836442, 42.409445689836559 ], [ 117.311036202589477, 42.40944118689174 ], [ 117.311005820680776, 42.409441269319046 ], [ 117.311006020884093, 42.409481795822323 ] ] ] } },
{ "type": "Feature", "properties": { "crown_id": 3490, "tree_id": "3492", "top_h_m": 22.106, "H_95_Mean": 21.8737, "DBH": 32.921, "Carbon_kg": 216.477086, "area_m2": 25.0 }, "geometry": { "type": "Polygon", "coordinates": [ [ [ 117.311145822262731, 42.409490422479003 ], [ 117.311151898649143, 42.409490405986759 ], [ 117.311151876393851, 42.409485903042025 ], [ 117.311164029165795, 42.409485870056557 ], [ 117.311164006909664, 42.40948136711183 ], [ 117.311176159680713, 42.40948133412509 ], [ 117.311176115166717, 42.409472328235637 ], [ 117.311170038782052, 42.409472344729174 ], [ 117.311169860729777, 42.409436321171206 ], [ 117.311163784348579, 42.409436337664395 ], [ 117.311163762092505, 42.409431834719634 ], [ 117.311157685711734, 42.409431851212496 ], [ 117.311157707967382, 42.409436354157258 ], [ 117.311151631586199, 42.409436370649807 ], [ 117.311151653841407, 42.409440873594562 ], [ 117.31110304278819, 42.409441005523334 ], [ 117.311103087291684, 42.4094500114129 ], [ 117.311097010909137, 42.409450027902544 ], [ 117.311097055411793, 42.409459033792103 ], [ 117.311090979028378, 42.409459050281434 ], [ 117.311091001279266, 42.409463553226217 ], [ 117.311115306814656, 42.409463487266933 ], [ 117.311115329067306, 42.409467990211688 ], [ 117.311121405451544, 42.409467973721057 ], [ 117.311121427704649, 42.409472476665812 ], [ 117.311127504089328, 42.409472460174861 ], [ 117.311127526342858, 42.409476963119609 ], [ 117.311133602727963, 42.409476946628324 ], [ 117.311133624981935, 42.409481449573072 ], [ 117.311139701367509, 42.409481433081467 ], [ 117.311139723621892, 42.409485936026194 ], [ 117.311145800007878, 42.409485919534269 ], [ 117.311145822262731, 42.409490422479003 ] ] ] } },
{ "type": "Feature", "properties": { "crown_id": 3559, "tree_id": "3561", "top_h_m": 22.603, "H_95_Mean": 22.1547, "DBH": 32.2331, "Carbon_kg": 209.029133, "area_m2": 22.5 }, "geometry": { "type": "Polygon", "coordinates": [ [ [ 117.311054498479479, 42.409454646265893 ], [ 117.311090956777477, 42.409454547336665 ], [ 117.311090912275716, 42.409445541447106 ], [ 117.311096988657823, 42.409445524957775 ], [ 117.311096944155196, 42.409436519068201 ], [ 117.31110302053645, 42.409436502578551 ], [ 117.311102953781258, 42.409422993744172 ], [ 117.311090801021393, 42.409423026723118 ], [ 117.311090734268845, 42.409409517888704 ], [ 117.31108465789022, 42.409409534377687 ], [ 117.311084635639801, 42.409405031432868 ], [ 117.31107248288339, 42.409405064409867 ], [ 117.311072438384315, 42.409396058520201 ], [ 117.311066362006969, 42.409396075008232 ], [ 117.311066406505162, 42.409405080897884 ], [ 117.311060330126921, 42.40940509738558 ], [ 117.311060352375591, 42.409409600330413 ], [ 117.311054275996909, 42.40940961681779 ], [ 117.311054298245139, 42.409414119762616 ], [ 117.311048221866031, 42.409414136249666 ], [ 117.311048266361666, 42.40942314213931 ], [ 117.311036113601688, 42.409423175112458 ], [ 117.311036135848624, 42.409427678057291 ], [ 117.311030059468209, 42.409427694543389 ], [ 117.311030103961244, 42.409436700433034 ], [ 117.311042256723823, 42.409436667460504 ], [ 117.311042278971215, 42.409441170405323 ], [ 117.311048355352938, 42.409441153918564 ], [ 117.31104837760077, 42.409445656863376 ], [ 117.311054453982905, 42.409445640376312 ], [ 117.311054498479479, 42.409454646265893 ] ] ] } },
{ "type": "Feature", "properties": { "crown_id": 3560, "tree_id": "3562", "top_h_m": 19.73, "H_95_Mean": 19.5948, "DBH": 26.1381, "Carbon_kg": 127.409276, "area_m2": 12.5 }, "geometry": { "type": "Polygon", "coordinates": [ [ [ 117.311109096917704, 42.409436486088588 ], [ 117.311145555204988, 42.409436387142016 ], [ 117.311145532950206, 42.409431884197254 ], [ 117.311151609330977, 42.409431867705038 ], [ 117.31115158707577, 42.409427364760269 ], [ 117.311163739836431, 42.409427331774872 ], [ 117.311163695324282, 42.409418325885326 ], [ 117.311157618944847, 42.409418342378181 ], [ 117.311157552177988, 42.409404833543832 ], [ 117.311121093908994, 42.409404932494141 ], [ 117.311121138415004, 42.409413938383743 ], [ 117.311115062035938, 42.409413954874346 ], [ 117.311115084288531, 42.409418457819143 ], [ 117.311109007909039, 42.409418474309419 ], [ 117.311109096917704, 42.409436486088588 ] ] ] } },
{ "type": "Feature", "properties": { "crown_id": 3586, "tree_id": "3588", "top_h_m": 21.364, "H_95_Mean": 21.1287, "DBH": 30.5768, "Carbon_kg": 182.747676, "area_m2": 20.0 }, "geometry": { "type": "Polygon", "coordinates": [ [ [ 117.310932948578525, 42.409450473001414 ], [ 117.310945101343876, 42.40945044003918 ], [ 117.310945056862977, 42.409441434149485 ], [ 117.310951133244785, 42.409441417667885 ], [ 117.310951111003931, 42.409436914723045 ], [ 117.310963263766624, 42.409436881758893 ], [ 117.310963108074588, 42.409405361144877 ], [ 117.310950955317935, 42.409405394108987 ], [ 117.310950933077109, 42.409400891164111 ], [ 117.310932703943422, 42.40940094060786 ], [ 117.310932681703889, 42.409396437662977 ], [ 117.310920528948941, 42.409396470623861 ], [ 117.310920484471637, 42.40938746473406 ], [ 117.310914408095016, 42.409387481213997 ], [ 117.310914430333256, 42.409391984158916 ], [ 117.310908353956179, 42.409392000638555 ], [ 117.310908531858601, 42.40942802419768 ], [ 117.310920684619646, 42.409427991238047 ], [ 117.31092070685834, 42.409432494182923 ], [ 117.310926783239282, 42.409432477702623 ], [ 117.310926827717552, 42.409441483592339 ], [ 117.31093290409936, 42.409441467111712 ], [ 117.310932948578525, 42.409450473001414 ] ] ] } },
{ "type": "Feature", "properties": { "crown_id": 3601, "tree_id": "3603", "top_h_m": 22.904, "H_95_Mean": 22.8306, "DBH": 32.2152, "Carbon_kg": 212.539672, "area_m2": 21.25 }, "geometry": { "type": "Polygon", "coordinates": [ [ [ 117.310987591535508, 42.409441318771556 ], [ 117.310999744299011, 42.409441285803538 ], [ 117.310999722054675, 42.409436782858705 ], [ 117.311024027579919, 42.409436716918805 ], [ 117.311023938595639, 42.409418705139501 ], [ 117.311017862216062, 42.409418721624945 ], [ 117.311017839970432, 42.409414218680105 ], [ 117.311011763591296, 42.409414235165229 ], [ 117.311011719100904, 42.409405229275528 ], [ 117.311005642722634, 42.409405245760318 ], [ 117.311005531498964, 42.409382731036018 ], [ 117.310999455122854, 42.409382747520475 ], [ 117.31099943287856, 42.409378244575599 ], [ 117.310993356502891, 42.409378261059736 ], [ 117.310993378746744, 42.409382764004619 ], [ 117.31098730237062, 42.409382780488436 ], [ 117.310987324614047, 42.409387283433304 ], [ 117.310975171860932, 42.409387316399986 ], [ 117.310975238588611, 42.409400825234606 ], [ 117.310969162210753, 42.409400841717463 ], [ 117.310969340147977, 42.409436865276327 ], [ 117.310987569292024, 42.409436815826723 ], [ 117.310987591535508, 42.409441318771556 ] ] ] } }
]
}
