{
"type": "FeatureCollection",
"name": "tile_12_15",
"crs": { "type": "name", "properties": { "name": "urn:ogc:def:crs:OGC:1.3:CRS84" } },
"features": [
{ "type": "Feature", "properties": { "crown_id": 3605, "tree_id": "3607", "top_h_m": 23.777, "H_95_Mean": 23.721, "DBH": 35.1347, "Carbon_kg": 258.941666, "area_m2": 27.75 }, "geometry": { "type": "Polygon", "coordinates": [ [ [ 117.313399825031269, 42.409416737591663 ], [ 117.31341805416524, 42.409416687755595 ], [ 117.313418031747929, 42.409412184811799 ], [ 117.313454490013143, 42.409412085130981 ], [ 117.313454512433054, 42.40941658807477 ], [ 117.31346666518894, 42.409416554845258 ], [ 117.313466553085121, 42.409394040126273 ], [ 117.313472629460875, 42.409394023511048 ], [ 117.313472607039699, 42.409389520567238 ], [ 117.313466530664343, 42.409389537182463 ], [ 117.313466440981415, 42.409371525407195 ], [ 117.313454288234212, 42.409371558636664 ], [ 117.313454265814343, 42.409367055692826 ], [ 117.313448189441161, 42.409367072307077 ], [ 117.313448167021747, 42.409362569363239 ], [ 117.313442090648991, 42.409362585977171 ], [ 117.313442068230032, 42.409358083033318 ], [ 117.313423839113042, 42.409358132873152 ], [ 117.313423906366083, 42.409371641704695 ], [ 117.31341782999246, 42.409371658317326 ], [ 117.3134178524097, 42.409376161261186 ], [ 117.313411776035636, 42.409376177873497 ], [ 117.313411820869291, 42.409385183761181 ], [ 117.313399668119388, 42.409385216984859 ], [ 117.313399712951309, 42.409394222872535 ], [ 117.313393636575483, 42.409394239483895 ], [ 117.313393658991046, 42.40939874242774 ], [ 117.313399735367312, 42.409398725816366 ], [ 117.313399825031269, 42.409416737591663 ] ] ] } },
{ "type": "Feature", "properties": { "crown_id": 3646, "tree_id": "3648", "top_h_m": 23.131, "H_95_Mean": 22.8993, "DBH": 32.5503, "Carbon_kg": 217.405103, "area_m2": 22.0 }, "geometry": { "type": "Polygon", "coordinates": [ [ [ 117.313490948278172, 42.409411985438581 ], [ 117.313497024655646, 42.409411968822049 ], [ 117.313496957386818, 42.409398459990697 ], [ 117.313509110139194, 42.409398426756695 ], [ 117.313509087715389, 42.409393923812893 ], [ 117.313527316842567, 42.409393873959488 ], [ 117.313527249567272, 42.409380365128122 ], [ 117.313533325941691, 42.409380348509686 ], [ 117.313533281090656, 42.409371342622102 ], [ 117.313527204717118, 42.409371359240552 ], [ 117.313527115016853, 42.40935334746532 ], [ 117.31352103864505, 42.409353364083422 ], [ 117.313520993795819, 42.409344358195789 ], [ 117.313508841053931, 42.40934439143102 ], [ 117.313508908325176, 42.409357900262485 ], [ 117.313490679208385, 42.409357950112941 ], [ 117.31349070163084, 42.409362453056758 ], [ 117.313478548885413, 42.409362486288799 ], [ 117.31347859372859, 42.409371492176447 ], [ 117.313472517354995, 42.409371508791985 ], [ 117.313472584618509, 42.409385017623443 ], [ 117.313478660993397, 42.409385001007877 ], [ 117.313478728258261, 42.409398509839285 ], [ 117.31347265188208, 42.409398526454844 ], [ 117.31347269672446, 42.409407532342442 ], [ 117.31349092585566, 42.409407482494807 ], [ 117.313490948278172, 42.409411985438581 ] ] ] } },
{ "type": "Feature", "properties": { "crown_id": 3647, "tree_id": "3649", "top_h_m": 18.615, "H_95_Mean": 18.5573, "DBH": 28.1756, "Carbon_kg": 143.52596, "area_m2": 18.5 }, "geometry": { "type": "Polygon", "coordinates": [ [ [ 117.3135516223454, 42.409393807483752 ], [ 117.313575927848149, 42.409393741002873 ], [ 117.313575905419569, 42.409389238059113 ], [ 117.313581981794812, 42.409389221438083 ], [ 117.313581914507807, 42.409375712606796 ], [ 117.313587990881757, 42.409375695985446 ], [ 117.313587946022906, 42.409366690097904 ], [ 117.313594022395961, 42.409366673476256 ], [ 117.31359399996613, 42.409362170532475 ], [ 117.31360007633873, 42.4093621539105 ], [ 117.313600053908459, 42.409357650966733 ], [ 117.313581824791896, 42.409357700831677 ], [ 117.313581779933955, 42.409348694944093 ], [ 117.313563550819964, 42.409348744806131 ], [ 117.31356357324762, 42.409353247749941 ], [ 117.313533191388657, 42.409353330846891 ], [ 117.31353325866516, 42.409366839678306 ], [ 117.313539335038257, 42.40936682305955 ], [ 117.313539424742061, 42.409384834834704 ], [ 117.313533348367201, 42.409384851453488 ], [ 117.31353337079274, 42.409389354397263 ], [ 117.313551599918569, 42.409389304539985 ], [ 117.3135516223454, 42.409393807483752 ] ] ] } },
{ "type": "Feature", "properties": { "crown_id": 3663, "tree_id": "3665", "top_h_m": 24.503, "H_95_Mean": 24.4139, "DBH": 32.5188, "Carbon_kg": 225.358365, "area_m2": 19.5 }, "geometry": { "type": "Polygon", "coordinates": [ [ [ 117.313375385033737, 42.409389786372216 ], [ 117.313393614159949, 42.409389736540057 ], [ 117.313393569328895, 42.40938073065238 ], [ 117.31340572207796, 42.409380697429334 ], [ 117.313405677245157, 42.409371691541644 ], [ 117.313411753618823, 42.409371674929645 ], [ 117.313411731201995, 42.409367171985799 ], [ 117.313417807575206, 42.409367155373481 ], [ 117.313417740323501, 42.409353646541923 ], [ 117.313411663951584, 42.409353663154228 ], [ 117.313411641534785, 42.409349160210354 ], [ 117.313375183305865, 42.40934925987743 ], [ 117.313375160891681, 42.409344756933542 ], [ 117.313369084520616, 42.409344773543594 ], [ 117.31336910693436, 42.409349276487475 ], [ 117.313363030562869, 42.4093492930972 ], [ 117.313363052976186, 42.409353796041096 ], [ 117.313356976604226, 42.409353812650508 ], [ 117.313357021430008, 42.409362818538263 ], [ 117.313350945057195, 42.409362835147363 ], [ 117.313351057119561, 42.409385349866724 ], [ 117.31337536261951, 42.409385283428371 ], [ 117.313375385033737, 42.409389786372216 ] ] ] } },
{ "type": "Feature", "properties": { "crown_id": 3703, "tree_id": "3705", "top_h_m": 22.365, "H_95_Mean": 22.2674, "DBH": 32.7635, "Carbon_kg": 216.668814, "area_m2": 23.75 }, "geometry": { "type": "Polygon", "coordinates": [ [ [ 117.313460342187511, 42.409367039078255 ], [ 117.313472494933848, 42.409367005848146 ], [ 117.313472450091538, 42.409357999960505 ], [ 117.313484602836084, 42.409357966729125 ], [ 117.31348458041407, 42.409353463785294 ], [ 117.313502809529595, 42.409353413935804 ], [ 117.313502742259672, 42.409339905104325 ], [ 117.313508818630183, 42.409339888487189 ], [ 117.313508796206449, 42.409335385543351 ], [ 117.313502719836379, 42.409335402160494 ], [ 117.313502607719968, 42.409312887441253 ], [ 117.31349653135203, 42.409312904058055 ], [ 117.313496508929191, 42.409308401114188 ], [ 117.313484356194223, 42.409308434346805 ], [ 117.313484378616167, 42.409312937290665 ], [ 117.313478302248257, 42.409312953906493 ], [ 117.313478279826725, 42.409308450962627 ], [ 117.313460050724203, 42.409308500808166 ], [ 117.31346009556465, 42.40931750669592 ], [ 117.313454019196243, 42.409317523310456 ], [ 117.313454086455664, 42.409331032142049 ], [ 117.313448010085978, 42.409331048756286 ], [ 117.31344807734412, 42.409344557587858 ], [ 117.313442000973126, 42.409344574201768 ], [ 117.313442045811058, 42.40935358008948 ], [ 117.313448122182919, 42.409353563475563 ], [ 117.313448144602347, 42.409358066419401 ], [ 117.313454220974634, 42.409358049805149 ], [ 117.313454243394489, 42.409362552749002 ], [ 117.313460319767216, 42.409362536134438 ], [ 117.313460342187511, 42.409367039078255 ] ] ] } },
{ "type": "Feature", "properties": { "crown_id": 3740, "tree_id": "3742", "top_h_m": 25.086, "H_95_Mean": 24.9185, "DBH": 34.6363, "Carbon_kg": 259.028167, "area_m2": 24.0 }, "geometry": { "type": "Polygon", "coordinates": [ [ [ 117.313423816695376, 42.409353629929299 ], [ 117.313435969439169, 42.40935359670307 ], [ 117.313435902183599, 42.409340087871499 ], [ 117.313441978554152, 42.409340071257915 ], [ 117.313441956135222, 42.409335568314056 ], [ 117.313435879765066, 42.409335584927646 ], [ 117.313435834928043, 42.409326579039899 ], [ 117.313429758558755, 42.409326595653148 ], [ 117.313429736140705, 42.409322092709274 ], [ 117.313435812509539, 42.409322076096025 ], [ 117.313435745254068, 42.409308567264375 ], [ 117.313423592519001, 42.409308600490547 ], [ 117.313423547683755, 42.409299594602764 ], [ 117.313417471317095, 42.40929961121536 ], [ 117.313417516151432, 42.409308617103157 ], [ 117.313368905210837, 42.409308749992384 ], [ 117.313368950038239, 42.40931775588021 ], [ 117.313362873669789, 42.409317772489921 ], [ 117.313362940909641, 42.409331281321641 ], [ 117.313369017279413, 42.409331264711916 ], [ 117.313369062106887, 42.409340270599706 ], [ 117.313381214848135, 42.40934023737929 ], [ 117.31338123726276, 42.409344740323185 ], [ 117.313417695489051, 42.40934464065419 ], [ 117.313417717906262, 42.409349143598057 ], [ 117.313423794277739, 42.409349126985433 ], [ 117.313423816695376, 42.409353629929299 ] ] ] } },
{ "type": "Feature", "properties": { "crown_id": 3748, "tree_id": "3750", "top_h_m": 23.743, "H_95_Mean": 23.6482, "DBH": 31.4937, "Carbon_kg": 207.324821, "area_m2": 18.25 }, "geometry": { "type": "Polygon", "coordinates": [ [ [ 117.313527092591812, 42.409348844521517 ], [ 117.313557474448615, 42.409348761426173 ], [ 117.313557452021399, 42.409344258482363 ], [ 117.313563528392308, 42.409344241862328 ], [ 117.313563326543658, 42.409303715367955 ], [ 117.313545097442628, 42.409303765227008 ], [ 117.313545119868948, 42.409308268170861 ], [ 117.313520814399126, 42.40930833464509 ], [ 117.313520836823685, 42.409312837588949 ], [ 117.313508684087878, 42.409312870824145 ], [ 117.313508773782729, 42.409330882599519 ], [ 117.313514850152373, 42.409330865982071 ], [ 117.313514895000722, 42.40933987186974 ], [ 117.313527047741715, 42.409339838633869 ], [ 117.313527092591812, 42.409348844521517 ] ] ] } },
{ "type": "Feature", "properties": { "crown_id": 3749, "tree_id": "3751", "top_h_m": 23.76, "H_95_Mean": 23.6803, "DBH": 32.3694, "Carbon_kg": 219.283604, "area_m2": 20.25 }, "geometry": { "type": "Polygon", "coordinates": [ [ [ 117.31358787873468, 42.40935318126656 ], [ 117.313600031478202, 42.409353148022952 ], [ 117.313600009047931, 42.409348645079163 ], [ 117.313618238161823, 42.409348595211341 ], [ 117.313618193298709, 42.409339589323778 ], [ 117.313624269669134, 42.40933957270051 ], [ 117.313624202373177, 42.409326063869166 ], [ 117.313618126004044, 42.409326080492406 ], [ 117.31361803627793, 42.409308068717202 ], [ 117.313611959910546, 42.409308085340108 ], [ 117.313611915048369, 42.409299079452481 ], [ 117.313599762315334, 42.409299112697326 ], [ 117.313599784745549, 42.409303615641136 ], [ 117.313581555644632, 42.409303665505995 ], [ 117.31358157807351, 42.409308168449826 ], [ 117.313569425338684, 42.409308201691452 ], [ 117.313569604763202, 42.409344225241973 ], [ 117.313587833875886, 42.409344175378983 ], [ 117.31358787873468, 42.40935318126656 ] ] ] } },
{ "type": "Feature", "properties": { "crown_id": 3799, "tree_id": "3801", "top_h_m": 23.74, "H_95_Mean": 23.6114, "DBH": 31.359, "Carbon_kg": 205.352251, "area_m2": 18.0 }, "geometry": { "type": "Polygon", "coordinates": [ [ [ 117.313356774888476, 42.409313286155381 ], [ 117.3133628512565, 42.409313269546004 ], [ 117.313362806429964, 42.409304263658171 ], [ 117.313411417367121, 42.409304130771538 ], [ 117.313411372533665, 42.40929512488372 ], [ 117.313417448899912, 42.409295108271451 ], [ 117.313417381648449, 42.409281599439723 ], [ 117.313411305283481, 42.409281616051992 ], [ 117.313411260450081, 42.409272610164145 ], [ 117.31340518408598, 42.409272626776087 ], [ 117.313405206502253, 42.409277129720003 ], [ 117.313344442856788, 42.409277295821695 ], [ 117.313344465268713, 42.409281798765662 ], [ 117.313338388903702, 42.409281815374058 ], [ 117.3133384113152, 42.40928631831801 ], [ 117.313344487680652, 42.409286301709592 ], [ 117.313344532504544, 42.409295307597475 ], [ 117.313350608870849, 42.409295290988744 ], [ 117.31335067610803, 42.409308799820529 ], [ 117.313356752475613, 42.409308783211465 ], [ 117.313356774888476, 42.409313286155381 ] ] ] } },
{ "type": "Feature", "properties": { "crown_id": 3813, "tree_id": "3815", "top_h_m": 22.655, "H_95_Mean": 22.5269, "DBH": 28.4815, "Carbon_kg": 164.503638, "area_m2": 13.5 }, "geometry": { "type": "Polygon", "coordinates": [ [ [ 117.31344184404054, 42.409313053594687 ], [ 117.313453996776445, 42.409313020366575 ], [ 117.313453951936879, 42.40930401447882 ], [ 117.313466104671065, 42.409303981249437 ], [ 117.313465970147234, 42.409276963586102 ], [ 117.313459893782749, 42.409276980200936 ], [ 117.313459871362568, 42.409272477257041 ], [ 117.313435565906374, 42.409272543713172 ], [ 117.313435543487913, 42.409268040769248 ], [ 117.313417314397014, 42.409268090607952 ], [ 117.313417359231295, 42.409277096495799 ], [ 117.313423435595794, 42.409277079883218 ], [ 117.31342352526616, 42.409295091658855 ], [ 117.313429601632407, 42.409295075045939 ], [ 117.313429646468478, 42.409304080933737 ], [ 117.313441799202678, 42.409304047706925 ], [ 117.31344184404054, 42.409313053594687 ] ] ] } },
{ "type": "Feature", "properties": { "crown_id": 3814, "tree_id": "3816", "top_h_m": 24.895, "H_95_Mean": 24.7743, "DBH": 35.5212, "Carbon_kg": 271.605273, "area_m2": 26.75 }, "geometry": { "type": "Polygon", "coordinates": [ [ [ 117.313502585296703, 42.409308384497393 ], [ 117.313514738031643, 42.409308351262851 ], [ 117.313514715607511, 42.409303848318999 ], [ 117.313539021075627, 42.409303781846056 ], [ 117.313538998649747, 42.409299278902211 ], [ 117.31355722774947, 42.40929922904413 ], [ 117.313557093186589, 42.409272211381001 ], [ 117.313563169550534, 42.409272194761016 ], [ 117.313563147122963, 42.409267691817156 ], [ 117.313557070759458, 42.409267708437142 ], [ 117.313557048332314, 42.409263205493275 ], [ 117.313550971969235, 42.409263222112941 ], [ 117.313550949542531, 42.409258719169053 ], [ 117.31351449136649, 42.409258818880261 ], [ 117.313514468942415, 42.409254315936359 ], [ 117.313508392580147, 42.409254332553765 ], [ 117.313508437427444, 42.409263338441562 ], [ 117.313502361064309, 42.409263355058641 ], [ 117.313502383487503, 42.409267858002536 ], [ 117.313496307123941, 42.409267874619296 ], [ 117.313496329546723, 42.409272377563184 ], [ 117.313490253182721, 42.409272394179638 ], [ 117.313490342872186, 42.409290405955176 ], [ 117.313484266506421, 42.40929042257131 ], [ 117.313484333772266, 42.409303931402938 ], [ 117.313502562873438, 42.409303881553541 ], [ 117.313502585296703, 42.409308384497393 ] ] ] } },
{ "type": "Feature", "properties": { "crown_id": 3815, "tree_id": "3817", "top_h_m": 21.966, "H_95_Mean": 21.9136, "DBH": 26.5107, "Carbon_kg": 140.061751, "area_m2": 10.75 }, "geometry": { "type": "Polygon", "coordinates": [ [ [ 117.313569402910659, 42.409303698747621 ], [ 117.313575479277631, 42.409303682126975 ], [ 117.313575456849165, 42.409299179183144 ], [ 117.313593685948788, 42.409299129319265 ], [ 117.313593663519015, 42.409294626375427 ], [ 117.313611892617317, 42.409294576508657 ], [ 117.313611870186236, 42.40929007356484 ], [ 117.313605793820585, 42.409290090187412 ], [ 117.313605771389931, 42.409285587243588 ], [ 117.31359969502472, 42.409285603865833 ], [ 117.313599605303992, 42.409267592090465 ], [ 117.313569223486482, 42.409267675196844 ], [ 117.313569268342505, 42.409276681084563 ], [ 117.313563191978105, 42.409276697704875 ], [ 117.31356330411603, 42.409299212424116 ], [ 117.313569380482605, 42.409299195803783 ], [ 117.313569402910659, 42.409303698747621 ] ] ] } },
{ "type": "Feature", "properties": { "crown_id": 3880, "tree_id": "3882", "top_h_m": 23.036, "H_95_Mean": 23.0047, "DBH": 28.6263, "Carbon_kg": 168.26957, "area_m2": 13.25 }, "geometry": { "type": "Polygon", "coordinates": [ [ [ 117.31336264953724, 42.409272743050622 ], [ 117.313399107721892, 42.409272643387695 ], [ 117.313399085306074, 42.409268140443764 ], [ 117.313411238033382, 42.409268107220214 ], [ 117.313411215616682, 42.40926360427629 ], [ 117.313405139253476, 42.409263620888218 ], [ 117.313405094420958, 42.409254615000336 ], [ 117.31339901805859, 42.409254631611937 ], [ 117.313398973226995, 42.40924562572404 ], [ 117.313392896865494, 42.409245642335321 ], [ 117.313392852034752, 42.409236636447403 ], [ 117.31336854659223, 42.409236702889281 ], [ 117.31336856900586, 42.409241205833254 ], [ 117.313356416283682, 42.40924123905225 ], [ 117.313356505934777, 42.409259250828121 ], [ 117.3133625822976, 42.409259234218773 ], [ 117.31336264953724, 42.409272743050622 ] ] ] } },
{ "type": "Feature", "properties": { "crown_id": 3891, "tree_id": "3893", "top_h_m": 23.032, "H_95_Mean": 22.7756, "DBH": 32.2757, "Carbon_kg": 213.040784, "area_m2": 21.5 }, "geometry": { "type": "Polygon", "coordinates": [ [ [ 117.313472136195955, 42.4092949587465 ], [ 117.31347821256216, 42.409294942131005 ], [ 117.31347816771914, 42.409285936243236 ], [ 117.313484244084478, 42.409285919627436 ], [ 117.313484154396789, 42.409267907851863 ], [ 117.31349023076038, 42.40926789123575 ], [ 117.313490208338024, 42.409263388291855 ], [ 117.313496284701159, 42.409263371675408 ], [ 117.313496262278377, 42.409258868731506 ], [ 117.313502338641101, 42.409258852114739 ], [ 117.313502316217878, 42.409254349170844 ], [ 117.31349623985561, 42.409254365787604 ], [ 117.313496172587335, 42.409240856955876 ], [ 117.313502248948311, 42.409240840339137 ], [ 117.313502181678771, 42.409227331507367 ], [ 117.313496105319089, 42.409227348124105 ], [ 117.313496082896364, 42.409222845180189 ], [ 117.313465701100142, 42.409222928259062 ], [ 117.313465678679606, 42.409218425315125 ], [ 117.313459602320762, 42.409218441929923 ], [ 117.313459714421427, 42.409240956649619 ], [ 117.313453638060437, 42.409240973264112 ], [ 117.313453705319574, 42.409254482095903 ], [ 117.313447628957277, 42.409254498710077 ], [ 117.313447651376578, 42.409259001654007 ], [ 117.313441575013798, 42.409259018267861 ], [ 117.313441619851559, 42.409268024155701 ], [ 117.313465925305991, 42.409267957698297 ], [ 117.313465947726613, 42.4092724606422 ], [ 117.313472024090629, 42.409272444027046 ], [ 117.313472136195955, 42.4092949587465 ] ] ] } },
{ "type": "Feature", "properties": { "crown_id": 3892, "tree_id": "3894", "top_h_m": 22.066, "H_95_Mean": 21.974, "DBH": 27.7381, "Carbon_kg": 153.688747, "area_m2": 12.75 }, "geometry": { "type": "Polygon", "coordinates": [ [ [ 117.313563124695406, 42.409263188873297 ], [ 117.313599582873834, 42.40926308914662 ], [ 117.313599381002533, 42.409222562651799 ], [ 117.313593304643391, 42.409222579273695 ], [ 117.313593282213716, 42.4092180763298 ], [ 117.313575053137541, 42.409218126193551 ], [ 117.313575142851093, 42.409236137969117 ], [ 117.313569066490615, 42.409236154589728 ], [ 117.313569088918584, 42.409240657533608 ], [ 117.313563012557665, 42.409240674153899 ], [ 117.313563079840293, 42.409254182985549 ], [ 117.313557003478081, 42.40925419960552 ], [ 117.313557025905212, 42.409258702549394 ], [ 117.313563102267864, 42.409258685929409 ], [ 117.313563124695406, 42.409263188873297 ] ] ] } },
{ "type": "Feature", "properties": { "crown_id": 3912, "tree_id": "3914", "top_h_m": 24.148, "H_95_Mean": 24.0801, "DBH": 32.9321, "Carbon_kg": 229.293746, "area_m2": 21.0 }, "geometry": { "type": "Polygon", "coordinates": [ [ [ 117.313423368343095, 42.409263571051454 ], [ 117.313435521069479, 42.409263537825332 ], [ 117.313435476232641, 42.409254531937485 ], [ 117.313441552594966, 42.409254515323944 ], [ 117.313441530176092, 42.409250012380021 ], [ 117.313447606537977, 42.409249995766146 ], [ 117.313447539280148, 42.409236486934347 ], [ 117.313453615640725, 42.409236470320181 ], [ 117.313453503542263, 42.409213955600457 ], [ 117.313441350825457, 42.409213988828455 ], [ 117.31344132840664, 42.409209485884489 ], [ 117.313435252048677, 42.409209502498001 ], [ 117.313435207211938, 42.409200496610069 ], [ 117.313423054497719, 42.409200529836113 ], [ 117.3134230769152, 42.409205032780086 ], [ 117.313410924200085, 42.409205066004851 ], [ 117.313410991449985, 42.409218574836785 ], [ 117.313404915091127, 42.409218591448685 ], [ 117.313404982339762, 42.409232100280583 ], [ 117.313398905979582, 42.409232116892177 ], [ 117.313398950811177, 42.409241122780095 ], [ 117.313405027172223, 42.409241106168494 ], [ 117.313405072004713, 42.409250112056398 ], [ 117.313411148366626, 42.40925009544447 ], [ 117.313411193199983, 42.409259101332353 ], [ 117.313423345925528, 42.409259068107517 ], [ 117.313423368343095, 42.409263571051454 ] ] ] } },
{ "type": "Feature", "properties": { "crown_id": 3918, "tree_id": "3920", "top_h_m": 24.557, "H_95_Mean": 24.3287, "DBH": 33.5878, "Carbon_kg": 240.042079, "area_m2": 22.25 }, "geometry": { "type": "Polygon", "coordinates": [ [ [ 117.313520545304655, 42.40925429931864 ], [ 117.313550927115855, 42.409254216225179 ], [ 117.31355090468918, 42.409249713281298 ], [ 117.313556981050965, 42.409249696661647 ], [ 117.313556913769659, 42.409236187829983 ], [ 117.313562990130151, 42.409236171210011 ], [ 117.313562967702609, 42.409231668266123 ], [ 117.31356904406266, 42.409231651645833 ], [ 117.31356895435087, 42.409213639870252 ], [ 117.313544648917627, 42.409213706349426 ], [ 117.313544626491435, 42.40920920340551 ], [ 117.31352639741776, 42.409209253261501 ], [ 117.313526374992875, 42.409204750317578 ], [ 117.31352029863541, 42.409204766935595 ], [ 117.313520276210951, 42.409200263991671 ], [ 117.313514199853927, 42.409200280609362 ], [ 117.313514267125967, 42.409213789441161 ], [ 117.313502114409275, 42.409213822675596 ], [ 117.313502159255606, 42.409222828563458 ], [ 117.313508235614819, 42.409222811946385 ], [ 117.313508347732878, 42.409245326665946 ], [ 117.313502271371505, 42.40924534328304 ], [ 117.313502293794684, 42.409249846226942 ], [ 117.313520522880168, 42.409249796374745 ], [ 117.313520545304655, 42.40925429931864 ] ] ] } }
]
}
