{
"type": "FeatureCollection",
"name": "tile_3_22",
"crs": { "type": "name", "properties": { "name": "urn:ogc:def:crs:OGC:1.3:CRS84" } },
"features": [
{ "type": "Feature", "properties": { "crown_id": 681, "tree_id": "681", "top_h_m": 18.444, "H_95_Mean": 18.0852, "DBH": 33.0965, "Carbon_kg": 195.529295, "area_m2": 36.25 }, "geometry": { "type": "Polygon", "coordinates": [ [ [ 117.315261305546542, 42.411046224174314 ], [ 117.315273458614911, 42.411046190752224 ], [ 117.315273436063634, 42.411041687810496 ], [ 117.315279512597371, 42.411041671098971 ], [ 117.315279490045654, 42.41103716815725 ], [ 117.315291643112261, 42.411037134733249 ], [ 117.315291575454509, 42.411023625908065 ], [ 117.315303728518501, 42.411023592482785 ], [ 117.315303683411614, 42.411014586599322 ], [ 117.315315836473829, 42.411014553172777 ], [ 117.31531581391954, 42.411010050231042 ], [ 117.31532796698086, 42.41101001680321 ], [ 117.315327921870548, 42.411001010919733 ], [ 117.315333998400334, 42.411000994205338 ], [ 117.315333975844737, 42.410996491263603 ], [ 117.315327899315392, 42.410996507978005 ], [ 117.315327854205108, 42.410987502094514 ], [ 117.315321777676616, 42.410987518808582 ], [ 117.3153217551219, 42.410983015866833 ], [ 117.315309602065781, 42.410983049294003 ], [ 117.315309556958127, 42.410974043410469 ], [ 117.315267021267601, 42.410974160395355 ], [ 117.315267043818395, 42.410978663337147 ], [ 117.315260967290712, 42.410978680047982 ], [ 117.315261034941798, 42.410992188873308 ], [ 117.315254958412822, 42.410992205583838 ], [ 117.315255048612556, 42.411010217350906 ], [ 117.315236819020384, 42.411010267480584 ], [ 117.315236909215017, 42.411028279247624 ], [ 117.315249062279946, 42.411028245828142 ], [ 117.315249084829489, 42.411032748769884 ], [ 117.315267314428183, 42.411032698638245 ], [ 117.315267336979019, 42.411037201579965 ], [ 117.315261260445695, 42.411037218290843 ], [ 117.315261305546542, 42.411046224174314 ] ] ] } },
{ "type": "Feature", "properties": { "crown_id": 689, "tree_id": "689", "top_h_m": 16.93, "H_95_Mean": 16.4713, "DBH": 28.8284, "Carbon_kg": 140.071375, "area_m2": 25.25 }, "geometry": { "type": "Polygon", "coordinates": [ [ [ 117.315054545631526, 42.411015271559791 ], [ 117.315115310944535, 42.411015104546195 ], [ 117.315115265864634, 42.411006098662547 ], [ 117.315127418925442, 42.411006065255975 ], [ 117.315127396384611, 42.411001562314155 ], [ 117.315133472914582, 42.411001545610389 ], [ 117.315133450373338, 42.410997042668569 ], [ 117.315121297314278, 42.410997076075773 ], [ 117.315121252233553, 42.410988070192104 ], [ 117.315109099176212, 42.410988103598022 ], [ 117.315109054097249, 42.410979097714339 ], [ 117.315096901041628, 42.41097913111895 ], [ 117.315096855964384, 42.410970125235238 ], [ 117.315078626383539, 42.410970175339735 ], [ 117.315078648920846, 42.41097467828159 ], [ 117.315066495866049, 42.410974711682975 ], [ 117.315066473329594, 42.410970208741105 ], [ 117.315060396802636, 42.410970225441311 ], [ 117.315060419338636, 42.410974728383181 ], [ 117.315054342811223, 42.410974745083074 ], [ 117.31505438788237, 42.410983750966814 ], [ 117.315048311354076, 42.41098376766638 ], [ 117.315048378959517, 42.410997276491983 ], [ 117.315054455489104, 42.41099725979241 ], [ 117.315054478024706, 42.411001762734244 ], [ 117.315048401494693, 42.411001779433832 ], [ 117.315048446565029, 42.411010785317544 ], [ 117.315054523095924, 42.411010768617956 ], [ 117.315054545631526, 42.411015271559791 ] ] ] } },
{ "type": "Feature", "properties": { "crown_id": 714, "tree_id": "714", "top_h_m": 16.618, "H_95_Mean": 16.5693, "DBH": 23.996, "Carbon_kg": 97.112586, "area_m2": 12.25 }, "geometry": { "type": "Polygon", "coordinates": [ [ [ 117.315212490350476, 42.411005831373863 ], [ 117.315248949532332, 42.411005731119353 ], [ 117.315248859334318, 42.410987719352264 ], [ 117.315254935862896, 42.410987702642068 ], [ 117.315254868213131, 42.410974193816713 ], [ 117.315260944740373, 42.410974177106205 ], [ 117.315260899639696, 42.410965171222621 ], [ 117.315242670060556, 42.410965221353194 ], [ 117.315242692609587, 42.410969724294986 ], [ 117.315230539555941, 42.410969757713758 ], [ 117.315230584652284, 42.410978763597356 ], [ 117.315212355069164, 42.410978813723126 ], [ 117.315212377616035, 42.410983316664911 ], [ 117.315218454144173, 42.410983299956648 ], [ 117.315218476691484, 42.41098780289844 ], [ 117.31521240016292, 42.41098781960671 ], [ 117.315212490350476, 42.411005831373863 ] ] ] } },
{ "type": "Feature", "properties": { "crown_id": 734, "tree_id": "734", "top_h_m": 20.494, "H_95_Mean": 19.8348, "DBH": 28.0161, "Carbon_kg": 147.591786, "area_m2": 16.0 }, "geometry": { "type": "Polygon", "coordinates": [ [ [ 117.315127351303005, 42.4109925564305 ], [ 117.315151657419349, 42.41099248961352 ], [ 117.315151634876798, 42.410987986671699 ], [ 117.315145558348149, 42.410988003376424 ], [ 117.315145535806053, 42.410983500434597 ], [ 117.315157688862456, 42.410983467024828 ], [ 117.315157666319507, 42.410978964083007 ], [ 117.315163742847261, 42.410978947377643 ], [ 117.315163697760482, 42.410969941493981 ], [ 117.315157621233595, 42.410969958199345 ], [ 117.315157576147698, 42.410960952315676 ], [ 117.315151499621678, 42.410960969020707 ], [ 117.315151477079169, 42.410956466078865 ], [ 117.315139324027953, 42.410956499487952 ], [ 117.315139301486354, 42.410951996546103 ], [ 117.315114995385628, 42.410952063360412 ], [ 117.315115017925507, 42.410956566302282 ], [ 117.315096788348598, 42.410956616409635 ], [ 117.315096833425784, 42.410965622293375 ], [ 117.315102909952287, 42.410965605591244 ], [ 117.315102955030369, 42.410974611474948 ], [ 117.315115108085124, 42.410974578069698 ], [ 117.315115153164953, 42.410983583953396 ], [ 117.315127306221413, 42.410983550546845 ], [ 117.315127351303005, 42.4109925564305 ] ] ] } },
{ "type": "Feature", "properties": { "crown_id": 770, "tree_id": "770", "top_h_m": 18.099, "H_95_Mean": 18.0996, "DBH": 24.6318, "Carbon_kg": 107.859224, "area_m2": 11.5 }, "geometry": { "type": "Polygon", "coordinates": [ [ [ 117.315175850814242, 42.410969908082294 ], [ 117.315188003868002, 42.41096987466932 ], [ 117.315187958777756, 42.410960868785672 ], [ 117.315194035303762, 42.410960852078716 ], [ 117.315193877485044, 42.410929331485839 ], [ 117.315181724439128, 42.410929364899424 ], [ 117.315181679349848, 42.410920359015705 ], [ 117.315175602827765, 42.410920375722007 ], [ 117.315175625371964, 42.41092487866387 ], [ 117.315169548849425, 42.410924895369838 ], [ 117.315169616480745, 42.41093840419542 ], [ 117.315157463433067, 42.410938437606411 ], [ 117.315157553604763, 42.410956449373828 ], [ 117.315163630130343, 42.410956432668478 ], [ 117.315163675217093, 42.410965438552154 ], [ 117.315175828269986, 42.410965405140466 ], [ 117.315175850814242, 42.410969908082294 ] ] ] } },
{ "type": "Feature", "properties": { "crown_id": 771, "tree_id": "771", "top_h_m": 18.581, "H_95_Mean": 18.7922, "DBH": 28.8268, "Carbon_kg": 151.412506, "area_m2": 19.75 }, "geometry": { "type": "Polygon", "coordinates": [ [ [ 117.315194125486002, 42.410978863845976 ], [ 117.315206278541439, 42.41097883043107 ], [ 117.315206255994994, 42.410974327489249 ], [ 117.315224485576834, 42.41097427736446 ], [ 117.315224440481373, 42.410965271480862 ], [ 117.315236593534166, 42.410965238062737 ], [ 117.315236570985562, 42.410960735120931 ], [ 117.315254800563423, 42.410960684991338 ], [ 117.315254778013539, 42.410956182049532 ], [ 117.315248701488017, 42.410956198759713 ], [ 117.31524865638913, 42.410947192876108 ], [ 117.315254732913758, 42.410947176165926 ], [ 117.315254710363874, 42.410942673224113 ], [ 117.315248633839687, 42.410942689934295 ], [ 117.315248611290244, 42.410938186992468 ], [ 117.315254687814019, 42.410938170282293 ], [ 117.315254642714294, 42.410929164398659 ], [ 117.3152485661914, 42.410929181108827 ], [ 117.315248543641971, 42.410924678167007 ], [ 117.315242467119489, 42.41092469487684 ], [ 117.315242489668478, 42.410929197818675 ], [ 117.315199954007994, 42.410929314778571 ], [ 117.315200134375715, 42.41096533831324 ], [ 117.315194057849311, 42.410965355020529 ], [ 117.315194125486002, 42.410978863845976 ] ] ] } },
{ "type": "Feature", "properties": { "crown_id": 772, "tree_id": "772", "top_h_m": 19.947, "H_95_Mean": 19.6279, "DBH": 33.1918, "Carbon_kg": 206.421704, "area_m2": 31.5 }, "geometry": { "type": "Polygon", "coordinates": [ [ [ 117.315327831649967, 42.410982999152765 ], [ 117.315339984706057, 42.410982965723683 ], [ 117.315339781702221, 42.41094243924784 ], [ 117.315333705178077, 42.41094245596252 ], [ 117.315333660067054, 42.41093345007895 ], [ 117.315327583543777, 42.41093346679331 ], [ 117.315327515878565, 42.41091995796792 ], [ 117.315309286312655, 42.410920008109045 ], [ 117.315309308866418, 42.410924511050851 ], [ 117.315303232343979, 42.41092452776391 ], [ 117.31530320979067, 42.410920024822104 ], [ 117.315291056746673, 42.410920058247264 ], [ 117.315291079299129, 42.410924561189084 ], [ 117.315278926254251, 42.410924594612951 ], [ 117.315278948805854, 42.410929097554771 ], [ 117.315272872282961, 42.410929114266217 ], [ 117.315272894834138, 42.410933617208038 ], [ 117.315266818310803, 42.410933633919171 ], [ 117.31526686341229, 42.410942639802798 ], [ 117.315260786888103, 42.410942656513619 ], [ 117.315260831988724, 42.410951662397224 ], [ 117.315272985038845, 42.410951628975255 ], [ 117.315273030141213, 42.410960634858853 ], [ 117.315266953615293, 42.410960651569994 ], [ 117.315266998716822, 42.41096965745357 ], [ 117.31531561093108, 42.410969523755298 ], [ 117.315315656039587, 42.410978529638825 ], [ 117.315327809094825, 42.410978496211015 ], [ 117.315327831649967, 42.410982999152765 ] ] ] } },
{ "type": "Feature", "properties": { "crown_id": 796, "tree_id": "796", "top_h_m": 20.209, "H_95_Mean": 20.2352, "DBH": 28.5085, "Carbon_kg": 154.684377, "area_m2": 16.5 }, "geometry": { "type": "Polygon", "coordinates": [ [ [ 117.315145378011508, 42.410951979841713 ], [ 117.315151454536675, 42.410951963137009 ], [ 117.315151364366727, 42.410933951369579 ], [ 117.315163517413566, 42.410933917959227 ], [ 117.315163449783554, 42.410920409133631 ], [ 117.315169526305652, 42.410920392427975 ], [ 117.315169503761908, 42.410915889486105 ], [ 117.315163427240236, 42.410915906191761 ], [ 117.315163404696918, 42.410911403249884 ], [ 117.315157328175673, 42.410911419955205 ], [ 117.315157305632795, 42.410906917013328 ], [ 117.315145152591171, 42.410906950423012 ], [ 117.315145175133168, 42.410911453364903 ], [ 117.315139098611922, 42.410911470069259 ], [ 117.315139121153507, 42.410915973011143 ], [ 117.315120891588407, 42.410916023122304 ], [ 117.315120914128684, 42.410920526064189 ], [ 117.315108761084389, 42.410920559470014 ], [ 117.315108783623785, 42.410925062411913 ], [ 117.315102707101218, 42.41092507911435 ], [ 117.315102797257197, 42.410943090881894 ], [ 117.315114950305841, 42.410943057476679 ], [ 117.31511497284572, 42.410947560418549 ], [ 117.31514535546944, 42.410947476899864 ], [ 117.315145378011508, 42.410951979841713 ] ] ] } },
{ "type": "Feature", "properties": { "crown_id": 819, "tree_id": "819", "top_h_m": 17.237, "H_95_Mean": 17.2508, "DBH": 24.5937, "Carbon_kg": 104.51163, "area_m2": 12.5 }, "geometry": { "type": "Polygon", "coordinates": [ [ [ 117.315187778417027, 42.410924845250939 ], [ 117.315236390597022, 42.410924711586368 ], [ 117.315236368048474, 42.410920208644519 ], [ 117.315248521092556, 42.410920175225158 ], [ 117.31524845344434, 42.410906666399654 ], [ 117.315236300402873, 42.410906699818995 ], [ 117.315236277854353, 42.410902196877146 ], [ 117.315230201334018, 42.410902213586326 ], [ 117.315230156237845, 42.410893207702607 ], [ 117.315218003198979, 42.41089324112 ], [ 117.315218025746191, 42.410897744061877 ], [ 117.315199796186505, 42.410897794185551 ], [ 117.315199841278314, 42.410906800069299 ], [ 117.315193764757552, 42.410906816776553 ], [ 117.315193787303031, 42.410911319718423 ], [ 117.315187710781814, 42.410911336425372 ], [ 117.315187778417027, 42.410924845250939 ] ] ] } },
{ "type": "Feature", "properties": { "crown_id": 844, "tree_id": "844", "top_h_m": 18.821, "H_95_Mean": 18.3879, "DBH": 29.2468, "Carbon_kg": 153.899165, "area_m2": 21.75 }, "geometry": { "type": "Polygon", "coordinates": [ [ [ 117.315090508979793, 42.410916106634446 ], [ 117.315114815066678, 42.410916039825374 ], [ 117.315114792526842, 42.410911536883475 ], [ 117.315133022090649, 42.410911486773301 ], [ 117.315132999549505, 42.41090698383141 ], [ 117.315139076070338, 42.410906967127374 ], [ 117.315139053528782, 42.410902464185476 ], [ 117.315157283089917, 42.410902414071437 ], [ 117.315157260547039, 42.410897911129545 ], [ 117.315151184027116, 42.410897927834547 ], [ 117.315151071315, 42.410875413125041 ], [ 117.315120688726083, 42.410875496645126 ], [ 117.315120643645614, 42.410866490761265 ], [ 117.31509633757787, 42.410866557571509 ], [ 117.315096405193358, 42.410880066397326 ], [ 117.315090328675097, 42.410880083099102 ], [ 117.315090508979793, 42.410916106634446 ] ] ] } },
{ "type": "Feature", "properties": { "crown_id": 845, "tree_id": "845", "top_h_m": 17.776, "H_95_Mean": 19.8631, "DBH": 30.6087, "Carbon_kg": 176.562401, "area_m2": 22.5 }, "geometry": { "type": "Polygon", "coordinates": [ [ [ 117.315254597614583, 42.410920158515005 ], [ 117.315260674136624, 42.410920141804517 ], [ 117.315260651586328, 42.41091563886269 ], [ 117.315272804629515, 42.410915605440763 ], [ 117.315272827180664, 42.410920108382577 ], [ 117.315284980224675, 42.410920074959357 ], [ 117.31528495767266, 42.410915572017537 ], [ 117.315297110715775, 42.410915538593031 ], [ 117.315297065610011, 42.410906532709397 ], [ 117.315290989089334, 42.410906549421803 ], [ 117.315290966536892, 42.410902046479968 ], [ 117.315297043057143, 42.41090202976757 ], [ 117.315296997951421, 42.410893023883894 ], [ 117.315290921432037, 42.410893040596306 ], [ 117.31529083122237, 42.410875028828933 ], [ 117.31528475470472, 42.410875045540998 ], [ 117.315284709600789, 42.410866039657286 ], [ 117.315272556567209, 42.410866073080449 ], [ 117.315272579118314, 42.410870576022305 ], [ 117.315266502601062, 42.410870592733403 ], [ 117.315266480050397, 42.41086608979154 ], [ 117.315242173983151, 42.410866156632714 ], [ 117.315242196532068, 42.410870659574591 ], [ 117.315236120014788, 42.410870676284084 ], [ 117.315236165111799, 42.410879682167838 ], [ 117.315242241629917, 42.410879665458346 ], [ 117.315242286727795, 42.410888671342072 ], [ 117.315236210208781, 42.410888688051571 ], [ 117.31523625530582, 42.410897693935283 ], [ 117.315242331825687, 42.410897677225783 ], [ 117.315242354374647, 42.410902180167639 ], [ 117.315254507415233, 42.410902146747659 ], [ 117.315254597614583, 42.410920158515005 ] ] ] } },
{ "type": "Feature", "properties": { "crown_id": 867, "tree_id": "867", "top_h_m": 20.749, "H_95_Mean": 20.4943, "DBH": 30.705, "Carbon_kg": 181.002012, "area_m2": 21.5 }, "geometry": { "type": "Polygon", "coordinates": [ [ [ 117.315169481218135, 42.410911386544242 ], [ 117.315181634260597, 42.410911353131972 ], [ 117.315181611715985, 42.410906850190102 ], [ 117.315187688236776, 42.410906833483494 ], [ 117.315187665691724, 42.41090233054161 ], [ 117.31519374221206, 42.410902313834683 ], [ 117.315193697121103, 42.410893307950928 ], [ 117.31521192667951, 42.410893257828221 ], [ 117.315211904132738, 42.410888754886351 ], [ 117.315230133689781, 42.410888704760751 ], [ 117.315230066045586, 42.410875195935127 ], [ 117.31522398952788, 42.410875212643973 ], [ 117.31522396698027, 42.410870709702095 ], [ 117.315205737428428, 42.410870759826693 ], [ 117.315205714882111, 42.410866256884802 ], [ 117.315199638365243, 42.410866273592362 ], [ 117.315199593273519, 42.410857267708565 ], [ 117.315193516757518, 42.410857284415791 ], [ 117.315193494212096, 42.410852781473878 ], [ 117.31518134118096, 42.41085281488737 ], [ 117.315181386270083, 42.410861820771188 ], [ 117.315175309753613, 42.410861837477455 ], [ 117.31517533229777, 42.410866340419361 ], [ 117.31516317926399, 42.410866373830928 ], [ 117.315163224350542, 42.410875379714746 ], [ 117.315157147832778, 42.410875396420053 ], [ 117.315157238004176, 42.410893408187661 ], [ 117.315163314523687, 42.41089339148234 ], [ 117.315163359610295, 42.410902397366115 ], [ 117.315169436130645, 42.410902380660474 ], [ 117.315169481218135, 42.410911386544242 ] ] ] } },
{ "type": "Feature", "properties": { "crown_id": 908, "tree_id": "908", "top_h_m": 20.185, "H_95_Mean": 19.9206, "DBH": 36.7995, "Carbon_kg": 256.373987, "area_m2": 45.75 }, "geometry": { "type": "Polygon", "coordinates": [ [ [ 117.3151267427032, 42.410870976999824 ], [ 117.315157125289929, 42.410870893478133 ], [ 117.315157080204273, 42.410861887594315 ], [ 117.315169233237185, 42.410861854183395 ], [ 117.315169210693497, 42.410857351241482 ], [ 117.315175287209499, 42.41085733453555 ], [ 117.315175242121256, 42.410848328651703 ], [ 117.315193471666674, 42.410848278531965 ], [ 117.315193449121253, 42.410843775590052 ], [ 117.315181296091865, 42.410843809003538 ], [ 117.315181183369191, 42.410821294293875 ], [ 117.315175106856671, 42.410821311000113 ], [ 117.3151750843126, 42.410816808058165 ], [ 117.315169007800492, 42.410816824764076 ], [ 117.315168985256847, 42.410812321822128 ], [ 117.315162908745165, 42.41081233852772 ], [ 117.31516286365877, 42.410803332643809 ], [ 117.315156787147956, 42.410803349349067 ], [ 117.315156809690706, 42.410807852291029 ], [ 117.315126427134416, 42.410807935812528 ], [ 117.315126449675006, 42.410812438754512 ], [ 117.31512037316331, 42.410812455457837 ], [ 117.31512039570346, 42.410816958399806 ], [ 117.315108242679173, 42.410816991805518 ], [ 117.315108220139876, 42.410812488863542 ], [ 117.315102143628152, 42.410812505565914 ], [ 117.315102121089296, 42.410808002623945 ], [ 117.315083891555375, 42.410808052729102 ], [ 117.315083936630515, 42.410817058613077 ], [ 117.315077860118322, 42.410817075314171 ], [ 117.315077927729718, 42.410830584140108 ], [ 117.315084004243204, 42.410830567439028 ], [ 117.315084049318344, 42.41083957332296 ], [ 117.315090125832697, 42.410839556621553 ], [ 117.315090193446792, 42.410853065447427 ], [ 117.315096269962424, 42.410853048745665 ], [ 117.315096292500911, 42.41085755168762 ], [ 117.31510844553307, 42.410857518283152 ], [ 117.31510846807241, 42.4108620212251 ], [ 117.315126697621892, 42.410861971115963 ], [ 117.3151267427032, 42.410870976999824 ] ] ] } },
{ "type": "Feature", "properties": { "crown_id": 909, "tree_id": "909", "top_h_m": 20.262, "H_95_Mean": 19.8946, "DBH": 31.1453, "Carbon_kg": 183.02796, "area_m2": 24.0 }, "geometry": { "type": "Polygon", "coordinates": [ [ [ 117.315211791398951, 42.410866240176929 ], [ 117.315236097466311, 42.410866173342193 ], [ 117.315236074917834, 42.410861670400315 ], [ 117.315260380983375, 42.410861603560441 ], [ 117.315260335882954, 42.410852597676694 ], [ 117.315248182851946, 42.410852631097264 ], [ 117.315248160302602, 42.410848128155365 ], [ 117.315242083787538, 42.41084814486517 ], [ 117.315242038689732, 42.41083913898138 ], [ 117.315248115203957, 42.410839122271589 ], [ 117.315248070105326, 42.410830116387778 ], [ 117.315235917078638, 42.41083014980704 ], [ 117.315235871981756, 42.410821143923215 ], [ 117.315229795469264, 42.410821160632345 ], [ 117.315229772921299, 42.410816657690432 ], [ 117.315235849433321, 42.410816640981288 ], [ 117.315235804336496, 42.410807635097449 ], [ 117.315223651314142, 42.410807668515389 ], [ 117.315223673861681, 42.410812171457323 ], [ 117.315217597350042, 42.410812188165806 ], [ 117.315217574802944, 42.410807685223872 ], [ 117.315205421780533, 42.410807718639887 ], [ 117.315205444326779, 42.410812221581821 ], [ 117.315193291303501, 42.410812254996543 ], [ 117.315193358939652, 42.410825763822366 ], [ 117.315187282426677, 42.410825780529244 ], [ 117.315187350061578, 42.410839289355039 ], [ 117.315199503090099, 42.410839255940921 ], [ 117.315199570727643, 42.410852764766659 ], [ 117.315205647243204, 42.410852748059106 ], [ 117.315205692335795, 42.410861753942918 ], [ 117.315211768852222, 42.410861737235031 ], [ 117.315211791398951, 42.410866240176929 ] ] ] } }
]
}
