{
"type": "FeatureCollection",
"name": "tile_7_17",
"crs": { "type": "name", "properties": { "name": "urn:ogc:def:crs:OGC:1.3:CRS84" } },
"features": [
{ "type": "Feature", "properties": { "crown_id": 1993, "tree_id": "1993", "top_h_m": 20.745, "H_95_Mean": 20.5862, "DBH": 27.0298, "Carbon_kg": 140.359724, "area_m2": 13.0 }, "geometry": { "type": "Polygon", "coordinates": [ [ [ 117.313841724001676, 42.410298117609145 ], [ 117.313872106315685, 42.410298034428912 ], [ 117.31387208386522, 42.410293531485998 ], [ 117.313890313252244, 42.410293481574001 ], [ 117.313890335704031, 42.410297984516923 ], [ 117.31389641216677, 42.410297967878947 ], [ 117.313896344810189, 42.410284459050203 ], [ 117.313890268348715, 42.410284475688172 ], [ 117.313890245896943, 42.410279972745251 ], [ 117.313896322357991, 42.410279956107281 ], [ 117.313896299905792, 42.410275453164367 ], [ 117.313890223445199, 42.410275469802322 ], [ 117.31389020099347, 42.4102709668594 ], [ 117.313878048073107, 42.410271000134344 ], [ 117.313878025622245, 42.410266497191401 ], [ 117.31387194916249, 42.41026651382839 ], [ 117.313871926712082, 42.410262010885447 ], [ 117.313859773793425, 42.410262044158465 ], [ 117.313859818692563, 42.410271050044365 ], [ 117.313847665772172, 42.410271083316104 ], [ 117.313847710669606, 42.41028008920199 ], [ 117.313841634208529, 42.41028010583738 ], [ 117.313841724001676, 42.410298117609145 ] ] ] } },
{ "type": "Feature", "properties": { "crown_id": 1994, "tree_id": "1994", "top_h_m": 21.24, "H_95_Mean": 20.7818, "DBH": 32.2974, "Carbon_kg": 202.077907, "area_m2": 25.5 }, "geometry": { "type": "Polygon", "coordinates": [ [ [ 117.313951122787614, 42.410302321065558 ], [ 117.313963275713888, 42.410302287782834 ], [ 117.313963230799928, 42.410293281897069 ], [ 117.313975383724454, 42.410293248613073 ], [ 117.313975248977428, 42.410266230955749 ], [ 117.313969172517758, 42.410266247597882 ], [ 117.313969150060373, 42.410261744654981 ], [ 117.313963073601144, 42.410261761296809 ], [ 117.313963051144185, 42.410257258353894 ], [ 117.31395089822658, 42.410257291636562 ], [ 117.313950853314452, 42.410248285750718 ], [ 117.313920471024687, 42.410248368951734 ], [ 117.313920538386398, 42.41026187778052 ], [ 117.313914461927112, 42.410261894419762 ], [ 117.313914506834067, 42.410270900305626 ], [ 117.313908430373914, 42.410270916944548 ], [ 117.313908452826979, 42.410275419887469 ], [ 117.3139023763664, 42.410275436526078 ], [ 117.313902466176913, 42.41029344829775 ], [ 117.313932848488491, 42.410293365101431 ], [ 117.313932870943304, 42.410297868044324 ], [ 117.313951100331465, 42.410297818122672 ], [ 117.313951122787614, 42.410302321065558 ] ] ] } },
{ "type": "Feature", "properties": { "crown_id": 2022, "tree_id": "2022", "top_h_m": 18.036, "H_95_Mean": 17.8202, "DBH": 29.9401, "Carbon_kg": 158.375584, "area_m2": 25.25 }, "geometry": { "type": "Polygon", "coordinates": [ [ [ 117.314078728512712, 42.410301971532732 ], [ 117.314084804975764, 42.410301954884773 ], [ 117.314084737578725, 42.410288446056285 ], [ 117.314090814040441, 42.410288429408006 ], [ 117.314090746642151, 42.410274920579489 ], [ 117.314096823102588, 42.410274903930905 ], [ 117.314096755703019, 42.41026139510236 ], [ 117.314102832162149, 42.410261378453463 ], [ 117.314102787228265, 42.410252372567754 ], [ 117.314072404936979, 42.410252455809029 ], [ 117.314072382472204, 42.410247952866158 ], [ 117.314060229556532, 42.410247986160414 ], [ 117.314060184628758, 42.410238980274656 ], [ 117.31404803171479, 42.410239013567605 ], [ 117.314048076640816, 42.410248019453384 ], [ 117.314023770809342, 42.410248086035445 ], [ 117.314023793270621, 42.410252588978338 ], [ 117.31401771681233, 42.410252605623057 ], [ 117.314017761734036, 42.410261611508822 ], [ 117.314023838193208, 42.410261594864103 ], [ 117.314023860654515, 42.410266097806982 ], [ 117.314036013573755, 42.410266064516577 ], [ 117.314036080960264, 42.410279573345179 ], [ 117.314042157421184, 42.410279556699486 ], [ 117.314042179883813, 42.410284059642336 ], [ 117.314054332806478, 42.41028402634997 ], [ 117.314054355269974, 42.410288529292842 ], [ 117.314060431731733, 42.410288512646162 ], [ 117.314060454195683, 42.410293015589005 ], [ 117.31407868358221, 42.410292965647074 ], [ 117.314078728512712, 42.410301971532732 ] ] ] } },
{ "type": "Feature", "properties": { "crown_id": 2065, "tree_id": "2065", "top_h_m": 19.73, "H_95_Mean": 19.5695, "DBH": 27.9487, "Carbon_kg": 145.711871, "area_m2": 16.25 }, "geometry": { "type": "Polygon", "coordinates": [ [ [ 117.313896277453622, 42.410270950221431 ], [ 117.313902353913775, 42.410270933583156 ], [ 117.313902331461165, 42.41026643064022 ], [ 117.313908407920877, 42.410266414001612 ], [ 117.313908363014804, 42.410257408115747 ], [ 117.313914439473635, 42.41025739147684 ], [ 117.313914349659811, 42.410239379705082 ], [ 117.313908273202713, 42.410239396343989 ], [ 117.313908250749705, 42.410234893401039 ], [ 117.313902174293034, 42.41023491003962 ], [ 117.313902151840452, 42.410230407096655 ], [ 117.313896075384207, 42.410230423734916 ], [ 117.31389605293208, 42.410225920791952 ], [ 117.313889976476261, 42.410225937429885 ], [ 117.31388995402456, 42.410221434486921 ], [ 117.313859571747599, 42.410221517671744 ], [ 117.313859594197098, 42.410226020614729 ], [ 117.313865670652959, 42.410226003978408 ], [ 117.313865827802758, 42.410257524579173 ], [ 117.31387798072052, 42.410257491305508 ], [ 117.313878003171368, 42.410261994248458 ], [ 117.313884079630682, 42.410261977611157 ], [ 117.313884102081985, 42.410266480554093 ], [ 117.313896255001453, 42.410266447278495 ], [ 117.313896277453622, 42.410270950221431 ] ] ] } },
{ "type": "Feature", "properties": { "crown_id": 2106, "tree_id": "2106", "top_h_m": 22.713, "H_95_Mean": 22.2495, "DBH": 35.3658, "Carbon_kg": 252.633182, "area_m2": 32.0 }, "geometry": { "type": "Polygon", "coordinates": [ [ [ 117.313981280520565, 42.410257208427474 ], [ 117.313993433438128, 42.410257175141588 ], [ 117.313993321142604, 42.410234660427044 ], [ 117.31398724468599, 42.410234677070143 ], [ 117.313987042558281, 42.41019415058372 ], [ 117.313993119010973, 42.410194133940649 ], [ 117.313993074092892, 42.410185128054742 ], [ 117.314005226996528, 42.410185094767655 ], [ 117.314005182076727, 42.410176088881755 ], [ 117.313986952723894, 42.410176138811892 ], [ 117.313986997641095, 42.41018514469782 ], [ 117.313980921189255, 42.41018516134055 ], [ 117.313980943647408, 42.410189664283514 ], [ 117.313974867195142, 42.410189680925946 ], [ 117.31397484473743, 42.410185177982981 ], [ 117.313968768285577, 42.410185194625086 ], [ 117.313968745828291, 42.410180691682108 ], [ 117.313950516474037, 42.41018074160646 ], [ 117.313950538930058, 42.410185244549432 ], [ 117.313956615381883, 42.410185227908308 ], [ 117.313956637838331, 42.410189730851272 ], [ 117.313944484933756, 42.410189764133214 ], [ 117.313944507389309, 42.410194267076186 ], [ 117.313938430936588, 42.410194283716677 ], [ 117.313938633033004, 42.410234810203292 ], [ 117.313932556576333, 42.410234826843478 ], [ 117.313932601485845, 42.410243832729364 ], [ 117.313956907315898, 42.41024376616663 ], [ 117.313956952228892, 42.410252772052466 ], [ 117.313981258062313, 42.410252705484574 ], [ 117.313981280520565, 42.410257208427474 ] ] ] } },
{ "type": "Feature", "properties": { "crown_id": 2107, "tree_id": "2107", "top_h_m": 22.095, "H_95_Mean": 21.7561, "DBH": 32.1394, "Carbon_kg": 205.586718, "area_m2": 23.0 }, "geometry": { "type": "Polygon", "coordinates": [ [ [ 117.314005541435705, 42.410248135968615 ], [ 117.314017694351477, 42.41024810268015 ], [ 117.314017671890639, 42.410243599737264 ], [ 117.314041977720379, 42.410243533156489 ], [ 117.314041932795249, 42.41023452727071 ], [ 117.314054085708349, 42.410234493978407 ], [ 117.314054040781485, 42.410225488092614 ], [ 117.314047964325781, 42.410225504738918 ], [ 117.314047919399812, 42.410216498853124 ], [ 117.314041842945002, 42.410216515499108 ], [ 117.314041798019929, 42.410207509613279 ], [ 117.314035721565958, 42.41020752625893 ], [ 117.314035676641765, 42.410198520373086 ], [ 117.314029600188661, 42.41019853701841 ], [ 117.31402953280373, 42.410185028189609 ], [ 117.314023456351919, 42.410185044834599 ], [ 117.314023478813155, 42.410189547777541 ], [ 117.314017402360918, 42.410189564422211 ], [ 117.314017424821685, 42.410194067365154 ], [ 117.314011348369021, 42.410194084009511 ], [ 117.31401132590868, 42.410189581066568 ], [ 117.313999173004206, 42.410189614354316 ], [ 117.313999217923154, 42.410198620240216 ], [ 117.313993141470021, 42.410198636883607 ], [ 117.313993298683513, 42.410230157484122 ], [ 117.313999375139673, 42.41023014084071 ], [ 117.313999420058721, 42.410239146726546 ], [ 117.314005496515747, 42.410239130082793 ], [ 117.314005541435705, 42.410248135968615 ] ] ] } },
{ "type": "Feature", "properties": { "crown_id": 2108, "tree_id": "2108", "top_h_m": 21.29, "H_95_Mean": 21.0149, "DBH": 31.7925, "Carbon_kg": 197.057154, "area_m2": 23.5 }, "geometry": { "type": "Polygon", "coordinates": [ [ [ 117.314078458930041, 42.41024793621856 ], [ 117.314108841219152, 42.410247852975672 ], [ 117.31410879628443, 42.410238847089957 ], [ 117.314114872741342, 42.41023883044042 ], [ 117.314114827805781, 42.410229824554683 ], [ 117.314120904261827, 42.410229807904841 ], [ 117.314120926730055, 42.410234310847699 ], [ 117.314127003186542, 42.410234294197522 ], [ 117.314126980717887, 42.410229791254665 ], [ 117.314133057173947, 42.410229774604161 ], [ 117.314132989766719, 42.410216265775567 ], [ 117.314126913311981, 42.410216282426063 ], [ 117.314126868374714, 42.410207276540305 ], [ 117.314120791920857, 42.41020729319046 ], [ 117.314120746984472, 42.410198287304688 ], [ 117.314102517625415, 42.410198337253235 ], [ 117.314102540092293, 42.410202840196128 ], [ 117.314084310731872, 42.410202890141782 ], [ 117.314084333197457, 42.410207393084676 ], [ 117.314078256743528, 42.410207409732593 ], [ 117.314078279208687, 42.410211912675493 ], [ 117.314066126299949, 42.410211945970332 ], [ 117.31406614876424, 42.410216448913246 ], [ 117.314053995854621, 42.41021648220682 ], [ 117.314054018318046, 42.410220985149721 ], [ 117.314060094773282, 42.41022096850309 ], [ 117.314060162164878, 42.41023447733177 ], [ 117.314066238621422, 42.410234460684819 ], [ 117.314066283550062, 42.410243466570577 ], [ 117.31407843646484, 42.410243433275681 ], [ 117.314078458930041, 42.41024793621856 ] ] ] } },
{ "type": "Feature", "properties": { "crown_id": 2117, "tree_id": "2117", "top_h_m": 19.563, "H_95_Mean": 19.4428, "DBH": 26.8129, "Carbon_kg": 133.509365, "area_m2": 14.0 }, "geometry": { "type": "Polygon", "coordinates": [ [ [ 117.313920448570784, 42.410243866008784 ], [ 117.313926525028322, 42.410243849369238 ], [ 117.313926457665389, 42.410230340540409 ], [ 117.313932534121591, 42.410230323900535 ], [ 117.313932332029154, 42.410189797413878 ], [ 117.313938408481448, 42.410189780773706 ], [ 117.313938386026322, 42.410185277830735 ], [ 117.313944462478176, 42.410185261190243 ], [ 117.313944440022624, 42.410180758247265 ], [ 117.313914057765444, 42.410180841446461 ], [ 117.313914125125606, 42.410194350275425 ], [ 117.313908048672857, 42.410194366914304 ], [ 117.313908093578775, 42.410203372800282 ], [ 117.313902017125145, 42.410203389438841 ], [ 117.313902039577698, 42.41020789238182 ], [ 117.313895963123628, 42.410207909020066 ], [ 117.313896030479953, 42.410221417848994 ], [ 117.31390210693533, 42.410221401210734 ], [ 117.313902129387884, 42.410225904153698 ], [ 117.313908205843703, 42.410225887515118 ], [ 117.313908228296697, 42.410230390458068 ], [ 117.313914304752927, 42.410230373819182 ], [ 117.313914327206362, 42.410234876762125 ], [ 117.313920403663033, 42.410234860122905 ], [ 117.313920448570784, 42.410243866008784 ] ] ] } },
{ "type": "Feature", "properties": { "crown_id": 2164, "tree_id": "2164", "top_h_m": 21.288, "H_95_Mean": 21.2042, "DBH": 26.7065, "Carbon_kg": 139.414377, "area_m2": 11.75 }, "geometry": { "type": "Polygon", "coordinates": [ [ [ 117.314047896936827, 42.410211995910203 ], [ 117.31406004984558, 42.410211962617289 ], [ 117.314060027381757, 42.410207459674382 ], [ 117.314072180289614, 42.410207426380175 ], [ 117.314072157824896, 42.410202923437268 ], [ 117.314078234278384, 42.410202906789685 ], [ 117.314078166882993, 42.410189397960956 ], [ 117.314072090430798, 42.410189414608531 ], [ 117.314072067966109, 42.41018491166561 ], [ 117.314065991514354, 42.410184928312866 ], [ 117.31406594658587, 42.410175922427001 ], [ 117.314059870134983, 42.41017593907393 ], [ 117.31405982520738, 42.410166933188052 ], [ 117.314041595857276, 42.410166983126864 ], [ 117.314041640782278, 42.410175989012764 ], [ 117.314035564331377, 42.4101760056584 ], [ 117.314035654179676, 42.410194017430143 ], [ 117.314041730632326, 42.410194000784493 ], [ 117.314041775557371, 42.410203006670358 ], [ 117.314047852010887, 42.410202990024388 ], [ 117.314047896936827, 42.410211995910203 ] ] ] } },
{ "type": "Feature", "properties": { "crown_id": 2171, "tree_id": "2171", "top_h_m": 18.617, "H_95_Mean": 18.4301, "DBH": 29.1918, "Carbon_kg": 153.524422, "area_m2": 21.5 }, "geometry": { "type": "Polygon", "coordinates": [ [ [ 117.313859549298073, 42.410217014728758 ], [ 117.313889931572902, 42.410216931543957 ], [ 117.31388986421787, 42.410203422715007 ], [ 117.3138959406715, 42.410203406077088 ], [ 117.313895918219401, 42.410198903134102 ], [ 117.313901994672605, 42.410198886495863 ], [ 117.313901949767555, 42.410189880609884 ], [ 117.313908026219892, 42.410189863971318 ], [ 117.313907913955163, 42.410167349256341 ], [ 117.313901837505014, 42.410167365894885 ], [ 117.313901815052517, 42.410162862951871 ], [ 117.313895738602795, 42.410162879590089 ], [ 117.313895761054866, 42.410167382533103 ], [ 117.313883608154512, 42.410167415808587 ], [ 117.313883585703337, 42.410162912865559 ], [ 117.31387143280385, 42.410162946139749 ], [ 117.313871455254159, 42.410167449082778 ], [ 117.313865378803982, 42.41016746571939 ], [ 117.313865423703774, 42.410176471605432 ], [ 117.313859347252702, 42.410176488241724 ], [ 117.313859369702172, 42.410180991184738 ], [ 117.313853293250673, 42.410181007820718 ], [ 117.313853360597804, 42.41019451664976 ], [ 117.313847284144984, 42.41019453328542 ], [ 117.313847306593587, 42.410199036228427 ], [ 117.313841230140355, 42.410199052863774 ], [ 117.313841252588531, 42.410203555806774 ], [ 117.313853405495919, 42.410203522535774 ], [ 117.313853450394021, 42.410212528421766 ], [ 117.313859526848574, 42.410212511785772 ], [ 117.313859549298073, 42.410217014728758 ] ] ] } },
{ "type": "Feature", "properties": { "crown_id": 2262, "tree_id": "2262", "top_h_m": 22.054, "H_95_Mean": 21.6342, "DBH": 34.0267, "Carbon_kg": 229.879253, "area_m2": 29.0 }, "geometry": { "type": "MultiPolygon", "coordinates": [ [ [ [ 117.313913967951947, 42.410162829674462 ], [ 117.313914035312052, 42.410176338503476 ], [ 117.313974799821963, 42.410176172097046 ], [ 117.313974777364251, 42.410171669154082 ], [ 117.313986930265287, 42.410171635868927 ], [ 117.313986885348143, 42.410162629982977 ], [ 117.313980808898478, 42.410162646625707 ], [ 117.313980629233527, 42.410126623081759 ], [ 117.313968476341159, 42.410126656366209 ], [ 117.31396845388393, 42.410122153423195 ], [ 117.313944148100873, 42.410122219988224 ], [ 117.313944170556354, 42.410126722931238 ], [ 117.313932017663944, 42.410126756211831 ], [ 117.313932062573201, 42.410135762097873 ], [ 117.313925986126094, 42.410135778737697 ], [ 117.31392600858031, 42.410140281680718 ], [ 117.313919932132777, 42.410140298320215 ], [ 117.313919954586524, 42.410144801263236 ], [ 117.313913878138564, 42.410144817902406 ], [ 117.313913923045249, 42.410153823788441 ], [ 117.313919999494104, 42.410153807149257 ], [ 117.313920044401669, 42.410162813035278 ], [ 117.313913967951947, 42.410162829674462 ] ] ], [ [ [ 117.313913967951947, 42.410162829674462 ], [ 117.313913945498612, 42.410158326731455 ], [ 117.313907869049331, 42.410158343370306 ], [ 117.31390789150224, 42.410162846313334 ], [ 117.313913967951947, 42.410162829674462 ] ] ] ] } },
{ "type": "Feature", "properties": { "crown_id": 2270, "tree_id": "2270", "top_h_m": 21.804, "H_95_Mean": 21.5922, "DBH": 32.8875, "Carbon_kg": 214.384604, "area_m2": 25.5 }, "geometry": { "type": "Polygon", "coordinates": [ [ [ 117.314011280987998, 42.410180575180675 ], [ 117.314023433890725, 42.410180541891656 ], [ 117.314023411429517, 42.410176038948705 ], [ 117.314029487880461, 42.410176022303716 ], [ 117.314029465418812, 42.410171519360773 ], [ 117.314035541869302, 42.410171502715457 ], [ 117.314035496945181, 42.41016249682955 ], [ 117.314041573394803, 42.410162480183921 ], [ 117.314041550932302, 42.410157977240971 ], [ 117.314047627381484, 42.410157960595029 ], [ 117.314047582455643, 42.410148954709108 ], [ 117.314041506007342, 42.410148971355049 ], [ 117.314041393695064, 42.410126456640192 ], [ 117.314035317248937, 42.410126473285786 ], [ 117.314035272324929, 42.410117467399829 ], [ 117.313998813653257, 42.410117567266667 ], [ 117.313998858572049, 42.410126573152674 ], [ 117.31398670567971, 42.410126606439057 ], [ 117.313986817972449, 42.410149121154035 ], [ 117.313992894420792, 42.410149104510992 ], [ 117.313993006715819, 42.410171619225871 ], [ 117.314011236067344, 42.410171569294768 ], [ 117.314011280987998, 42.410180575180675 ] ] ] } },
{ "type": "Feature", "properties": { "crown_id": 2285, "tree_id": "2285", "top_h_m": 21.858, "H_95_Mean": 21.7071, "DBH": 32.0149, "Carbon_kg": 203.7129, "area_m2": 22.75 }, "geometry": { "type": "Polygon", "coordinates": [ [ [ 117.313847082107642, 42.410154006798173 ], [ 117.313901770147567, 42.410153857065843 ], [ 117.313901657885225, 42.410131342350709 ], [ 117.313895581438544, 42.410131358988899 ], [ 117.313895536534503, 42.410122353102807 ], [ 117.313889460088674, 42.410122369740691 ], [ 117.313889392733984, 42.410108860911521 ], [ 117.313883316289463, 42.410108877549071 ], [ 117.31388329383833, 42.410104374606 ], [ 117.313877217394236, 42.410104391243216 ], [ 117.313877194943572, 42.410099888300152 ], [ 117.313871118499904, 42.410099904937049 ], [ 117.313871140950141, 42.410104407880112 ], [ 117.313865064506047, 42.410104424516696 ], [ 117.313865109405683, 42.410113430402831 ], [ 117.313859032960721, 42.410113447039102 ], [ 117.31385905541012, 42.410117949982165 ], [ 117.313846902519288, 42.41011798325372 ], [ 117.31384692496782, 42.410122486196791 ], [ 117.313834772076092, 42.410122519467059 ], [ 117.313834794523757, 42.410127022410123 ], [ 117.313828718077446, 42.410127039044788 ], [ 117.313828762971923, 42.41013604493093 ], [ 117.313834839419087, 42.410136028296264 ], [ 117.313834861866781, 42.410140531239328 ], [ 117.313847014761976, 42.410140497969039 ], [ 117.313847082107642, 42.410154006798173 ] ] ] } },
{ "type": "Feature", "properties": { "crown_id": 2286, "tree_id": "2286", "top_h_m": 21.859, "H_95_Mean": 21.485, "DBH": 30.7199, "Carbon_kg": 186.309212, "area_m2": 19.75 }, "geometry": { "type": "Polygon", "coordinates": [ [ [ 117.314053726293992, 42.410162446891704 ], [ 117.314059802743586, 42.410162430245101 ], [ 117.314059780279806, 42.410157927302158 ], [ 117.314065856728945, 42.410157910655251 ], [ 117.314065834264738, 42.410153407712308 ], [ 117.314084063610863, 42.410153357769644 ], [ 117.314084041145335, 42.410148854826701 ], [ 117.314090117593594, 42.410148838178507 ], [ 117.314090095127668, 42.410144335235557 ], [ 117.314102248023289, 42.410144301938196 ], [ 117.314102135689296, 42.410121787223453 ], [ 117.314096059243653, 42.410121803872272 ], [ 117.314095991844624, 42.410108295043372 ], [ 117.314083838955924, 42.410108328340044 ], [ 117.314083861421395, 42.410112831283023 ], [ 117.314041326307759, 42.410112947811236 ], [ 117.314041371232619, 42.410121953697214 ], [ 117.31404744767832, 42.410121937051287 ], [ 117.314047559992758, 42.410144451766143 ], [ 117.314053636440619, 42.410144435119889 ], [ 117.314053726293992, 42.410162446891704 ] ] ] } }
]
}
