{
"type": "FeatureCollection",
"name": "tile_15_22",
"crs": { "type": "name", "properties": { "name": "urn:ogc:def:crs:OGC:1.3:CRS84" } },
"features": [
{ "type": "Feature", "properties": { "crown_id": 4502, "tree_id": "4504", "top_h_m": 22.328, "H_95_Mean": 22.3091, "DBH": 32.1522, "Carbon_kg": 208.82914, "area_m2": 22.0 }, "geometry": { "type": "Polygon", "coordinates": [ [ [ 117.315177408230397, 42.408853491620569 ], [ 117.315213866165905, 42.408853391381307 ], [ 117.315213843620612, 42.408848888437824 ], [ 117.315219919942749, 42.40884887173015 ], [ 117.315219829759855, 42.408830859956211 ], [ 117.315225906080244, 42.408830843248225 ], [ 117.315225883534097, 42.408826340304735 ], [ 117.315219807214149, 42.408826357012714 ], [ 117.315219762122737, 42.40881735112572 ], [ 117.31520153316545, 42.408817401247695 ], [ 117.315201465532297, 42.408803892417161 ], [ 117.315183236578889, 42.408803942536217 ], [ 117.315183259121937, 42.408808445479742 ], [ 117.315171106485451, 42.408808478890855 ], [ 117.315171174112081, 42.408821987721424 ], [ 117.315165097792516, 42.408822004426504 ], [ 117.315165120334328, 42.40882650737003 ], [ 117.315159044014322, 42.408826524074797 ], [ 117.315159089097051, 42.408835529961827 ], [ 117.315153012776165, 42.408835546666275 ], [ 117.315153057858055, 42.408844552553298 ], [ 117.315165210501547, 42.408844519144083 ], [ 117.315165233043359, 42.40884902208758 ], [ 117.315177385687718, 42.408848988677079 ], [ 117.315177408230397, 42.408853491620569 ] ] ] } },
{ "type": "Feature", "properties": { "crown_id": 4537, "tree_id": "4539", "top_h_m": 24.75, "H_95_Mean": 24.4361, "DBH": 38.5678, "Carbon_kg": 318.006153, "area_m2": 37.75 }, "geometry": { "type": "Polygon", "coordinates": [ [ [ 117.315128752570999, 42.408844619367862 ], [ 117.315146981536301, 42.408844569257425 ], [ 117.315146913914774, 42.40883106042687 ], [ 117.315152990235234, 42.408831043722749 ], [ 117.315152945153372, 42.408822037835698 ], [ 117.315159021472937, 42.408822021131265 ], [ 117.31515899893158, 42.408817518187732 ], [ 117.315165075250718, 42.408817501482986 ], [ 117.315165007625396, 42.408803992652381 ], [ 117.315158931307579, 42.408804009357134 ], [ 117.31515890876625, 42.40879950641358 ], [ 117.315152832448831, 42.408799523118006 ], [ 117.31515278736704, 42.408790517230905 ], [ 117.315140634733964, 42.408790550638763 ], [ 117.315140612193957, 42.408786047695216 ], [ 117.315134535877846, 42.408786064398647 ], [ 117.315134513338251, 42.408781561455093 ], [ 117.315128437022565, 42.408781578158212 ], [ 117.315128369405173, 42.408768069327479 ], [ 117.315122293090795, 42.408768086030278 ], [ 117.31512233816818, 42.408777091917436 ], [ 117.315116261852907, 42.408777108619915 ], [ 117.315116239314662, 42.408772605676326 ], [ 117.315110162999815, 42.408772622378478 ], [ 117.315110140462011, 42.408768119434889 ], [ 117.315097987833198, 42.408768152838221 ], [ 117.315098077981034, 42.408786164612579 ], [ 117.315085925348711, 42.408786198014631 ], [ 117.315086150709959, 42.408831227450321 ], [ 117.315098303350965, 42.408831194048204 ], [ 117.315098325887988, 42.408835696991744 ], [ 117.31511047852986, 42.408835663588341 ], [ 117.31511050106775, 42.408840166531867 ], [ 117.315128730031773, 42.408840116424336 ], [ 117.315128752570999, 42.408844619367862 ] ] ] } },
{ "type": "Feature", "properties": { "crown_id": 4544, "tree_id": "4546", "top_h_m": 20.769, "H_95_Mean": 20.4729, "DBH": 31.1399, "Carbon_kg": 186.091219, "area_m2": 22.75 }, "geometry": { "type": "Polygon", "coordinates": [ [ [ 117.315238058721008, 42.408830809831308 ], [ 117.315244135041397, 42.408830793122348 ], [ 117.315244067399064, 42.408817284291892 ], [ 117.315250143718117, 42.408817267582627 ], [ 117.315250053526697, 42.408799255808638 ], [ 117.315256129844002, 42.408799239099061 ], [ 117.315255949457907, 42.408763215550941 ], [ 117.315249873144055, 42.40876323226049 ], [ 117.315249895691878, 42.408767735204016 ], [ 117.315243819377571, 42.408767751913246 ], [ 117.315243796830217, 42.408763248969713 ], [ 117.315231644202498, 42.408763282387213 ], [ 117.315231666749, 42.408767785330753 ], [ 117.315219514120386, 42.408767818746959 ], [ 117.315219536666035, 42.408772321690499 ], [ 117.31520738403654, 42.408772355105434 ], [ 117.315207451670886, 42.408785863936039 ], [ 117.315201375354832, 42.408785880643045 ], [ 117.315201442987927, 42.408799389473629 ], [ 117.315207519305275, 42.40879937276663 ], [ 117.315207586939721, 42.408812881597186 ], [ 117.315225815895715, 42.408812831474243 ], [ 117.315225860987965, 42.408821837361231 ], [ 117.315231937307487, 42.408821820652939 ], [ 117.31523195985406, 42.408826323596443 ], [ 117.315238036174009, 42.408826306887825 ], [ 117.315238058721008, 42.408830809831308 ] ] ] } },
{ "type": "Feature", "properties": { "crown_id": 4545, "tree_id": "4547", "top_h_m": 25.936, "H_95_Mean": 25.6404, "DBH": 37.1797, "Carbon_kg": 303.884314, "area_m2": 30.0 }, "geometry": { "type": "Polygon", "coordinates": [ [ [ 117.315298867027266, 42.40883964861424 ], [ 117.315304943348465, 42.408839631902069 ], [ 117.315304920796649, 42.408835128958621 ], [ 117.315310997117408, 42.40883511224613 ], [ 117.315310906908508, 42.408817100472291 ], [ 117.315316983227518, 42.408817083759494 ], [ 117.315316915569596, 42.408803574929088 ], [ 117.315329068204974, 42.408803541502529 ], [ 117.315329023097988, 42.408794535615606 ], [ 117.315341175731604, 42.408794502187753 ], [ 117.315341130622897, 42.408785496300823 ], [ 117.315292520095184, 42.408785630004388 ], [ 117.315292497544306, 42.408781127060884 ], [ 117.315274268597634, 42.408781177194406 ], [ 117.31527422349852, 42.408772171307376 ], [ 117.315262070869124, 42.408772204728116 ], [ 117.31526222871004, 42.40880372533266 ], [ 117.315256152392308, 42.408803742042565 ], [ 117.315256242585491, 42.408821753816532 ], [ 117.315250166265997, 42.408821770526117 ], [ 117.315250211361757, 42.408830776413083 ], [ 117.315292745604197, 42.408830659439182 ], [ 117.315292768155146, 42.40883516238263 ], [ 117.315298844475905, 42.408835145670785 ], [ 117.315298867027266, 42.40883964861424 ] ] ] } },
{ "type": "Feature", "properties": { "crown_id": 4594, "tree_id": "4596", "top_h_m": 21.523, "H_95_Mean": 21.4318, "DBH": 28.336, "Carbon_kg": 158.085335, "area_m2": 14.5 }, "geometry": { "type": "Polygon", "coordinates": [ [ [ 117.315061687687134, 42.408799773645661 ], [ 117.315079916639561, 42.408799723545933 ], [ 117.315079826496884, 42.408781711771589 ], [ 117.315091979128354, 42.408781678370183 ], [ 117.315091888982266, 42.40876366659581 ], [ 117.315085812668272, 42.408763683296662 ], [ 117.315085790132201, 42.408759180353044 ], [ 117.315079713818648, 42.408759197053577 ], [ 117.315079691283017, 42.40875469410998 ], [ 117.315061462343607, 42.408754744209631 ], [ 117.315061417274975, 42.408745738322381 ], [ 117.315055340962701, 42.40874575502162 ], [ 117.315055318428833, 42.408741252077981 ], [ 117.315049242116999, 42.408741268776907 ], [ 117.315049467451658, 42.408786298213094 ], [ 117.315061620084037, 42.408786264814886 ], [ 117.315061687687134, 42.408799773645661 ] ] ] } },
{ "type": "Feature", "properties": { "crown_id": 4595, "tree_id": "4597", "top_h_m": 22.751, "H_95_Mean": 22.6344, "DBH": 31.1726, "Carbon_kg": 197.891019, "area_m2": 19.0 }, "geometry": { "type": "Polygon", "coordinates": [ [ [ 117.315171083943227, 42.408803975947322 ], [ 117.315177160261044, 42.408803959241929 ], [ 117.315177137718422, 42.408799456298389 ], [ 117.315195366670565, 42.4087994061803 ], [ 117.315195276494848, 42.408781394406162 ], [ 117.315201352810476, 42.408781377699498 ], [ 117.315201285177451, 42.408767868868864 ], [ 117.315195208863116, 42.408767885575521 ], [ 117.315195186319215, 42.408763382631967 ], [ 117.315183033691426, 42.408763416044302 ], [ 117.315182988605358, 42.408754410157165 ], [ 117.315164759666246, 42.408754460273251 ], [ 117.315164782207958, 42.408758963216833 ], [ 117.315152629580979, 42.408758996625956 ], [ 117.315152652121824, 42.408763499569524 ], [ 117.315134423179998, 42.408763549680785 ], [ 117.315134490798698, 42.408777058511525 ], [ 117.315140567113943, 42.408777041808079 ], [ 117.31514058965395, 42.408781544751648 ], [ 117.315146665969621, 42.408781528047882 ], [ 117.315146688510069, 42.408786030991443 ], [ 117.315158841142264, 42.408785997582939 ], [ 117.315158886224921, 42.408795003470054 ], [ 117.315164962541871, 42.408794986765308 ], [ 117.315164985083626, 42.408799489708848 ], [ 117.315171061401031, 42.408799473003782 ], [ 117.315171083943227, 42.408803975947322 ] ] ] } },
{ "type": "Feature", "properties": { "crown_id": 4596, "tree_id": "4598", "top_h_m": 23.209, "H_95_Mean": 22.8329, "DBH": 30.6449, "Carbon_kg": 192.187201, "area_m2": 17.5 }, "geometry": { "type": "Polygon", "coordinates": [ [ [ 117.315298573859863, 42.408781110349068 ], [ 117.315347184384066, 42.408780976642937 ], [ 117.315347116719749, 42.408767467812496 ], [ 117.315328887777113, 42.408767517954686 ], [ 117.315328865223648, 42.408763015011189 ], [ 117.315322788909882, 42.408763031724604 ], [ 117.315322743803833, 42.408754025837588 ], [ 117.315310591177976, 42.408754059263444 ], [ 117.315310568625833, 42.408749556319925 ], [ 117.315304492313359, 42.408749573032381 ], [ 117.315304469761656, 42.408745070088855 ], [ 117.315280164513339, 42.408745136935408 ], [ 117.315280187063323, 42.408749639878934 ], [ 117.315274110750806, 42.408749656589755 ], [ 117.315274133300321, 42.408754159533288 ], [ 117.315261980674407, 42.408754192954 ], [ 117.315262003223069, 42.408758695897532 ], [ 117.31526807953648, 42.408758679187336 ], [ 117.315268102085568, 42.408763182130869 ], [ 117.315262025771759, 42.408763198841058 ], [ 117.315262048320434, 42.408767701784583 ], [ 117.315280277263213, 42.408767651653015 ], [ 117.315280322363208, 42.408776657540045 ], [ 117.315298551308558, 42.408776607405578 ], [ 117.315298573859863, 42.408781110349068 ] ] ] } },
{ "type": "Feature", "properties": { "crown_id": 4647, "tree_id": "4649", "top_h_m": 23.985, "H_95_Mean": 23.7229, "DBH": 32.1888, "Carbon_kg": 217.055341, "area_m2": 19.75 }, "geometry": { "type": "Polygon", "coordinates": [ [ [ 117.31513440064046, 42.40875904673721 ], [ 117.315146553267482, 42.40875901333002 ], [ 117.315146530727077, 42.40875451038643 ], [ 117.315158683353189, 42.408754476977968 ], [ 117.315158660811903, 42.4087499740344 ], [ 117.315170813437149, 42.408749940624638 ], [ 117.315170768352871, 42.40874093473748 ], [ 117.315164692041137, 42.408740951442503 ], [ 117.315164534249362, 42.408709430837305 ], [ 117.315158457940655, 42.408709447541995 ], [ 117.31515841285821, 42.408700441654766 ], [ 117.315128031318949, 42.408700525173352 ], [ 117.31512805385799, 42.408705028116991 ], [ 117.315121977549694, 42.408705044819747 ], [ 117.315122000088294, 42.40870954776338 ], [ 117.315128076397059, 42.408709531060616 ], [ 117.315128144014224, 42.408723039891484 ], [ 117.315122067704195, 42.408723056594248 ], [ 117.315122202936081, 42.408750074255913 ], [ 117.315134355561383, 42.408750040850016 ], [ 117.31513440064046, 42.40875904673721 ] ] ] } },
{ "type": "Feature", "properties": { "crown_id": 4656, "tree_id": "4658", "top_h_m": 23.119, "H_95_Mean": 22.9718, "DBH": 32.3088, "Carbon_kg": 214.567168, "area_m2": 21.25 }, "geometry": { "type": "Polygon", "coordinates": [ [ [ 117.315097965296246, 42.408763649894631 ], [ 117.315128346866061, 42.408763566383904 ], [ 117.315128301787851, 42.408754560496718 ], [ 117.315116149161653, 42.408754593901968 ], [ 117.315115968855935, 42.408718570353066 ], [ 117.315122045165566, 42.40871855365063 ], [ 117.315122022626923, 42.408714050707005 ], [ 117.315103793699365, 42.408714100813356 ], [ 117.315103771162057, 42.408709597869723 ], [ 117.315079465926971, 42.408709664673665 ], [ 117.31507951099816, 42.408718670560951 ], [ 117.31506735837884, 42.408718703961007 ], [ 117.315067425983031, 42.408732212791925 ], [ 117.31506134967205, 42.408732229491484 ], [ 117.315061394740667, 42.408741235378756 ], [ 117.315067471052501, 42.408741218679204 ], [ 117.315067516122014, 42.408750224566447 ], [ 117.315085745060088, 42.408750174465844 ], [ 117.315085767596145, 42.408754677409448 ], [ 117.315091843909258, 42.408754660708595 ], [ 117.315091866445755, 42.408759163652206 ], [ 117.315097942759294, 42.408759146951027 ], [ 117.315097965296246, 42.408763649894631 ] ] ] } },
{ "type": "Feature", "properties": { "crown_id": 4667, "tree_id": "4669", "top_h_m": 21.739, "H_95_Mean": 21.4341, "DBH": 33.0998, "Carbon_kg": 216.241064, "area_m2": 26.5 }, "geometry": { "type": "Polygon", "coordinates": [ [ [ 117.315207361491758, 42.40876785216188 ], [ 117.315213437806079, 42.408767835454583 ], [ 117.315213415260885, 42.408763332511043 ], [ 117.315225567888632, 42.408763299095469 ], [ 117.315225545342571, 42.408758796151936 ], [ 117.315231621655983, 42.408758779443673 ], [ 117.315231486377087, 42.408731761782335 ], [ 117.315225410066276, 42.408731778490584 ], [ 117.315225342428192, 42.408718269659865 ], [ 117.315213189809128, 42.408718303075375 ], [ 117.315213167263977, 42.408713800131785 ], [ 117.31520101464578, 42.408713833546003 ], [ 117.315200992101495, 42.408709330602413 ], [ 117.315188839484136, 42.40870936401533 ], [ 117.315188771853968, 42.408695855184511 ], [ 117.31516446662441, 42.408695922006459 ], [ 117.315164511707707, 42.408704927893695 ], [ 117.315170588015974, 42.408704911188693 ], [ 117.315170745810747, 42.408736431793891 ], [ 117.315176822122055, 42.408736415088541 ], [ 117.31517688974975, 42.408749923919288 ], [ 117.315189042374953, 42.408749890507607 ], [ 117.31518908746186, 42.408758896394737 ], [ 117.315201240088783, 42.408758862981756 ], [ 117.315201262633124, 42.40876336592531 ], [ 117.31520733894699, 42.408763349218333 ], [ 117.315207361491758, 42.40876785216188 ] ] ] } },
{ "type": "Feature", "properties": { "crown_id": 4668, "tree_id": "4670", "top_h_m": 19.236, "H_95_Mean": 19.2259, "DBH": 26.6701, "Carbon_kg": 131.20665, "area_m2": 14.0 }, "geometry": { "type": "Polygon", "coordinates": [ [ [ 117.315237675422495, 42.408754259791536 ], [ 117.315255904361436, 42.408754209663869 ], [ 117.315255881813215, 42.408749706720329 ], [ 117.315268034438276, 42.408749673300271 ], [ 117.315268011889188, 42.408745170356745 ], [ 117.315274088201278, 42.408745153646223 ], [ 117.315273930354721, 42.408713633041387 ], [ 117.315267854045672, 42.408713649751867 ], [ 117.315267831496627, 42.408709146808306 ], [ 117.315243526262108, 42.408709213647029 ], [ 117.31524354880942, 42.408713716590597 ], [ 117.315237472500328, 42.408713733299493 ], [ 117.315237495047228, 42.408718236243068 ], [ 117.31523141873771, 42.408718252951623 ], [ 117.315231463830628, 42.408727258838773 ], [ 117.315237540141013, 42.408727242130205 ], [ 117.315237675422495, 42.408754259791536 ] ] ] } },
{ "type": "Feature", "properties": { "crown_id": 4724, "tree_id": "4726", "top_h_m": 23.586, "H_95_Mean": 23.3592, "DBH": 31.0888, "Carbon_kg": 200.523984, "area_m2": 17.75 }, "geometry": { "type": "Polygon", "coordinates": [ [ [ 117.315109847470808, 42.408709581167926 ], [ 117.315115923779558, 42.408709564465809 ], [ 117.315115878703196, 42.408700558578538 ], [ 117.31512195501108, 42.408700541876101 ], [ 117.315121932472479, 42.408696038932476 ], [ 117.315128008779908, 42.408696022229712 ], [ 117.315127963701826, 42.408687016342434 ], [ 117.315115811088702, 42.408687049747606 ], [ 117.315115788550543, 42.408682546803952 ], [ 117.315109712244393, 42.408682563506041 ], [ 117.315109689706674, 42.40867806056238 ], [ 117.315103613400964, 42.408678077264163 ], [ 117.315103523251878, 42.408660065489471 ], [ 117.315097446947917, 42.40866008219092 ], [ 117.315097379337459, 42.408646573359853 ], [ 117.315079150429412, 42.408646623462225 ], [ 117.315079240571464, 42.408664635236995 ], [ 117.315073164267034, 42.408664651937144 ], [ 117.31507327694257, 42.40868716665554 ], [ 117.31507935324916, 42.408687149955377 ], [ 117.315079443391397, 42.408705161730012 ], [ 117.31510982493306, 42.408705078224294 ], [ 117.315109847470808, 42.408709581167926 ] ] ] } },
{ "type": "Feature", "properties": { "crown_id": 4725, "tree_id": "4727", "top_h_m": 20.78, "H_95_Mean": 20.6695, "DBH": 31.9678, "Carbon_kg": 197.309678, "area_m2": 24.75 }, "geometry": { "type": "Polygon", "coordinates": [ [ [ 117.315219243573097, 42.40871378342419 ], [ 117.315231396191265, 42.40871375000804 ], [ 117.315231373644821, 42.408709247064472 ], [ 117.315237449953457, 42.408709230355917 ], [ 117.315237427406572, 42.408704727412335 ], [ 117.315261732639385, 42.408704660574898 ], [ 117.315261664993571, 42.408691151744165 ], [ 117.315267741300445, 42.408691135033997 ], [ 117.315267718751429, 42.408686632090422 ], [ 117.315273795057877, 42.408686615379949 ], [ 117.315273749958962, 42.408677609492777 ], [ 117.315267673653409, 42.40867762620325 ], [ 117.315267583457384, 42.408659614428842 ], [ 117.315249354545841, 42.408659664558286 ], [ 117.315249377093537, 42.408664167501897 ], [ 117.315237224484946, 42.408664200919922 ], [ 117.315237247031774, 42.408668703863526 ], [ 117.315225094422303, 42.408668737280273 ], [ 117.315225116968264, 42.408673240223891 ], [ 117.315212964357897, 42.408673273639351 ], [ 117.315213009448115, 42.408682279526587 ], [ 117.315200856836, 42.408682312940762 ], [ 117.315200879380228, 42.40868681588438 ], [ 117.315188726767218, 42.408686849297283 ], [ 117.315188749310579, 42.408691352240893 ], [ 117.315194825617525, 42.408691335534606 ], [ 117.315194893249, 42.408704844365431 ], [ 117.315207045865492, 42.408704810951875 ], [ 117.315207068410174, 42.408709313895457 ], [ 117.315219221027519, 42.408709280480608 ], [ 117.315219243573097, 42.40871378342419 ] ] ] } }
]
}
