{
"type": "FeatureCollection",
"name": "tile_6_23",
"crs": { "type": "name", "properties": { "name": "urn:ogc:def:crs:OGC:1.3:CRS84" } },
"features": [
{ "type": "Feature", "properties": { "crown_id": 1609, "tree_id": "1609", "top_h_m": 23.189, "H_95_Mean": 23.1195, "DBH": 31.3782, "Carbon_kg": 203.061379, "area_m2": 18.75 }, "geometry": { "type": "Polygon", "coordinates": [ [ [ 117.315507622453708, 42.410482671033662 ], [ 117.315519775412994, 42.410482637585822 ], [ 117.315519730276066, 42.410473631701699 ], [ 117.315525806754835, 42.410473614977306 ], [ 117.315525761617067, 42.410464609093161 ], [ 117.315531838094955, 42.410464592368449 ], [ 117.31553174781773, 42.410446580600144 ], [ 117.315525671341575, 42.410446597324842 ], [ 117.315525626203865, 42.410437591440669 ], [ 117.315519549728563, 42.41043760816504 ], [ 117.315519527160149, 42.410433105222943 ], [ 117.315489144785772, 42.410433188839988 ], [ 117.315489167352013, 42.410437691782093 ], [ 117.315483090876668, 42.410437708504539 ], [ 117.315483158574139, 42.410451217330845 ], [ 117.315477082097502, 42.410451234052985 ], [ 117.315477194924526, 42.410473748763465 ], [ 117.31550150083973, 42.410473681872958 ], [ 117.315501523406894, 42.410478184815034 ], [ 117.315507599886104, 42.410478168091593 ], [ 117.315507622453708, 42.410482671033662 ] ] ] } },
{ "type": "Feature", "properties": { "crown_id": 1620, "tree_id": "1620", "top_h_m": 22.682, "H_95_Mean": 22.7267, "DBH": 29.3872, "Carbon_kg": 176.134738, "area_m2": 15.0 }, "geometry": { "type": "Polygon", "coordinates": [ [ [ 117.315361741826194, 42.410474066422985 ], [ 117.315379971262885, 42.410474016273945 ], [ 117.315379948704432, 42.410469513331805 ], [ 117.315386025182903, 42.41046949661483 ], [ 117.315386002623981, 42.41046499367269 ], [ 117.315392079101997, 42.410464976955382 ], [ 117.315392033983386, 42.410455971071123 ], [ 117.315404186937656, 42.410455937635561 ], [ 117.315404141817297, 42.410446931751281 ], [ 117.315410218293579, 42.410446915033013 ], [ 117.315410150611783, 42.4104334062066 ], [ 117.315391921186873, 42.410433456360387 ], [ 117.31539189862761, 42.410428953418233 ], [ 117.315385822153061, 42.41042897013552 ], [ 117.315385844711912, 42.410433473077674 ], [ 117.315367615286959, 42.410433523227603 ], [ 117.315367637844503, 42.410438026169778 ], [ 117.315361561369073, 42.410438042885779 ], [ 117.315361583926205, 42.410442545827941 ], [ 117.315355507450334, 42.410442562543622 ], [ 117.315355620233845, 42.410465077254393 ], [ 117.315361696711889, 42.410465060538698 ], [ 117.315361741826194, 42.410474066422985 ] ] ] } },
{ "type": "Feature", "properties": { "crown_id": 1643, "tree_id": "1643", "top_h_m": 20.657, "H_95_Mean": 20.4622, "DBH": 28.3184, "Carbon_kg": 153.622792, "area_m2": 15.75 }, "geometry": { "type": "Polygon", "coordinates": [ [ [ 117.315307008409306, 42.410465210968361 ], [ 117.315319161365494, 42.410465177541809 ], [ 117.315319138811361, 42.410460674599641 ], [ 117.31534344472189, 42.410460607742671 ], [ 117.315343422166052, 42.41045610480051 ], [ 117.315349498643258, 42.410456088085468 ], [ 117.315349430974464, 42.410442579258984 ], [ 117.31534335449858, 42.410442595974018 ], [ 117.315343286831137, 42.410429087147506 ], [ 117.31533721035656, 42.410429103862199 ], [ 117.315337187801177, 42.410424600920017 ], [ 117.315331111327041, 42.410424617634398 ], [ 117.315331066217212, 42.410415611750025 ], [ 117.315318913270616, 42.410415645177814 ], [ 117.315318935824664, 42.410420148120018 ], [ 117.315306782877187, 42.41042018154652 ], [ 117.315306805430382, 42.410424684488724 ], [ 117.315300728956203, 42.410424701201492 ], [ 117.315300751508957, 42.410429204143689 ], [ 117.315294675034352, 42.410429220856152 ], [ 117.31529469758668, 42.410433723798334 ], [ 117.31530077406174, 42.410433707085879 ], [ 117.315300819167277, 42.41044271297028 ], [ 117.315306895643204, 42.410442696257491 ], [ 117.315307008409306, 42.410465210968361 ] ] ] } },
{ "type": "Feature", "properties": { "crown_id": 1644, "tree_id": "1644", "top_h_m": 23.071, "H_95_Mean": 23.0345, "DBH": 30.9962, "Carbon_kg": 197.678601, "area_m2": 18.0 }, "geometry": { "type": "Polygon", "coordinates": [ [ [ 117.315440713488755, 42.410469346147458 ], [ 117.315452866445568, 42.410469312706709 ], [ 117.3154528438819, 42.410464809764605 ], [ 117.315471073315763, 42.410464759601098 ], [ 117.315470983055903, 42.410446747832687 ], [ 117.3154770595321, 42.410446731110873 ], [ 117.315477014401353, 42.410437725226664 ], [ 117.315470937926008, 42.410437741948463 ], [ 117.315470915361075, 42.410433239006331 ], [ 117.315458762411254, 42.410433272448969 ], [ 117.315458739847202, 42.410428769506844 ], [ 117.315440510423727, 42.410428819668354 ], [ 117.315440465298224, 42.410419813784074 ], [ 117.315428312350974, 42.410419847223473 ], [ 117.315428289789082, 42.410415344281311 ], [ 117.315422213315884, 42.410415361000531 ], [ 117.315422235877335, 42.410419863942685 ], [ 117.315416159403668, 42.410419880661571 ], [ 117.315416294769832, 42.410446898314433 ], [ 117.315422371246072, 42.410446881595526 ], [ 117.315422393807552, 42.410451384537652 ], [ 117.315434546760898, 42.410451351098878 ], [ 117.315434591885619, 42.410460356983108 ], [ 117.315440668363152, 42.410460340263235 ], [ 117.315440713488755, 42.410469346147458 ] ] ] } },
{ "type": "Feature", "properties": { "crown_id": 1698, "tree_id": "1698", "top_h_m": 23.534, "H_95_Mean": 23.2469, "DBH": 32.4904, "Carbon_kg": 218.538167, "area_m2": 21.25 }, "geometry": { "type": "Polygon", "coordinates": [ [ [ 117.315476991835979, 42.410433222284546 ], [ 117.315483068310868, 42.41043320556242 ], [ 117.315483045745083, 42.410428702620308 ], [ 117.315495198693981, 42.410428669175104 ], [ 117.315495018160789, 42.410392645638083 ], [ 117.31548286521884, 42.410392679083238 ], [ 117.315482820087325, 42.410383673198943 ], [ 117.315476743617225, 42.410383689921026 ], [ 117.315476766182528, 42.410388192863188 ], [ 117.315470689711972, 42.410388209584958 ], [ 117.315470644582206, 42.410379203700636 ], [ 117.315458491642829, 42.410379237143196 ], [ 117.31545846907882, 42.410374734201035 ], [ 117.315452392609558, 42.410374750921825 ], [ 117.315452460300264, 42.410388259748338 ], [ 117.315446383829709, 42.410388276468822 ], [ 117.315446406392837, 42.410392779410977 ], [ 117.315440329921827, 42.410392796131141 ], [ 117.315440352484558, 42.41039729907331 ], [ 117.315434276013107, 42.410397315793148 ], [ 117.315434366262281, 42.410415327561779 ], [ 117.315446519208663, 42.410415294121748 ], [ 117.315446564335048, 42.410424300006042 ], [ 117.315464793757172, 42.410424249843558 ], [ 117.315464816321679, 42.410428752785684 ], [ 117.315476969270605, 42.41042871934242 ], [ 117.315476991835979, 42.410433222284546 ] ] ] } },
{ "type": "Feature", "properties": { "crown_id": 1708, "tree_id": "1708", "top_h_m": 23.055, "H_95_Mean": 22.9196, "DBH": 32.176, "Carbon_kg": 212.507202, "area_m2": 21.0 }, "geometry": { "type": "Polygon", "coordinates": [ [ [ 117.3153494084182, 42.410438076316815 ], [ 117.31535548489363, 42.410438059601461 ], [ 117.315355462336967, 42.410433556659285 ], [ 117.31536153881197, 42.410433539943604 ], [ 117.315361516254839, 42.410429037001435 ], [ 117.315379745678527, 42.41042898685248 ], [ 117.315379723120103, 42.410424483910326 ], [ 117.315385799594225, 42.410424467193359 ], [ 117.315385777035388, 42.41041996425119 ], [ 117.315391853509055, 42.410419947533917 ], [ 117.315391763272004, 42.410401935765215 ], [ 117.31538568680007, 42.410401952482488 ], [ 117.315385664241262, 42.410397449540305 ], [ 117.315379587769769, 42.410397466257251 ], [ 117.315379497536313, 42.410379454488464 ], [ 117.315373421066539, 42.410379471205069 ], [ 117.315373443624452, 42.41038397414728 ], [ 117.315349137743596, 42.410384041010516 ], [ 117.315349160299789, 42.410388543952742 ], [ 117.315330930887782, 42.410388594096794 ], [ 117.315331043662283, 42.410411108807821 ], [ 117.31533712013514, 42.410411092093454 ], [ 117.315337165245836, 42.410420097977841 ], [ 117.315343241719546, 42.410420081263133 ], [ 117.315343264275327, 42.410424584205323 ], [ 117.315349340749478, 42.410424567490288 ], [ 117.3153494084182, 42.410438076316815 ] ] ] } },
{ "type": "Feature", "properties": { "crown_id": 1709, "tree_id": "1709", "top_h_m": 23.413, "H_95_Mean": 23.1351, "DBH": 36.8636, "Carbon_kg": 281.076064, "area_m2": 35.0 }, "geometry": { "type": "Polygon", "coordinates": [ [ [ 117.315531725248448, 42.410442077658061 ], [ 117.315549954675589, 42.410442027482027 ], [ 117.315549932105, 42.410437524539944 ], [ 117.315562085055532, 42.410437491087649 ], [ 117.315562039912621, 42.410428485203482 ], [ 117.315574192861391, 42.410428451749915 ], [ 117.315574057427568, 42.410401434097373 ], [ 117.315567980955791, 42.410401450824295 ], [ 117.315567958383923, 42.410396947882191 ], [ 117.315555805441235, 42.41039698133509 ], [ 117.315555782870263, 42.410392478392971 ], [ 117.315549706399324, 42.410392495118941 ], [ 117.315549683828792, 42.410387992176823 ], [ 117.315537530887795, 42.410388025627761 ], [ 117.315537508318144, 42.410383522685635 ], [ 117.315525355378, 42.410383556135287 ], [ 117.315525287671647, 42.410370047308867 ], [ 117.315531364140426, 42.410370030584211 ], [ 117.315531341571216, 42.41036552764205 ], [ 117.315519188634553, 42.410365561091048 ], [ 117.315519211202869, 42.410370064033209 ], [ 117.315500981796518, 42.410370114204284 ], [ 117.31550100436354, 42.410374617146438 ], [ 117.315488851425073, 42.410374650592217 ], [ 117.315488919123638, 42.410388159418673 ], [ 117.315501072064706, 42.410388125972879 ], [ 117.315501275168444, 42.410428652452026 ], [ 117.315525581066169, 42.410428585556481 ], [ 117.315525603634995, 42.410433088498571 ], [ 117.315531680109856, 42.41043307177388 ], [ 117.315531725248448, 42.410442077658061 ] ] ] } },
{ "type": "Feature", "properties": { "crown_id": 1771, "tree_id": "1771", "top_h_m": 21.437, "H_95_Mean": 21.4686, "DBH": 32.3764, "Carbon_kg": 207.018429, "area_m2": 24.25 }, "geometry": { "type": "Polygon", "coordinates": [ [ [ 117.315403983896246, 42.410415411156222 ], [ 117.315416136842671, 42.41041537771941 ], [ 117.315416114281675, 42.410410874777256 ], [ 117.315428267227219, 42.410410841339157 ], [ 117.315428176979793, 42.410392829570512 ], [ 117.315434253450817, 42.410392812850986 ], [ 117.315434230888542, 42.410388309908818 ], [ 117.315440307359125, 42.41038829318898 ], [ 117.315440284796423, 42.410383790246804 ], [ 117.315446361266552, 42.410383773526647 ], [ 117.315446271014039, 42.410365761757937 ], [ 117.315440194545644, 42.410365778478081 ], [ 117.315440171982942, 42.410361275535905 ], [ 117.315421942578993, 42.410361325694403 ], [ 117.315421920017613, 42.410356822752192 ], [ 117.315385461212188, 42.41035692306049 ], [ 117.315385528888513, 42.410370431887124 ], [ 117.315373375950699, 42.410370465320661 ], [ 117.315373398508626, 42.410374968262872 ], [ 117.315385551447264, 42.410374934829321 ], [ 117.315385641682454, 42.410392946598122 ], [ 117.315391718153521, 42.410392929880857 ], [ 117.315391740712769, 42.410397432823032 ], [ 117.315397817184262, 42.410397416105447 ], [ 117.315397884863316, 42.410410924931973 ], [ 117.315403961336102, 42.410410908214047 ], [ 117.315403983896246, 42.410415411156222 ] ] ] } },
{ "type": "Feature", "properties": { "crown_id": 1806, "tree_id": "1806", "top_h_m": 22.314, "H_95_Mean": 21.9708, "DBH": 29.5246, "Carbon_kg": 174.27664, "area_m2": 16.25 }, "geometry": { "type": "Polygon", "coordinates": [ [ [ 117.31532483186264, 42.410384107868595 ], [ 117.315343061273367, 42.41038405772553 ], [ 117.315343038717614, 42.410379554783304 ], [ 117.315367344596766, 42.410379487921375 ], [ 117.315367322039279, 42.410374984979157 ], [ 117.315355169100584, 42.410375018410768 ], [ 117.315355146543965, 42.41037051546855 ], [ 117.3153612230129, 42.410370498752911 ], [ 117.315361177898808, 42.410361492868468 ], [ 117.315349024962728, 42.410361526299418 ], [ 117.315348979850413, 42.410352520414946 ], [ 117.315336826916038, 42.410352553844596 ], [ 117.315336781805485, 42.410343547960096 ], [ 117.315324628872816, 42.410343581388453 ], [ 117.315324583764038, 42.410334575503946 ], [ 117.315312430833075, 42.410334608930995 ], [ 117.315312475940132, 42.410343614815531 ], [ 117.315306399473798, 42.410343631528569 ], [ 117.315306422026879, 42.410348134470823 ], [ 117.31530034556009, 42.410348151183555 ], [ 117.315300435770823, 42.410366162952585 ], [ 117.315312588707869, 42.410366129526771 ], [ 117.315312611261433, 42.410370632469018 ], [ 117.315318687730368, 42.410370615755632 ], [ 117.315318710284387, 42.410375118697864 ], [ 117.315324786753749, 42.410375101984151 ], [ 117.31532483186264, 42.410384107868595 ] ] ] } },
{ "type": "Feature", "properties": { "crown_id": 1825, "tree_id": "1825", "top_h_m": 22.569, "H_95_Mean": 22.2924, "DBH": 27.4943, "Carbon_kg": 152.268428, "area_m2": 12.0 }, "geometry": { "type": "Polygon", "coordinates": [ [ [ 117.315464545548082, 42.410374717479911 ], [ 117.315482774955839, 42.410374667314628 ], [ 117.31548275239011, 42.410370164372452 ], [ 117.315494905327711, 42.410370130927326 ], [ 117.315494792494761, 42.410347616216477 ], [ 117.315500868961408, 42.410347599493448 ], [ 117.315500823827378, 42.41033859360909 ], [ 117.315494747361626, 42.410338610332118 ], [ 117.315494769928193, 42.410343113274301 ], [ 117.315452234664747, 42.410343230326511 ], [ 117.315452279791799, 42.410352236210905 ], [ 117.315446203324711, 42.410352252931375 ], [ 117.315446248450925, 42.410361258815747 ], [ 117.315452324918894, 42.410361242095284 ], [ 117.315452347482434, 42.41036574503746 ], [ 117.315458423950844, 42.410365728316684 ], [ 117.315458446514825, 42.410370231258867 ], [ 117.315464522983646, 42.410370214537743 ], [ 117.315464545548082, 42.410374717479911 ] ] ] } },
{ "type": "Feature", "properties": { "crown_id": 1854, "tree_id": "1854", "top_h_m": 21.734, "H_95_Mean": 21.571, "DBH": 29.3849, "Carbon_kg": 170.753815, "area_m2": 16.5 }, "geometry": { "type": "Polygon", "coordinates": [ [ [ 117.315367254366848, 42.410361476152509 ], [ 117.315379407302927, 42.410361442719626 ], [ 117.315379362186277, 42.41035243683519 ], [ 117.315385438653422, 42.410352420118272 ], [ 117.315385416094671, 42.410347917176047 ], [ 117.315379339627953, 42.410347933892957 ], [ 117.31537927195302, 42.410334425066253 ], [ 117.315373195487581, 42.410334441782858 ], [ 117.315373105256157, 42.41031643001385 ], [ 117.315342722937672, 42.410316513591901 ], [ 117.31534270038199, 42.410312010649626 ], [ 117.315330547455432, 42.41031204407858 ], [ 117.315330570010218, 42.410316547020855 ], [ 117.315318417082764, 42.410316580448537 ], [ 117.315318462190646, 42.410325586333087 ], [ 117.315324538655247, 42.410325569619403 ], [ 117.315324561209621, 42.410330072561671 ], [ 117.315330637674663, 42.410330055847666 ], [ 117.315330682784321, 42.410339061732195 ], [ 117.315342835716095, 42.410339028303191 ], [ 117.315342880827501, 42.410348034187692 ], [ 117.315355033761008, 42.410348000757409 ], [ 117.315355078874177, 42.410357006641874 ], [ 117.31536723180939, 42.410356973210284 ], [ 117.315367254366848, 42.410361476152509 ] ] ] } },
{ "type": "Feature", "properties": { "crown_id": 1870, "tree_id": "1870", "top_h_m": 22.052, "H_95_Mean": 22.0321, "DBH": 29.9091, "Carbon_kg": 179.176292, "area_m2": 17.0 }, "geometry": { "type": "Polygon", "coordinates": [ [ [ 117.31542799648517, 42.410356806033015 ], [ 117.315440149420255, 42.410356772593701 ], [ 117.315440104294936, 42.410347766709307 ], [ 117.315446180761597, 42.410347749989171 ], [ 117.315446067946183, 42.410325235278123 ], [ 117.315439991481682, 42.410325251998259 ], [ 117.315439901231144, 42.410307240229351 ], [ 117.315427748305623, 42.4103072736686 ], [ 117.315427770867387, 42.41031177661084 ], [ 117.315421694404165, 42.410311793329988 ], [ 117.315421716965488, 42.410316296272228 ], [ 117.315415640501854, 42.410316312991057 ], [ 117.315415685623634, 42.410325318875522 ], [ 117.315403532694589, 42.410325352312228 ], [ 117.315403555254619, 42.41032985525446 ], [ 117.315391402324664, 42.410329888689887 ], [ 117.315391424883842, 42.410334391632126 ], [ 117.315385348418445, 42.410334408349364 ], [ 117.315385393535905, 42.410343414233814 ], [ 117.315391470002197, 42.410343397516577 ], [ 117.315391515120581, 42.410352403401028 ], [ 117.315427973923363, 42.410352303090825 ], [ 117.31542799648517, 42.410356806033015 ] ] ] } },
{ "type": "Feature", "properties": { "crown_id": 1899, "tree_id": "1899", "top_h_m": 22.333, "H_95_Mean": 22.3125, "DBH": 29.8576, "Carbon_kg": 179.895605, "area_m2": 16.5 }, "geometry": { "type": "Polygon", "coordinates": [ [ [ 117.315525152259099, 42.410343029655913 ], [ 117.315537305191413, 42.410342996206317 ], [ 117.315537260052196, 42.41033399032198 ], [ 117.315543336517479, 42.4103339735967 ], [ 117.315543291377423, 42.410324967712349 ], [ 117.315549367841825, 42.410324950986748 ], [ 117.315549322700903, 42.410315945102397 ], [ 117.315555399164438, 42.410315928376491 ], [ 117.315555376593565, 42.410311425434308 ], [ 117.31556145305666, 42.410311408708068 ], [ 117.315561362771433, 42.410293396939331 ], [ 117.315537056925962, 42.410293463842294 ], [ 117.315537079495542, 42.410297966784498 ], [ 117.315518850110095, 42.410298016958336 ], [ 117.315518872678354, 42.410302519900554 ], [ 117.315512796216083, 42.410302536624521 ], [ 117.31551281878393, 42.410307039566725 ], [ 117.315506742321205, 42.410307056290385 ], [ 117.315506832590842, 42.410325068059173 ], [ 117.3155129090553, 42.410325051335519 ], [ 117.315512976758868, 42.410338560162067 ], [ 117.315525129690343, 42.410338526713751 ], [ 117.315525152259099, 42.410343029655913 ] ] ] } },
{ "type": "Feature", "properties": { "crown_id": 1912, "tree_id": "1912", "top_h_m": 23.936, "H_95_Mean": 23.5286, "DBH": 32.3739, "Carbon_kg": 218.512863, "area_m2": 20.5 }, "geometry": { "type": "Polygon", "coordinates": [ [ [ 117.315452212101206, 42.410338727384307 ], [ 117.315488670895874, 42.410338627054834 ], [ 117.315488648329733, 42.410334124112644 ], [ 117.31550687772571, 42.410334073943559 ], [ 117.315506855158276, 42.410329571001363 ], [ 117.315500778693391, 42.410329587724711 ], [ 117.315500665858508, 42.410307073013719 ], [ 117.315494589395783, 42.410307089736733 ], [ 117.315494566829273, 42.410302586794529 ], [ 117.315488490366974, 42.410302603517209 ], [ 117.31548846780089, 42.410298100574991 ], [ 117.31547023841533, 42.410298150741113 ], [ 117.315470215850539, 42.410293647798881 ], [ 117.315464139389121, 42.410293664520275 ], [ 117.315464116824785, 42.410289161578035 ], [ 117.31544588744174, 42.410289211740277 ], [ 117.315445910004797, 42.410293714682517 ], [ 117.315439833543323, 42.410293731402625 ], [ 117.315439878668542, 42.410302737287111 ], [ 117.315445955130855, 42.410302720566996 ], [ 117.315446045383098, 42.410320732335904 ], [ 117.315452121847159, 42.41032071561547 ], [ 117.315452212101206, 42.410338727384307 ] ] ] } },
{ "type": "Feature", "properties": { "crown_id": 1926, "tree_id": "1926", "top_h_m": 23.173, "H_95_Mean": 23.1062, "DBH": 27.9627, "Carbon_kg": 160.918663, "area_m2": 12.0 }, "geometry": { "type": "Polygon", "coordinates": [ [ [ 117.315379249394724, 42.410329922124014 ], [ 117.315385325859708, 42.41032990540711 ], [ 117.315385303300971, 42.410325402464863 ], [ 117.315397456230059, 42.41032536903009 ], [ 117.315397433670455, 42.410320866087865 ], [ 117.315409586598648, 42.410320832651806 ], [ 117.31540954147772, 42.41031182676732 ], [ 117.315415617940957, 42.410311810048817 ], [ 117.315415595380088, 42.410307307106578 ], [ 117.315421671842856, 42.410307290387756 ], [ 117.315421649281532, 42.410302787445509 ], [ 117.315433802206201, 42.410302754006899 ], [ 117.315433757081877, 42.410293748122406 ], [ 117.315421604158928, 42.410293781561009 ], [ 117.315421536475071, 42.410280272734248 ], [ 117.315409383554709, 42.410280306171529 ], [ 117.315409406115123, 42.410284809113804 ], [ 117.315403329654515, 42.410284825831972 ], [ 117.315403352214489, 42.410289328774226 ], [ 117.315397275753455, 42.410289345492082 ], [ 117.315397298313002, 42.410293848434343 ], [ 117.315391221851499, 42.410293865151871 ], [ 117.315391266969755, 42.4103028710364 ], [ 117.315385190507385, 42.410302887753616 ], [ 117.315385235624802, 42.410311893638124 ], [ 117.31537915916158, 42.41031191035502 ], [ 117.315379249394724, 42.410329922124014 ] ] ] } },
{ "type": "Feature", "properties": { "crown_id": 1953, "tree_id": "1953", "top_h_m": 22.275, "H_95_Mean": 22.5974, "DBH": 28.5235, "Carbon_kg": 165.298141, "area_m2": 13.5 }, "geometry": { "type": "Polygon", "coordinates": [ [ [ 117.315348776845269, 42.410311993934656 ], [ 117.315373082698315, 42.410311927071596 ], [ 117.315373060140473, 42.410307424129329 ], [ 117.315379136603298, 42.410307407412759 ], [ 117.315379091486747, 42.41029840152823 ], [ 117.315385167948705, 42.410298384811348 ], [ 117.315385122831316, 42.410289378926819 ], [ 117.315391199292378, 42.41028936220961 ], [ 117.315391176733272, 42.410284859267342 ], [ 117.315397253193879, 42.410284842549821 ], [ 117.315397230634332, 42.410280339607546 ], [ 117.315403307094542, 42.410280322889697 ], [ 117.315403284534554, 42.410275819947422 ], [ 117.315366825775968, 42.410275920249639 ], [ 117.315366803218609, 42.410271417307349 ], [ 117.315360726759238, 42.410271434023244 ], [ 117.315360771873117, 42.410280439907829 ], [ 117.315354695412893, 42.410280456623418 ], [ 117.315354717969385, 42.410284959565722 ], [ 117.31534864150872, 42.410284976280984 ], [ 117.315348686620894, 42.410293982165555 ], [ 117.315336533697803, 42.410294015595134 ], [ 117.315336601363484, 42.410307524421988 ], [ 117.315348754289161, 42.410307490992395 ], [ 117.315348776845269, 42.410311993934656 ] ] ] } }
]
}
