{
"type": "FeatureCollection",
"name": "tile_9_23",
"crs": { "type": "name", "properties": { "name": "urn:ogc:def:crs:OGC:1.3:CRS84" } },
"features": [
{ "type": "Feature", "properties": { "crown_id": 2626, "tree_id": "2626", "top_h_m": 22.944, "H_95_Mean": 22.2561, "DBH": 36.9091, "Carbon_kg": 275.393607, "area_m2": 37.75 }, "geometry": { "type": "Polygon", "coordinates": [ [ [ 117.315517202641047, 42.409969302167774 ], [ 117.315529355501212, 42.409969268719252 ], [ 117.315529287794988, 42.409955759891851 ], [ 117.315535364223777, 42.40995574316711 ], [ 117.315535386792959, 42.409960246109577 ], [ 117.315553616080564, 42.409960195933415 ], [ 117.315553570939613, 42.409951190048496 ], [ 117.315547494511293, 42.409951206774203 ], [ 117.315547471941272, 42.409946703831721 ], [ 117.315553548369152, 42.409946687106022 ], [ 117.315553525798691, 42.409942184163555 ], [ 117.315565678653599, 42.409942150711188 ], [ 117.315565633510971, 42.409933144826255 ], [ 117.315553480657798, 42.409933178278614 ], [ 117.315553458087351, 42.409928675336126 ], [ 117.315559534513511, 42.409928658610113 ], [ 117.315559489371779, 42.409919652725144 ], [ 117.315547336521192, 42.409919686176835 ], [ 117.31554726881123, 42.409906177349342 ], [ 117.315541192387229, 42.409906194074701 ], [ 117.315541169817678, 42.409901691132191 ], [ 117.315535093394118, 42.409901707857223 ], [ 117.315535070825035, 42.409897204914706 ], [ 117.315528994401902, 42.409897221639412 ], [ 117.315528971833217, 42.409892718696888 ], [ 117.315468207605974, 42.409892885926219 ], [ 117.31546827529894, 42.40990639475384 ], [ 117.315462198874897, 42.409906411475006 ], [ 117.315462221438793, 42.409910914417551 ], [ 117.315468297863291, 42.409910897696371 ], [ 117.315468320427627, 42.409915400638901 ], [ 117.315486549702385, 42.409915350473447 ], [ 117.315486572268014, 42.409919853415971 ], [ 117.31549264869335, 42.409919836693504 ], [ 117.315492671259435, 42.409924339636028 ], [ 117.315498747685211, 42.409924322913234 ], [ 117.315498792818275, 42.409933328798246 ], [ 117.315504869244918, 42.409933312075125 ], [ 117.315504959512822, 42.409951323845107 ], [ 117.315511035941199, 42.409951307121652 ], [ 117.315511058508633, 42.40995581006414 ], [ 117.315517134937409, 42.409955793340359 ], [ 117.315517202641047, 42.409969302167774 ] ] ] } },
{ "type": "Feature", "properties": { "crown_id": 2773, "tree_id": "2773", "top_h_m": 21.817, "H_95_Mean": 21.5903, "DBH": 34.9371, "Carbon_kg": 242.152903, "area_m2": 32.25 }, "geometry": { "type": "Polygon", "coordinates": [ [ [ 117.315340512506367, 42.409875225232497 ], [ 117.315352665348598, 42.409875191802755 ], [ 117.315352642792561, 42.409870688860146 ], [ 117.315370872054558, 42.409870638713137 ], [ 117.315370849497214, 42.409866135770528 ], [ 117.315376925917448, 42.409866119054215 ], [ 117.315376903359677, 42.409861616111598 ], [ 117.315389056199251, 42.409861582678012 ], [ 117.315389011082004, 42.409852576792794 ], [ 117.315395087500917, 42.409852560075521 ], [ 117.315395042382818, 42.409843554190289 ], [ 117.315388965964772, 42.409843570907555 ], [ 117.315388943406163, 42.409839067964931 ], [ 117.315395019823782, 42.409839051247666 ], [ 117.315394997264733, 42.409834548305049 ], [ 117.315401073681883, 42.409834531587464 ], [ 117.315401028562974, 42.40982552570221 ], [ 117.315376722897781, 42.409825592570591 ], [ 117.315376700340067, 42.409821089627954 ], [ 117.315370623924181, 42.409821106344225 ], [ 117.315370601366908, 42.40981660340158 ], [ 117.315346295705069, 42.409816670263503 ], [ 117.315346273149544, 42.409812167320837 ], [ 117.315328043904429, 42.409812217463887 ], [ 117.315328066458662, 42.40981672040656 ], [ 117.315321990043159, 42.409816737120266 ], [ 117.3153221479199, 42.409848257718885 ], [ 117.315316071501343, 42.409848274432285 ], [ 117.315316094054765, 42.409852777374923 ], [ 117.315322170473721, 42.409852760661522 ], [ 117.315322193027569, 42.40985726360416 ], [ 117.315328269446951, 42.409857246890432 ], [ 117.31532829200124, 42.40986174983307 ], [ 117.315334368421063, 42.409861733119008 ], [ 117.315334413530508, 42.409870739004262 ], [ 117.315340489951197, 42.409870722289874 ], [ 117.315340512506367, 42.409875225232497 ] ], [ [ 117.315364750520118, 42.409861649543899 ], [ 117.315364727963214, 42.409857146601276 ], [ 117.315370804382582, 42.409857129885296 ], [ 117.315370826939912, 42.409861632827912 ], [ 117.315364750520118, 42.409861649543899 ] ] ] } },
{ "type": "Feature", "properties": { "crown_id": 2861, "tree_id": "2862", "top_h_m": 21.9, "H_95_Mean": 21.7418, "DBH": 30.7917, "Carbon_kg": 188.508001, "area_m2": 19.5 }, "geometry": { "type": "Polygon", "coordinates": [ [ [ 117.315382776755925, 42.409821072911335 ], [ 117.315388853171797, 42.409821056194403 ], [ 117.315388808054635, 42.409812050309121 ], [ 117.315394884469626, 42.409812033591869 ], [ 117.315394816792633, 42.409798524763929 ], [ 117.315400893206331, 42.409798508046364 ], [ 117.315400848087492, 42.409789502161054 ], [ 117.315394771674661, 42.409789518878618 ], [ 117.315394749115669, 42.409785015935952 ], [ 117.315388672703307, 42.409785032653176 ], [ 117.315388627586216, 42.409776026767844 ], [ 117.315370398351646, 42.409776076917581 ], [ 117.315370353237199, 42.409767071032221 ], [ 117.315364276826543, 42.409767087748158 ], [ 117.315364299383319, 42.409771590690845 ], [ 117.315358222972222, 42.409771607406455 ], [ 117.315358245528557, 42.409776110349149 ], [ 117.315352169117006, 42.409776127064447 ], [ 117.315352191672943, 42.409780630007134 ], [ 117.315340038848973, 42.409780663436749 ], [ 117.315340083959086, 42.40978966932213 ], [ 117.315334007546241, 42.409789686036468 ], [ 117.315334097764804, 42.409807697807189 ], [ 117.315352327008625, 42.409807647663179 ], [ 117.315352349564591, 42.409812150605845 ], [ 117.31537665522464, 42.409812083742636 ], [ 117.315376677782353, 42.409816586685309 ], [ 117.315382754197771, 42.409816569968697 ], [ 117.315382776755925, 42.409821072911335 ] ] ] } },
{ "type": "Feature", "properties": { "crown_id": 2915, "tree_id": "2916", "top_h_m": 21.761, "H_95_Mean": 21.5945, "DBH": 29.5142, "Carbon_kg": 172.382524, "area_m2": 16.75 }, "geometry": { "type": "Polygon", "coordinates": [ [ [ 117.315327908579164, 42.409785199807786 ], [ 117.315333984991597, 42.409785183093781 ], [ 117.31533393988235, 42.409776177208386 ], [ 117.315346092705454, 42.409776143779396 ], [ 117.315346070149985, 42.409771640836709 ], [ 117.315352146561096, 42.409771624121746 ], [ 117.315352124005187, 42.409767121179044 ], [ 117.315358200415858, 42.409767104463761 ], [ 117.315358177859508, 42.409762601521066 ], [ 117.315370330679997, 42.409762568089512 ], [ 117.315370285565564, 42.409753562204124 ], [ 117.315364209156201, 42.409753578920053 ], [ 117.315364186599453, 42.409749075977352 ], [ 117.315358110190516, 42.409749092692948 ], [ 117.315358019965259, 42.409731080922086 ], [ 117.315351943558056, 42.409731097637355 ], [ 117.315351966113909, 42.409735600580071 ], [ 117.315321584075662, 42.409735684151606 ], [ 117.315321629183074, 42.409744690037066 ], [ 117.31531555277455, 42.409744706750416 ], [ 117.315315642987713, 42.409762718521307 ], [ 117.315309566577426, 42.409762735234338 ], [ 117.315309611683162, 42.409771741119776 ], [ 117.315321764505455, 42.409771707693373 ], [ 117.315321787059204, 42.409776210636075 ], [ 117.31532786347077, 42.409776193922397 ], [ 117.315327908579164, 42.409785199807786 ] ] ] } },
{ "type": "Feature", "properties": { "crown_id": 2946, "tree_id": "2947", "top_h_m": 23.786, "H_95_Mean": 23.6347, "DBH": 36.8887, "Carbon_kg": 285.041202, "area_m2": 33.75 }, "geometry": { "type": "Polygon", "coordinates": [ [ [ 117.31540692450028, 42.40978948544317 ], [ 117.315413000913082, 42.409789468724966 ], [ 117.315412978352796, 42.409784965782322 ], [ 117.315425131177534, 42.409784932344948 ], [ 117.315425108616381, 42.409780429402304 ], [ 117.315437261440223, 42.409780395963658 ], [ 117.315437216316198, 42.40977139007834 ], [ 117.315431139905144, 42.40977140679783 ], [ 117.315431094782042, 42.409762400912491 ], [ 117.31544324760236, 42.409762367473228 ], [ 117.315443157352703, 42.409744355702543 ], [ 117.315449233761129, 42.409744338982449 ], [ 117.315449188635469, 42.409735333097089 ], [ 117.315424883005178, 42.40973539997556 ], [ 117.315424837883015, 42.409726394090185 ], [ 117.315418761476323, 42.409726410808986 ], [ 117.31541871635504, 42.409717404923569 ], [ 117.315406563543334, 42.409717438360211 ], [ 117.315406586103109, 42.409721941302934 ], [ 117.315394433290507, 42.409721974738289 ], [ 117.315394455849429, 42.409726477680998 ], [ 117.315370150222449, 42.409726544547866 ], [ 117.315370172779637, 42.409731047490581 ], [ 117.315364096372434, 42.409731064206497 ], [ 117.315364164042677, 42.409744573034644 ], [ 117.315370240451173, 42.409744556318721 ], [ 117.315370263008376, 42.409749059261429 ], [ 117.315376339417284, 42.409749042545165 ], [ 117.315376452205498, 42.409771557258644 ], [ 117.315394681438761, 42.409771507107934 ], [ 117.315394726556718, 42.409780512993279 ], [ 117.315400802968639, 42.409780496275737 ], [ 117.315400825528059, 42.409784999218388 ], [ 117.315406901940435, 42.409784982500511 ], [ 117.31540692450028, 42.40978948544317 ] ] ] } }
]
}
