{
"type": "FeatureCollection",
"name": "tile_1_2",
"crs": { "type": "name", "properties": { "name": "urn:ogc:def:crs:OGC:1.3:CRS84" } },
"features": [
{ "type": "Feature", "properties": { "crown_id": 40, "tree_id": "40", "top_h_m": 16.804, "H_95_Mean": 16.7593, "DBH": 23.3298, "Carbon_kg": 92.376005, "area_m2": 10.75 }, "geometry": { "type": "Polygon", "coordinates": [ [ [ 117.310292518854922, 42.411429027169838 ], [ 117.310335054872994, 42.411428912029685 ], [ 117.31033498827793, 42.411415403199044 ], [ 117.310328911705241, 42.411415419648584 ], [ 117.310328822913675, 42.411397407874333 ], [ 117.310310593200782, 42.411397457221021 ], [ 117.310310571004209, 42.411392954277431 ], [ 117.31030449443368, 42.411392970725693 ], [ 117.310304516629827, 42.411397473669275 ], [ 117.31029844005883, 42.41139749011721 ], [ 117.310298506645992, 42.411410998947936 ], [ 117.310292430073702, 42.411411015395558 ], [ 117.310292518854922, 42.411429027169838 ] ] ] } },
{ "type": "Feature", "properties": { "crown_id": 55, "tree_id": "55", "top_h_m": 19.212, "H_95_Mean": 19.1234, "DBH": 26.7238, "Carbon_kg": 131.323788, "area_m2": 14.25 }, "geometry": { "type": "Polygon", "coordinates": [ [ [ 117.310341131446989, 42.411428895579803 ], [ 117.310389744038702, 42.411428763969155 ], [ 117.310389633027441, 42.411406249251506 ], [ 117.310383556455662, 42.411406265703945 ], [ 117.310383512052042, 42.411397259816866 ], [ 117.31033489948463, 42.411397391424792 ], [ 117.310334966079594, 42.411410900255483 ], [ 117.310341042651856, 42.411410883805608 ], [ 117.310341131446989, 42.411428895579803 ] ] ] } },
{ "type": "Feature", "properties": { "crown_id": 91, "tree_id": "91", "top_h_m": 19.082, "H_95_Mean": 19.5456, "DBH": 32.9892, "Carbon_kg": 203.384014, "area_m2": 31.0 }, "geometry": { "type": "MultiPolygon", "coordinates": [ [ [ [ 117.310395820612641, 42.411428747516375 ], [ 117.310438356630101, 42.411428632337895 ], [ 117.310438312218622, 42.411419626450879 ], [ 117.310444388791666, 42.411419609995527 ], [ 117.3104443665855, 42.411415107052029 ], [ 117.310450443158089, 42.411415090596357 ], [ 117.310450420951511, 42.411410587652853 ], [ 117.310444344379349, 42.411410604108525 ], [ 117.310444322173169, 42.411406101165007 ], [ 117.310456475316627, 42.411406068253349 ], [ 117.310456408695586, 42.411392559422794 ], [ 117.310462485265987, 42.411392542966496 ], [ 117.310462463058528, 42.411388040022977 ], [ 117.310450309918593, 42.41138807293526 ], [ 117.310450287712015, 42.411383569991727 ], [ 117.310438134572919, 42.411383602902703 ], [ 117.310438090161526, 42.41137459701563 ], [ 117.310425937024135, 42.411374629925319 ], [ 117.310425914819334, 42.411370126981772 ], [ 117.310407685114512, 42.41137017634388 ], [ 117.310407662911018, 42.411365673400304 ], [ 117.310401586343161, 42.411365689853696 ], [ 117.310401564140108, 42.411361186910135 ], [ 117.310389411005261, 42.411361219815937 ], [ 117.310389499814065, 42.411379231590203 ], [ 117.3103834232449, 42.411379248042643 ], [ 117.310383489850253, 42.411392756873305 ], [ 117.310389566420724, 42.411392740420872 ], [ 117.310389610825183, 42.411401746307959 ], [ 117.310395687396536, 42.411401729855193 ], [ 117.310395820612641, 42.411428747516375 ] ] ], [ [ [ 117.310444388791666, 42.411419609995527 ], [ 117.310444410997846, 42.411424112939038 ], [ 117.310450487571302, 42.411424096483358 ], [ 117.310450465364696, 42.411419593539854 ], [ 117.310444388791666, 42.411419609995527 ] ] ] ] } },
{ "type": "Feature", "properties": { "crown_id": 104, "tree_id": "104", "top_h_m": 18.399, "H_95_Mean": 18.2187, "DBH": 29.7041, "Carbon_kg": 157.921826, "area_m2": 23.5 }, "geometry": { "type": "Polygon", "coordinates": [ [ [ 117.310316647574737, 42.411392937828865 ], [ 117.310377413279767, 42.411392773325424 ], [ 117.310377324474388, 42.41137476155118 ], [ 117.310383401043126, 42.411374745099067 ], [ 117.310383267832592, 42.411347727437601 ], [ 117.310352885001876, 42.411347809694824 ], [ 117.310352862802318, 42.411343306751228 ], [ 117.310340709670882, 42.411343339651864 ], [ 117.310340798465688, 42.411361351426272 ], [ 117.310334721898215, 42.411361367876118 ], [ 117.310334744096494, 42.411365870819708 ], [ 117.310322590960681, 42.411365903718441 ], [ 117.310322613158107, 42.41137040666203 ], [ 117.310316536589738, 42.411370423110924 ], [ 117.310316580983709, 42.41137942899811 ], [ 117.310310504414502, 42.41137944544667 ], [ 117.310310548807621, 42.411388451333856 ], [ 117.310316625377723, 42.411388434885289 ], [ 117.310316647574737, 42.411392937828865 ] ] ] } },
{ "type": "Feature", "properties": { "crown_id": 133, "tree_id": "133", "top_h_m": 18.39, "H_95_Mean": 18.0617, "DBH": 32.8384, "Carbon_kg": 192.320249, "area_m2": 35.25 }, "geometry": { "type": "Polygon", "coordinates": [ [ [ 117.310474616198476, 42.411388007109409 ], [ 117.310486769338382, 42.411387974194554 ], [ 117.310486680501725, 42.41136996242048 ], [ 117.310492757069937, 42.411369945962576 ], [ 117.310492734860361, 42.411365443019044 ], [ 117.310486658292575, 42.411365459476947 ], [ 117.310486613874303, 42.411356453589875 ], [ 117.310480537307384, 42.411356470047451 ], [ 117.310480515098661, 42.411351967103904 ], [ 117.310486591665153, 42.411351950646342 ], [ 117.310486525037774, 42.411338441815708 ], [ 117.310474371907418, 42.411338474730499 ], [ 117.310474394115658, 42.41134297767406 ], [ 117.310462240984421, 42.411343010587565 ], [ 117.310462218777019, 42.411338507644011 ], [ 117.310468295342233, 42.411338491187415 ], [ 117.310468273134404, 42.411333988243861 ], [ 117.310450043440127, 42.411334037612662 ], [ 117.310450021233621, 42.411329534669093 ], [ 117.310431791540609, 42.411329584034995 ], [ 117.310431769335423, 42.411325081091405 ], [ 117.310425692771489, 42.411325097546069 ], [ 117.31042567056673, 42.411320594602479 ], [ 117.310407440876261, 42.411320643964501 ], [ 117.310407463079713, 42.411325146908098 ], [ 117.310395309951844, 42.411325179814504 ], [ 117.310395332154428, 42.411329682758094 ], [ 117.310389255590053, 42.411329699210832 ], [ 117.310389366600873, 42.411352213928772 ], [ 117.310395443167437, 42.411352197476049 ], [ 117.31039546537005, 42.411356700419617 ], [ 117.31040761850403, 42.411356667513175 ], [ 117.31040764070751, 42.411361170456743 ], [ 117.31041371727494, 42.411361154003039 ], [ 117.310413739478847, 42.411365656946593 ], [ 117.310431969182375, 42.411365607583527 ], [ 117.310431991387603, 42.411370110527095 ], [ 117.310444144524098, 42.411370077616752 ], [ 117.310444188936359, 42.411379083503839 ], [ 117.310450265505452, 42.411379067048188 ], [ 117.310450243298902, 42.411374564104655 ], [ 117.310474549573584, 42.411374498278839 ], [ 117.310474616198476, 42.411388007109409 ] ] ] } },
{ "type": "Feature", "properties": { "crown_id": 149, "tree_id": "149", "top_h_m": 15.978, "H_95_Mean": 15.5016, "DBH": 31.6686, "Carbon_kg": 163.309855, "area_m2": 40.75 }, "geometry": { "type": "Polygon", "coordinates": [ [ [ 117.310274067192978, 42.411384047074904 ], [ 117.3103044500414, 42.411383964838514 ], [ 117.31030440564912, 42.41137495895132 ], [ 117.310310482217929, 42.41137494250308 ], [ 117.310310437824839, 42.41136593661588 ], [ 117.310316514392767, 42.41136592016732 ], [ 117.310316492195781, 42.411361417223716 ], [ 117.310328645330728, 42.411361384325637 ], [ 117.310328623132904, 42.411356881382034 ], [ 117.310334699699951, 42.411356864932522 ], [ 117.310334544312141, 42.411325344327217 ], [ 117.310316314620152, 42.411325393674751 ], [ 117.310316270226267, 42.411316387787473 ], [ 117.310285887410515, 42.411316470026904 ], [ 117.310285865215775, 42.41131196708325 ], [ 117.31027978865302, 42.411311983530162 ], [ 117.310279810847348, 42.411316486473822 ], [ 117.310273734284166, 42.411316502920414 ], [ 117.310273778671942, 42.411325508807728 ], [ 117.310267702107893, 42.411325525254 ], [ 117.310267724301355, 42.411330028197668 ], [ 117.31026164773688, 42.41133004464362 ], [ 117.310261625543831, 42.411325541699973 ], [ 117.310255548979796, 42.411325558145606 ], [ 117.310255593364971, 42.41133456403292 ], [ 117.310249516800027, 42.411334580478226 ], [ 117.310249561184364, 42.41134358636554 ], [ 117.310243484618567, 42.41134360281054 ], [ 117.310243529002065, 42.411352608697825 ], [ 117.310249605568728, 42.411352592252825 ], [ 117.310249627760911, 42.411357095196472 ], [ 117.310255704328029, 42.411357078751138 ], [ 117.310255726520637, 42.411361581694763 ], [ 117.310261803088196, 42.411361565249116 ], [ 117.310261825281259, 42.411366068192741 ], [ 117.310255748713274, 42.411366084638395 ], [ 117.310255770905925, 42.411370587582034 ], [ 117.3102496943375, 42.411370604027354 ], [ 117.310249716529739, 42.411375106970993 ], [ 117.310267946236237, 42.411375057633997 ], [ 117.310267968429756, 42.411379560577601 ], [ 117.310274044999019, 42.4113795441313 ], [ 117.310274067192978, 42.411384047074904 ] ] ] } },
{ "type": "Feature", "properties": { "crown_id": 239, "tree_id": "239", "top_h_m": 18.002, "H_95_Mean": 17.9817, "DBH": 30.7384, "Carbon_kg": 167.895368, "area_m2": 27.5 }, "geometry": { "type": "Polygon", "coordinates": [ [ [ 117.310456097797967, 42.411329518213151 ], [ 117.310468250926604, 42.411329485300293 ], [ 117.310468228718804, 42.411324982356717 ], [ 117.310474305282682, 42.411324965899816 ], [ 117.310474238657974, 42.41131145706909 ], [ 117.310480315220573, 42.411311440611875 ], [ 117.310480293011906, 42.4113069376683 ], [ 117.310486369574036, 42.411306921210759 ], [ 117.310486325155878, 42.411297915323594 ], [ 117.310480248594615, 42.411297931781135 ], [ 117.310480226385977, 42.411293428837546 ], [ 117.31047414982514, 42.41129344529476 ], [ 117.310474127616956, 42.411288942351163 ], [ 117.310480204177352, 42.411288925893963 ], [ 117.310480181968714, 42.411284422950366 ], [ 117.310461952288833, 42.411284472321015 ], [ 117.310461930081516, 42.411279969377404 ], [ 117.310455853521944, 42.411279985833652 ], [ 117.310455831315082, 42.411275482890034 ], [ 117.31044975475595, 42.411275499345955 ], [ 117.310449732549529, 42.411270996402337 ], [ 117.310443655990824, 42.411271012857924 ], [ 117.310443611578833, 42.411262006970667 ], [ 117.310431458463199, 42.411262039880867 ], [ 117.310431547283727, 42.411280051655382 ], [ 117.310419394164569, 42.411280084564311 ], [ 117.310419416368859, 42.411284587507943 ], [ 117.310413339808846, 42.411284603961924 ], [ 117.310413450828122, 42.411307118680014 ], [ 117.310407374265935, 42.41130713513369 ], [ 117.310407396469387, 42.411311638077294 ], [ 117.310413473032, 42.411311621623611 ], [ 117.310413495235878, 42.411316124567207 ], [ 117.310431724925024, 42.411316075204233 ], [ 117.31043174713021, 42.411320578147823 ], [ 117.31044390025717, 42.411320545237565 ], [ 117.310443922463222, 42.411325048181133 ], [ 117.31045607559102, 42.411325015269576 ], [ 117.310456097797967, 42.411329518213151 ] ] ] } },
{ "type": "Feature", "properties": { "crown_id": 276, "tree_id": "276", "top_h_m": 17.833, "H_95_Mean": 17.6949, "DBH": 29.6857, "Carbon_kg": 155.026668, "area_m2": 24.75 }, "geometry": { "type": "Polygon", "coordinates": [ [ [ 117.310389100175072, 42.411298178605534 ], [ 117.310401253297755, 42.411298145699803 ], [ 117.310401231094772, 42.411293642756185 ], [ 117.310407307655652, 42.411293626302843 ], [ 117.310407241045425, 42.411280117471961 ], [ 117.310413317605011, 42.411280101018299 ], [ 117.310413295401176, 42.411275598074667 ], [ 117.310425448519467, 42.411275565166385 ], [ 117.310425359700687, 42.411257553391842 ], [ 117.31041928314329, 42.411257569846136 ], [ 117.310419260939028, 42.411253066902496 ], [ 117.310407107825085, 42.411253099810111 ], [ 117.310407085621719, 42.411248596866457 ], [ 117.310388855952056, 42.411248646225459 ], [ 117.310388878154114, 42.411253149169113 ], [ 117.310382801597115, 42.411253165621474 ], [ 117.310382779395496, 42.411248662677821 ], [ 117.310376702838937, 42.411248679129855 ], [ 117.310376725040129, 42.411253182073516 ], [ 117.310370648483115, 42.41125319852523 ], [ 117.310370670683895, 42.411257701468884 ], [ 117.310352441011531, 42.411257750822109 ], [ 117.310352574208409, 42.41128476848408 ], [ 117.310346497648368, 42.411284784934523 ], [ 117.310346519847414, 42.411289287878169 ], [ 117.310352596407924, 42.411289271427727 ], [ 117.310352618607425, 42.411293774371366 ], [ 117.310364771729297, 42.411293741469507 ], [ 117.310364749528929, 42.411289238525868 ], [ 117.310370826089411, 42.411289222074458 ], [ 117.310370848290205, 42.411293725018098 ], [ 117.310389077972971, 42.411293675661916 ], [ 117.310389100175072, 42.411298178605534 ] ] ] } },
{ "type": "Feature", "properties": { "crown_id": 369, "tree_id": "369", "top_h_m": 19.755, "H_95_Mean": 19.4302, "DBH": 30.0262, "Carbon_kg": 167.656276, "area_m2": 21.75 }, "geometry": { "type": "Polygon", "coordinates": [ [ [ 117.310425293086638, 42.41124404456091 ], [ 117.310437446198847, 42.41124401165137 ], [ 117.310437401787766, 42.41123500576407 ], [ 117.310455631453408, 42.411234956397365 ], [ 117.310455609246574, 42.411230453453719 ], [ 117.310461685801329, 42.411230436997506 ], [ 117.310461619179563, 42.411216928166553 ], [ 117.310467695733024, 42.411216911710028 ], [ 117.310467562487048, 42.411189894048036 ], [ 117.310461485936216, 42.411189910504532 ], [ 117.310461463728984, 42.411185407560858 ], [ 117.310443234077738, 42.411185456928443 ], [ 117.310443211871814, 42.411180953984747 ], [ 117.310424982221832, 42.411181003349434 ], [ 117.310425004426421, 42.41118550629313 ], [ 117.310431080976855, 42.411185489838559 ], [ 117.310431103181912, 42.411189992782255 ], [ 117.310425026631023, 42.411190009236819 ], [ 117.310425137654107, 42.41121252395525 ], [ 117.310419061101058, 42.411212540409522 ], [ 117.310419105509467, 42.411221546296879 ], [ 117.310413028955523, 42.411221562750825 ], [ 117.310413051159316, 42.411226065694507 ], [ 117.31040697460493, 42.411226082148133 ], [ 117.310406996808283, 42.411230585091801 ], [ 117.310413073363094, 42.411230568638175 ], [ 117.310413095566872, 42.411235071581842 ], [ 117.31041917212211, 42.411235055127882 ], [ 117.310419194326329, 42.411239558071536 ], [ 117.310425270881993, 42.411239541617256 ], [ 117.310425293086638, 42.41124404456091 ] ] ] } }
]
}
