{
"type": "FeatureCollection",
"name": "tile_18_16",
"crs": { "type": "name", "properties": { "name": "urn:ogc:def:crs:OGC:1.3:CRS84" } },
"features": [
{ "type": "Feature", "properties": { "crown_id": 5396, "tree_id": "5399", "top_h_m": 22.83, "H_95_Mean": 22.6611, "DBH": 29.092, "Carbon_kg": 172.292085, "area_m2": 14.5 }, "geometry": { "type": "Polygon", "coordinates": [ [ [ 117.313698236581303, 42.408330697080231 ], [ 117.313704312854313, 42.408330680453062 ], [ 117.313704290417391, 42.408326177508513 ], [ 117.313710366689961, 42.40832616088101 ], [ 117.313710299377917, 42.408312652047371 ], [ 117.313716375649179, 42.408312635419563 ], [ 117.313716285898124, 42.408294623641332 ], [ 117.313710209628596, 42.408294640269126 ], [ 117.31371018719129, 42.408290137324563 ], [ 117.3136980346531, 42.408290170579171 ], [ 117.313697967343785, 42.408276661745433 ], [ 117.313685814808181, 42.408276694998762 ], [ 117.313685837243767, 42.408281197943353 ], [ 117.313679760975518, 42.408281214569527 ], [ 117.313679828280939, 42.408294723403294 ], [ 117.313673752011397, 42.408294740029156 ], [ 117.313673864185006, 42.408317254752028 ], [ 117.313679940456737, 42.408317238126145 ], [ 117.313679985327084, 42.408326244015264 ], [ 117.313698214144807, 42.408326194135675 ], [ 117.313698236581303, 42.408330697080231 ] ] ] } },
{ "type": "Feature", "properties": { "crown_id": 5426, "tree_id": "5429", "top_h_m": 21.658, "H_95_Mean": 21.4916, "DBH": 30.4195, "Carbon_kg": 182.688692, "area_m2": 19.0 }, "geometry": { "type": "Polygon", "coordinates": [ [ [ 117.313631262987741, 42.408303862290389 ], [ 117.313667720610383, 42.408303762543852 ], [ 117.313667653307562, 42.408290253710099 ], [ 117.313673729576678, 42.408290237084564 ], [ 117.313673662272578, 42.408276728250797 ], [ 117.313679738540387, 42.408276711624936 ], [ 117.31367971610527, 42.408272208680337 ], [ 117.313667563570505, 42.408272241931719 ], [ 117.313667541136269, 42.408267738987114 ], [ 117.313661464869313, 42.408267755612322 ], [ 117.313661442435489, 42.408263252667709 ], [ 117.313643213635913, 42.408263302541386 ], [ 117.313643191203411, 42.408258799596766 ], [ 117.313631038671204, 42.408258832844261 ], [ 117.313631016239569, 42.408254329899634 ], [ 117.313624939973892, 42.408254346522888 ], [ 117.313625029698684, 42.40827235830141 ], [ 117.313618953431273, 42.408272374924366 ], [ 117.313618975862042, 42.408276877868992 ], [ 117.313612899594176, 42.408276894491628 ], [ 117.313612944454889, 42.408285900380875 ], [ 117.313619020723621, 42.408285883758232 ], [ 117.313619043154418, 42.408290386702838 ], [ 117.313625119423563, 42.408290370079868 ], [ 117.313625164286037, 42.408299375969086 ], [ 117.313631240556049, 42.40829935934579 ], [ 117.313631262987741, 42.408303862290389 ] ] ] } },
{ "type": "Feature", "properties": { "crown_id": 5427, "tree_id": "5430", "top_h_m": 24.699, "H_95_Mean": 24.4982, "DBH": 34.453, "Carbon_kg": 253.707238, "area_m2": 24.25 }, "geometry": { "type": "Polygon", "coordinates": [ [ [ 117.31381964981459, 42.408307849753037 ], [ 117.313856107438895, 42.408307749946587 ], [ 117.313856084991144, 42.408303247002102 ], [ 117.313850008720863, 42.408303263637308 ], [ 117.313849918931624, 42.408285251859269 ], [ 117.313855995200143, 42.408285235224078 ], [ 117.313855972752407, 42.408280732279565 ], [ 117.3138498964843, 42.408280748914756 ], [ 117.313849851589737, 42.408271743025715 ], [ 117.313843775322496, 42.408271759660586 ], [ 117.313843752875655, 42.408267256716051 ], [ 117.313837676608856, 42.408267273350596 ], [ 117.313837654162427, 42.408262770406061 ], [ 117.313813349096918, 42.40826283694102 ], [ 117.313813371541585, 42.408267339885555 ], [ 117.313776913940529, 42.40826743967834 ], [ 117.313776981266741, 42.408280948512008 ], [ 117.31378305753492, 42.408280931880675 ], [ 117.313783147305031, 42.408298943658835 ], [ 117.313807452384566, 42.408298877130242 ], [ 117.313807474828849, 42.408303380074763 ], [ 117.31381962736944, 42.408303346808523 ], [ 117.31381964981459, 42.408307849753037 ] ] ] } },
{ "type": "Feature", "properties": { "crown_id": 5432, "tree_id": "5435", "top_h_m": 20.29, "H_95_Mean": 20.1623, "DBH": 25.7858, "Carbon_kg": 126.083019, "area_m2": 11.25 }, "geometry": { "type": "Polygon", "coordinates": [ [ [ 117.313716263460378, 42.408290120696762 ], [ 117.313722339729438, 42.408290104068641 ], [ 117.313722317291266, 42.408285601124071 ], [ 117.313740546097179, 42.408285551237803 ], [ 117.313740501218234, 42.40827654534867 ], [ 117.313746577485972, 42.40827652871927 ], [ 117.313746555046066, 42.408272025774707 ], [ 117.313752631313392, 42.408272009144987 ], [ 117.313752586432713, 42.408263003255847 ], [ 117.313746510166268, 42.40826301988556 ], [ 117.313746420406773, 42.408245008107222 ], [ 117.313740344142062, 42.408245024736601 ], [ 117.313740366581484, 42.408249527681193 ], [ 117.313728214051167, 42.408249560938991 ], [ 117.31372828136692, 42.408263069772758 ], [ 117.313710052567487, 42.408263119657065 ], [ 117.313710075004778, 42.408267622601656 ], [ 117.313703998737878, 42.408267639229116 ], [ 117.313704088485323, 42.408285651007454 ], [ 117.313716241022632, 42.408285617752192 ], [ 117.313716263460378, 42.408290120696762 ] ] ] } },
{ "type": "Feature", "properties": { "crown_id": 5495, "tree_id": "5498", "top_h_m": 25.451, "H_95_Mean": 25.224, "DBH": 37.6645, "Carbon_kg": 308.917356, "area_m2": 32.5 }, "geometry": { "type": "Polygon", "coordinates": [ [ [ 117.313758685139931, 42.408267489570378 ], [ 117.313770837673658, 42.408267456309346 ], [ 117.313770815232047, 42.408262953364776 ], [ 117.313807272830502, 42.408262853573952 ], [ 117.313807250386262, 42.408258350629396 ], [ 117.313831555450079, 42.408258284095744 ], [ 117.313831533004105, 42.408253781151188 ], [ 117.313837609269612, 42.408253764516978 ], [ 117.313837519484082, 42.408235752738769 ], [ 117.313843595747826, 42.408235736104245 ], [ 117.313843573301028, 42.40823123315969 ], [ 117.313825344511031, 42.408231283062285 ], [ 117.313825322065526, 42.408226780117722 ], [ 117.313807093276779, 42.408226830017419 ], [ 117.313807070832596, 42.408222327072842 ], [ 117.313800994570101, 42.408222343705425 ], [ 117.313800949682602, 42.40821333781625 ], [ 117.313788797159333, 42.408213371080443 ], [ 117.313788752273624, 42.408204365191239 ], [ 117.313776599752089, 42.408204398454139 ], [ 117.313776644636064, 42.408213404343357 ], [ 117.313764492112782, 42.408213437604985 ], [ 117.313764536995066, 42.408222443494189 ], [ 117.313758460732529, 42.40822246012452 ], [ 117.31375848317326, 42.408226963069126 ], [ 117.313752406910297, 42.408226979699137 ], [ 117.313752563992395, 42.40825850031127 ], [ 117.313758640258413, 42.408258483681237 ], [ 117.313758685139931, 42.408267489570378 ] ] ] } },
{ "type": "Feature", "properties": { "crown_id": 5500, "tree_id": "5503", "top_h_m": 25.479, "H_95_Mean": 25.0843, "DBH": 38.0058, "Carbon_kg": 313.553573, "area_m2": 34.0 }, "geometry": { "type": "Polygon", "coordinates": [ [ [ 117.313685792372624, 42.408272192054163 ], [ 117.313697944907375, 42.408272158800848 ], [ 117.313697900034526, 42.408263152911665 ], [ 117.313703976301028, 42.408263136284518 ], [ 117.313703953864163, 42.408258633339926 ], [ 117.313722182662303, 42.4082585834566 ], [ 117.313722115347872, 42.408245074622805 ], [ 117.313734267877322, 42.40824504136566 ], [ 117.313734200560347, 42.40823153253185 ], [ 117.313709895506634, 42.408231599044825 ], [ 117.313709828194931, 42.408218090210951 ], [ 117.313703751932792, 42.40821810683839 ], [ 117.313703729495984, 42.408213603893749 ], [ 117.3136976532343, 42.408213620520861 ], [ 117.313697630797932, 42.408209117576227 ], [ 117.313685478275374, 42.408209150829464 ], [ 117.313685433404416, 42.408200144940167 ], [ 117.313673280883592, 42.408200178192104 ], [ 117.313673303318183, 42.408204681136766 ], [ 117.313667227057309, 42.408204697762258 ], [ 117.31366729435986, 42.408218206596217 ], [ 117.313661218097693, 42.40821822322139 ], [ 117.313661240531459, 42.408222726166031 ], [ 117.313655164268837, 42.408222742790905 ], [ 117.313655231568845, 42.408236251624821 ], [ 117.313649155304915, 42.408236268249368 ], [ 117.31364917773783, 42.408240771194009 ], [ 117.313643101473474, 42.408240787818237 ], [ 117.313643123905948, 42.408245290762871 ], [ 117.313637047641137, 42.408245307386771 ], [ 117.313637092505246, 42.408254313276039 ], [ 117.313649245036586, 42.408254280027897 ], [ 117.313649267469515, 42.408258782972531 ], [ 117.313667496267769, 42.408258733097895 ], [ 117.313667518702005, 42.408263236042501 ], [ 117.313673594968535, 42.408263219416973 ], [ 117.313673617403197, 42.408267722361579 ], [ 117.313685769937095, 42.408267689109564 ], [ 117.313685792372624, 42.408272192054163 ] ] ] } },
{ "type": "Feature", "properties": { "crown_id": 5526, "tree_id": "5529", "top_h_m": 22.657, "H_95_Mean": 22.4705, "DBH": 26.9859, "Carbon_kg": 147.338694, "area_m2": 11.0 }, "geometry": { "type": "Polygon", "coordinates": [ [ [ 117.313612720151582, 42.40824087093452 ], [ 117.31363702520909, 42.408240804442137 ], [ 117.313637002777071, 42.408236301497489 ], [ 117.313643079040986, 42.408236284873588 ], [ 117.313643056608512, 42.408231781928947 ], [ 117.313649132872001, 42.408231765304727 ], [ 117.31364906557333, 42.408218256470782 ], [ 117.313655141835511, 42.408218239846242 ], [ 117.313655119402199, 42.408213736901594 ], [ 117.31366119566394, 42.408213720276741 ], [ 117.313661173230187, 42.408209217332093 ], [ 117.3136307919236, 42.408209300453116 ], [ 117.313630814355179, 42.408213803397786 ], [ 117.313612585569842, 42.408213853266545 ], [ 117.313612630430399, 42.408222859155885 ], [ 117.313594401642447, 42.408222909021767 ], [ 117.313594424071411, 42.408227411966429 ], [ 117.31360050033453, 42.408227395344795 ], [ 117.313600522763949, 42.408231898289458 ], [ 117.313612675290983, 42.408231865045209 ], [ 117.313612720151582, 42.40824087093452 ] ] ] } },
{ "type": "Feature", "properties": { "crown_id": 5543, "tree_id": "5546", "top_h_m": 22.712, "H_95_Mean": 22.8545, "DBH": 30.1973, "Carbon_kg": 186.675865, "area_m2": 16.5 }, "geometry": { "type": "Polygon", "coordinates": [ [ [ 117.313831398328432, 42.408226763483846 ], [ 117.313843550854216, 42.408226730215127 ], [ 117.313843438620253, 42.408204215492255 ], [ 117.313849514880971, 42.408204198857426 ], [ 117.313849469986579, 42.408195192968257 ], [ 117.313855546246401, 42.408195176333116 ], [ 117.313855523798793, 42.408190673388525 ], [ 117.313843371279944, 42.408190706658502 ], [ 117.313843348833203, 42.408186203713889 ], [ 117.313837272574204, 42.408186220348391 ], [ 117.313837250127889, 42.408181717403806 ], [ 117.313825097610803, 42.408181750671822 ], [ 117.313825075165354, 42.408177247727217 ], [ 117.313818998907223, 42.408177264360745 ], [ 117.313819021352231, 42.408181767305351 ], [ 117.313806868835087, 42.408181800571441 ], [ 117.313806913723383, 42.408190806460674 ], [ 117.31380083746393, 42.408190823093243 ], [ 117.313800859907658, 42.408195326037841 ], [ 117.313794783647779, 42.408195342670098 ], [ 117.313794850977686, 42.408208851503915 ], [ 117.31380700350006, 42.408208818239082 ], [ 117.313807048388398, 42.408217824128258 ], [ 117.313813124650466, 42.408217807495348 ], [ 117.313813147095075, 42.408222310439939 ], [ 117.313831375882501, 42.408222260539269 ], [ 117.313831398328432, 42.408226763483846 ] ] ] } },
{ "type": "Feature", "properties": { "crown_id": 5571, "tree_id": "5574", "top_h_m": 23.147, "H_95_Mean": 22.8568, "DBH": 34.8429, "Carbon_kg": 249.097304, "area_m2": 28.75 }, "geometry": { "type": "Polygon", "coordinates": [ [ [ 117.31374032170261, 42.408240521792003 ], [ 117.313746397966881, 42.408240505162624 ], [ 117.313746308207485, 42.408222493384223 ], [ 117.313752384470007, 42.408222476754531 ], [ 117.313752362029717, 42.408217973809919 ], [ 117.313758438291842, 42.408217957179907 ], [ 117.313758393410424, 42.408208951290689 ], [ 117.313770545932854, 42.408208918029722 ], [ 117.313770478608191, 42.408195409195883 ], [ 117.313764402348255, 42.408195425826513 ], [ 117.313764379907155, 42.408190922881893 ], [ 117.31375830364766, 42.408190939512203 ], [ 117.313758213885009, 42.408172927733659 ], [ 117.313721756338438, 42.408173027508717 ], [ 117.313721778776483, 42.408177530453372 ], [ 117.313697473743588, 42.408177596963654 ], [ 117.313697518616223, 42.408186602852972 ], [ 117.31369144235714, 42.408186619479743 ], [ 117.313691532100734, 42.408204631258357 ], [ 117.313703684622425, 42.408204598004474 ], [ 117.313703707059204, 42.408209100949115 ], [ 117.313709783320476, 42.408209084321705 ], [ 117.313709805757696, 42.408213587266332 ], [ 117.313715882019409, 42.40821357063858 ], [ 117.313715949332405, 42.408227079472447 ], [ 117.313740254384342, 42.4082270129582 ], [ 117.31374032170261, 42.408240521792003 ] ] ] } },
{ "type": "Feature", "properties": { "crown_id": 5575, "tree_id": "5578", "top_h_m": 22.876, "H_95_Mean": 22.813, "DBH": 34.0051, "Carbon_kg": 236.903848, "area_m2": 26.25 }, "geometry": { "type": "Polygon", "coordinates": [ [ [ 117.313588302951231, 42.40821842269839 ], [ 117.313606531737918, 42.408218372833495 ], [ 117.313606486878228, 42.408209366944142 ], [ 117.313624715662272, 42.408209317076356 ], [ 117.313624693231134, 42.408204814131679 ], [ 117.313661150796463, 42.408204714387423 ], [ 117.31366112836271, 42.408200211442761 ], [ 117.313667204623144, 42.408200194817596 ], [ 117.313667182188993, 42.408195691872933 ], [ 117.313679334708951, 42.408195658621636 ], [ 117.313679312273933, 42.408191155676981 ], [ 117.313685388533472, 42.408191139050857 ], [ 117.31368534366257, 42.408182133161525 ], [ 117.313679267403884, 42.408182149787649 ], [ 117.313679289838902, 42.408186652732319 ], [ 117.31367321357979, 42.408186669358109 ], [ 117.313673191145199, 42.408182166413454 ], [ 117.313661038627814, 42.408182199664083 ], [ 117.313660993760394, 42.408173193774729 ], [ 117.313654917502575, 42.408173210399546 ], [ 117.313654872636036, 42.408164204510165 ], [ 117.31364879637907, 42.408164221134676 ], [ 117.313648818811899, 42.40816872407936 ], [ 117.313630590039665, 42.408168773950941 ], [ 117.313630612471201, 42.408173276895639 ], [ 117.313624536213339, 42.408173293518864 ], [ 117.313624558644435, 42.408177796463562 ], [ 117.313600253611213, 42.408177862953224 ], [ 117.313600276040589, 42.408182365897936 ], [ 117.313594199781832, 42.408182382519541 ], [ 117.313594177352883, 42.408177879574843 ], [ 117.313582024836236, 42.408177912817095 ], [ 117.313582069692387, 42.408186918706512 ], [ 117.313588145951584, 42.408186902085546 ], [ 117.313588190808588, 42.40819590797495 ], [ 117.313594267068652, 42.408195891353643 ], [ 117.313594289497587, 42.408200394298341 ], [ 117.313588213237097, 42.40820041091964 ], [ 117.313588258094143, 42.408209416809029 ], [ 117.313594334355528, 42.408209400187715 ], [ 117.313594356784492, 42.408213903132406 ], [ 117.31358828052268, 42.408213919753713 ], [ 117.313588302951231, 42.40821842269839 ] ] ] } },
{ "type": "Feature", "properties": { "crown_id": 5615, "tree_id": "5618", "top_h_m": 23.43, "H_95_Mean": 23.1103, "DBH": 31.0441, "Carbon_kg": 198.680469, "area_m2": 18.0 }, "geometry": { "type": "Polygon", "coordinates": [ [ [ 117.313776577310094, 42.408199895509526 ], [ 117.313788729830733, 42.408199862246633 ], [ 117.313788684945038, 42.408190856357415 ], [ 117.313794761204491, 42.408190839725485 ], [ 117.313794738761217, 42.408186336780872 ], [ 117.31380081502023, 42.40818632014863 ], [ 117.313800770132815, 42.408177314259397 ], [ 117.313812922649078, 42.408177280993947 ], [ 117.313812765537207, 42.408145760381544 ], [ 117.313806689282117, 42.408145777014411 ], [ 117.313806666838019, 42.408141274069777 ], [ 117.313788438073999, 42.408141323966426 ], [ 117.31378846051679, 42.408145826911067 ], [ 117.313782384261685, 42.408145843542641 ], [ 117.313782406704036, 42.408150346487311 ], [ 117.313776330448491, 42.408150363118558 ], [ 117.313776375332367, 42.408159369007855 ], [ 117.313764222819515, 42.408159402269419 ], [ 117.313764357466056, 42.408186419937259 ], [ 117.313770433725097, 42.408186403306622 ], [ 117.313770456166623, 42.408190906251264 ], [ 117.313776532426104, 42.4081908896203 ], [ 117.313776577310094, 42.408199895509526 ] ] ] } },
{ "type": "Feature", "properties": { "crown_id": 5643, "tree_id": "5646", "top_h_m": 22.569, "H_95_Mean": 22.5567, "DBH": 30.909, "Carbon_kg": 194.137536, "area_m2": 18.5 }, "geometry": { "type": "Polygon", "coordinates": [ [ [ 117.313588078666072, 42.40817339325141 ], [ 117.313618459955464, 42.408173310141763 ], [ 117.313618437524823, 42.40816880719705 ], [ 117.31362451378223, 42.408168790574159 ], [ 117.313624491351149, 42.408164287629454 ], [ 117.313642720122118, 42.408164237758854 ], [ 117.313642697689716, 42.408159734814149 ], [ 117.313648773946255, 42.408159718189971 ], [ 117.313648751513441, 42.408155215245273 ], [ 117.313642675257341, 42.408155231869443 ], [ 117.313642630392579, 42.408146225980019 ], [ 117.313648706647825, 42.408146209355849 ], [ 117.31364866178221, 42.408137203466424 ], [ 117.313624356764734, 42.408137269961145 ], [ 117.313624334333682, 42.408132767016411 ], [ 117.31360002931784, 42.408132833505974 ], [ 117.313600006888535, 42.408128330561226 ], [ 117.313593930634994, 42.40812834718281 ], [ 117.313593975492751, 42.408137353072306 ], [ 117.313587899238343, 42.40813736969357 ], [ 117.313588078666072, 42.40817339325141 ] ] ] } },
{ "type": "Feature", "properties": { "crown_id": 5661, "tree_id": "5664", "top_h_m": 23.754, "H_95_Mean": 23.2184, "DBH": 37.393, "Carbon_kg": 289.886593, "area_m2": 36.75 }, "geometry": { "type": "Polygon", "coordinates": [ [ [ 117.31372173390038, 42.408168524564061 ], [ 117.313758191444364, 42.408168424789011 ], [ 117.31375812412243, 42.408154915955059 ], [ 117.313770276634415, 42.408154882694141 ], [ 117.31377023175142, 42.408145876804838 ], [ 117.313776308006538, 42.408145860173896 ], [ 117.313776285564629, 42.408141357229248 ], [ 117.313782361819307, 42.408141340597986 ], [ 117.313782339376971, 42.408136837653331 ], [ 117.313794491885446, 42.408136804389869 ], [ 117.313794402112592, 42.408118792611212 ], [ 117.313776173355066, 42.408118842505907 ], [ 117.313776150913171, 42.408114339561216 ], [ 117.313770074661079, 42.408114356192129 ], [ 117.313770029778183, 42.408105350302762 ], [ 117.313745724773284, 42.408105416823176 ], [ 117.313745747212977, 42.408109919767881 ], [ 117.313721442206244, 42.408109986283144 ], [ 117.313721397330298, 42.408100980393719 ], [ 117.313703168577817, 42.408101030276775 ], [ 117.313703191014483, 42.408105533221502 ], [ 117.313697114763215, 42.408105549848543 ], [ 117.313697137199426, 42.408110052793269 ], [ 117.313703213451134, 42.408110036166214 ], [ 117.313703258324509, 42.408119042055645 ], [ 117.313709334577098, 42.40811902542827 ], [ 117.313709446762729, 42.40814154015176 ], [ 117.313721599272213, 42.408141506896015 ], [ 117.313721666586289, 42.408155015730053 ], [ 117.313715590330247, 42.408155032358096 ], [ 117.313715635205426, 42.408164038247428 ], [ 117.313721711462335, 42.408164021619392 ], [ 117.31372173390038, 42.408168524564061 ] ] ] } },
{ "type": "Feature", "properties": { "crown_id": 5664, "tree_id": "5667", "top_h_m": 20.88, "H_95_Mean": 20.6792, "DBH": 32.2218, "Carbon_kg": 200.537797, "area_m2": 25.5 }, "geometry": { "type": "Polygon", "coordinates": [ [ [ 117.313667070018241, 42.408173177149571 ], [ 117.313715680080648, 42.408173044136774 ], [ 117.313715657643044, 42.408168541192097 ], [ 117.313709581385694, 42.408168557819828 ], [ 117.313709491637027, 42.408150546041128 ], [ 117.313715567892658, 42.408150529413419 ], [ 117.313715545455068, 42.408146026468735 ], [ 117.313703392944703, 42.408146059723833 ], [ 117.313703280761189, 42.408123545000358 ], [ 117.313697204508188, 42.408123561627413 ], [ 117.313697159635666, 42.408114555737974 ], [ 117.313691083383532, 42.408114572364717 ], [ 117.31369101607612, 42.408101063530538 ], [ 117.313684939825279, 42.408101080156939 ], [ 117.313684962260623, 42.408105583101673 ], [ 117.313678886009328, 42.40810559972774 ], [ 117.313678908444274, 42.408110102672474 ], [ 117.313672832192537, 42.408110119298236 ], [ 117.313672899496055, 42.408123628132401 ], [ 117.313666823243011, 42.40812364475785 ], [ 117.313666845677091, 42.40812814770257 ], [ 117.313660769423635, 42.408128164327685 ], [ 117.313660814290927, 42.408137170217131 ], [ 117.31365473803659, 42.408137186841941 ], [ 117.313654850202781, 42.408159701565467 ], [ 117.31366092645932, 42.408159684940657 ], [ 117.313660971326698, 42.408168690830031 ], [ 117.313667047584104, 42.40816867420488 ], [ 117.313667070018241, 42.408173177149571 ] ] ] } }
]
}
