{
"type": "FeatureCollection",
"name": "tile_8_20",
"crs": { "type": "name", "properties": { "name": "urn:ogc:def:crs:OGC:1.3:CRS84" } },
"features": [
{ "type": "Feature", "properties": { "crown_id": 2355, "tree_id": "2355", "top_h_m": 22.979, "H_95_Mean": 22.6535, "DBH": 33.8094, "Carbon_kg": 233.194268, "area_m2": 26.0 }, "geometry": { "type": "Polygon", "coordinates": [ [ [ 117.314770589707933, 42.410128959771804 ], [ 117.314782742599803, 42.410128926402322 ], [ 117.314782675053408, 42.410115417574339 ], [ 117.31476444571949, 42.410115467628046 ], [ 117.314764400691203, 42.410106461742686 ], [ 117.314758324247407, 42.410106478426599 ], [ 117.314758189165261, 42.410079460770419 ], [ 117.314752112724094, 42.410079477454019 ], [ 117.314752045184377, 42.410065968625858 ], [ 117.314745968744504, 42.41006598530911 ], [ 117.31474601377009, 42.410074991194556 ], [ 117.314727784447825, 42.410075041242408 ], [ 117.31472780695934, 42.41007954418513 ], [ 117.314703501194487, 42.41007961091109 ], [ 117.314703546214034, 42.41008861679655 ], [ 117.314697469771943, 42.410088633477244 ], [ 117.314697492281297, 42.410093136419974 ], [ 117.314703568723814, 42.41009311973928 ], [ 117.314703636253171, 42.410106628567412 ], [ 117.31470971269701, 42.410106611886391 ], [ 117.314709780227716, 42.410120120714502 ], [ 117.314715856672862, 42.410120104033147 ], [ 117.314715879183524, 42.410124606975849 ], [ 117.314770567193321, 42.410124456829131 ], [ 117.314770589707933, 42.410128959771804 ] ] ] } },
{ "type": "Feature", "properties": { "crown_id": 2367, "tree_id": "2367", "top_h_m": 21.598, "H_95_Mean": 21.3798, "DBH": 31.6044, "Carbon_kg": 196.707068, "area_m2": 22.25 }, "geometry": { "type": "Polygon", "coordinates": [ [ [ 117.314618633550253, 42.410120370896166 ], [ 117.314630786440631, 42.410120337542793 ], [ 117.314630763936051, 42.41011583460007 ], [ 117.314655069715045, 42.410115767889479 ], [ 117.31465502470239, 42.41010676200402 ], [ 117.314648948258522, 42.410106778682149 ], [ 117.314648925752635, 42.410102275739405 ], [ 117.314655002196076, 42.410102259061283 ], [ 117.314654934677151, 42.410088750233058 ], [ 117.314661011119284, 42.41008873355463 ], [ 117.31466098861253, 42.410084230611886 ], [ 117.314654912170852, 42.410084247290321 ], [ 117.314654889664567, 42.41007974434757 ], [ 117.314642736782019, 42.410079777703473 ], [ 117.314642691771198, 42.410070771817942 ], [ 117.314636615330784, 42.410070788495403 ], [ 117.314636592825821, 42.410066285552638 ], [ 117.314612287065898, 42.41006635225925 ], [ 117.314612264562655, 42.41006184931647 ], [ 117.314606188123093, 42.410061865992311 ], [ 117.314606210625897, 42.410066368935091 ], [ 117.314600134185895, 42.410066385610619 ], [ 117.314600156688243, 42.410070888553399 ], [ 117.314606233128671, 42.410070871877863 ], [ 117.314606300637124, 42.410084380706202 ], [ 117.314600224195374, 42.410084397381731 ], [ 117.314600314204966, 42.410102409152806 ], [ 117.314606390648422, 42.410102392477256 ], [ 117.314606458156973, 42.41011590130551 ], [ 117.314618611046512, 42.410115867953429 ], [ 117.314618633550253, 42.410120370896166 ] ] ] } },
{ "type": "Feature", "properties": { "crown_id": 2383, "tree_id": "2383", "top_h_m": 21.047, "H_95_Mean": 20.7837, "DBH": 33.6073, "Carbon_kg": 218.948458, "area_m2": 29.75 }, "geometry": { "type": "Polygon", "coordinates": [ [ [ 117.314788751498028, 42.410115400889111 ], [ 117.314794827942663, 42.410115384203571 ], [ 117.314794805426345, 42.41011088126092 ], [ 117.314806958314691, 42.410110847888873 ], [ 117.314806935797506, 42.410106344946207 ], [ 117.314819088684985, 42.410106311572889 ], [ 117.314819066166919, 42.410101808630223 ], [ 117.314825142610218, 42.410101791943077 ], [ 117.314825097573262, 42.41009278605776 ], [ 117.314843326900515, 42.410092735994411 ], [ 117.31484330438073, 42.410088233051745 ], [ 117.314849380822693, 42.410088216363327 ], [ 117.314849358302482, 42.410083713420669 ], [ 117.314843281860959, 42.410083730109079 ], [ 117.314843259341174, 42.410079227166413 ], [ 117.314837182900078, 42.410079243854504 ], [ 117.314837137861446, 42.410070237969151 ], [ 117.314843214301675, 42.41007022128106 ], [ 117.314843191781918, 42.410065718338387 ], [ 117.314837115342129, 42.410065735026471 ], [ 117.314837047784224, 42.410052226198395 ], [ 117.31482489490719, 42.41005225957359 ], [ 117.314824962462509, 42.410065768401665 ], [ 117.314800656703227, 42.410065835148224 ], [ 117.314800679219928, 42.410070338090925 ], [ 117.314794602779642, 42.410070354776749 ], [ 117.314794580263381, 42.410065851834048 ], [ 117.314758121624251, 42.410065951942293 ], [ 117.314758166651586, 42.410074957827717 ], [ 117.314764243092327, 42.410074941143812 ], [ 117.314764378177046, 42.410101958799999 ], [ 117.314770454620401, 42.410101942115752 ], [ 117.314770499649555, 42.410110948001119 ], [ 117.314788728982151, 42.410110897946453 ], [ 117.314788751498028, 42.410115400889111 ] ] ] } },
{ "type": "Feature", "properties": { "crown_id": 2404, "tree_id": "2404", "top_h_m": 19.28, "H_95_Mean": 19.2958, "DBH": 23.1294, "Carbon_kg": 98.675488, "area_m2": 8.0 }, "geometry": { "type": "Polygon", "coordinates": [ [ [ 117.314673141495916, 42.410084197254051 ], [ 117.314697447262603, 42.410084130534514 ], [ 117.314697402243937, 42.410075124649055 ], [ 117.31472170800707, 42.410075057924381 ], [ 117.314721685495996, 42.410070554981637 ], [ 117.314739914816982, 42.410070504934779 ], [ 117.31473984727991, 42.410056996106583 ], [ 117.314727694401867, 42.410057029471467 ], [ 117.314727716913353, 42.410061532414218 ], [ 117.314697334715987, 42.410061615820815 ], [ 117.314697379734625, 42.410070621706296 ], [ 117.314679150413525, 42.410070671746411 ], [ 117.314679172921544, 42.410075174689169 ], [ 117.31466702003992, 42.410075208047637 ], [ 117.314667042547086, 42.410079710990381 ], [ 117.314673118988324, 42.410079694311307 ], [ 117.314673141495916, 42.410084197254051 ] ] ] } },
{ "type": "Feature", "properties": { "crown_id": 2445, "tree_id": "2445", "top_h_m": 20.699, "H_95_Mean": 20.531, "DBH": 30.5454, "Carbon_kg": 179.300436, "area_m2": 21.0 }, "geometry": { "type": "Polygon", "coordinates": [ [ [ 117.314745946231696, 42.410061482366395 ], [ 117.314818863504698, 42.410061282146103 ], [ 117.3148187959507, 42.410047773317991 ], [ 117.314830948826852, 42.410047739943451 ], [ 117.314830903789129, 42.410038734058041 ], [ 117.314824827351941, 42.410038750745457 ], [ 117.314824804833535, 42.410034247802749 ], [ 117.314818728396759, 42.410034264489852 ], [ 117.314818705878793, 42.410029761547136 ], [ 117.31479440013338, 42.410029828292302 ], [ 117.314794377617162, 42.410025325349572 ], [ 117.314757919001494, 42.410025425457668 ], [ 117.314758054083285, 42.410052443114111 ], [ 117.314751977644718, 42.410052459797683 ], [ 117.314752000157924, 42.410056962740413 ], [ 117.314745923718917, 42.410056979423658 ], [ 117.314745946231696, 42.410061482366395 ] ] ] } },
{ "type": "Feature", "properties": { "crown_id": 2469, "tree_id": "2469", "top_h_m": 22.291, "H_95_Mean": 22.1675, "DBH": 30.9718, "Carbon_kg": 192.936944, "area_m2": 19.25 }, "geometry": { "type": "Polygon", "coordinates": [ [ [ 117.314557576606404, 42.410061999387473 ], [ 117.314600111683518, 42.410061882667826 ], [ 117.314600089181184, 42.410057379725039 ], [ 117.314612242059425, 42.410057346373677 ], [ 117.314612129543377, 42.410034831659679 ], [ 117.314606053106431, 42.410034848335521 ], [ 117.314606030603684, 42.410030345392691 ], [ 117.314599954167136, 42.410030362068206 ], [ 117.314599931664844, 42.41002585912539 ], [ 117.314593855228736, 42.410025875800564 ], [ 117.314593810224977, 42.410016869914912 ], [ 117.314569504484012, 42.410016936612394 ], [ 117.314569526984158, 42.41002143955523 ], [ 117.314557374112781, 42.410021472902038 ], [ 117.314557576606404, 42.410061999387473 ] ] ] } },
{ "type": "Feature", "properties": { "crown_id": 2470, "tree_id": "2470", "top_h_m": 23.529, "H_95_Mean": 23.0943, "DBH": 36.833, "Carbon_kg": 280.313215, "area_m2": 35.0 }, "geometry": { "type": "Polygon", "coordinates": [ [ [ 117.314648790717428, 42.410075258082919 ], [ 117.31466094359908, 42.410075224726391 ], [ 117.314660921092383, 42.410070721783619 ], [ 117.314673073973154, 42.410070688425812 ], [ 117.314673051465562, 42.410066185483061 ], [ 117.314691280785382, 42.41006613544392 ], [ 117.314691168241012, 42.410043620730129 ], [ 117.314685091803256, 42.410043637410155 ], [ 117.314684934244426, 42.410012116810684 ], [ 117.314691010679169, 42.410012100130686 ], [ 117.314690965661512, 42.410003094245099 ], [ 117.314678812793829, 42.410003127604767 ], [ 117.314678790285882, 42.409998624661966 ], [ 117.314648408118742, 42.409998708055497 ], [ 117.314648475636062, 42.410012216883942 ], [ 117.314642399201304, 42.410012233561687 ], [ 117.314642444212012, 42.410021239447303 ], [ 117.314636367776387, 42.410021256124736 ], [ 117.314636390281308, 42.410025759067544 ], [ 117.314630313845214, 42.41002577574465 ], [ 117.314630336349737, 42.410030278687458 ], [ 117.314624259913217, 42.410030295364251 ], [ 117.31462428241727, 42.410034798307059 ], [ 117.314618205980324, 42.410034814983526 ], [ 117.314618295994904, 42.410052826754715 ], [ 117.314624372433585, 42.410052810078234 ], [ 117.314624394937667, 42.410057313021021 ], [ 117.31463654781588, 42.410057279667079 ], [ 117.314636570320843, 42.410061782609866 ], [ 117.31464264676039, 42.410061765932404 ], [ 117.314642669265794, 42.41006626887517 ], [ 117.314648745705767, 42.410066252197396 ], [ 117.314648790717428, 42.410075258082919 ] ] ] } },
{ "type": "Feature", "properties": { "crown_id": 2471, "tree_id": "2471", "top_h_m": 22.681, "H_95_Mean": 22.657, "DBH": 31.7034, "Carbon_kg": 204.862113, "area_m2": 20.25 }, "geometry": { "type": "Polygon", "coordinates": [ [ [ 117.314697312206661, 42.410057112878057 ], [ 117.314721617962846, 42.410057046153433 ], [ 117.314721595451786, 42.410052543210689 ], [ 117.314745901206138, 42.410052476480921 ], [ 117.314745878693358, 42.410047973538177 ], [ 117.314751955131499, 42.410047956854939 ], [ 117.314751842565542, 42.410025442141205 ], [ 117.31473361325763, 42.410025492189945 ], [ 117.314733568233876, 42.410016486304407 ], [ 117.31472141536365, 42.410016519668616 ], [ 117.314721392852647, 42.410012016725837 ], [ 117.314709239983259, 42.410012050088731 ], [ 117.314709217473151, 42.410007547145959 ], [ 117.314703141038876, 42.41000756382693 ], [ 117.314703118529195, 42.410003060884129 ], [ 117.314697042095361, 42.410003077564774 ], [ 117.314697109623111, 42.410016586393148 ], [ 117.31469103318797, 42.410016603073473 ], [ 117.314691145732183, 42.410039117787363 ], [ 117.314697222169485, 42.41003910110701 ], [ 117.314697312206661, 42.410057112878057 ] ] ] } },
{ "type": "Feature", "properties": { "crown_id": 2500, "tree_id": "2500", "top_h_m": 22.156, "H_95_Mean": 21.998, "DBH": 30.3306, "Carbon_kg": 184.133212, "area_m2": 18.0 }, "geometry": { "type": "Polygon", "coordinates": [ [ [ 117.31461210704019, 42.410030328716871 ], [ 117.314618183476711, 42.410030312040725 ], [ 117.314618160973083, 42.410025809097917 ], [ 117.314624237409163, 42.41002579242145 ], [ 117.314624214905109, 42.410021289478635 ], [ 117.314630291340734, 42.410021272801842 ], [ 117.314630268836254, 42.410016769859034 ], [ 117.314636345271467, 42.410016753181928 ], [ 117.314636300261625, 42.410007747296305 ], [ 117.314642376695957, 42.410007730618879 ], [ 117.314642309179973, 42.40999422179042 ], [ 117.314666614911985, 42.409994155077527 ], [ 117.314666592404933, 42.409989652134712 ], [ 117.314660515972363, 42.409989668813424 ], [ 117.314660493465738, 42.409985165870594 ], [ 117.314654417033609, 42.409985182548972 ], [ 117.314654394527437, 42.409980679606143 ], [ 117.314642241664032, 42.409980712961918 ], [ 117.314642219158728, 42.409976210019089 ], [ 117.314630066296161, 42.409976243373578 ], [ 117.314630088800598, 42.409980746316414 ], [ 117.314605783073674, 42.409980813021534 ], [ 117.314605828079081, 42.409989818907235 ], [ 117.314599751646469, 42.409989835582728 ], [ 117.314599909162524, 42.410021356182561 ], [ 117.314605985598163, 42.410021339507068 ], [ 117.314606008100924, 42.410025842449883 ], [ 117.314612084537004, 42.410025825774063 ], [ 117.31461210704019, 42.410030328716871 ] ] ] } },
{ "type": "Feature", "properties": { "crown_id": 2518, "tree_id": "2518", "top_h_m": 21.967, "H_95_Mean": 21.8337, "DBH": 32.3724, "Carbon_kg": 209.041486, "area_m2": 23.5 }, "geometry": { "type": "Polygon", "coordinates": [ [ [ 117.314739667181286, 42.410020972564602 ], [ 117.314776125794438, 42.410020872462319 ], [ 117.314776035734809, 42.4100028606913 ], [ 117.314769959301046, 42.41000287737581 ], [ 117.314769869243236, 42.409984865604734 ], [ 117.314763792811206, 42.409984882288903 ], [ 117.314763770297205, 42.409980379346123 ], [ 117.314757693865602, 42.409980396029979 ], [ 117.31475764883848, 42.409971390144399 ], [ 117.314751572407715, 42.409971406827921 ], [ 117.314751549894609, 42.409966903885113 ], [ 117.314739397033975, 42.409966937251184 ], [ 117.314739419546228, 42.409971440193999 ], [ 117.314733343115464, 42.409971456876548 ], [ 117.314733388139118, 42.409980462762157 ], [ 117.314703005980874, 42.409980546170125 ], [ 117.314703073509847, 42.409994054998542 ], [ 117.314696997076894, 42.409994071679179 ], [ 117.31469701958612, 42.40999857462198 ], [ 117.314709172452936, 42.409998541260379 ], [ 117.314709194963044, 42.410003044203165 ], [ 117.31471527139685, 42.410003027521881 ], [ 117.314715293907398, 42.410007530464668 ], [ 117.31472744677589, 42.410007497101127 ], [ 117.31472746928732, 42.410012000043906 ], [ 117.314739622156694, 42.410011966679065 ], [ 117.314739667181286, 42.410020972564602 ] ] ] } },
{ "type": "Feature", "properties": { "crown_id": 2570, "tree_id": "2570", "top_h_m": 21.025, "H_95_Mean": 20.9824, "DBH": 28.5394, "Carbon_kg": 158.383084, "area_m2": 15.5 }, "geometry": { "type": "Polygon", "coordinates": [ [ [ 117.314599684139679, 42.409976326754169 ], [ 117.31462398986487, 42.409976260050335 ], [ 117.314623967360859, 42.409971757107492 ], [ 117.314648273084273, 42.409971690398528 ], [ 117.314648205567096, 42.409958181569984 ], [ 117.314642129137553, 42.409958198247701 ], [ 117.314642084127016, 42.409949192361985 ], [ 117.31462993126965, 42.409949225716446 ], [ 117.314629908765241, 42.409944722773574 ], [ 117.314623832337006, 42.40994473945031 ], [ 117.314623764825157, 42.40993123062168 ], [ 117.314617688398201, 42.409931247298097 ], [ 117.314617665894687, 42.409926744355204 ], [ 117.314611589468171, 42.409926761031294 ], [ 117.314611656977405, 42.409940269859952 ], [ 117.314605580549596, 42.409940286535729 ], [ 117.314605603052243, 42.409944789478608 ], [ 117.314599526623979, 42.409944806154058 ], [ 117.31459957162842, 42.409953812039831 ], [ 117.314587418770145, 42.409953845389786 ], [ 117.314587486274263, 42.409967354218402 ], [ 117.314593562704701, 42.409967337543577 ], [ 117.314593585206538, 42.409971840486463 ], [ 117.314599661637402, 42.409971823811311 ], [ 117.314599684139679, 42.409976326754169 ] ] ] } },
{ "type": "Feature", "properties": { "crown_id": 2578, "tree_id": "2578", "top_h_m": 21.473, "H_95_Mean": 21.1989, "DBH": 33.9235, "Carbon_kg": 225.745897, "area_m2": 29.75 }, "geometry": { "type": "Polygon", "coordinates": [ [ [ 117.314678767777963, 42.409994121719158 ], [ 117.314690920643912, 42.409994088359483 ], [ 117.31469089813514, 42.409989585416696 ], [ 117.314696974567653, 42.409989568736385 ], [ 117.314696907040002, 42.409976059907947 ], [ 117.314727289196071, 42.409975976501578 ], [ 117.314727244173312, 42.409966970615969 ], [ 117.314733320603651, 42.409966953933733 ], [ 117.314733298091838, 42.409962450990939 ], [ 117.314745450951634, 42.409962417625522 ], [ 117.314745293363032, 42.409930897025781 ], [ 117.314727064082476, 42.40993094707337 ], [ 117.314727041571146, 42.409926444130541 ], [ 117.314696659438951, 42.40992652753674 ], [ 117.314696681948121, 42.409931030479598 ], [ 117.314690605521221, 42.409931047159873 ], [ 117.314690650538694, 42.409940053045574 ], [ 117.314678497683175, 42.409940086405179 ], [ 117.314678542698914, 42.40994909229088 ], [ 117.314672466270295, 42.409949108970203 ], [ 117.314672556300081, 42.409967120741562 ], [ 117.314678632730462, 42.409967104062233 ], [ 117.314678722762096, 42.409985115833528 ], [ 117.314672646329981, 42.409985132512872 ], [ 117.314672668837474, 42.409989635455702 ], [ 117.314678745270044, 42.409989618776351 ], [ 117.314678767777963, 42.409994121719158 ] ] ] } },
{ "type": "Feature", "properties": { "crown_id": 2579, "tree_id": "2579", "top_h_m": 21.242, "H_95_Mean": 20.8897, "DBH": 30.7972, "Carbon_kg": 184.168957, "area_m2": 21.0 }, "geometry": { "type": "Polygon", "coordinates": [ [ [ 117.314775945675265, 42.409984848920232 ], [ 117.314782022107309, 42.409984832235416 ], [ 117.314781977076706, 42.409975826349864 ], [ 117.314800206370137, 42.4099757762935 ], [ 117.314800183853549, 42.40997127335072 ], [ 117.314806260284257, 42.409971256664619 ], [ 117.314806237767229, 42.409966753721839 ], [ 117.314812314197482, 42.409966737035425 ], [ 117.314812291680013, 42.409962234092653 ], [ 117.31483052096948, 42.409962184031464 ], [ 117.314830498450718, 42.409957681088699 ], [ 117.314842651309476, 42.409957647712972 ], [ 117.314842606270247, 42.409948641827434 ], [ 117.314830453413222, 42.409948675203147 ], [ 117.314830430894489, 42.409944172260367 ], [ 117.314763590185365, 42.409944355803731 ], [ 117.31476356767142, 42.409939852860916 ], [ 117.314757491243725, 42.40993986954475 ], [ 117.314757468730207, 42.409935366601928 ], [ 117.314751392302938, 42.409935383285429 ], [ 117.314751527381503, 42.40996240094232 ], [ 117.314757603811373, 42.409962384258804 ], [ 117.314757626324919, 42.409966887201598 ], [ 117.314763702755215, 42.409966870517763 ], [ 117.314763747783203, 42.409975876403337 ], [ 117.314769824214366, 42.409975859719168 ], [ 117.314769846728808, 42.409980362661948 ], [ 117.314775923160411, 42.409980345977452 ], [ 117.314775945675265, 42.409984848920232 ] ] ] } }
]
}
