{
"type": "FeatureCollection",
"name": "tile_9_13",
"crs": { "type": "name", "properties": { "name": "urn:ogc:def:crs:OGC:1.3:CRS84" } },
"features": [
{ "type": "Feature", "properties": { "crown_id": 2632, "tree_id": "2632", "top_h_m": 20.159, "H_95_Mean": 20.1662, "DBH": 28.5727, "Carbon_kg": 155.073655, "area_m2": 16.75 }, "geometry": { "type": "Polygon", "coordinates": [ [ [ 117.312965034389222, 42.409962788986149 ], [ 117.312971110820186, 42.409962772397328 ], [ 117.312971021277164, 42.409944760623006 ], [ 117.312989250564783, 42.409944710854631 ], [ 117.312989183403673, 42.409931202023884 ], [ 117.312983106975764, 42.40993121861365 ], [ 117.312983062202591, 42.409922212726464 ], [ 117.312976985775563, 42.409922229315903 ], [ 117.312976941003271, 42.409913223428703 ], [ 117.31294048244618, 42.409913322958595 ], [ 117.312940460062663, 42.409908820014955 ], [ 117.312922230785333, 42.409908869775542 ], [ 117.312922297932033, 42.409922378606431 ], [ 117.312928374359103, 42.409922362019884 ], [ 117.312928396741782, 42.409926864963502 ], [ 117.312940549596803, 42.409926831789441 ], [ 117.312940616747468, 42.40994034062026 ], [ 117.312952769605076, 42.409940307444884 ], [ 117.312952836758384, 42.409953816275667 ], [ 117.312964989618592, 42.409953783098985 ], [ 117.312965034389222, 42.409962788986149 ] ] ] } },
{ "type": "Feature", "properties": { "crown_id": 2633, "tree_id": "2633", "top_h_m": 23.757, "H_95_Mean": 23.4108, "DBH": 36.1505, "Carbon_kg": 272.125079, "area_m2": 31.75 }, "geometry": { "type": "Polygon", "coordinates": [ [ [ 117.313050104422118, 42.409962556713289 ], [ 117.313074410145632, 42.409962490338017 ], [ 117.313074387752465, 42.409957987394485 ], [ 117.313086540613327, 42.409957954204927 ], [ 117.313086518219293, 42.409953451261387 ], [ 117.313092594649291, 42.409953434666136 ], [ 117.31309257225486, 42.409948931722603 ], [ 117.313098648684402, 42.409948915127018 ], [ 117.313098626289502, 42.409944412183499 ], [ 117.313104702718604, 42.409944395587594 ], [ 117.313104657928022, 42.409935389700529 ], [ 117.313110734356243, 42.409935373104311 ], [ 117.313110644773374, 42.409917361330145 ], [ 117.313086339067382, 42.409917427713047 ], [ 117.313086294279444, 42.409908421825939 ], [ 117.313080217853823, 42.409908438420842 ], [ 117.313080195460302, 42.409903935477267 ], [ 117.313074119035079, 42.409903952071851 ], [ 117.313074096641998, 42.409899449128282 ], [ 117.313068020217202, 42.409899465722546 ], [ 117.313067953039294, 42.409885956891792 ], [ 117.313055800192316, 42.409885990079339 ], [ 117.313055867367638, 42.409899498910107 ], [ 117.313049790942827, 42.409899515503419 ], [ 117.31304981333416, 42.409904018446987 ], [ 117.313043736908952, 42.409904035039972 ], [ 117.31304378169078, 42.40991304092713 ], [ 117.313037705264676, 42.409913057519802 ], [ 117.313037727655143, 42.409917560463384 ], [ 117.313031651228599, 42.409917577055715 ], [ 117.313031673618667, 42.409922079999291 ], [ 117.313037750045666, 42.409922063406952 ], [ 117.313037794826656, 42.409931069294096 ], [ 117.313043871254507, 42.409931052701424 ], [ 117.313044005600247, 42.409958070362762 ], [ 117.313050082030713, 42.409958053769749 ], [ 117.313050104422118, 42.409962556713289 ] ] ] } },
{ "type": "Feature", "properties": { "crown_id": 2668, "tree_id": "2668", "top_h_m": 19.695, "H_95_Mean": 19.5931, "DBH": 27.2756, "Carbon_kg": 138.824438, "area_m2": 14.75 }, "geometry": { "type": "MultiPolygon", "coordinates": [ [ [ [ 117.312982995042859, 42.40990870389566 ], [ 117.312983039816004, 42.40991770978286 ], [ 117.312989116242605, 42.409917693193094 ], [ 117.312989071468579, 42.409908687305894 ], [ 117.312982995042859, 42.40990870389566 ] ] ], [ [ [ 117.312982995042859, 42.40990870389566 ], [ 117.312982972656286, 42.409904200952035 ], [ 117.31298904908158, 42.409904184362283 ], [ 117.312988937146628, 42.409881669644193 ], [ 117.312982860723508, 42.409881686233938 ], [ 117.312982815950448, 42.409872680346673 ], [ 117.312976739528196, 42.409872696936091 ], [ 117.312976717142092, 42.409868193992445 ], [ 117.312970640720295, 42.409868210581536 ], [ 117.312970663105929, 42.409872713525182 ], [ 117.312964586683691, 42.40987273011396 ], [ 117.312964609068914, 42.409877233057607 ], [ 117.312952456223499, 42.40987726623419 ], [ 117.312952500992225, 42.409886272121476 ], [ 117.312940348145077, 42.40988630529678 ], [ 117.312940392912083, 42.409895311184066 ], [ 117.312928240063158, 42.409895344358091 ], [ 117.312928284828445, 42.409904350245377 ], [ 117.312946514104453, 42.409904300483831 ], [ 117.312946536488411, 42.409908803427456 ], [ 117.312982995042859, 42.40990870389566 ] ] ] ] } },
{ "type": "Feature", "properties": { "crown_id": 2669, "tree_id": "2669", "top_h_m": 21.121, "H_95_Mean": 20.975, "DBH": 29.3319, "Carbon_kg": 167.337456, "area_m2": 17.25 }, "geometry": { "type": "Polygon", "coordinates": [ [ [ 117.313001291483658, 42.409922162956192 ], [ 117.313019520764669, 42.409922113183015 ], [ 117.313019498375468, 42.40991761023944 ], [ 117.31302557480204, 42.409917593647741 ], [ 117.313025552412441, 42.409913090704151 ], [ 117.313031628838544, 42.409913074112133 ], [ 117.313031606448504, 42.409908571168558 ], [ 117.313037682874182, 42.409908554576219 ], [ 117.31303763809322, 42.40989954868904 ], [ 117.313043714518017, 42.409899532096382 ], [ 117.313043692127124, 42.409895029152793 ], [ 117.313049768551494, 42.409895012559822 ], [ 117.313049701377494, 42.409881503729032 ], [ 117.313031472108293, 42.409881553506949 ], [ 117.313031449718281, 42.409877050563352 ], [ 117.31301929687298, 42.40987708374702 ], [ 117.313019274483835, 42.409872580803409 ], [ 117.313007121639416, 42.40987261398579 ], [ 117.313007144027665, 42.409877116929408 ], [ 117.313001067605001, 42.409877133520112 ], [ 117.31300111238069, 42.409886139407355 ], [ 117.312995035957158, 42.409886155997746 ], [ 117.312995192669192, 42.409917676603008 ], [ 117.313001269095778, 42.409917660012596 ], [ 117.313001291483658, 42.409922162956192 ] ] ] } },
{ "type": "Feature", "properties": { "crown_id": 2670, "tree_id": "2670", "top_h_m": 22.301, "H_95_Mean": 22.0281, "DBH": 30.3502, "Carbon_kg": 184.522283, "area_m2": 18.0 }, "geometry": { "type": "Polygon", "coordinates": [ [ [ 117.313092393099481, 42.409912908174249 ], [ 117.313122775229758, 42.409912825193231 ], [ 117.313122730436632, 42.409903819306138 ], [ 117.313134883286963, 42.409903786111471 ], [ 117.313134771299858, 42.409881271393687 ], [ 117.313116542030883, 42.409881321185154 ], [ 117.313116497238696, 42.409872315298003 ], [ 117.313104344394389, 42.409872348490687 ], [ 117.313104321999162, 42.409867845547097 ], [ 117.313092169155752, 42.409867878738488 ], [ 117.313092191550098, 42.409872381682085 ], [ 117.313080038705763, 42.40987241487219 ], [ 117.313080061099271, 42.409876917815787 ], [ 117.313073984676649, 42.409876934410349 ], [ 117.313074074248931, 42.4098949461847 ], [ 117.313080150673258, 42.409894929590124 ], [ 117.31308017306678, 42.409899432533699 ], [ 117.313086249491533, 42.409899415938789 ], [ 117.313086271885481, 42.409903918882357 ], [ 117.313092348310704, 42.409903902287127 ], [ 117.313092393099481, 42.409912908174249 ] ] ] } },
{ "type": "Feature", "properties": { "crown_id": 2721, "tree_id": "2721", "top_h_m": 19.932, "H_95_Mean": 19.5672, "DBH": 36.7419, "Carbon_kg": 252.874451, "area_m2": 47.0 }, "geometry": { "type": "Polygon", "coordinates": [ [ [ 117.312910033171079, 42.409899897060377 ], [ 117.312922186020899, 42.40989986388827 ], [ 117.312922141256479, 42.409890858000971 ], [ 117.312934294104551, 42.409890824827599 ], [ 117.312934249338412, 42.409881818940299 ], [ 117.312946402184721, 42.409881785765641 ], [ 117.312946357416862, 42.409872779878349 ], [ 117.312958510261396, 42.409872746702412 ], [ 117.312958487876628, 42.409868243758758 ], [ 117.312964564298454, 42.409868227170307 ], [ 117.312964519528037, 42.409859221283007 ], [ 117.312958443107064, 42.409859237871451 ], [ 117.312958398337528, 42.409850231984123 ], [ 117.312964474757607, 42.409850215395679 ], [ 117.312964452372398, 42.409845712452018 ], [ 117.312970528792064, 42.409845695863261 ], [ 117.312970484020795, 42.409836689975926 ], [ 117.312958331183239, 42.409836723153106 ], [ 117.31295828641376, 42.409827717265749 ], [ 117.312970439249582, 42.409827684088583 ], [ 117.312970416863976, 42.409823181144901 ], [ 117.312958264029007, 42.409823214322074 ], [ 117.312958241644267, 42.409818711378385 ], [ 117.312933935976019, 42.409818777728844 ], [ 117.312933913593042, 42.409814274785134 ], [ 117.312903531509747, 42.409814357715959 ], [ 117.31290357627141, 42.409823363603387 ], [ 117.312885347018778, 42.409823413358026 ], [ 117.312885391777812, 42.409832419245447 ], [ 117.312879315359396, 42.409832435829699 ], [ 117.312879360117606, 42.40984144171712 ], [ 117.312885436536888, 42.409841425132868 ], [ 117.312885503675531, 42.409854933963963 ], [ 117.312891580096135, 42.409854917379384 ], [ 117.31289171437615, 42.409881935041454 ], [ 117.312897790799354, 42.409881918456549 ], [ 117.312897835560278, 42.40989092434387 ], [ 117.31290391198435, 42.40989090775863 ], [ 117.312903934365252, 42.409895410702283 ], [ 117.312910010789722, 42.409895394116724 ], [ 117.312910033171079, 42.409899897060377 ] ] ] } },
{ "type": "Feature", "properties": { "crown_id": 2752, "tree_id": "2752", "top_h_m": 18.541, "H_95_Mean": 19.2248, "DBH": 29.9627, "Carbon_kg": 165.896366, "area_m2": 22.0 }, "geometry": { "type": "Polygon", "coordinates": [ [ [ 117.313055777800571, 42.409881487135749 ], [ 117.313067930646653, 42.409881453948202 ], [ 117.313067885861415, 42.409872448061009 ], [ 117.31307396228361, 42.409872431466766 ], [ 117.313073939890572, 42.409867928523155 ], [ 117.313080016312298, 42.409867911928586 ], [ 117.31307990434496, 42.409845397210546 ], [ 117.313073827925393, 42.409845413805108 ], [ 117.313073805532383, 42.409840910861483 ], [ 117.313067729113257, 42.409840927455711 ], [ 117.313067706720673, 42.409836424512086 ], [ 117.313061630301974, 42.409836441105995 ], [ 117.313061607909844, 42.409831938162355 ], [ 117.313049455073283, 42.409831971349199 ], [ 117.313049410290759, 42.409822965461906 ], [ 117.313043333873338, 42.409822982054848 ], [ 117.31304335626416, 42.40982748499848 ], [ 117.313037279846327, 42.409827501591103 ], [ 117.313037324627103, 42.409836507478389 ], [ 117.313031248208375, 42.409836524070691 ], [ 117.313031270598344, 42.409841027014338 ], [ 117.313025194179176, 42.409841043606313 ], [ 117.313025238958261, 42.409850049493592 ], [ 117.313019162538211, 42.409850066085241 ], [ 117.313019207316458, 42.409859071972512 ], [ 117.313013130895541, 42.409859088563863 ], [ 117.313013153284217, 42.409863591507495 ], [ 117.313007076862874, 42.409863608098519 ], [ 117.313007099251124, 42.409868111042151 ], [ 117.313025328516503, 42.409868061268106 ], [ 117.313025350906045, 42.409872564211732 ], [ 117.313037503750479, 42.409872531027418 ], [ 117.313037526140917, 42.409877033971043 ], [ 117.313055755408811, 42.409876984192138 ], [ 117.313055777800571, 42.409881487135749 ] ] ] } },
{ "type": "Feature", "properties": { "crown_id": 2798, "tree_id": "2798", "top_h_m": 19.966, "H_95_Mean": 19.8142, "DBH": 30.5729, "Carbon_kg": 175.88982, "area_m2": 22.5 }, "geometry": { "type": "MultiPolygon", "coordinates": [ [ [ [ 117.312994924020146, 42.4098636412796 ], [ 117.313001000441503, 42.409863624689223 ], [ 117.31300097805368, 42.409859121745576 ], [ 117.312994901632763, 42.40985913833596 ], [ 117.312994924020146, 42.4098636412796 ] ] ], [ [ [ 117.31300097805368, 42.409859121745576 ], [ 117.313007054474625, 42.409859105154879 ], [ 117.313007032086361, 42.409854602211254 ], [ 117.313013108506851, 42.409854585620224 ], [ 117.3130130637295, 42.409845579732938 ], [ 117.313019140149109, 42.409845563141609 ], [ 117.313019095370905, 42.409836557254316 ], [ 117.313025171789647, 42.40983654066266 ], [ 117.313025149400133, 42.409832037719013 ], [ 117.31303122581842, 42.409832021127045 ], [ 117.313031181038497, 42.409823015239738 ], [ 117.313037257455932, 42.409822998647449 ], [ 117.313037212675169, 42.409813992760149 ], [ 117.313031136258601, 42.409814009352424 ], [ 117.313031113868675, 42.409809506408756 ], [ 117.312988578955697, 42.409809622545701 ], [ 117.312988556568783, 42.409805119602019 ], [ 117.312970327321594, 42.409805169370145 ], [ 117.312970349707172, 42.409809672313841 ], [ 117.312964273291016, 42.409809688902584 ], [ 117.312964318061319, 42.409818694789955 ], [ 117.312976470895407, 42.40981866161215 ], [ 117.312976627597777, 42.409850182217845 ], [ 117.312970551177699, 42.409850198806929 ], [ 117.312970573563334, 42.409854701750582 ], [ 117.312988802824862, 42.409854651982364 ], [ 117.312988780437934, 42.409850149038711 ], [ 117.312994856858012, 42.409850132448661 ], [ 117.312994879245366, 42.409854635392314 ], [ 117.313000955665885, 42.409854618801944 ], [ 117.31300097805368, 42.409859121745576 ] ] ] ] } },
{ "type": "Feature", "properties": { "crown_id": 2828, "tree_id": "2829", "top_h_m": 20.839, "H_95_Mean": 20.8106, "DBH": 31.7321, "Carbon_kg": 195.172344, "area_m2": 23.75 }, "geometry": { "type": "Polygon", "coordinates": [ [ [ 117.313079881951523, 42.409840894266928 ], [ 117.313098111208845, 42.409840844481344 ], [ 117.313098044024613, 42.409827335650483 ], [ 117.313104120442432, 42.409827319054649 ], [ 117.313104098047248, 42.409822816111038 ], [ 117.31311625088199, 42.409822782918404 ], [ 117.31311620608993, 42.409813777031147 ], [ 117.313122282506413, 42.409813760434361 ], [ 117.313122215317051, 42.409800251603478 ], [ 117.313116138901876, 42.409800268200257 ], [ 117.313116094109844, 42.409791262312986 ], [ 117.31311001769555, 42.409791278909438 ], [ 117.313110040091104, 42.409795781853092 ], [ 117.313043199528508, 42.40979596439287 ], [ 117.313043244310109, 42.409804970280213 ], [ 117.313037167894436, 42.409804986872814 ], [ 117.313037190284803, 42.409809489816475 ], [ 117.313043266700916, 42.409809473223874 ], [ 117.313043311482531, 42.409818479111181 ], [ 117.313055464316477, 42.409818445924998 ], [ 117.313055509099854, 42.409827451812298 ], [ 117.313067661935534, 42.409827418624822 ], [ 117.31306768432809, 42.409831921568454 ], [ 117.313073760746363, 42.409831904974233 ], [ 117.313073783139373, 42.409836407917858 ], [ 117.313079859558073, 42.40983639132331 ], [ 117.313079881951523, 42.409840894266928 ] ] ] } },
{ "type": "Feature", "properties": { "crown_id": 2881, "tree_id": "2882", "top_h_m": 22.074, "H_95_Mean": 21.671, "DBH": 30.7443, "Carbon_kg": 187.561406, "area_m2": 19.5 }, "geometry": { "type": "Polygon", "coordinates": [ [ [ 117.312994632984513, 42.40980510301199 ], [ 117.313031091478734, 42.409805003465088 ], [ 117.313031069088808, 42.409800500521413 ], [ 117.313037145504069, 42.409800483929139 ], [ 117.313037123113702, 42.409795980985471 ], [ 117.313031046698896, 42.409795997577753 ], [ 117.313030979529174, 42.409782488746693 ], [ 117.313024903115632, 42.40978250533864 ], [ 117.313024880726175, 42.409778002394944 ], [ 117.313018804313074, 42.409778018986565 ], [ 117.313018759535041, 42.409769013099165 ], [ 117.313012683122793, 42.409769029690452 ], [ 117.313012660734216, 42.409764526746741 ], [ 117.312988355087015, 42.409764593108669 ], [ 117.312988377473872, 42.409769096052393 ], [ 117.312982301061595, 42.409769112642074 ], [ 117.312982323448026, 42.409773615585785 ], [ 117.312970170622634, 42.40977364876418 ], [ 117.312970193008184, 42.409778151707904 ], [ 117.312964116595055, 42.409778168296626 ], [ 117.312964206135561, 42.409796180071474 ], [ 117.312970282550452, 42.409796163482753 ], [ 117.312970304936002, 42.409800666426449 ], [ 117.312994610597201, 42.409800600068301 ], [ 117.312994632984513, 42.40980510301199 ] ] ] } },
{ "type": "Feature", "properties": { "crown_id": 2882, "tree_id": "2883", "top_h_m": 20.234, "H_95_Mean": 20.041, "DBH": 27.5703, "Carbon_kg": 143.773381, "area_m2": 14.75 }, "geometry": { "type": "Polygon", "coordinates": [ [ [ 117.313049253552109, 42.409791444856282 ], [ 117.313103941281227, 42.409791295505563 ], [ 117.3131039188861, 42.409786792561924 ], [ 117.313116071713864, 42.409786759369346 ], [ 117.31311604931787, 42.409782256425693 ], [ 117.313109972904428, 42.409782273022131 ], [ 117.313109905717781, 42.409768764191156 ], [ 117.313103829305646, 42.409768780787275 ], [ 117.313103784515448, 42.409759774899939 ], [ 117.313091631692856, 42.409759808091209 ], [ 117.313091586904434, 42.409750802203845 ], [ 117.313073357673133, 42.409750851988306 ], [ 117.313073447244804, 42.409768863763048 ], [ 117.313067370832641, 42.409768880357241 ], [ 117.313067393225154, 42.40977338330093 ], [ 117.313061316812536, 42.409773399894796 ], [ 117.313061339204609, 42.409777902838478 ], [ 117.313055262791551, 42.409777919432024 ], [ 117.313055307574828, 42.409786925319374 ], [ 117.313049231160889, 42.409786941912621 ], [ 117.313049253552109, 42.409791444856282 ] ] ] } },
{ "type": "Feature", "properties": { "crown_id": 2921, "tree_id": "2922", "top_h_m": 20.477, "H_95_Mean": 20.2651, "DBH": 29.5844, "Carbon_kg": 166.821389, "area_m2": 19.0 }, "geometry": { "type": "Polygon", "coordinates": [ [ [ 117.313037078333025, 42.409786975098122 ], [ 117.313043154746964, 42.409786958505528 ], [ 117.313043132356171, 42.409782455561839 ], [ 117.313049208769669, 42.409782438968939 ], [ 117.313049163987259, 42.409773433081568 ], [ 117.313055240399905, 42.409773416488349 ], [ 117.313055218008273, 42.409768913544653 ], [ 117.313061294420464, 42.409768896951114 ], [ 117.313061272028406, 42.409764394007418 ], [ 117.313067348440143, 42.409764377413559 ], [ 117.31306723647775, 42.409741862695078 ], [ 117.313061160068173, 42.40974187928893 ], [ 117.313061137676158, 42.409737376345227 ], [ 117.313006449993637, 42.409737525675368 ], [ 117.313006494769894, 42.409746531562831 ], [ 117.31300041835982, 42.409746548153457 ], [ 117.313000463135211, 42.409755554040906 ], [ 117.313006539546151, 42.409755537450273 ], [ 117.313006561934273, 42.409760040393991 ], [ 117.313018714757007, 42.409760007211744 ], [ 117.313018737146024, 42.409764510155455 ], [ 117.313024813557803, 42.409764493563841 ], [ 117.313024858336703, 42.409773499451255 ], [ 117.313030934749349, 42.409773482859315 ], [ 117.313030957139262, 42.409777985803004 ], [ 117.313037033552334, 42.409777969210744 ], [ 117.313037078333025, 42.409786975098122 ] ] ] } }
]
}
