{
"type": "FeatureCollection",
"name": "tile_17_12",
"crs": { "type": "name", "properties": { "name": "urn:ogc:def:crs:OGC:1.3:CRS84" } },
"features": [
{ "type": "Feature", "properties": { "crown_id": 5096, "tree_id": "5099", "top_h_m": 23.368, "H_95_Mean": 22.9783, "DBH": 34.93, "Carbon_kg": 251.140192, "area_m2": 28.75 }, "geometry": { "type": "Polygon", "coordinates": [ [ [ 117.312854574383664, 42.408522128806851 ], [ 117.312884955843458, 42.408522045891047 ], [ 117.312884866329625, 42.408504034112035 ], [ 117.312890942619831, 42.408504017527918 ], [ 117.312890785967738, 42.408472496914534 ], [ 117.31288470968056, 42.408472513498644 ], [ 117.312884687302159, 42.408468010553854 ], [ 117.312872534728683, 42.408468043721086 ], [ 117.312872512351134, 42.408463540776282 ], [ 117.31284820720586, 42.408463607106874 ], [ 117.312848229581661, 42.408468110051686 ], [ 117.312836077008129, 42.408468143215046 ], [ 117.312836144132945, 42.408481652049446 ], [ 117.312830067844871, 42.40848166863065 ], [ 117.312830090219379, 42.408486171575454 ], [ 117.312824013930879, 42.408486188156338 ], [ 117.31282414817548, 42.408513205825059 ], [ 117.312848453339953, 42.408513139499519 ], [ 117.312848475715811, 42.408517642444281 ], [ 117.312854552007366, 42.408517625862089 ], [ 117.312854574383664, 42.408522128806851 ] ] ] } },
{ "type": "Feature", "properties": { "crown_id": 5110, "tree_id": "5113", "top_h_m": 19.735, "H_95_Mean": 19.5882, "DBH": 31.482, "Carbon_kg": 185.328633, "area_m2": 25.75 }, "geometry": { "type": "Polygon", "coordinates": [ [ [ 117.312751277419366, 42.408522410660389 ], [ 117.312763430003471, 42.408522377505989 ], [ 117.312763340524398, 42.40850436572677 ], [ 117.312769416814703, 42.408504349149098 ], [ 117.312769282593621, 42.408477331480171 ], [ 117.312775358881311, 42.408477314902193 ], [ 117.312775314140112, 42.408468309012548 ], [ 117.312769237853288, 42.408468325590512 ], [ 117.312769215483158, 42.408463822645679 ], [ 117.312763139196733, 42.40846383922333 ], [ 117.312763116827028, 42.408459336278476 ], [ 117.312757040541072, 42.408459352855814 ], [ 117.31275699580253, 42.408450346966113 ], [ 117.312750919517427, 42.408450363543118 ], [ 117.31275094188625, 42.408454866487965 ], [ 117.312744865600692, 42.408454883064657 ], [ 117.312744843232309, 42.408450380119803 ], [ 117.312726614376956, 42.408450429847903 ], [ 117.312726636744046, 42.408454932792765 ], [ 117.312720560458487, 42.408454949368156 ], [ 117.312720582825136, 42.408459452313025 ], [ 117.312714506539137, 42.408459468888104 ], [ 117.312714573637876, 42.408472977722674 ], [ 117.312720649925183, 42.408472961147602 ], [ 117.312720717025243, 42.408486469982144 ], [ 117.312726793313843, 42.408486453406738 ], [ 117.312726860415282, 42.40849996224123 ], [ 117.312732936705174, 42.408499945665497 ], [ 117.312732981440348, 42.408508951555135 ], [ 117.312739057731136, 42.408508934979075 ], [ 117.312739080099163, 42.408513437923887 ], [ 117.312745156390363, 42.408513421347493 ], [ 117.312745178758817, 42.408517924292298 ], [ 117.312751255050458, 42.408517907715584 ], [ 117.312751277419366, 42.408522410660389 ] ] ] } },
{ "type": "Feature", "properties": { "crown_id": 5137, "tree_id": "5140", "top_h_m": 23.25, "H_95_Mean": 22.8463, "DBH": 35.4442, "Carbon_kg": 257.76733, "area_m2": 30.75 }, "geometry": { "type": "Polygon", "coordinates": [ [ [ 117.312775448363752, 42.408495326681468 ], [ 117.31278152465319, 42.408495310103156 ], [ 117.312781502282135, 42.408490807158344 ], [ 117.312817960016005, 42.4084907076817 ], [ 117.31281791526871, 42.408481701792091 ], [ 117.312823991556769, 42.408481685211541 ], [ 117.312823969182716, 42.408477182266729 ], [ 117.312830045470349, 42.408477165685838 ], [ 117.312829978346855, 42.408463656851431 ], [ 117.312842130919535, 42.408463623688704 ], [ 117.31284210854416, 42.408459120743899 ], [ 117.312848184830074, 42.40845910416207 ], [ 117.312848140078486, 42.408450098272439 ], [ 117.312829911223389, 42.408450148016968 ], [ 117.312829866474431, 42.408441142127316 ], [ 117.312817713906085, 42.408441175288708 ], [ 117.312817691532487, 42.408436672343875 ], [ 117.312811615248734, 42.408436688924091 ], [ 117.312811592875576, 42.408432185979244 ], [ 117.312762982608874, 42.408432318609343 ], [ 117.312763094457324, 42.408454833333643 ], [ 117.312769170742854, 42.408454816755992 ], [ 117.312769193112985, 42.408459319700839 ], [ 117.312775269398941, 42.408459303122861 ], [ 117.31277529176954, 42.408463806067708 ], [ 117.312781368055937, 42.408463789489403 ], [ 117.312781457540055, 42.408481801268707 ], [ 117.31277538125191, 42.408481817847019 ], [ 117.312775448363752, 42.408495326681468 ] ] ] } },
{ "type": "Feature", "properties": { "crown_id": 5193, "tree_id": "5196", "top_h_m": 22.904, "H_95_Mean": 22.7953, "DBH": 32.4806, "Carbon_kg": 215.885838, "area_m2": 22.0 }, "geometry": { "type": "Polygon", "coordinates": [ [ [ 117.312665963339214, 42.408473110311753 ], [ 117.312678115913897, 42.40847307716642 ], [ 117.312678093550247, 42.408468574221544 ], [ 117.312684169837169, 42.408468557648391 ], [ 117.312684080380919, 42.408450545868888 ], [ 117.312696232951239, 42.408450512721643 ], [ 117.312696188221409, 42.408441506831863 ], [ 117.31269011193713, 42.408441523405635 ], [ 117.312690089572641, 42.408437020460745 ], [ 117.312677937004921, 42.408437053607329 ], [ 117.312677892277748, 42.408428047717521 ], [ 117.312671815994747, 42.40842806429032 ], [ 117.312671793631608, 42.408423561345408 ], [ 117.312665717349034, 42.408423577917894 ], [ 117.312665672623609, 42.40841457202805 ], [ 117.312635291215017, 42.408414654885576 ], [ 117.312635268854493, 42.408410151940636 ], [ 117.312629192573198, 42.408410168511175 ], [ 117.312629103132863, 42.408392156731381 ], [ 117.312616950573741, 42.408392189871471 ], [ 117.312616972932943, 42.408396692816432 ], [ 117.312598744092909, 42.408396742524154 ], [ 117.312598721735, 42.408392239579179 ], [ 117.31259264545541, 42.408392256147778 ], [ 117.312592667812879, 42.408396759092739 ], [ 117.312586591532849, 42.408396775661025 ], [ 117.312586613889877, 42.408401278605993 ], [ 117.312592690170348, 42.408401262037714 ], [ 117.312592712527831, 42.408405764982682 ], [ 117.312617017651363, 42.408405698706339 ], [ 117.312617040010593, 42.408410201651279 ], [ 117.312623116291888, 42.408410185081394 ], [ 117.312623138651546, 42.408414688026333 ], [ 117.31262921493331, 42.408414671456121 ], [ 117.312629237293393, 42.408419174401061 ], [ 117.312635313575555, 42.408419157830522 ], [ 117.312635358296646, 42.408428163720373 ], [ 117.312641434579689, 42.4084281471495 ], [ 117.312641479301647, 42.408437153039344 ], [ 117.312647555585542, 42.408437136468145 ], [ 117.312647600308409, 42.408446142357967 ], [ 117.312653676593172, 42.408446125786433 ], [ 117.31265372131692, 42.408455131676241 ], [ 117.312659797602549, 42.408455115104388 ], [ 117.312659819964864, 42.408459618049278 ], [ 117.312665896250905, 42.408459601477105 ], [ 117.312665963339214, 42.408473110311753 ] ] ] } },
{ "type": "Feature", "properties": { "crown_id": 5222, "tree_id": "5225", "top_h_m": 22.928, "H_95_Mean": 22.557, "DBH": 39.0839, "Carbon_kg": 311.542599, "area_m2": 46.0 }, "geometry": { "type": "Polygon", "coordinates": [ [ [ 117.312708385521546, 42.408450479573119 ], [ 117.31272053809181, 42.408450446423295 ], [ 117.312720448625228, 42.408432434643771 ], [ 117.312732601191996, 42.408432401492689 ], [ 117.312732556457021, 42.408423395602924 ], [ 117.31272648017449, 42.408423412178628 ], [ 117.312726345972209, 42.408396394509218 ], [ 117.312720269692278, 42.408396411084567 ], [ 117.3127202473257, 42.408391908139663 ], [ 117.31271417104621, 42.408391924714699 ], [ 117.312714059215494, 42.408369409990051 ], [ 117.312695830383518, 42.408369459713192 ], [ 117.312695808018702, 42.408364956768246 ], [ 117.312647197803372, 42.40836508934909 ], [ 117.312647264887417, 42.408378598183972 ], [ 117.312622959774401, 42.408378664466696 ], [ 117.312623004493659, 42.408387670356625 ], [ 117.312635157051915, 42.408387637215903 ], [ 117.312635246493969, 42.408405648995704 ], [ 117.312641322774823, 42.408405632424852 ], [ 117.312641345135802, 42.408410135369778 ], [ 117.312653497698349, 42.408410102227094 ], [ 117.312653475336532, 42.408405599282169 ], [ 117.312659551617372, 42.408405582710344 ], [ 117.31265957397963, 42.408410085655269 ], [ 117.312671726542149, 42.408410052510646 ], [ 117.312671771268441, 42.408419058400497 ], [ 117.312677847550574, 42.408419041827706 ], [ 117.312677869914154, 42.40842354477261 ], [ 117.312683946196728, 42.408423528199485 ], [ 117.312683990924768, 42.4084325340893 ], [ 117.312696143491593, 42.408432500942077 ], [ 117.312696165856522, 42.408437003886981 ], [ 117.312702242140361, 42.408436987312882 ], [ 117.312702286871044, 42.408445993202648 ], [ 117.312708363155764, 42.408445976628229 ], [ 117.312708385521546, 42.408450479573119 ] ] ] } },
{ "type": "Feature", "properties": { "crown_id": 5223, "tree_id": "5226", "top_h_m": 20.447, "H_95_Mean": 20.2961, "DBH": 31.8563, "Carbon_kg": 193.823859, "area_m2": 25.25 }, "geometry": { "type": "Polygon", "coordinates": [ [ [ 117.312835965133516, 42.408445628490959 ], [ 117.312854193987292, 42.408445578745471 ], [ 117.312854126858682, 42.408432069910994 ], [ 117.312866279425236, 42.408432036745737 ], [ 117.312866122785891, 42.408400516131898 ], [ 117.312860046505648, 42.408400532714673 ], [ 117.312859979375901, 42.408387023880096 ], [ 117.312853903096965, 42.408387040462536 ], [ 117.312853880720823, 42.408382537517667 ], [ 117.312841728163789, 42.408382570681589 ], [ 117.312841772914339, 42.408391576571326 ], [ 117.312835696634977, 42.408391593152786 ], [ 117.312835719009826, 42.408396096097661 ], [ 117.312811413890486, 42.408396162420352 ], [ 117.312811481009859, 42.408409671254958 ], [ 117.312805404728721, 42.40840968783484 ], [ 117.312805427101395, 42.408414190779709 ], [ 117.312793274538237, 42.4084142239385 ], [ 117.312793319281894, 42.408423229828237 ], [ 117.312787242999448, 42.408423246407153 ], [ 117.312787265370858, 42.408427749352022 ], [ 117.312817646785305, 42.40842766645418 ], [ 117.312817669158889, 42.408432169399028 ], [ 117.312823745442202, 42.408432152818492 ], [ 117.312823767816226, 42.408436655763346 ], [ 117.312835920383691, 42.4084366226013 ], [ 117.312835965133516, 42.408445628490959 ] ] ] } },
{ "type": "Feature", "properties": { "crown_id": 5277, "tree_id": "5280", "top_h_m": 22.713, "H_95_Mean": 22.4672, "DBH": 41.5482, "Carbon_kg": 351.570775, "area_m2": 58.75 }, "geometry": { "type": "Polygon", "coordinates": [ [ [ 117.31274475375875, 42.408432368340314 ], [ 117.312756906325504, 42.408432335186653 ], [ 117.312756861587033, 42.408423329296909 ], [ 117.312781166716974, 42.40842326298575 ], [ 117.312781144346005, 42.408418760040881 ], [ 117.312787220628039, 42.408418743462285 ], [ 117.312787175885248, 42.408409737572541 ], [ 117.312799328447568, 42.408409704414396 ], [ 117.312799306075291, 42.408405201469535 ], [ 117.312805382356032, 42.408405184889979 ], [ 117.312805225747297, 42.4083736642758 ], [ 117.31279914946964, 42.40837368085532 ], [ 117.312799127097406, 42.40836917791043 ], [ 117.312793050820176, 42.408369194489651 ], [ 117.312792938961351, 42.408346679765074 ], [ 117.312786862686252, 42.408346696343948 ], [ 117.312786840314942, 42.408342193399022 ], [ 117.312780764040284, 42.408342209977569 ], [ 117.31278071929853, 42.408333204087697 ], [ 117.312756414203363, 42.408333270398657 ], [ 117.312756436572485, 42.408337773343597 ], [ 117.312719978926964, 42.408337872800381 ], [ 117.312720068393148, 42.40835588458021 ], [ 117.312707915841102, 42.408355917729914 ], [ 117.312707938206785, 42.40836042067486 ], [ 117.31270186193035, 42.408360437249236 ], [ 117.312701884295592, 42.408364940194183 ], [ 117.312720113126247, 42.408364890470096 ], [ 117.312720224959108, 42.408387405194745 ], [ 117.312726301238172, 42.408387388619396 ], [ 117.312726323605176, 42.408391891564307 ], [ 117.312732399884652, 42.408391874988624 ], [ 117.312732534089506, 42.408418892658041 ], [ 117.312738610371596, 42.40841887608201 ], [ 117.312738655107438, 42.408427881971782 ], [ 117.312744731390396, 42.408427865395439 ], [ 117.31274475375875, 42.408432368340314 ] ] ] } },
{ "type": "Feature", "properties": { "crown_id": 5302, "tree_id": "5305", "top_h_m": 22.431, "H_95_Mean": 22.6613, "DBH": 34.4667, "Carbon_kg": 242.471284, "area_m2": 28.0 }, "geometry": { "type": "Polygon", "coordinates": [ [ [ 117.312811391517371, 42.408391659475477 ], [ 117.312829620355586, 42.408391609733947 ], [ 117.312829597981164, 42.408387106789071 ], [ 117.312835674260128, 42.408387090207924 ], [ 117.312835629510445, 42.408378084318173 ], [ 117.31285993462275, 42.408378017990366 ], [ 117.312859956999304, 42.408382520935241 ], [ 117.3128660332778, 42.408382504352481 ], [ 117.312865899015833, 42.408355486683234 ], [ 117.312859822739938, 42.408355503265973 ], [ 117.312859777986873, 42.408346497376193 ], [ 117.312853701711845, 42.40834651395862 ], [ 117.312853634583576, 42.408333005123907 ], [ 117.312786795572322, 42.408333187509157 ], [ 117.312786817943632, 42.40833769045409 ], [ 117.312792894217836, 42.408337673875209 ], [ 117.312792916589572, 42.408342176820142 ], [ 117.312798992864217, 42.408342160240949 ], [ 117.312799104725215, 42.408364674965533 ], [ 117.312805181002005, 42.408364658386006 ], [ 117.312805203374666, 42.408369161330903 ], [ 117.312811279651896, 42.408369144751049 ], [ 117.312811391517371, 42.408391659475477 ] ] ] } },
{ "type": "Feature", "properties": { "crown_id": 5358, "tree_id": "5361", "top_h_m": 18.112, "H_95_Mean": 17.9249, "DBH": 30.474, "Carbon_kg": 164.688905, "area_m2": 26.75 }, "geometry": { "type": "Polygon", "coordinates": [ [ [ 117.31265325171853, 42.408360569832631 ], [ 117.312695785653872, 42.408360453823299 ], [ 117.312695763289057, 42.408355950878338 ], [ 117.312701839565094, 42.408355934304289 ], [ 117.312701817199837, 42.408351431359335 ], [ 117.312713969751016, 42.408351398210279 ], [ 117.312713880286623, 42.408333386430428 ], [ 117.312726032834291, 42.408333353280106 ], [ 117.31272601046733, 42.408328850335145 ], [ 117.312719934193936, 42.408328866910466 ], [ 117.312719911827415, 42.408324363965491 ], [ 117.312713835554433, 42.408324380540492 ], [ 117.312713813188367, 42.408319877595517 ], [ 117.312701660643285, 42.408319910744538 ], [ 117.312701615912886, 42.408310904854567 ], [ 117.312689463369523, 42.40831093800228 ], [ 117.312689485733856, 42.408315440947277 ], [ 117.312671256917454, 42.40831549066646 ], [ 117.312671279280494, 42.408319993611457 ], [ 117.312653050462742, 42.408320043327741 ], [ 117.312653095186235, 42.408329049217741 ], [ 117.312634866365826, 42.408329098931141 ], [ 117.312634933447171, 42.408342607766144 ], [ 117.312641009721929, 42.408342591195328 ], [ 117.312641032082809, 42.408347094140318 ], [ 117.312647108358021, 42.408347077569175 ], [ 117.312647130719341, 42.408351580514157 ], [ 117.312653206994995, 42.408351563942688 ], [ 117.31265325171853, 42.408360569832631 ] ] ] } }
]
}
