{
"type": "FeatureCollection",
"name": "tile_10_11",
"crs": { "type": "name", "properties": { "name": "urn:ogc:def:crs:OGC:1.3:CRS84" } },
"features": [
{ "type": "Feature", "properties": { "crown_id": 2935, "tree_id": "2936", "top_h_m": 23.693, "H_95_Mean": 23.6384, "DBH": 31.0337, "Carbon_kg": 201.217425, "area_m2": 17.25 }, "geometry": { "type": "Polygon", "coordinates": [ [ [ 117.312447643808014, 42.409784080104487 ], [ 117.312459796636034, 42.409784046981486 ], [ 117.312459751937922, 42.409775041093617 ], [ 117.312465828351051, 42.409775024531633 ], [ 117.312465806001569, 42.409770521587689 ], [ 117.312471882414272, 42.409770505025392 ], [ 117.312471837714469, 42.409761499137495 ], [ 117.312465761302633, 42.409761515699799 ], [ 117.312465694254286, 42.409748006867943 ], [ 117.312459617843771, 42.409748023429906 ], [ 117.312459595494758, 42.409743520485947 ], [ 117.31245351908467, 42.409743537047589 ], [ 117.312453496736111, 42.409739034103616 ], [ 117.31244742032645, 42.409739050664946 ], [ 117.312447397978318, 42.409734547720973 ], [ 117.312441321569082, 42.409734564281969 ], [ 117.312441276873713, 42.409725558393994 ], [ 117.312423047648593, 42.409725608075036 ], [ 117.312423137034173, 42.409743619850985 ], [ 117.312417060624043, 42.409743636410703 ], [ 117.312417127661945, 42.409757145242629 ], [ 117.312423204073369, 42.409757128682905 ], [ 117.312423226419781, 42.409761631626878 ], [ 117.312429302831646, 42.409761615066827 ], [ 117.312429347525367, 42.409770620954752 ], [ 117.312435423938084, 42.409770604394375 ], [ 117.312435446285377, 42.409775107338334 ], [ 117.312441522698535, 42.409775090777636 ], [ 117.312441545046255, 42.409779593721574 ], [ 117.312447621459839, 42.409779577160549 ], [ 117.312447643808014, 42.409784080104487 ] ] ] } },
{ "type": "Feature", "properties": { "crown_id": 2964, "tree_id": "2965", "top_h_m": 23.097, "H_95_Mean": 22.9675, "DBH": 31.7025, "Carbon_kg": 206.506206, "area_m2": 19.75 }, "geometry": { "type": "Polygon", "coordinates": [ [ [ 117.312374570438891, 42.409752758207652 ], [ 117.312411028904975, 42.409752658858054 ], [ 117.31241096186838, 42.409739150026098 ], [ 117.31241703827807, 42.409739133466715 ], [ 117.312416948894281, 42.409721121690744 ], [ 117.312429101710165, 42.409721088571025 ], [ 117.312429057016573, 42.409712082683015 ], [ 117.312422980609497, 42.409712099243031 ], [ 117.312423002955853, 42.409716602187039 ], [ 117.312416926548337, 42.409716618746728 ], [ 117.312416881856478, 42.409707612858725 ], [ 117.312404729043209, 42.409707645977136 ], [ 117.312404706698146, 42.40970314303312 ], [ 117.312392553885687, 42.409703176150245 ], [ 117.312392531541519, 42.409698673206215 ], [ 117.312386455135723, 42.409698689764284 ], [ 117.31238647747945, 42.409703192708321 ], [ 117.312380401073213, 42.409703209266084 ], [ 117.312380468103171, 42.409716718098146 ], [ 117.312374391695613, 42.409716734655596 ], [ 117.312374414038501, 42.409721237599612 ], [ 117.312368337630517, 42.409721254156736 ], [ 117.312368471685375, 42.409748271820796 ], [ 117.312374548095988, 42.409748255263651 ], [ 117.312374570438891, 42.409752758207652 ] ] ] } },
{ "type": "Feature", "properties": { "crown_id": 2984, "tree_id": "2985", "top_h_m": 23.207, "H_95_Mean": 23.0292, "DBH": 32.9202, "Carbon_kg": 223.158635, "area_m2": 22.75 }, "geometry": { "type": "Polygon", "coordinates": [ [ [ 117.31247181536456, 42.409756996193558 ], [ 117.312477891775956, 42.409756979630934 ], [ 117.312477869425621, 42.40975247668699 ], [ 117.312490022247502, 42.409752443560805 ], [ 117.312489999896314, 42.409747940616846 ], [ 117.3124960763068, 42.409747924053271 ], [ 117.312496053955186, 42.409743421109326 ], [ 117.312502130365232, 42.409743404545424 ], [ 117.312502108013192, 42.409738901601479 ], [ 117.312508184422811, 42.409738885037257 ], [ 117.31250816207033, 42.409734382093312 ], [ 117.312514238479508, 42.409734365528777 ], [ 117.312514149067908, 42.409716353752948 ], [ 117.312501996253047, 42.409716386881684 ], [ 117.312501973901036, 42.40971188393771 ], [ 117.312495897494003, 42.409711900501591 ], [ 117.312495875142446, 42.409707397557618 ], [ 117.31248372232929, 42.409707430684406 ], [ 117.312483699978586, 42.409702927740426 ], [ 117.312459394353937, 42.409702993990138 ], [ 117.312459416702879, 42.409707496934125 ], [ 117.312435111076411, 42.409707563178678 ], [ 117.312435155770856, 42.409716569066681 ], [ 117.312441232178372, 42.409716552506012 ], [ 117.312441254526036, 42.409721055450007 ], [ 117.312447330933949, 42.409721038889025 ], [ 117.312447375630185, 42.409730044776992 ], [ 117.312453452038994, 42.40973002821567 ], [ 117.312453474387553, 42.40973453115965 ], [ 117.31245955079676, 42.409734514598014 ], [ 117.312459573145759, 42.40973901754198 ], [ 117.312465649555406, 42.409739000980018 ], [ 117.31246567190486, 42.409743503923991 ], [ 117.312471748314934, 42.409743487361688 ], [ 117.31247181536456, 42.409756996193558 ] ] ] } },
{ "type": "Feature", "properties": { "crown_id": 2985, "tree_id": "2986", "top_h_m": 22.198, "H_95_Mean": 21.925, "DBH": 34.9075, "Carbon_kg": 243.949125, "area_m2": 31.25 }, "geometry": { "type": "Polygon", "coordinates": [ [ [ 117.312605496413696, 42.409756631741558 ], [ 117.312617649236216, 42.409756598601831 ], [ 117.31261760451558, 42.409747592714041 ], [ 117.312623680925967, 42.409747576143701 ], [ 117.312623591483018, 42.409729564368106 ], [ 117.312617515074365, 42.409729580938446 ], [ 117.312617425633249, 42.409711569162788 ], [ 117.312605272819425, 42.409711602302472 ], [ 117.312605250460024, 42.409707099358535 ], [ 117.312599174053545, 42.409707115927901 ], [ 117.312599084617744, 42.409689104152143 ], [ 117.312586931808227, 42.409689137289853 ], [ 117.312586887092095, 42.409680131401949 ], [ 117.312568657880391, 42.40968018110609 ], [ 117.312568635523633, 42.409675678162117 ], [ 117.312562559120153, 42.409675694729529 ], [ 117.312562670901812, 42.409698209449346 ], [ 117.312568747307466, 42.409698192881933 ], [ 117.312568836734613, 42.409716204657713 ], [ 117.312562760327197, 42.409716221225125 ], [ 117.312562805039946, 42.409725227113015 ], [ 117.312556728631677, 42.409725243680121 ], [ 117.312556750987625, 42.409729746624059 ], [ 117.312550674578915, 42.409729763190846 ], [ 117.312550719289959, 42.409738769078707 ], [ 117.312556795699521, 42.40973875251192 ], [ 117.31255684041146, 42.40974775839976 ], [ 117.312593298873978, 42.409747658992188 ], [ 117.312593321232569, 42.409752161936098 ], [ 117.312605474054251, 42.409752128797663 ], [ 117.312605496413696, 42.409756631741558 ] ] ] } },
{ "type": "Feature", "properties": { "crown_id": 3006, "tree_id": "3007", "top_h_m": 21.954, "H_95_Mean": 21.7618, "DBH": 27.1834, "Carbon_kg": 146.712702, "area_m2": 12.0 }, "geometry": { "type": "Polygon", "coordinates": [ [ [ 117.312538544116151, 42.409734299267406 ], [ 117.312544620525287, 42.409734282701251 ], [ 117.312544575815139, 42.409725276813376 ], [ 117.312550652223408, 42.409725260246901 ], [ 117.312550629867928, 42.409720757302964 ], [ 117.312556706275771, 42.409720740736184 ], [ 117.312556661563889, 42.409711734848287 ], [ 117.31256273797085, 42.409711718281187 ], [ 117.312562693258158, 42.409702712393297 ], [ 117.312556616852049, 42.409702728960397 ], [ 117.31255650507255, 42.409680214240574 ], [ 117.312550428668629, 42.409680230807339 ], [ 117.312550451024094, 42.409684733751313 ], [ 117.312538298215358, 42.409684766883878 ], [ 117.312538320569956, 42.409689269827844 ], [ 117.312532244165141, 42.409689286393657 ], [ 117.312532333581828, 42.409707298169515 ], [ 117.312526257175264, 42.409707314735016 ], [ 117.31252630188277, 42.409716320622934 ], [ 117.312520225475339, 42.409716337188094 ], [ 117.312520292535325, 42.409729846019964 ], [ 117.31253852176151, 42.409729796323454 ], [ 117.312538544116151, 42.409734299267406 ] ] ] } },
{ "type": "Feature", "properties": { "crown_id": 3032, "tree_id": "3033", "top_h_m": 20.44, "H_95_Mean": 20.413, "DBH": 26.3723, "Carbon_kg": 132.897533, "area_m2": 12.0 }, "geometry": { "type": "Polygon", "coordinates": [ [ [ 117.312508050308026, 42.409711867373503 ], [ 117.31252020312202, 42.409711834244128 ], [ 117.31252015841541, 42.409702828356203 ], [ 117.312526234821547, 42.40970281179105 ], [ 117.312526145406608, 42.409684800015143 ], [ 117.312532221810983, 42.40968478344967 ], [ 117.312532199456825, 42.409680280505683 ], [ 117.312544352264709, 42.409680247373778 ], [ 117.312544329909684, 42.409675744429798 ], [ 117.312538253506204, 42.409675760995917 ], [ 117.312538231151606, 42.409671258051929 ], [ 117.312526078345471, 42.40967129118318 ], [ 117.312526055991782, 42.409666788239193 ], [ 117.312507826783829, 42.409666837933663 ], [ 117.31250787148862, 42.409675843821653 ], [ 117.312501795085112, 42.409675860385839 ], [ 117.312501817437081, 42.409680363329826 ], [ 117.312495741033104, 42.409680379893693 ], [ 117.312495808087746, 42.40969388872567 ], [ 117.312489731682476, 42.409693905289224 ], [ 117.312489776384723, 42.409702911177192 ], [ 117.312501929197012, 42.409702878049764 ], [ 117.312501951549038, 42.409707380993751 ], [ 117.312508027955602, 42.409707364429543 ], [ 117.312508050308026, 42.409711867373503 ] ] ] } },
{ "type": "Feature", "properties": { "crown_id": 3069, "tree_id": "3070", "top_h_m": 21.413, "H_95_Mean": 21.1376, "DBH": 31.3431, "Carbon_kg": 192.143806, "area_m2": 22.0 }, "geometry": { "type": "Polygon", "coordinates": [ [ [ 117.312435088729174, 42.409703060234676 ], [ 117.312453317947742, 42.409703010551752 ], [ 117.312453295599212, 42.40969850760775 ], [ 117.312483677627895, 42.409698424796439 ], [ 117.312483632926515, 42.409689418908449 ], [ 117.312489709331345, 42.409689402345229 ], [ 117.312489642278038, 42.409675893513231 ], [ 117.312495718681575, 42.409675876949692 ], [ 117.312495696330032, 42.40967137400569 ], [ 117.312501772733128, 42.409671357441837 ], [ 117.312501728029218, 42.409662351553813 ], [ 117.312495651626975, 42.409662368117665 ], [ 117.312495606923946, 42.409653362229633 ], [ 117.312489530522583, 42.409653378793173 ], [ 117.312489508171495, 42.409648875849143 ], [ 117.312483431770573, 42.409648892412342 ], [ 117.312483454121207, 42.409653395356365 ], [ 117.31247737771983, 42.409653411919251 ], [ 117.312477400070037, 42.409657914863267 ], [ 117.312465247266402, 42.409657947988066 ], [ 117.312465269615757, 42.409662450932096 ], [ 117.312447040408955, 42.409662500616889 ], [ 117.312447107453124, 42.409676009448972 ], [ 117.312422801838764, 42.409676075690889 ], [ 117.312422846531405, 42.409685081578957 ], [ 117.312428922935894, 42.409685065018955 ], [ 117.312428989976212, 42.409698573851003 ], [ 117.312435066381951, 42.40969855729066 ], [ 117.312435088729174, 42.409703060234676 ] ] ] } },
{ "type": "Feature", "properties": { "crown_id": 3070, "tree_id": "3071", "top_h_m": 21.749, "H_95_Mean": 21.5068, "DBH": 28.994, "Carbon_kg": 165.913806, "area_m2": 15.75 }, "geometry": { "type": "Polygon", "coordinates": [ [ [ 117.312611326866516, 42.409707082788863 ], [ 117.312635632492402, 42.40970701650695 ], [ 117.312635587769265, 42.409698010619103 ], [ 117.312647740580445, 42.409697977476213 ], [ 117.312647651130774, 42.409679965700512 ], [ 117.312653727534624, 42.409679949128602 ], [ 117.312653660446117, 42.409666440296796 ], [ 117.312635431238505, 42.40966649001156 ], [ 117.312635453600009, 42.409670992955498 ], [ 117.312586842375993, 42.409671125514016 ], [ 117.312586864734044, 42.409675628457983 ], [ 117.312592941137481, 42.409675611889291 ], [ 117.312592985854479, 42.409684617777209 ], [ 117.31260513866313, 42.409684584638839 ], [ 117.312605228100637, 42.409702596414611 ], [ 117.312611304506689, 42.409702579844939 ], [ 117.312611326866516, 42.409707082788863 ] ] ] } },
{ "type": "Feature", "properties": { "crown_id": 3127, "tree_id": "3128", "top_h_m": 20.795, "H_95_Mean": 20.4762, "DBH": 34.7974, "Carbon_kg": 232.794932, "area_m2": 35.0 }, "geometry": { "type": "Polygon", "coordinates": [ [ [ 117.312586820017941, 42.40966662257005 ], [ 117.312629354835934, 42.409666506582489 ], [ 117.312629332474856, 42.40966200363853 ], [ 117.312647561681189, 42.40966195392474 ], [ 117.312647494594046, 42.409648445092898 ], [ 117.31265357099484, 42.409648428521002 ], [ 117.312653526269244, 42.409639422633084 ], [ 117.312647449869317, 42.40963943920498 ], [ 117.312647338057587, 42.4096169244851 ], [ 117.31264126165982, 42.409616941056662 ], [ 117.312641239297932, 42.409612438112674 ], [ 117.312635162900605, 42.409612454683902 ], [ 117.312635140539143, 42.409607951739908 ], [ 117.312610834951499, 42.409608018021601 ], [ 117.31261090203067, 42.409621526853599 ], [ 117.31259267283599, 42.409621576561513 ], [ 117.312592650477555, 42.409617073617511 ], [ 117.312586574079745, 42.409617090186167 ], [ 117.312586551721765, 42.409612587242151 ], [ 117.312580475324381, 42.40961260381048 ], [ 117.312580497681935, 42.409617106754496 ], [ 117.312568344886301, 42.409617139890202 ], [ 117.312568389599662, 42.409626145778226 ], [ 117.312580542397043, 42.40962611264252 ], [ 117.31258058711218, 42.409635118530517 ], [ 117.312568434313064, 42.409635151666244 ], [ 117.31256845666978, 42.409639654610238 ], [ 117.312562380269767, 42.409639671177622 ], [ 117.312562424982346, 42.409648677065618 ], [ 117.312574577784076, 42.409648643930531 ], [ 117.312574622498403, 42.409657649818492 ], [ 117.312580698900121, 42.409657633250461 ], [ 117.312580721257717, 42.409662136194434 ], [ 117.31258679765989, 42.409662119626077 ], [ 117.312586820017941, 42.40966662257005 ] ] ] } },
{ "type": "Feature", "properties": { "crown_id": 3149, "tree_id": "3150", "top_h_m": 21.191, "H_95_Mean": 20.8676, "DBH": 32.0287, "Carbon_kg": 199.18859, "area_m2": 24.5 }, "geometry": { "type": "Polygon", "coordinates": [ [ [ 117.312416703089283, 42.409671589306527 ], [ 117.31244100870191, 42.40967152306591 ], [ 117.312440941659077, 42.409658014233806 ], [ 117.312459170864571, 42.409657964549993 ], [ 117.312459148515686, 42.409653461605956 ], [ 117.312471301318453, 42.409653428481803 ], [ 117.312471278968673, 42.40964892553778 ], [ 117.312477355369637, 42.409648908975228 ], [ 117.312477333019416, 42.409644406031191 ], [ 117.312483409419926, 42.409644389468312 ], [ 117.312483387069307, 42.409639886524282 ], [ 117.312477310669237, 42.409639903087154 ], [ 117.312477243618687, 42.409626394255021 ], [ 117.312471167219911, 42.409626410817566 ], [ 117.312471100170711, 42.40961290198539 ], [ 117.312458947375745, 42.4096129351095 ], [ 117.312458969724617, 42.409617438053559 ], [ 117.312446816928755, 42.409617471176382 ], [ 117.31244683927676, 42.409621974120455 ], [ 117.312422533683275, 42.409622040362237 ], [ 117.312422556029546, 42.40962654330631 ], [ 117.312416479630713, 42.409626559865963 ], [ 117.312416524322401, 42.409635565754108 ], [ 117.312410447922701, 42.409635582313435 ], [ 117.312410559649791, 42.409658097033734 ], [ 117.312416636051637, 42.409658080474394 ], [ 117.312416703089283, 42.409671589306527 ] ] ] } },
{ "type": "Feature", "properties": { "crown_id": 3207, "tree_id": "3208", "top_h_m": 19.651, "H_95_Mean": 19.5469, "DBH": 27.245, "Carbon_kg": 138.317449, "area_m2": 14.75 }, "geometry": { "type": "Polygon", "coordinates": [ [ [ 117.312404304488112, 42.409622090040202 ], [ 117.312416457284883, 42.409622056921883 ], [ 117.312416434939067, 42.409617553977803 ], [ 117.312440740530846, 42.409617487737314 ], [ 117.312440718183282, 42.409612984793249 ], [ 117.312452870978262, 42.409612951671065 ], [ 117.31245284862986, 42.409608448726992 ], [ 117.312471077820973, 42.409608399041325 ], [ 117.31247103312154, 42.409599393153201 ], [ 117.312464956725378, 42.409599409715398 ], [ 117.312464934376109, 42.409594906771318 ], [ 117.312452781584625, 42.40959493989476 ], [ 117.312452803933013, 42.409599442838839 ], [ 117.312428498348254, 42.409599509081858 ], [ 117.312428476001571, 42.409595006137764 ], [ 117.31237986483525, 42.409595138608331 ], [ 117.312379931864839, 42.409608647440663 ], [ 117.312392084659066, 42.409608614324945 ], [ 117.312392107003149, 42.409613117269046 ], [ 117.312398183400674, 42.409613100710693 ], [ 117.312398205745197, 42.409617603654787 ], [ 117.312404282143163, 42.409617587096115 ], [ 117.312404304488112, 42.409622090040202 ] ] ] } },
{ "type": "Feature", "properties": { "crown_id": 3242, "tree_id": "3243", "top_h_m": 12.092, "H_95_Mean": 11.9269, "DBH": 25.7841, "Carbon_kg": 92.414181, "area_m2": 30.25 }, "geometry": { "type": "Polygon", "coordinates": [ [ [ 117.312598682157656, 42.409608051160511 ], [ 117.312604758554585, 42.409608034591216 ], [ 117.312604736195311, 42.409603531647214 ], [ 117.312641194574141, 42.409603432224685 ], [ 117.312641216936029, 42.40960793516868 ], [ 117.312653369729802, 42.409607902025257 ], [ 117.31265330264155, 42.409594393193267 ], [ 117.312659379037143, 42.409594376621087 ], [ 117.312659267221306, 42.409571861901071 ], [ 117.312653190827902, 42.409571878473237 ], [ 117.312653168465189, 42.409567375529221 ], [ 117.312641015679233, 42.409567408672594 ], [ 117.312640993317387, 42.409562905728563 ], [ 117.31263491692485, 42.409562922299777 ], [ 117.312634894563431, 42.409558419355733 ], [ 117.31262274177918, 42.409558452497173 ], [ 117.312622719418655, 42.409553949553136 ], [ 117.312610566635257, 42.409553982693275 ], [ 117.3126105442756, 42.409549479749224 ], [ 117.312604467884327, 42.40954949631881 ], [ 117.312604512602775, 42.409558502206913 ], [ 117.312592359818467, 42.409558535345127 ], [ 117.312592426893559, 42.409572044177267 ], [ 117.312580274106637, 42.409572077314209 ], [ 117.312580318821659, 42.409581083202283 ], [ 117.312574242427331, 42.409581099770293 ], [ 117.312574264784388, 42.409585602714316 ], [ 117.312568188389633, 42.409585619281991 ], [ 117.312568210746278, 42.409590122226035 ], [ 117.312574287141501, 42.40959010565836 ], [ 117.312574309498586, 42.409594608602397 ], [ 117.312592538685507, 42.409594558897425 ], [ 117.312592583402306, 42.409603564785478 ], [ 117.312598659798795, 42.409603548216502 ], [ 117.312598682157656, 42.409608051160511 ] ] ] } },
{ "type": "Feature", "properties": { "crown_id": 3261, "tree_id": "3262", "top_h_m": 20.659, "H_95_Mean": 20.2418, "DBH": 30.4331, "Carbon_kg": 176.487256, "area_m2": 21.25 }, "geometry": { "type": "Polygon", "coordinates": [ [ [ 117.312434552397349, 42.409594989577499 ], [ 117.312446705188876, 42.409594956455997 ], [ 117.3124466828409, 42.40959045351191 ], [ 117.312470988422149, 42.409590387265034 ], [ 117.312470876673686, 42.409567872544585 ], [ 117.312464800280566, 42.409567889106782 ], [ 117.312464777931339, 42.409563386162681 ], [ 117.312458701538645, 42.409563402724544 ], [ 117.312458679189831, 42.409558899780436 ], [ 117.312440450013, 42.409558949464078 ], [ 117.312440472360493, 42.409563452408207 ], [ 117.312416166789603, 42.409563518648568 ], [ 117.312416189135362, 42.409568021592683 ], [ 117.312385807169434, 42.409568104385905 ], [ 117.312385829513033, 42.409572607330034 ], [ 117.312373676725755, 42.40957264044507 ], [ 117.312373699068459, 42.409577143389207 ], [ 117.31237977546256, 42.409577126831856 ], [ 117.312379797805733, 42.409581629775978 ], [ 117.312385874200231, 42.409581613218293 ], [ 117.31238589654383, 42.409586116162416 ], [ 117.312391972938769, 42.409586099604397 ], [ 117.312391995282809, 42.409590602548519 ], [ 117.312434530050268, 42.409590486633405 ], [ 117.312434552397349, 42.409594989577499 ] ] ] } }
]
}
