{
"type": "FeatureCollection",
"name": "tile_5_4",
"crs": { "type": "name", "properties": { "name": "urn:ogc:def:crs:OGC:1.3:CRS84" } },
"features": [
{ "type": "Feature", "properties": { "crown_id": 1241, "tree_id": "1241", "top_h_m": 25.093, "H_95_Mean": 24.8262, "DBH": 34.7603, "Carbon_kg": 260.328583, "area_m2": 24.5 }, "geometry": { "type": "Polygon", "coordinates": [ [ [ 117.310945029951839, 42.410666251499272 ], [ 117.310957182951896, 42.410666218535013 ], [ 117.310957160709634, 42.410661715591118 ], [ 117.310969313708767, 42.410661682625566 ], [ 117.310969246979411, 42.410648173793916 ], [ 117.310963170481131, 42.410648190276845 ], [ 117.310963192723818, 42.410652693220733 ], [ 117.310957116225126, 42.410652709703349 ], [ 117.310957093982864, 42.410648206759454 ], [ 117.310951017484598, 42.410648223241736 ], [ 117.310950995242777, 42.410643720297848 ], [ 117.310957071740646, 42.410643703815566 ], [ 117.310957005013947, 42.410630194983852 ], [ 117.310963081510494, 42.41063017850125 ], [ 117.310963037025161, 42.410621172613418 ], [ 117.310908348563999, 42.410621320945175 ], [ 117.310908370802736, 42.410625823889113 ], [ 117.310890141314303, 42.410625873327248 ], [ 117.310890119076845, 42.410621370383289 ], [ 117.310884042581122, 42.410621386862033 ], [ 117.310884153766168, 42.410643901581722 ], [ 117.310896306761961, 42.410643868623914 ], [ 117.310896351237773, 42.410652874511754 ], [ 117.310908504235272, 42.410652841552647 ], [ 117.310908526474037, 42.410657344496563 ], [ 117.310926755971593, 42.410657295055479 ], [ 117.310926778211666, 42.410661797999374 ], [ 117.310945007710458, 42.410661748555391 ], [ 117.310945029951839, 42.410666251499272 ] ] ] } },
{ "type": "Feature", "properties": { "crown_id": 1259, "tree_id": "1259", "top_h_m": 23.463, "H_95_Mean": 23.1506, "DBH": 32.1282, "Carbon_kg": 213.131809, "area_m2": 20.5 }, "geometry": { "type": "Polygon", "coordinates": [ [ [ 117.310750581948454, 42.41066677875245 ], [ 117.310756658448653, 42.410666762280776 ], [ 117.310756613992822, 42.410657756392844 ], [ 117.310762690492126, 42.410657739920865 ], [ 117.310762668263791, 42.410653236976884 ], [ 117.310774821261518, 42.410653204031945 ], [ 117.310774799032316, 42.410648701087986 ], [ 117.310786952029162, 42.410648668141754 ], [ 117.310786863108916, 42.410630656365875 ], [ 117.310780786612227, 42.410630672839126 ], [ 117.310780742153, 42.410621666951144 ], [ 117.310774665657178, 42.410621683424083 ], [ 117.310774598969672, 42.410608174592085 ], [ 117.310768522475158, 42.410608191064696 ], [ 117.310768500246439, 42.410603688120673 ], [ 117.310756347258248, 42.410603721064916 ], [ 117.3107563694861, 42.410608224008925 ], [ 117.310750292991571, 42.410608240480556 ], [ 117.310750315218996, 42.410612743424572 ], [ 117.310738162229043, 42.410612776366882 ], [ 117.31073820668216, 42.4106217822549 ], [ 117.31073213018631, 42.410621798725579 ], [ 117.310732241317027, 42.410644313445601 ], [ 117.310738317815066, 42.410644296974915 ], [ 117.310738384494854, 42.410657805806878 ], [ 117.310744460994172, 42.410657789335858 ], [ 117.310744483221214, 42.410662292279824 ], [ 117.310750559720972, 42.410662275808477 ], [ 117.310750581948454, 42.41066677875245 ] ] ] } },
{ "type": "Feature", "properties": { "crown_id": 1274, "tree_id": "1274", "top_h_m": 23.466, "H_95_Mean": 23.0771, "DBH": 33.5876, "Carbon_kg": 232.65664, "area_m2": 24.5 }, "geometry": { "type": "Polygon", "coordinates": [ [ [ 117.310847783716383, 42.410662012223163 ], [ 117.310859936715715, 42.4106619792692 ], [ 117.310859914480403, 42.410657476325284 ], [ 117.310865990979607, 42.410657459847812 ], [ 117.310865946508159, 42.410648453959951 ], [ 117.310878099504862, 42.410648421004069 ], [ 117.310877877139191, 42.410603391564614 ], [ 117.310871800645188, 42.410603408042689 ], [ 117.310871756173, 42.41059440215475 ], [ 117.310859603186714, 42.410594435109914 ], [ 117.310859647657182, 42.410603440997861 ], [ 117.310847494669147, 42.410603473951753 ], [ 117.310847516903507, 42.41060797689574 ], [ 117.310835363914592, 42.410608009848346 ], [ 117.310835386148085, 42.410612512792326 ], [ 117.310829309653201, 42.410612529268143 ], [ 117.310829354119349, 42.410621535156096 ], [ 117.31082327762357, 42.4106215516316 ], [ 117.310823322088893, 42.410630557519553 ], [ 117.31082939858554, 42.410630541044036 ], [ 117.31082946528484, 42.410644049875913 ], [ 117.310823388786886, 42.410644066351438 ], [ 117.310823433252267, 42.410653072239334 ], [ 117.310829509751088, 42.41065305576381 ], [ 117.310829531984211, 42.410657558707754 ], [ 117.310847761481938, 42.410657509279233 ], [ 117.310847783716383, 42.410662012223163 ] ] ] } },
{ "type": "Feature", "properties": { "crown_id": 1288, "tree_id": "1288", "top_h_m": 22.709, "H_95_Mean": 22.7154, "DBH": 27.739, "Carbon_kg": 156.745167, "area_m2": 12.0 }, "geometry": { "type": "Polygon", "coordinates": [ [ [ 117.310799082795043, 42.410644132250297 ], [ 117.310817312288947, 42.410644082826636 ], [ 117.31081729005669, 42.41063957988267 ], [ 117.310823366554217, 42.410639563407472 ], [ 117.310823344321562, 42.410635060463513 ], [ 117.310817267824461, 42.410635076938711 ], [ 117.31081717889559, 42.410617065162825 ], [ 117.310823255390929, 42.410617048687627 ], [ 117.310823233158303, 42.410612545743653 ], [ 117.310817156663362, 42.410612562218837 ], [ 117.31081713443119, 42.410608059274857 ], [ 117.310804981442203, 42.410608092224244 ], [ 117.31080495921087, 42.41060358928025 ], [ 117.310798882716796, 42.41060360575446 ], [ 117.310798838255039, 42.410594599866457 ], [ 117.310786685268639, 42.410594632813897 ], [ 117.31078670749865, 42.410599135757899 ], [ 117.310780631005017, 42.41059915223115 ], [ 117.3107807199234, 42.410617164007149 ], [ 117.310786796418768, 42.410617147533898 ], [ 117.310786840878848, 42.41062615342188 ], [ 117.31079291737511, 42.410626136948302 ], [ 117.31079298406658, 42.410639645780236 ], [ 117.310799060564108, 42.410639629306324 ], [ 117.310799082795043, 42.410644132250297 ] ] ] } },
{ "type": "Feature", "properties": { "crown_id": 1312, "tree_id": "1312", "top_h_m": 22.968, "H_95_Mean": 22.8969, "DBH": 30.2237, "Carbon_kg": 187.210062, "area_m2": 16.5 }, "geometry": { "type": "Polygon", "coordinates": [ [ [ 117.310896195572568, 42.41062135390424 ], [ 117.31090227206829, 42.410621337424878 ], [ 117.310902249829979, 42.410616834480926 ], [ 117.310944785296812, 42.410616719116312 ], [ 117.310944763055502, 42.410612216172389 ], [ 117.310938686560661, 42.41061223265401 ], [ 117.310938642078881, 42.410603226766142 ], [ 117.310932565584935, 42.410603243247444 ], [ 117.310932498863622, 42.410589734415602 ], [ 117.310926422370954, 42.410589750896577 ], [ 117.310926355650977, 42.410576242064693 ], [ 117.310920279159632, 42.410576258545326 ], [ 117.310920301399193, 42.4105807614893 ], [ 117.310908148415578, 42.410580794449601 ], [ 117.310908170654272, 42.410585297393567 ], [ 117.310883864685323, 42.410585363310339 ], [ 117.310883886922269, 42.410589866254313 ], [ 117.310877810429588, 42.410589882732701 ], [ 117.310877854902657, 42.41059888862064 ], [ 117.310883931396219, 42.410598872142252 ], [ 117.310884020344147, 42.410616883918081 ], [ 117.310896173334726, 42.410616850960302 ], [ 117.310896195572568, 42.41062135390424 ] ] ] } },
{ "type": "Feature", "properties": { "crown_id": 1340, "tree_id": "1340", "top_h_m": 22.713, "H_95_Mean": 22.6567, "DBH": 29.5934, "Carbon_kg": 178.30888, "area_m2": 15.5 }, "geometry": { "type": "Polygon", "coordinates": [ [ [ 117.310726031464739, 42.410617312251922 ], [ 117.310732107960192, 42.41061729578157 ], [ 117.310732063507942, 42.410608289893538 ], [ 117.310744216497014, 42.410608256951868 ], [ 117.310744194270058, 42.410603754007845 ], [ 117.310750270764146, 42.410603737536547 ], [ 117.310750248536735, 42.410599234592517 ], [ 117.310744172043073, 42.410599251063836 ], [ 117.310744149816102, 42.410594748119806 ], [ 117.310738073322852, 42.410594764590797 ], [ 117.310737984416761, 42.410576752814642 ], [ 117.310731907925259, 42.410576769285292 ], [ 117.310731885699184, 42.410572266341248 ], [ 117.310725809208094, 42.410572282811572 ], [ 117.310725786982459, 42.410567779867513 ], [ 117.310701481019848, 42.410567845745597 ], [ 117.31070150324372, 42.410572348689662 ], [ 117.310695426752631, 42.410572365158387 ], [ 117.310695448976091, 42.410576868102439 ], [ 117.310689372484561, 42.410576884570837 ], [ 117.310689461376739, 42.410594896347057 ], [ 117.310701614363296, 42.410594863409926 ], [ 117.310701658811169, 42.410603869298008 ], [ 117.310725964787693, 42.410603803419853 ], [ 117.310726031464739, 42.410617312251922 ] ] ] } },
{ "type": "Feature", "properties": { "crown_id": 1341, "tree_id": "1341", "top_h_m": 22.256, "H_95_Mean": 22.1145, "DBH": 29.4976, "Carbon_kg": 174.627612, "area_m2": 16.0 }, "geometry": { "type": "Polygon", "coordinates": [ [ [ 117.310823210925662, 42.410608042799673 ], [ 117.310829287420134, 42.410608026324184 ], [ 117.310829265187067, 42.410603523380189 ], [ 117.31084141817513, 42.410603490428215 ], [ 117.310841395941196, 42.410598987484249 ], [ 117.310853548928364, 42.410598954530997 ], [ 117.310853504458763, 42.410589948643036 ], [ 117.310859580951487, 42.410589932165934 ], [ 117.310859558716274, 42.410585429221953 ], [ 117.31085348222399, 42.410585445699041 ], [ 117.310853459989218, 42.410580942755068 ], [ 117.310847383497361, 42.410580959231829 ], [ 117.310847316794366, 42.410567450399839 ], [ 117.310835163813266, 42.410567483352395 ], [ 117.310835141579801, 42.410562980408386 ], [ 117.310816912109416, 42.410563029834819 ], [ 117.310816934341574, 42.410567532778835 ], [ 117.310804781360432, 42.410567565728172 ], [ 117.310804870285608, 42.410585577504243 ], [ 117.310798793793282, 42.410585593978446 ], [ 117.31079881602416, 42.410590096922455 ], [ 117.310804892516927, 42.410590080448259 ], [ 117.310804936979551, 42.410599086336248 ], [ 117.31081101347317, 42.410599069861718 ], [ 117.310811035704944, 42.410603572805712 ], [ 117.310823188693021, 42.410603539855678 ], [ 117.310823210925662, 42.410608042799673 ] ] ] } },
{ "type": "Feature", "properties": { "crown_id": 1393, "tree_id": "1393", "top_h_m": 24.204, "H_95_Mean": 24.039, "DBH": 32.3895, "Carbon_kg": 221.519154, "area_m2": 19.75 }, "geometry": { "type": "Polygon", "coordinates": [ [ [ 117.310756325030411, 42.410599218120893 ], [ 117.310774554511383, 42.410599168704067 ], [ 117.310774532282224, 42.410594665760051 ], [ 117.310780608775431, 42.410594649287141 ], [ 117.310780586545874, 42.410590146343132 ], [ 117.310792739531408, 42.410590113396331 ], [ 117.310792695070546, 42.4105811075083 ], [ 117.310798771562418, 42.41058109103443 ], [ 117.310798704869853, 42.410567582202361 ], [ 117.310792628379247, 42.410567598676231 ], [ 117.310792583918428, 42.410558592788171 ], [ 117.310774354449251, 42.410558642207825 ], [ 117.310774309991046, 42.410549636319729 ], [ 117.310756080524442, 42.41054968573647 ], [ 117.310756102752208, 42.410554188680528 ], [ 117.310743949773567, 42.410554221623421 ], [ 117.310743972000509, 42.410558724567473 ], [ 117.310737895510741, 42.410558741038436 ], [ 117.310737917737242, 42.410563243982487 ], [ 117.310731841247033, 42.410563260453138 ], [ 117.310731863473109, 42.410567763397189 ], [ 117.310737939963744, 42.410567746926539 ], [ 117.310737962190245, 42.410572249870604 ], [ 117.310744038681321, 42.410572233399627 ], [ 117.310744127589146, 42.41059024517579 ], [ 117.310750204081941, 42.410590228704478 ], [ 117.310750226309338, 42.410594731648501 ], [ 117.31075630280256, 42.410594715176877 ], [ 117.310756325030411, 42.410599218120893 ] ] ] } },
{ "type": "Feature", "properties": { "crown_id": 1419, "tree_id": "1419", "top_h_m": 22.938, "H_95_Mean": 22.6816, "DBH": 34.8714, "Carbon_kg": 248.375183, "area_m2": 29.25 }, "geometry": { "type": "Polygon", "coordinates": [ [ [ 117.310865635208543, 42.410585412744531 ], [ 117.310877788193068, 42.410585379788721 ], [ 117.310877765956533, 42.41058087684474 ], [ 117.310902071923806, 42.410580810929275 ], [ 117.310902049685538, 42.410576307985309 ], [ 117.310914202668258, 42.41057627502564 ], [ 117.310914180429165, 42.410571772081674 ], [ 117.31092025692007, 42.41057175560136 ], [ 117.310920212440976, 42.410562749713407 ], [ 117.310926288931029, 42.410562733232787 ], [ 117.310926244451096, 42.410553727344826 ], [ 117.31092016796191, 42.410553743825453 ], [ 117.310920123482873, 42.410544737937471 ], [ 117.310926199971163, 42.410544721456858 ], [ 117.310926155491288, 42.410535715568869 ], [ 117.310914002516412, 42.410535748529774 ], [ 117.310913980277334, 42.410531245585766 ], [ 117.31088967432926, 42.410531311503703 ], [ 117.310889696566576, 42.410535814447712 ], [ 117.310883620079125, 42.410535830926392 ], [ 117.310883642316, 42.410540333870415 ], [ 117.310853259876424, 42.410540416258996 ], [ 117.310853282111154, 42.410544919203005 ], [ 117.310847205622778, 42.410544935679766 ], [ 117.310847250091385, 42.410553941567805 ], [ 117.310835097112914, 42.410553974520361 ], [ 117.310835119346351, 42.41055847746437 ], [ 117.310841195836034, 42.410558460988256 ], [ 117.310841218069925, 42.410562963932257 ], [ 117.310853371050143, 42.410562930979069 ], [ 117.310853437754446, 42.410576439811074 ], [ 117.310859514245834, 42.410576423333971 ], [ 117.310859536481047, 42.410580926277973 ], [ 117.310865612972876, 42.410580909800544 ], [ 117.310865635208543, 42.410585412744531 ] ] ] } },
{ "type": "Feature", "properties": { "crown_id": 1472, "tree_id": "1472", "top_h_m": 23.899, "H_95_Mean": 23.7283, "DBH": 34.2955, "Carbon_kg": 246.672152, "area_m2": 25.25 }, "geometry": { "type": "Polygon", "coordinates": [ [ [ 117.310701458795933, 42.410563342801524 ], [ 117.31072576475681, 42.410563276923462 ], [ 117.310725742531204, 42.410558773979396 ], [ 117.310731819020972, 42.410558757509072 ], [ 117.310731796794926, 42.410554254565014 ], [ 117.310737873284253, 42.410554238094385 ], [ 117.310737851057752, 42.410549735150305 ], [ 117.310750004035555, 42.410549702208073 ], [ 117.310749981808186, 42.410545199264007 ], [ 117.31076213478508, 42.410545166320489 ], [ 117.310762112556873, 42.410540663376423 ], [ 117.310756036068852, 42.410540679848346 ], [ 117.310756013841086, 42.410536176904273 ], [ 117.310749937353492, 42.410536193375869 ], [ 117.310749915126181, 42.410531690431803 ], [ 117.310743838639027, 42.410531706903079 ], [ 117.310743771958343, 42.410518198070818 ], [ 117.310737695472497, 42.41051821454176 ], [ 117.310737606566732, 42.41050020276537 ], [ 117.310725453598494, 42.410500235706273 ], [ 117.310725475824057, 42.410504738650381 ], [ 117.310719399339504, 42.410504755120343 ], [ 117.310719377114367, 42.410500252176227 ], [ 117.310707224146114, 42.410500285115184 ], [ 117.310707246370342, 42.410504788059313 ], [ 117.310701169885775, 42.410504804528308 ], [ 117.310701236557264, 42.410518313360633 ], [ 117.31069516007139, 42.410518329829316 ], [ 117.310695226741615, 42.410531838661633 ], [ 117.310689150254419, 42.41053185513001 ], [ 117.310689194700416, 42.410540861018198 ], [ 117.310695271188479, 42.410540844549828 ], [ 117.310695293411925, 42.410545347493915 ], [ 117.310701369900428, 42.410545331025212 ], [ 117.310701458795933, 42.410563342801524 ] ] ] } },
{ "type": "Feature", "properties": { "crown_id": 1473, "tree_id": "1473", "top_h_m": 23.22, "H_95_Mean": 23.1118, "DBH": 32.3028, "Carbon_kg": 215.259047, "area_m2": 21.0 }, "geometry": { "type": "Polygon", "coordinates": [ [ [ 117.310798682639003, 42.410563079258338 ], [ 117.310810835619293, 42.41056304630964 ], [ 117.310810813387576, 42.410558543365624 ], [ 117.310829042856682, 42.410558493940165 ], [ 117.310828998390647, 42.410549488052119 ], [ 117.310841151368265, 42.410549455100217 ], [ 117.310841084666691, 42.410535946268141 ], [ 117.31082893169166, 42.410535979220022 ], [ 117.310828909458664, 42.41053147627597 ], [ 117.310822832971596, 42.410531492751446 ], [ 117.31082281073904, 42.410526989807394 ], [ 117.310816734252398, 42.410527006282535 ], [ 117.310816712020298, 42.410522503338484 ], [ 117.310810635534068, 42.410522519813298 ], [ 117.310810613302394, 42.410518016869219 ], [ 117.310798460330787, 42.410518049817867 ], [ 117.310798415869215, 42.410509043929736 ], [ 117.310792339384278, 42.410509060403569 ], [ 117.310792317153926, 42.41050455745949 ], [ 117.310780164184905, 42.410504590406184 ], [ 117.310780297561848, 42.41053160807062 ], [ 117.310774221074723, 42.410531624543502 ], [ 117.310774243303797, 42.410536127487553 ], [ 117.310768166816246, 42.410536143960123 ], [ 117.310768211273526, 42.410545149848247 ], [ 117.310780364250391, 42.410545116902796 ], [ 117.310780408709462, 42.410554122790892 ], [ 117.310798638177317, 42.410554073370271 ], [ 117.310798682639003, 42.410563079258338 ] ] ] } },
{ "type": "Feature", "properties": { "crown_id": 1511, "tree_id": "1511", "top_h_m": 20.948, "H_95_Mean": 20.9571, "DBH": 22.5725, "Carbon_kg": 98.648535, "area_m2": 6.25 }, "geometry": { "type": "Polygon", "coordinates": [ [ [ 117.310755991613334, 42.410531673960215 ], [ 117.310768144587598, 42.410531641016057 ], [ 117.310768122358951, 42.410527138071991 ], [ 117.31077419884565, 42.410527121599436 ], [ 117.310774109929426, 42.410509109823138 ], [ 117.310768033444461, 42.410509126295686 ], [ 117.31076801121587, 42.410504623351599 ], [ 117.310755858246793, 42.410504656295721 ], [ 117.310755836019069, 42.41050015335162 ], [ 117.310743683050859, 42.410500186294442 ], [ 117.310743749731458, 42.410513695126731 ], [ 117.310749826216878, 42.410513678655477 ], [ 117.310749892898841, 42.410527187487723 ], [ 117.310755969385553, 42.410527171016135 ], [ 117.310755991613334, 42.410531673960215 ] ] ] } },
{ "type": "Feature", "properties": { "crown_id": 1530, "tree_id": "1530", "top_h_m": 23.799, "H_95_Mean": 23.6617, "DBH": 36.4057, "Carbon_kg": 277.756559, "area_m2": 32.0 }, "geometry": { "type": "Polygon", "coordinates": [ [ [ 117.3108471611542, 42.410535929791706 ], [ 117.310877543591644, 42.410535847404759 ], [ 117.310877521355167, 42.410531344460736 ], [ 117.310883597842206, 42.410531327982376 ], [ 117.310883575605317, 42.41052682503836 ], [ 117.310913958038256, 42.410526742641764 ], [ 117.310913935799206, 42.410522239697748 ], [ 117.310920012285337, 42.41052222321747 ], [ 117.310919945566894, 42.410508714385422 ], [ 117.310913869082071, 42.4105087308657 ], [ 117.310913846843022, 42.410504227921685 ], [ 117.310919923327418, 42.410504211441406 ], [ 117.310919901087928, 42.410499708497376 ], [ 117.310925977571898, 42.410499692016785 ], [ 117.310925910852234, 42.410486183184695 ], [ 117.310913757886894, 42.41048621614555 ], [ 117.310913735647901, 42.410481713201492 ], [ 117.310919812130109, 42.410481696721241 ], [ 117.310919789890676, 42.410477193777204 ], [ 117.310895483963463, 42.410477259696293 ], [ 117.310895506201192, 42.410481762640345 ], [ 117.310852970825323, 42.410481877986378 ], [ 117.310853059764042, 42.41049988976264 ], [ 117.31084698328003, 42.410499906239352 ], [ 117.310847072217058, 42.410517918015564 ], [ 117.310853148702833, 42.410517901538832 ], [ 117.310853215406951, 42.410531410370936 ], [ 117.310847138919911, 42.410531426847683 ], [ 117.3108471611542, 42.410535929791706 ] ] ] } },
{ "type": "Feature", "properties": { "crown_id": 1543, "tree_id": "1543", "top_h_m": 23.664, "H_95_Mean": 23.4653, "DBH": 30.086, "Carbon_kg": 188.204853, "area_m2": 15.5 }, "geometry": { "type": "Polygon", "coordinates": [ [ [ 117.31083498594576, 42.410531459800211 ], [ 117.310841062432843, 42.410531443324103 ], [ 117.31084104019898, 42.410526940380066 ], [ 117.310847116685622, 42.410526923903646 ], [ 117.310847094451319, 42.410522420959602 ], [ 117.310841017965146, 42.410522437436029 ], [ 117.310840884562168, 42.410495419771699 ], [ 117.310846961045755, 42.4104954032953 ], [ 117.310846894343044, 42.410481894463096 ], [ 117.31084081786075, 42.410481910939488 ], [ 117.310840795626973, 42.410477407995415 ], [ 117.310810413217609, 42.410477490372543 ], [ 117.310810457680859, 42.410486496260731 ], [ 117.31080438119811, 42.41048651273519 ], [ 117.310804425660507, 42.410495518623357 ], [ 117.310798349176878, 42.410495535097496 ], [ 117.310798393638436, 42.410504540985656 ], [ 117.310804470122932, 42.410504524511509 ], [ 117.310804514585357, 42.410513530399641 ], [ 117.310816667556082, 42.41051349745036 ], [ 117.310816689788197, 42.410518000394426 ], [ 117.310822766273972, 42.410517983919291 ], [ 117.310822788506499, 42.41052248686335 ], [ 117.3108288649927, 42.410522470387889 ], [ 117.310828887225696, 42.41052697333194 ], [ 117.310834963712338, 42.410526956856167 ], [ 117.31083498594576, 42.410531459800211 ] ] ] } }
]
}
