{
"type": "FeatureCollection",
"name": "tile_20_9",
"crs": { "type": "name", "properties": { "name": "urn:ogc:def:crs:OGC:1.3:CRS84" } },
"features": [
{ "type": "Feature", "properties": { "crown_id": 5982, "tree_id": "5986", "top_h_m": 24.026, "H_95_Mean": 23.7099, "DBH": 38.7818, "Carbon_kg": 315.885382, "area_m2": 40.75 }, "geometry": { "type": "Polygon", "coordinates": [ [ [ 117.311952494157524, 42.407961711298093 ], [ 117.311976799111108, 42.407961645158039 ], [ 117.311976754484959, 42.407952639266874 ], [ 117.311982830722499, 42.407952622731067 ], [ 117.311982808408999, 42.407948119785473 ], [ 117.311976732171885, 42.407948136321288 ], [ 117.311976709858826, 42.407943633375702 ], [ 117.311970633622181, 42.407943649911189 ], [ 117.311970611309562, 42.407939146965603 ], [ 117.311982763781998, 42.407939113894308 ], [ 117.311982741468498, 42.407934610948722 ], [ 117.311988817704275, 42.407934594412602 ], [ 117.311988750762538, 42.407921085575801 ], [ 117.311994826996994, 42.407921069039361 ], [ 117.311994782368345, 42.407912063148146 ], [ 117.311982629901124, 42.407912096220699 ], [ 117.31198260758768, 42.407907593275084 ], [ 117.311970455121326, 42.407907626346336 ], [ 117.311970432808749, 42.407903123400715 ], [ 117.311976509041472, 42.407903106865248 ], [ 117.311976486728483, 42.407898603919634 ], [ 117.311964334263834, 42.407898636990232 ], [ 117.311964311951712, 42.407894134044589 ], [ 117.311946083256046, 42.407894183648068 ], [ 117.311946060945218, 42.407889680702425 ], [ 117.311933908482274, 42.407889713769791 ], [ 117.311933953102212, 42.407898719661084 ], [ 117.311921800637506, 42.407898752727171 ], [ 117.311921822946616, 42.407903255672821 ], [ 117.311915746713836, 42.407903272205388 ], [ 117.311915769022491, 42.407907775151031 ], [ 117.311909692789285, 42.407907791683272 ], [ 117.311909759713998, 42.407921300520201 ], [ 117.311903683479471, 42.407921317052129 ], [ 117.311903750402976, 42.407934825889036 ], [ 117.311897674167113, 42.407934842420651 ], [ 117.311897718781921, 42.407943848311902 ], [ 117.311909871255367, 42.407943815248338 ], [ 117.311909893563652, 42.407948318193945 ], [ 117.311922046037921, 42.407948285129095 ], [ 117.311922068347059, 42.407952788074709 ], [ 117.311946373297289, 42.407952721941122 ], [ 117.311946395608189, 42.407957224886708 ], [ 117.311952471846197, 42.407957208352499 ], [ 117.311952494157524, 42.407961711298093 ] ] ] } },
{ "type": "Feature", "properties": { "crown_id": 5983, "tree_id": "5987", "top_h_m": 22.706, "H_95_Mean": 22.5706, "DBH": 33.3254, "Carbon_kg": 226.02421, "area_m2": 24.75 }, "geometry": { "type": "Polygon", "coordinates": [ [ [ 117.312116485623534, 42.407947755916169 ], [ 117.312134714334405, 42.407947706285562 ], [ 117.312134692010048, 42.407943203340032 ], [ 117.312146844483067, 42.40794317025135 ], [ 117.312146822157828, 42.407938667305835 ], [ 117.31215897462998, 42.407938634215867 ], [ 117.312158952303889, 42.407934131270345 ], [ 117.312165028539511, 42.407934114724895 ], [ 117.312164916906951, 42.407911599997249 ], [ 117.312152764440043, 42.407911633087835 ], [ 117.312152675137582, 42.407893621305639 ], [ 117.31212837021063, 42.407893687482904 ], [ 117.312128347886784, 42.407889184537332 ], [ 117.312122271655468, 42.407889201080842 ], [ 117.31212231630235, 42.407898206971971 ], [ 117.312116240070154, 42.407898223515168 ], [ 117.312116284716154, 42.407907229406291 ], [ 117.312110208483091, 42.407907245949168 ], [ 117.3121102308057, 42.407911748894719 ], [ 117.312098078338693, 42.407911781979507 ], [ 117.312098100660421, 42.407916284925072 ], [ 117.312085948192518, 42.407916318008574 ], [ 117.312085992834241, 42.40792532389969 ], [ 117.312098145303878, 42.407925290816173 ], [ 117.312098167625592, 42.407929793761731 ], [ 117.312104243860844, 42.407929777219479 ], [ 117.312104266183013, 42.40793428016503 ], [ 117.312110342418691, 42.407934263622472 ], [ 117.312110364741301, 42.407938766568002 ], [ 117.312116440977391, 42.407938750025117 ], [ 117.312116485623534, 42.407947755916169 ] ] ] } },
{ "type": "Feature", "properties": { "crown_id": 5986, "tree_id": "5990", "top_h_m": 22.526, "H_95_Mean": 22.2275, "DBH": 33.5081, "Carbon_kg": 226.46752, "area_m2": 26.0 }, "geometry": { "type": "Polygon", "coordinates": [ [ [ 117.312013234225688, 42.407957042992734 ], [ 117.312025386701535, 42.40795700991692 ], [ 117.312025364384979, 42.407952506971363 ], [ 117.312043593097385, 42.407952457355222 ], [ 117.312043548461688, 42.407943451464106 ], [ 117.31204962469829, 42.407943434924761 ], [ 117.312049580061739, 42.407934429033631 ], [ 117.312055656297446, 42.407934412493965 ], [ 117.312055633978758, 42.407929909548386 ], [ 117.312061710214024, 42.407929893008415 ], [ 117.312061643256669, 42.407916384171699 ], [ 117.312049490788709, 42.407916417251336 ], [ 117.312049446152216, 42.407907411360164 ], [ 117.31204336991911, 42.407907427899502 ], [ 117.312043347601318, 42.407902924953916 ], [ 117.312037271368638, 42.407902941492921 ], [ 117.312037249051272, 42.407898438547321 ], [ 117.312031172819019, 42.407898455085991 ], [ 117.312031150502094, 42.407893952140391 ], [ 117.312012921806598, 42.407894001754492 ], [ 117.31201296643782, 42.407903007645714 ], [ 117.312006890205112, 42.407903024183113 ], [ 117.312006912520317, 42.407907527128714 ], [ 117.312000836287154, 42.407907543665786 ], [ 117.312000947861023, 42.407930058393788 ], [ 117.3119948716257, 42.407930074930547 ], [ 117.311994916254392, 42.407939080821734 ], [ 117.311988840018202, 42.407939097358188 ], [ 117.311988906960011, 42.407952606194932 ], [ 117.311994983197522, 42.407952589658471 ], [ 117.311994960883126, 42.407948086712899 ], [ 117.312001037120211, 42.407948070176118 ], [ 117.312001014805404, 42.407943567230546 ], [ 117.312007091042034, 42.407943550693446 ], [ 117.312007113357268, 42.407948053639018 ], [ 117.31201318959431, 42.407948037101598 ], [ 117.312013234225688, 42.407957042992734 ] ] ] } },
{ "type": "Feature", "properties": { "crown_id": 6046, "tree_id": "6050", "top_h_m": 21.691, "H_95_Mean": 21.5254, "DBH": 33.7173, "Carbon_kg": 225.013812, "area_m2": 28.25 }, "geometry": { "type": "Polygon", "coordinates": [ [ [ 117.312067741810196, 42.40792087057698 ], [ 117.31207989427898, 42.407920837495389 ], [ 117.312079849638138, 42.40791183160426 ], [ 117.312085925871656, 42.407911815063002 ], [ 117.312085903550809, 42.40790731211743 ], [ 117.312091979783887, 42.407907295575846 ], [ 117.312091957462627, 42.407902792630281 ], [ 117.312098033695264, 42.40790277608837 ], [ 117.312098011373564, 42.407898273142791 ], [ 117.312104087605761, 42.407898256600582 ], [ 117.312104020639381, 42.407884747763845 ], [ 117.312091868177575, 42.407884780847958 ], [ 117.31209184585633, 42.407880277902372 ], [ 117.312085769625838, 42.407880294443935 ], [ 117.312085747305048, 42.407875791498334 ], [ 117.312079671075011, 42.407875808039591 ], [ 117.312079626434269, 42.407866802148369 ], [ 117.312073550205085, 42.407866818689293 ], [ 117.312073527885161, 42.407862315743678 ], [ 117.312067451656404, 42.407862332284267 ], [ 117.312067429336935, 42.407857829338653 ], [ 117.312030971966919, 42.407857928575424 ], [ 117.312030994283802, 42.407862431521067 ], [ 117.31201884182623, 42.407862464597414 ], [ 117.312018886458262, 42.407871470488686 ], [ 117.312024962687914, 42.407871453950662 ], [ 117.312025029637326, 42.407884962787527 ], [ 117.312018953406351, 42.407884979325559 ], [ 117.312018975722395, 42.407889482271173 ], [ 117.312037204416555, 42.407889432656106 ], [ 117.312037226733921, 42.407893935601713 ], [ 117.312043302965733, 42.407893919062722 ], [ 117.312043325283511, 42.407898422008323 ], [ 117.312049401515765, 42.407898405468991 ], [ 117.312049423833997, 42.407902908414584 ], [ 117.312055500066663, 42.40790289187494 ], [ 117.312055544704023, 42.407911897766091 ], [ 117.312067697171088, 42.407911864685829 ], [ 117.312067741810196, 42.40792087057698 ] ] ] } },
{ "type": "Feature", "properties": { "crown_id": 6063, "tree_id": "6067", "top_h_m": 21.627, "H_95_Mean": 21.2161, "DBH": 34.1549, "Carbon_kg": 228.970037, "area_m2": 30.5 }, "geometry": { "type": "Polygon", "coordinates": [ [ [ 117.311988661506959, 42.407903073793364 ], [ 117.312000813972418, 42.407903040720186 ], [ 117.312000791657638, 42.407898537774571 ], [ 117.312006867889934, 42.407898521237499 ], [ 117.31200682325958, 42.407889515346262 ], [ 117.312012899490981, 42.407889498808878 ], [ 117.312012854859788, 42.407880492917641 ], [ 117.312018931090307, 42.40788047637993 ], [ 117.312018908774292, 42.407875973434294 ], [ 117.312006756314076, 42.40787600650939 ], [ 117.312006733998913, 42.407871503563754 ], [ 117.312012810228595, 42.407871487026377 ], [ 117.312012720966294, 42.407853475243819 ], [ 117.311976263598623, 42.407853574463196 ], [ 117.311976241285663, 42.407849071517525 ], [ 117.311939783920408, 42.407849170725285 ], [ 117.311939806230782, 42.407853673670964 ], [ 117.311933730002778, 42.407853690204469 ], [ 117.311933819242483, 42.407871701987148 ], [ 117.31192774301276, 42.407871718520354 ], [ 117.311927809941295, 42.407885227357333 ], [ 117.31195211486542, 42.407885161222616 ], [ 117.311952137176675, 42.407889664168252 ], [ 117.311970365871019, 42.407889614563821 ], [ 117.311970388183582, 42.40789411750945 ], [ 117.311982540647335, 42.407894084438212 ], [ 117.311982562960779, 42.407898587383848 ], [ 117.311988639193075, 42.407898570847749 ], [ 117.311988661506959, 42.407903073793364 ] ] ] } },
{ "type": "Feature", "properties": { "crown_id": 6075, "tree_id": "6079", "top_h_m": 22.154, "H_95_Mean": 21.7605, "DBH": 31.2036, "Carbon_kg": 193.723402, "area_m2": 20.5 }, "geometry": { "type": "Polygon", "coordinates": [ [ [ 117.312110096870256, 42.407884731221316 ], [ 117.31212224933202, 42.407884698135277 ], [ 117.312121959127936, 42.4078261598425 ], [ 117.312115882902717, 42.407826176385655 ], [ 117.312115860579794, 42.407821673440033 ], [ 117.312091555680539, 42.407821739609389 ], [ 117.312091578001727, 42.407826242555025 ], [ 117.31208550177648, 42.407826259096566 ], [ 117.312085568738752, 42.407839767933446 ], [ 117.312079492512183, 42.407839784474675 ], [ 117.31207953715284, 42.407848790365925 ], [ 117.312073460925404, 42.407848806906827 ], [ 117.312073505565237, 42.407857812798071 ], [ 117.312079581793554, 42.407857796257161 ], [ 117.312079604113904, 42.407862299202762 ], [ 117.312085680342634, 42.407862282661526 ], [ 117.312085724984243, 42.407871288552741 ], [ 117.312091801213839, 42.407871272011178 ], [ 117.31209182353507, 42.407875774956779 ], [ 117.312097899765106, 42.407875758414896 ], [ 117.312097922086792, 42.407880261360482 ], [ 117.312110074547732, 42.407880228275729 ], [ 117.312110096870256, 42.407884731221316 ] ] ] } },
{ "type": "Feature", "properties": { "crown_id": 6105, "tree_id": "6109", "top_h_m": 19.357, "H_95_Mean": 19.1628, "DBH": 31.1546, "Carbon_kg": 179.123275, "area_m2": 25.75 }, "geometry": { "type": "Polygon", "coordinates": [ [ [ 117.31198231751317, 42.407849054981781 ], [ 117.312006622423226, 42.407848988835546 ], [ 117.312006421587284, 42.407808462324525 ], [ 117.312000345363685, 42.407808478861554 ], [ 117.312000323049048, 42.407803975915854 ], [ 117.311994246825876, 42.40780399245255 ], [ 117.311994224511693, 42.407799489506864 ], [ 117.311982072066215, 42.407799522579275 ], [ 117.311982027439569, 42.407790516687861 ], [ 117.311963798773931, 42.407790566294061 ], [ 117.311963821085953, 42.407795069239775 ], [ 117.311957744863619, 42.407795085774531 ], [ 117.311957767175215, 42.407799588720245 ], [ 117.311951690952469, 42.407799605254681 ], [ 117.311951713263625, 42.407804108200388 ], [ 117.311945637040409, 42.407804124734511 ], [ 117.31194570397264, 42.407817633571632 ], [ 117.31195178019712, 42.407817617037516 ], [ 117.311951869441884, 42.407835628820287 ], [ 117.311945793215642, 42.407835645354417 ], [ 117.3119458378372, 42.407844651245782 ], [ 117.311982295199797, 42.40784455203611 ], [ 117.31198231751317, 42.407849054981781 ] ] ] } },
{ "type": "Feature", "properties": { "crown_id": 6117, "tree_id": "6121", "top_h_m": 21.183, "H_95_Mean": 20.6516, "DBH": 35.5038, "Carbon_kg": 243.644031, "area_m2": 37.25 }, "geometry": { "type": "Polygon", "coordinates": [ [ [ 117.311891218713569, 42.407858308875646 ], [ 117.311927676084267, 42.407858209683326 ], [ 117.311927631465309, 42.407849203791962 ], [ 117.311933707692873, 42.407849187258783 ], [ 117.311933685382954, 42.407844684313105 ], [ 117.311939761610063, 42.407844667779599 ], [ 117.311939694679083, 42.407831158942543 ], [ 117.311945770904885, 42.407831142408725 ], [ 117.311945726283369, 42.407822136517339 ], [ 117.31193965005842, 42.407822153051136 ], [ 117.311939516196631, 42.407795135376873 ], [ 117.311927363751934, 42.407795168443485 ], [ 117.311927341442512, 42.407790665497743 ], [ 117.31192126522059, 42.407790682030566 ], [ 117.311921242911623, 42.407786179084837 ], [ 117.311903014247122, 42.40778622868136 ], [ 117.311902991939476, 42.407781725735603 ], [ 117.311896915718407, 42.40778174226714 ], [ 117.311896938025626, 42.407786245212883 ], [ 117.311890861804116, 42.4077862617441 ], [ 117.311890884110923, 42.40779076468985 ], [ 117.311884807888973, 42.407790781220726 ], [ 117.311884830195353, 42.407795284166482 ], [ 117.311878753972962, 42.407795300697053 ], [ 117.311878910114658, 42.407826821317208 ], [ 117.311872833889225, 42.407826837847473 ], [ 117.311872878500324, 42.407835843738916 ], [ 117.311878954726623, 42.40783582720865 ], [ 117.3118790216446, 42.407849336045786 ], [ 117.311885097872207, 42.407849319515186 ], [ 117.31188512017863, 42.407853822460886 ], [ 117.311891196406677, 42.40785380592996 ], [ 117.311891218713569, 42.407858308875646 ] ] ] } },
{ "type": "Feature", "properties": { "crown_id": 6118, "tree_id": "6122", "top_h_m": 21.187, "H_95_Mean": 20.8884, "DBH": 33.9755, "Carbon_kg": 224.476256, "area_m2": 30.75 }, "geometry": { "type": "Polygon", "coordinates": [ [ [ 117.312024873422146, 42.407853442168118 ], [ 117.312067407017452, 42.407853326393038 ], [ 117.3120673623785, 42.407844320501781 ], [ 117.312073438605523, 42.407844303961198 ], [ 117.312073393965719, 42.407835298069934 ], [ 117.312079470191861, 42.407835281529039 ], [ 117.312079403230911, 42.407821772692131 ], [ 117.312085479455718, 42.407821756150923 ], [ 117.31208545713497, 42.40781725320528 ], [ 117.312091533359379, 42.407817236663746 ], [ 117.312091466395856, 42.40780372782681 ], [ 117.312079313949681, 42.40780376090953 ], [ 117.312079269309123, 42.407794755018216 ], [ 117.312067116864654, 42.407794788099643 ], [ 117.31206713918408, 42.407799291045308 ], [ 117.31205498673873, 42.407799324125463 ], [ 117.312054964420199, 42.407794821179778 ], [ 117.312042811975672, 42.40779485425864 ], [ 117.312042834293379, 42.407799357204311 ], [ 117.312030681847972, 42.407799390281887 ], [ 117.312030704164798, 42.407803893227552 ], [ 117.312024627941639, 42.407803909765867 ], [ 117.312024650258039, 42.407808412711539 ], [ 117.312012497810869, 42.40780844578719 ], [ 117.312012609388518, 42.407830960515561 ], [ 117.312018685614277, 42.407830943977885 ], [ 117.31201870793025, 42.407835446923535 ], [ 117.312024784156435, 42.407835430385539 ], [ 117.312024873422146, 42.407853442168118 ] ] ] } },
{ "type": "Feature", "properties": { "crown_id": 6163, "tree_id": "6167", "top_h_m": 15.145, "H_95_Mean": 14.9169, "DBH": 30.0519, "Carbon_kg": 143.638169, "area_m2": 35.75 }, "geometry": { "type": "Polygon", "coordinates": [ [ [ 117.312121936804587, 42.407821656896886 ], [ 117.31212801302938, 42.407821640353411 ], [ 117.312127990705605, 42.407817137407797 ], [ 117.312152295602985, 42.40781707123071 ], [ 117.312152273277476, 42.407812568285102 ], [ 117.312182654396892, 42.407812485556519 ], [ 117.312182542758507, 42.407789970828453 ], [ 117.312176466536826, 42.407789987374798 ], [ 117.312176399555156, 42.407776478537897 ], [ 117.312164247114325, 42.407776511629613 ], [ 117.312164224788006, 42.407772008683963 ], [ 117.312152072348013, 42.407772041774386 ], [ 117.312152027697095, 42.407763035883079 ], [ 117.312127722820591, 42.407763102060038 ], [ 117.312127745144295, 42.407767605005695 ], [ 117.312121668924718, 42.407767621549141 ], [ 117.312121646601412, 42.407763118603469 ], [ 117.312109494163138, 42.407763151689366 ], [ 117.312109516485535, 42.407767654635045 ], [ 117.312103440265943, 42.40776767117751 ], [ 117.312103507231939, 42.407781180014531 ], [ 117.312091354790141, 42.407781213098517 ], [ 117.312091399432404, 42.407790218989838 ], [ 117.312097475654198, 42.407790202448005 ], [ 117.312097520297357, 42.407799208339313 ], [ 117.312103596520004, 42.407799191797146 ], [ 117.312103618842031, 42.407803694742796 ], [ 117.312097542618943, 42.407803711284963 ], [ 117.312097609583759, 42.407817220121892 ], [ 117.312121914481239, 42.407817153951264 ], [ 117.312121936804587, 42.407821656896886 ] ] ] } }
]
}
