{
"type": "FeatureCollection",
"name": "tile_12_10",
"crs": { "type": "name", "properties": { "name": "urn:ogc:def:crs:OGC:1.3:CRS84" } },
"features": [
{ "type": "Feature", "properties": { "crown_id": 3645, "tree_id": "3647", "top_h_m": 22.463, "H_95_Mean": 22.0636, "DBH": 37.8401, "Carbon_kg": 288.089668, "area_m2": 42.25 }, "geometry": { "type": "Polygon", "coordinates": [ [ [ 117.31217228492963, 42.409397571829899 ], [ 117.312184437683342, 42.409397538736314 ], [ 117.312184415354295, 42.40939303579195 ], [ 117.312239102741842, 42.409392886854924 ], [ 117.312239125074811, 42.409397389799253 ], [ 117.312263430581993, 42.409397323596643 ], [ 117.31226340824729, 42.409392820652329 ], [ 117.312269484623627, 42.409392804100861 ], [ 117.312269462288498, 42.40938830115654 ], [ 117.312263385912601, 42.409388317708 ], [ 117.312263363577898, 42.409383814763657 ], [ 117.312257287202414, 42.409383831314791 ], [ 117.312257264868165, 42.409379328370456 ], [ 117.312263341243209, 42.409379311819315 ], [ 117.312263251904511, 42.409361300041958 ], [ 117.312257175531201, 42.409361316593085 ], [ 117.312257108528541, 42.409347807760007 ], [ 117.312251032156524, 42.409347824310792 ], [ 117.312251009822745, 42.409343321366421 ], [ 117.312226704336382, 42.409343387566338 ], [ 117.312226682004365, 42.40933888462196 ], [ 117.31217807103485, 42.409339017006317 ], [ 117.312178205006276, 42.409366034672672 ], [ 117.312172128632469, 42.409366051219287 ], [ 117.31217228492963, 42.409397571829899 ] ] ] } },
{ "type": "Feature", "properties": { "crown_id": 3765, "tree_id": "3767", "top_h_m": 21.188, "H_95_Mean": 21.0939, "DBH": 29.8406, "Carbon_kg": 173.81831, "area_m2": 18.25 }, "geometry": { "type": "Polygon", "coordinates": [ [ [ 117.312263229569865, 42.409356797097608 ], [ 117.312281458688446, 42.409356747442331 ], [ 117.312281369344646, 42.409338735664932 ], [ 117.312293522086875, 42.409338702559815 ], [ 117.312293254045528, 42.409284667227304 ], [ 117.312299330411406, 42.409284650674294 ], [ 117.312299285737055, 42.409275644785502 ], [ 117.31228713300699, 42.409275677891181 ], [ 117.312287155343299, 42.40928018083558 ], [ 117.312281078977847, 42.409280197387943 ], [ 117.312281145985494, 42.409293706221142 ], [ 117.312268993251934, 42.409293739324909 ], [ 117.312269060257009, 42.4093072481581 ], [ 117.312262983888914, 42.409307264709504 ], [ 117.312263095562002, 42.409329779431417 ], [ 117.312250942821464, 42.409329812533301 ], [ 117.312250987488966, 42.40933881842205 ], [ 117.312257063860116, 42.409338801871264 ], [ 117.312257086194322, 42.409343304815643 ], [ 117.312263162565912, 42.40934328826453 ], [ 117.312263229569865, 42.409356797097608 ] ] ] } },
{ "type": "Feature", "properties": { "crown_id": 3766, "tree_id": "3768", "top_h_m": 21.975, "H_95_Mean": 21.7225, "DBH": 39.2788, "Carbon_kg": 307.743175, "area_m2": 50.25 }, "geometry": { "type": "Polygon", "coordinates": [ [ [ 117.312287691416216, 42.409388251500239 ], [ 117.312318073295643, 42.409388168733301 ], [ 117.312318028618435, 42.409379162844679 ], [ 117.312324104993422, 42.409379146290334 ], [ 117.312324082654413, 42.409374643346027 ], [ 117.31233015902896, 42.409374626791355 ], [ 117.312330069671148, 42.40935661501409 ], [ 117.312348298789601, 42.409356565348183 ], [ 117.312348276448859, 42.409352062403862 ], [ 117.312354352821217, 42.409352045847925 ], [ 117.312354308138879, 42.409343039959275 ], [ 117.312348231767373, 42.409343056515219 ], [ 117.312348209426659, 42.40933855357089 ], [ 117.31236643853984, 42.40933850390212 ], [ 117.312366393855797, 42.409329498013463 ], [ 117.312372470225966, 42.409329481456567 ], [ 117.312372403198637, 42.40931597262356 ], [ 117.312360250460898, 42.409316005737018 ], [ 117.312360205777765, 42.409306999848319 ], [ 117.312348053041731, 42.40930703296047 ], [ 117.31234800836036, 42.40929802707177 ], [ 117.312341931993203, 42.409298043627359 ], [ 117.312341909652957, 42.409293540682988 ], [ 117.312329756919524, 42.409293573793185 ], [ 117.312329734580146, 42.409289070848821 ], [ 117.312317581847552, 42.409289103957732 ], [ 117.312317559509069, 42.409284601013354 ], [ 117.312305406777313, 42.409284634120972 ], [ 117.312305429114929, 42.409289137065358 ], [ 117.312299352748596, 42.409289153618673 ], [ 117.31229962079523, 42.409343188951127 ], [ 117.312287468052148, 42.409343222056876 ], [ 117.312287557397724, 42.409361233834261 ], [ 117.312269328277822, 42.409361283490519 ], [ 117.312269395283153, 42.409374792323547 ], [ 117.312275471657756, 42.409374775771781 ], [ 117.3122754493222, 42.409370272827431 ], [ 117.312281525696363, 42.409370256275338 ], [ 117.312281570368327, 42.409379262164016 ], [ 117.312287646743371, 42.409379245611596 ], [ 117.312287691416216, 42.409388251500239 ] ] ] } },
{ "type": "Feature", "properties": { "crown_id": 3781, "tree_id": "3783", "top_h_m": 24.811, "H_95_Mean": 24.6043, "DBH": 33.6677, "Carbon_kg": 242.80668, "area_m2": 22.0 }, "geometry": { "type": "Polygon", "coordinates": [ [ [ 117.312153743223178, 42.409334580246352 ], [ 117.312184125077081, 42.40933449751499 ], [ 117.312184080419115, 42.409325491626177 ], [ 117.312190156789015, 42.409325475078944 ], [ 117.31219011213021, 42.409316469190124 ], [ 117.312184035761177, 42.409316485737349 ], [ 117.31218401343223, 42.409311982792929 ], [ 117.312177937063638, 42.409311999339828 ], [ 117.312177892406581, 42.409302993450979 ], [ 117.312171816038841, 42.409303009997551 ], [ 117.312171771382722, 42.409294004108673 ], [ 117.31216569501585, 42.409294020654926 ], [ 117.312165650360598, 42.40928501476602 ], [ 117.312159573994592, 42.409285031311953 ], [ 117.312159551667406, 42.409280528367489 ], [ 117.31213524620506, 42.409280594547944 ], [ 117.312135268530511, 42.409285097492408 ], [ 117.312123115798457, 42.409285130580706 ], [ 117.312123138123013, 42.409289633525169 ], [ 117.312117061756553, 42.409289650068835 ], [ 117.312117084080711, 42.409294153013313 ], [ 117.312123160447612, 42.409294136469633 ], [ 117.312123205096796, 42.40930314235856 ], [ 117.312129281464593, 42.40930312581456 ], [ 117.312129326114658, 42.409312131703444 ], [ 117.312135402483293, 42.409312115159125 ], [ 117.312135469459776, 42.409325623992444 ], [ 117.312147622199646, 42.409325590902803 ], [ 117.312147644525993, 42.409330093847238 ], [ 117.312153720896376, 42.409330077301938 ], [ 117.312153743223178, 42.409334580246352 ] ] ] } },
{ "type": "Feature", "properties": { "crown_id": 3797, "tree_id": "3799", "top_h_m": 23.94, "H_95_Mean": 23.4515, "DBH": 37.5032, "Carbon_kg": 293.339071, "area_m2": 36.5 }, "geometry": { "type": "Polygon", "coordinates": [ [ [ 117.312232758375501, 42.409338868072474 ], [ 117.31224491111783, 42.409338834972516 ], [ 117.312244844117856, 42.409325326139367 ], [ 117.312256996857528, 42.409325293038137 ], [ 117.312256885186656, 42.409302778316203 ], [ 117.31226296155431, 42.409302761765112 ], [ 117.312262894550571, 42.409289252931906 ], [ 117.312275047283265, 42.409289219828793 ], [ 117.312274980276911, 42.409275710995566 ], [ 117.31228105664195, 42.409275694443537 ], [ 117.312281034306096, 42.409271191499116 ], [ 117.312274957941483, 42.409271208051152 ], [ 117.312274913270642, 42.409262202162317 ], [ 117.312256684179417, 42.409262251816465 ], [ 117.312256728847657, 42.409271257705313 ], [ 117.312238499753761, 42.40927130735659 ], [ 117.312238477420948, 42.409266804412148 ], [ 117.312226324692531, 42.409266837511382 ], [ 117.312226369356438, 42.409275843400245 ], [ 117.312214216626259, 42.409275876498192 ], [ 117.312214238957338, 42.409280379442635 ], [ 117.312208162591816, 42.409280395991125 ], [ 117.312208251914498, 42.409298407768844 ], [ 117.312196099179957, 42.409298440864887 ], [ 117.312196255488757, 42.409329961475791 ], [ 117.312190179118417, 42.409329978023351 ], [ 117.312190201447848, 42.409334480967757 ], [ 117.312208430560119, 42.409334431324112 ], [ 117.312208408229395, 42.409329928379719 ], [ 117.312214484599693, 42.409329911831207 ], [ 117.312214506930857, 42.409334414775586 ], [ 117.312232736043043, 42.409334365128089 ], [ 117.312232758375501, 42.409338868072474 ] ] ] } },
{ "type": "Feature", "properties": { "crown_id": 3864, "tree_id": "3866", "top_h_m": 22.669, "H_95_Mean": 22.7193, "DBH": 31.5406, "Carbon_kg": 203.076923, "area_m2": 19.75 }, "geometry": { "type": "Polygon", "coordinates": [ [ [ 117.312183991103268, 42.409307479848501 ], [ 117.312190067471434, 42.409307463301275 ], [ 117.312190000483284, 42.409293954468005 ], [ 117.312202153216973, 42.409293921372615 ], [ 117.312202063896052, 42.409275909594861 ], [ 117.312208140261177, 42.409275893046697 ], [ 117.312208117930496, 42.409271390102255 ], [ 117.312220270659807, 42.409271357004954 ], [ 117.312220225996782, 42.409262351116062 ], [ 117.312214149633022, 42.409262367664866 ], [ 117.312214127301942, 42.409257864720423 ], [ 117.312201974575217, 42.409257897817056 ], [ 117.312201952245019, 42.409253394872607 ], [ 117.312195875882097, 42.409253411420437 ], [ 117.312195853552339, 42.409248908475966 ], [ 117.312189777189843, 42.409248925023469 ], [ 117.312189754860512, 42.409244422079006 ], [ 117.312183678498428, 42.409244438626189 ], [ 117.312183633840689, 42.409235432737233 ], [ 117.312177557479473, 42.409235449284097 ], [ 117.312177512822629, 42.409226443395113 ], [ 117.312171436462265, 42.409226459941642 ], [ 117.31217150344628, 42.409239968775118 ], [ 117.312165427084622, 42.409239985321328 ], [ 117.312165628032986, 42.409280511821578 ], [ 117.312171704398523, 42.409280495275333 ], [ 117.312171749054656, 42.409289501164224 ], [ 117.312177825421074, 42.409289484617659 ], [ 117.312177870078074, 42.409298490506544 ], [ 117.312183946445373, 42.409298473959645 ], [ 117.312183991103268, 42.409307479848501 ] ] ] } },
{ "type": "Feature", "properties": { "crown_id": 3865, "tree_id": "3867", "top_h_m": 21.999, "H_95_Mean": 21.6108, "DBH": 38.8785, "Carbon_kg": 300.536928, "area_m2": 48.75 }, "geometry": { "type": "Polygon", "coordinates": [ [ [ 117.312354107068643, 42.409302513460219 ], [ 117.312366259803781, 42.409302480347414 ], [ 117.312366192777844, 42.409288971514343 ], [ 117.312372269144134, 42.409288954957468 ], [ 117.312372246801729, 42.409284452013111 ], [ 117.31237832316755, 42.409284435455916 ], [ 117.312378300824719, 42.409279932511545 ], [ 117.31239045355548, 42.409279899396211 ], [ 117.312390408868112, 42.409270893507482 ], [ 117.312384332503569, 42.409270910065317 ], [ 117.312384243130623, 42.409252898287811 ], [ 117.312390319493403, 42.409252881729991 ], [ 117.312390252462421, 42.409239372896835 ], [ 117.312378099739462, 42.409239406012126 ], [ 117.312378077396687, 42.409234903067741 ], [ 117.312353771952473, 42.409234969294459 ], [ 117.312353749611447, 42.409230466350046 ], [ 117.312329444168867, 42.409230532571605 ], [ 117.312329354811737, 42.409212520793872 ], [ 117.312317202093908, 42.409212553902698 ], [ 117.312317224432306, 42.409217056847147 ], [ 117.312311148072951, 42.409217073401074 ], [ 117.312311192748922, 42.409226079289965 ], [ 117.3123051163887, 42.409226095843565 ], [ 117.312305138726245, 42.409230598788014 ], [ 117.312299062365568, 42.409230615341301 ], [ 117.312299084702687, 42.40923511828575 ], [ 117.312305161063804, 42.409235101732435 ], [ 117.312305183401349, 42.409239604676877 ], [ 117.312293030678276, 42.409239637783145 ], [ 117.312293053014969, 42.40924414072758 ], [ 117.312299129376967, 42.409244124174599 ], [ 117.312299174051233, 42.409253130063455 ], [ 117.312287021325531, 42.409253163169112 ], [ 117.312287043661826, 42.409257666113525 ], [ 117.31228096729852, 42.409257682665874 ], [ 117.312281011970228, 42.409266688554709 ], [ 117.312287088334401, 42.40926667200236 ], [ 117.312287110670695, 42.409271174946781 ], [ 117.312305339764464, 42.409271125287781 ], [ 117.312305384439682, 42.409280131176573 ], [ 117.312323613535995, 42.409280081514666 ], [ 117.312323635874918, 42.409284584459058 ], [ 117.312335788606646, 42.409284551349501 ], [ 117.312335810946465, 42.409289054293879 ], [ 117.312347963679031, 42.409289021183028 ], [ 117.312347986019688, 42.409293524127399 ], [ 117.312354062386405, 42.409293507571476 ], [ 117.312354107068643, 42.409302513460219 ] ] ] } },
{ "type": "Feature", "properties": { "crown_id": 3917, "tree_id": "3919", "top_h_m": 23.374, "H_95_Mean": 22.9595, "DBH": 39.8454, "Carbon_kg": 327.303689, "area_m2": 48.0 }, "geometry": { "type": "Polygon", "coordinates": [ [ [ 117.312244553785149, 42.409266787862059 ], [ 117.312250630149322, 42.409266771311643 ], [ 117.312250585481976, 42.409257765422765 ], [ 117.312274890935242, 42.409257699217896 ], [ 117.3122748685998, 42.409253196273468 ], [ 117.31228094496268, 42.409253179721439 ], [ 117.312280900291, 42.409244173832583 ], [ 117.312268747567003, 42.409244206936286 ], [ 117.31226872523203, 42.409239703991858 ], [ 117.312274801593603, 42.40923968744017 ], [ 117.312274712252076, 42.409221675662373 ], [ 117.312268635892238, 42.409221692214054 ], [ 117.312268613557308, 42.40921718926959 ], [ 117.312262537197896, 42.409217205820951 ], [ 117.312262492528916, 42.40920819993201 ], [ 117.312268568887433, 42.409208183380663 ], [ 117.312268524217615, 42.409199177491722 ], [ 117.312256371502286, 42.409199210594082 ], [ 117.312256304500167, 42.409185701760634 ], [ 117.312219846361884, 42.409185801059962 ], [ 117.312219824030478, 42.409181298115456 ], [ 117.312207671318532, 42.409181331212658 ], [ 117.312207715979653, 42.409190337101663 ], [ 117.312201639622813, 42.409190353649791 ], [ 117.31220172894335, 42.409208365427816 ], [ 117.312195652584748, 42.409208381975631 ], [ 117.312195719573893, 42.409221890809107 ], [ 117.312189643213983, 42.409221907356596 ], [ 117.312189665543286, 42.409226410301088 ], [ 117.312183589182965, 42.409226426848257 ], [ 117.312183611511827, 42.409230929792749 ], [ 117.312189687872589, 42.409230913245572 ], [ 117.312189732531195, 42.409239919134535 ], [ 117.312195808892852, 42.409239902587025 ], [ 117.312195831222581, 42.409244405531503 ], [ 117.312201907584637, 42.409244388983673 ], [ 117.312201929914835, 42.409248891928137 ], [ 117.312208006277331, 42.40924887537998 ], [ 117.312208028607955, 42.409253378324443 ], [ 117.312220181333785, 42.409253345227178 ], [ 117.312220203665291, 42.409257848171613 ], [ 117.312226280028639, 42.40925783162249 ], [ 117.312226302360585, 42.409262334566932 ], [ 117.312244531451881, 42.409262284917617 ], [ 117.312244553785149, 42.409266787862059 ] ] ] } }
]
}
