{
"type": "FeatureCollection",
"name": "tile_6_11",
"crs": { "type": "name", "properties": { "name": "urn:ogc:def:crs:OGC:1.3:CRS84" } },
"features": [
{ "type": "Feature", "properties": { "crown_id": 1588, "tree_id": "1588", "top_h_m": 23.374, "H_95_Mean": 23.3295, "DBH": 30.4912, "Carbon_kg": 192.685958, "area_m2": 16.5 }, "geometry": { "type": "Polygon", "coordinates": [ [ [ 117.312414671295841, 42.410486638679124 ], [ 117.312445053704991, 42.410486555876815 ], [ 117.312445031356432, 42.410482052933432 ], [ 117.312457184319172, 42.410482019810253 ], [ 117.312457161969775, 42.410477516866862 ], [ 117.312475391412534, 42.410477467179689 ], [ 117.312475369061843, 42.41047296423632 ], [ 117.312469292581355, 42.410472980799028 ], [ 117.312469225530563, 42.410459471968863 ], [ 117.312463149051382, 42.410459488531238 ], [ 117.312463126701573, 42.41045498558784 ], [ 117.312457050222818, 42.410455002149888 ], [ 117.312457027873435, 42.41045049920649 ], [ 117.312450951395093, 42.410450515768211 ], [ 117.312450906697237, 42.41044150988138 ], [ 117.312438753742299, 42.410441543003877 ], [ 117.31243877609036, 42.410446045947289 ], [ 117.312432699612444, 42.410446062508058 ], [ 117.312432721960093, 42.410450565451477 ], [ 117.31242664548175, 42.410450582011912 ], [ 117.312426690176153, 42.41045958789875 ], [ 117.312420613696943, 42.410459604458865 ], [ 117.312420658390494, 42.410468610345696 ], [ 117.312408505430298, 42.410468643464988 ], [ 117.312408572468073, 42.410482152295224 ], [ 117.312414648949499, 42.410482135735727 ], [ 117.312414671295841, 42.410486638679124 ] ] ] } },
{ "type": "Feature", "properties": { "crown_id": 1597, "tree_id": "1597", "top_h_m": 23.844, "H_95_Mean": 23.6417, "DBH": 32.447, "Carbon_kg": 220.131919, "area_m2": 20.5 }, "geometry": { "type": "Polygon", "coordinates": [ [ [ 117.312499809098497, 42.410499915642426 ], [ 117.31251803854768, 42.410499865948459 ], [ 117.312518016193891, 42.410495363005111 ], [ 117.312536245641724, 42.410495313308253 ], [ 117.312535999736198, 42.410445780931326 ], [ 117.312529923258396, 42.410445797497232 ], [ 117.312529900903797, 42.410441294553841 ], [ 117.312523824426393, 42.410441311119435 ], [ 117.312523802072263, 42.410436808176051 ], [ 117.312511649118321, 42.410436841306257 ], [ 117.312511671471597, 42.410441344249648 ], [ 117.312505594994192, 42.410441360814275 ], [ 117.312505639699864, 42.410450366701063 ], [ 117.312499563221593, 42.410450383265356 ], [ 117.312499607926426, 42.41045938915213 ], [ 117.312493531447274, 42.410459405716118 ], [ 117.312493576151269, 42.410468411602885 ], [ 117.312487499671235, 42.410468428166553 ], [ 117.312487522022806, 42.410472931109929 ], [ 117.312481445542318, 42.410472947673284 ], [ 117.312481467893448, 42.410477450616661 ], [ 117.312493620855278, 42.410477417489645 ], [ 117.312493643207304, 42.410481920433007 ], [ 117.312499719688631, 42.410481903869005 ], [ 117.312499809098497, 42.410499915642426 ] ] ] } },
{ "type": "Feature", "properties": { "crown_id": 1617, "tree_id": "1617", "top_h_m": 22.313, "H_95_Mean": 22.1386, "DBH": 32.585, "Carbon_kg": 213.562221, "area_m2": 23.5 }, "geometry": { "type": "Polygon", "coordinates": [ [ [ 117.312627392880245, 42.410495064780463 ], [ 117.312639545845272, 42.410495031637943 ], [ 117.312639478757916, 42.410481522808048 ], [ 117.312645555239129, 42.410481506236323 ], [ 117.312645532876246, 42.410477003293011 ], [ 117.312651609357005, 42.410476986720951 ], [ 117.312651586993709, 42.41047248377766 ], [ 117.312663739954374, 42.410472450632589 ], [ 117.312663695226021, 42.410463444745979 ], [ 117.312669771705458, 42.410463428172974 ], [ 117.312669704611693, 42.410449919343037 ], [ 117.312663628133521, 42.410449935916049 ], [ 117.312663605769387, 42.410445432972722 ], [ 117.312657529291656, 42.410445449545399 ], [ 117.312657484564255, 42.410436443658739 ], [ 117.31265140808739, 42.410436460231089 ], [ 117.312651385724138, 42.410431957287742 ], [ 117.312645309247699, 42.410431973859779 ], [ 117.312645264522061, 42.410422967973091 ], [ 117.312639188046489, 42.410422984544773 ], [ 117.312639255133675, 42.410436493374817 ], [ 117.312627102179931, 42.410436526517266 ], [ 117.31262712454145, 42.410441029460607 ], [ 117.312621048064145, 42.410441046031352 ], [ 117.312621070425251, 42.410445548974707 ], [ 117.312608917469731, 42.41044558211523 ], [ 117.312608939829971, 42.410450085058564 ], [ 117.312602863351756, 42.410450101628356 ], [ 117.312602930431211, 42.410463610458379 ], [ 117.312609006910705, 42.410463593888586 ], [ 117.312609073991496, 42.410477102718559 ], [ 117.312615150472311, 42.41047708614844 ], [ 117.312615172833006, 42.410481589091759 ], [ 117.312621249314262, 42.410481572521313 ], [ 117.312621271675383, 42.410486075464625 ], [ 117.312627348157065, 42.410486058893852 ], [ 117.312627392880245, 42.410495064780463 ] ] ] } },
{ "type": "Feature", "properties": { "crown_id": 1622, "tree_id": "1622", "top_h_m": 21.366, "H_95_Mean": 21.227, "DBH": 24.3934, "Carbon_kg": 116.221075, "area_m2": 8.25 }, "geometry": { "type": "MultiPolygon", "coordinates": [ [ [ [ 117.312456960825344, 42.410436990376255 ], [ 117.312457005524067, 42.410445996263071 ], [ 117.312463082001955, 42.410445979701038 ], [ 117.312463104351764, 42.410450482644443 ], [ 117.312469180830078, 42.410450466082061 ], [ 117.312469203180314, 42.410454969025466 ], [ 117.312475279659068, 42.410454952462764 ], [ 117.312475346711139, 42.410468461292929 ], [ 117.312481423191187, 42.410468444729901 ], [ 117.312481400840056, 42.410463941786531 ], [ 117.312487477319678, 42.410463925223176 ], [ 117.31248743261655, 42.410454919336402 ], [ 117.312493509095276, 42.410454902772734 ], [ 117.312493464391309, 42.410445896885953 ], [ 117.312499540869169, 42.410445880321973 ], [ 117.312499496164349, 42.410436874435177 ], [ 117.312505572641356, 42.410436857870877 ], [ 117.31250555028852, 42.41043235492748 ], [ 117.312481244382283, 42.410432421182733 ], [ 117.312481266733371, 42.410436924126138 ], [ 117.312456960825344, 42.410436990376255 ] ] ], [ [ [ 117.312456960825344, 42.410436990376255 ], [ 117.312456938475961, 42.410432487432836 ], [ 117.31245086199938, 42.410432503994542 ], [ 117.312450884348323, 42.410437006937968 ], [ 117.312456960825344, 42.410436990376255 ] ] ] ] } },
{ "type": "Feature", "properties": { "crown_id": 1656, "tree_id": "1656", "top_h_m": 22.476, "H_95_Mean": 22.3547, "DBH": 28.9059, "Carbon_kg": 168.714028, "area_m2": 14.5 }, "geometry": { "type": "Polygon", "coordinates": [ [ [ 117.312402406604718, 42.410464157080746 ], [ 117.312414559564047, 42.4104641239621 ], [ 117.31241451487135, 42.410455118075255 ], [ 117.312420591350161, 42.41045510151546 ], [ 117.312420546656625, 42.410446095628615 ], [ 117.312426623134527, 42.410446079068507 ], [ 117.312426600787347, 42.410441576125052 ], [ 117.312432677264823, 42.410441559564624 ], [ 117.312432654917203, 42.410437056621213 ], [ 117.312444807871273, 42.410437023499377 ], [ 117.312444740825839, 42.410423514669084 ], [ 117.312432587874369, 42.410423547790906 ], [ 117.312432565526777, 42.410419044847458 ], [ 117.312408259625514, 42.410419111087222 ], [ 117.312408281971372, 42.410423614030677 ], [ 117.312396129019845, 42.410423647148619 ], [ 117.312396196054848, 42.410437155978975 ], [ 117.312390119577785, 42.410437172537478 ], [ 117.312390208956145, 42.410455184311239 ], [ 117.31238413247732, 42.410455200869421 ], [ 117.312384154821487, 42.410459703812847 ], [ 117.312402384259229, 42.41045965413732 ], [ 117.312402406604718, 42.410464157080746 ] ] ] } },
{ "type": "Feature", "properties": { "crown_id": 1687, "tree_id": "1687", "top_h_m": 21.419, "H_95_Mean": 21.2371, "DBH": 26.8715, "Carbon_kg": 141.285342, "area_m2": 12.0 }, "geometry": { "type": "Polygon", "coordinates": [ [ [ 117.312590710395355, 42.410450134766954 ], [ 117.31259678687357, 42.410450118197801 ], [ 117.312596764514197, 42.41044561525446 ], [ 117.312602840991957, 42.410445598685008 ], [ 117.312602818632172, 42.410441095741653 ], [ 117.312614971586825, 42.410441062601784 ], [ 117.312614949226145, 42.410436559658429 ], [ 117.312621025703038, 42.410436543088011 ], [ 117.31262100334196, 42.41043204014467 ], [ 117.312633156294837, 42.410432007002868 ], [ 117.312633066847056, 42.410413995229455 ], [ 117.312626990372351, 42.410414011800505 ], [ 117.312626968010832, 42.410409508857128 ], [ 117.31261481506229, 42.410409541998263 ], [ 117.312614770341042, 42.410400536111503 ], [ 117.312608693867631, 42.410400552681587 ], [ 117.312608738588011, 42.410409558568332 ], [ 117.312590509165119, 42.410409608276638 ], [ 117.312590710395355, 42.410450134766954 ] ] ] } },
{ "type": "Feature", "properties": { "crown_id": 1705, "tree_id": "1705", "top_h_m": 23.557, "H_95_Mean": 23.1713, "DBH": 32.3419, "Carbon_kg": 216.112912, "area_m2": 21.0 }, "geometry": { "type": "Polygon", "coordinates": [ [ [ 117.312542076214029, 42.410445764365086 ], [ 117.312548152691846, 42.410445747798526 ], [ 117.312548130335955, 42.41044124485515 ], [ 117.312578512722794, 42.410441162017534 ], [ 117.312578490364743, 42.410436659074172 ], [ 117.31258456684165, 42.410436642505687 ], [ 117.312584432690826, 42.410409624845435 ], [ 117.31257835621652, 42.410409641413906 ], [ 117.312578333858497, 42.410405138470516 ], [ 117.312566180910736, 42.410405171606484 ], [ 117.312566136196438, 42.410396165719689 ], [ 117.312529677358256, 42.410396265119836 ], [ 117.312529811485504, 42.410423282780279 ], [ 117.312523735009862, 42.410423299345865 ], [ 117.312523779718134, 42.410432305232661 ], [ 117.312529856194644, 42.410432288667074 ], [ 117.312529878549228, 42.410436791610465 ], [ 117.312535955026178, 42.410436775044552 ], [ 117.312535977381202, 42.410441277987928 ], [ 117.312542053858579, 42.410441261421703 ], [ 117.312542076214029, 42.410445764365086 ] ] ] } },
{ "type": "Feature", "properties": { "crown_id": 1737, "tree_id": "1737", "top_h_m": 23.057, "H_95_Mean": 22.611, "DBH": 34.5095, "Carbon_kg": 242.759256, "area_m2": 28.25 }, "geometry": { "type": "Polygon", "coordinates": [ [ [ 117.312463014952556, 42.410432470870781 ], [ 117.312475167905703, 42.41043243774574 ], [ 117.312475145555055, 42.410427934802321 ], [ 117.312511604411782, 42.410427835419462 ], [ 117.312511582058519, 42.410423332476057 ], [ 117.31251765853419, 42.410423315911125 ], [ 117.312517636180516, 42.410418812967713 ], [ 117.312523712655718, 42.41041879640246 ], [ 117.312523578531099, 42.410391778741975 ], [ 117.312517502058483, 42.410391795307206 ], [ 117.312517479704823, 42.410387292363779 ], [ 117.312511403232648, 42.410387308928698 ], [ 117.312511358526237, 42.410378303041817 ], [ 117.312505282054914, 42.410378319606409 ], [ 117.31250523734937, 42.410369313719514 ], [ 117.31249308440843, 42.410369346847709 ], [ 117.312493106760314, 42.410373849791164 ], [ 117.312474877347583, 42.410373899481051 ], [ 117.312474899698174, 42.41037840242452 ], [ 117.312468823226823, 42.410378418987165 ], [ 117.31246889027733, 42.410391927817521 ], [ 117.312462813804657, 42.410391944379867 ], [ 117.312462880853928, 42.41040545321021 ], [ 117.312456804379934, 42.410405469772229 ], [ 117.312456916126607, 42.410427984489402 ], [ 117.312462992602761, 42.410427967927369 ], [ 117.312463014952556, 42.410432470870781 ] ] ] } },
{ "type": "Feature", "properties": { "crown_id": 1766, "tree_id": "1766", "top_h_m": 21.668, "H_95_Mean": 21.507, "DBH": 27.458, "Carbon_kg": 148.675797, "area_m2": 12.75 }, "geometry": { "type": "Polygon", "coordinates": [ [ [ 117.312584410332363, 42.410405121902052 ], [ 117.312602639753962, 42.410405072194713 ], [ 117.312602595034463, 42.410396066307946 ], [ 117.312608671507448, 42.410396049738203 ], [ 117.312608626787096, 42.410387043851429 ], [ 117.312620779731304, 42.410387010710963 ], [ 117.312620690287218, 42.410368998937379 ], [ 117.312614613816834, 42.410369015507769 ], [ 117.312614636177429, 42.410373518451166 ], [ 117.312608559706618, 42.410373535021222 ], [ 117.312608537346463, 42.410369032077824 ], [ 117.312578154994526, 42.410369114923277 ], [ 117.312578199710487, 42.410378120810108 ], [ 117.312572123239221, 42.410378137378231 ], [ 117.312572145596789, 42.41038264032165 ], [ 117.312566069125054, 42.41038265688946 ], [ 117.312566113839324, 42.410391662776284 ], [ 117.312572190311897, 42.41039164620846 ], [ 117.312572235027034, 42.410400652095262 ], [ 117.312584387973928, 42.410400618958661 ], [ 117.312584410332363, 42.410405121902052 ] ] ] } },
{ "type": "Feature", "properties": { "crown_id": 1776, "tree_id": "1776", "top_h_m": 23.901, "H_95_Mean": 23.3229, "DBH": 36.5889, "Carbon_kg": 278.197663, "area_m2": 33.5 }, "geometry": { "type": "MultiPolygon", "coordinates": [ [ [ [ 117.312438642002064, 42.410419028286718 ], [ 117.312450794952639, 42.41041899516425 ], [ 117.312450705557069, 42.410400983390488 ], [ 117.312456782030608, 42.410400966828789 ], [ 117.312456714982687, 42.410387457998432 ], [ 117.312462791454919, 42.41038744143642 ], [ 117.312462724405719, 42.410373932606042 ], [ 117.312468800876658, 42.410373916043703 ], [ 117.312468778526494, 42.410369413100241 ], [ 117.312474854997006, 42.41036939653759 ], [ 117.312474832646416, 42.410364893594121 ], [ 117.312468756176358, 42.41036491015678 ], [ 117.312468733826222, 42.410360407213311 ], [ 117.312450504417313, 42.410360456899298 ], [ 117.312450482068485, 42.410355953955815 ], [ 117.31243832913006, 42.410355987078191 ], [ 117.312438351478036, 42.410360490021695 ], [ 117.312401892660063, 42.410360589381135 ], [ 117.31240191500541, 42.410365092324632 ], [ 117.312389762065195, 42.410365125441878 ], [ 117.312389784409675, 42.410369628385375 ], [ 117.312395860880244, 42.410369611826894 ], [ 117.312395972604975, 42.410392126544345 ], [ 117.31238989613226, 42.410392143102833 ], [ 117.312389985510407, 42.410410154876722 ], [ 117.312408214933811, 42.410410105200299 ], [ 117.312408237279641, 42.410414608143761 ], [ 117.312438619654031, 42.410414525343278 ], [ 117.312438642002064, 42.410419028286718 ] ] ], [ [ [ 117.312450482068485, 42.410355953955815 ], [ 117.31245655853769, 42.410355937394137 ], [ 117.312456536188407, 42.410351434450654 ], [ 117.312450459719656, 42.410351451012332 ], [ 117.312450482068485, 42.410355953955815 ] ] ] ] } },
{ "type": "Feature", "properties": { "crown_id": 1805, "tree_id": "1805", "top_h_m": 21.542, "H_95_Mean": 21.3906, "DBH": 27.9256, "Carbon_kg": 153.329989, "area_m2": 13.75 }, "geometry": { "type": "Polygon", "coordinates": [ [ [ 117.312529655003715, 42.410391762176403 ], [ 117.312560037366737, 42.410391679343775 ], [ 117.312559970296675, 42.410378170513539 ], [ 117.312566046767941, 42.410378153946056 ], [ 117.312566024410827, 42.410373651002629 ], [ 117.312572100881667, 42.410373634434826 ], [ 117.312572078524127, 42.4103691314914 ], [ 117.312553849112888, 42.410369181193836 ], [ 117.31255382675667, 42.41036467825041 ], [ 117.312541673816668, 42.41036471138375 ], [ 117.312541629105951, 42.410355705496869 ], [ 117.312505170291104, 42.410355804889136 ], [ 117.312505214996605, 42.410364810776059 ], [ 117.31251129146662, 42.410364794211482 ], [ 117.312511336173017, 42.41037380009837 ], [ 117.312517412643899, 42.410373783533473 ], [ 117.312517457351177, 42.410382789420353 ], [ 117.312523533822926, 42.410382772855115 ], [ 117.312523556177013, 42.410387275798549 ], [ 117.312529632649202, 42.410387259232976 ], [ 117.312529655003715, 42.410391762176403 ] ] ] } },
{ "type": "Feature", "properties": { "crown_id": 1858, "tree_id": "1858", "top_h_m": 25.531, "H_95_Mean": 25.3264, "DBH": 34.2266, "Carbon_kg": 255.330206, "area_m2": 22.25 }, "geometry": { "type": "Polygon", "coordinates": [ [ [ 117.312559903226642, 42.410364661683261 ], [ 117.312608514986323, 42.410364529134412 ], [ 117.31260835846544, 42.410333008530444 ], [ 117.312602281998551, 42.410333025100158 ], [ 117.312602259638865, 42.410328522156718 ], [ 117.312596183172403, 42.410328538726112 ], [ 117.312596160813186, 42.410324035782672 ], [ 117.312590084347136, 42.410324052351726 ], [ 117.312590039629555, 42.410315046464824 ], [ 117.312571810234004, 42.410315096170066 ], [ 117.312571832591502, 42.410319599113528 ], [ 117.312565756125878, 42.410319615681303 ], [ 117.31256577848292, 42.410324118624771 ], [ 117.312553625550777, 42.410324151759355 ], [ 117.31255369261936, 42.410337660589732 ], [ 117.312547616151988, 42.410337677156555 ], [ 117.312547727930877, 42.410360191873814 ], [ 117.312559880869983, 42.410360158739827 ], [ 117.312559903226642, 42.410364661683261 ] ] ] } },
{ "type": "Feature", "properties": { "crown_id": 1881, "tree_id": "1881", "top_h_m": 22.136, "H_95_Mean": 22.0467, "DBH": 28.327, "Carbon_kg": 160.649573, "area_m2": 13.75 }, "geometry": { "type": "Polygon", "coordinates": [ [ [ 117.312401870314702, 42.410356086437623 ], [ 117.312432252660855, 42.41035600363891 ], [ 117.312432230313334, 42.41035150069542 ], [ 117.312444383250892, 42.410351467573676 ], [ 117.312444293857354, 42.41033345579968 ], [ 117.312438217390323, 42.410333472360705 ], [ 117.312438172694456, 42.410324466473668 ], [ 117.312432096228264, 42.410324483034366 ], [ 117.312432073880771, 42.410319980090847 ], [ 117.312425997415048, 42.410319996651218 ], [ 117.312425975067995, 42.410315493707685 ], [ 117.312413822137358, 42.410315526827453 ], [ 117.312413799791187, 42.410311023883914 ], [ 117.312407723326288, 42.410311040443311 ], [ 117.312407745672047, 42.410315543386837 ], [ 117.312401669206707, 42.410315559945928 ], [ 117.312401870314702, 42.410356086437623 ] ] ] } },
{ "type": "Feature", "properties": { "crown_id": 1882, "tree_id": "1882", "top_h_m": 22.419, "H_95_Mean": 22.562, "DBH": 27.6505, "Carbon_kg": 155.115963, "area_m2": 12.0 }, "geometry": { "type": "Polygon", "coordinates": [ [ [ 117.312486940883602, 42.410355854580935 ], [ 117.312499093821955, 42.410355821453393 ], [ 117.312499071469645, 42.410351318509925 ], [ 117.312541606750599, 42.410351202553422 ], [ 117.312541517329251, 42.410333190779589 ], [ 117.312547593796225, 42.410333174213093 ], [ 117.312547549084698, 42.41032416832617 ], [ 117.312535396152541, 42.41032420145882 ], [ 117.312535373797672, 42.410319698515345 ], [ 117.312523220866353, 42.410319731646702 ], [ 117.312523243220355, 42.410324234590192 ], [ 117.31251109028814, 42.410324267720263 ], [ 117.312511134994438, 42.410333273607222 ], [ 117.312492905593473, 42.410333323299945 ], [ 117.312492950297184, 42.410342329186903 ], [ 117.312499026765039, 42.410342312622987 ], [ 117.312499049117349, 42.410346815566463 ], [ 117.312486896180729, 42.410346848693983 ], [ 117.312486940883602, 42.410355854580935 ] ] ] } },
{ "type": "Feature", "properties": { "crown_id": 1921, "tree_id": "1921", "top_h_m": 20.9, "H_95_Mean": 20.8442, "DBH": 25.575, "Carbon_kg": 126.478055, "area_m2": 10.25 }, "geometry": { "type": "Polygon", "coordinates": [ [ [ 117.312608336105328, 42.41032850558701 ], [ 117.312620489038252, 42.410328472446622 ], [ 117.312620466677274, 42.410323969503189 ], [ 117.31262654314331, 42.410323952932515 ], [ 117.31262652078189, 42.410319449989075 ], [ 117.312632597247486, 42.410319433418067 ], [ 117.31263257488564, 42.410314930474641 ], [ 117.312638651350781, 42.410314913903328 ], [ 117.31263860662628, 42.410305908016447 ], [ 117.312626453697732, 42.41030594115874 ], [ 117.312626431336369, 42.410301438215292 ], [ 117.312620354872507, 42.410301454785952 ], [ 117.312620332511585, 42.410296951842504 ], [ 117.312614256048178, 42.41029696841283 ], [ 117.312614233687682, 42.410292465469382 ], [ 117.312608157224673, 42.410292482039388 ], [ 117.312608134864647, 42.410287979095905 ], [ 117.312602058402078, 42.410287995665598 ], [ 117.312602080761707, 42.410292498609074 ], [ 117.312596004298697, 42.410292515178448 ], [ 117.312596049017102, 42.410301521065378 ], [ 117.312589972553226, 42.410301537634432 ], [ 117.312590017270793, 42.410310543521362 ], [ 117.312596093735522, 42.410310526952308 ], [ 117.312596138453969, 42.41031953283921 ], [ 117.312602214919565, 42.410319516269844 ], [ 117.312602237279222, 42.410324019213277 ], [ 117.312608313745244, 42.41032400264357 ], [ 117.312608336105328, 42.41032850558701 ] ] ] } },
{ "type": "Feature", "properties": { "crown_id": 1944, "tree_id": "1944", "top_h_m": 23.168, "H_95_Mean": 22.9944, "DBH": 34.784, "Carbon_kg": 249.132183, "area_m2": 28.25 }, "geometry": { "type": "Polygon", "coordinates": [ [ [ 117.312450437370813, 42.410346948068835 ], [ 117.31246259030749, 42.41034691494518 ], [ 117.312462567957809, 42.41034241200169 ], [ 117.312468644425692, 42.410342395439379 ], [ 117.312468622075571, 42.410337892495889 ], [ 117.312486851477885, 42.410337842807024 ], [ 117.312486806775055, 42.410328836920044 ], [ 117.312480730308494, 42.410328853483328 ], [ 117.312480707957519, 42.410324350539824 ], [ 117.312486784423655, 42.410324333976561 ], [ 117.312486717369467, 42.410310825146055 ], [ 117.312480640904639, 42.410310841709311 ], [ 117.31248050679902, 42.4102838240482 ], [ 117.312450124487825, 42.410283906859597 ], [ 117.312450102139053, 42.41027940391605 ], [ 117.312437949215422, 42.410279437038341 ], [ 117.312437971563298, 42.410283939981895 ], [ 117.312413665714217, 42.410284006222625 ], [ 117.312413777445016, 42.410306520940374 ], [ 117.312419853909475, 42.410306504380657 ], [ 117.312419876256072, 42.410311007324204 ], [ 117.312432029185814, 42.410310974203796 ], [ 117.312432051533307, 42.410315477147321 ], [ 117.312438127998604, 42.410315460586631 ], [ 117.312438150346523, 42.410319963530156 ], [ 117.312444226812246, 42.410319946969146 ], [ 117.312444271508994, 42.410328952856169 ], [ 117.312450347975584, 42.410328936294846 ], [ 117.312450392673185, 42.41033794218184 ], [ 117.31245646914067, 42.410337925620176 ], [ 117.312456491489911, 42.410342428563681 ], [ 117.312450415021999, 42.410342445125352 ], [ 117.312450437370813, 42.410346948068835 ] ] ] } },
{ "type": "Feature", "properties": { "crown_id": 1945, "tree_id": "1945", "top_h_m": 24.997, "H_95_Mean": 25.0165, "DBH": 30.8742, "Carbon_kg": 205.925515, "area_m2": 15.25 }, "geometry": { "type": "Polygon", "coordinates": [ [ [ 117.312492883241632, 42.410328820356447 ], [ 117.312505036174727, 42.410328787228302 ], [ 117.312504991469339, 42.410319781341336 ], [ 117.312517144400672, 42.410319748211897 ], [ 117.312517122047097, 42.410315245268414 ], [ 117.312529274977564, 42.410315212137704 ], [ 117.312529073787829, 42.410274685646215 ], [ 117.312516920865207, 42.410274718776883 ], [ 117.312516943218739, 42.410279221720394 ], [ 117.312504790295208, 42.410279254849776 ], [ 117.312504812647859, 42.410283757793302 ], [ 117.312486583261219, 42.410283807484959 ], [ 117.31248669501808, 42.410306322202544 ], [ 117.312492771482482, 42.410306305638976 ], [ 117.312492883241632, 42.410328820356447 ] ] ] } },
{ "type": "Feature", "properties": { "crown_id": 1946, "tree_id": "1946", "top_h_m": 22.166, "H_95_Mean": 22.1103, "DBH": 27.8192, "Carbon_kg": 155.162203, "area_m2": 12.75 }, "geometry": { "type": "Polygon", "coordinates": [ [ [ 117.312541450263311, 42.41031968194919 ], [ 117.312559679660239, 42.410319632248758 ], [ 117.312559657303638, 42.410315129305289 ], [ 117.312565733768821, 42.410315112737841 ], [ 117.312565711411779, 42.410310609794372 ], [ 117.312583940806036, 42.410310560090103 ], [ 117.312583873731029, 42.410297051259697 ], [ 117.312589950194464, 42.41029703469097 ], [ 117.312589927835702, 42.410292531747487 ], [ 117.312571698446675, 42.410292581452701 ], [ 117.312571676089235, 42.410288078509211 ], [ 117.312553446701472, 42.410288128211512 ], [ 117.312553424345325, 42.410283625268022 ], [ 117.312541271420983, 42.410283658401276 ], [ 117.312541249065731, 42.410279155457779 ], [ 117.312535172603972, 42.410279172023913 ], [ 117.312535351442804, 42.410315195571869 ], [ 117.312541427908016, 42.4103151790057 ], [ 117.312541450263311, 42.41031968194919 ] ] ] } }
]
}
