{
"type": "FeatureCollection",
"name": "tile_8_5",
"crs": { "type": "name", "properties": { "name": "urn:ogc:def:crs:OGC:1.3:CRS84" } },
"features": [
{ "type": "Feature", "properties": { "crown_id": 2325, "tree_id": "2325", "top_h_m": 23.911, "H_95_Mean": 23.5647, "DBH": 32.992, "Carbon_kg": 227.208876, "area_m2": 22.0 }, "geometry": { "type": "Polygon", "coordinates": [ [ [ 117.311027498031578, 42.410139176267577 ], [ 117.311051803827937, 42.410139110320912 ], [ 117.311051781579323, 42.410134607376648 ], [ 117.311057858027965, 42.410134590889193 ], [ 117.311057813529871, 42.410125585000671 ], [ 117.31106388997766, 42.410125568512882 ], [ 117.311063823229233, 42.410112059680081 ], [ 117.311069899675701, 42.41011204319198 ], [ 117.311069877425808, 42.410107540247722 ], [ 117.311075953871836, 42.410107523759294 ], [ 117.311075931621517, 42.410103020815036 ], [ 117.31106985517593, 42.41010303730345 ], [ 117.311069766176416, 42.410085025526321 ], [ 117.311075842620284, 42.410085009037907 ], [ 117.311075820369993, 42.410080506093607 ], [ 117.311069743926581, 42.410080522582014 ], [ 117.311069699426852, 42.410071516693421 ], [ 117.311063622984321, 42.410071533181501 ], [ 117.311063645233716, 42.410076036125801 ], [ 117.311057568790744, 42.410076052613562 ], [ 117.311057591039713, 42.410080555557848 ], [ 117.311045438152874, 42.410080588532402 ], [ 117.311045482649106, 42.410089594421009 ], [ 117.311027253316169, 42.41008964388044 ], [ 117.311027342303532, 42.410107655657633 ], [ 117.311015189411393, 42.410107688628997 ], [ 117.311015211657363, 42.41011219157329 ], [ 117.311021288103873, 42.410112175087768 ], [ 117.311021377089588, 42.410130186864897 ], [ 117.311015300641344, 42.410130203350427 ], [ 117.311015322887343, 42.410134706294691 ], [ 117.311027475784698, 42.410134673323306 ], [ 117.311027498031578, 42.410139176267577 ] ] ] } },
{ "type": "Feature", "properties": { "crown_id": 2336, "tree_id": "2336", "top_h_m": 22.888, "H_95_Mean": 22.5542, "DBH": 29.6522, "Carbon_kg": 178.544189, "area_m2": 15.75 }, "geometry": { "type": "Polygon", "coordinates": [ [ [ 117.310991061581149, 42.410143778122197 ], [ 117.310997138030714, 42.41014376163794 ], [ 117.31099711578598, 42.410139258693661 ], [ 117.31100319223512, 42.410139242209091 ], [ 117.311003169989959, 42.410134739264805 ], [ 117.311009246438658, 42.410134722779915 ], [ 117.311009201947513, 42.410125716891358 ], [ 117.311015278395331, 42.410125700406155 ], [ 117.311015233903362, 42.410116694517569 ], [ 117.311009157456411, 42.410116711002779 ], [ 117.311009090719779, 42.410103202169893 ], [ 117.310996937828477, 42.410103235139317 ], [ 117.310996915583814, 42.410098732195003 ], [ 117.310978686248134, 42.410098781646724 ], [ 117.310978664004793, 42.410094278702402 ], [ 117.310972587559974, 42.410094295185651 ], [ 117.310972609802903, 42.410098798129987 ], [ 117.310960456912412, 42.410098831095539 ], [ 117.310960479154488, 42.410103334039867 ], [ 117.310954402708788, 42.410103350522164 ], [ 117.310954469433696, 42.410116859355121 ], [ 117.31096054588069, 42.410116842872803 ], [ 117.310960568122781, 42.410121345817124 ], [ 117.310966644570172, 42.410121329334494 ], [ 117.310966666812718, 42.410125832278801 ], [ 117.310984896156214, 42.410125782828977 ], [ 117.310984962887716, 42.410139291661842 ], [ 117.310991039336855, 42.410139275177912 ], [ 117.310991061581149, 42.410143778122197 ] ] ] } },
{ "type": "Feature", "properties": { "crown_id": 2386, "tree_id": "2386", "top_h_m": 21.996, "H_95_Mean": 21.7979, "DBH": 26.1221, "Carbon_kg": 135.529609, "area_m2": 10.25 }, "geometry": { "type": "Polygon", "coordinates": [ [ [ 117.310930096926, 42.410103416448145 ], [ 117.310948326263116, 42.41010336700414 ], [ 117.310948304021906, 42.410098864059805 ], [ 117.31095438046718, 42.410098847577835 ], [ 117.310954358225558, 42.410094344633499 ], [ 117.310966511115168, 42.410094311668587 ], [ 117.310966422145285, 42.410076299891259 ], [ 117.310960345702213, 42.410076316373868 ], [ 117.310960323460179, 42.410071813429525 ], [ 117.310948170574889, 42.410071846393755 ], [ 117.310948148333736, 42.410067343449391 ], [ 117.310935995449299, 42.410067376412343 ], [ 117.310936017689571, 42.4100718793567 ], [ 117.310929941246926, 42.410071895837703 ], [ 117.310929963486771, 42.410076398782046 ], [ 117.310923887043671, 42.410076415262715 ], [ 117.310923953761957, 42.410089924095786 ], [ 117.310930030206364, 42.410089907615102 ], [ 117.310930096926, 42.410103416448145 ] ] ] } },
{ "type": "Feature", "properties": { "crown_id": 2387, "tree_id": "2387", "top_h_m": 24.914, "H_95_Mean": 24.3459, "DBH": 39.7546, "Carbon_kg": 337.298596, "area_m2": 42.75 }, "geometry": { "type": "Polygon", "coordinates": [ [ [ 117.311136829605189, 42.410129873578569 ], [ 117.311148982501479, 42.410129840594287 ], [ 117.31114891573479, 42.410116331761614 ], [ 117.311154992181599, 42.410116315269001 ], [ 117.311154969925639, 42.410111812324764 ], [ 117.311161046372021, 42.410111795831838 ], [ 117.31116102411562, 42.410107292887616 ], [ 117.311179253453432, 42.410107243406898 ], [ 117.311179208938029, 42.410098237518433 ], [ 117.311173132492939, 42.410098254012333 ], [ 117.3111731102357, 42.410093751068089 ], [ 117.311167033791037, 42.410093767561655 ], [ 117.311167011534238, 42.410089264617405 ], [ 117.311160935090015, 42.410089281110643 ], [ 117.311160801551779, 42.410062263445099 ], [ 117.311130419343712, 42.410062345906383 ], [ 117.311130374835358, 42.410053340017811 ], [ 117.311124298394603, 42.410053356509103 ], [ 117.311124276140845, 42.410048853564803 ], [ 117.311099970379502, 42.410048919526709 ], [ 117.311099992631497, 42.410053422471023 ], [ 117.311093916190714, 42.410053438960695 ], [ 117.311094071951786, 42.410084959570746 ], [ 117.311081919064122, 42.410084992549173 ], [ 117.311081941314853, 42.410089495493452 ], [ 117.311075864870588, 42.410089511982186 ], [ 117.311075909371198, 42.41009851787075 ], [ 117.311088062261476, 42.410098484892956 ], [ 117.311088084512662, 42.410102987837227 ], [ 117.311100237403807, 42.410102954858139 ], [ 117.311100259655888, 42.410107457802397 ], [ 117.311106336101858, 42.41010744131237 ], [ 117.311106358354365, 42.410111944256634 ], [ 117.311112434800805, 42.410111927766266 ], [ 117.311112479306686, 42.410120933654774 ], [ 117.311118555753964, 42.410120917164086 ], [ 117.311118578007338, 42.410125420108322 ], [ 117.311130730902789, 42.410125387125987 ], [ 117.311130708648548, 42.410120884181758 ], [ 117.311136785095826, 42.410120867690104 ], [ 117.311136829605189, 42.410129873578569 ] ] ] } },
{ "type": "Feature", "properties": { "crown_id": 2402, "tree_id": "2402", "top_h_m": 23.425, "H_95_Mean": 23.3028, "DBH": 31.3863, "Carbon_kg": 204.118219, "area_m2": 18.5 }, "geometry": { "type": "Polygon", "coordinates": [ [ [ 117.311015167165394, 42.410103185684697 ], [ 117.311021243611052, 42.410103169199182 ], [ 117.311021154625465, 42.410085157421967 ], [ 117.311039383957109, 42.410085107963511 ], [ 117.311039339461743, 42.410076102074896 ], [ 117.311051492347744, 42.410076069100988 ], [ 117.311051470099201, 42.410071566156688 ], [ 117.311045393656627, 42.410071582643788 ], [ 117.311045371408525, 42.410067079699481 ], [ 117.311027142082096, 42.410067129158868 ], [ 117.311027119835302, 42.410062626214547 ], [ 117.311002814068416, 42.410062692155876 ], [ 117.311002791823356, 42.41005818921154 ], [ 117.310996715382032, 42.410058205696068 ], [ 117.310996737626652, 42.410062708640403 ], [ 117.310984584743181, 42.410062741608506 ], [ 117.310984606986935, 42.410067244552842 ], [ 117.310966377660364, 42.410067294002559 ], [ 117.310966399902824, 42.410071796946923 ], [ 117.310972476345441, 42.410071780463994 ], [ 117.310972565317059, 42.410089792241337 ], [ 117.310984718205788, 42.410089759274499 ], [ 117.31098474044957, 42.41009426221882 ], [ 117.311002969783942, 42.410094212766147 ], [ 117.311002992029017, 42.410098715710454 ], [ 117.311015144919423, 42.41009868274039 ], [ 117.311015167165394, 42.410103185684697 ] ] ] } },
{ "type": "Feature", "properties": { "crown_id": 2465, "tree_id": "2465", "top_h_m": 21.993, "H_95_Mean": 21.9183, "DBH": 31.9781, "Carbon_kg": 204.408491, "area_m2": 22.25 }, "geometry": { "type": "Polygon", "coordinates": [ [ [ 117.311051447850659, 42.410067063212367 ], [ 117.311057524292778, 42.41006704672494 ], [ 117.311057457545886, 42.41005353789199 ], [ 117.311063533986697, 42.410053521404251 ], [ 117.311063489487935, 42.410044515515601 ], [ 117.31105741304799, 42.410044532003347 ], [ 117.311057368550095, 42.41003552611469 ], [ 117.311051292111017, 42.410035542602095 ], [ 117.311051203117032, 42.410017530824724 ], [ 117.311026897367597, 42.410017596771105 ], [ 117.311026875120859, 42.410013093826734 ], [ 117.311014722246995, 42.410013126797985 ], [ 117.311014744492866, 42.410017629742363 ], [ 117.311002591618077, 42.410017662712335 ], [ 117.311002680598165, 42.410035674489791 ], [ 117.31099660415903, 42.410035690974311 ], [ 117.31099669313744, 42.410053702751711 ], [ 117.311008846019178, 42.41005366978235 ], [ 117.311008868264651, 42.410058172726693 ], [ 117.311033174029788, 42.410058106784078 ], [ 117.311033196277009, 42.410062609728399 ], [ 117.311051425602116, 42.410062560268059 ], [ 117.311051447850659, 42.410067063212367 ] ] ] } },
{ "type": "Feature", "properties": { "crown_id": 2466, "tree_id": "2466", "top_h_m": 22.474, "H_95_Mean": 22.2575, "DBH": 29.4676, "Carbon_kg": 174.935474, "area_m2": 15.75 }, "geometry": { "type": "Polygon", "coordinates": [ [ [ 117.311136473530723, 42.410057826470485 ], [ 117.311166855736587, 42.410057744007595 ], [ 117.311166833479803, 42.410053241063331 ], [ 117.311172909920543, 42.410053224569786 ], [ 117.311172865406121, 42.410044218681229 ], [ 117.311178941845967, 42.410044202187379 ], [ 117.311178897330691, 42.410035196298821 ], [ 117.31118497376967, 42.410035179804645 ], [ 117.311184951511621, 42.410030676860352 ], [ 117.311178875073068, 42.410030693354528 ], [ 117.311178808300227, 42.410017184521671 ], [ 117.311172731862968, 42.410017201015492 ], [ 117.311172754120136, 42.410021703959806 ], [ 117.311166677682451, 42.410021720453322 ], [ 117.311166699939207, 42.410026223397622 ], [ 117.311130241310408, 42.410026322352003 ], [ 117.31113026356455, 42.410030825296317 ], [ 117.311124187125941, 42.410030841787595 ], [ 117.311124209379685, 42.410035344731909 ], [ 117.311105980062578, 42.410035394203803 ], [ 117.311106024567422, 42.410044400092417 ], [ 117.311130330327003, 42.410044334129225 ], [ 117.311130352581173, 42.410048837073518 ], [ 117.311136429021502, 42.410048820581913 ], [ 117.311136473530723, 42.410057826470485 ] ] ] } },
{ "type": "Feature", "properties": { "crown_id": 2476, "tree_id": "2476", "top_h_m": 24.834, "H_95_Mean": 24.4933, "DBH": 33.3979, "Carbon_kg": 238.262926, "area_m2": 21.5 }, "geometry": { "type": "Polygon", "coordinates": [ [ [ 117.310954224775941, 42.410067326967436 ], [ 117.310960301218159, 42.410067310485168 ], [ 117.310960278976125, 42.410062807540818 ], [ 117.310978508301417, 42.410062758092067 ], [ 117.310978486058119, 42.410058255147703 ], [ 117.310990638940737, 42.410058222180254 ], [ 117.310990505475729, 42.410031204514119 ], [ 117.310996581914438, 42.41003118802994 ], [ 117.310996515180705, 42.410017679196841 ], [ 117.310960056556254, 42.410017778097085 ], [ 117.310960034314277, 42.410013275152686 ], [ 117.310947881440285, 42.410013308116852 ], [ 117.310947925922477, 42.410022314005658 ], [ 117.310954002360333, 42.410022297523732 ], [ 117.310954024601884, 42.41002680046811 ], [ 117.31093579528698, 42.410026849912938 ], [ 117.310935817527223, 42.410031352857331 ], [ 117.310929741088472, 42.410031369338299 ], [ 117.310929785568092, 42.410040375227084 ], [ 117.310941938447328, 42.4100403422648 ], [ 117.310942049650819, 42.41006285698667 ], [ 117.310954202534376, 42.410062824023086 ], [ 117.310954224775941, 42.410067326967436 ] ] ] } },
{ "type": "Feature", "properties": { "crown_id": 2534, "tree_id": "2534", "top_h_m": 23.012, "H_95_Mean": 22.5756, "DBH": 34.3258, "Carbon_kg": 239.93932, "area_m2": 27.75 }, "geometry": { "type": "Polygon", "coordinates": [ [ [ 117.310966110751281, 42.410013258670126 ], [ 117.311008645810048, 42.41001314328313 ], [ 117.311008623564618, 42.410008640338766 ], [ 117.311020776437616, 42.410008607368155 ], [ 117.311020754191318, 42.410004104423784 ], [ 117.311014677755253, 42.410004120909242 ], [ 117.31101463326354, 42.409995115020486 ], [ 117.311020709698738, 42.40999509853502 ], [ 117.311020665206186, 42.409986092646257 ], [ 117.311014588771855, 42.409986109131708 ], [ 117.31101454428017, 42.409977103242916 ], [ 117.310996314979775, 42.409977152697316 ], [ 117.310996270490705, 42.409968146808495 ], [ 117.310953735462306, 42.409968262190795 ], [ 117.310953757703786, 42.409972765135223 ], [ 117.310947681270704, 42.409972781617135 ], [ 117.31094774799385, 42.409986290450405 ], [ 117.310935595125045, 42.40998632341325 ], [ 117.310935706326077, 42.410008838135333 ], [ 117.31094178276264, 42.41000882165406 ], [ 117.310941760521985, 42.410004318709653 ], [ 117.310947836958121, 42.41000430222806 ], [ 117.310947859199203, 42.410008805172467 ], [ 117.310966088508891, 42.410008755725727 ], [ 117.310966110751281, 42.410013258670126 ] ] ] } },
{ "type": "Feature", "properties": { "crown_id": 2535, "tree_id": "2535", "top_h_m": 22.509, "H_95_Mean": 22.1726, "DBH": 34.2701, "Carbon_kg": 236.620902, "area_m2": 28.5 }, "geometry": { "type": "Polygon", "coordinates": [ [ [ 117.311057346301141, 42.410031023170347 ], [ 117.311081652055705, 42.410030957217487 ], [ 117.311081607554371, 42.410021951328822 ], [ 117.311087683992127, 42.410021934839818 ], [ 117.311087706243214, 42.410026437784147 ], [ 117.311093782681411, 42.410026421294809 ], [ 117.311093693675318, 42.410008409517474 ], [ 117.311099770111753, 42.410008393027823 ], [ 117.311099747859799, 42.410003890083487 ], [ 117.311093671423791, 42.410003906573131 ], [ 117.311093604669267, 42.409990397740081 ], [ 117.311087528234566, 42.409990414229391 ], [ 117.311087483732479, 42.409981408340684 ], [ 117.311075330864767, 42.409981441318344 ], [ 117.311075308614591, 42.409976938373966 ], [ 117.311069232181183, 42.409976954862309 ], [ 117.311069209931432, 42.409972451917938 ], [ 117.31106313349845, 42.409972468405947 ], [ 117.31106311124914, 42.409967965461568 ], [ 117.31105095838403, 42.409967998436635 ], [ 117.311050980632444, 42.40997250138102 ], [ 117.311026674900418, 42.409972567327308 ], [ 117.311026697147099, 42.409977070271701 ], [ 117.311020620713634, 42.409977086757458 ], [ 117.311020642959917, 42.409981589701871 ], [ 117.311026719393809, 42.409981573216093 ], [ 117.311026852874122, 42.41000859088237 ], [ 117.311032929310613, 42.410008574396258 ], [ 117.311032951557777, 42.410013077340622 ], [ 117.311057257305464, 42.410013011392962 ], [ 117.311057346301141, 42.410031023170347 ] ] ] } },
{ "type": "Feature", "properties": { "crown_id": 2536, "tree_id": "2536", "top_h_m": 20.78, "H_95_Mean": 20.4756, "DBH": 33.5137, "Carbon_kg": 215.806387, "area_m2": 30.25 }, "geometry": { "type": "Polygon", "coordinates": [ [ [ 117.31110595781017, 42.410030891259488 ], [ 117.311118110687374, 42.410030858278532 ], [ 117.311118088434071, 42.410026355334224 ], [ 117.31112416487224, 42.410026338843281 ], [ 117.311124142618539, 42.410021835898966 ], [ 117.311160601244765, 42.410021736946518 ], [ 117.311160578988463, 42.410017234002225 ], [ 117.311166655425723, 42.410017217509015 ], [ 117.31116663316898, 42.410012714564715 ], [ 117.311172709605799, 42.410012698071199 ], [ 117.311172531548607, 42.409976674516656 ], [ 117.311136072948514, 42.409976773472806 ], [ 117.311136028439464, 42.409967767584114 ], [ 117.311129952006979, 42.409967784075675 ], [ 117.311129929752894, 42.409963281131311 ], [ 117.311123853320836, 42.409963297622546 ], [ 117.311123875574452, 42.409967800566911 ], [ 117.311117799141968, 42.409967817057819 ], [ 117.311117821395158, 42.409972320002183 ], [ 117.311111744962204, 42.409972336492778 ], [ 117.311111811720579, 42.409985845325849 ], [ 117.311105735286333, 42.409985861816132 ], [ 117.311105757538684, 42.409990364760475 ], [ 117.311099681103983, 42.409990381250445 ], [ 117.311099725607846, 42.409999387139138 ], [ 117.311105802043429, 42.409999370649182 ], [ 117.311105868800567, 42.410012879482181 ], [ 117.311099792363706, 42.410012895972152 ], [ 117.311099836867626, 42.410021901860823 ], [ 117.311105913305354, 42.410021885370845 ], [ 117.31110595781017, 42.410030891259488 ] ], [ [ 117.311105913305354, 42.410021885370845 ], [ 117.311105891052947, 42.410017382426517 ], [ 117.311111967490248, 42.410017365936213 ], [ 117.311111989743097, 42.410021868880541 ], [ 117.311105913305354, 42.410021885370845 ] ] ] } },
{ "type": "Feature", "properties": { "crown_id": 2583, "tree_id": "2583", "top_h_m": 21.548, "H_95_Mean": 21.3421, "DBH": 29.2371, "Carbon_kg": 167.964049, "area_m2": 16.5 }, "geometry": { "type": "Polygon", "coordinates": [ [ [ 117.311093582417783, 42.409985894795724 ], [ 117.311099658852058, 42.409985878306088 ], [ 117.311099636600133, 42.409981375361738 ], [ 117.311105713033967, 42.409981358871775 ], [ 117.311105646276928, 42.40996785003869 ], [ 117.311111722709441, 42.409967833548421 ], [ 117.311111700456664, 42.40996333060405 ], [ 117.31111777688875, 42.409963314113462 ], [ 117.311117687875992, 42.409945302335963 ], [ 117.311111611445625, 42.409945318826551 ], [ 117.311111566940156, 42.409936312937788 ], [ 117.311087261222212, 42.409936378896859 ], [ 117.311087283473228, 42.409940881841258 ], [ 117.311069054183406, 42.40994093130719 ], [ 117.311069076433114, 42.40994543425159 ], [ 117.311063000002733, 42.409945450739592 ], [ 117.311063088999873, 42.409963462517183 ], [ 117.311069165431974, 42.409963446029167 ], [ 117.31106918768171, 42.409967948973552 ], [ 117.311075264114265, 42.409967932485216 ], [ 117.311075286364428, 42.409972435429587 ], [ 117.31108136279741, 42.409972418940932 ], [ 117.311081385047999, 42.409976921885296 ], [ 117.311093537914829, 42.409976888907003 ], [ 117.311093582417783, 42.409985894795724 ] ] ] } },
{ "type": "Feature", "properties": { "crown_id": 2602, "tree_id": "2602", "top_h_m": 23.22, "H_95_Mean": 23.0813, "DBH": 31.9816, "Carbon_kg": 210.802141, "area_m2": 20.25 }, "geometry": { "type": "Polygon", "coordinates": [ [ [ 117.311002369168278, 42.409972633268431 ], [ 117.31102059846738, 42.409972583813072 ], [ 117.311020576221139, 42.409968080868673 ], [ 117.31104488195146, 42.409968014923692 ], [ 117.311044859703458, 42.409963511979292 ], [ 117.31105701256773, 42.40996347900488 ], [ 117.311056923572352, 42.409945467227274 ], [ 117.311038694281152, 42.409945516688396 ], [ 117.311038672033632, 42.409941013743975 ], [ 117.311026519173694, 42.409941046716433 ], [ 117.311026496927028, 42.409936543772012 ], [ 117.311020420497456, 42.409936560257748 ], [ 117.311020398251259, 42.409932057313327 ], [ 117.311008245393026, 42.409932090283846 ], [ 117.311008223147681, 42.409927587339403 ], [ 117.310983917432878, 42.409927653276554 ], [ 117.31098402865095, 42.40995016799878 ], [ 117.310990105081814, 42.409950151514956 ], [ 117.310990171814026, 42.409963660348232 ], [ 117.31100232467837, 42.409963627379611 ], [ 117.311002369168278, 42.409972633268431 ] ] ] } },
{ "type": "Feature", "properties": { "crown_id": 2603, "tree_id": "2603", "top_h_m": 23.133, "H_95_Mean": 23.2546, "DBH": 30.4451, "Carbon_kg": 191.734231, "area_m2": 16.5 }, "geometry": { "type": "Polygon", "coordinates": [ [ [ 117.311142127126914, 42.409972254036575 ], [ 117.311172509291467, 42.409972171572328 ], [ 117.311172487034355, 42.409967668627992 ], [ 117.311178563466825, 42.409967652134178 ], [ 117.311178541209244, 42.409963149189835 ], [ 117.311172464777243, 42.409963165683642 ], [ 117.311172398005922, 42.4099496568506 ], [ 117.311166321575186, 42.409949673344087 ], [ 117.311166277061872, 42.409940667455359 ], [ 117.311160200632003, 42.40994068394852 ], [ 117.31116015611957, 42.409931678059792 ], [ 117.311154079690567, 42.409931694552604 ], [ 117.311154057434806, 42.409927191608233 ], [ 117.311135828149077, 42.409927241084773 ], [ 117.311135805894608, 42.409922738140395 ], [ 117.311123653038294, 42.409922771123135 ], [ 117.311123831067178, 42.409958794678175 ], [ 117.311135983930455, 42.409958761695393 ], [ 117.311136006184952, 42.40996326463975 ], [ 117.31114208261701, 42.409963248147875 ], [ 117.311142127126914, 42.409972254036575 ] ] ] } },
{ "type": "Feature", "properties": { "crown_id": 2629, "tree_id": "2629", "top_h_m": 21.163, "H_95_Mean": 21.0276, "DBH": 28.8031, "Carbon_kg": 161.551949, "area_m2": 16.0 }, "geometry": { "type": "Polygon", "coordinates": [ [ [ 117.310947636788612, 42.409963775728272 ], [ 117.310984095381841, 42.409963676832056 ], [ 117.310984050894575, 42.409954670943208 ], [ 117.310977974463256, 42.409954687426705 ], [ 117.310977796517832, 42.409918663871132 ], [ 117.310953490806412, 42.409918729801831 ], [ 117.310953513047835, 42.409923232746301 ], [ 117.310947436619514, 42.409923249228171 ], [ 117.310947458860511, 42.409927752172642 ], [ 117.310941382431764, 42.4099277686542 ], [ 117.31094140467232, 42.409932271598663 ], [ 117.310929251813945, 42.409932304560805 ], [ 117.310929296293338, 42.409941310449739 ], [ 117.310935372723421, 42.409941293968821 ], [ 117.310935439443838, 42.40995480280219 ], [ 117.310947592306562, 42.409954769839374 ], [ 117.310947636788612, 42.409963775728272 ] ] ] } }
]
}
