{
"type": "FeatureCollection",
"name": "tile_5_22",
"crs": { "type": "name", "properties": { "name": "urn:ogc:def:crs:OGC:1.3:CRS84" } },
"features": [
{ "type": "Feature", "properties": { "crown_id": 1213, "tree_id": "1213", "top_h_m": 26.775, "H_95_Mean": 26.3909, "DBH": 37.0207, "Carbon_kg": 306.455616, "area_m2": 28.0 }, "geometry": { "type": "Polygon", "coordinates": [ [ [ 117.315077206543876, 42.410686489995015 ], [ 117.315089359543038, 42.410686456592671 ], [ 117.315089291929525, 42.410672947766393 ], [ 117.315095368427762, 42.410672931064752 ], [ 117.315095345889517, 42.410668428122648 ], [ 117.315101422387329, 42.410668411420673 ], [ 117.315101399848643, 42.410663908478597 ], [ 117.315107476346029, 42.410663891776309 ], [ 117.315107453806903, 42.410659388834205 ], [ 117.315113530303847, 42.410659372131597 ], [ 117.315113485224757, 42.410650366247403 ], [ 117.315125638216884, 42.410650332841243 ], [ 117.315125593136088, 42.410641326957041 ], [ 117.315119516640905, 42.410641343660267 ], [ 117.315119494100912, 42.410636840718162 ], [ 117.315107341111386, 42.410636874123661 ], [ 117.315107250955066, 42.410618862355157 ], [ 117.315101174462029, 42.410618879057417 ], [ 117.315101129384786, 42.410609873173136 ], [ 117.315095052892602, 42.410609889875062 ], [ 117.315095075430804, 42.410614392817216 ], [ 117.31508899893818, 42.410614409518814 ], [ 117.315088976400418, 42.410609906576674 ], [ 117.315076823416035, 42.410609939978926 ], [ 117.315076845952944, 42.410614442921073 ], [ 117.31507076946032, 42.410614459621726 ], [ 117.315070837069712, 42.410627968448161 ], [ 117.315058684081819, 42.410628001848501 ], [ 117.315058841831174, 42.410659522443432 ], [ 117.315064918328176, 42.410659505743411 ], [ 117.315064940864232, 42.410664008685529 ], [ 117.315058864366833, 42.41066402538555 ], [ 117.315058909438122, 42.410673031269788 ], [ 117.315077138932963, 42.410672981168716 ], [ 117.315077206543876, 42.410686489995015 ] ] ] } },
{ "type": "Feature", "properties": { "crown_id": 1249, "tree_id": "1249", "top_h_m": 23.106, "H_95_Mean": 22.8271, "DBH": 30.8644, "Carbon_kg": 194.942476, "area_m2": 18.0 }, "geometry": { "type": "Polygon", "coordinates": [ [ [ 117.315162074650146, 42.410645729672936 ], [ 117.315204610119181, 42.41064561272772 ], [ 117.31520458757312, 42.410641109785644 ], [ 117.31521066406826, 42.410641093077892 ], [ 117.315210641521773, 42.410636590135816 ], [ 117.315222794511129, 42.410636556719375 ], [ 117.315222771963789, 42.410632053777306 ], [ 117.315216695469545, 42.410632070485683 ], [ 117.315216672922645, 42.410627567543607 ], [ 117.315222749416435, 42.410627550835223 ], [ 117.315222726869095, 42.410623047893154 ], [ 117.315228803362487, 42.41062303118445 ], [ 117.315228780814721, 42.410618528242374 ], [ 117.315222704321798, 42.410618544951078 ], [ 117.315222659227118, 42.41060953906689 ], [ 117.315204429750892, 42.41060958919104 ], [ 117.315204407204888, 42.41060508624895 ], [ 117.315198330713258, 42.410605102956346 ], [ 117.31519830816768, 42.410600600014241 ], [ 117.315186155185216, 42.410600633428068 ], [ 117.315186177729927, 42.410605136370187 ], [ 117.315180101238255, 42.410605153076624 ], [ 117.31518014632681, 42.410614158960847 ], [ 117.315174069834271, 42.410614175666964 ], [ 117.315174137465846, 42.410627684493271 ], [ 117.315168060971999, 42.410627701199083 ], [ 117.315168106058863, 42.41063670708327 ], [ 117.315149876574665, 42.410636757198759 ], [ 117.315149899116818, 42.410641260140864 ], [ 117.315162052107141, 42.410641226730853 ], [ 117.315162074650146, 42.410645729672936 ] ] ] } },
{ "type": "Feature", "properties": { "crown_id": 1258, "tree_id": "1258", "top_h_m": 23.491, "H_95_Mean": 23.2058, "DBH": 34.1101, "Carbon_kg": 240.799676, "area_m2": 25.75 }, "geometry": { "type": "Polygon", "coordinates": [ [ [ 117.315295757551993, 42.410645362077673 ], [ 117.31530183404746, 42.41064534536509 ], [ 117.31530181149445, 42.410640842423057 ], [ 117.315307887989491, 42.410640825710161 ], [ 117.315307865436083, 42.410636322768134 ], [ 117.315313941930654, 42.410636306054911 ], [ 117.315313738946045, 42.410595779576511 ], [ 117.315307662455368, 42.410595796289698 ], [ 117.315307639901974, 42.410591293347629 ], [ 117.315295486921471, 42.410591326773051 ], [ 117.31529550947397, 42.41059582971512 ], [ 117.315289432983292, 42.410595846427356 ], [ 117.31528945553535, 42.410600349369432 ], [ 117.315283379044217, 42.410600366081333 ], [ 117.315283356492571, 42.410595863139264 ], [ 117.315252974038955, 42.410595946693959 ], [ 117.315253019137913, 42.410604952578126 ], [ 117.315246942646297, 42.410604969288109 ], [ 117.315246965195357, 42.410609472230178 ], [ 117.3152408887033, 42.410609488939848 ], [ 117.3152409563492, 42.410622997766076 ], [ 117.315247032842549, 42.410622981056413 ], [ 117.315247077940697, 42.410631986940551 ], [ 117.315265307423346, 42.410631936809594 ], [ 117.315265329973727, 42.410636439751649 ], [ 117.315283559457612, 42.410636389617771 ], [ 117.315283582009329, 42.410640892559826 ], [ 117.315295734999424, 42.410640859135633 ], [ 117.315295757551993, 42.410645362077673 ] ] ] } },
{ "type": "Feature", "properties": { "crown_id": 1280, "tree_id": "1280", "top_h_m": 23.385, "H_95_Mean": 23.1925, "DBH": 32.5525, "Carbon_kg": 219.077068, "area_m2": 21.5 }, "geometry": { "type": "Polygon", "coordinates": [ [ [ 117.31513166963127, 42.410641310253467 ], [ 117.315143822621621, 42.410641276845382 ], [ 117.315143777538225, 42.410632270961187 ], [ 117.315162007021129, 42.410632220846672 ], [ 117.315161961935161, 42.410623214962456 ], [ 117.315168038428567, 42.410623198256978 ], [ 117.315167970798313, 42.410609689430643 ], [ 117.315174047290427, 42.410609672724853 ], [ 117.315174002202752, 42.410600666840622 ], [ 117.315180078693999, 42.410600650134519 ], [ 117.315180056149742, 42.4105961471924 ], [ 117.315173979658937, 42.410596163898504 ], [ 117.315173957115107, 42.410591660956385 ], [ 117.315167880624728, 42.410591677662168 ], [ 117.315167858081367, 42.410587174720035 ], [ 117.315161781591428, 42.410587191425492 ], [ 117.315161804134348, 42.410591694367625 ], [ 117.315131421682409, 42.410591777890112 ], [ 117.315131466763972, 42.410600783774392 ], [ 117.315113237290106, 42.41060083388404 ], [ 117.315113259829602, 42.410605336826173 ], [ 117.315107183337886, 42.410605353528737 ], [ 117.315107228416011, 42.410614359413024 ], [ 117.315113304908607, 42.410614342710453 ], [ 117.315113395066646, 42.410632354478956 ], [ 117.315125548055292, 42.410632321072818 ], [ 117.315125570595697, 42.410636824014929 ], [ 117.315131647090425, 42.410636807311363 ], [ 117.31513166963127, 42.410641310253467 ] ] ] } },
{ "type": "Feature", "properties": { "crown_id": 1354, "tree_id": "1354", "top_h_m": 23.261, "H_95_Mean": 22.9626, "DBH": 30.0256, "Carbon_kg": 185.058516, "area_m2": 16.0 }, "geometry": { "type": "Polygon", "coordinates": [ [ [ 117.315076800879169, 42.410605437036772 ], [ 117.315101106846157, 42.410605370230996 ], [ 117.315101084307514, 42.410600867288842 ], [ 117.315107160798846, 42.41060085058659 ], [ 117.315107138259776, 42.41059634764445 ], [ 117.315125367732335, 42.410596297535797 ], [ 117.315125322651667, 42.410587291651488 ], [ 117.315119246161672, 42.4105873083547 ], [ 117.315119133462218, 42.4105647936439 ], [ 117.315106980486604, 42.410564827049321 ], [ 117.315106935408579, 42.410555821164955 ], [ 117.315076552973778, 42.41055590467284 ], [ 117.315076620584279, 42.41056941349941 ], [ 117.315082697072555, 42.410569396798472 ], [ 117.315082832296298, 42.410596414451504 ], [ 117.315076755805407, 42.410596431152463 ], [ 117.315076800879169, 42.410605437036772 ] ] ] } },
{ "type": "Feature", "properties": { "crown_id": 1369, "tree_id": "1369", "top_h_m": 24.557, "H_95_Mean": 24.3491, "DBH": 33.2053, "Carbon_kg": 234.680674, "area_m2": 21.25 }, "geometry": { "type": "Polygon", "coordinates": [ [ [ 117.315210483696532, 42.410605069541219 ], [ 117.31522263667982, 42.410605036124799 ], [ 117.315222614132509, 42.410600533182709 ], [ 117.315228690623698, 42.410600516474027 ], [ 117.315228713171436, 42.410605019416117 ], [ 117.315234789663066, 42.410605002707101 ], [ 117.315234767114887, 42.410600499765003 ], [ 117.315240843606091, 42.410600483055674 ], [ 117.315240753411658, 42.410582471287306 ], [ 117.315246829901099, 42.41058245457765 ], [ 117.31524678480308, 42.410573448693441 ], [ 117.315252861291654, 42.41057343198348 ], [ 117.315252816192753, 42.410564426099263 ], [ 117.31523458672963, 42.410564476228174 ], [ 117.315234564181509, 42.410559973286048 ], [ 117.315228487694242, 42.410559989995036 ], [ 117.315228442598851, 42.410550984110778 ], [ 117.315216289626008, 42.410551017527773 ], [ 117.315216312172836, 42.410555520469906 ], [ 117.315210235685967, 42.410555537177927 ], [ 117.315210258232355, 42.41056004012006 ], [ 117.315198105257764, 42.410560073535144 ], [ 117.315198127803285, 42.41056457647727 ], [ 117.315185974827799, 42.410564609891068 ], [ 117.315185997372453, 42.410569112833208 ], [ 117.315192073860644, 42.410569096126466 ], [ 117.315192141495956, 42.410582604952857 ], [ 117.315186065006472, 42.4105826216596 ], [ 117.315186087551155, 42.410587124601726 ], [ 117.31518001106123, 42.410587141308156 ], [ 117.315180033605486, 42.410591644250275 ], [ 117.315198263076553, 42.410591594130025 ], [ 117.315198285622103, 42.410596097072137 ], [ 117.315204362112894, 42.410596080364733 ], [ 117.315204384658898, 42.410600583306838 ], [ 117.315210461150102, 42.410600566599122 ], [ 117.315210483696532, 42.410605069541219 ] ] ] } },
{ "type": "Feature", "properties": { "crown_id": 1402, "tree_id": "1402", "top_h_m": 23.496, "H_95_Mean": 23.4431, "DBH": 33.2909, "Carbon_kg": 230.66984, "area_m2": 23.0 }, "geometry": { "type": "Polygon", "coordinates": [ [ [ 117.315131399141634, 42.410587274947964 ], [ 117.315155705101475, 42.410587208130636 ], [ 117.315155682558952, 42.41058270518851 ], [ 117.315179988516988, 42.410582638366023 ], [ 117.315179898340034, 42.410564626597484 ], [ 117.315167745364519, 42.410564660009342 ], [ 117.315167677734479, 42.410551151182879 ], [ 117.315161601248022, 42.410551167888322 ], [ 117.315161556162209, 42.410542162003985 ], [ 117.315155479676605, 42.4105421787091 ], [ 117.315155457134153, 42.410537675766918 ], [ 117.315149380648975, 42.410537692471706 ], [ 117.31514935810695, 42.410533189529531 ], [ 117.315137205137475, 42.410533222938142 ], [ 117.315137227678619, 42.410537725880317 ], [ 117.315112921737835, 42.410537792693667 ], [ 117.31511294427726, 42.410542295635864 ], [ 117.315106867791613, 42.4105423123384 ], [ 117.315106912869595, 42.41055131822278 ], [ 117.315112989356109, 42.410551301520229 ], [ 117.315113034434972, 42.410560307404594 ], [ 117.31512518740972, 42.410560273998541 ], [ 117.315125300111333, 42.410582788709341 ], [ 117.315131376600874, 42.410582772005831 ], [ 117.315131399141634, 42.410587274947964 ] ] ] } },
{ "type": "Feature", "properties": { "crown_id": 1451, "tree_id": "1451", "top_h_m": 24.745, "H_95_Mean": 24.6692, "DBH": 30.1412, "Carbon_kg": 194.575042, "area_m2": 14.25 }, "geometry": { "type": "Polygon", "coordinates": [ [ [ 117.315173799308511, 42.410560140361433 ], [ 117.315192028770454, 42.410560090242193 ], [ 117.315192006225359, 42.410555587300045 ], [ 117.315204159199098, 42.410555553885615 ], [ 117.315204136653165, 42.410551050943475 ], [ 117.315210213139608, 42.410551034235787 ], [ 117.315210168046846, 42.410542028351507 ], [ 117.31521624453238, 42.410542011643493 ], [ 117.315216199438794, 42.410533005759191 ], [ 117.315210122954113, 42.410533022467199 ], [ 117.315210100407739, 42.410528519525045 ], [ 117.315204023923499, 42.410528536232718 ], [ 117.31520400137758, 42.41052403329055 ], [ 117.315197924893752, 42.41052404999791 ], [ 117.315197902348274, 42.410519547055735 ], [ 117.315185749381484, 42.410519580469476 ], [ 117.315185726836873, 42.4105150775273 ], [ 117.315173573870922, 42.410515110939755 ], [ 117.315173618958383, 42.410524116824114 ], [ 117.315167542474541, 42.410524133529854 ], [ 117.315167587561177, 42.41053313941422 ], [ 117.31516151107644, 42.410533156119641 ], [ 117.315161533619317, 42.410537659061816 ], [ 117.315167610104481, 42.410537642356381 ], [ 117.315167655191132, 42.410546648240718 ], [ 117.315173731677163, 42.410546631534963 ], [ 117.315173799308511, 42.410560140361433 ] ] ] } },
{ "type": "Feature", "properties": { "crown_id": 1452, "tree_id": "1452", "top_h_m": 23.483, "H_95_Mean": 23.3828, "DBH": 28.5623, "Carbon_kg": 169.135178, "area_m2": 12.75 }, "geometry": { "type": "Polygon", "coordinates": [ [ [ 117.31524064066879, 42.410559956576741 ], [ 117.315258870130563, 42.410559906446878 ], [ 117.315258847580708, 42.410555403504752 ], [ 117.31526492406752, 42.410555386794165 ], [ 117.31526490151721, 42.410550883852046 ], [ 117.315270978003596, 42.410550867141133 ], [ 117.315270955452874, 42.410546364199014 ], [ 117.315277031938805, 42.410546347487788 ], [ 117.315277009387657, 42.410541844545662 ], [ 117.315270932902166, 42.41054186125691 ], [ 117.315270910351444, 42.41053735831477 ], [ 117.315264833866351, 42.410537375025683 ], [ 117.315264766215549, 42.410523866199277 ], [ 117.315258689731792, 42.410523882909857 ], [ 117.315258667181965, 42.41051937996771 ], [ 117.315240437731887, 42.410519430097509 ], [ 117.315240482828955, 42.41052843598181 ], [ 117.315228329860489, 42.41052846940007 ], [ 117.315228352408141, 42.41053297234221 ], [ 117.31522227592346, 42.410532989050864 ], [ 117.315222343565182, 42.410546497877299 ], [ 117.315234496537144, 42.410546464459657 ], [ 117.315234541633387, 42.410555470343915 ], [ 117.3152406181202, 42.410555453634615 ], [ 117.31524064066879, 42.410559956576741 ] ] ] } },
{ "type": "Feature", "properties": { "crown_id": 1480, "tree_id": "1480", "top_h_m": 23.693, "H_95_Mean": 23.4587, "DBH": 31.9148, "Carbon_kg": 211.939002, "area_m2": 19.5 }, "geometry": { "type": "Polygon", "coordinates": [ [ [ 117.315301315329634, 42.410541777697524 ], [ 117.315313468300573, 42.410541744271519 ], [ 117.315313445746824, 42.410537241329415 ], [ 117.315325598716868, 42.410537207902124 ], [ 117.315325531053006, 42.410523699075796 ], [ 117.315319454569291, 42.410523715789594 ], [ 117.315319319244352, 42.410496698136846 ], [ 117.315282860357541, 42.410496798412773 ], [ 117.315282882909074, 42.41050130135492 ], [ 117.315270729945908, 42.410501334777656 ], [ 117.315270752496573, 42.410505837719803 ], [ 117.315264676014536, 42.410505854430696 ], [ 117.315264698564803, 42.41051035737285 ], [ 117.315258622082325, 42.410510374083422 ], [ 117.315258644632138, 42.410514877025577 ], [ 117.315264721115028, 42.410514860314997 ], [ 117.315264743665296, 42.410519363257144 ], [ 117.315270820148626, 42.410519346546245 ], [ 117.315270887800722, 42.410532855372658 ], [ 117.31527696428536, 42.410532838661425 ], [ 117.315276986836508, 42.41053734160355 ], [ 117.315301292776724, 42.41053727475542 ], [ 117.315301315329634, 42.410541777697524 ] ] ] } },
{ "type": "Feature", "properties": { "crown_id": 1516, "tree_id": "1516", "top_h_m": 25.443, "H_95_Mean": 25.0069, "DBH": 39.8884, "Carbon_kg": 345.013948, "area_m2": 41.25 }, "geometry": { "type": "Polygon", "coordinates": [ [ [ 117.315094669744099, 42.410533339858098 ], [ 117.315100746228879, 42.410533323156208 ], [ 117.31510072369035, 42.410528820214004 ], [ 117.315118953143369, 42.410528770106424 ], [ 117.315118975683205, 42.410533273048621 ], [ 117.315131128652709, 42.410533239641957 ], [ 117.31513110611202, 42.41052873669976 ], [ 117.315161488533562, 42.410528653177472 ], [ 117.315161443447792, 42.4105196472931 ], [ 117.315167519931236, 42.410519630587679 ], [ 117.315167474844628, 42.410510624703306 ], [ 117.315179627809712, 42.410510591291512 ], [ 117.315179470000714, 42.410479070696113 ], [ 117.315136934644087, 42.410479187631637 ], [ 117.315136912103014, 42.410474684689412 ], [ 117.315130835623904, 42.410474701393198 ], [ 117.315130813083272, 42.410470198450945 ], [ 117.315118660125918, 42.410470231857545 ], [ 117.315118637586167, 42.410465728915305 ], [ 117.315106484629652, 42.410465762320612 ], [ 117.315106462090768, 42.410461259378359 ], [ 117.315094309135105, 42.410461292782365 ], [ 117.315094331673123, 42.410465795724619 ], [ 117.315088255194851, 42.410465812426153 ], [ 117.315088345345259, 42.410483824195168 ], [ 117.315094421825279, 42.410483807493627 ], [ 117.315094534515566, 42.410506322204803 ], [ 117.31510061099776, 42.410506305502935 ], [ 117.315100656074762, 42.410515311387371 ], [ 117.315106732557808, 42.410515294685183 ], [ 117.315106755096778, 42.410519797627387 ], [ 117.315100678613291, 42.410519814329589 ], [ 117.31510070115182, 42.410524317271808 ], [ 117.315094624667907, 42.410524333973676 ], [ 117.315094669744099, 42.410533339858098 ] ] ] } },
{ "type": "Feature", "properties": { "crown_id": 1517, "tree_id": "1517", "top_h_m": 24.15, "H_95_Mean": 24.0422, "DBH": 29.6438, "Carbon_kg": 185.314256, "area_m2": 14.0 }, "geometry": { "type": "Polygon", "coordinates": [ [ [ 117.315216176891994, 42.410528502817037 ], [ 117.315222253376234, 42.410528486108724 ], [ 117.315222230829022, 42.410523983166556 ], [ 117.315234383796636, 42.410523949748942 ], [ 117.315234338700463, 42.410514943864641 ], [ 117.315252568149234, 42.410514893735822 ], [ 117.315252545599847, 42.410510390793668 ], [ 117.315246469117369, 42.410510407503594 ], [ 117.315246424019506, 42.410501401619264 ], [ 117.315228194574615, 42.410501451747102 ], [ 117.315228172026977, 42.410496948804912 ], [ 117.315216019064593, 42.410496982221858 ], [ 117.31521599651785, 42.410492479279675 ], [ 117.315209920037063, 42.410492495987661 ], [ 117.315209897490746, 42.410487993045457 ], [ 117.31518559156936, 42.410488059874154 ], [ 117.315185704292261, 42.410510574585125 ], [ 117.315191780774796, 42.410510557878425 ], [ 117.315191803319848, 42.410515060820607 ], [ 117.315203956285742, 42.410515027406227 ], [ 117.315203978831647, 42.410519530348381 ], [ 117.315210055315063, 42.410519513640715 ], [ 117.315210077861394, 42.410524016582869 ], [ 117.315216154345208, 42.410523999874869 ], [ 117.315216176891994, 42.410528502817037 ] ] ] } },
{ "type": "Feature", "properties": { "crown_id": 1562, "tree_id": "1562", "top_h_m": 24.042, "H_95_Mean": 23.7441, "DBH": 31.7741, "Carbon_kg": 211.567832, "area_m2": 18.75 }, "geometry": { "type": "Polygon", "coordinates": [ [ [ 117.315252523050475, 42.410505887851514 ], [ 117.315258599532498, 42.410505871141261 ], [ 117.3152585769827, 42.410501368199114 ], [ 117.315264653464297, 42.410501351488541 ], [ 117.315264630914072, 42.41049684854638 ], [ 117.315258554432901, 42.410496865256945 ], [ 117.315258396584468, 42.410465344661716 ], [ 117.315246243628181, 42.410465378081845 ], [ 117.315246221079292, 42.410460875139648 ], [ 117.315240144601589, 42.410460891849219 ], [ 117.315240122053169, 42.410456388907015 ], [ 117.315234045575863, 42.410456405616266 ], [ 117.31523402302787, 42.410451902674069 ], [ 117.315221870074154, 42.410451936091583 ], [ 117.31522189262131, 42.410456439033808 ], [ 117.315215816144004, 42.410456455742086 ], [ 117.315215838690733, 42.410460958684297 ], [ 117.31520368573527, 42.4104609920999 ], [ 117.315203730826951, 42.410469997984315 ], [ 117.31519157786974, 42.410470031398653 ], [ 117.315191645504711, 42.410483540225272 ], [ 117.315215951424349, 42.410483473395296 ], [ 117.315215973971092, 42.410487976337485 ], [ 117.315222050451425, 42.410487959629179 ], [ 117.315222072998608, 42.410492462571362 ], [ 117.315234225960126, 42.410492429153798 ], [ 117.315234248508176, 42.410496932095974 ], [ 117.315252477951731, 42.410496881967184 ], [ 117.315252523050475, 42.410505887851514 ] ] ] } },
{ "type": "Feature", "properties": { "crown_id": 1573, "tree_id": "1573", "top_h_m": 22.107, "H_95_Mean": 22.0816, "DBH": 26.9199, "Carbon_kg": 145.107162, "area_m2": 11.25 }, "geometry": { "type": "Polygon", "coordinates": [ [ [ 117.315270707395243, 42.410496831835509 ], [ 117.315276783876399, 42.410496815124297 ], [ 117.315276761325308, 42.41049231218215 ], [ 117.315313220209518, 42.410492211908171 ], [ 117.315313175102133, 42.410483206023876 ], [ 117.315307098622313, 42.410483222737 ], [ 117.315307076069047, 42.410478719794845 ], [ 117.315313152548427, 42.410478703081722 ], [ 117.315313107441071, 42.410469697197414 ], [ 117.315300954484016, 42.410469730623333 ], [ 117.315300909378408, 42.410460724738989 ], [ 117.315294832900761, 42.410460741451459 ], [ 117.315294855453132, 42.410465244393635 ], [ 117.315276626018814, 42.410465294529132 ], [ 117.315276648569878, 42.410469797471308 ], [ 117.315264495612794, 42.410469830893362 ], [ 117.315264608363861, 42.410492345604233 ], [ 117.315270684844563, 42.410492328893341 ], [ 117.315270707395243, 42.410496831835509 ] ] ] } }
]
}
