{
"type": "FeatureCollection",
"name": "tile_15_4",
"crs": { "type": "name", "properties": { "name": "urn:ogc:def:crs:OGC:1.3:CRS84" } },
"features": [
{ "type": "Feature", "properties": { "crown_id": 4473, "tree_id": "4475", "top_h_m": 22.839, "H_95_Mean": 22.1706, "DBH": 38.982, "Carbon_kg": 306.75671, "area_m2": 47.0 }, "geometry": { "type": "Polygon", "coordinates": [ [ [ 117.310857274963411, 42.408892305555284 ], [ 117.310869427621128, 42.408892272601406 ], [ 117.31086938315191, 42.408883266710781 ], [ 117.310875459479874, 42.408883250233359 ], [ 117.310875437244846, 42.408878747288036 ], [ 117.31088758989992, 42.408878714332253 ], [ 117.310887567664025, 42.408874211386937 ], [ 117.310899720318204, 42.408874178429869 ], [ 117.310899675844709, 42.40886517253923 ], [ 117.310905752170896, 42.408865156060216 ], [ 117.31090561874791, 42.408838138388234 ], [ 117.310887389777079, 42.408838187824237 ], [ 117.310887367541241, 42.408833684878886 ], [ 117.310881291218053, 42.408833701356905 ], [ 117.310881246747257, 42.408824695466194 ], [ 117.310863017780278, 42.408824744898325 ], [ 117.310862995546188, 42.408820241952952 ], [ 117.310850842902369, 42.408820274906084 ], [ 117.310850865135592, 42.408824777851464 ], [ 117.310838712490906, 42.408824810803324 ], [ 117.310838734723262, 42.408829313748704 ], [ 117.310820505754876, 42.408829363174078 ], [ 117.310820527985939, 42.408833866119465 ], [ 117.310814451662708, 42.408833882593946 ], [ 117.310814540585255, 42.408851894375459 ], [ 117.310808464260262, 42.40885191084962 ], [ 117.310808486490487, 42.408856413795007 ], [ 117.310802410165067, 42.408856430268855 ], [ 117.310802432394851, 42.408860933214221 ], [ 117.310796356068991, 42.408860949687757 ], [ 117.310796378298349, 42.40886545263313 ], [ 117.310790301972034, 42.408865469106352 ], [ 117.310790324200966, 42.408869972051711 ], [ 117.310796400527707, 42.408869955578488 ], [ 117.310796422757093, 42.408874458523869 ], [ 117.310820728065693, 42.408874392627766 ], [ 117.310820772527947, 42.408883398518455 ], [ 117.310845077839971, 42.408883332617187 ], [ 117.310845100072839, 42.408887835562524 ], [ 117.31085725272969, 42.408887802609947 ], [ 117.310857274963411, 42.408892305555284 ] ] ] } },
{ "type": "Feature", "properties": { "crown_id": 4546, "tree_id": "4548", "top_h_m": 21.95, "H_95_Mean": 21.2143, "DBH": 42.1477, "Carbon_kg": 349.794636, "area_m2": 69.0 }, "geometry": { "type": "Polygon", "coordinates": [ [ [ 117.310747723236034, 42.408856578519021 ], [ 117.31075379956151, 42.408856562048086 ], [ 117.310753777335208, 42.408852059102678 ], [ 117.310765929985237, 42.408852026159799 ], [ 117.310765907758068, 42.408847523214419 ], [ 117.31077806040723, 42.408847490270276 ], [ 117.310778082635267, 42.408851993215649 ], [ 117.310784158960288, 42.408851976743094 ], [ 117.310784181188765, 42.408856479688481 ], [ 117.310796333839647, 42.408856446742384 ], [ 117.310796311610289, 42.408851943797004 ], [ 117.310802387935283, 42.408851927323475 ], [ 117.310802365705513, 42.408847424378102 ], [ 117.310808442030051, 42.408847407904254 ], [ 117.310808353109266, 42.408829396122712 ], [ 117.310814429432071, 42.408829379648552 ], [ 117.310814407201448, 42.408824876703171 ], [ 117.310832636168556, 42.408824827278771 ], [ 117.310832613936626, 42.408820324333377 ], [ 117.310838690258549, 42.408820307857944 ], [ 117.310838668026207, 42.408815804912543 ], [ 117.310826515383226, 42.408815837863095 ], [ 117.310826493151737, 42.408811334917708 ], [ 117.310820416830694, 42.408811351392501 ], [ 117.310820327906583, 42.408793339610867 ], [ 117.310814251587232, 42.408793356085326 ], [ 117.310814229356666, 42.408788853139917 ], [ 117.310820305675577, 42.408788836665458 ], [ 117.310820283444556, 42.408784333720028 ], [ 117.310795978170674, 42.408784399615911 ], [ 117.310795933712143, 42.408775393725044 ], [ 117.310759475806435, 42.40877549255918 ], [ 117.310759453579777, 42.408770989613721 ], [ 117.310741224628131, 42.408771039026448 ], [ 117.310741246853468, 42.408775541971906 ], [ 117.31071086526515, 42.408775624319993 ], [ 117.310710998604293, 42.408802641992779 ], [ 117.310723151244858, 42.408802609054469 ], [ 117.310723195693001, 42.408811614945385 ], [ 117.310729272014157, 42.408811598475737 ], [ 117.310729294238669, 42.408816101421166 ], [ 117.310717141595518, 42.40881613436013 ], [ 117.310717297161219, 42.408847654978139 ], [ 117.310741602459686, 42.408847589098848 ], [ 117.310741624685122, 42.408852092044249 ], [ 117.310747701010158, 42.40885207557362 ], [ 117.310747723236034, 42.408856578519021 ] ] ] } },
{ "type": "Feature", "properties": { "crown_id": 4670, "tree_id": "4672", "top_h_m": 21.48, "H_95_Mean": 20.9989, "DBH": 35.9696, "Carbon_kg": 252.609018, "area_m2": 38.0 }, "geometry": { "type": "Polygon", "coordinates": [ [ [ 117.310802032259446, 42.408779880196995 ], [ 117.310832413849596, 42.408779797824742 ], [ 117.31083234715399, 42.408766288988453 ], [ 117.310826270837268, 42.408766305463537 ], [ 117.310826248605863, 42.408761802518107 ], [ 117.310820172289567, 42.408761818992879 ], [ 117.310820083365684, 42.408743807211081 ], [ 117.310826159680246, 42.408743790736331 ], [ 117.310826026291949, 42.40871677306356 ], [ 117.310813873668081, 42.408716806012706 ], [ 117.310813851437587, 42.408712303067226 ], [ 117.310807775126079, 42.408712319541323 ], [ 117.310807752896011, 42.408707816595836 ], [ 117.310795600273835, 42.408707849543042 ], [ 117.310795578044662, 42.408703346597555 ], [ 117.310789501734021, 42.408703363070671 ], [ 117.310789457276542, 42.408694357179662 ], [ 117.310777304656938, 42.408694390124928 ], [ 117.310777415796323, 42.40871690485244 ], [ 117.310771339484347, 42.408716921324611 ], [ 117.310771383939255, 42.408725927215592 ], [ 117.310765307626426, 42.408725943687429 ], [ 117.310765396534592, 42.408743955469376 ], [ 117.310759320219987, 42.408743971940908 ], [ 117.310759342446616, 42.40874847488638 ], [ 117.31075326613157, 42.408748491357599 ], [ 117.31075335503634, 42.408766503139482 ], [ 117.310765507669885, 42.40876647019671 ], [ 117.310765529896983, 42.408770973142175 ], [ 117.310801987800076, 42.408770874306114 ], [ 117.310802032259446, 42.408779880196995 ] ] ] } },
{ "type": "Feature", "properties": { "crown_id": 4671, "tree_id": "4673", "top_h_m": 21.248, "H_95_Mean": 20.7246, "DBH": 36.3955, "Carbon_kg": 256.669778, "area_m2": 40.75 }, "geometry": { "type": "Polygon", "coordinates": [ [ [ 117.31088102439351, 42.408779666012371 ], [ 117.310887100711483, 42.408779649534374 ], [ 117.31088705623992, 42.408770643643578 ], [ 117.310893132557027, 42.408770627165254 ], [ 117.310893110320819, 42.408766124219852 ], [ 117.310905262954108, 42.408766091262265 ], [ 117.310905285191197, 42.408770594207674 ], [ 117.310911361508275, 42.40877057772839 ], [ 117.31091133927076, 42.408766074782996 ], [ 117.310917415587397, 42.408766058303399 ], [ 117.310917371111543, 42.408757052412611 ], [ 117.310923447427299, 42.408757035932695 ], [ 117.310923425188932, 42.408752532987286 ], [ 117.310911272558258, 42.408752565946799 ], [ 117.3109112503208, 42.408748063001376 ], [ 117.310905174005882, 42.408748079480638 ], [ 117.310905151768836, 42.408743576535223 ], [ 117.310892999139881, 42.408743609492788 ], [ 117.310892887959056, 42.408721094765632 ], [ 117.310886811646739, 42.408721111243906 ], [ 117.310886722703927, 42.408703099462116 ], [ 117.310856341150952, 42.408703181848644 ], [ 117.31085638561801, 42.408712187739575 ], [ 117.310844232995052, 42.408712220691946 ], [ 117.310844255227721, 42.408716723637419 ], [ 117.310832102603896, 42.408716756588497 ], [ 117.310832258226597, 42.408748277206705 ], [ 117.310826181911636, 42.408748293681775 ], [ 117.310826226374445, 42.40875729957267 ], [ 117.310832302690301, 42.408757283097593 ], [ 117.310832324922146, 42.408761786043023 ], [ 117.310838401238414, 42.408761769567612 ], [ 117.310838445702998, 42.408770775458478 ], [ 117.310844522020119, 42.408770758982733 ], [ 117.310844544252859, 42.408775261928163 ], [ 117.310881002158169, 42.408775163066977 ], [ 117.31088102439351, 42.408779666012371 ] ] ] } },
{ "type": "Feature", "properties": { "crown_id": 4691, "tree_id": "4693", "top_h_m": 19.788, "H_95_Mean": 19.7931, "DBH": 32.5493, "Carbon_kg": 199.433662, "area_m2": 28.75 }, "geometry": { "type": "Polygon", "coordinates": [ [ [ 117.310735103861106, 42.408762049605755 ], [ 117.310747256493798, 42.408762016664916 ], [ 117.31074716759079, 42.408744004883005 ], [ 117.310753243905395, 42.408743988412127 ], [ 117.310753221679192, 42.408739485466633 ], [ 117.310759297993371, 42.408739468995421 ], [ 117.310759209086967, 42.408721457213474 ], [ 117.310765285399398, 42.408721440741942 ], [ 117.310765240945372, 42.408712434850948 ], [ 117.310771317256894, 42.40871241837911 ], [ 117.310771250574575, 42.408698909542586 ], [ 117.310746945333577, 42.408698975427974 ], [ 117.310746967559268, 42.408703478373496 ], [ 117.310740891248571, 42.40870349484404 ], [ 117.310740913473836, 42.408707997789563 ], [ 117.310704455606938, 42.40870809660607 ], [ 117.310704544497639, 42.408726108388173 ], [ 117.310692391871811, 42.408726141324451 ], [ 117.31069248075913, 42.408744153106511 ], [ 117.310698557073763, 42.408744136638525 ], [ 117.310698579296044, 42.408748639584026 ], [ 117.310704655611104, 42.40874862311572 ], [ 117.310704677833826, 42.408753126061214 ], [ 117.310710754149355, 42.408753109592574 ], [ 117.310710776372503, 42.408757612538054 ], [ 117.310735081636224, 42.408757546660269 ], [ 117.310735103861106, 42.408762049605755 ] ] ] } },
{ "type": "Feature", "properties": { "crown_id": 4702, "tree_id": "4704", "top_h_m": 22.624, "H_95_Mean": 22.1396, "DBH": 35.3541, "Carbon_kg": 251.726443, "area_m2": 32.25 }, "geometry": { "type": "Polygon", "coordinates": [ [ [ 117.310929523743042, 42.408757019452452 ], [ 117.310941676374554, 42.408756986491021 ], [ 117.310941631895233, 42.408747980600218 ], [ 117.310953784524983, 42.408747947637508 ], [ 117.310953628841418, 42.408716427019669 ], [ 117.310947552529584, 42.40871644350117 ], [ 117.310947463569391, 42.408698431719458 ], [ 117.310941387259305, 42.408698448200624 ], [ 117.310941342780126, 42.408689442309743 ], [ 117.310923113852397, 42.408689491751296 ], [ 117.310923091614114, 42.408684988805838 ], [ 117.3109109389965, 42.408685021765265 ], [ 117.31091091675907, 42.408680518819793 ], [ 117.310886611525504, 42.408680584734768 ], [ 117.310886633761172, 42.40868508768024 ], [ 117.310880557452336, 42.408685104158188 ], [ 117.310880624158074, 42.408698612994598 ], [ 117.310892776778374, 42.408698580038383 ], [ 117.310892865722906, 42.40871659182018 ], [ 117.310898942034768, 42.408716575341586 ], [ 117.310899053217753, 42.40873909006875 ], [ 117.310911205845827, 42.408739057110552 ], [ 117.310911228083299, 42.408743560055974 ], [ 117.310917304397776, 42.408743543576378 ], [ 117.310917326635675, 42.408748046521801 ], [ 117.310929479265454, 42.408748013561649 ], [ 117.310929523743042, 42.408757019452452 ] ] ] } },
{ "type": "Feature", "properties": { "crown_id": 4750, "tree_id": "4752", "top_h_m": 21.338, "H_95_Mean": 21.1873, "DBH": 29.3615, "Carbon_kg": 168.679719, "area_m2": 17.0 }, "geometry": { "type": "Polygon", "coordinates": [ [ [ 117.31081992774908, 42.408712286592817 ], [ 117.310838156683573, 42.408712237167641 ], [ 117.310838134451345, 42.408707734222162 ], [ 117.310850287073436, 42.408707701270458 ], [ 117.310850242607273, 42.408698695379513 ], [ 117.310862395227616, 42.408698662426509 ], [ 117.310862372993654, 42.40869415948103 ], [ 117.310868449303371, 42.408694143004048 ], [ 117.310868404834636, 42.408685137113103 ], [ 117.310862328525786, 42.408685153590078 ], [ 117.310862284057919, 42.408676147699104 ], [ 117.310856207749922, 42.408676164175745 ], [ 117.310856229983415, 42.408680667121239 ], [ 117.310783314281878, 42.408680864815913 ], [ 117.310783358738448, 42.408689870706951 ], [ 117.310795511357156, 42.408689837761038 ], [ 117.310795555815488, 42.408698843652061 ], [ 117.310801632125717, 42.408698827178625 ], [ 117.31080165435533, 42.408703330124112 ], [ 117.310813806976611, 42.40870329717626 ], [ 117.310813829207106, 42.408707800121746 ], [ 117.310819905518159, 42.408707783647344 ], [ 117.31081992774908, 42.408712286592817 ] ] ] } }
]
}
