{
"type": "FeatureCollection",
"name": "tile_14_8",
"crs": { "type": "name", "properties": { "name": "urn:ogc:def:crs:OGC:1.3:CRS84" } },
"features": [
{ "type": "Feature", "properties": { "crown_id": 4205, "tree_id": "4207", "top_h_m": 21.152, "H_95_Mean": 20.6964, "DBH": 31.2117, "Carbon_kg": 188.161511, "area_m2": 22.5 }, "geometry": { "type": "Polygon", "coordinates": [ [ [ 117.311872802535348, 42.409047152539372 ], [ 117.311891031564969, 42.409047102946467 ], [ 117.311891009257167, 42.409042600001712 ], [ 117.311921390970923, 42.409042517340445 ], [ 117.311921368660961, 42.409038014395698 ], [ 117.311933521345566, 42.409037981328929 ], [ 117.311933499034751, 42.409033478384195 ], [ 117.311939575376599, 42.409033461850335 ], [ 117.311939553065343, 42.40902895890558 ], [ 117.311933476723922, 42.409028975439441 ], [ 117.311933387480707, 42.4090109636604 ], [ 117.311927311141005, 42.409010980193926 ], [ 117.311927288830645, 42.40900647724915 ], [ 117.311921212491399, 42.409006493782343 ], [ 117.311921145561641, 42.408992984948014 ], [ 117.311915069223701, 42.40899300148088 ], [ 117.311915091533152, 42.408997504425656 ], [ 117.311909015194757, 42.408997520958209 ], [ 117.311909037503796, 42.409002023902993 ], [ 117.311884732148414, 42.409002090029986 ], [ 117.311884776763051, 42.409011095919574 ], [ 117.311878700423307, 42.409011112450521 ], [ 117.311878745037092, 42.409020118340088 ], [ 117.311872668696481, 42.409020134870723 ], [ 117.311872691002961, 42.409024637815499 ], [ 117.311866614661923, 42.409024654345821 ], [ 117.311866703886068, 42.409042666124932 ], [ 117.311872780228867, 42.40904264959461 ], [ 117.311872802535348, 42.409047152539372 ] ] ] } },
{ "type": "Feature", "properties": { "crown_id": 4248, "tree_id": "4250", "top_h_m": 23.925, "H_95_Mean": 23.5378, "DBH": 37.8305, "Carbon_kg": 299.170936, "area_m2": 37.5 }, "geometry": { "type": "Polygon", "coordinates": [ [ [ 117.311805940457972, 42.409042831410424 ], [ 117.311812016800801, 42.409042814883321 ], [ 117.311811994498655, 42.409038311938524 ], [ 117.311818070841042, 42.409038295411108 ], [ 117.311818048538484, 42.40903379246631 ], [ 117.311830201222392, 42.409033759410512 ], [ 117.311830178918967, 42.409029256465722 ], [ 117.311824102577461, 42.409029272993777 ], [ 117.311824035668494, 42.409015764159371 ], [ 117.311836188348906, 42.409015731102933 ], [ 117.311836076829721, 42.408993216378867 ], [ 117.31183000049171, 42.408993232907228 ], [ 117.311829933581564, 42.408979724072729 ], [ 117.31180562823458, 42.408979790182926 ], [ 117.31180560593296, 42.408975287238071 ], [ 117.311799529596627, 42.408975303764819 ], [ 117.311799507295433, 42.408970800819958 ], [ 117.311769125615939, 42.408970883448809 ], [ 117.311769170213978, 42.408979889338553 ], [ 117.311763093877204, 42.408979905863355 ], [ 117.311763116175797, 42.408984408808216 ], [ 117.311757039838568, 42.408984425332712 ], [ 117.311757129031264, 42.409002437112136 ], [ 117.311751052692287, 42.409002453636312 ], [ 117.311751119585551, 42.40901596247086 ], [ 117.311769348606347, 42.409015912897324 ], [ 117.311769370905424, 42.409020415842164 ], [ 117.31177544724612, 42.409020399317008 ], [ 117.311775469545623, 42.409024902261827 ], [ 117.311781545886745, 42.409024885736351 ], [ 117.311781568186703, 42.409029388681169 ], [ 117.311787644528266, 42.409029372155366 ], [ 117.31178766682865, 42.409033875100178 ], [ 117.311793743170611, 42.409033858574048 ], [ 117.31179376547145, 42.40903836151886 ], [ 117.311805918156253, 42.409038328465627 ], [ 117.311805940457972, 42.409042831410424 ] ] ] } },
{ "type": "Feature", "properties": { "crown_id": 4257, "tree_id": "4259", "top_h_m": 21.192, "H_95_Mean": 20.9358, "DBH": 31.7357, "Carbon_kg": 195.910768, "area_m2": 23.5 }, "geometry": { "type": "Polygon", "coordinates": [ [ [ 117.311666139987963, 42.40903420555513 ], [ 117.311684369014216, 42.409034155995101 ], [ 117.311684346721194, 42.409029653050254 ], [ 117.311690423062828, 42.409029636529596 ], [ 117.311690378475973, 42.409020630639866 ], [ 117.311702531157479, 42.409020597597618 ], [ 117.311702464274646, 42.409007088763019 ], [ 117.311708540614092, 42.409007072241408 ], [ 117.311708473729979, 42.408993563406803 ], [ 117.311702397391826, 42.408993579928399 ], [ 117.311702375097568, 42.408989076983509 ], [ 117.311696298759855, 42.408989093504786 ], [ 117.311696254172219, 42.408980087615006 ], [ 117.311684101498514, 42.408980120656572 ], [ 117.311684079205577, 42.408975617711675 ], [ 117.311635468514055, 42.40897574986505 ], [ 117.311635490803539, 42.408980252809961 ], [ 117.311641567140413, 42.408980236291924 ], [ 117.311641589430323, 42.408984739236836 ], [ 117.311647665767651, 42.408984722718465 ], [ 117.311647688058002, 42.408989225663369 ], [ 117.311653764395743, 42.408989209144671 ], [ 117.311653898140506, 42.409016226814032 ], [ 117.311659974480861, 42.409016210295 ], [ 117.311659996772121, 42.409020713239883 ], [ 117.311666073112889, 42.409020696720518 ], [ 117.311666139987963, 42.40903420555513 ] ] ] } },
{ "type": "Feature", "properties": { "crown_id": 4274, "tree_id": "4276", "top_h_m": 19.314, "H_95_Mean": 19.0334, "DBH": 30.0788, "Carbon_kg": 166.20797, "area_m2": 22.75 }, "geometry": { "type": "Polygon", "coordinates": [ [ [ 117.311732890564713, 42.409016012041484 ], [ 117.311745043245267, 42.409015978994724 ], [ 117.31174495405601, 42.408997967215313 ], [ 117.311751030394532, 42.408997950691457 ], [ 117.311750941203613, 42.408979938912012 ], [ 117.311757017540415, 42.408979922387843 ], [ 117.311756995242249, 42.408975419442974 ], [ 117.311763071578611, 42.408975402918493 ], [ 117.311763026981438, 42.408966397028742 ], [ 117.311787332323334, 42.408966330927605 ], [ 117.311787287722723, 42.408957325037868 ], [ 117.311769058718923, 42.408957374614189 ], [ 117.311769036419918, 42.408952871669307 ], [ 117.311750807417368, 42.408952921242729 ], [ 117.311750829715066, 42.408957424187612 ], [ 117.31172652437651, 42.408957490281011 ], [ 117.311726546672475, 42.408961993225901 ], [ 117.311720470337391, 42.408962009748443 ], [ 117.311720514928453, 42.40897101563823 ], [ 117.311714438592503, 42.408971032160466 ], [ 117.311714460887629, 42.408975535105363 ], [ 117.311702308214819, 42.408975568148854 ], [ 117.311702352803295, 42.408984574038627 ], [ 117.31170842914058, 42.408984557517044 ], [ 117.31170845143528, 42.40898906046192 ], [ 117.311714527772963, 42.408989043940004 ], [ 117.311714616953523, 42.409007055719485 ], [ 117.311720693292941, 42.409007039197235 ], [ 117.311720715588535, 42.409011542142103 ], [ 117.311732868268251, 42.409011509096636 ], [ 117.311732890564713, 42.409016012041484 ] ] ] } },
{ "type": "Feature", "properties": { "crown_id": 4343, "tree_id": "4345", "top_h_m": 21.731, "H_95_Mean": 20.6952, "DBH": 41.1012, "Carbon_kg": 327.673774, "area_m2": 65.5 }, "geometry": { "type": "Polygon", "coordinates": [ [ [ 117.311617239504656, 42.408975799417249 ], [ 117.311629392177593, 42.408975766382774 ], [ 117.311629369888564, 42.408971263437834 ], [ 117.311690133248618, 42.408971098246155 ], [ 117.311690155541996, 42.408975601191059 ], [ 117.311696231878415, 42.408975584670117 ], [ 117.311696209584611, 42.408971081725213 ], [ 117.311708362256539, 42.408971048682361 ], [ 117.311708339961868, 42.408966545737471 ], [ 117.311714416297391, 42.408966529215569 ], [ 117.311714371707211, 42.408957523325782 ], [ 117.311720448041882, 42.408957506803553 ], [ 117.311720425746344, 42.408953003858649 ], [ 117.311744731083166, 42.40895293776655 ], [ 117.311744708785909, 42.40894843482166 ], [ 117.311726479784596, 42.408948484391196 ], [ 117.31172645748866, 42.408943981446299 ], [ 117.311732533821996, 42.408943964923445 ], [ 117.311732444636547, 42.408925953143786 ], [ 117.311726368304932, 42.408925969666633 ], [ 117.31172627912126, 42.408907957886903 ], [ 117.31172020279142, 42.408907974409424 ], [ 117.311720180495925, 42.40890347146447 ], [ 117.311708027837071, 42.40890350450853 ], [ 117.311707983247885, 42.408894498618622 ], [ 117.311701906919311, 42.408894515140176 ], [ 117.311701884625165, 42.408890012195201 ], [ 117.31167757931253, 42.408890078278141 ], [ 117.311677601604941, 42.408894581223109 ], [ 117.311665448947707, 42.408894614262643 ], [ 117.311665515822355, 42.408908123097554 ], [ 117.31164728683261, 42.408908172654471 ], [ 117.311647353703378, 42.408921681489375 ], [ 117.311623048378408, 42.408921747560775 ], [ 117.311623115244032, 42.408935256395672 ], [ 117.31161703891145, 42.408935272912728 ], [ 117.311617105775824, 42.408948781747604 ], [ 117.31162318210967, 42.408948765230534 ], [ 117.31162322668682, 42.408957771120427 ], [ 117.311617150352077, 42.408957787637497 ], [ 117.311617194928345, 42.408966793527384 ], [ 117.311611118592751, 42.408966810044127 ], [ 117.311611140880473, 42.408971312989067 ], [ 117.311617217216508, 42.408971296472309 ], [ 117.311617239504656, 42.408975799417249 ] ] ] } },
{ "type": "Feature", "properties": { "crown_id": 4347, "tree_id": "4349", "top_h_m": 16.165, "H_95_Mean": 16.0535, "DBH": 32.9959, "Carbon_kg": 181.107735, "area_m2": 44.75 }, "geometry": { "type": "Polygon", "coordinates": [ [ [ 117.31181168226928, 42.408975270711025 ], [ 117.311817758605585, 42.40897525418363 ], [ 117.311817736303084, 42.408970751238776 ], [ 117.311823812638963, 42.408970734711083 ], [ 117.311823834941876, 42.40897523765593 ], [ 117.311835987614472, 42.408975204599543 ], [ 117.311835965310664, 42.40897070165471 ], [ 117.311842041646528, 42.408970685126029 ], [ 117.311842019342308, 42.408966182181196 ], [ 117.311854172013128, 42.408966149122897 ], [ 117.311854038182645, 42.408939131453813 ], [ 117.31186011451544, 42.408939114924202 ], [ 117.311859980682542, 42.408912097254998 ], [ 117.311853904352361, 42.408912113784595 ], [ 117.311853882047302, 42.408907610839712 ], [ 117.311835653058012, 42.408907660426593 ], [ 117.311835630754302, 42.408903157481689 ], [ 117.31179917277818, 42.40890325664671 ], [ 117.311799195079288, 42.408907759591621 ], [ 117.311780966089842, 42.40890780916979 ], [ 117.311780988389671, 42.408912312114694 ], [ 117.31177491205942, 42.408912328640113 ], [ 117.311774956658198, 42.408921334529943 ], [ 117.31178103298933, 42.408921318004516 ], [ 117.31178105528916, 42.40892582094942 ], [ 117.311774978957601, 42.408925837474847 ], [ 117.311775112754077, 42.408952855144193 ], [ 117.311793341756569, 42.408952805566905 ], [ 117.311793408658801, 42.408966314401511 ], [ 117.311805561329706, 42.408966281348363 ], [ 117.311805583631312, 42.408970784293224 ], [ 117.311811659967205, 42.408970767766164 ], [ 117.31181168226928, 42.408975270711025 ] ] ] } },
{ "type": "Feature", "properties": { "crown_id": 4469, "tree_id": "4471", "top_h_m": 11.544, "H_95_Mean": 11.3397, "DBH": 26.434, "Carbon_kg": 94.31039, "area_m2": 36.75 }, "geometry": { "type": "Polygon", "coordinates": [ [ [ 117.31183558614687, 42.408894151591895 ], [ 117.311859891460699, 42.40889408547546 ], [ 117.311859869155242, 42.408889582530563 ], [ 117.311865945483262, 42.40888956600066 ], [ 117.31186596778916, 42.408894068945543 ], [ 117.311872044117578, 42.40889405241532 ], [ 117.311872021811283, 42.408889549470423 ], [ 117.311878098139275, 42.408889532939874 ], [ 117.311878075832539, 42.408885029994977 ], [ 117.311884152160104, 42.408885013464101 ], [ 117.311884129852913, 42.408880510519211 ], [ 117.311896282507163, 42.408880477456499 ], [ 117.311896237891091, 42.408871471566734 ], [ 117.311890161564847, 42.408871488098242 ], [ 117.311890116949655, 42.408862482208434 ], [ 117.311902269600395, 42.408862449145104 ], [ 117.311902202675071, 42.408848940310399 ], [ 117.311896126350987, 42.40884895684222 ], [ 117.311896104042987, 42.408844453897309 ], [ 117.311877875072057, 42.408844503490833 ], [ 117.31187783045867, 42.408835497600968 ], [ 117.311853525167493, 42.408835563721141 ], [ 117.311853480557616, 42.408826557831247 ], [ 117.311841327913726, 42.40882659088939 ], [ 117.311841350217804, 42.40883109383433 ], [ 117.311835273895412, 42.408831110362925 ], [ 117.311835296199064, 42.408835613307879 ], [ 117.311823143553411, 42.408835646364096 ], [ 117.311823232764553, 42.408853658143883 ], [ 117.311817156439972, 42.408853674671512 ], [ 117.311817178742359, 42.408858177616452 ], [ 117.311811102417337, 42.408858194143761 ], [ 117.311811147021203, 42.408867200033633 ], [ 117.311817223347091, 42.408867183506317 ], [ 117.311817267951852, 42.408876189396167 ], [ 117.311823344278594, 42.408876172868524 ], [ 117.31182332197578, 42.408871669923599 ], [ 117.311829398302066, 42.408871653395629 ], [ 117.311829487515126, 42.408889665175302 ], [ 117.311835563843147, 42.408889648646984 ], [ 117.31183558614687, 42.408894151591895 ] ] ] } }
]
}
