{
"type": "FeatureCollection",
"name": "tile_24_23",
"crs": { "type": "name", "properties": { "name": "urn:ogc:def:crs:OGC:1.3:CRS84" } },
"features": [
{ "type": "Feature", "properties": { "crown_id": 7011, "tree_id": "7016", "top_h_m": 16.539, "H_95_Mean": 16.7308, "DBH": 19.1387, "Carbon_kg": 61.914548, "area_m2": 5.0 }, "geometry": { "type": "Polygon", "coordinates": [ [ [ 117.31545478275315, 42.407213634480058 ], [ 117.315460858917334, 42.407213617760142 ], [ 117.31546081379399, 42.407204611870796 ], [ 117.315466889957278, 42.407204595150553 ], [ 117.315466844833097, 42.407195589261214 ], [ 117.315460768670675, 42.40719560598145 ], [ 117.315460723547375, 42.407186600092075 ], [ 117.315448571224238, 42.407186633531573 ], [ 117.315448593785007, 42.407191136476264 ], [ 117.315442517622984, 42.407191153195527 ], [ 117.315442540183341, 42.407195656140217 ], [ 117.315436464020891, 42.407195672859167 ], [ 117.315436531700655, 42.407209181693212 ], [ 117.315454760191898, 42.407209131535382 ], [ 117.31545478275315, 42.407213634480058 ] ] ] } },
{ "type": "Feature", "properties": { "crown_id": 7016, "tree_id": "7021", "top_h_m": 16.101, "H_95_Mean": 16.0872, "DBH": 24.7068, "Carbon_kg": 101.214442, "area_m2": 14.5 }, "geometry": { "type": "Polygon", "coordinates": [ [ [ 117.315491262301961, 42.407218037100336 ], [ 117.315521643124796, 42.40721795348783 ], [ 117.315521597992756, 42.407208947598555 ], [ 117.315533750320128, 42.407208914151319 ], [ 117.315533682619503, 42.407195405317388 ], [ 117.315527606457124, 42.407195422041156 ], [ 117.315527583890685, 42.4071909190965 ], [ 117.315521507728747, 42.407190935819955 ], [ 117.315521462596777, 42.407181929930644 ], [ 117.315515386435692, 42.407181946653779 ], [ 117.315515363870148, 42.407177443709095 ], [ 117.31550321154883, 42.407177477154384 ], [ 117.315503234113521, 42.407181980099054 ], [ 117.315491081791308, 42.407182013543043 ], [ 117.315491104355132, 42.407186516487712 ], [ 117.315472875870469, 42.407186566651305 ], [ 117.315472920995518, 42.407195572540658 ], [ 117.315485073320346, 42.407195539098581 ], [ 117.315485141010569, 42.407209047932568 ], [ 117.315491217174269, 42.407209031211032 ], [ 117.315491262301961, 42.407218037100336 ] ] ] } },
{ "type": "Feature", "properties": { "crown_id": 7053, "tree_id": "7058", "top_h_m": 23.009, "H_95_Mean": 22.9782, "DBH": 37.8467, "Carbon_kg": 295.198045, "area_m2": 39.25 }, "geometry": { "type": "Polygon", "coordinates": [ [ [ 117.31537583772959, 42.407222857699125 ], [ 117.315394066224911, 42.407222807550944 ], [ 117.315393998554228, 42.407209298716879 ], [ 117.315400074718013, 42.407209282000174 ], [ 117.315400029603396, 42.407200276110778 ], [ 117.3154061057663, 42.407200259393761 ], [ 117.315406083208558, 42.407195756449063 ], [ 117.31540000704608, 42.407195773166073 ], [ 117.315399984488778, 42.407191270221361 ], [ 117.315393908326712, 42.407191286938058 ], [ 117.315393660201451, 42.407141754546025 ], [ 117.315387584044203, 42.407141771262374 ], [ 117.315387538931432, 42.407132765372864 ], [ 117.315375386618626, 42.407132798804561 ], [ 117.31537543172962, 42.407141804694085 ], [ 117.315369355572315, 42.407141821409446 ], [ 117.315369378127414, 42.407146324354223 ], [ 117.315363301969668, 42.407146341069272 ], [ 117.315363347078957, 42.407155346958774 ], [ 117.315357270920359, 42.40715536367351 ], [ 117.315357293474577, 42.407159866618258 ], [ 117.31534514115647, 42.407159900046778 ], [ 117.315345163709836, 42.407164402991526 ], [ 117.31532693523134, 42.407164453131884 ], [ 117.315327070543788, 42.407191470800377 ], [ 117.315333146705882, 42.407191454087226 ], [ 117.315333169258409, 42.407195957031973 ], [ 117.315339245420958, 42.407195940318495 ], [ 117.315339335632871, 42.407213952097393 ], [ 117.315363640289917, 42.40721388524026 ], [ 117.315363662844632, 42.407218388184958 ], [ 117.315375815174008, 42.407218354754448 ], [ 117.31537583772959, 42.407222857699125 ] ] ] } },
{ "type": "Feature", "properties": { "crown_id": 7054, "tree_id": "7059", "top_h_m": 20.941, "H_95_Mean": 20.7691, "DBH": 26.731, "Carbon_kg": 137.969967, "area_m2": 12.25 }, "geometry": { "type": "Polygon", "coordinates": [ [ [ 117.315412181929204, 42.407200242676424 ], [ 117.315430410417918, 42.407200192522474 ], [ 117.315430365298951, 42.407191186633085 ], [ 117.315436441460989, 42.407191169914469 ], [ 117.315436418901058, 42.407186666969778 ], [ 117.315442495062641, 42.407186650250836 ], [ 117.315442472502312, 42.407182147306138 ], [ 117.315436396341156, 42.40718216402508 ], [ 117.315436373781282, 42.407177661080397 ], [ 117.315430297620551, 42.407177677798991 ], [ 117.315430184823299, 42.407155163075416 ], [ 117.31539980403052, 42.407155246663592 ], [ 117.315399961931462, 42.407186767276663 ], [ 117.315406038093073, 42.407186750559646 ], [ 117.315406060650815, 42.407191253504365 ], [ 117.315412136812867, 42.407191236787021 ], [ 117.315412181929204, 42.407200242676424 ] ] ] } },
{ "type": "Feature", "properties": { "crown_id": 7068, "tree_id": "7073", "top_h_m": 20.771, "H_95_Mean": 21.1131, "DBH": 32.7842, "Carbon_kg": 210.221039, "area_m2": 26.25 }, "geometry": { "type": "Polygon", "coordinates": [ [ [ 117.31529070376898, 42.407209582851486 ], [ 117.315302856096721, 42.407209549428714 ], [ 117.315302833546369, 42.407205046483988 ], [ 117.315333214363477, 42.407204962921433 ], [ 117.31533319181095, 42.407200459976693 ], [ 117.315327115647975, 42.407200476689852 ], [ 117.315327093095874, 42.407195973745118 ], [ 117.315321016933325, 42.407195990457943 ], [ 117.315320859071832, 42.407164469844702 ], [ 117.31531478291231, 42.407164486557178 ], [ 117.315314692707602, 42.407146474778088 ], [ 117.315308616549842, 42.407146491490245 ], [ 117.315308593999092, 42.407141988545455 ], [ 117.315302517841729, 42.407142005257299 ], [ 117.315302495291448, 42.407137502312501 ], [ 117.315290342977619, 42.407137535735188 ], [ 117.315290365527034, 42.407142038679986 ], [ 117.315284289369671, 42.40714205539085 ], [ 117.31528431191866, 42.407146558335647 ], [ 117.315278235760843, 42.407146575046198 ], [ 117.315278258309419, 42.407151077990981 ], [ 117.315272182151162, 42.407151094701199 ], [ 117.315272227247434, 42.407160100590787 ], [ 117.315278303406558, 42.407160083880548 ], [ 117.315278371052301, 42.407173592714891 ], [ 117.315272294891884, 42.407173609425129 ], [ 117.315272362536376, 42.407187118259451 ], [ 117.315266286374666, 42.407187134969369 ], [ 117.315266308922403, 42.407191637914138 ], [ 117.315272385084555, 42.407191621204205 ], [ 117.315272407632747, 42.407196124148975 ], [ 117.315278483795325, 42.407196107438722 ], [ 117.315278506343958, 42.407200610383477 ], [ 117.315284582506976, 42.407200593672904 ], [ 117.315284605056036, 42.407205096617652 ], [ 117.31529068121948, 42.407205079906753 ], [ 117.31529070376898, 42.407209582851486 ] ] ] } },
{ "type": "Feature", "properties": { "crown_id": 7089, "tree_id": "7094", "top_h_m": 21.964, "H_95_Mean": 21.9224, "DBH": 28.892, "Carbon_kg": 166.615022, "area_m2": 15.0 }, "geometry": { "type": "Polygon", "coordinates": [ [ [ 117.315448548663468, 42.407182130586889 ], [ 117.315485005630208, 42.407182030264558 ], [ 117.315484983066838, 42.407177527319874 ], [ 117.315491059227512, 42.407177510598373 ], [ 117.315491036663687, 42.407173007653689 ], [ 117.315497112823934, 42.407172990931848 ], [ 117.315497090259697, 42.407168487987171 ], [ 117.315491014099891, 42.407168504709006 ], [ 117.315490991536095, 42.407164001764322 ], [ 117.315484915376757, 42.407164018485823 ], [ 117.315484892813387, 42.407159515541125 ], [ 117.315478816654448, 42.407159532262305 ], [ 117.315478794091547, 42.4071550293176 ], [ 117.315472717933034, 42.407155046038454 ], [ 117.315472672808085, 42.407146040149044 ], [ 117.315436215862135, 42.407146140467383 ], [ 117.315436351221379, 42.407173158135677 ], [ 117.315442427381669, 42.407173141416742 ], [ 117.315442449941969, 42.407177644361454 ], [ 117.315448526102699, 42.407177627642191 ], [ 117.315448548663468, 42.407182130586889 ] ] ] } },
{ "type": "Feature", "properties": { "crown_id": 7097, "tree_id": "7102", "top_h_m": 21.583, "H_95_Mean": 21.5826, "DBH": 21.3264, "Carbon_kg": 89.523874, "area_m2": 4.75 }, "geometry": { "type": "Polygon", "coordinates": [ [ [ 117.3153208365202, 42.407159966899933 ], [ 117.315339064997431, 42.407159916760548 ], [ 117.315339042444506, 42.407155413815786 ], [ 117.315351194761746, 42.407155380387913 ], [ 117.31535117220794, 42.407150877443165 ], [ 117.315357248366155, 42.407150860728756 ], [ 117.315357203257719, 42.407141854839232 ], [ 117.315326822471107, 42.407141938408039 ], [ 117.315326845023151, 42.407146441352815 ], [ 117.315320768865377, 42.407146458065618 ], [ 117.3153208365202, 42.407159966899933 ] ] ] } },
{ "type": "Feature", "properties": { "crown_id": 7107, "tree_id": "7112", "top_h_m": 20.636, "H_95_Mean": 20.5384, "DBH": 25.71, "Carbon_kg": 126.71473, "area_m2": 10.75 }, "geometry": { "type": "Polygon", "coordinates": [ [ [ 117.315503188984167, 42.407172974209708 ], [ 117.315515341304589, 42.407172940764426 ], [ 117.315515205911453, 42.407145923096337 ], [ 117.315521282069071, 42.407145906373238 ], [ 117.315521214371245, 42.407132397539144 ], [ 117.315490833589706, 42.407132481151407 ], [ 117.315490811025953, 42.407127978206695 ], [ 117.31548473487004, 42.407127994928175 ], [ 117.315484779996694, 42.407137000817599 ], [ 117.315478703839915, 42.407137017538766 ], [ 117.315478771528632, 42.407150526372902 ], [ 117.31548484768669, 42.407150509651728 ], [ 117.315484870250046, 42.407155012596419 ], [ 117.315490946408531, 42.407154995874933 ], [ 117.315490968972327, 42.407159498819617 ], [ 117.315497045131238, 42.407159482097804 ], [ 117.315497067695475, 42.407163985042487 ], [ 117.315503143854812, 42.407163968320354 ], [ 117.315503188984167, 42.407172974209708 ] ] ] } },
{ "type": "Feature", "properties": { "crown_id": 7138, "tree_id": "7143", "top_h_m": 24.69, "H_95_Mean": 24.3093, "DBH": 32.1271, "Carbon_kg": 219.362955, "area_m2": 18.75 }, "geometry": { "type": "Polygon", "coordinates": [ [ [ 117.315399781473232, 42.407150743718859 ], [ 117.31543016226388, 42.407150660130704 ], [ 117.315429959229206, 42.407110133628017 ], [ 117.315436035383414, 42.40711011690945 ], [ 117.315435990263794, 42.407101111019934 ], [ 117.315429914110467, 42.407101127738493 ], [ 117.315429891551105, 42.407096624793731 ], [ 117.315411663092377, 42.407096674947496 ], [ 117.315411685650446, 42.407101177892265 ], [ 117.315399533343736, 42.407101211326513 ], [ 117.315399555900939, 42.407105714271282 ], [ 117.315387403593334, 42.407105747704243 ], [ 117.315387448706019, 42.407114753593802 ], [ 117.315381372551329, 42.407114770309803 ], [ 117.315381440219113, 42.407128279144111 ], [ 117.315393592531066, 42.407128245711768 ], [ 117.315393637644661, 42.407137251601284 ], [ 117.315399713801483, 42.407137234884623 ], [ 117.315399781473232, 42.407150743718859 ] ] ] } },
{ "type": "Feature", "properties": { "crown_id": 7139, "tree_id": "7144", "top_h_m": 23.949, "H_95_Mean": 23.8089, "DBH": 28.9503, "Carbon_kg": 175.664179, "area_m2": 13.0 }, "geometry": { "type": "Polygon", "coordinates": [ [ [ 117.315436193302276, 42.407141637522642 ], [ 117.31547265024561, 42.407141537204332 ], [ 117.315472605120689, 42.407132531314886 ], [ 117.315478681277042, 42.407132514594061 ], [ 117.315478613588397, 42.407119005759874 ], [ 117.315472537433379, 42.407119022480707 ], [ 117.315472492308501, 42.407110016591233 ], [ 117.315466416154351, 42.407110033311746 ], [ 117.315466393592359, 42.407105530366998 ], [ 117.315460317438607, 42.40710554708717 ], [ 117.315460294877084, 42.407101044142429 ], [ 117.315448142570446, 42.407101077581821 ], [ 117.315448120009776, 42.407096574637066 ], [ 117.315442043856891, 42.407096591356286 ], [ 117.315442134097879, 42.407114603135305 ], [ 117.315436057943245, 42.407114619854198 ], [ 117.315436193302276, 42.407141637522642 ] ] ] } },
{ "type": "Feature", "properties": { "crown_id": 7151, "tree_id": "7156", "top_h_m": 21.724, "H_95_Mean": 21.691, "DBH": 29.8014, "Carbon_kg": 176.244267, "area_m2": 17.25 }, "geometry": { "type": "Polygon", "coordinates": [ [ [ 117.31531467015644, 42.407141971833312 ], [ 117.315320746313802, 42.407141955120835 ], [ 117.315320723762184, 42.407137452176052 ], [ 117.315357180703515, 42.407137351894463 ], [ 117.315357158149311, 42.407132848949693 ], [ 117.315369310462174, 42.40713281551993 ], [ 117.315369287907131, 42.407128312575161 ], [ 117.315375364063115, 42.407128295859799 ], [ 117.31537531895215, 42.407119289970247 ], [ 117.315363166641902, 42.407119323400643 ], [ 117.315363144087286, 42.407114820455867 ], [ 117.315344915623157, 42.407114870599038 ], [ 117.315344893069877, 42.407110367654248 ], [ 117.315332740761306, 42.407110401081404 ], [ 117.315332718208879, 42.407105898136599 ], [ 117.315326642055027, 42.407105914849694 ], [ 117.31532661950304, 42.407101411904897 ], [ 117.315320543349628, 42.407101428617665 ], [ 117.31532056590116, 42.407105931562484 ], [ 117.315314489747308, 42.407105948274925 ], [ 117.315314512298428, 42.407110451219737 ], [ 117.315302359989815, 42.407110484643695 ], [ 117.315302382540068, 42.407114987588493 ], [ 117.315296306385335, 42.407115004299982 ], [ 117.315296396584685, 42.407133016079214 ], [ 117.315308548897661, 42.407132982655881 ], [ 117.315308571448384, 42.407137485600671 ], [ 117.315314647605277, 42.407137468888529 ], [ 117.31531467015644, 42.407141971833312 ] ] ] } },
{ "type": "Feature", "properties": { "crown_id": 7171, "tree_id": "7176", "top_h_m": 23.965, "H_95_Mean": 23.7049, "DBH": 32.9869, "Carbon_kg": 227.936408, "area_m2": 21.75 }, "geometry": { "type": "Polygon", "coordinates": [ [ [ 117.315496887181837, 42.407127961484882 ], [ 117.315521191805345, 42.407127894594446 ], [ 117.315521169239403, 42.407123391649726 ], [ 117.315527245394833, 42.407123374926314 ], [ 117.315527222828493, 42.407118871981616 ], [ 117.315533298983496, 42.407118855257885 ], [ 117.315533276416687, 42.407114352313179 ], [ 117.31553935257125, 42.407114335589128 ], [ 117.315539330004043, 42.407109832644416 ], [ 117.315533253849921, 42.407109849368467 ], [ 117.315533231283169, 42.407105346423741 ], [ 117.315527155129473, 42.407105363147473 ], [ 117.315527087430496, 42.4070918543133 ], [ 117.315521011278122, 42.407091871036691 ], [ 117.315520988712237, 42.407087368091958 ], [ 117.315514912560303, 42.407087384815021 ], [ 117.315514844863998, 42.407073875980792 ], [ 117.31549661641202, 42.407073926148051 ], [ 117.315496638976114, 42.407078429092806 ], [ 117.31548448667391, 42.407078462536035 ], [ 117.315484531800436, 42.407087468425544 ], [ 117.315472379496441, 42.407087501867494 ], [ 117.315472424621262, 42.407096507757004 ], [ 117.315466348468405, 42.407096524477495 ], [ 117.315466371030368, 42.407101027422257 ], [ 117.31547244718368, 42.407101010701744 ], [ 117.315472469746084, 42.407105513646492 ], [ 117.315478545899836, 42.407105496925674 ], [ 117.315478591025538, 42.407114502815148 ], [ 117.315484667180129, 42.407114486093995 ], [ 117.315484712306727, 42.407123491983441 ], [ 117.315496864617671, 42.407123458540163 ], [ 117.315496887181837, 42.407127961484882 ] ] ] } },
{ "type": "Feature", "properties": { "crown_id": 7190, "tree_id": "7195", "top_h_m": 24.55, "H_95_Mean": 24.6306, "DBH": 33.4856, "Carbon_kg": 240.318853, "area_m2": 21.5 }, "geometry": { "type": "Polygon", "coordinates": [ [ [ 117.315369220241976, 42.407114803740825 ], [ 117.315375296396667, 42.407114787025478 ], [ 117.315375273841184, 42.407110284080701 ], [ 117.31538134999542, 42.40711026736502 ], [ 117.315381327439511, 42.407105764420237 ], [ 117.315375251285715, 42.407105781135911 ], [ 117.315375070842137, 42.40706975757751 ], [ 117.315362918541453, 42.407069791007849 ], [ 117.315362873432363, 42.407060785118212 ], [ 117.31535679728286, 42.407060801832891 ], [ 117.315356752174651, 42.407051795943225 ], [ 117.315338523728784, 42.407051846085324 ], [ 117.315338568834392, 42.407060851974997 ], [ 117.315332492684888, 42.40706086868839 ], [ 117.315332515237259, 42.40706537163323 ], [ 117.315320362937371, 42.407065405059051 ], [ 117.315320408040407, 42.407074410948738 ], [ 117.315326484191232, 42.40707439423597 ], [ 117.315326596951053, 42.407096908960085 ], [ 117.315332673104038, 42.40709689224699 ], [ 117.315332695656465, 42.407101395191802 ], [ 117.315338771809877, 42.407101378478387 ], [ 117.315338794362731, 42.407105881423185 ], [ 117.315350946670407, 42.407105847995382 ], [ 117.315350969224127, 42.407110350940179 ], [ 117.315369197686934, 42.407110300796056 ], [ 117.315369220241976, 42.407114803740825 ] ] ] } },
{ "type": "Feature", "properties": { "crown_id": 7203, "tree_id": "7208", "top_h_m": 23.869, "H_95_Mean": 23.7507, "DBH": 28.018, "Carbon_kg": 164.21108, "area_m2": 11.5 }, "geometry": { "type": "Polygon", "coordinates": [ [ [ 117.315290207681201, 42.407110518066354 ], [ 117.315296283835508, 42.407110501355177 ], [ 117.315296261285681, 42.407105998410358 ], [ 117.315308413593428, 42.407105964987061 ], [ 117.315308391042763, 42.407101462042249 ], [ 117.315314467196174, 42.40710144533012 ], [ 117.315314444645082, 42.407096942385294 ], [ 117.315320520798068, 42.40709692567286 ], [ 117.31532043059191, 42.407078913893564 ], [ 117.315314354440659, 42.407078930606005 ], [ 117.315314309338504, 42.407069924716325 ], [ 117.315296080887308, 42.407069974851687 ], [ 117.315296103437092, 42.407074477796534 ], [ 117.315290027286238, 42.407074494507683 ], [ 117.315290072384954, 42.40708350039737 ], [ 117.315283996233234, 42.407083517108191 ], [ 117.315284018782151, 42.407088020053038 ], [ 117.315271866477829, 42.407088053473736 ], [ 117.315271911573944, 42.407097059363416 ], [ 117.315277987726986, 42.40709704265322 ], [ 117.315278032824025, 42.407106048542879 ], [ 117.315290185131801, 42.407106015121521 ], [ 117.315290207681201, 42.407110518066354 ] ] ] } },
{ "type": "Feature", "properties": { "crown_id": 7222, "tree_id": "7227", "top_h_m": 23.652, "H_95_Mean": 23.3338, "DBH": 31.7291, "Carbon_kg": 208.80053, "area_m2": 19.25 }, "geometry": { "type": "Polygon", "coordinates": [ [ [ 117.31538130488363, 42.407101261475454 ], [ 117.315393457190368, 42.407101228043153 ], [ 117.315393434633592, 42.40709672509837 ], [ 117.315405586939463, 42.407096691664783 ], [ 117.31540556438182, 42.40709218872 ], [ 117.315442021296661, 42.40709208841151 ], [ 117.315441953615988, 42.407078579577203 ], [ 117.315435877464836, 42.407078596296081 ], [ 117.315435787225752, 42.40706058451692 ], [ 117.315429711076334, 42.407060601235465 ], [ 117.315429688516986, 42.407056098290667 ], [ 117.315423612367994, 42.407056115008885 ], [ 117.315423589809129, 42.40705161206408 ], [ 117.315411437511983, 42.40705164549955 ], [ 117.31541146007001, 42.407056148444362 ], [ 117.315399307771983, 42.407056181878545 ], [ 117.315399330329129, 42.407060684823357 ], [ 117.315387178030235, 42.407060718256268 ], [ 117.315387223142821, 42.407069724145877 ], [ 117.315381146992479, 42.407069740861871 ], [ 117.31538130488363, 42.407101261475454 ] ] ] } },
{ "type": "Feature", "properties": { "crown_id": 7223, "tree_id": "7228", "top_h_m": 23.469, "H_95_Mean": 23.2325, "DBH": 28.3309, "Carbon_kg": 165.751393, "area_m2": 12.5 }, "geometry": { "type": "Polygon", "coordinates": [ [ [ 117.315454196162662, 42.407096557917527 ], [ 117.315460272315519, 42.407096541197681 ], [ 117.315460249753997, 42.407092038252927 ], [ 117.315466325906414, 42.407092021532755 ], [ 117.315466280782488, 42.407083015643231 ], [ 117.315478433085616, 42.407082982201914 ], [ 117.315478387959971, 42.407073976312404 ], [ 117.315484464110639, 42.407073959591273 ], [ 117.315484441547412, 42.407069456646511 ], [ 117.315490517697654, 42.407069439925053 ], [ 117.315490472570289, 42.407060434035522 ], [ 117.315496548719651, 42.407060417313758 ], [ 117.315496503591447, 42.407051411424206 ], [ 117.315484351294458, 42.407051444867413 ], [ 117.315484373857672, 42.407055947812196 ], [ 117.315447916963933, 42.407056048134073 ], [ 117.315447939524574, 42.407060551078864 ], [ 117.315441863375142, 42.407060567798055 ], [ 117.315441931055773, 42.407074076632412 ], [ 117.31544800720647, 42.407074059913228 ], [ 117.315448097449107, 42.407092071692311 ], [ 117.315454173601537, 42.407092054972772 ], [ 117.315454196162662, 42.407096557917527 ] ] ] } },
{ "type": "Feature", "properties": { "crown_id": 7250, "tree_id": "7256", "top_h_m": 24.876, "H_95_Mean": 24.6365, "DBH": 28.1792, "Carbon_kg": 169.757847, "area_m2": 11.0 }, "geometry": { "type": "Polygon", "coordinates": [ [ [ 117.315496593847882, 42.407069423203282 ], [ 117.315520898448781, 42.407069356312974 ], [ 117.315520875882925, 42.407064853368226 ], [ 117.315539104332245, 42.407064803197116 ], [ 117.315539081765095, 42.407060300252375 ], [ 117.315545157914443, 42.407060283528033 ], [ 117.315545022509014, 42.407033265859489 ], [ 117.315520717922112, 42.407033332754857 ], [ 117.31552076305374, 42.407042338644409 ], [ 117.315508610758513, 42.407042372090167 ], [ 117.315508655888436, 42.407051377979727 ], [ 117.315502579739956, 42.40705139470213 ], [ 117.315502647433561, 42.40706490353643 ], [ 117.315496571283759, 42.407064920258513 ], [ 117.315496593847882, 42.407069423203282 ] ] ] } },
{ "type": "Feature", "properties": { "crown_id": 7261, "tree_id": "7267", "top_h_m": 23.9, "H_95_Mean": 23.4979, "DBH": 31.3994, "Carbon_kg": 205.299871, "area_m2": 18.25 }, "geometry": { "type": "Polygon", "coordinates": [ [ [ 117.31536897213681, 42.407065271348031 ], [ 117.315381124436612, 42.407065237917045 ], [ 117.315381079324922, 42.407056232027422 ], [ 117.315393231622963, 42.407056198595164 ], [ 117.315393209066258, 42.407051695650338 ], [ 117.315405361363432, 42.407051662216801 ], [ 117.315405338805846, 42.407047159271976 ], [ 117.315417491102124, 42.407047125837167 ], [ 117.315417445985247, 42.407038119947529 ], [ 117.315411369837975, 42.407038136665101 ], [ 117.315411279606025, 42.407020124885776 ], [ 117.3154052034605, 42.407020141603006 ], [ 117.315405180902957, 42.407015638658173 ], [ 117.31539302861276, 42.407015672091667 ], [ 117.315393006056084, 42.40701116914682 ], [ 117.31537477762204, 42.407011219294631 ], [ 117.315374867843516, 42.407029231074041 ], [ 117.315362715550648, 42.407029264504331 ], [ 117.315362738105179, 42.407033767449178 ], [ 117.315356661958305, 42.40703378416385 ], [ 117.315356729620561, 42.407047292998385 ], [ 117.315362805768729, 42.407047276283706 ], [ 117.315362850877804, 42.407056282173379 ], [ 117.315368927026839, 42.40705626545838 ], [ 117.31536897213681, 42.407065271348031 ] ] ] } },
{ "type": "Feature", "properties": { "crown_id": 7262, "tree_id": "7268", "top_h_m": 21.654, "H_95_Mean": 21.5318, "DBH": 24.1661, "Carbon_kg": 115.014481, "area_m2": 7.75 }, "geometry": { "type": "Polygon", "coordinates": [ [ [ 117.315435764665978, 42.407056081572129 ], [ 117.31544184081497, 42.407056064853265 ], [ 117.315441818254783, 42.40705156190846 ], [ 117.315478275145935, 42.40705146158853 ], [ 117.315478230020375, 42.407042455698956 ], [ 117.315472153872733, 42.407042472419732 ], [ 117.31547210874804, 42.407033466530144 ], [ 117.315441728014079, 42.407033550129228 ], [ 117.315441750574237, 42.407038053074047 ], [ 117.315423522132505, 42.407038103229638 ], [ 117.315423567250249, 42.407047109119269 ], [ 117.315429643398375, 42.407047092401051 ], [ 117.315429665957666, 42.40705159534587 ], [ 117.315435742106217, 42.407051578627325 ], [ 117.315435764665978, 42.407056081572129 ] ] ] } },
{ "type": "Feature", "properties": { "crown_id": 7290, "tree_id": "7296", "top_h_m": 23.858, "H_95_Mean": 23.7492, "DBH": 26.1124, "Carbon_kg": 142.472717, "area_m2": 8.75 }, "geometry": { "type": "Polygon", "coordinates": [ [ [ 117.31548432873123, 42.40704694192263 ], [ 117.315502557175421, 42.407046891757361 ], [ 117.315502512046379, 42.407037885867787 ], [ 117.315514664340753, 42.407037852422668 ], [ 117.315514619210006, 42.407028846533116 ], [ 117.315532847648882, 42.407028796363043 ], [ 117.315532802515548, 42.40701979047347 ], [ 117.315526726370109, 42.407019807197152 ], [ 117.315526703803897, 42.407015304252354 ], [ 117.315520627658898, 42.407015320975709 ], [ 117.315520605093099, 42.407010818030905 ], [ 117.315502376659381, 42.407010868199016 ], [ 117.315502421788381, 42.407019874088618 ], [ 117.315496345642913, 42.407019890810702 ], [ 117.315496390771045, 42.407028896700282 ], [ 117.315490314624725, 42.407028913422039 ], [ 117.315490337188351, 42.407033416366836 ], [ 117.315478184894815, 42.407033449809362 ], [ 117.315478207457588, 42.407037952754159 ], [ 117.315484283604803, 42.407037936033049 ], [ 117.31548432873123, 42.40704694192263 ] ] ] } },
{ "type": "Feature", "properties": { "crown_id": 7311, "tree_id": "7317", "top_h_m": 24.382, "H_95_Mean": 24.163, "DBH": 32.7811, "Carbon_kg": 227.641941, "area_m2": 20.5 }, "geometry": { "type": "Polygon", "coordinates": [ [ [ 117.315326348879594, 42.407047376566915 ], [ 117.315350653472379, 42.407047309712738 ], [ 117.31535056325778, 42.407029297933335 ], [ 117.315356639404229, 42.407029281218996 ], [ 117.315356616850153, 42.407024778274142 ], [ 117.315368769142154, 42.407024744844506 ], [ 117.315368678922439, 42.407006733065074 ], [ 117.315350450489632, 42.407006783209013 ], [ 117.315350405382389, 42.406997777319262 ], [ 117.315344329238997, 42.406997794033259 ], [ 117.315344284132649, 42.406988788143494 ], [ 117.315332131847569, 42.406988821570508 ], [ 117.315332176952168, 42.406997827460295 ], [ 117.315320024665297, 42.406997860886044 ], [ 117.31532004721673, 42.407002363830919 ], [ 117.315313971072882, 42.407002380543318 ], [ 117.315314016174895, 42.407011386433112 ], [ 117.315301863885395, 42.407011419856936 ], [ 117.315301908985703, 42.407020425746715 ], [ 117.315314061276922, 42.407020392322863 ], [ 117.315314128930012, 42.40703390115749 ], [ 117.315320205076929, 42.407033884445084 ], [ 117.31532025017988, 42.407042890334807 ], [ 117.31532632632765, 42.407042873622061 ], [ 117.315326348879594, 42.407047376566915 ] ] ] } },
{ "type": "Feature", "properties": { "crown_id": 7327, "tree_id": "7333", "top_h_m": 25.568, "H_95_Mean": 25.3008, "DBH": 33.0673, "Carbon_kg": 238.056786, "area_m2": 19.5 }, "geometry": { "type": "Polygon", "coordinates": [ [ [ 117.315417423426808, 42.407033617002703 ], [ 117.315435651867276, 42.407033566848078 ], [ 117.315435629307544, 42.407029063903266 ], [ 117.31545993389301, 42.40702899702594 ], [ 117.315459730840061, 42.406988470522521 ], [ 117.315447578555151, 42.406988503961777 ], [ 117.315447533434067, 42.406979498072083 ], [ 117.315423228867672, 42.40697956494671 ], [ 117.315423251426481, 42.406984067891571 ], [ 117.315417175284438, 42.406984084609427 ], [ 117.315417265517951, 42.407002096388851 ], [ 117.315411189374174, 42.407002113106387 ], [ 117.315411257048055, 42.407015621940928 ], [ 117.315417333193153, 42.407015605223378 ], [ 117.315417423426808, 42.407033617002703 ] ] ] } },
{ "type": "Feature", "properties": { "crown_id": 7328, "tree_id": "7334", "top_h_m": 25.083, "H_95_Mean": 25.0797, "DBH": 30.6463, "Carbon_kg": 203.176327, "area_m2": 14.75 }, "geometry": { "type": "Polygon", "coordinates": [ [ [ 117.315466010039344, 42.407028980305803 ], [ 117.315484238478376, 42.407028930143461 ], [ 117.315484215915191, 42.407024427198657 ], [ 117.315490292061085, 42.407024410477234 ], [ 117.31549024693382, 42.407015404587632 ], [ 117.315496323078847, 42.40701538786589 ], [ 117.315496277950771, 42.407006381976281 ], [ 117.315508430239049, 42.407006348531844 ], [ 117.315508317414555, 42.406983833807764 ], [ 117.315484012846625, 42.406983900695295 ], [ 117.315483990283496, 42.406979397750462 ], [ 117.315465761858803, 42.406979447912718 ], [ 117.315466010039344, 42.407028980305803 ] ] ] } },
{ "type": "Feature", "properties": { "crown_id": 7345, "tree_id": "7351", "top_h_m": 24.094, "H_95_Mean": 24.1059, "DBH": 26.2959, "Carbon_kg": 145.777549, "area_m2": 8.75 }, "geometry": { "type": "Polygon", "coordinates": [ [ [ 117.315301841335256, 42.407006916912046 ], [ 117.315307917479572, 42.407006900200287 ], [ 117.31530787237844, 42.406997894310493 ], [ 117.315313948521876, 42.406997877598428 ], [ 117.315313925970884, 42.406993374653531 ], [ 117.315326078256888, 42.406993341228429 ], [ 117.315326033153156, 42.406984335338628 ], [ 117.315332109295284, 42.406984318625611 ], [ 117.315332086743012, 42.406979815680707 ], [ 117.315326010601325, 42.406979832393723 ], [ 117.31532598804948, 42.406975329448827 ], [ 117.315289531201842, 42.406975429720191 ], [ 117.31528957630033, 42.406984435610035 ], [ 117.315283500158188, 42.406984452320799 ], [ 117.315283545255795, 42.406993458210636 ], [ 117.315289621398833, 42.40699344149985 ], [ 117.31528966649735, 42.407002447389672 ], [ 117.31530181878513, 42.407002413967149 ], [ 117.315301841335256, 42.407006916912046 ] ] ] } },
{ "type": "Feature", "properties": { "crown_id": 7346, "tree_id": "7352", "top_h_m": 24.84, "H_95_Mean": 24.4512, "DBH": 30.6733, "Carbon_kg": 200.504799, "area_m2": 15.5 }, "geometry": { "type": "Polygon", "coordinates": [ [ [ 117.315526681237657, 42.407010801307564 ], [ 117.315532757382229, 42.40701078458391 ], [ 117.315532734815577, 42.407006281639106 ], [ 117.31553881095968, 42.407006264915118 ], [ 117.315538788392601, 42.407001761970328 ], [ 117.315550940679955, 42.407001728521386 ], [ 117.315550895544064, 42.406992722631806 ], [ 117.315556971686874, 42.406992705906852 ], [ 117.315556949118502, 42.406988202962054 ], [ 117.315563025260843, 42.406988186236788 ], [ 117.315562957554476, 42.406974677402388 ], [ 117.315556881413414, 42.406974694127634 ], [ 117.315556858845071, 42.406970191182822 ], [ 117.315550782704449, 42.406970207907762 ], [ 117.315550760136531, 42.406965704962943 ], [ 117.315544683996322, 42.406965721687548 ], [ 117.315544661428859, 42.40696121874273 ], [ 117.315538585289104, 42.406961235467008 ], [ 117.315538562722054, 42.406956732522183 ], [ 117.315532486582725, 42.406956749246135 ], [ 117.315532509149321, 42.406961252190982 ], [ 117.315526433009538, 42.406961268914614 ], [ 117.315526478141891, 42.40697027480428 ], [ 117.315520402001226, 42.4069702915276 ], [ 117.315520424566984, 42.406974794472426 ], [ 117.315514348425879, 42.406974811195433 ], [ 117.315514506383181, 42.407006331809143 ], [ 117.315526658671445, 42.407006298362774 ], [ 117.315526681237657, 42.407010801307564 ] ] ] } },
{ "type": "Feature", "properties": { "crown_id": 7356, "tree_id": "7362", "top_h_m": 23.894, "H_95_Mean": 23.7466, "DBH": 28.9147, "Carbon_kg": 174.957739, "area_m2": 13.0 }, "geometry": { "type": "Polygon", "coordinates": [ [ [ 117.315399082200756, 42.407011152430229 ], [ 117.315405158345413, 42.407011135713326 ], [ 117.315405090672854, 42.406997626878763 ], [ 117.315411166816233, 42.40699761016154 ], [ 117.315411076584454, 42.406979598382094 ], [ 117.31541715272607, 42.406979581664565 ], [ 117.315417107609363, 42.406970575774828 ], [ 117.315404955327864, 42.406970609209566 ], [ 117.31540497788535, 42.406975112154434 ], [ 117.315386749461766, 42.406975162304121 ], [ 117.315386772017945, 42.406979665249004 ], [ 117.315380695876314, 42.406979681964934 ], [ 117.315380718432067, 42.40698418490981 ], [ 117.31536856614791, 42.406984218340689 ], [ 117.315368588702796, 42.406988721285572 ], [ 117.315350360275204, 42.406988771429496 ], [ 117.315350382828797, 42.406993274374372 ], [ 117.315356458971763, 42.406993257660055 ], [ 117.315356504079872, 42.407002263549813 ], [ 117.315374732511344, 42.407002213404901 ], [ 117.315374755066699, 42.407006716349777 ], [ 117.315399059643681, 42.407006649485382 ], [ 117.315399082200756, 42.407011152430229 ] ] ] } },
{ "type": "Feature", "properties": { "crown_id": 7391, "tree_id": "7397", "top_h_m": 24.625, "H_95_Mean": 24.3435, "DBH": 33.2018, "Carbon_kg": 234.598902, "area_m2": 21.25 }, "geometry": { "type": "Polygon", "coordinates": [ [ [ 117.315338185437398, 42.406984301912253 ], [ 117.315362490005811, 42.406984235055646 ], [ 117.315362467451351, 42.406979732110763 ], [ 117.315374619734655, 42.406979698680523 ], [ 117.315374597179357, 42.40697519573564 ], [ 117.315380673320561, 42.406975179020037 ], [ 117.315380650764808, 42.406970676075161 ], [ 117.3153988791871, 42.406970625926441 ], [ 117.315398766401898, 42.406948111201984 ], [ 117.315392690263323, 42.406948127918533 ], [ 117.315392667706746, 42.406943624973628 ], [ 117.315380515430419, 42.406943658405758 ], [ 117.31538053798613, 42.406948161350655 ], [ 117.315319776599878, 42.406948328491971 ], [ 117.315319889356815, 42.406970843216605 ], [ 117.315332041638442, 42.406970809790899 ], [ 117.315332064190713, 42.406975312735803 ], [ 117.315338140331974, 42.406975296022459 ], [ 117.315338185437398, 42.406984301912253 ] ] ] } },
{ "type": "Feature", "properties": { "crown_id": 7392, "tree_id": "7398", "top_h_m": 25.159, "H_95_Mean": 25.0687, "DBH": 31.6604, "Carbon_kg": 216.898286, "area_m2": 16.75 }, "geometry": { "type": "Polygon", "coordinates": [ [ [ 117.315490066425028, 42.406979381029061 ], [ 117.315508294849664, 42.406979330862939 ], [ 117.315508249719912, 42.40697032497328 ], [ 117.315514325860576, 42.4069703082506 ], [ 117.315514303295274, 42.406965805305759 ], [ 117.315520379435497, 42.406965788582767 ], [ 117.315520334304026, 42.406956782693101 ], [ 117.315526410443383, 42.406956765969781 ], [ 117.315526365311086, 42.406947760080101 ], [ 117.315520289172596, 42.406947776803399 ], [ 117.315520221475452, 42.40693426796885 ], [ 117.31551414533827, 42.406934284691815 ], [ 117.315514167903544, 42.406938787636697 ], [ 117.315471634940096, 42.406938904688559 ], [ 117.315471815438102, 42.406974928247436 ], [ 117.315490043861459, 42.406974878084227 ], [ 117.315490066425028, 42.406979381029061 ] ] ] } },
{ "type": "Feature", "properties": { "crown_id": 7407, "tree_id": "7413", "top_h_m": 23.717, "H_95_Mean": 23.736, "DBH": 26.8436, "Carbon_kg": 150.578381, "area_m2": 9.75 }, "geometry": { "type": "Polygon", "coordinates": [ [ [ 117.315453632136638, 42.406983984297455 ], [ 117.315459708278624, 42.406983967577673 ], [ 117.315459663155821, 42.406974961687972 ], [ 117.315465739296968, 42.406974944967871 ], [ 117.315465536240637, 42.406934418464076 ], [ 117.315459460103426, 42.406934435184169 ], [ 117.315459505226144, 42.406943441073921 ], [ 117.315447352949931, 42.40694347451312 ], [ 117.315447375510431, 42.40694797745801 ], [ 117.315441299371898, 42.406947994177131 ], [ 117.315441321931942, 42.40695249712202 ], [ 117.315435245792955, 42.406952513840828 ], [ 117.315435313471909, 42.406966022675441 ], [ 117.315429237331614, 42.406966039393936 ], [ 117.315429259890834, 42.406970542338811 ], [ 117.315423183750084, 42.40697055905698 ], [ 117.315423206308893, 42.406975062001841 ], [ 117.315453587014687, 42.40697497840776 ], [ 117.315453632136638, 42.406983984297455 ] ] ] } },
{ "type": "Feature", "properties": { "crown_id": 7436, "tree_id": "7442", "top_h_m": 24.311, "H_95_Mean": 23.9653, "DBH": 36.2504, "Carbon_kg": 277.458011, "area_m2": 30.75 }, "geometry": { "type": "Polygon", "coordinates": [ [ [ 117.315404932770377, 42.406966106264683 ], [ 117.315423161191305, 42.406966056112097 ], [ 117.315423138632511, 42.406961553167221 ], [ 117.315429214772394, 42.406961536449067 ], [ 117.315429147094775, 42.406948027614419 ], [ 117.315435223233337, 42.406948010895931 ], [ 117.315435200673704, 42.406943507951055 ], [ 117.315441276811811, 42.406943491232248 ], [ 117.315441254251752, 42.406938988287372 ], [ 117.315453406527112, 42.406938954848812 ], [ 117.31545333884435, 42.406925446014142 ], [ 117.315447262707977, 42.406925462733561 ], [ 117.315447195026593, 42.406911953898856 ], [ 117.315441118891513, 42.406911970617962 ], [ 117.315441096331483, 42.406907467673051 ], [ 117.315428944062205, 42.406907501110297 ], [ 117.31542892150307, 42.406902998165371 ], [ 117.315410693100389, 42.406903048318796 ], [ 117.315410670542548, 42.406898545373863 ], [ 117.315386366007345, 42.406898612240582 ], [ 117.315386343451237, 42.406894109295628 ], [ 117.315362038917684, 42.406894176157195 ], [ 117.315362061472044, 42.406898679102142 ], [ 117.315368137605873, 42.406898662387242 ], [ 117.315368182715474, 42.406907668277135 ], [ 117.315380334984852, 42.406907634846341 ], [ 117.315380402651897, 42.406921143681153 ], [ 117.315386478787886, 42.406921126965273 ], [ 117.315386569012432, 42.406939138744939 ], [ 117.315398721287877, 42.40693910531219 ], [ 117.315398743844895, 42.40694360825708 ], [ 117.315404819983058, 42.406943591540212 ], [ 117.315404932770377, 42.406966106264683 ] ] ] } },
{ "type": "Feature", "properties": { "crown_id": 7449, "tree_id": "7455", "top_h_m": 24.443, "H_95_Mean": 24.0733, "DBH": 31.7584, "Carbon_kg": 213.085503, "area_m2": 18.25 }, "geometry": { "type": "Polygon", "coordinates": [ [ [ 117.315319754048488, 42.406943825547053 ], [ 117.315374439292242, 42.40694367512134 ], [ 117.315374416736972, 42.406939172176415 ], [ 117.315380492874709, 42.40693915546084 ], [ 117.315380425207593, 42.406925646626085 ], [ 117.315374349071178, 42.406925663341646 ], [ 117.315374281405411, 42.406912154506841 ], [ 117.315362129135139, 42.406912187936996 ], [ 117.315362084026404, 42.40690318204711 ], [ 117.31535600789212, 42.40690319876169 ], [ 117.315355985338186, 42.406898695816736 ], [ 117.315349909204343, 42.406898712531003 ], [ 117.315349931757851, 42.406903215475957 ], [ 117.315343855623567, 42.406903232189904 ], [ 117.315343878176634, 42.406907735134858 ], [ 117.315331725907171, 42.406907768561794 ], [ 117.315331793563772, 42.406921277396663 ], [ 117.315319641291694, 42.406921310822327 ], [ 117.315319686394403, 42.406930316712227 ], [ 117.315313610257505, 42.406930333424569 ], [ 117.315313655359347, 42.406939339314469 ], [ 117.315319731497141, 42.406939322602106 ], [ 117.315319754048488, 42.406943825547053 ] ] ] } },
{ "type": "Feature", "properties": { "crown_id": 7484, "tree_id": "7490", "top_h_m": 24.448, "H_95_Mean": 24.2141, "DBH": 31.503, "Carbon_kg": 210.370179, "area_m2": 17.5 }, "geometry": { "type": "Polygon", "coordinates": [ [ [ 117.315471612377877, 42.406934401743669 ], [ 117.315508069201087, 42.406934301414481 ], [ 117.315508046636268, 42.406929798469619 ], [ 117.315514122773024, 42.40692978174696 ], [ 117.315514077642504, 42.40692077585723 ], [ 117.315508001506615, 42.406920792579889 ], [ 117.31550797894181, 42.406916289634992 ], [ 117.315501902806375, 42.406916306357324 ], [ 117.315501880241996, 42.406911803412441 ], [ 117.315495804106973, 42.406911820134439 ], [ 117.315495758979097, 42.406902814244667 ], [ 117.315489682844941, 42.406902830966345 ], [ 117.315489660281457, 42.406898328021441 ], [ 117.315483584147728, 42.406898344742793 ], [ 117.315483561584671, 42.406893841797896 ], [ 117.315453180918126, 42.406893925399785 ], [ 117.315453158357258, 42.406889422454874 ], [ 117.315447082224352, 42.406889439174286 ], [ 117.315447172466122, 42.406907450953952 ], [ 117.315453248600775, 42.40690743423454 ], [ 117.315453316283453, 42.406920943069252 ], [ 117.315459392419399, 42.4069209263495 ], [ 117.315459437542074, 42.406929932239272 ], [ 117.315471589815658, 42.406929898798801 ], [ 117.315471612377877, 42.406934401743669 ] ] ] } },
{ "type": "Feature", "properties": { "crown_id": 7505, "tree_id": "7511", "top_h_m": 25.622, "H_95_Mean": 25.7367, "DBH": 33.1104, "Carbon_kg": 241.10628, "area_m2": 19.0 }, "geometry": { "type": "Polygon", "coordinates": [ [ [ 117.31552017634408, 42.406925262079127 ], [ 117.315526252480396, 42.406925245355829 ], [ 117.315526229914255, 42.406920742410968 ], [ 117.315532306050116, 42.406920725687343 ], [ 117.315532283483577, 42.406916222742474 ], [ 117.315538359618998, 42.406916206018543 ], [ 117.315538133949431, 42.406871176569716 ], [ 117.315544210080517, 42.406871159845494 ], [ 117.315544187513154, 42.406866656900597 ], [ 117.315495578467861, 42.40686679068542 ], [ 117.315495668723457, 42.406884802465072 ], [ 117.315489592591035, 42.406884819186736 ], [ 117.315489637717988, 42.406893825076544 ], [ 117.315495713851277, 42.406893808354866 ], [ 117.315495736415173, 42.40689831129977 ], [ 117.315501812548902, 42.406898294577779 ], [ 117.315501857677617, 42.406907300467552 ], [ 117.315507933812199, 42.406907283745248 ], [ 117.315507956377019, 42.406911786690117 ], [ 117.315514032512013, 42.406911769967479 ], [ 117.315514055077259, 42.406916272912348 ], [ 117.315520131212722, 42.406916256189383 ], [ 117.31552017634408, 42.406925262079127 ] ] ] } },
{ "type": "Feature", "properties": { "crown_id": 7533, "tree_id": "7539", "top_h_m": 22.817, "H_95_Mean": 22.7562, "DBH": 30.8192, "Carbon_kg": 194.010217, "area_m2": 18.0 }, "geometry": { "type": "Polygon", "coordinates": [ [ [ 117.315301345233465, 42.406907852123474 ], [ 117.315325649772433, 42.406907785274775 ], [ 117.315325627220673, 42.406903282329807 ], [ 117.315337779489255, 42.406903248903532 ], [ 117.31533773438403, 42.406894243013596 ], [ 117.315355962784267, 42.406894192871782 ], [ 117.315355940230347, 42.406889689926821 ], [ 117.315349864097385, 42.406889706641081 ], [ 117.315349841543892, 42.406885203696113 ], [ 117.315343765411356, 42.406885220410047 ], [ 117.31534367519923, 42.406867208630132 ], [ 117.315288990021742, 42.406867359040952 ], [ 117.315289057669077, 42.406880867875955 ], [ 117.315295133801229, 42.406880851164928 ], [ 117.315295246549098, 42.406903365889868 ], [ 117.315301322683425, 42.406903349178506 ], [ 117.315301345233465, 42.406907852123474 ] ] ] } },
{ "type": "Feature", "properties": { "crown_id": 7534, "tree_id": "7540", "top_h_m": 24.794, "H_95_Mean": 24.822, "DBH": 30.4984, "Carbon_kg": 199.97953, "area_m2": 14.75 }, "geometry": { "type": "Polygon", "coordinates": [ [ [ 117.315434997637269, 42.406902981446919 ], [ 117.315441073771481, 42.406902964728133 ], [ 117.31544098353146, 42.406884952948445 ], [ 117.315453135796389, 42.406884919509942 ], [ 117.31545311323552, 42.406880416565023 ], [ 117.315447037103496, 42.406880433284421 ], [ 117.315446969422268, 42.406866924449616 ], [ 117.315392284245533, 42.406867074909705 ], [ 117.315392374471571, 42.406885086689549 ], [ 117.315386298339064, 42.406885103405742 ], [ 117.315386320895144, 42.406889606350688 ], [ 117.315392397028091, 42.406889589634503 ], [ 117.315392419584626, 42.406894092579442 ], [ 117.31541672411808, 42.406894025711452 ], [ 117.315416746676348, 42.406898528656384 ], [ 117.315434975077707, 42.406898478502001 ], [ 117.315434997637269, 42.406902981446919 ] ] ] } },
{ "type": "Feature", "properties": { "crown_id": 7580, "tree_id": "7586", "top_h_m": 21.654, "H_95_Mean": 21.585, "DBH": 22.89, "Carbon_kg": 103.252338, "area_m2": 6.25 }, "geometry": { "type": "Polygon", "coordinates": [ [ [ 117.315362016363324, 42.406889673212234 ], [ 117.31538024476221, 42.406889623066554 ], [ 117.315380199650903, 42.40688061717664 ], [ 117.31538627578297, 42.406880600460781 ], [ 117.315386208114759, 42.406867091625898 ], [ 117.315349751330032, 42.406867191916199 ], [ 117.315349818990427, 42.406880700751138 ], [ 117.315355895122551, 42.406880684036885 ], [ 117.315355917676442, 42.40688518698186 ], [ 117.315361993808978, 42.406885170267273 ], [ 117.315362016363324, 42.406889673212234 ] ] ] } },
{ "type": "Feature", "properties": { "crown_id": 7581, "tree_id": "7587", "top_h_m": 23.811, "H_95_Mean": 23.88, "DBH": 24.0062, "Carbon_kg": 120.650758, "area_m2": 6.25 }, "geometry": { "type": "Polygon", "coordinates": [ [ [ 117.315459234490149, 42.406889405735143 ], [ 117.315483539021642, 42.406889338852984 ], [ 117.31548349389557, 42.406880332963155 ], [ 117.315489570027566, 42.406880316241811 ], [ 117.315489502337186, 42.406866807407063 ], [ 117.315453045552985, 42.406866907730219 ], [ 117.31545309067468, 42.406875913620091 ], [ 117.315459166806264, 42.406875896900367 ], [ 117.315459234490149, 42.406889405735143 ] ] ] } }
]
}
