{
"type": "FeatureCollection",
"name": "tile_8_18",
"crs": { "type": "name", "properties": { "name": "urn:ogc:def:crs:OGC:1.3:CRS84" } },
"features": [
{ "type": "Feature", "properties": { "crown_id": 2354, "tree_id": "2354", "top_h_m": 22.143, "H_95_Mean": 21.9874, "DBH": 34.0573, "Carbon_kg": 232.512524, "area_m2": 28.25 }, "geometry": { "type": "Polygon", "coordinates": [ [ [ 117.314260123274238, 42.410121354240957 ], [ 117.314272276165255, 42.410121320925604 ], [ 117.314272253686283, 42.410116817982711 ], [ 117.314278330131344, 42.410116801324548 ], [ 117.314278307651975, 42.410112298381662 ], [ 117.314296536985822, 42.410112248405255 ], [ 117.314296514505145, 42.410107745462376 ], [ 117.314302590949325, 42.41010772880292 ], [ 117.314302568468193, 42.410103225860041 ], [ 117.314326874243093, 42.410103159219041 ], [ 117.3143267393461, 42.410076141561724 ], [ 117.314320662905018, 42.410076158222438 ], [ 117.314320640422608, 42.410071655279523 ], [ 117.314308487541268, 42.410071688599999 ], [ 117.314308465059753, 42.410067185657077 ], [ 117.314290235738966, 42.410067235635353 ], [ 117.314290213258786, 42.410062732692431 ], [ 117.314284136818941, 42.410062749351205 ], [ 117.314284159298722, 42.410067252294134 ], [ 117.314272006418165, 42.410067285610722 ], [ 117.314272028897051, 42.410071788553644 ], [ 117.314265952456338, 42.410071805211452 ], [ 117.314265974934784, 42.410076308154395 ], [ 117.314253822052478, 42.41007634146905 ], [ 117.3142538894853, 42.410089850297823 ], [ 117.314247813042826, 42.410089866954671 ], [ 117.314247925428802, 42.410112381669244 ], [ 117.314260078318085, 42.410112348355177 ], [ 117.314260123274238, 42.410121354240957 ] ] ] } },
{ "type": "Feature", "properties": { "crown_id": 2381, "tree_id": "2381", "top_h_m": 21.781, "H_95_Mean": 21.6591, "DBH": 30.4273, "Carbon_kg": 183.624354, "area_m2": 18.75 }, "geometry": { "type": "Polygon", "coordinates": [ [ [ 117.314138482016148, 42.41009917260898 ], [ 117.314168864233267, 42.410099089350432 ], [ 117.314168796818663, 42.410085580521574 ], [ 117.314174873260768, 42.410085563868897 ], [ 117.314174805844928, 42.410072055040018 ], [ 117.314168729404116, 42.410072071692674 ], [ 117.314168684461123, 42.410063065806739 ], [ 117.314162608021164, 42.410063082459068 ], [ 117.314162630492248, 42.410067585402039 ], [ 117.314120095409478, 42.410067701959385 ], [ 117.314120072941449, 42.410063199016392 ], [ 117.314113996501476, 42.410063215666142 ], [ 117.314114018969065, 42.410067718609142 ], [ 117.314095789647794, 42.410067768556488 ], [ 117.314095834580385, 42.410076774442501 ], [ 117.31410191102168, 42.410076757793696 ], [ 117.314101933488431, 42.410081260736689 ], [ 117.314108009930166, 42.410081244087564 ], [ 117.31410807733171, 42.410094752916514 ], [ 117.314138459546768, 42.41009466966603 ], [ 117.314138482016148, 42.41009917260898 ] ] ] } },
{ "type": "Feature", "properties": { "crown_id": 2382, "tree_id": "2382", "top_h_m": 22.529, "H_95_Mean": 22.3987, "DBH": 31.5325, "Carbon_kg": 201.272845, "area_m2": 20.25 }, "geometry": { "type": "Polygon", "coordinates": [ [ [ 117.314229718570715, 42.410116934580834 ], [ 117.314241871460922, 42.410116901268701 ], [ 117.314241714123611, 42.410085380668292 ], [ 117.314247790565645, 42.410085364011763 ], [ 117.314247768088464, 42.410080861068828 ], [ 117.314229538763627, 42.410080911037461 ], [ 117.314229516287767, 42.410076408094532 ], [ 117.314217363405376, 42.41007644140533 ], [ 117.314217340930384, 42.410071938462373 ], [ 117.314199111608076, 42.410071988426154 ], [ 117.314199089134405, 42.410067485483196 ], [ 117.314180859813334, 42.410067535444078 ], [ 117.314180927230481, 42.410081044272957 ], [ 117.314187003672131, 42.410081027619647 ], [ 117.314187048617796, 42.41009003350554 ], [ 117.314180972175279, 42.410090050158864 ], [ 117.314180994647685, 42.410094553101821 ], [ 117.314174918204714, 42.410094569754811 ], [ 117.314174963148673, 42.41010357564069 ], [ 117.314199268923986, 42.410103509026762 ], [ 117.314199291397699, 42.410108011969683 ], [ 117.314217520730452, 42.410107962005846 ], [ 117.314217543205501, 42.410112464948767 ], [ 117.314229696094827, 42.410112431637927 ], [ 117.314229718570715, 42.410116934580834 ] ] ] } },
{ "type": "Feature", "properties": { "crown_id": 2437, "tree_id": "2437", "top_h_m": 24.269, "H_95_Mean": 24.1007, "DBH": 32.4286, "Carbon_kg": 222.39538, "area_m2": 19.75 }, "geometry": { "type": "Polygon", "coordinates": [ [ [ 117.314235592728949, 42.410076391438636 ], [ 117.314247745611311, 42.410076358125906 ], [ 117.314247723134145, 42.410071855182956 ], [ 117.314259876015598, 42.410071821868954 ], [ 117.314259853537578, 42.410067318926018 ], [ 117.314265929977878, 42.410067302268523 ], [ 117.314265907499419, 42.410062799325594 ], [ 117.31427806037911, 42.410062766009659 ], [ 117.31427801542047, 42.410053760123787 ], [ 117.314271938981491, 42.410053776781922 ], [ 117.314271894023747, 42.410044770896022 ], [ 117.314277970461859, 42.410044754237902 ], [ 117.314277947982561, 42.410040251294959 ], [ 117.314271871544875, 42.410040267953072 ], [ 117.314271849066017, 42.410035765010129 ], [ 117.314253619754282, 42.410035814982542 ], [ 117.314253597276718, 42.410031312039578 ], [ 117.314235367966248, 42.410031362009093 ], [ 117.314235390442491, 42.410035864952057 ], [ 117.31422323756793, 42.410035898263452 ], [ 117.314223282518711, 42.410044904149402 ], [ 117.314217206080571, 42.410044920804616 ], [ 117.314217251030485, 42.410053926690551 ], [ 117.314211174591449, 42.410053943345453 ], [ 117.314211197065987, 42.410058446288417 ], [ 117.314205120626525, 42.410058462943013 ], [ 117.314205165574734, 42.410067468828927 ], [ 117.31422339489572, 42.410067418864188 ], [ 117.314223417371153, 42.410071921807138 ], [ 117.314235570252649, 42.410071888495693 ], [ 117.314235592728949, 42.410076391438636 ] ] ] } },
{ "type": "Feature", "properties": { "crown_id": 2457, "tree_id": "2457", "top_h_m": 22.82, "H_95_Mean": 22.6785, "DBH": 31.4107, "Carbon_kg": 201.180755, "area_m2": 19.5 }, "geometry": { "type": "Polygon", "coordinates": [ [ [ 117.314126149381423, 42.410063182366308 ], [ 117.314156531581219, 42.410063099111078 ], [ 117.314156509110603, 42.410058596168099 ], [ 117.314168661989612, 42.410058562863753 ], [ 117.314168527160732, 42.410031545205811 ], [ 117.314162450723828, 42.410031561858133 ], [ 117.314162428252814, 42.410027058915119 ], [ 117.314156351816351, 42.410027075567115 ], [ 117.314156329345749, 42.410022572624101 ], [ 117.314150252909727, 42.410022589275776 ], [ 117.31415023043958, 42.410018086332741 ], [ 117.314144154003969, 42.41001810298409 ], [ 117.314144131534263, 42.410013600041069 ], [ 117.314131978663909, 42.410013633342771 ], [ 117.314132001132748, 42.410018136285814 ], [ 117.314125924697123, 42.410018152936182 ], [ 117.314125947165522, 42.41002265587921 ], [ 117.314119870729471, 42.410022672529266 ], [ 117.314119915665415, 42.410031678415322 ], [ 117.314113839228497, 42.410031695065051 ], [ 117.314113974033887, 42.410058712723135 ], [ 117.314126126912967, 42.410058679423315 ], [ 117.314126149381423, 42.410063182366308 ] ] ] } },
{ "type": "Feature", "properties": { "crown_id": 2458, "tree_id": "2458", "top_h_m": 24.212, "H_95_Mean": 24.1148, "DBH": 29.2677, "Carbon_kg": 180.928452, "area_m2": 13.25 }, "geometry": { "type": "Polygon", "coordinates": [ [ [ 117.314174760901039, 42.41006304915409 ], [ 117.314199066660734, 42.410062982540232 ], [ 117.314199021713392, 42.410053976654304 ], [ 117.314205098152414, 42.410053960000042 ], [ 117.314205075678345, 42.41004945705707 ], [ 117.314211152116911, 42.410049440402489 ], [ 117.314211107167893, 42.410040434516546 ], [ 117.314217183605592, 42.410040417861644 ], [ 117.314217138655707, 42.410031411975694 ], [ 117.314229291529401, 42.410031378664939 ], [ 117.314229269053584, 42.410026875721968 ], [ 117.314223192617177, 42.410026892377495 ], [ 117.31422317014183, 42.410022389434516 ], [ 117.314217093705849, 42.410022406089723 ], [ 117.3142170712309, 42.410017903146738 ], [ 117.31421099479536, 42.410017919801618 ], [ 117.314211017269869, 42.410022422744611 ], [ 117.314192787961886, 42.410022472707347 ], [ 117.314192810435074, 42.410026975650339 ], [ 117.314180657562176, 42.410027008957215 ], [ 117.314180680034525, 42.410031511900208 ], [ 117.314174603597621, 42.410031528553176 ], [ 117.314174760901039, 42.41006304915409 ] ] ] } },
{ "type": "Feature", "properties": { "crown_id": 2459, "tree_id": "2459", "top_h_m": 23.795, "H_95_Mean": 23.5688, "DBH": 32.9947, "Carbon_kg": 227.269738, "area_m2": 22.0 }, "geometry": { "type": "MultiPolygon", "coordinates": [ [ [ [ 117.314302321176328, 42.410053693488059 ], [ 117.314308397615278, 42.410053676828333 ], [ 117.314308420096765, 42.410058179771248 ], [ 117.314314496536156, 42.410058163111195 ], [ 117.314314519018069, 42.410062666054117 ], [ 117.314320595457886, 42.41006264939373 ], [ 117.31432061794024, 42.410067152336637 ], [ 117.314326694380497, 42.410067135675924 ], [ 117.314326716863292, 42.410071638618817 ], [ 117.314332793303961, 42.410071621957783 ], [ 117.314332815787196, 42.410076124900698 ], [ 117.314338892228321, 42.41007610823933 ], [ 117.314338914711982, 42.410080611182217 ], [ 117.314344991153519, 42.410080594520537 ], [ 117.314344946185287, 42.410071588634757 ], [ 117.314351022625942, 42.41007157197275 ], [ 117.314351000141372, 42.410067069029864 ], [ 117.314357076581601, 42.41006705236753 ], [ 117.314357054096632, 42.410062549424651 ], [ 117.314363130536407, 42.410062532762012 ], [ 117.314363085565603, 42.410053526876219 ], [ 117.314357009126695, 42.410053543538837 ], [ 117.314356896701952, 42.410031028824292 ], [ 117.314344743828471, 42.410031062148562 ], [ 117.314344653892235, 42.410013050376833 ], [ 117.314332501022207, 42.410013083699809 ], [ 117.314332545988577, 42.410022089585688 ], [ 117.314326469552711, 42.410022106246686 ], [ 117.314326492035462, 42.410026609189629 ], [ 117.314314339162792, 42.41002664251068 ], [ 117.314314406608489, 42.410040151339487 ], [ 117.314290100857875, 42.410040217977759 ], [ 117.314290123338068, 42.410044720920695 ], [ 117.314302276214221, 42.410044687602202 ], [ 117.314302321176328, 42.410053693488059 ] ] ], [ [ [ 117.314302321176328, 42.410053693488059 ], [ 117.314290168298413, 42.410053726806574 ], [ 117.314290190778593, 42.410058229749502 ], [ 117.314296267217983, 42.410058213090409 ], [ 117.314296289698603, 42.410062716033337 ], [ 117.314302366138421, 42.410062699373917 ], [ 117.314302321176328, 42.410053693488059 ] ] ] ] } },
{ "type": "Feature", "properties": { "crown_id": 2499, "tree_id": "2499", "top_h_m": 22.008, "H_95_Mean": 21.7793, "DBH": 31.696, "Carbon_kg": 200.036273, "area_m2": 21.75 }, "geometry": { "type": "Polygon", "coordinates": [ [ [ 117.314168504689263, 42.410027042262811 ], [ 117.314174581125727, 42.410027025610177 ], [ 117.314174558653846, 42.41002252266717 ], [ 117.314186711525878, 42.410022489360941 ], [ 117.314186689053116, 42.410017986417941 ], [ 117.314204918359806, 42.410017936456178 ], [ 117.314204895885752, 42.410013433513186 ], [ 117.314210972320865, 42.410013416858632 ], [ 117.314210814999598, 42.409981896257555 ], [ 117.314192585703353, 42.409981946220221 ], [ 117.314192608176498, 42.409986449163242 ], [ 117.314162226013806, 42.409986532427908 ], [ 117.314162203542821, 42.409982029484866 ], [ 117.314156127110721, 42.409982046136825 ], [ 117.314156149581265, 42.409986549079875 ], [ 117.314137920283557, 42.40998659903385 ], [ 117.314138032629828, 42.410009113749055 ], [ 117.314150185499287, 42.410009080446706 ], [ 117.314150207969419, 42.410013583389727 ], [ 117.314156284404589, 42.410013566738073 ], [ 117.314156306875191, 42.410018069681087 ], [ 117.314162383310787, 42.410018053029098 ], [ 117.314162405781786, 42.410022555972112 ], [ 117.314168482217809, 42.410022539319797 ], [ 117.314168504689263, 42.410027042262811 ] ] ] } },
{ "type": "Feature", "properties": { "crown_id": 2509, "tree_id": "2509", "top_h_m": 23.749, "H_95_Mean": 23.6824, "DBH": 31.7353, "Carbon_kg": 210.722915, "area_m2": 18.75 }, "geometry": { "type": "Polygon", "coordinates": [ [ [ 117.314259673713536, 42.410031295382431 ], [ 117.314265750150355, 42.410031278724965 ], [ 117.314265502888091, 42.409981746352187 ], [ 117.314216891431684, 42.409981879602697 ], [ 117.314217048755978, 42.410013400203745 ], [ 117.314223125191091, 42.410013383548545 ], [ 117.314223147666453, 42.410017886491538 ], [ 117.314229224101993, 42.410017869835997 ], [ 117.31422924657781, 42.410022372778982 ], [ 117.314235323013762, 42.410022356123129 ], [ 117.314235345490005, 42.410026859066114 ], [ 117.314259651235574, 42.410026792439467 ], [ 117.314259673713536, 42.410031295382431 ] ] ] } },
{ "type": "Feature", "properties": { "crown_id": 2510, "tree_id": "2510", "top_h_m": 25.299, "H_95_Mean": 24.9767, "DBH": 36.6468, "Carbon_kg": 290.62632, "area_m2": 29.75 }, "geometry": { "type": "Polygon", "coordinates": [ [ [ 117.314284001940493, 42.410035731693569 ], [ 117.314308307689373, 42.410035665056604 ], [ 117.314308240244998, 42.410022156227768 ], [ 117.314320393116802, 42.410022122907371 ], [ 117.314320370634476, 42.410017619964421 ], [ 117.314326447069945, 42.410017603303757 ], [ 117.314326402104456, 42.410008597417864 ], [ 117.314332478539043, 42.410008580756852 ], [ 117.314332343640089, 42.409981563099109 ], [ 117.314326267208131, 42.409981579760085 ], [ 117.314326244725422, 42.409977076817107 ], [ 117.314314091862329, 42.409977110138108 ], [ 117.314314069380487, 42.409972607195122 ], [ 117.314301916518247, 42.40997264051483 ], [ 117.314301894037271, 42.409968137571823 ], [ 117.314283664745162, 42.409968187548955 ], [ 117.314283687224815, 42.409972690491955 ], [ 117.314277610793667, 42.409972707150359 ], [ 117.314277655752136, 42.409981713036359 ], [ 117.314271579320092, 42.409981729694429 ], [ 117.314271826587174, 42.410031262067172 ], [ 117.314283979460768, 42.410031228750633 ], [ 117.314284001940493, 42.410035731693569 ] ] ] } },
{ "type": "Feature", "properties": { "crown_id": 2515, "tree_id": "2515", "top_h_m": 22.452, "H_95_Mean": 22.135, "DBH": 33.3591, "Carbon_kg": 223.889538, "area_m2": 25.75 }, "geometry": { "type": "Polygon", "coordinates": [ [ [ 117.314101663887925, 42.410027225420535 ], [ 117.314113816760937, 42.41002719212203 ], [ 117.314113771825845, 42.410018186235966 ], [ 117.314119848261498, 42.410018169586237 ], [ 117.314119825793526, 42.410013666643195 ], [ 117.31412590222871, 42.410013649993154 ], [ 117.314125879760311, 42.410009147050111 ], [ 117.31413195619507, 42.41000913039975 ], [ 117.314131753975815, 42.409968603912283 ], [ 117.314113524683265, 42.409968653862357 ], [ 117.314113547150725, 42.409973156805442 ], [ 117.314107470719463, 42.409973173454823 ], [ 117.314107493186512, 42.409977676397887 ], [ 117.314089263891304, 42.40997772634411 ], [ 117.31408928635706, 42.409982229287188 ], [ 117.314083209924874, 42.409982245935289 ], [ 117.314083232390203, 42.409986748878367 ], [ 117.314071079524936, 42.409986782173597 ], [ 117.314071101989398, 42.409991285116682 ], [ 117.314058949123265, 42.409991318410633 ], [ 117.31405897158686, 42.409995821353711 ], [ 117.314052895153353, 42.409995838000214 ], [ 117.31405296254286, 42.410009346829433 ], [ 117.314071191847319, 42.410009296888958 ], [ 117.314071214311795, 42.410013799832008 ], [ 117.314083367182263, 42.410013766536736 ], [ 117.314083389647607, 42.410018269479785 ], [ 117.314095542518928, 42.41001823618322 ], [ 117.31409556498518, 42.410022739126262 ], [ 117.31410164142126, 42.4100227224775 ], [ 117.314101663887925, 42.410027225420535 ] ] ] } },
{ "type": "Feature", "properties": { "crown_id": 2569, "tree_id": "2569", "top_h_m": 23.973, "H_95_Mean": 23.8879, "DBH": 31.303, "Carbon_kg": 206.027653, "area_m2": 17.5 }, "geometry": { "type": "Polygon", "coordinates": [ [ [ 117.314222945388437, 42.409977360004497 ], [ 117.314271556841305, 42.409977226751444 ], [ 117.314271511883732, 42.40996822086543 ], [ 117.314277588314454, 42.40996820420736 ], [ 117.314277565835255, 42.409963701264353 ], [ 117.314283642265536, 42.409963684605955 ], [ 117.314283574826604, 42.40995017577692 ], [ 117.31427142196867, 42.409950209093367 ], [ 117.314271399489911, 42.409945706150353 ], [ 117.314277475918459, 42.409945689492282 ], [ 117.31427745343926, 42.409941186549268 ], [ 117.314228842014231, 42.40994131980473 ], [ 117.314228886965665, 42.409950325690808 ], [ 117.314222810536634, 42.409950342346313 ], [ 117.314222945388437, 42.409977360004497 ] ] ] } },
{ "type": "Feature", "properties": { "crown_id": 2577, "tree_id": "2577", "top_h_m": 23.451, "H_95_Mean": 23.1908, "DBH": 37.8227, "Carbon_kg": 296.431197, "area_m2": 38.5 }, "geometry": { "type": "Polygon", "coordinates": [ [ [ 117.314137897814305, 42.4099820960908 ], [ 117.314150050678577, 42.40998206278848 ], [ 117.314150028208473, 42.40997755984543 ], [ 117.314168257503525, 42.409977509889551 ], [ 117.314168279974936, 42.409982012832586 ], [ 117.314186509271252, 42.409981962873793 ], [ 117.314186486798548, 42.409977459930765 ], [ 117.314216868956791, 42.409977376659683 ], [ 117.314216711632753, 42.409945856058428 ], [ 117.314222788061358, 42.409945839403264 ], [ 117.314222765586081, 42.409941336460214 ], [ 117.314210612729752, 42.409941369770216 ], [ 117.314210545306565, 42.409927860941046 ], [ 117.314149781037713, 42.409928027471643 ], [ 117.314149758567666, 42.409923524528558 ], [ 117.314137605714706, 42.409923557830815 ], [ 117.314137740529802, 42.40995057548934 ], [ 117.314131664100714, 42.409950592139992 ], [ 117.314131686569468, 42.409955095083077 ], [ 117.314125610139939, 42.409955111733424 ], [ 117.314125632608267, 42.409959614676495 ], [ 117.314119556178284, 42.409959631326515 ], [ 117.314119578646213, 42.409964134269586 ], [ 117.314137807937428, 42.409964084318553 ], [ 117.314137897814305, 42.4099820960908 ] ] ] } },
{ "type": "Feature", "properties": { "crown_id": 2592, "tree_id": "2592", "top_h_m": 23.997, "H_95_Mean": 23.675, "DBH": 35.021, "Carbon_kg": 256.960349, "area_m2": 27.5 }, "geometry": { "type": "MultiPolygon", "coordinates": [ [ [ [ 117.314332298673818, 42.409972557213159 ], [ 117.314332321156954, 42.40997706015613 ], [ 117.314338397588472, 42.409977043494827 ], [ 117.314338375104938, 42.409972540551856 ], [ 117.314332298673818, 42.409972557213159 ] ] ], [ [ [ 117.314332298673818, 42.409972557213159 ], [ 117.314332276190697, 42.409968054270173 ], [ 117.314344429052028, 42.409968020947261 ], [ 117.314344316632116, 42.409945506232347 ], [ 117.314338240203611, 42.409945522893942 ], [ 117.314338127785987, 42.409923008178929 ], [ 117.314332051359685, 42.409923024840204 ], [ 117.314332006393542, 42.409914018954161 ], [ 117.314325929968092, 42.409914035615103 ], [ 117.314325907485468, 42.409909532672067 ], [ 117.31431983106043, 42.409909549332696 ], [ 117.314319808578247, 42.40990504638966 ], [ 117.314307655729039, 42.40990507970993 ], [ 117.314307678210369, 42.409909582652972 ], [ 117.314295525360279, 42.409909615971941 ], [ 117.314295547840743, 42.409914118914983 ], [ 117.314289471415236, 42.409914135573992 ], [ 117.31428953885532, 42.409927644403098 ], [ 117.31428346242852, 42.409927661061801 ], [ 117.314283552346978, 42.409945672833906 ], [ 117.314289628775526, 42.409945656175204 ], [ 117.31428971869579, 42.409963667947231 ], [ 117.314307947986578, 42.409963617969147 ], [ 117.314307970467979, 42.40996812091214 ], [ 117.314320123329352, 42.4099680875918 ], [ 117.314320145811607, 42.409972590534792 ], [ 117.314332298673818, 42.409972557213159 ] ] ] ] } }
]
}
