{
"type": "FeatureCollection",
"name": "tile_11_22",
"crs": { "type": "name", "properties": { "name": "urn:ogc:def:crs:OGC:1.3:CRS84" } },
"features": [
{ "type": "Feature", "properties": { "crown_id": 3292, "tree_id": "3293", "top_h_m": 21.04, "H_95_Mean": 20.9579, "DBH": 29.7494, "Carbon_kg": 172.089658, "area_m2": 18.25 }, "geometry": { "type": "Polygon", "coordinates": [ [ [ 117.315126372677668, 42.409583118760786 ], [ 117.315132449070731, 42.409583102057518 ], [ 117.315132381450582, 42.409569593228689 ], [ 117.315138457842309, 42.409569576525101 ], [ 117.315138254978265, 42.409529050038451 ], [ 117.315132178590432, 42.409529066742017 ], [ 117.315132201130439, 42.409533569684989 ], [ 117.315107895577327, 42.409533636496 ], [ 117.315107940653846, 42.409542642381972 ], [ 117.315083635097182, 42.409542709187853 ], [ 117.315083747779909, 42.40956522390276 ], [ 117.315089824171253, 42.409565207201759 ], [ 117.315089846708261, 42.40956971014473 ], [ 117.315108075883558, 42.409569660039793 ], [ 117.31510812096019, 42.4095786659257 ], [ 117.315126350138044, 42.409578615817843 ], [ 117.315126372677668, 42.409583118760786 ] ] ] } },
{ "type": "Feature", "properties": { "crown_id": 3302, "tree_id": "3303", "top_h_m": 21.742, "H_95_Mean": 21.435, "DBH": 26.9896, "Carbon_kg": 143.323779, "area_m2": 12.0 }, "geometry": { "type": "Polygon", "coordinates": [ [ [ 117.315241779049003, 42.409573795457874 ], [ 117.315260008225209, 42.409573745328771 ], [ 117.315259872930298, 42.409546727671362 ], [ 117.315265949319738, 42.409546710961038 ], [ 117.315265926770167, 42.409542208018131 ], [ 117.315211239268748, 42.409542358399484 ], [ 117.315211306905766, 42.409555867228278 ], [ 117.31521738329613, 42.409555850520512 ], [ 117.315217405842233, 42.409560353463441 ], [ 117.315211329451444, 42.409560370171199 ], [ 117.315211351997121, 42.409564873114114 ], [ 117.315229581170811, 42.409564822989857 ], [ 117.315229603717825, 42.409569325932765 ], [ 117.315241756501138, 42.409569292514981 ], [ 117.315241779049003, 42.409573795457874 ] ] ] } },
{ "type": "Feature", "properties": { "crown_id": 3318, "tree_id": "3319", "top_h_m": 23.355, "H_95_Mean": 23.0372, "DBH": 33.2925, "Carbon_kg": 228.321312, "area_m2": 23.75 }, "geometry": { "type": "MultiPolygon", "coordinates": [ [ [ [ 117.315138209897412, 42.409520044152501 ], [ 117.315138232437832, 42.409524547095479 ], [ 117.315144308825211, 42.4095245303916 ], [ 117.315144444070455, 42.409551548049407 ], [ 117.315150520460463, 42.409551531345194 ], [ 117.315150543001792, 42.409556034288151 ], [ 117.315174848563416, 42.409555967468059 ], [ 117.315174871106507, 42.409560470411002 ], [ 117.315205253060626, 42.409560386878631 ], [ 117.315205117789247, 42.409533369221016 ], [ 117.315199041401058, 42.409533385928128 ], [ 117.315198996311508, 42.409524380042221 ], [ 117.315192919924144, 42.409524396748999 ], [ 117.315192874835489, 42.409515390863085 ], [ 117.315180722062536, 42.409515424275654 ], [ 117.315180699519061, 42.409510921332675 ], [ 117.315168546746946, 42.409510954743958 ], [ 117.315168569289554, 42.409515457686922 ], [ 117.315162492903042, 42.409515474392087 ], [ 117.315162470360889, 42.409510971449116 ], [ 117.315144241202674, 42.409511021562643 ], [ 117.315144286284365, 42.409520027448629 ], [ 117.315138209897412, 42.409520044152501 ] ] ], [ [ [ 117.315138209897412, 42.409520044152501 ], [ 117.315138187357007, 42.409515541209515 ], [ 117.315132110970467, 42.409515557913046 ], [ 117.315132133510446, 42.409520060856046 ], [ 117.315138209897412, 42.409520044152501 ] ] ] ] } },
{ "type": "Feature", "properties": { "crown_id": 3357, "tree_id": "3358", "top_h_m": 20.63, "H_95_Mean": 20.5152, "DBH": 29.6557, "Carbon_kg": 168.853266, "area_m2": 18.75 }, "geometry": { "type": "Polygon", "coordinates": [ [ [ 117.315217293111729, 42.409537838748797 ], [ 117.315278056997769, 42.409537671653602 ], [ 117.315278034447331, 42.409533168710681 ], [ 117.315265881671039, 42.409533202132287 ], [ 117.315265814022368, 42.409519693303523 ], [ 117.315253661248676, 42.409519726723836 ], [ 117.315253593602662, 42.409506217895007 ], [ 117.315241440831542, 42.409506251314014 ], [ 117.315241418283748, 42.409501748371056 ], [ 117.315229265513494, 42.409501781788762 ], [ 117.315229242966566, 42.409497278845812 ], [ 117.315204937427708, 42.409497345677352 ], [ 117.315205005063248, 42.409510854506252 ], [ 117.315198928677205, 42.409510871213342 ], [ 117.315198973766741, 42.409519877099278 ], [ 117.315205050153637, 42.409519860392187 ], [ 117.315205095244025, 42.40952886627808 ], [ 117.315211171631816, 42.409528849570655 ], [ 117.315211194177436, 42.409533352513598 ], [ 117.31521727056564, 42.409533335805861 ], [ 117.315217293111729, 42.409537838748797 ] ] ] } },
{ "type": "Feature", "properties": { "crown_id": 3376, "tree_id": "3377", "top_h_m": 24.662, "H_95_Mean": 24.25, "DBH": 33.6335, "Carbon_kg": 240.239966, "area_m2": 22.5 }, "geometry": { "type": "Polygon", "coordinates": [ [ [ 117.315071459783155, 42.409538239645869 ], [ 117.315101841726843, 42.40953815614094 ], [ 117.315101796651206, 42.409529150254961 ], [ 117.315126102202584, 42.409529083445243 ], [ 117.315126079663045, 42.409524580502264 ], [ 117.315120003275638, 42.409524597205163 ], [ 117.315119935658288, 42.409511088376192 ], [ 117.315113859272188, 42.409511105078764 ], [ 117.315113836733531, 42.409506602135771 ], [ 117.315101683962155, 42.409506635539955 ], [ 117.315101661424364, 42.409502132596941 ], [ 117.315095585039117, 42.409502149298547 ], [ 117.315095562501753, 42.409497646355526 ], [ 117.315077333347276, 42.409497696458409 ], [ 117.315077288275205, 42.409488690572346 ], [ 117.315065135507254, 42.40948872397265 ], [ 117.31506515804243, 42.409493226915693 ], [ 117.315059081658006, 42.409493243615366 ], [ 117.315059104192741, 42.409497746558394 ], [ 117.315046951423014, 42.40949777995678 ], [ 117.315047019024661, 42.409511288785886 ], [ 117.315053095410832, 42.409511272086846 ], [ 117.315053117945155, 42.409515775029874 ], [ 117.315059194331752, 42.409515758330514 ], [ 117.315059216866516, 42.409520261273542 ], [ 117.315053140479492, 42.409520277972916 ], [ 117.315053208082503, 42.409533786801937 ], [ 117.315071437247497, 42.409533736702869 ], [ 117.315071459783155, 42.409538239645869 ] ] ] } },
{ "type": "Feature", "properties": { "crown_id": 3428, "tree_id": "3430", "top_h_m": 24.924, "H_95_Mean": 24.3928, "DBH": 37.296, "Carbon_kg": 296.912965, "area_m2": 33.25 }, "geometry": { "type": "Polygon", "coordinates": [ [ [ 117.315271935509202, 42.409528682478737 ], [ 117.315296241059997, 42.409528615632944 ], [ 117.315296173404832, 42.409515106804186 ], [ 117.31530224979123, 42.409515090091951 ], [ 117.315302204686944, 42.409506084206114 ], [ 117.315320433843453, 42.409506034067462 ], [ 117.315320366183158, 42.409492525238697 ], [ 117.315308213414767, 42.409492558664773 ], [ 117.31530816830967, 42.409483552778894 ], [ 117.315283862776269, 42.409483619627153 ], [ 117.315283795123889, 42.409470110798281 ], [ 117.315277718741825, 42.409470127509536 ], [ 117.315277696191473, 42.409465624566565 ], [ 117.315271619809835, 42.409465641277485 ], [ 117.315271574710025, 42.40945663539155 ], [ 117.315259421948497, 42.409456668812425 ], [ 117.315259444497542, 42.40946117175541 ], [ 117.315247291735119, 42.409461205174999 ], [ 117.315247314283297, 42.409465708117978 ], [ 117.315235161519979, 42.409465741536287 ], [ 117.315235206614602, 42.409474747422259 ], [ 117.315229130232083, 42.409474764130941 ], [ 117.315229175325854, 42.409483770016898 ], [ 117.315210946175625, 42.409483820141013 ], [ 117.31521099126681, 42.409492826026984 ], [ 117.315235296803934, 42.409492759194151 ], [ 117.315235319351274, 42.409497262137116 ], [ 117.31524747212066, 42.409497228718777 ], [ 117.315247494668881, 42.40950173166172 ], [ 117.31525964743912, 42.409501698242082 ], [ 117.315259715086412, 42.40951520707091 ], [ 117.315271867859238, 42.409515173649957 ], [ 117.315271935509202, 42.409528682478737 ] ] ] } },
{ "type": "Feature", "properties": { "crown_id": 3442, "tree_id": "3444", "top_h_m": 23.263, "H_95_Mean": 22.9403, "DBH": 34.0104, "Carbon_kg": 237.759516, "area_m2": 26.0 }, "geometry": { "type": "Polygon", "coordinates": [ [ [ 117.315119913119204, 42.409506585433185 ], [ 117.315150295047474, 42.409506501915473 ], [ 117.315150249964944, 42.409497496029481 ], [ 117.315156326349708, 42.409497479324976 ], [ 117.31515628126634, 42.409488473438984 ], [ 117.315150204882414, 42.409488490143474 ], [ 117.315150159799941, 42.409479484257453 ], [ 117.315144083416911, 42.409479500961631 ], [ 117.315143993253699, 42.409461489189546 ], [ 117.315077153059065, 42.409461672914055 ], [ 117.315077175595064, 42.409466175857105 ], [ 117.315071099213284, 42.40946619255741 ], [ 117.315071121748872, 42.409470695500474 ], [ 117.315077198131078, 42.409470678800169 ], [ 117.315077220667121, 42.409475181743218 ], [ 117.315071144284445, 42.409475198443523 ], [ 117.315071166820019, 42.409479701386573 ], [ 117.315065090436917, 42.409479718086558 ], [ 117.315065112972093, 42.409484221029601 ], [ 117.315083342122705, 42.409484170928678 ], [ 117.315083387195642, 42.409493176814742 ], [ 117.315101616348798, 42.409493126710906 ], [ 117.315101638886588, 42.409497629653913 ], [ 117.315107715271395, 42.409497612951988 ], [ 117.315107737809626, 42.409502115895009 ], [ 117.315119890580092, 42.409502082490185 ], [ 117.315119913119204, 42.409506585433185 ] ] ] } },
{ "type": "Feature", "properties": { "crown_id": 3460, "tree_id": "3462", "top_h_m": 23.61, "H_95_Mean": 23.4161, "DBH": 32.6998, "Carbon_kg": 222.337851, "area_m2": 21.5 }, "geometry": { "type": "Polygon", "coordinates": [ [ [ 117.315174555504015, 42.409497429209537 ], [ 117.315186708273501, 42.409497395797622 ], [ 117.315186685729628, 42.409492892854644 ], [ 117.315192762113924, 42.4094928761482 ], [ 117.315192784658237, 42.409497379091185 ], [ 117.315198861042973, 42.409497362384428 ], [ 117.315198838498233, 42.40949285944145 ], [ 117.315204914882528, 42.40949284273438 ], [ 117.315204869792211, 42.409483836848409 ], [ 117.315198793408783, 42.409483853555479 ], [ 117.315198703229925, 42.409465841783501 ], [ 117.315192626848244, 42.40946585849025 ], [ 117.315192581759717, 42.409456852604229 ], [ 117.315186505378875, 42.409456869310645 ], [ 117.315186460291244, 42.409447863424603 ], [ 117.315180383911269, 42.409447880130692 ], [ 117.315180361367908, 42.409443377187664 ], [ 117.315174284988373, 42.409443393893433 ], [ 117.315174262445439, 42.409438890950398 ], [ 117.31516818606633, 42.409438907655833 ], [ 117.315168163523822, 42.409434404712798 ], [ 117.315162087145154, 42.409434421417906 ], [ 117.315162064603101, 42.409429918474856 ], [ 117.315155988224859, 42.409429935179645 ], [ 117.315156033308099, 42.409438941065737 ], [ 117.315149956928963, 42.409438957770206 ], [ 117.315150024552565, 42.409452466599319 ], [ 117.315143948172135, 42.40945248330349 ], [ 117.315143970712938, 42.409456986246511 ], [ 117.315150047093795, 42.409456969542362 ], [ 117.315150137258712, 42.409474981314446 ], [ 117.315156213641302, 42.409474964609956 ], [ 117.315156258724656, 42.409483970495984 ], [ 117.315162335108113, 42.40948395379116 ], [ 117.315162380192348, 42.409492959677159 ], [ 117.315174532960995, 42.409492926266545 ], [ 117.315174555504015, 42.409497429209537 ] ] ] } },
{ "type": "Feature", "properties": { "crown_id": 3509, "tree_id": "3511", "top_h_m": 24.912, "H_95_Mean": 24.744, "DBH": 33.8556, "Carbon_kg": 246.369272, "area_m2": 22.25 }, "geometry": { "type": "Polygon", "coordinates": [ [ [ 117.315204847247045, 42.409479333905431 ], [ 117.315223076396009, 42.409479283782282 ], [ 117.315223031303091, 42.409470277896311 ], [ 117.315229107685198, 42.409470261187955 ], [ 117.315229062591456, 42.409461255301984 ], [ 117.315241215353893, 42.409461221884321 ], [ 117.315241192806155, 42.409456718941328 ], [ 117.315253345567712, 42.409456685522386 ], [ 117.315253323019107, 42.4094521825794 ], [ 117.315247246638776, 42.409452199289035 ], [ 117.315247224090598, 42.409447696346035 ], [ 117.315241147710708, 42.409447713055336 ], [ 117.315241080067551, 42.409434204226329 ], [ 117.315235003688926, 42.409434220935303 ], [ 117.315234913499879, 42.409416209163247 ], [ 117.315216684369233, 42.4094162592882 ], [ 117.315216729461127, 42.409425265174264 ], [ 117.315186347572237, 42.409425348709455 ], [ 117.315186370116038, 42.40942985165249 ], [ 117.315180293737811, 42.409429868358565 ], [ 117.315180338824547, 42.409438874244636 ], [ 117.315186415203627, 42.409438857538561 ], [ 117.315186437747428, 42.409443360481596 ], [ 117.315192514126977, 42.40944334377518 ], [ 117.315192559215461, 42.409452349661208 ], [ 117.315198635595834, 42.409452332954487 ], [ 117.315198680685242, 42.409461338840487 ], [ 117.315204757066482, 42.409461322133438 ], [ 117.315204847247045, 42.409479333905431 ] ] ] } },
{ "type": "Feature", "properties": { "crown_id": 3529, "tree_id": "3531", "top_h_m": 24.643, "H_95_Mean": 24.4548, "DBH": 36.364, "Carbon_kg": 282.572416, "area_m2": 30.0 }, "geometry": { "type": "Polygon", "coordinates": [ [ [ 117.315083206903992, 42.409457153270388 ], [ 117.315137894332068, 42.409457002950354 ], [ 117.315137849251371, 42.409447997064269 ], [ 117.315143925631375, 42.409447980360447 ], [ 117.315143835468348, 42.409429968588249 ], [ 117.315149911846589, 42.409429951884114 ], [ 117.31514986676423, 42.409420945998008 ], [ 117.315137714009452, 42.409420979405958 ], [ 117.315137668928855, 42.409411973519823 ], [ 117.315131592552333, 42.409411990223312 ], [ 117.315131524932781, 42.409398481394078 ], [ 117.315119372182295, 42.409398514800081 ], [ 117.315119394721279, 42.409403017743173 ], [ 117.315107241969926, 42.409403051147876 ], [ 117.315107264508029, 42.409407554090961 ], [ 117.315082959003519, 42.409407620896523 ], [ 117.315082981539916, 42.409412123839616 ], [ 117.315070828786759, 42.409412157240475 ], [ 117.315070918928839, 42.40943016901285 ], [ 117.315083071685478, 42.40943013561197 ], [ 117.315083206903992, 42.409457153270388 ] ] ] } },
{ "type": "Feature", "properties": { "crown_id": 3539, "tree_id": "3541", "top_h_m": 22.649, "H_95_Mean": 22.5802, "DBH": 27.5114, "Carbon_kg": 153.620471, "area_m2": 11.75 }, "geometry": { "type": "Polygon", "coordinates": [ [ [ 117.315259399399466, 42.409452165869446 ], [ 117.315271552160127, 42.409452132448578 ], [ 117.315271507060316, 42.409443126562607 ], [ 117.31527758343978, 42.409443109851694 ], [ 117.315277470688201, 42.409420595136723 ], [ 117.315271394310926, 42.409420611847622 ], [ 117.315271371761071, 42.409416108904608 ], [ 117.315265295384208, 42.409416125615195 ], [ 117.315265272834779, 42.409411622672174 ], [ 117.315259196458371, 42.409411639382434 ], [ 117.315259173909382, 42.409407136439398 ], [ 117.3152530975334, 42.409407153149331 ], [ 117.315253074984852, 42.40940265020631 ], [ 117.315240922233727, 42.409402683625196 ], [ 117.315240944781394, 42.409407186568224 ], [ 117.315234868405383, 42.409407203277183 ], [ 117.315234890952638, 42.409411706220219 ], [ 117.315240967329075, 42.409411689511245 ], [ 117.315241057519842, 42.409429701283322 ], [ 117.315247133898012, 42.409429684574029 ], [ 117.315247201542448, 42.409443193403035 ], [ 117.315253277921926, 42.409443176693415 ], [ 117.31525330047053, 42.409447679636408 ], [ 117.31525937685042, 42.409447662926453 ], [ 117.315259399399466, 42.409452165869446 ] ] ] } },
{ "type": "Feature", "properties": { "crown_id": 3581, "tree_id": "3583", "top_h_m": 25.48, "H_95_Mean": 25.0814, "DBH": 34.5543, "Carbon_kg": 258.789124, "area_m2": 23.5 }, "geometry": { "type": "Polygon", "coordinates": [ [ [ 117.315168140981356, 42.409429901769755 ], [ 117.315174217359569, 42.40942988506432 ], [ 117.315174194816663, 42.409425382121277 ], [ 117.31518027119445, 42.409425365415537 ], [ 117.315180248651117, 42.409420862472494 ], [ 117.315210630537834, 42.409420778938923 ], [ 117.315210585446806, 42.409411773052852 ], [ 117.315228814576173, 42.409411722928844 ], [ 117.315228769482573, 42.409402717042781 ], [ 117.315222693106975, 42.409402733751094 ], [ 117.315222670560615, 42.409398230808058 ], [ 117.315228746935773, 42.409398214099753 ], [ 117.315228724388973, 42.409393711156703 ], [ 117.315216571639539, 42.409393744572988 ], [ 117.31521654909362, 42.409389241629945 ], [ 117.315210472719329, 42.409389258337612 ], [ 117.315210450173851, 42.409384755394548 ], [ 117.315204373799986, 42.409384772101888 ], [ 117.315204351254934, 42.409380269158817 ], [ 117.315186122134648, 42.409380319278895 ], [ 117.315186144678378, 42.409384822221966 ], [ 117.315161839182821, 42.409384889044226 ], [ 117.315161906808839, 42.409398397873453 ], [ 117.315155830433653, 42.409398414578227 ], [ 117.315155852975238, 42.409402917521298 ], [ 117.315149776599583, 42.409402934225746 ], [ 117.315149799140727, 42.409407437168809 ], [ 117.315143722764645, 42.409407453872952 ], [ 117.315143767846109, 42.409416459759086 ], [ 117.315155920600006, 42.409416426350496 ], [ 117.315155965683232, 42.409425432236596 ], [ 117.315168118438848, 42.409425398826713 ], [ 117.315168140981356, 42.409429901769755 ] ] ] } },
{ "type": "Feature", "properties": { "crown_id": 3607, "tree_id": "3609", "top_h_m": 24.965, "H_95_Mean": 24.771, "DBH": 34.9052, "Carbon_kg": 262.175013, "area_m2": 25.0 }, "geometry": { "type": "Polygon", "coordinates": [ [ [ 117.315283547065491, 42.409420578425497 ], [ 117.315289623442766, 42.409420561713951 ], [ 117.315289578340412, 42.409411555827951 ], [ 117.315319960222354, 42.409411472265418 ], [ 117.315319779795843, 42.409375448721377 ], [ 117.315307627050075, 42.409375482147297 ], [ 117.315307604497647, 42.409370979204283 ], [ 117.315283299007717, 42.409371046052279 ], [ 117.315283276457023, 42.409366543109243 ], [ 117.315277200084992, 42.409366559820427 ], [ 117.315277177534753, 42.409362056877377 ], [ 117.315265024791472, 42.409362090298785 ], [ 117.315265092439603, 42.409375599127934 ], [ 117.315252939693693, 42.409375632548077 ], [ 117.315252984790732, 42.409384638434176 ], [ 117.31524690841691, 42.409384655143768 ], [ 117.315246976061175, 42.409398163972888 ], [ 117.315259128811434, 42.409398130553363 ], [ 117.315259151360394, 42.409402633496391 ], [ 117.315265227735964, 42.409402616786146 ], [ 117.315265250285364, 42.409407119729153 ], [ 117.315271326661346, 42.409407103018587 ], [ 117.315271349211201, 42.409411605961594 ], [ 117.31527742558761, 42.409411589250709 ], [ 117.31527744813792, 42.409416092193723 ], [ 117.31528352451474, 42.409416075482504 ], [ 117.315283547065491, 42.409420578425497 ] ] ] } }
]
}
