{
"type": "FeatureCollection",
"name": "tile_22_15",
"crs": { "type": "name", "properties": { "name": "urn:ogc:def:crs:OGC:1.3:CRS84" } },
"features": [
{ "type": "Feature", "properties": { "crown_id": 6422, "tree_id": "6427", "top_h_m": 24.612, "H_95_Mean": 24.3384, "DBH": 38.2969, "Carbon_kg": 312.778253, "area_m2": 37.0 }, "geometry": { "type": "Polygon", "coordinates": [ [ [ 117.313561060035298, 42.407628603395338 ], [ 117.313567136240621, 42.407628586775665 ], [ 117.313567091387526, 42.407619580885346 ], [ 117.313573167591969, 42.407619564265353 ], [ 117.31357314516498, 42.407615061320186 ], [ 117.313597449981017, 42.407614994836976 ], [ 117.313597382694851, 42.407601486001496 ], [ 117.313591306492171, 42.407601502622782 ], [ 117.313591261635636, 42.407592496732441 ], [ 117.31359733783745, 42.407592480111163 ], [ 117.313597248122733, 42.407574468330459 ], [ 117.313591171922653, 42.407574484951709 ], [ 117.3135911494944, 42.407569982006535 ], [ 117.313585073294746, 42.407569998627466 ], [ 117.313585006011365, 42.407556489791865 ], [ 117.313578929813005, 42.407556506412483 ], [ 117.313578907385661, 42.407552003467273 ], [ 117.313548526395962, 42.407552086565467 ], [ 117.313548571246315, 42.407561092455907 ], [ 117.3135424950475, 42.407561109074578 ], [ 117.313542562321786, 42.407574617910221 ], [ 117.313536486121649, 42.407574634528579 ], [ 117.313536530970296, 42.407583640418999 ], [ 117.313530454769293, 42.407583657037044 ], [ 117.313530499617116, 42.407592662927449 ], [ 117.313524423415231, 42.407592679545189 ], [ 117.313524445838723, 42.407597182490377 ], [ 117.313512293434087, 42.40759721572487 ], [ 117.313512360701949, 42.40761072456047 ], [ 117.313536665516423, 42.40761065809015 ], [ 117.31353671036517, 42.407619663980512 ], [ 117.313542786569656, 42.407619647362125 ], [ 117.313542808994484, 42.407624150307285 ], [ 117.31356103760919, 42.407624100450185 ], [ 117.313561060035298, 42.407628603395338 ] ] ] } },
{ "type": "Feature", "properties": { "crown_id": 6452, "tree_id": "6457", "top_h_m": 20.344, "H_95_Mean": 20.1273, "DBH": 32.1276, "Carbon_kg": 196.193638, "area_m2": 26.5 }, "geometry": { "type": "Polygon", "coordinates": [ [ [ 117.313378684220794, 42.407611090055092 ], [ 117.313402989035737, 42.407611023613143 ], [ 117.313402944206132, 42.407602017722652 ], [ 117.313409020408983, 42.407602001111357 ], [ 117.313408908332875, 42.407579486385089 ], [ 117.313402832132184, 42.40757950299637 ], [ 117.31340274247313, 42.407561491215283 ], [ 117.313396666274201, 42.40756150782623 ], [ 117.313396599031265, 42.407547998990374 ], [ 117.313366218042958, 42.407548082040243 ], [ 117.313366195630834, 42.407543579094941 ], [ 117.313354043236373, 42.407543612312637 ], [ 117.313354132881429, 42.407561624093852 ], [ 117.313348056682429, 42.407561640702227 ], [ 117.313348079093288, 42.407566143647536 ], [ 117.3133541552927, 42.407566127039161 ], [ 117.313354312171811, 42.407597647656132 ], [ 117.313372540779156, 42.407597597829017 ], [ 117.313372563191791, 42.407602100774284 ], [ 117.313378639394671, 42.407602084164608 ], [ 117.313378684220794, 42.407611090055092 ] ] ] } },
{ "type": "Feature", "properties": { "crown_id": 6453, "tree_id": "6458", "top_h_m": 23.781, "H_95_Mean": 23.406, "DBH": 32.9832, "Carbon_kg": 226.180948, "area_m2": 22.25 }, "geometry": { "type": "Polygon", "coordinates": [ [ [ 117.313487988624715, 42.407597282190004 ], [ 117.313506217231733, 42.407597232341644 ], [ 117.313506194809563, 42.407592729396434 ], [ 117.313518347213346, 42.407592696162588 ], [ 117.313518324790309, 42.407588193217379 ], [ 117.313524400991767, 42.407588176599965 ], [ 117.313524356144825, 42.40757917070956 ], [ 117.313530432345388, 42.407579154091827 ], [ 117.313530387497607, 42.407570148201408 ], [ 117.313536463697304, 42.40757013158337 ], [ 117.313536396424354, 42.407556622747713 ], [ 117.313542472622757, 42.407556606129354 ], [ 117.313542427773271, 42.407547600238921 ], [ 117.31351812298314, 42.407547666710379 ], [ 117.313518100560159, 42.407543163765119 ], [ 117.31350594816594, 42.407543196998915 ], [ 117.313505925743826, 42.40753869405367 ], [ 117.313499849547114, 42.407538710670075 ], [ 117.313499871968816, 42.407543213615327 ], [ 117.313487719574539, 42.40754324684719 ], [ 117.313487809257865, 42.407561258628192 ], [ 117.313481733058978, 42.407561275243644 ], [ 117.313481890001924, 42.407592795860261 ], [ 117.313487966203837, 42.407592779244794 ], [ 117.313487988624715, 42.407597282190004 ] ] ] } },
{ "type": "Feature", "properties": { "crown_id": 6458, "tree_id": "6463", "top_h_m": 23.025, "H_95_Mean": 22.5217, "DBH": 38.7788, "Carbon_kg": 306.376442, "area_m2": 44.75 }, "geometry": { "type": "Polygon", "coordinates": [ [ [ 117.313421240062993, 42.407615476723493 ], [ 117.313433392471282, 42.407615443498635 ], [ 117.313433370054298, 42.407610940553411 ], [ 117.313439446258002, 42.407610923940503 ], [ 117.313439423840578, 42.407606420995279 ], [ 117.31345157624709, 42.407606387768503 ], [ 117.313451531410522, 42.407597381878048 ], [ 117.313463683815272, 42.407597348649979 ], [ 117.313463661396156, 42.407592845704762 ], [ 117.313475813800011, 42.407592812475428 ], [ 117.313475634440138, 42.407556788913531 ], [ 117.313481710638584, 42.407556772298399 ], [ 117.313481665797809, 42.407547766407887 ], [ 117.313475589600216, 42.407547783023034 ], [ 117.313475522340383, 42.407534274187228 ], [ 117.313463369947826, 42.407534307416512 ], [ 117.313463347528767, 42.407529804471231 ], [ 117.313445118941189, 42.407529854312727 ], [ 117.313445096523438, 42.407525351367426 ], [ 117.313420791741649, 42.407525417818221 ], [ 117.313420858989716, 42.407538926654112 ], [ 117.313408706596192, 42.407538959877591 ], [ 117.313408729011371, 42.407543462822872 ], [ 117.313402652814162, 42.407543479434139 ], [ 117.313402720058392, 42.407556988270002 ], [ 117.313408796256894, 42.407556971658735 ], [ 117.313408885917681, 42.407574983439815 ], [ 117.313414962117918, 42.407574966828214 ], [ 117.313415141443187, 42.407610990390211 ], [ 117.313421217646876, 42.407610973778269 ], [ 117.313421240062993, 42.407615476723493 ] ] ] } },
{ "type": "Feature", "properties": { "crown_id": 6518, "tree_id": "6523", "top_h_m": 19.451, "H_95_Mean": 19.2165, "DBH": 32.1662, "Carbon_kg": 191.355503, "area_m2": 29.0 }, "geometry": { "type": "Polygon", "coordinates": [ [ [ 117.313584983583581, 42.40755198684667 ], [ 117.313597135979435, 42.407551953604489 ], [ 117.31359711355077, 42.407547450659294 ], [ 117.313609265945715, 42.407547417415827 ], [ 117.313609221086693, 42.407538411525415 ], [ 117.313615297283292, 42.40753839490322 ], [ 117.313615274853362, 42.407533891958003 ], [ 117.31362135104952, 42.407533875335481 ], [ 117.313621328619163, 42.407529372390279 ], [ 117.313633481010569, 42.407529339144261 ], [ 117.313633436148137, 42.407520333253842 ], [ 117.313615207563586, 42.40752038312236 ], [ 117.313615185133671, 42.407515880177137 ], [ 117.313609108939247, 42.407515896799339 ], [ 117.313609086509771, 42.407511393854108 ], [ 117.313603010315788, 42.407511410475969 ], [ 117.313602965457733, 42.407502404585507 ], [ 117.313590813071457, 42.407502437828271 ], [ 117.313590790643303, 42.407497934883025 ], [ 117.313578638257894, 42.407497968124503 ], [ 117.313578615830608, 42.407493465179236 ], [ 117.313566463446037, 42.407493498419413 ], [ 117.313566485872457, 42.407498001364679 ], [ 117.313560409679724, 42.407498017984281 ], [ 117.313560454531711, 42.4075070238748 ], [ 117.313554378338111, 42.407507040494082 ], [ 117.313554423189231, 42.407516046384593 ], [ 117.313548346994764, 42.407516063003563 ], [ 117.313548414270159, 42.407529571839305 ], [ 117.313542338074384, 42.407529588457969 ], [ 117.313542360499099, 42.407534091403207 ], [ 117.313548436695314, 42.407534074784536 ], [ 117.313548503970793, 42.407547583620243 ], [ 117.313584961155811, 42.40754748390146 ], [ 117.313584983583581, 42.40755198684667 ] ] ] } },
{ "type": "Feature", "properties": { "crown_id": 6527, "tree_id": "6532", "top_h_m": 20.529, "H_95_Mean": 20.462, "DBH": 34.5272, "Carbon_kg": 229.072004, "area_m2": 34.0 }, "geometry": { "type": "Polygon", "coordinates": [ [ [ 117.313341890841855, 42.407543645529024 ], [ 117.313347967039107, 42.40754362892099 ], [ 117.313347944628291, 42.407539125975681 ], [ 117.313372249415522, 42.407539059540305 ], [ 117.313372271828072, 42.407543562485607 ], [ 117.313396576616952, 42.407543496045072 ], [ 117.313396554202669, 42.407538993099784 ], [ 117.313402630399452, 42.407538976488844 ], [ 117.313402607984699, 42.407534473543549 ], [ 117.313414760377384, 42.407534440320717 ], [ 117.313414670715062, 42.407516428539509 ], [ 117.313420746909642, 42.407516411927617 ], [ 117.313420679661647, 42.407502903091689 ], [ 117.31341460346836, 42.407502919703575 ], [ 117.313414581052811, 42.407498416758251 ], [ 117.31340850485995, 42.407498433369803 ], [ 117.313408437614626, 42.407484924533804 ], [ 117.313384132848384, 42.407484990976769 ], [ 117.313384155261758, 42.407489493922121 ], [ 117.313365926685705, 42.407489543750977 ], [ 117.313365949097772, 42.407494046696321 ], [ 117.313347720520369, 42.407494096522299 ], [ 117.313347742931143, 42.407498599467658 ], [ 117.313341666738239, 42.407498616075671 ], [ 117.31334171155892, 42.407507621966367 ], [ 117.31334778775269, 42.407507605358347 ], [ 117.313347810163492, 42.407512108303692 ], [ 117.313341733969267, 42.407512124911705 ], [ 117.31334177878999, 42.407521130802387 ], [ 117.313335702594898, 42.407521147410094 ], [ 117.313335747414769, 42.407530153300769 ], [ 117.313341823610727, 42.407530136693062 ], [ 117.313341890841855, 42.407543645529024 ] ] ] } },
{ "type": "Feature", "properties": { "crown_id": 6565, "tree_id": "6570", "top_h_m": 19.557, "H_95_Mean": 19.0698, "DBH": 33.824, "Carbon_kg": 210.795326, "area_m2": 35.75 }, "geometry": { "type": "Polygon", "coordinates": [ [ [ 117.31353016325896, 42.407525118749071 ], [ 117.313542315649684, 42.407525085512731 ], [ 117.313542248375583, 42.40751157667696 ], [ 117.313548324569609, 42.40751156005831 ], [ 117.313548279719399, 42.407502554167792 ], [ 117.313554355912558, 42.407502537548829 ], [ 117.313554311061466, 42.407493531658297 ], [ 117.313560387253759, 42.407493515039022 ], [ 117.313560364827779, 42.407489012093748 ], [ 117.313566441019645, 42.407488995474147 ], [ 117.31356641859324, 42.40748449252888 ], [ 117.313560342401814, 42.407484509148482 ], [ 117.313560297549913, 42.407475503257928 ], [ 117.31355422135934, 42.407475519877202 ], [ 117.313554198933829, 42.407471016931922 ], [ 117.313548122743697, 42.407471033550856 ], [ 117.313548055468488, 42.407457524714992 ], [ 117.313541979279648, 42.407457541333606 ], [ 117.313541956855033, 42.407453038388311 ], [ 117.31353588066662, 42.407453055006592 ], [ 117.313535903090838, 42.407457557951901 ], [ 117.313529826901998, 42.407457574569875 ], [ 117.313529849325747, 42.407462077515184 ], [ 117.313493392189997, 42.407462177216267 ], [ 117.313493414611159, 42.40746668016159 ], [ 117.313487338421396, 42.407466696777313 ], [ 117.313487360842146, 42.407471199722636 ], [ 117.313481284651971, 42.407471216338038 ], [ 117.313481329492575, 42.407480222228664 ], [ 117.313487405683617, 42.407480205613247 ], [ 117.313487428104366, 42.407484708558563 ], [ 117.313475275721402, 42.407484741789048 ], [ 117.313475298141284, 42.407489244734364 ], [ 117.313469221949347, 42.407489261349134 ], [ 117.31346924436879, 42.407493764294458 ], [ 117.313475320561167, 42.407493747679666 ], [ 117.31347534298105, 42.407498250624982 ], [ 117.313481419173854, 42.407498234009879 ], [ 117.313481441594192, 42.407502736955166 ], [ 117.313487517787408, 42.407502720339735 ], [ 117.313487540208186, 42.407507223285023 ], [ 117.313505768789142, 42.407507173436812 ], [ 117.313505813633313, 42.407516179327367 ], [ 117.313511889827794, 42.407516162710643 ], [ 117.313511912250334, 42.407520665655909 ], [ 117.31351798844527, 42.407520649038865 ], [ 117.313517966022303, 42.407516146093606 ], [ 117.313530118411308, 42.407516112858559 ], [ 117.31353016325896, 42.407525118749071 ] ] ] } },
{ "type": "Feature", "properties": { "crown_id": 6601, "tree_id": "6606", "top_h_m": 22.139, "H_95_Mean": 21.7417, "DBH": 37.2301, "Carbon_kg": 276.39297, "area_m2": 40.75 }, "geometry": { "type": "Polygon", "coordinates": [ [ [ 117.313432809631323, 42.407498366921644 ], [ 117.313463190595442, 42.407498283854203 ], [ 117.31346312333838, 42.407484775018276 ], [ 117.313469199529891, 42.407484758403825 ], [ 117.313469177110449, 42.407480255458516 ], [ 117.313475253301519, 42.407480238843753 ], [ 117.313475230881636, 42.40747573589843 ], [ 117.31346915469102, 42.4074757525132 ], [ 117.313469132271564, 42.407471249567877 ], [ 117.313475208461782, 42.407471232953121 ], [ 117.313475186041927, 42.407466730007798 ], [ 117.313481262231676, 42.407466713392715 ], [ 117.313481194970805, 42.407453204556745 ], [ 117.313469042593894, 42.407453237786562 ], [ 117.313468975335695, 42.407439728950543 ], [ 117.313462899148533, 42.407439745564965 ], [ 117.313462876729574, 42.407435242619613 ], [ 117.313456800542852, 42.407435259233715 ], [ 117.313456778124333, 42.407430756288356 ], [ 117.313450701938024, 42.407430772902124 ], [ 117.313450679519946, 42.407426269956765 ], [ 117.313426374776455, 42.407426336408626 ], [ 117.313426419609144, 42.407435342299358 ], [ 117.313420343422365, 42.407435358911528 ], [ 117.313420388254215, 42.407444364802267 ], [ 117.313402159691293, 42.407444414636835 ], [ 117.313402182105918, 42.407448917582201 ], [ 117.313390029729746, 42.407448950803641 ], [ 117.313390186626165, 42.407480471421181 ], [ 117.31341449139066, 42.407480404976923 ], [ 117.313414536221714, 42.407489410867591 ], [ 117.313420612413708, 42.407489394255713 ], [ 117.313420634829669, 42.40749389720105 ], [ 117.313432787214495, 42.407493863976327 ], [ 117.313432809631323, 42.407498366921644 ] ] ] } },
{ "type": "Feature", "properties": { "crown_id": 6613, "tree_id": "6618", "top_h_m": 17.228, "H_95_Mean": 17.061, "DBH": 28.7042, "Carbon_kg": 141.776961, "area_m2": 23.25 }, "geometry": { "type": "Polygon", "coordinates": [ [ [ 117.313566396166848, 42.407479989583614 ], [ 117.31357854854879, 42.407479956343451 ], [ 117.313578526121532, 42.407475453398177 ], [ 117.313584602312076, 42.407475436777609 ], [ 117.313584557456707, 42.407466430887084 ], [ 117.313602786025669, 42.407466381023475 ], [ 117.31360271873875, 42.407452872187662 ], [ 117.313614871115419, 42.407452838943662 ], [ 117.313614848685589, 42.407448335998396 ], [ 117.31362092487349, 42.407448319375916 ], [ 117.313620857582691, 42.407434810540082 ], [ 117.313626933769299, 42.407434793917282 ], [ 117.313626888907933, 42.407425788026721 ], [ 117.313620812722192, 42.407425804649499 ], [ 117.313620790291964, 42.407421301704211 ], [ 117.313608637921376, 42.407421334948808 ], [ 117.313608615492015, 42.407416832003499 ], [ 117.313602539307141, 42.407416848625324 ], [ 117.313602584165025, 42.407425854515935 ], [ 117.313590431793529, 42.407425887758606 ], [ 117.313590454221611, 42.407430390703901 ], [ 117.313584378035415, 42.407430407324753 ], [ 117.313584400463057, 42.407434910270062 ], [ 117.313572248089812, 42.407434943510822 ], [ 117.313572270516588, 42.40743944645611 ], [ 117.313547965768265, 42.40743951293377 ], [ 117.313548033043432, 42.40745302176969 ], [ 117.313554109231816, 42.407453005150749 ], [ 117.313554176508305, 42.407466513986634 ], [ 117.313560252698011, 42.407466497367373 ], [ 117.313560275123947, 42.407471000312647 ], [ 117.31356635131408, 42.407470983693052 ], [ 117.313566396166848, 42.407479989583614 ] ] ] } },
{ "type": "Feature", "properties": { "crown_id": 6636, "tree_id": "6641", "top_h_m": 18.841, "H_95_Mean": 18.494, "DBH": 31.1542, "Carbon_kg": 175.394379, "area_m2": 27.5 }, "geometry": { "type": "Polygon", "coordinates": [ [ [ 117.313487293579954, 42.407457690886673 ], [ 117.313523750713131, 42.407457591187523 ], [ 117.313523728289809, 42.407453088242214 ], [ 117.313529804478222, 42.407453071624566 ], [ 117.313529782054474, 42.407448568679257 ], [ 117.313541934430418, 42.407448535442988 ], [ 117.313541844731972, 42.407430523661745 ], [ 117.313535768545734, 42.407430540280025 ], [ 117.313535634000843, 42.407403522608007 ], [ 117.313529557817219, 42.407403539225953 ], [ 117.313529602664644, 42.407412545116642 ], [ 117.313493145557572, 42.407412644817562 ], [ 117.313493123136467, 42.40740814187221 ], [ 117.313474894584161, 42.407408191718318 ], [ 117.313474917003973, 42.407412694663684 ], [ 117.313468840819425, 42.407412711278411 ], [ 117.313468885658153, 42.407421717169129 ], [ 117.313456733287325, 42.407421750397624 ], [ 117.313456755705829, 42.407426253343004 ], [ 117.313462831891684, 42.407426236728909 ], [ 117.313462854310629, 42.407430739674268 ], [ 117.313468930496924, 42.407430723059846 ], [ 117.313468952916296, 42.407435226005198 ], [ 117.313475029103017, 42.407435209390457 ], [ 117.313475096362524, 42.407448718226476 ], [ 117.313487248738539, 42.407448684996027 ], [ 117.313487293579954, 42.407457690886673 ] ] ] } },
{ "type": "Feature", "properties": { "crown_id": 6642, "tree_id": "6647", "top_h_m": 21.491, "H_95_Mean": 21.2112, "DBH": 32.4458, "Carbon_kg": 206.435754, "area_m2": 25.0 }, "geometry": { "type": "Polygon", "coordinates": [ [ [ 117.313377854940683, 42.407444481078429 ], [ 117.313396083503662, 42.407444431247718 ], [ 117.313396061089477, 42.407439928302331 ], [ 117.313414289651092, 42.407439878468736 ], [ 117.313414244820137, 42.40743087257799 ], [ 117.313420321006461, 42.407430855966162 ], [ 117.313420231342874, 42.407412844184634 ], [ 117.313414155158284, 42.40741286079647 ], [ 117.313414132742835, 42.407408357851075 ], [ 117.313408056558686, 42.407408374462577 ], [ 117.313408034143663, 42.407403871517168 ], [ 117.31340195795994, 42.40740388812835 ], [ 117.313401913130775, 42.40739488223754 ], [ 117.313383684582178, 42.407394932069131 ], [ 117.313383662168917, 42.407390429123708 ], [ 117.313365433621556, 42.407390478952387 ], [ 117.313365456033509, 42.407394981897824 ], [ 117.313359379850596, 42.407394998506746 ], [ 117.313359402262137, 42.407399501452169 ], [ 117.313353326078797, 42.407399518060764 ], [ 117.313353438134314, 42.407422032787863 ], [ 117.313359514319814, 42.407422016179247 ], [ 117.313359603966063, 42.407440027960838 ], [ 117.313377832527792, 42.407439978133041 ], [ 117.313377854940683, 42.407444481078429 ] ] ] } }
]
}
