{
"type": "FeatureCollection",
"name": "tile_12_11",
"crs": { "type": "name", "properties": { "name": "urn:ogc:def:crs:OGC:1.3:CRS84" } },
"features": [
{ "type": "Feature", "properties": { "crown_id": 3655, "tree_id": "3657", "top_h_m": 24.251, "H_95_Mean": 23.9783, "DBH": 32.6632, "Carbon_kg": 224.971466, "area_m2": 20.5 }, "geometry": { "type": "Polygon", "coordinates": [ [ [ 117.312451775911711, 42.409392307407366 ], [ 117.312457852287892, 42.409392290845929 ], [ 117.312457829939277, 42.409387787901686 ], [ 117.312500364569445, 42.409387671962605 ], [ 117.312500342217803, 42.409383169018362 ], [ 117.312518571343603, 42.409383119325355 ], [ 117.312518548990667, 42.40937861638114 ], [ 117.312512472615836, 42.409378632945796 ], [ 117.312512427910846, 42.409369627057316 ], [ 117.312506351536882, 42.409369643621645 ], [ 117.312506306832788, 42.409360637733165 ], [ 117.312500230459676, 42.409360654297167 ], [ 117.312500185756448, 42.409351648408666 ], [ 117.312494109384204, 42.409351664972341 ], [ 117.312494042330741, 42.409338156139555 ], [ 117.312487965959789, 42.409338172702888 ], [ 117.312487988310522, 42.40934267564716 ], [ 117.312475835567739, 42.409342708772876 ], [ 117.312475880267456, 42.409351714661412 ], [ 117.312457651150638, 42.409351764347605 ], [ 117.312457695847783, 42.409360770236155 ], [ 117.312451619474629, 42.409360786797571 ], [ 117.312451686519069, 42.409374295630364 ], [ 117.312445610144607, 42.409374312191474 ], [ 117.312445677187782, 42.409387821024247 ], [ 117.312451753563536, 42.40938780446313 ], [ 117.312451775911711, 42.409392307407366 ] ] ] } },
{ "type": "Feature", "properties": { "crown_id": 3688, "tree_id": "3690", "top_h_m": 24.649, "H_95_Mean": 24.2385, "DBH": 37.1129, "Carbon_kg": 292.881076, "area_m2": 33.0 }, "geometry": { "type": "Polygon", "coordinates": [ [ [ 117.312372783020777, 42.409392522676796 ], [ 117.312378859397043, 42.409392506119552 ], [ 117.312378837054069, 42.409388003175273 ], [ 117.312384913429909, 42.409387986617702 ], [ 117.312384891086509, 42.409383483673409 ], [ 117.312421349338706, 42.409383384321224 ], [ 117.312421326992705, 42.409378881376959 ], [ 117.312439556117425, 42.409378831696522 ], [ 117.312439511422866, 42.409369825807993 ], [ 117.312445587796887, 42.409369809247202 ], [ 117.312445520753769, 42.409356300414402 ], [ 117.312451597126497, 42.409356283853306 ], [ 117.312451574778365, 42.409351780909027 ], [ 117.31243942203379, 42.409351814030892 ], [ 117.312439377339288, 42.409342808142327 ], [ 117.312433300967854, 42.409342824702783 ], [ 117.312433233927464, 42.40932931586989 ], [ 117.312427157557337, 42.409329332429998 ], [ 117.312427179903679, 42.409333835374305 ], [ 117.312384645309621, 42.409333951286115 ], [ 117.31238466765295, 42.409338454230443 ], [ 117.312372514910876, 42.409338487345217 ], [ 117.312372537253339, 42.409342990289538 ], [ 117.312360384510384, 42.409343023403018 ], [ 117.312360429193589, 42.409352029291654 ], [ 117.312366505565933, 42.40935201273507 ], [ 117.312366527907983, 42.409356515679377 ], [ 117.312372604280753, 42.409356499122467 ], [ 117.31237262662323, 42.409361002066774 ], [ 117.312366550250033, 42.409361018623684 ], [ 117.312366594934147, 42.409370024512285 ], [ 117.312372671308225, 42.409370007955367 ], [ 117.31237269365073, 42.40937451089966 ], [ 117.312366617276197, 42.409374527456585 ], [ 117.31236666196034, 42.409383533345164 ], [ 117.312372738335739, 42.409383516788232 ], [ 117.312372783020777, 42.409392522676796 ] ] ] } },
{ "type": "Feature", "properties": { "crown_id": 3689, "tree_id": "3691", "top_h_m": 20.916, "H_95_Mean": 20.6298, "DBH": 30.5207, "Carbon_kg": 179.517336, "area_m2": 20.75 }, "geometry": { "type": "Polygon", "coordinates": [ [ [ 117.312530768801778, 42.409392092083507 ], [ 117.312536845177888, 42.409392075517879 ], [ 117.312536755760917, 42.409374063741019 ], [ 117.312554984884031, 42.409374014042236 ], [ 117.312554940172959, 42.409365008153792 ], [ 117.312548863799478, 42.409365024720373 ], [ 117.312548752024071, 42.409342509999213 ], [ 117.312542675652722, 42.40934252656546 ], [ 117.312542608588842, 42.409329017732709 ], [ 117.312530455848787, 42.409329050864208 ], [ 117.312530433495027, 42.409324547919944 ], [ 117.312518280755796, 42.409324581050164 ], [ 117.312518258402932, 42.4093200781059 ], [ 117.312512182033743, 42.409320094670512 ], [ 117.312512159681319, 42.409315591726234 ], [ 117.312506083312556, 42.409315608290534 ], [ 117.312506105664554, 42.409320111234805 ], [ 117.312500029295364, 42.409320127798793 ], [ 117.312500163404863, 42.409347145464409 ], [ 117.312506239776667, 42.409347128900407 ], [ 117.312506284480733, 42.409356134788915 ], [ 117.312512360853404, 42.409356118224601 ], [ 117.312512405558365, 42.409365124113087 ], [ 117.312518481931889, 42.409365107548439 ], [ 117.312518526637731, 42.409374113436911 ], [ 117.312524603012136, 42.409374096871936 ], [ 117.31252467007225, 42.409387605704602 ], [ 117.312530746447948, 42.4093875891393 ], [ 117.312530768801778, 42.409392092083507 ] ] ] } },
{ "type": "Feature", "properties": { "crown_id": 3721, "tree_id": "3723", "top_h_m": 22.868, "H_95_Mean": 22.7999, "DBH": 30.1633, "Carbon_kg": 185.989178, "area_m2": 16.5 }, "geometry": { "type": "Polygon", "coordinates": [ [ [ 117.3124454760584, 42.409347294525844 ], [ 117.312469781545772, 42.409347228279536 ], [ 117.312469736846907, 42.409338222390986 ], [ 117.312481889588824, 42.40933818926591 ], [ 117.31248186723856, 42.409333686321631 ], [ 117.312494019979582, 42.409333653195276 ], [ 117.31249393057503, 42.409315641418154 ], [ 117.312500006943807, 42.4093156248545 ], [ 117.312499917537593, 42.409297613077335 ], [ 117.312487764803521, 42.409297646204301 ], [ 117.312487787154197, 42.409302149148608 ], [ 117.312481710786741, 42.409302165711608 ], [ 117.312481755487227, 42.409311171600201 ], [ 117.31245745001381, 42.40931123784901 ], [ 117.312457472362325, 42.409315740793311 ], [ 117.312439243255895, 42.409315790476533 ], [ 117.312439354992051, 42.409338305198041 ], [ 117.312445431363045, 42.409338288637272 ], [ 117.3124454760584, 42.409347294525844 ] ] ] } },
{ "type": "Feature", "properties": { "crown_id": 3722, "tree_id": "3724", "top_h_m": 23.339, "H_95_Mean": 22.9417, "DBH": 34.7464, "Carbon_kg": 248.252575, "area_m2": 28.25 }, "geometry": { "type": "Polygon", "coordinates": [ [ [ 117.312561061258407, 42.409373997475335 ], [ 117.312573214007102, 42.409373964340546 ], [ 117.312573191650273, 42.409369461396331 ], [ 117.312603573519795, 42.40936937855377 ], [ 117.312603417006841, 42.409337857944301 ], [ 117.312609493377678, 42.409337841374843 ], [ 117.312609448658876, 42.409328835486399 ], [ 117.312603372288905, 42.40932885205585 ], [ 117.312603305212022, 42.409315343223149 ], [ 117.312597228843345, 42.409315359792267 ], [ 117.312597184126332, 42.40930635390378 ], [ 117.312578955022886, 42.409306403609222 ], [ 117.31257897738007, 42.409310906553472 ], [ 117.312572901011805, 42.409310923121311 ], [ 117.312572923368577, 42.409315426065561 ], [ 117.312542541525005, 42.409315508899923 ], [ 117.312542563879632, 42.409320011844194 ], [ 117.312536487510471, 42.4093200284101 ], [ 117.312536509864628, 42.409324531354365 ], [ 117.312548662603817, 42.409324498222219 ], [ 117.31254872966899, 42.40933800705497 ], [ 117.312554806039884, 42.409337990488403 ], [ 117.312554917817451, 42.409360505209577 ], [ 117.312560994190505, 42.409360488642676 ], [ 117.312561061258407, 42.409373997475335 ] ] ] } },
{ "type": "Feature", "properties": { "crown_id": 3782, "tree_id": "3784", "top_h_m": 21.026, "H_95_Mean": 21.0191, "DBH": 30.5016, "Carbon_kg": 181.284456, "area_m2": 20.0 }, "geometry": { "type": "Polygon", "coordinates": [ [ [ 117.312384622966306, 42.409329448341801 ], [ 117.31242108118721, 42.409329348989793 ], [ 117.312421058841267, 42.4093248460455 ], [ 117.312433211580654, 42.40932481292559 ], [ 117.312433144540321, 42.409311304092647 ], [ 117.31245137364543, 42.409311254410397 ], [ 117.312451351297355, 42.409306751466076 ], [ 117.312439198561478, 42.409306784587912 ], [ 117.312439176214284, 42.409302281643583 ], [ 117.312420947111733, 42.409302331323893 ], [ 117.312420924765846, 42.409297828379557 ], [ 117.312414848398745, 42.409297844939012 ], [ 117.312414826053285, 42.409293341994683 ], [ 117.312408749686625, 42.409293358553803 ], [ 117.312408727341591, 42.409288855609468 ], [ 117.312396574609124, 42.409288888726763 ], [ 117.312396552264985, 42.409284385782406 ], [ 117.312384399533357, 42.409284418898409 ], [ 117.312384421876629, 42.409288921842766 ], [ 117.312378345510396, 42.409288938400273 ], [ 117.312378367853228, 42.40929344134463 ], [ 117.31237229148654, 42.409293457901839 ], [ 117.31237235851377, 42.409306966734881 ], [ 117.312366282145788, 42.409306983291771 ], [ 117.312366304487782, 42.409311486236106 ], [ 117.312378457224654, 42.409311453122015 ], [ 117.312378524253262, 42.409324961955015 ], [ 117.312384600622991, 42.409324945397479 ], [ 117.312384622966306, 42.409329448341801 ] ] ] } },
{ "type": "Feature", "properties": { "crown_id": 3798, "tree_id": "3800", "top_h_m": 21.686, "H_95_Mean": 21.6988, "DBH": 29.2344, "Carbon_kg": 169.587236, "area_m2": 16.0 }, "geometry": { "type": "Polygon", "coordinates": [ [ [ 117.3126093815807, 42.409315326653697 ], [ 117.31262761068669, 42.409315276943417 ], [ 117.312627588326009, 42.409310773999188 ], [ 117.312645817430649, 42.409310724286023 ], [ 117.312645772706688, 42.409301718397565 ], [ 117.312651849074015, 42.409301701825861 ], [ 117.312651692537258, 42.409270181216172 ], [ 117.312633463444385, 42.40927023093024 ], [ 117.312633508166542, 42.409279236818762 ], [ 117.312615279070997, 42.409279286529937 ], [ 117.312615301430782, 42.409283789474195 ], [ 117.312603148699495, 42.409283822613382 ], [ 117.312603171058413, 42.40928832555764 ], [ 117.312597094692364, 42.409288342126764 ], [ 117.31259716176784, 42.40930185095953 ], [ 117.312603238135196, 42.409301834390419 ], [ 117.312603282853075, 42.409310840278913 ], [ 117.312609359221327, 42.409310823709461 ], [ 117.3126093815807, 42.409315326653697 ] ] ] } },
{ "type": "Feature", "properties": { "crown_id": 3807, "tree_id": "3809", "top_h_m": 19.242, "H_95_Mean": 19.0566, "DBH": 30.1811, "Carbon_kg": 167.469881, "area_m2": 23.0 }, "geometry": { "type": "Polygon", "coordinates": [ [ [ 117.312524334772121, 42.409320061540953 ], [ 117.312530411141282, 42.409320044975694 ], [ 117.31253038878755, 42.409315542031415 ], [ 117.312536465156285, 42.409315525465836 ], [ 117.312536442802127, 42.409311022521557 ], [ 117.312566824643525, 42.409310939688822 ], [ 117.312566802287208, 42.409306436744565 ], [ 117.312572878655047, 42.409306420177053 ], [ 117.312572856298289, 42.409301917232781 ], [ 117.312591085400456, 42.409301867528328 ], [ 117.312591040684325, 42.409292861639805 ], [ 117.312584964317807, 42.409292878208277 ], [ 117.312584941960196, 42.409288375264012 ], [ 117.312572789228028, 42.409288408399973 ], [ 117.31257274451454, 42.409279402511423 ], [ 117.312560591784077, 42.409279435646098 ], [ 117.312560547072351, 42.40927042975752 ], [ 117.312542317979236, 42.409270479457092 ], [ 117.312542295624681, 42.409265976512785 ], [ 117.312524066532816, 42.409266026209458 ], [ 117.312524155945837, 42.40928403798668 ], [ 117.312518079580144, 42.409284054551605 ], [ 117.312518146638652, 42.409297563384492 ], [ 117.312505993904622, 42.409297596513376 ], [ 117.312506038608561, 42.409306602401969 ], [ 117.312512114976457, 42.409306585837669 ], [ 117.312512137328881, 42.409311088781962 ], [ 117.312524290065511, 42.409311055652395 ], [ 117.312524334772121, 42.409320061540953 ] ] ] } },
{ "type": "Feature", "properties": { "crown_id": 3831, "tree_id": "3833", "top_h_m": 22.752, "H_95_Mean": 22.6211, "DBH": 34.2784, "Carbon_kg": 239.557107, "area_m2": 27.5 }, "geometry": { "type": "Polygon", "coordinates": [ [ [ 117.312457427665294, 42.409306734904696 ], [ 117.312475656769067, 42.409306685218588 ], [ 117.312475612069449, 42.409297679329967 ], [ 117.312481688436506, 42.409297662767301 ], [ 117.312481666086256, 42.409293159822994 ], [ 117.312512047919213, 42.40929307700479 ], [ 117.312511980862027, 42.40927956817189 ], [ 117.312518057227294, 42.409279551607291 ], [ 117.312518034874486, 42.409275048662984 ], [ 117.312493729415095, 42.409275114919438 ], [ 117.312493662361874, 42.40926160608646 ], [ 117.312451127816871, 42.409261722022791 ], [ 117.312451172512937, 42.409270727911483 ], [ 117.312432943419537, 42.409270777593669 ], [ 117.312432965766277, 42.409275280538012 ], [ 117.312396507576722, 42.409275379893693 ], [ 117.312396529920861, 42.409279882838042 ], [ 117.312402606286227, 42.409279866279576 ], [ 117.312402628630792, 42.409284369223926 ], [ 117.312414781362406, 42.409284336106005 ], [ 117.312414803707838, 42.40928883905034 ], [ 117.312420880074072, 42.409288822490893 ], [ 117.312420902419959, 42.409293325435229 ], [ 117.312426978786604, 42.409293308875455 ], [ 117.312427001132917, 42.409297811819783 ], [ 117.312445230234147, 42.409297762138515 ], [ 117.312445252581796, 42.409302265082836 ], [ 117.312457405316792, 42.409302231960389 ], [ 117.312457427665294, 42.409306734904696 ] ] ] } },
{ "type": "Feature", "properties": { "crown_id": 3866, "tree_id": "3868", "top_h_m": 21.916, "H_95_Mean": 21.7037, "DBH": 31.2626, "Carbon_kg": 194.161991, "area_m2": 20.75 }, "geometry": { "type": "Polygon", "coordinates": [ [ [ 117.312578843236921, 42.409283888887899 ], [ 117.312597072333872, 42.409283839182486 ], [ 117.312597049975395, 42.409279336238221 ], [ 117.312609202705801, 42.409279303099687 ], [ 117.312609180346442, 42.409274800155416 ], [ 117.312627409440708, 42.409274750445206 ], [ 117.312627364719432, 42.409265744556677 ], [ 117.312645593811041, 42.40926569484359 ], [ 117.312645571449096, 42.409261191899326 ], [ 117.312639495085691, 42.409261208470674 ], [ 117.312639428001219, 42.409247699637852 ], [ 117.312627275276938, 42.409247732779583 ], [ 117.312627252916343, 42.40924322983529 ], [ 117.312615100192929, 42.409243262975721 ], [ 117.312615122552671, 42.409247765920007 ], [ 117.312572588017517, 42.409247881901365 ], [ 117.31257263273092, 42.409256887789972 ], [ 117.312548327278677, 42.40925695405798 ], [ 117.312548371988626, 42.409265959946595 ], [ 117.312566601080434, 42.409265910246056 ], [ 117.312566645792998, 42.409274916134642 ], [ 117.312578798522594, 42.409274882999327 ], [ 117.312578843236921, 42.409283888887899 ] ] ] } },
{ "type": "Feature", "properties": { "crown_id": 3871, "tree_id": "3873", "top_h_m": 23.161, "H_95_Mean": 23.0427, "DBH": 31.4362, "Carbon_kg": 203.417862, "area_m2": 19.0 }, "geometry": { "type": "Polygon", "coordinates": [ [ [ 117.312396485232611, 42.409270876949329 ], [ 117.312426867055066, 42.409270794153748 ], [ 117.312426844708767, 42.409266291209399 ], [ 117.312445073800887, 42.409266241528186 ], [ 117.312445029105689, 42.409257235639487 ], [ 117.312463258195166, 42.409257185955397 ], [ 117.312463235846266, 42.409252683011047 ], [ 117.312457159483571, 42.409252699572733 ], [ 117.312457114786682, 42.409243693684012 ], [ 117.312451038424811, 42.40924371024537 ], [ 117.312450993728845, 42.409234704356649 ], [ 117.312426688284859, 42.409234770598822 ], [ 117.312426665938617, 42.409230267654443 ], [ 117.312402360496293, 42.409230333891465 ], [ 117.312402382840816, 42.40923483683585 ], [ 117.312396306479783, 42.40923485339431 ], [ 117.312396418200265, 42.409257368116215 ], [ 117.312390341837045, 42.409257384674369 ], [ 117.312390386524399, 42.409266390563118 ], [ 117.312396462888472, 42.409266374004972 ], [ 117.312396485232611, 42.409270876949329 ] ] ] } },
{ "type": "Feature", "properties": { "crown_id": 3927, "tree_id": "3929", "top_h_m": 26.216, "H_95_Mean": 25.8931, "DBH": 38.5013, "Carbon_kg": 327.945338, "area_m2": 33.75 }, "geometry": { "type": "Polygon", "coordinates": [ [ [ 117.312499783428436, 42.409270595411485 ], [ 117.312518012521679, 42.409270545718677 ], [ 117.312517967816063, 42.409261539830041 ], [ 117.31254227327014, 42.409261473568471 ], [ 117.312542250915598, 42.40925697062417 ], [ 117.31253617455252, 42.409256987190041 ], [ 117.312536152198433, 42.409252484245734 ], [ 117.312530075835753, 42.40925250081127 ], [ 117.3125300087748, 42.409238991978299 ], [ 117.312542161497504, 42.409238958846892 ], [ 117.312542116788478, 42.409229952958228 ], [ 117.312529964067522, 42.409229986089628 ], [ 117.312529874652995, 42.40921197431225 ], [ 117.312523798294265, 42.409211990877445 ], [ 117.312523775941074, 42.409207487933081 ], [ 117.31249339414947, 42.409207570754255 ], [ 117.312493371798467, 42.409203067809884 ], [ 117.312481219082628, 42.409203100936082 ], [ 117.312481241432764, 42.409207603880475 ], [ 117.312475165074417, 42.409207620443098 ], [ 117.312475187424127, 42.409212123387462 ], [ 117.312469111065326, 42.409212139949773 ], [ 117.312469155763893, 42.409221145838529 ], [ 117.312463079404225, 42.409221162400513 ], [ 117.312463146450781, 42.409234671233619 ], [ 117.312457070089806, 42.409234687795298 ], [ 117.312457092438237, 42.409239190739662 ], [ 117.312463168799638, 42.409239174177984 ], [ 117.312463213497409, 42.409248180066697 ], [ 117.312469289859663, 42.409248163504685 ], [ 117.312469334558301, 42.409257169393378 ], [ 117.312499716373921, 42.409257086578513 ], [ 117.312499783428436, 42.409270595411485 ] ] ] } },
{ "type": "Feature", "properties": { "crown_id": 3928, "tree_id": "3930", "top_h_m": 22.513, "H_95_Mean": 22.2844, "DBH": 33.1254, "Carbon_kg": 221.619525, "area_m2": 24.75 }, "geometry": { "type": "Polygon", "coordinates": [ [ [ 117.312542228561057, 42.409252467679863 ], [ 117.312566534011594, 42.409252401413156 ], [ 117.312566489299073, 42.409243395524541 ], [ 117.312609023831229, 42.409243279545443 ], [ 117.312609001471927, 42.409238776601157 ], [ 117.312627230555748, 42.409238726890997 ], [ 117.312627185834558, 42.409229721002419 ], [ 117.31261503311373, 42.409229754142828 ], [ 117.312614966034587, 42.409216245309914 ], [ 117.312608889675502, 42.409216261879621 ], [ 117.312608777879205, 42.409193747157993 ], [ 117.312596625165313, 42.409193780296427 ], [ 117.312596602806934, 42.409189277352091 ], [ 117.312584450093894, 42.409189310489225 ], [ 117.312584494808917, 42.409198316377925 ], [ 117.312578418451537, 42.409198332946012 ], [ 117.312578463165707, 42.409207338834698 ], [ 117.312572386807432, 42.409207355402472 ], [ 117.312572431520735, 42.409216361291136 ], [ 117.312566355161593, 42.409216377858606 ], [ 117.312566377517825, 42.409220880802941 ], [ 117.312560301158257, 42.409220897370069 ], [ 117.312560345869855, 42.409229903258726 ], [ 117.312548193148928, 42.409229936392052 ], [ 117.312548260213774, 42.409243445225023 ], [ 117.312536107490232, 42.409243478357084 ], [ 117.312536129844318, 42.409247981301412 ], [ 117.31254220620653, 42.409247964735542 ], [ 117.312542228561057, 42.409252467679863 ] ] ] } }
]
}
