{
"type": "FeatureCollection",
"name": "tile_13_6",
"crs": { "type": "name", "properties": { "name": "urn:ogc:def:crs:OGC:1.3:CRS84" } },
"features": [
{ "type": "Feature", "properties": { "crown_id": 3933, "tree_id": "3935", "top_h_m": 24.004, "H_95_Mean": 23.8356, "DBH": 43.4517, "Carbon_kg": 398.483401, "area_m2": 62.75 }, "geometry": { "type": "Polygon", "coordinates": [ [ [ 117.311369490475684, 42.409255658925574 ], [ 117.311387719566554, 42.409255609412519 ], [ 117.311387697294606, 42.409251106467693 ], [ 117.311418079110439, 42.40925102393949 ], [ 117.311418056836303, 42.409246520994685 ], [ 117.311430209561749, 42.409246487981157 ], [ 117.311430187286746, 42.409241985036353 ], [ 117.311436263649014, 42.409241968529109 ], [ 117.311436219098198, 42.4092329626395 ], [ 117.311442295459599, 42.409232946131937 ], [ 117.311442273183758, 42.409228443187146 ], [ 117.311454425905666, 42.409228410171053 ], [ 117.31145433679886, 42.409210398391814 ], [ 117.311442184080434, 42.409210431407878 ], [ 117.311442161804621, 42.409205928463074 ], [ 117.31143608544582, 42.409205944970616 ], [ 117.311436063170433, 42.409201442025783 ], [ 117.311442139528808, 42.409201425518241 ], [ 117.311442072701411, 42.409187916683742 ], [ 117.311429919987276, 42.409187949698492 ], [ 117.311429897712358, 42.409183446753644 ], [ 117.311423821355731, 42.409183463260533 ], [ 117.31142379908124, 42.409178960315678 ], [ 117.311429875437454, 42.409178943808797 ], [ 117.311429830887633, 42.409169937919089 ], [ 117.311417678176966, 42.409169970932531 ], [ 117.311417722725054, 42.409178976822254 ], [ 117.311375188231537, 42.409179092359189 ], [ 117.311375210502547, 42.409183595304064 ], [ 117.311332676005705, 42.409183710825253 ], [ 117.311332698273688, 42.409188213770129 ], [ 117.311326621916535, 42.409188230271873 ], [ 117.311326644184078, 42.409192733216763 ], [ 117.311332720541643, 42.409192716715019 ], [ 117.311332809613603, 42.409210728494521 ], [ 117.311326733254262, 42.409210744996273 ], [ 117.311326777789418, 42.40921975088601 ], [ 117.311351083230136, 42.409219684877044 ], [ 117.31135110549944, 42.409224187821884 ], [ 117.311357181860046, 42.409224171318847 ], [ 117.311357204129777, 42.40922867426368 ], [ 117.311363280490824, 42.409228657760302 ], [ 117.311363347301409, 42.409242166594815 ], [ 117.311369423663749, 42.40924215009111 ], [ 117.311369490475684, 42.409255658925574 ] ] ] } },
{ "type": "Feature", "properties": { "crown_id": 3968, "tree_id": "3970", "top_h_m": 22.167, "H_95_Mean": 21.8535, "DBH": 32.9066, "Carbon_kg": 216.168124, "area_m2": 25.0 }, "geometry": { "type": "Polygon", "coordinates": [ [ [ 117.31125383920444, 42.409215445937086 ], [ 117.311290297363229, 42.409215346944904 ], [ 117.311290230568375, 42.409201838110242 ], [ 117.311296306926849, 42.409201821610438 ], [ 117.311296240130744, 42.409188312775747 ], [ 117.311290163773577, 42.409188329275551 ], [ 117.31129014150865, 42.409183826330654 ], [ 117.311296217865362, 42.40918380983085 ], [ 117.311296195600036, 42.409179306885939 ], [ 117.311290119243722, 42.40917932338575 ], [ 117.311290096978794, 42.409174820440832 ], [ 117.311284020622921, 42.409174836940302 ], [ 117.311283998358448, 42.409170333995391 ], [ 117.311265769292106, 42.409170383491883 ], [ 117.311265724765761, 42.409161377602018 ], [ 117.31125964841118, 42.409161394100209 ], [ 117.311259670673891, 42.409165897045142 ], [ 117.311253594318856, 42.409165913543006 ], [ 117.311253616581155, 42.409170416487946 ], [ 117.311247540225679, 42.409170432985491 ], [ 117.311247562487551, 42.409174935930416 ], [ 117.311223257063887, 42.409175001917369 ], [ 117.311223301584178, 42.409184007807255 ], [ 117.311217225227352, 42.409184024303201 ], [ 117.311217269746791, 42.409193030193066 ], [ 117.311229422462119, 42.409192997200847 ], [ 117.311229444722713, 42.409197500145773 ], [ 117.311235521080818, 42.40919748364918 ], [ 117.311235543341837, 42.409201986594091 ], [ 117.311241619700368, 42.409201970097193 ], [ 117.311241664223303, 42.409210975987001 ], [ 117.311253816942084, 42.409210942992203 ], [ 117.31125383920444, 42.409215445937086 ] ] ] } },
{ "type": "Feature", "properties": { "crown_id": 4052, "tree_id": "4054", "top_h_m": 22.093, "H_95_Mean": 21.6944, "DBH": 35.4291, "Carbon_kg": 249.784697, "area_m2": 33.75 }, "geometry": { "type": "Polygon", "coordinates": [ [ [ 117.311308392845078, 42.409188279775165 ], [ 117.311320545559383, 42.409188246773297 ], [ 117.311320523292295, 42.409183743828407 ], [ 117.311326599648993, 42.40918372732699 ], [ 117.311326577381465, 42.409179224382086 ], [ 117.311369111875294, 42.409179108863178 ], [ 117.311369089604725, 42.409174605918309 ], [ 117.311393395027906, 42.40917453990042 ], [ 117.311393372755603, 42.409170036955551 ], [ 117.311399449110951, 42.409170020450276 ], [ 117.311399404565506, 42.409161014560524 ], [ 117.311393328211025, 42.409161031065793 ], [ 117.311393283666462, 42.409152025176034 ], [ 117.311381130959234, 42.40915205818559 ], [ 117.311381108687812, 42.409147555240693 ], [ 117.311375032334638, 42.409147571744988 ], [ 117.311374987792703, 42.40913856585518 ], [ 117.311368911440383, 42.409138582359155 ], [ 117.311368889169856, 42.409134079414237 ], [ 117.311362812817947, 42.409134095917892 ], [ 117.311362768277789, 42.409125090028049 ], [ 117.311344539224677, 42.409125139537032 ], [ 117.311344583762235, 42.409134145426883 ], [ 117.311320278354515, 42.409134211434356 ], [ 117.31132030062156, 42.409138714379289 ], [ 117.311314224269196, 42.409138730880358 ], [ 117.31131426880242, 42.409147736770208 ], [ 117.311308192449189, 42.409147753270965 ], [ 117.31130823698156, 42.409156759160815 ], [ 117.311302160627434, 42.409156775661238 ], [ 117.311302182893201, 42.40916127860617 ], [ 117.311308259247767, 42.409161262105734 ], [ 117.311308326046401, 42.40917477094046 ], [ 117.311302249690527, 42.409174787440911 ], [ 117.311302271956322, 42.409179290385815 ], [ 117.311308348312608, 42.409179273885364 ], [ 117.311308392845078, 42.409188279775165 ] ] ] } },
{ "type": "Feature", "properties": { "crown_id": 4057, "tree_id": "4059", "top_h_m": 20.476, "H_95_Mean": 20.4347, "DBH": 36.4915, "Carbon_kg": 255.895129, "area_m2": 42.25 }, "geometry": { "type": "Polygon", "coordinates": [ [ [ 117.311174690729601, 42.40918413976577 ], [ 117.311211148870555, 42.40918404079882 ], [ 117.311211126611283, 42.409179537853866 ], [ 117.311217202967669, 42.409179521358254 ], [ 117.311217158448244, 42.409170515468368 ], [ 117.311241463870218, 42.409170449482708 ], [ 117.311241441608772, 42.409165946537762 ], [ 117.311247517963835, 42.409165930040544 ], [ 117.311247495701963, 42.40916142709559 ], [ 117.311253572056572, 42.409161410598067 ], [ 117.311253549794287, 42.409156907653127 ], [ 117.311271778856764, 42.409156858158589 ], [ 117.311271734329594, 42.409147852268703 ], [ 117.311265657976307, 42.409147868767207 ], [ 117.311265635713156, 42.40914336582226 ], [ 117.311271712066016, 42.409143349323756 ], [ 117.311271667538875, 42.409134343433863 ], [ 117.311265591186896, 42.409134359932352 ], [ 117.311265568923773, 42.409129856987391 ], [ 117.311253416220666, 42.409129889983397 ], [ 117.31125339395841, 42.409125387038429 ], [ 117.311216935851576, 42.409125486018702 ], [ 117.311216958111217, 42.409129988963684 ], [ 117.311192652704818, 42.409130054944107 ], [ 117.31119267496274, 42.409134557889097 ], [ 117.311180522258653, 42.409134590877379 ], [ 117.311180544515679, 42.409139093822375 ], [ 117.311168391810696, 42.409139126809364 ], [ 117.311168414066884, 42.409143629754361 ], [ 117.311162337713938, 42.409143646247387 ], [ 117.311162448992761, 42.409166160972305 ], [ 117.311156372637654, 42.409166177465018 ], [ 117.311156417148339, 42.409175183354961 ], [ 117.311174646216287, 42.409175133875841 ], [ 117.311174690729601, 42.40918413976577 ] ] ] } },
{ "type": "Feature", "properties": { "crown_id": 4065, "tree_id": "4067", "top_h_m": 21.614, "H_95_Mean": 21.379, "DBH": 35.3845, "Carbon_kg": 247.002531, "area_m2": 34.5 }, "geometry": { "type": "Polygon", "coordinates": [ [ [ 117.311405503193129, 42.409165500999819 ], [ 117.311411579548036, 42.409165484493904 ], [ 117.31141155727444, 42.409160981549029 ], [ 117.311423709983373, 42.40916094853624 ], [ 117.31142368770891, 42.409156445591378 ], [ 117.311417611354884, 42.409156462097926 ], [ 117.311417589080875, 42.40915195915305 ], [ 117.311435818141646, 42.409151909632428 ], [ 117.311435840416948, 42.409156412577296 ], [ 117.311441916770974, 42.409156396069768 ], [ 117.311441872219461, 42.409147390180046 ], [ 117.311454024925737, 42.409147357164045 ], [ 117.3114540026491, 42.409142854219184 ], [ 117.311460079001805, 42.409142837710704 ], [ 117.31146003444772, 42.409133831820974 ], [ 117.311441805392221, 42.409133881345419 ], [ 117.311441671737938, 42.409106863676065 ], [ 117.311429519039464, 42.409106896690723 ], [ 117.311429496764632, 42.409102393745826 ], [ 117.311423420415835, 42.409102410252672 ], [ 117.311423398141443, 42.409097907307753 ], [ 117.31140516909629, 42.409097956826344 ], [ 117.311405146823219, 42.409093453881418 ], [ 117.311386917779316, 42.409093503397095 ], [ 117.311386962322885, 42.40910250928696 ], [ 117.31138088597406, 42.409102525791553 ], [ 117.311380908245397, 42.409107028736479 ], [ 117.311374831896131, 42.409107045240752 ], [ 117.311374876437995, 42.409116051130624 ], [ 117.311368800087834, 42.409116067634571 ], [ 117.311368866899329, 42.409129576469319 ], [ 117.311374943250811, 42.409129559965365 ], [ 117.311374965521736, 42.409134062910276 ], [ 117.311381041873631, 42.409134046405988 ], [ 117.311381086416432, 42.409143052295796 ], [ 117.311387162769179, 42.409143035791182 ], [ 117.311387185040999, 42.409147538736072 ], [ 117.311399337747361, 42.409147505725876 ], [ 117.311399382292791, 42.409156511615656 ], [ 117.311405458646846, 42.409156495110068 ], [ 117.311405503193129, 42.409165500999819 ] ] ] } },
{ "type": "Feature", "properties": { "crown_id": 4096, "tree_id": "4098", "top_h_m": 20.658, "H_95_Mean": 20.3693, "DBH": 32.1523, "Carbon_kg": 197.891725, "area_m2": 26.0 }, "geometry": { "type": "Polygon", "coordinates": [ [ [ 117.311168369554522, 42.409134623864375 ], [ 117.311174445906587, 42.409134607371037 ], [ 117.311174423649973, 42.409130104426033 ], [ 117.311186576353208, 42.409130071438398 ], [ 117.311186554095741, 42.409125568493415 ], [ 117.311210859500406, 42.4091255025143 ], [ 117.311210837241205, 42.409120999569311 ], [ 117.311253371696154, 42.409120884093468 ], [ 117.311253349433926, 42.4091163811485 ], [ 117.311241196733391, 42.409116414143199 ], [ 117.31124117447203, 42.409111911198202 ], [ 117.31124725082185, 42.409111894701027 ], [ 117.311247228560049, 42.409107391756038 ], [ 117.311235075861276, 42.409107424750076 ], [ 117.311234920034906, 42.409075904135065 ], [ 117.311228843688539, 42.409075920631594 ], [ 117.311228821428088, 42.409071417686569 ], [ 117.311222745082162, 42.409071434182771 ], [ 117.311222767342173, 42.409075937127795 ], [ 117.311210614649454, 42.409075970119225 ], [ 117.311210636908598, 42.40908047306425 ], [ 117.311204560561777, 42.409080489559493 ], [ 117.31120460507924, 42.409089495449528 ], [ 117.311186376036147, 42.409089544933323 ], [ 117.311186398293572, 42.409094047878355 ], [ 117.311180321945429, 42.409094064372312 ], [ 117.311180366459453, 42.409103070262347 ], [ 117.311162137412396, 42.409103119742305 ], [ 117.311162181923805, 42.409112125632348 ], [ 117.31116825827371, 42.409112109139336 ], [ 117.311168369554522, 42.409134623864375 ] ] ] } },
{ "type": "Feature", "properties": { "crown_id": 4097, "tree_id": "4099", "top_h_m": 18.393, "H_95_Mean": 18.505, "DBH": 31.0161, "Carbon_kg": 173.892035, "area_m2": 27.0 }, "geometry": { "type": "Polygon", "coordinates": [ [ [ 117.311326332438981, 42.409129691988035 ], [ 117.311338485141974, 42.409129658984298 ], [ 117.311338440605297, 42.40912065309444 ], [ 117.311362746007717, 42.409120587083123 ], [ 117.311362701467615, 42.409111581193272 ], [ 117.311368777817336, 42.409111564689631 ], [ 117.311368733276367, 42.409102558799766 ], [ 117.311374809625207, 42.409102542295827 ], [ 117.311374787354296, 42.409098039350887 ], [ 117.311380863702695, 42.409098022846621 ], [ 117.311380819160021, 42.409089016956742 ], [ 117.311399048202617, 42.409088967442031 ], [ 117.311399025929987, 42.409084464497099 ], [ 117.311392949582881, 42.409084481002324 ], [ 117.311392927310706, 42.409079978057378 ], [ 117.311386850964041, 42.409079994562276 ], [ 117.311386828692264, 42.40907549161733 ], [ 117.311380752346025, 42.409075508121909 ], [ 117.311380730074717, 42.409071005176948 ], [ 117.311332119308162, 42.409071137201927 ], [ 117.311332141575988, 42.409075640146902 ], [ 117.311326065229721, 42.409075656648575 ], [ 117.311326087497122, 42.409080159593557 ], [ 117.3113200111504, 42.409080176094911 ], [ 117.311320100218367, 42.409098187874783 ], [ 117.311314023869897, 42.409098204375823 ], [ 117.311314068403036, 42.409107210265745 ], [ 117.311320144752372, 42.40910719376469 ], [ 117.311320233820439, 42.409125205544484 ], [ 117.311326310171523, 42.409125189043102 ], [ 117.311326332438981, 42.409129691988035 ] ], [ [ 117.311332364254682, 42.409120669596462 ], [ 117.311332341986784, 42.409116166651522 ], [ 117.311338418336987, 42.409116150149508 ], [ 117.311338440605297, 42.40912065309444 ], [ 117.311332364254682, 42.409120669596462 ] ] ] } },
{ "type": "Feature", "properties": { "crown_id": 4133, "tree_id": "4135", "top_h_m": 21.735, "H_95_Mean": 21.4286, "DBH": 37.9329, "Carbon_kg": 284.557781, "area_m2": 45.0 }, "geometry": { "type": "Polygon", "coordinates": [ [ [ 117.311259425784158, 42.409116364650657 ], [ 117.31127765483491, 42.409116315155224 ], [ 117.311277610306931, 42.409107309265281 ], [ 117.311283686656296, 42.409107292766173 ], [ 117.311283708920712, 42.409111795711134 ], [ 117.311308014319863, 42.409111729711427 ], [ 117.311307925255292, 42.40909371793159 ], [ 117.311314001603336, 42.409093701430862 ], [ 117.311313912537145, 42.409075689650962 ], [ 117.31131998888344, 42.409075673149935 ], [ 117.311319966616452, 42.409071170204953 ], [ 117.311326042962307, 42.409071153703607 ], [ 117.311326020694906, 42.409066650758625 ], [ 117.311319944349492, 42.409066667259971 ], [ 117.311319922082532, 42.409062164314982 ], [ 117.31131384573753, 42.409062180816008 ], [ 117.311313801204506, 42.409053174926008 ], [ 117.311301648516249, 42.40905320792708 ], [ 117.311301626250611, 42.409048704982077 ], [ 117.31129554990693, 42.409048721482129 ], [ 117.311295460846125, 42.409030709702058 ], [ 117.311283308162203, 42.409030742701169 ], [ 117.311283330426519, 42.409035245646201 ], [ 117.311271177741702, 42.409035278644026 ], [ 117.311271222268601, 42.40904428453409 ], [ 117.311259069582036, 42.409044317530629 ], [ 117.311259091844619, 42.409048820475661 ], [ 117.311246939157158, 42.409048853470935 ], [ 117.311246961418874, 42.409053356415953 ], [ 117.31124088507471, 42.409053372913121 ], [ 117.311240929597304, 42.409062378803178 ], [ 117.311234853252259, 42.409062395300005 ], [ 117.311234897774028, 42.409071401190047 ], [ 117.311240974119954, 42.409071384693213 ], [ 117.311241129949295, 42.409102905308238 ], [ 117.311253282647215, 42.409102872313554 ], [ 117.311253304909442, 42.409107375258536 ], [ 117.311259381258836, 42.4091073587607 ], [ 117.311259425784158, 42.409116364650657 ] ] ] } }
]
}
