{
"type": "FeatureCollection",
"name": "tile_18_11",
"crs": { "type": "name", "properties": { "name": "urn:ogc:def:crs:OGC:1.3:CRS84" } },
"features": [
{ "type": "Feature", "properties": { "crown_id": 5414, "tree_id": "5417", "top_h_m": 17.027, "H_95_Mean": 16.7965, "DBH": 32.657, "Carbon_kg": 182.188851, "area_m2": 39.5 }, "geometry": { "type": "MultiPolygon", "coordinates": [ [ [ [ 117.312409731423401, 42.408266670593058 ], [ 117.312409843144877, 42.408289185318765 ], [ 117.312415919414633, 42.4082891687599 ], [ 117.312416008793633, 42.408307180540383 ], [ 117.312422085065123, 42.408307163981171 ], [ 117.312422107410327, 42.408311666926281 ], [ 117.312428183682243, 42.408311650366748 ], [ 117.312428228373534, 42.408320656256961 ], [ 117.312434304646317, 42.408320639697109 ], [ 117.312434371684574, 42.408334148532376 ], [ 117.31244044795865, 42.40833413197219 ], [ 117.312440470305191, 42.408338634917278 ], [ 117.312452622854181, 42.408338601795919 ], [ 117.312452645201603, 42.408343104740993 ], [ 117.312458721476517, 42.408343088179834 ], [ 117.312458654433001, 42.408329579344617 ], [ 117.31247080698023, 42.408329546221346 ], [ 117.312470762282828, 42.408320540331189 ], [ 117.312476838555583, 42.408320523769085 ], [ 117.312476793857343, 42.408311517878921 ], [ 117.312495022672906, 42.408311468190661 ], [ 117.312494977972094, 42.408302462300512 ], [ 117.312488901701087, 42.408302478863575 ], [ 117.312488879351122, 42.408297975918487 ], [ 117.31248280308057, 42.408297992481231 ], [ 117.312482780731031, 42.408293489536135 ], [ 117.312494933271267, 42.408293456410327 ], [ 117.312494888570484, 42.408284450520142 ], [ 117.31248881230124, 42.408284467083199 ], [ 117.312488789951288, 42.408279964138096 ], [ 117.312482713682471, 42.408279980700833 ], [ 117.312482691332946, 42.408275477755716 ], [ 117.312476615064568, 42.408275494318119 ], [ 117.312476548017358, 42.408261985482767 ], [ 117.312470471750274, 42.408262002044843 ], [ 117.312470494098918, 42.408266504989967 ], [ 117.312452265296301, 42.408266554674277 ], [ 117.312452287643652, 42.408271057619395 ], [ 117.312434058839685, 42.408271107300834 ], [ 117.31243403649367, 42.408266604355688 ], [ 117.312409731423401, 42.408266670593058 ] ] ], [ [ [ 117.312409731423401, 42.408266670593058 ], [ 117.312409709079105, 42.408262167647905 ], [ 117.312397556544823, 42.408262200764661 ], [ 117.312397578888223, 42.40826670370982 ], [ 117.312409731423401, 42.408266670593058 ] ] ] ] } },
{ "type": "Feature", "properties": { "crown_id": 5415, "tree_id": "5418", "top_h_m": 17.545, "H_95_Mean": 17.6926, "DBH": 32.4556, "Carbon_kg": 185.548667, "area_m2": 35.0 }, "geometry": { "type": "Polygon", "coordinates": [ [ [ 117.312543744617102, 42.408333850399735 ], [ 117.312574125986941, 42.408333767566596 ], [ 117.312574103630851, 42.408329264621557 ], [ 117.312580179904359, 42.408329248053967 ], [ 117.312580090478306, 42.408311236273832 ], [ 117.312574014206547, 42.408311252841401 ], [ 117.312573924782299, 42.408293241061216 ], [ 117.312567848512245, 42.408293257628451 ], [ 117.312567826156638, 42.40828875468339 ], [ 117.31256174988701, 42.408288771250319 ], [ 117.312561727531858, 42.408284268305252 ], [ 117.31255565126267, 42.408284284871854 ], [ 117.312555606553204, 42.408275278981691 ], [ 117.312543454016563, 42.408275312113922 ], [ 117.312543431662704, 42.408270809168826 ], [ 117.312537355394781, 42.408270825734455 ], [ 117.312537333041391, 42.408266322789373 ], [ 117.312531256773909, 42.408266339354675 ], [ 117.312531234420945, 42.408261836409572 ], [ 117.312519081886833, 42.408261869539203 ], [ 117.312519104238959, 42.408266372484299 ], [ 117.312506951703966, 42.408266405612657 ], [ 117.312507018757714, 42.408279914447959 ], [ 117.312500942488896, 42.408279931011663 ], [ 117.312501076593918, 42.408306948682188 ], [ 117.312507152865322, 42.408306932118485 ], [ 117.312507175216595, 42.408311435063546 ], [ 117.31251932776027, 42.408311401935151 ], [ 117.312519350112424, 42.408315904880219 ], [ 117.312525426384695, 42.408315888315535 ], [ 117.312525493442521, 42.408329397150702 ], [ 117.312543722263186, 42.408329347454682 ], [ 117.312543744617102, 42.408333850399735 ] ] ] } },
{ "type": "Feature", "properties": { "crown_id": 5456, "tree_id": "5459", "top_h_m": 21.827, "H_95_Mean": 21.385, "DBH": 37.1141, "Carbon_kg": 271.985823, "area_m2": 41.5 }, "geometry": { "type": "Polygon", "coordinates": [ [ [ 117.312586211463994, 42.408320225596007 ], [ 117.312592287736621, 42.408320209027764 ], [ 117.312592243021854, 42.4083112031377 ], [ 117.312616548108906, 42.40831113686157 ], [ 117.312616503390686, 42.408302130971521 ], [ 117.312622579661578, 42.408302114401685 ], [ 117.312622557302049, 42.408297611456646 ], [ 117.312628633572459, 42.408297594886506 ], [ 117.312628499412767, 42.408270577216257 ], [ 117.312616346877107, 42.408270610356205 ], [ 117.312616324518046, 42.408266107411137 ], [ 117.312610248250635, 42.408266123980631 ], [ 117.312610225892016, 42.408261621035564 ], [ 117.312604149625045, 42.408261637604731 ], [ 117.312604082550507, 42.408248128769507 ], [ 117.31259800628483, 42.408248145338334 ], [ 117.312597983927105, 42.408243642393259 ], [ 117.312591907661854, 42.408243658961766 ], [ 117.31259188530457, 42.408239156016656 ], [ 117.31258580903976, 42.40823917258485 ], [ 117.312585764326045, 42.408230166694651 ], [ 117.312579688062087, 42.408230183262511 ], [ 117.31257966570567, 42.408225680317408 ], [ 117.312573589442152, 42.408225696884934 ], [ 117.31257356708619, 42.408221193939816 ], [ 117.312567490823071, 42.408221210507023 ], [ 117.312567468467563, 42.408216707561913 ], [ 117.31255531594222, 42.408216740695366 ], [ 117.31255542771558, 42.408239255420945 ], [ 117.312543275185874, 42.408239288553119 ], [ 117.312543364601169, 42.408257300333545 ], [ 117.312537288334568, 42.408257316899167 ], [ 117.312537310687972, 42.40826181984427 ], [ 117.312543386954999, 42.408261803278648 ], [ 117.312543409308844, 42.408266306223751 ], [ 117.312549485576312, 42.408266289657803 ], [ 117.312549507930598, 42.408270792602892 ], [ 117.312561660466358, 42.408270759470021 ], [ 117.312561705176691, 42.408279765360184 ], [ 117.312567781445438, 42.408279748793262 ], [ 117.312567803801031, 42.408284251738323 ], [ 117.312573880070218, 42.408284235171081 ], [ 117.312573902426266, 42.408288738116148 ], [ 117.312579978695865, 42.40828872154858 ], [ 117.312580068121804, 42.408306733328793 ], [ 117.312586144393165, 42.408306716760883 ], [ 117.312586211463994, 42.408320225596007 ] ] ] } },
{ "type": "Feature", "properties": { "crown_id": 5487, "tree_id": "5490", "top_h_m": 21.725, "H_95_Mean": 21.5333, "DBH": 26.4485, "Carbon_kg": 137.964229, "area_m2": 11.0 }, "geometry": { "type": "Polygon", "coordinates": [ [ [ 117.312622400785457, 42.40826609084133 ], [ 117.312634553320251, 42.40826605770075 ], [ 117.312634530959883, 42.40826155475569 ], [ 117.312640607226825, 42.408261538184917 ], [ 117.312640540144486, 42.408248029349743 ], [ 117.312634463878823, 42.408248045920502 ], [ 117.312634396797819, 42.408234537085285 ], [ 117.312628320533463, 42.408234553655724 ], [ 117.312628298173578, 42.408230050710642 ], [ 117.312622221909663, 42.408230067280755 ], [ 117.312622199550205, 42.408225564335666 ], [ 117.312603970759739, 42.408225614044063 ], [ 117.312603948401573, 42.408221111098953 ], [ 117.312591795875434, 42.408221144236272 ], [ 117.312591862947272, 42.408234653071574 ], [ 117.312597939211656, 42.408234636503067 ], [ 117.312597961569381, 42.408239139448163 ], [ 117.312604037834177, 42.40823912287933 ], [ 117.312604060192356, 42.408243625824419 ], [ 117.312610136457579, 42.408243609255273 ], [ 117.31261020353341, 42.408257118090489 ], [ 117.312616279799954, 42.408257101521009 ], [ 117.312616302159, 42.408261604466091 ], [ 117.312622378425957, 42.408261587896277 ], [ 117.312622400785457, 42.40826609084133 ] ] ] } },
{ "type": "Feature", "properties": { "crown_id": 5548, "tree_id": "5551", "top_h_m": 18.724, "H_95_Mean": 18.1978, "DBH": 40.7692, "Carbon_kg": 298.75076, "area_m2": 80.5 }, "geometry": { "type": "Polygon", "coordinates": [ [ [ 117.312440112761209, 42.408266587795531 ], [ 117.312446189028776, 42.408266571235075 ], [ 117.312446166681866, 42.408262068289943 ], [ 117.312464395483175, 42.408262018606607 ], [ 117.312464373135001, 42.408257515661475 ], [ 117.312476525668316, 42.408257482537628 ], [ 117.312476458621177, 42.408243973702241 ], [ 117.3124946874172, 42.408243924014101 ], [ 117.312494776818596, 42.408261935794599 ], [ 117.312513005619806, 42.408261886103539 ], [ 117.312512983268135, 42.408257383158428 ], [ 117.312531212067981, 42.408257333464462 ], [ 117.312531189715017, 42.408252830519359 ], [ 117.312537265981177, 42.408252813954064 ], [ 117.312537176567645, 42.40823480217361 ], [ 117.312549329096484, 42.408234769042082 ], [ 117.31254926203377, 42.408221260206716 ], [ 117.312543185770664, 42.408221276772643 ], [ 117.312543163416862, 42.408216773827512 ], [ 117.312537087154183, 42.408216790393098 ], [ 117.31253704244746, 42.408207784502835 ], [ 117.312530966185648, 42.408207801068087 ], [ 117.312530899126941, 42.40819429223265 ], [ 117.312536975387474, 42.408194275667391 ], [ 117.312536930680821, 42.408185269777078 ], [ 117.312543006940459, 42.408185253211506 ], [ 117.312542939879236, 42.408171744376013 ], [ 117.312549016137552, 42.408171727810114 ], [ 117.312548993783395, 42.408167224864954 ], [ 117.312542917525505, 42.408167241430839 ], [ 117.312542872818057, 42.408158235540505 ], [ 117.312518567789866, 42.40815830180081 ], [ 117.312518590141863, 42.408162804745999 ], [ 117.312482132596813, 42.408162904126812 ], [ 117.31248215494621, 42.408167407072014 ], [ 117.312470002430274, 42.408167440196387 ], [ 117.31247004712732, 42.408176446086784 ], [ 117.312451818350794, 42.408176495770945 ], [ 117.312451863045268, 42.408185501661343 ], [ 117.312457939304977, 42.408185485100262 ], [ 117.31245800634801, 42.408198993935827 ], [ 117.312451930086993, 42.408199010496901 ], [ 117.312451974781496, 42.408208016387263 ], [ 117.312445898519599, 42.408208032948025 ], [ 117.312445920866438, 42.408212535893213 ], [ 117.312439844604086, 42.408212552453648 ], [ 117.312439889296883, 42.408221558343989 ], [ 117.312445965560102, 42.408221541783547 ], [ 117.3124460549475, 42.408239553564201 ], [ 117.312439978682562, 42.40823957012465 ], [ 117.312440001028989, 42.408244073069817 ], [ 117.312421772232838, 42.408244122749259 ], [ 117.312421816923091, 42.408253128639572 ], [ 117.312415740656832, 42.408253145198742 ], [ 117.312415763001539, 42.408257648143895 ], [ 117.312421839268239, 42.408257631584718 ], [ 117.312421861613387, 42.408262134529878 ], [ 117.312440090414754, 42.408262084850413 ], [ 117.312440112761209, 42.408266587795531 ] ] ] } },
{ "type": "Feature", "properties": { "crown_id": 5592, "tree_id": "5595", "top_h_m": 19.807, "H_95_Mean": 19.2706, "DBH": 34.8781, "Carbon_kg": 225.638779, "area_m2": 39.5 }, "geometry": { "type": "Polygon", "coordinates": [ [ [ 117.312385336982899, 42.408248725044622 ], [ 117.312391413248747, 42.408248708487065 ], [ 117.312391368562842, 42.408239702596696 ], [ 117.312397444827837, 42.408239686038826 ], [ 117.31239740014108, 42.408230680148471 ], [ 117.31240955266928, 42.40823064703175 ], [ 117.312409575013533, 42.408235149976925 ], [ 117.312421727542585, 42.408235116858918 ], [ 117.312421749887704, 42.408239619804085 ], [ 117.312433902417624, 42.408239586684786 ], [ 117.312433880071623, 42.408235083739626 ], [ 117.312439956336135, 42.408235067179504 ], [ 117.31243991164331, 42.408226061289163 ], [ 117.312433835379665, 42.408226077849292 ], [ 117.312433745995804, 42.408208066068582 ], [ 117.312439822257687, 42.40820804950846 ], [ 117.312439799911317, 42.408203546563279 ], [ 117.312445876172774, 42.408203530002844 ], [ 117.312445831479153, 42.408194524112474 ], [ 117.312451907739742, 42.408194507551727 ], [ 117.312451885392491, 42.408190004606524 ], [ 117.312445809132356, 42.408190021167265 ], [ 117.312445764438735, 42.408181015276874 ], [ 117.312403230623588, 42.408181131193068 ], [ 117.312403208279832, 42.408176628247844 ], [ 117.31238497950315, 42.408176677921375 ], [ 117.312385024188032, 42.40818568381183 ], [ 117.312372871668487, 42.408185716925914 ], [ 117.312372894010082, 42.408190219871138 ], [ 117.312366817749847, 42.4081902364277 ], [ 117.31236688477334, 42.408203745263364 ], [ 117.312372961034868, 42.408203728706788 ], [ 117.312372983376463, 42.408208231652011 ], [ 117.312360830852526, 42.408208264764831 ], [ 117.312360964897081, 42.40823528243606 ], [ 117.312373117426233, 42.408235249323226 ], [ 117.312373162109509, 42.408244255213596 ], [ 117.312385314640395, 42.408244222099441 ], [ 117.312385336982899, 42.408248725044622 ] ] ] } },
{ "type": "Feature", "properties": { "crown_id": 5659, "tree_id": "5662", "top_h_m": 23.308, "H_95_Mean": 22.9103, "DBH": 41.4177, "Carbon_kg": 353.407525, "area_m2": 56.0 }, "geometry": { "type": "Polygon", "coordinates": [ [ [ 117.312366773067552, 42.408181230537238 ], [ 117.312378925586245, 42.408181197423794 ], [ 117.312378880902216, 42.408172191533332 ], [ 117.312409262194535, 42.408172108744132 ], [ 117.312409284538717, 42.408176611689356 ], [ 117.312445742091953, 42.408176512331671 ], [ 117.312445719745156, 42.408172009386469 ], [ 117.312463948520417, 42.408171959703289 ], [ 117.312463903824224, 42.408162953812877 ], [ 117.312476056339307, 42.408162920689165 ], [ 117.312476033990364, 42.408158417743955 ], [ 117.312469957733256, 42.408158434305982 ], [ 117.31246993538474, 42.408153931360758 ], [ 117.312457782871419, 42.40815396448383 ], [ 117.312457760523785, 42.408149461538606 ], [ 117.312451684267543, 42.408149478099652 ], [ 117.312451661920349, 42.408144975154435 ], [ 117.312445585664548, 42.408144991715155 ], [ 117.312445563317794, 42.408140488769924 ], [ 117.31243948706242, 42.408140505330323 ], [ 117.312439464716121, 42.408136002385085 ], [ 117.312433388461145, 42.408136018945157 ], [ 117.312433366115286, 42.408131515999912 ], [ 117.31242728986075, 42.408131532559665 ], [ 117.312427245169914, 42.40812252666916 ], [ 117.312421168916245, 42.408122543228572 ], [ 117.312421146571268, 42.408118040283313 ], [ 117.312415070318025, 42.408118056842412 ], [ 117.312415025628951, 42.408109050951872 ], [ 117.312408949376575, 42.408109067510651 ], [ 117.312408927032465, 42.408104564565377 ], [ 117.312402850780529, 42.408104581123823 ], [ 117.312402828436873, 42.408100078178535 ], [ 117.312396752185364, 42.408100094736646 ], [ 117.312396707498934, 42.408091088846078 ], [ 117.312378478746979, 42.408091138518486 ], [ 117.312378612798554, 42.408118156190234 ], [ 117.312366460292012, 42.408118189303593 ], [ 117.312366504974165, 42.408127195194162 ], [ 117.312360428720012, 42.408127211750354 ], [ 117.312360473401341, 42.408136217640916 ], [ 117.312354397146322, 42.408136234196796 ], [ 117.312354419486539, 42.40814073714207 ], [ 117.312348343231093, 42.408140753697644 ], [ 117.312348521949616, 42.408176777259726 ], [ 117.312354598208543, 42.408176760704144 ], [ 117.312354575868284, 42.408172257758892 ], [ 117.312366728385257, 42.408172224646748 ], [ 117.312366773067552, 42.408181230537238 ] ] ] } },
{ "type": "Feature", "properties": { "crown_id": 5660, "tree_id": "5663", "top_h_m": 20.262, "H_95_Mean": 19.8366, "DBH": 35.8702, "Carbon_kg": 242.884733, "area_m2": 41.75 }, "geometry": { "type": "Polygon", "coordinates": [ [ [ 117.312603747178542, 42.408180584592891 ], [ 117.312621975955992, 42.408180534884565 ], [ 117.31262195359659, 42.408176031939455 ], [ 117.31262802985529, 42.408176015369371 ], [ 117.312628007495462, 42.408171512424239 ], [ 117.312634083753736, 42.408171495853836 ], [ 117.312634061393467, 42.408166992908711 ], [ 117.312652290166923, 42.408166943195582 ], [ 117.31265226780539, 42.408162440250464 ], [ 117.312658344062768, 42.408162423678775 ], [ 117.312658276976833, 42.408148914843387 ], [ 117.31266435323289, 42.408148898271392 ], [ 117.312664241420947, 42.408126383545678 ], [ 117.312658165167051, 42.408126400117652 ], [ 117.312658142805105, 42.408121897172521 ], [ 117.312645990298179, 42.408121930315502 ], [ 117.312645945576037, 42.408112924425161 ], [ 117.312627716818213, 42.408112974137239 ], [ 117.312627694458484, 42.408108471192051 ], [ 117.312603389449706, 42.408108537470298 ], [ 117.3126034118077, 42.408113040415479 ], [ 117.312597335555083, 42.408113056984234 ], [ 117.312597380270248, 42.408122062874604 ], [ 117.312591304016721, 42.408122079443046 ], [ 117.312591348731047, 42.408131085333402 ], [ 117.312579196222288, 42.408131118469328 ], [ 117.312579352716497, 42.408162639085532 ], [ 117.312585428973932, 42.408162622517708 ], [ 117.312585496044264, 42.408176131353166 ], [ 117.312603724820448, 42.40817608164776 ], [ 117.312603747178542, 42.408180584592891 ] ] ] } }
]
}
