{
"type": "FeatureCollection",
"name": "tile_15_13",
"crs": { "type": "name", "properties": { "name": "urn:ogc:def:crs:OGC:1.3:CRS84" } },
"features": [
{ "type": "Feature", "properties": { "crown_id": 4523, "tree_id": "4525", "top_h_m": 24.164, "H_95_Mean": 23.9374, "DBH": 33.7128, "Carbon_kg": 239.537704, "area_m2": 23.25 }, "geometry": { "type": "Polygon", "coordinates": [ [ [ 117.312904773696374, 42.408841705204999 ], [ 117.312953384278515, 42.408841572513744 ], [ 117.312953294744091, 42.408823560735875 ], [ 117.312947218423076, 42.408823577323396 ], [ 117.3129471960399, 42.408819074378918 ], [ 117.312953272360488, 42.408819057791391 ], [ 117.3129532499769, 42.408814554846906 ], [ 117.312959326297019, 42.408814538259072 ], [ 117.312959281529018, 42.408805532370096 ], [ 117.31292282361332, 42.408805631892271 ], [ 117.312922801231906, 42.408801128947772 ], [ 117.312916724913052, 42.408801145533673 ], [ 117.312916702532092, 42.408796642589145 ], [ 117.31291062621365, 42.408796659174726 ], [ 117.312910603833132, 42.408792156230213 ], [ 117.312886298561082, 42.408792222569275 ], [ 117.312886388076237, 42.408810234347378 ], [ 117.312892464396015, 42.408810217763076 ], [ 117.312892553913002, 42.408828229541108 ], [ 117.312898630234486, 42.408828212956479 ], [ 117.312898674993875, 42.408837218845463 ], [ 117.312904751316239, 42.408837202260514 ], [ 117.312904773696374, 42.408841705204999 ] ] ] } },
{ "type": "Feature", "properties": { "crown_id": 4547, "tree_id": "4549", "top_h_m": 24.731, "H_95_Mean": 24.2896, "DBH": 39.5913, "Carbon_kg": 334.054169, "area_m2": 42.25 }, "geometry": { "type": "Polygon", "coordinates": [ [ [ 117.313044551509279, 42.408845826606509 ], [ 117.313062780478575, 42.408845776827484 ], [ 117.313062758087113, 42.40884127388307 ], [ 117.313099216022962, 42.408841174316315 ], [ 117.313099171234882, 42.408832168427523 ], [ 117.313105247556635, 42.408832151831938 ], [ 117.313105180373242, 42.408818642998703 ], [ 117.313117333014119, 42.408818609806588 ], [ 117.313117265828154, 42.408805100973346 ], [ 117.313111189509044, 42.40880511756955 ], [ 117.313111122324429, 42.408791608736266 ], [ 117.313105046006584, 42.408791625332142 ], [ 117.313104978823333, 42.408778116498816 ], [ 117.313098902506809, 42.408778133094366 ], [ 117.313098880112832, 42.408773630149916 ], [ 117.313086727480609, 42.408773663340043 ], [ 117.313086772266814, 42.408782669228955 ], [ 117.313080695949836, 42.408782685823532 ], [ 117.313080718342519, 42.408787188767981 ], [ 117.313032107802954, 42.408787321513088 ], [ 117.313032152581371, 42.408796327402023 ], [ 117.313026076263043, 42.408796343993721 ], [ 117.313026232984626, 42.408827864604909 ], [ 117.313032309305996, 42.408827848013189 ], [ 117.313032354084527, 42.408836853902066 ], [ 117.313038430406763, 42.408836837310034 ], [ 117.313038452796476, 42.408841340254455 ], [ 117.313044529119139, 42.408841323662095 ], [ 117.313044551509279, 42.408845826606509 ] ] ] } },
{ "type": "Feature", "properties": { "crown_id": 4559, "tree_id": "4561", "top_h_m": 21.716, "H_95_Mean": 21.4966, "DBH": 34.0739, "Carbon_kg": 229.654074, "area_m2": 29.5 }, "geometry": { "type": "Polygon", "coordinates": [ [ [ 117.31298984221489, 42.408841472981784 ], [ 117.313001994860315, 42.408841439801876 ], [ 117.313001972473231, 42.40883693685744 ], [ 117.313008048795496, 42.408836920266999 ], [ 117.31300807118302, 42.408841423211449 ], [ 117.313026300151094, 42.408841373438221 ], [ 117.313026255373458, 42.408832367549344 ], [ 117.313020179051634, 42.408832384140744 ], [ 117.313019977556337, 42.40879185764063 ], [ 117.313026053874253, 42.408791841049258 ], [ 117.313026031485492, 42.408787338104787 ], [ 117.313019955168002, 42.408787354696152 ], [ 117.313019932779682, 42.408782851751674 ], [ 117.313007780145568, 42.408782884933437 ], [ 117.313007712983222, 42.408769376099961 ], [ 117.312995560351723, 42.408769409280424 ], [ 117.312995582738296, 42.40877391222493 ], [ 117.312989506422113, 42.408773928814668 ], [ 117.312989484035967, 42.408769425870169 ], [ 117.312983407720182, 42.408769442459594 ], [ 117.312983430105902, 42.408773945404093 ], [ 117.312977353789705, 42.408773961993198 ], [ 117.312977443330851, 42.408791973771194 ], [ 117.312971367012906, 42.408791990359994 ], [ 117.312971389397774, 42.408796493304479 ], [ 117.312965313079374, 42.408796509892959 ], [ 117.312965447386077, 42.408823527559854 ], [ 117.312971523707077, 42.408823510971366 ], [ 117.312971546092001, 42.40882801391583 ], [ 117.312977622413399, 42.408827997327016 ], [ 117.312977667184114, 42.408837003215929 ], [ 117.312989819828672, 42.408836970037335 ], [ 117.31298984221489, 42.408841472981784 ] ] ] } },
{ "type": "Feature", "properties": { "crown_id": 4590, "tree_id": "4592", "top_h_m": 22.868, "H_95_Mean": 22.5896, "DBH": 33.3386, "Carbon_kg": 226.317293, "area_m2": 24.75 }, "geometry": { "type": "Polygon", "coordinates": [ [ [ 117.31292887755076, 42.408801112361544 ], [ 117.312959259145003, 42.408801029425611 ], [ 117.312959214376988, 42.408792023536613 ], [ 117.312965290694962, 42.40879200694846 ], [ 117.312965268310521, 42.408787504003968 ], [ 117.312971344628039, 42.408787487415495 ], [ 117.312971232703802, 42.408764972692971 ], [ 117.312965156388458, 42.408764989281423 ], [ 117.31296511161969, 42.408755983392375 ], [ 117.312910424789138, 42.408756132673936 ], [ 117.312910491930609, 42.408769641507568 ], [ 117.312892262983084, 42.408769691262322 ], [ 117.312892352499901, 42.408787703040474 ], [ 117.312916657770188, 42.408787636700119 ], [ 117.312916680151147, 42.408792139644632 ], [ 117.312922756469135, 42.408792123058745 ], [ 117.31292277885052, 42.408796626003252 ], [ 117.312928855168948, 42.408796609417038 ], [ 117.31292887755076, 42.408801112361544 ] ] ] } },
{ "type": "Feature", "properties": { "crown_id": 4615, "tree_id": "4617", "top_h_m": 23.339, "H_95_Mean": 23.1266, "DBH": 34.0553, "Carbon_kg": 239.535752, "area_m2": 25.75 }, "geometry": { "type": "Polygon", "coordinates": [ [ [ 117.313026009096703, 42.408782835160316 ], [ 117.313074619632843, 42.408782702417803 ], [ 117.313074597240586, 42.408778199473339 ], [ 117.313080673557153, 42.408778182879075 ], [ 117.313080628771814, 42.408769176990162 ], [ 117.313098857718842, 42.408769127205446 ], [ 117.313098812930932, 42.40876012131654 ], [ 117.31311096556054, 42.408760088125135 ], [ 117.313110920770896, 42.408751082236215 ], [ 117.313104844456973, 42.408751098832063 ], [ 117.313104822062584, 42.4087465958876 ], [ 117.313086593122094, 42.408746645673226 ], [ 117.313086525942907, 42.408733136839764 ], [ 117.313068297006254, 42.408733186622463 ], [ 117.313068319398013, 42.408737689566962 ], [ 117.313062243085369, 42.408737706160558 ], [ 117.313062265476674, 42.40874220910505 ], [ 117.313056189163589, 42.408742225698326 ], [ 117.313056211554496, 42.408746728642832 ], [ 117.313050135240957, 42.408746745235774 ], [ 117.313050157631423, 42.408751248180273 ], [ 117.313031928689483, 42.40875129795721 ], [ 117.313031951078628, 42.408755800901702 ], [ 117.313025874764222, 42.408755817493372 ], [ 117.313025919541701, 42.40876482338237 ], [ 117.3130198432264, 42.408764839973728 ], [ 117.313019865614706, 42.408769342918212 ], [ 117.31301378929895, 42.40876935950925 ], [ 117.313013834074752, 42.408778365398227 ], [ 117.31302598670797, 42.408778332215824 ], [ 117.313026009096703, 42.408782835160316 ] ] ] } },
{ "type": "Feature", "properties": { "crown_id": 4661, "tree_id": "4663", "top_h_m": 23.35, "H_95_Mean": 23.1392, "DBH": 35.5071, "Carbon_kg": 260.64661, "area_m2": 30.25 }, "geometry": { "type": "MultiPolygon", "coordinates": [ [ [ [ 117.313068073088999, 42.408688157177302 ], [ 117.313068050697296, 42.408683654232767 ], [ 117.313061974389868, 42.408683670826328 ], [ 117.31306199678113, 42.408688173770869 ], [ 117.313068073088999, 42.408688157177302 ] ] ], [ [ [ 117.313019820838093, 42.408760337029221 ], [ 117.313019776061481, 42.408751331140223 ], [ 117.313025852375489, 42.408751314548873 ], [ 117.313025829986742, 42.408746811604374 ], [ 117.313044058927417, 42.408746761828411 ], [ 117.313044036537377, 42.408742258883919 ], [ 117.31305011285049, 42.408742242291282 ], [ 117.313050090460038, 42.408737739346776 ], [ 117.313056166772697, 42.40873772275382 ], [ 117.313056144381818, 42.408733219809328 ], [ 117.313062220694036, 42.408733203216059 ], [ 117.313062198302731, 42.408728700271553 ], [ 117.313080427238077, 42.408728650489827 ], [ 117.313080404845451, 42.408724147545328 ], [ 117.313074328534128, 42.408724164139556 ], [ 117.313074216573298, 42.408701649416997 ], [ 117.313068140264122, 42.408701666010892 ], [ 117.313068095480716, 42.408692660121844 ], [ 117.313055942864082, 42.408692693308645 ], [ 117.313055965254918, 42.408697196253186 ], [ 117.313037736328639, 42.408697246030997 ], [ 117.313037758718167, 42.408701748975524 ], [ 117.313031682408976, 42.408701765567486 ], [ 117.313031704798078, 42.408706268512027 ], [ 117.313007399559453, 42.408706334876662 ], [ 117.313007444334232, 42.408715340765752 ], [ 117.313001368023706, 42.408715357356115 ], [ 117.313001435184574, 42.408728866189719 ], [ 117.312995358872712, 42.408728882779769 ], [ 117.312995470805433, 42.408751397502392 ], [ 117.31300154711947, 42.408751380912328 ], [ 117.31300156950644, 42.408755883856848 ], [ 117.313013722135338, 42.408755850675753 ], [ 117.313013744523204, 42.408760353620259 ], [ 117.313019820838093, 42.408760337029221 ] ] ] ] } },
{ "type": "Feature", "properties": { "crown_id": 4680, "tree_id": "4682", "top_h_m": 26.198, "H_95_Mean": 25.8146, "DBH": 39.5722, "Carbon_kg": 345.967814, "area_m2": 37.75 }, "geometry": { "type": "Polygon", "coordinates": [ [ [ 117.312934707664994, 42.408751563385259 ], [ 117.312983318177388, 42.408751430681534 ], [ 117.31298329579171, 42.40874692773702 ], [ 117.312989372105292, 42.408746911147617 ], [ 117.312989260174788, 42.408724396424944 ], [ 117.312995336486182, 42.408724379835228 ], [ 117.312995269326635, 42.40871087100161 ], [ 117.313001345636749, 42.408710854411574 ], [ 117.313001323249807, 42.408706351467011 ], [ 117.312995246940133, 42.408706368057054 ], [ 117.312995224553646, 42.408701865112498 ], [ 117.31298914824437, 42.408701881702207 ], [ 117.312989103472262, 42.408692875813088 ], [ 117.312983027163895, 42.408692892402478 ], [ 117.31298298239264, 42.408683886513323 ], [ 117.31297690608514, 42.408683903102379 ], [ 117.31297688369996, 42.408679400157801 ], [ 117.312934349550261, 42.408679516272137 ], [ 117.312934595754001, 42.408729048662508 ], [ 117.312928519442096, 42.408729065248998 ], [ 117.31292856420562, 42.408738071138124 ], [ 117.312922487892848, 42.408738087724309 ], [ 117.31292253265552, 42.408747093613421 ], [ 117.312934685282798, 42.408747060440717 ], [ 117.312934707664994, 42.408751563385259 ] ] ] } },
{ "type": "Feature", "properties": { "crown_id": 4689, "tree_id": "4691", "top_h_m": 21.172, "H_95_Mean": 21.1561, "DBH": 26.8229, "Carbon_kg": 140.452988, "area_m2": 12.0 }, "geometry": { "type": "Polygon", "coordinates": [ [ [ 117.312910402408676, 42.40875162972938 ], [ 117.312916478722755, 42.408751613143842 ], [ 117.312916389199174, 42.408733601365611 ], [ 117.312922465511505, 42.40873358477976 ], [ 117.31292242074889, 42.40872457889062 ], [ 117.312928497060355, 42.40872456230445 ], [ 117.312928362769981, 42.408697544636993 ], [ 117.312922286461117, 42.40869756122315 ], [ 117.312922308842403, 42.408702064167741 ], [ 117.312916232533084, 42.408702080753578 ], [ 117.312916254913929, 42.408706583698162 ], [ 117.312904102294439, 42.408706616868884 ], [ 117.312904124674446, 42.408711119813475 ], [ 117.312898048364247, 42.40871113639836 ], [ 117.31289809312338, 42.408720142287528 ], [ 117.312885940501261, 42.408720175456331 ], [ 117.312886007637374, 42.408733684290084 ], [ 117.312892083949734, 42.408733667705839 ], [ 117.312892128708057, 42.408742673594979 ], [ 117.312898205021298, 42.408742657010393 ], [ 117.312898227400865, 42.408747159954956 ], [ 117.3129103800282, 42.408747126784839 ], [ 117.312910402408676, 42.40875162972938 ] ] ] } },
{ "type": "Feature", "properties": { "crown_id": 4729, "tree_id": "4731", "top_h_m": 22.305, "H_95_Mean": 22.0457, "DBH": 27.3502, "Carbon_kg": 149.67584, "area_m2": 12.0 }, "geometry": { "type": "Polygon", "coordinates": [ [ [ 117.313001300862851, 42.408701848522476 ], [ 117.313025606099771, 42.408701782159135 ], [ 117.313025583711081, 42.408697279214586 ], [ 117.31303166001986, 42.408697262622958 ], [ 117.313031637630758, 42.408692759678409 ], [ 117.313049866555758, 42.408692709901572 ], [ 117.313049844165363, 42.408688206957031 ], [ 117.313055920473232, 42.40868819036411 ], [ 117.313055853300781, 42.408674681530471 ], [ 117.313049776994191, 42.408674698123392 ], [ 117.313049799384586, 42.40867920106794 ], [ 117.313043723077556, 42.408679217660527 ], [ 117.313043700687601, 42.408674714715978 ], [ 117.313025471767816, 42.408674764491813 ], [ 117.313025494156449, 42.408679267436383 ], [ 117.31300118892824, 42.408679333799668 ], [ 117.313001166541341, 42.408674830855084 ], [ 117.312982937621456, 42.408674880624162 ], [ 117.312982960007034, 42.408679383568753 ], [ 117.312989036314121, 42.408679366979378 ], [ 117.312989081086201, 42.408688372868525 ], [ 117.312995157394141, 42.408688356278816 ], [ 117.312995202167144, 42.408697362167935 ], [ 117.313001278475923, 42.40869734557792 ], [ 117.313001300862851, 42.408701848522476 ] ] ] } },
{ "type": "Feature", "properties": { "crown_id": 4744, "tree_id": "4746", "top_h_m": 23.223, "H_95_Mean": 22.9487, "DBH": 35.9574, "Carbon_kg": 266.04771, "area_m2": 32.25 }, "geometry": { "type": "Polygon", "coordinates": [ [ [ 117.312873765501266, 42.408715705679271 ], [ 117.312891994433187, 42.408715655927516 ], [ 117.312891949674935, 42.408706650038333 ], [ 117.312898025984694, 42.408706633453768 ], [ 117.312898003605142, 42.40870213050917 ], [ 117.312910156223765, 42.408702097339102 ], [ 117.312910133843374, 42.408697594394503 ], [ 117.312916210152238, 42.408697577808987 ], [ 117.312916187771378, 42.408693074864395 ], [ 117.312928340388254, 42.408693041692395 ], [ 117.312928318006541, 42.408688538747803 ], [ 117.312922241698544, 42.408688555333953 ], [ 117.312922196936029, 42.408679549444763 ], [ 117.312928273243145, 42.408679532858613 ], [ 117.312928206098093, 42.408666024024789 ], [ 117.312934282403901, 42.408666007438327 ], [ 117.312934237639681, 42.408657001549095 ], [ 117.312928161334739, 42.408657018135557 ], [ 117.312928138953069, 42.40865251519093 ], [ 117.312909910039494, 42.408652564948383 ], [ 117.312909932419871, 42.408657067893003 ], [ 117.312885627199975, 42.408657134231767 ], [ 117.31288564957859, 42.408661637176401 ], [ 117.31287349696774, 42.408661670343861 ], [ 117.312873519345516, 42.408666173288488 ], [ 117.312855290427891, 42.408666223037272 ], [ 117.312855379933794, 42.408684234815809 ], [ 117.31284930362618, 42.408684251398093 ], [ 117.312849326002222, 42.408688754342727 ], [ 117.312843249694154, 42.408688770924691 ], [ 117.312843294445429, 42.408697776813952 ], [ 117.312849370754364, 42.408697760231981 ], [ 117.312849393130421, 42.408702263176586 ], [ 117.312861545749129, 42.40870223001167 ], [ 117.312861568126067, 42.408706732956276 ], [ 117.312867644435869, 42.408706716373331 ], [ 117.312867666813233, 42.408711219317944 ], [ 117.312873743123433, 42.408711202734672 ], [ 117.312873765501266, 42.408715705679271 ] ] ] } }
]
}
