{
"type": "FeatureCollection",
"name": "tile_8_9",
"crs": { "type": "name", "properties": { "name": "urn:ogc:def:crs:OGC:1.3:CRS84" } },
"features": [
{ "type": "Feature", "properties": { "crown_id": 2320, "tree_id": "2320", "top_h_m": 19.86, "H_95_Mean": 19.6275, "DBH": 32.7769, "Carbon_kg": 201.251741, "area_m2": 30.0 }, "geometry": { "type": "Polygon", "coordinates": [ [ [ 117.312030134382653, 42.410140954633604 ], [ 117.312090898869329, 42.410140789225835 ], [ 117.312090854223456, 42.410131783338215 ], [ 117.312096930671245, 42.410131766795672 ], [ 117.312096886024491, 42.410122760908038 ], [ 117.312102962471386, 42.410122744365182 ], [ 117.312102895500033, 42.41010923553371 ], [ 117.31209681905446, 42.410109252076552 ], [ 117.312096796731112, 42.410104749132735 ], [ 117.312090720285951, 42.410104765675257 ], [ 117.312090697963029, 42.410100262731419 ], [ 117.312096774407763, 42.41010024618889 ], [ 117.312096729761123, 42.410091240301213 ], [ 117.312072423985626, 42.410091306469354 ], [ 117.312072401664068, 42.410086803525495 ], [ 117.312066325220599, 42.410086820066724 ], [ 117.312066302899467, 42.410082317122864 ], [ 117.312054150013438, 42.410082350204348 ], [ 117.312054172333703, 42.410086853148229 ], [ 117.312042019446764, 42.41008688622842 ], [ 117.312042108724455, 42.41010489800388 ], [ 117.312036032279238, 42.41010491454351 ], [ 117.312036076917224, 42.410113920431222 ], [ 117.31203000047114, 42.410113936970532 ], [ 117.312030134382653, 42.410140954633604 ] ] ] } },
{ "type": "Feature", "properties": { "crown_id": 2338, "tree_id": "2338", "top_h_m": 21.287, "H_95_Mean": 21.0303, "DBH": 34.013, "Carbon_kg": 225.878587, "area_m2": 30.5 }, "geometry": { "type": "Polygon", "coordinates": [ [ [ 117.312127335235544, 42.410136187021934 ], [ 117.312139488131905, 42.410136153932648 ], [ 117.312139465805487, 42.410131650988845 ], [ 117.312151618700952, 42.410131617898294 ], [ 117.312151596373653, 42.410127114954491 ], [ 117.312157672820959, 42.410127098408736 ], [ 117.312157650493234, 42.410122595464948 ], [ 117.312169803386922, 42.410122562372464 ], [ 117.312169781058358, 42.410118059428669 ], [ 117.312181933951152, 42.410118026334899 ], [ 117.312181911621735, 42.410113523391118 ], [ 117.312187988067677, 42.410113506843757 ], [ 117.31218796573782, 42.410109003899962 ], [ 117.312181889292305, 42.410109020447322 ], [ 117.312181866962874, 42.410104517503527 ], [ 117.312187943407963, 42.410104500956166 ], [ 117.312187876418406, 42.410090992124758 ], [ 117.312181799974624, 42.410091008672119 ], [ 117.312181777645222, 42.410086505728302 ], [ 117.312157471871757, 42.410086571914476 ], [ 117.312157449544117, 42.410082068970652 ], [ 117.312151373101159, 42.410082085516393 ], [ 117.312151328446731, 42.410073079628724 ], [ 117.312133099120473, 42.410073129263978 ], [ 117.312133121446394, 42.410077632207823 ], [ 117.312127045003876, 42.410077648752257 ], [ 117.312127067329357, 42.410082151696109 ], [ 117.312120990886385, 42.41008216824023 ], [ 117.312121013211438, 42.410086671184075 ], [ 117.312114936768026, 42.410086687727869 ], [ 117.312114981417295, 42.410095693615546 ], [ 117.312108904973016, 42.410095710159034 ], [ 117.312108971945619, 42.410109218990534 ], [ 117.31211504839122, 42.410109202447039 ], [ 117.312115070715862, 42.410113705390856 ], [ 117.312108994269835, 42.410113721934358 ], [ 117.312109016594079, 42.410118224878183 ], [ 117.312115093040504, 42.410118208334673 ], [ 117.312115160014514, 42.410131717166109 ], [ 117.312127312910008, 42.410131684078124 ], [ 117.312127335235544, 42.410136187021934 ] ] ] } },
{ "type": "Feature", "properties": { "crown_id": 2368, "tree_id": "2368", "top_h_m": 23.354, "H_95_Mean": 23.0449, "DBH": 33.1157, "Carbon_kg": 225.928769, "area_m2": 23.25 }, "geometry": { "type": "Polygon", "coordinates": [ [ [ 117.311993519478563, 42.41010953325577 ], [ 117.31202997815258, 42.410109434026687 ], [ 117.312029933515461, 42.410100428138954 ], [ 117.312036009960238, 42.410100411599643 ], [ 117.312035920684337, 42.410082399824162 ], [ 117.312048073570395, 42.410082366744618 ], [ 117.312048028930747, 42.410073360856856 ], [ 117.312041952488585, 42.410073377396792 ], [ 117.312041930169187, 42.410068874452904 ], [ 117.312035853727451, 42.410068890992505 ], [ 117.312035831408508, 42.410064388048617 ], [ 117.312017602084595, 42.410064437665504 ], [ 117.312017557449295, 42.410055431777693 ], [ 117.312011481008867, 42.410055448316001 ], [ 117.312011547960481, 42.410068957147722 ], [ 117.311999395076953, 42.410068990223394 ], [ 117.311999417393295, 42.410073493167296 ], [ 117.311993340951091, 42.410073509704652 ], [ 117.311993363267007, 42.410078012648555 ], [ 117.311981210381703, 42.410078045722301 ], [ 117.311981232696766, 42.41008254866621 ], [ 117.311975156253681, 42.410082565202607 ], [ 117.311975178568304, 42.41008706814651 ], [ 117.311963025681237, 42.41008710121833 ], [ 117.311963070308764, 42.410096107106149 ], [ 117.311969146753171, 42.410096090570384 ], [ 117.311969169067382, 42.410100593514279 ], [ 117.311975245512215, 42.410100576978202 ], [ 117.311975267826853, 42.41010507992209 ], [ 117.311993497162632, 42.410105030311897 ], [ 117.311993519478563, 42.41010953325577 ] ] ] } },
{ "type": "Feature", "properties": { "crown_id": 2403, "tree_id": "2403", "top_h_m": 8.173, "H_95_Mean": 8.3774, "DBH": 15.6369, "Carbon_kg": 27.367223, "area_m2": 8.75 }, "geometry": { "type": "Polygon", "coordinates": [ [ [ 117.312096685114483, 42.410082234413515 ], [ 117.312114914443413, 42.410082184784031 ], [ 117.312114892118814, 42.410077681840193 ], [ 117.312120968561331, 42.410077665296384 ], [ 117.312120946236305, 42.410073162352539 ], [ 117.312127022678396, 42.410073145808418 ], [ 117.31212697802745, 42.410064139920713 ], [ 117.312133054468674, 42.41006412337628 ], [ 117.312132965165105, 42.410046111600842 ], [ 117.312126888725643, 42.410046128145268 ], [ 117.312126866400178, 42.410041625201401 ], [ 117.312114713522064, 42.410041658289281 ], [ 117.312114735846635, 42.410046161233154 ], [ 117.312108659407144, 42.410046177776614 ], [ 117.312108704055447, 42.410055183664362 ], [ 117.312102627615062, 42.410055200207502 ], [ 117.312102649938794, 42.410059703151383 ], [ 117.312108726379606, 42.410059686608236 ], [ 117.312108748703764, 42.410064189552088 ], [ 117.312102672262512, 42.410064206095235 ], [ 117.312102694586244, 42.410068709039109 ], [ 117.312096618144565, 42.410068725581944 ], [ 117.312096685114483, 42.410082234413515 ] ] ] } },
{ "type": "Feature", "properties": { "crown_id": 2416, "tree_id": "2416", "top_h_m": 20.366, "H_95_Mean": 20.1444, "DBH": 32.4488, "Carbon_kg": 200.267601, "area_m2": 27.5 }, "geometry": { "type": "Polygon", "coordinates": [ [ [ 117.31190230586445, 42.410096272446019 ], [ 117.3119205351978, 42.410096222847443 ], [ 117.31192051288707, 42.410091719903519 ], [ 117.311938742219084, 42.410091670302045 ], [ 117.311938719907062, 42.410087167358121 ], [ 117.311932643463493, 42.410087183892273 ], [ 117.311932621151911, 42.410082680948356 ], [ 117.311938697595039, 42.410082664414212 ], [ 117.311938652971008, 42.410073658526372 ], [ 117.311932576528775, 42.410073675060502 ], [ 117.311932554217208, 42.410069172116572 ], [ 117.311938630659014, 42.410069155582434 ], [ 117.311938496787135, 42.410042137918779 ], [ 117.311944573226342, 42.410042121384343 ], [ 117.311944550913935, 42.410037618440391 ], [ 117.311920245158817, 42.41003768457621 ], [ 117.311920222848144, 42.410033181632244 ], [ 117.311895917094688, 42.41003324776289 ], [ 117.311895939403612, 42.41003775070687 ], [ 117.311877710087145, 42.410037800301474 ], [ 117.311877821625316, 42.410060315021354 ], [ 117.311883898066299, 42.410060298490123 ], [ 117.311883942682456, 42.410069304378041 ], [ 117.31189001912432, 42.410069287846476 ], [ 117.3118900860499, 42.410082796678324 ], [ 117.311902238936213, 42.41008276361422 ], [ 117.31190230586445, 42.410096272446019 ] ] ] } },
{ "type": "Feature", "properties": { "crown_id": 2425, "tree_id": "2425", "top_h_m": 18.607, "H_95_Mean": 18.4403, "DBH": 30.3563, "Carbon_kg": 166.172311, "area_m2": 25.0 }, "geometry": { "type": "Polygon", "coordinates": [ [ [ 117.311950872794156, 42.410087134288879 ], [ 117.311956949237697, 42.410087117753775 ], [ 117.311956926924367, 42.410082614809859 ], [ 117.311969079810581, 42.410082581738685 ], [ 117.311969057496398, 42.410078078794768 ], [ 117.311975133939058, 42.410078062258698 ], [ 117.311975111624449, 42.410073559314796 ], [ 117.311987264508872, 42.410073526241682 ], [ 117.31198724219341, 42.410069023297773 ], [ 117.31199331863516, 42.41006900676075 ], [ 117.311993296319272, 42.410064503816834 ], [ 117.312005449201948, 42.410064470741816 ], [ 117.312005359934901, 42.410046458966157 ], [ 117.311999283495297, 42.410046475503819 ], [ 117.311999194230054, 42.410028463728104 ], [ 117.311993117792198, 42.410028480265431 ], [ 117.311993095476325, 42.410023977321487 ], [ 117.311987019038895, 42.410023993858488 ], [ 117.311986996723491, 42.410019490914543 ], [ 117.311980920286501, 42.410019507451231 ], [ 117.31198094260148, 42.410024010395176 ], [ 117.31197486616405, 42.410024026931531 ], [ 117.311974843849498, 42.410019523987579 ], [ 117.31196876741248, 42.410019540523635 ], [ 117.311968789726592, 42.410024043467587 ], [ 117.311962713289162, 42.410024060003295 ], [ 117.311962757916547, 42.410033065891199 ], [ 117.311956681478193, 42.410033082426608 ], [ 117.311956703791466, 42.41003758537056 ], [ 117.311950627352715, 42.410037601905628 ], [ 117.311950671978394, 42.410046607793525 ], [ 117.311944595538748, 42.410046624328281 ], [ 117.311944751725704, 42.410078144935831 ], [ 117.311950828168406, 42.41007812840104 ], [ 117.311950872794156, 42.410087134288879 ] ] ] } },
{ "type": "Feature", "properties": { "crown_id": 2479, "tree_id": "2479", "top_h_m": 21.148, "H_95_Mean": 20.5925, "DBH": 35.3941, "Carbon_kg": 241.71905, "area_m2": 37.0 }, "geometry": { "type": "Polygon", "coordinates": [ [ [ 117.312054105372908, 42.410073344316601 ], [ 117.312066258257204, 42.410073311235124 ], [ 117.312066213614941, 42.410064305347369 ], [ 117.312072290056207, 42.410064288806154 ], [ 117.312072267734678, 42.410059785862281 ], [ 117.312090497057156, 42.410059736236704 ], [ 117.312090430088631, 42.410046227405061 ], [ 117.312096506528135, 42.410046210862568 ], [ 117.312096461881595, 42.410037204974799 ], [ 117.312090385442943, 42.410037221517292 ], [ 117.312090363120134, 42.41003271857339 ], [ 117.31209643955836, 42.410032702030911 ], [ 117.312096372588599, 42.410019193199211 ], [ 117.312090296151695, 42.410019209741691 ], [ 117.312090273828886, 42.410014706797789 ], [ 117.312078120955917, 42.410014739881774 ], [ 117.312078098633989, 42.41001023693785 ], [ 117.312041640017611, 42.410010336182054 ], [ 117.312041662336938, 42.410014839125999 ], [ 117.312023433027349, 42.41001488874376 ], [ 117.312023455345368, 42.410019391687698 ], [ 117.312017378908408, 42.410019408226312 ], [ 117.312017401226001, 42.410023911170249 ], [ 117.312005248351184, 42.410023944246504 ], [ 117.312005337618132, 42.410041956022233 ], [ 117.312011414057267, 42.410041939484259 ], [ 117.312011458691657, 42.410050945372092 ], [ 117.312023611571675, 42.410050912295141 ], [ 117.312023656207813, 42.410059918182959 ], [ 117.312041885530419, 42.410059868565128 ], [ 117.312041907849803, 42.410064371509009 ], [ 117.312047984291098, 42.410064354969073 ], [ 117.312048006610908, 42.410068857912968 ], [ 117.312054083052644, 42.41006884137272 ], [ 117.312054105372908, 42.410073344316601 ] ] ] } },
{ "type": "Feature", "properties": { "crown_id": 2541, "tree_id": "2541", "top_h_m": 18.342, "H_95_Mean": 18.2706, "DBH": 32.8982, "Carbon_kg": 194.344122, "area_m2": 34.75 }, "geometry": { "type": "Polygon", "coordinates": [ [ [ 117.311926299286526, 42.410033165098774 ], [ 117.311950605039868, 42.410033098961677 ], [ 117.311950538101414, 42.410019590129806 ], [ 117.311962690975463, 42.410019557059329 ], [ 117.311962668661778, 42.410015054115384 ], [ 117.311980897971523, 42.410015004507279 ], [ 117.311980875656545, 42.410010501563313 ], [ 117.311986952092653, 42.410010485026632 ], [ 117.311986929777277, 42.41000598208268 ], [ 117.311980853341566, 42.410005998619354 ], [ 117.311980808711652, 42.409996992731422 ], [ 117.311974732276809, 42.409997009267776 ], [ 117.311974665333267, 42.409983500435835 ], [ 117.311980741766803, 42.409983483899495 ], [ 117.311980674821967, 42.40996997506754 ], [ 117.311968521957525, 42.409970008139886 ], [ 117.31196849964347, 42.409965505195878 ], [ 117.31195634677988, 42.409965538266931 ], [ 117.311956324466678, 42.409961035322922 ], [ 117.31194417160394, 42.409961068392683 ], [ 117.311944216228568, 42.409970074280693 ], [ 117.311913834067241, 42.409970156949463 ], [ 117.311913990238409, 42.410001677557517 ], [ 117.311907913803068, 42.410001694090319 ], [ 117.311907980732343, 42.410015202922295 ], [ 117.311914057168963, 42.410015186389494 ], [ 117.31191410178937, 42.410024192277433 ], [ 117.311926254664357, 42.410024159210835 ], [ 117.311926299286526, 42.410033165098774 ] ] ] } },
{ "type": "Feature", "properties": { "crown_id": 2547, "tree_id": "2547", "top_h_m": 20.619, "H_95_Mean": 20.279, "DBH": 32.6275, "Carbon_kg": 203.29588, "area_m2": 27.75 }, "geometry": { "type": "Polygon", "coordinates": [ [ [ 117.311993073160494, 42.410019474377542 ], [ 117.312011302471433, 42.410019424764606 ], [ 117.312011280154294, 42.410014921820675 ], [ 117.312017356590829, 42.410014905282374 ], [ 117.312017334273236, 42.410010402338429 ], [ 117.312035563581532, 42.410010352721642 ], [ 117.312035541262631, 42.410005849777711 ], [ 117.312059847005202, 42.410005783617486 ], [ 117.312059780043384, 42.409992274785679 ], [ 117.312053703609024, 42.409992291326212 ], [ 117.312053681288859, 42.409987788382267 ], [ 117.312047604854968, 42.40998780492248 ], [ 117.312047515576083, 42.409969793146651 ], [ 117.312035362711768, 42.409969826226074 ], [ 117.312035340392924, 42.409965323282101 ], [ 117.311998881802396, 42.409965422512634 ], [ 117.311998859486167, 42.409960919568654 ], [ 117.311986706623472, 42.409960952642912 ], [ 117.311986840515686, 42.409987970306815 ], [ 117.311980764081724, 42.409987986843475 ], [ 117.311980786396674, 42.409992489787456 ], [ 117.311986862831077, 42.409992473250782 ], [ 117.311986907461858, 42.410001479138721 ], [ 117.311992983897099, 42.410001462601727 ], [ 117.311993073160494, 42.410019474377542 ] ] ] } },
{ "type": "Feature", "properties": { "crown_id": 2563, "tree_id": "2563", "top_h_m": 22.312, "H_95_Mean": 21.9858, "DBH": 33.4179, "Carbon_kg": 223.788641, "area_m2": 26.25 }, "geometry": { "type": "Polygon", "coordinates": [ [ [ 117.312065923440827, 42.410005767076626 ], [ 117.312078076312076, 42.410005733993934 ], [ 117.312078053990149, 42.410001231050011 ], [ 117.312114512601141, 42.410001131794232 ], [ 117.312114445627586, 42.409987622962497 ], [ 117.312126598495269, 42.409987589874682 ], [ 117.312126553844536, 42.409978583986849 ], [ 117.312120477411554, 42.409978600530913 ], [ 117.312120410436776, 42.409965091699121 ], [ 117.312114334005102, 42.409965108242858 ], [ 117.312114311680631, 42.40996060529892 ], [ 117.312108235249397, 42.40996062184233 ], [ 117.312108190601293, 42.409951615954434 ], [ 117.312065655588555, 42.409951731749246 ], [ 117.312065700230562, 42.409960737637192 ], [ 117.312059623799271, 42.409960754178023 ], [ 117.312059646119835, 42.409965257121982 ], [ 117.312053569688118, 42.4099652736625 ], [ 117.312053658968722, 42.409983285438322 ], [ 117.312059735402187, 42.40998326889779 ], [ 117.31205975772275, 42.409987771841742 ], [ 117.312065834156655, 42.409987755300897 ], [ 117.312065923440827, 42.410005767076626 ] ] ] } },
{ "type": "Feature", "properties": { "crown_id": 2605, "tree_id": "2605", "top_h_m": 21.275, "H_95_Mean": 21.126, "DBH": 30.3762, "Carbon_kg": 180.32568, "area_m2": 19.5 }, "geometry": { "type": "Polygon", "coordinates": [ [ [ 117.311889506029701, 42.40996572013465 ], [ 117.311938117484431, 42.409965587871078 ], [ 117.311937894365869, 42.409920558430777 ], [ 117.311919665083437, 42.409920608031946 ], [ 117.311919687393953, 42.409925110976005 ], [ 117.311889305254269, 42.409925193638202 ], [ 117.311889394487721, 42.409943205414429 ], [ 117.311883318058065, 42.409943221945916 ], [ 117.311883384981897, 42.40995673077807 ], [ 117.311889461412889, 42.409956714246576 ], [ 117.311889506029701, 42.40996572013465 ] ] ] } },
{ "type": "Feature", "properties": { "crown_id": 2608, "tree_id": "2608", "top_h_m": 22.112, "H_95_Mean": 21.9559, "DBH": 30.1942, "Carbon_kg": 182.261438, "area_m2": 17.75 }, "geometry": { "type": "Polygon", "coordinates": [ [ [ 117.312041416824655, 42.409965306742563 ], [ 117.312047493256387, 42.409965290202692 ], [ 117.312047470936704, 42.409960787258719 ], [ 117.312053547367995, 42.409960770718527 ], [ 117.312053525047858, 42.409956267774554 ], [ 117.312059601478694, 42.40995625123405 ], [ 117.312059534517047, 42.40994274240213 ], [ 117.31205345808749, 42.409942758942627 ], [ 117.312053368807071, 42.409924747166677 ], [ 117.312004757384415, 42.409924879479021 ], [ 117.312004868967549, 42.409947394199058 ], [ 117.311998792537523, 42.409947410736663 ], [ 117.311998814853723, 42.409951913680658 ], [ 117.311992738423271, 42.409951930217943 ], [ 117.311992760739059, 42.409956433161945 ], [ 117.31200491360083, 42.40995640008704 ], [ 117.312004935917486, 42.409960903031035 ], [ 117.3120413945054, 42.40996080379859 ], [ 117.312041416824655, 42.409965306742563 ] ] ] } },
{ "type": "Feature", "properties": { "crown_id": 2609, "tree_id": "2609", "top_h_m": 18.169, "H_95_Mean": 18.0911, "DBH": 26.9204, "Carbon_kg": 128.974851, "area_m2": 16.25 }, "geometry": { "type": "Polygon", "coordinates": [ [ [ 117.312126531519169, 42.409974081042911 ], [ 117.312144760816736, 42.409974031408808 ], [ 117.312144716163417, 42.409965025520968 ], [ 117.312150792595048, 42.409965008975618 ], [ 117.312150747940876, 42.409956003087764 ], [ 117.312156824371669, 42.409955986542094 ], [ 117.312156779716631, 42.40994698065424 ], [ 117.312162856146529, 42.409946964108258 ], [ 117.31216283381859, 42.409942461164327 ], [ 117.312168910248062, 42.409942444618025 ], [ 117.312168887919682, 42.409937941674087 ], [ 117.312162811490666, 42.409937958220389 ], [ 117.312162789162741, 42.409933455276459 ], [ 117.312156712734151, 42.40993347182242 ], [ 117.312156690406653, 42.409928968878482 ], [ 117.312138461122146, 42.409929018514454 ], [ 117.312138438795984, 42.409924515570495 ], [ 117.312132362368217, 42.409924532115163 ], [ 117.312132340042481, 42.409920029171211 ], [ 117.31212626361517, 42.409920045715559 ], [ 117.312126241289874, 42.409915542771593 ], [ 117.312120164863003, 42.409915559315621 ], [ 117.312120276487363, 42.409938074035452 ], [ 117.312114200058303, 42.409938090579168 ], [ 117.312114289356145, 42.409956102354975 ], [ 117.312120365786953, 42.409956085811245 ], [ 117.312120388111865, 42.409960588755183 ], [ 117.312126464543098, 42.409960572211141 ], [ 117.312126531519169, 42.409974081042911 ] ] ] } }
]
}
