{
"type": "FeatureCollection",
"name": "tile_16_14",
"crs": { "type": "name", "properties": { "name": "urn:ogc:def:crs:OGC:1.3:CRS84" } },
"features": [
{ "type": "Feature", "properties": { "crown_id": 4802, "tree_id": "4804", "top_h_m": 22.185, "H_95_Mean": 22.2361, "DBH": 31.6224, "Carbon_kg": 201.560622, "area_m2": 20.75 }, "geometry": { "type": "Polygon", "coordinates": [ [ [ 117.31317740183087, 42.408678852549095 ], [ 117.313189554444662, 42.408678819349404 ], [ 117.313189532044305, 42.408674316404912 ], [ 117.313195608350767, 42.408674299804602 ], [ 117.313195563549144, 42.408665293915611 ], [ 117.313207716160321, 42.408665260714017 ], [ 117.313207648955327, 42.408651751880519 ], [ 117.313213725259601, 42.408651735279243 ], [ 117.313213680455434, 42.408642729390252 ], [ 117.313225833062234, 42.408642696186746 ], [ 117.313225765853431, 42.408629187353213 ], [ 117.313201460645018, 42.408629253758903 ], [ 117.313201505447424, 42.408638259647937 ], [ 117.313152895023407, 42.408638392443891 ], [ 117.313152984614362, 42.408656404222015 ], [ 117.313146908309605, 42.408656420820058 ], [ 117.313146930706921, 42.408660923764593 ], [ 117.313140854401723, 42.408660940362331 ], [ 117.313140876798599, 42.408665443306859 ], [ 117.313159105715513, 42.408665393512671 ], [ 117.313159128113682, 42.408669896457177 ], [ 117.313165204419747, 42.408669879858472 ], [ 117.313165226818384, 42.408674382802978 ], [ 117.313177379431337, 42.408674349604588 ], [ 117.31317740183087, 42.408678852549095 ] ] ] } },
{ "type": "Feature", "properties": { "crown_id": 4803, "tree_id": "4805", "top_h_m": 22.285, "H_95_Mean": 22.3547, "DBH": 29.1594, "Carbon_kg": 171.709415, "area_m2": 15.0 }, "geometry": { "type": "Polygon", "coordinates": [ [ [ 117.313262492532743, 42.408683123068741 ], [ 117.313280721454532, 42.408683073255204 ], [ 117.313280519792585, 42.408642546755047 ], [ 117.313274443489249, 42.408642563359855 ], [ 117.313274421082824, 42.408638060415363 ], [ 117.313268344779885, 42.408638077019845 ], [ 117.313268322373929, 42.40863357407536 ], [ 117.313231864558887, 42.408633673695505 ], [ 117.313231909365626, 42.40864267958451 ], [ 117.313237985669019, 42.408642662981954 ], [ 117.313238030476668, 42.408651668870931 ], [ 117.313244106780928, 42.408651652268048 ], [ 117.313244173993724, 42.408665161101503 ], [ 117.313250250299276, 42.408665144498286 ], [ 117.313250272703996, 42.408669647442757 ], [ 117.313256349009976, 42.408669630839221 ], [ 117.313256371415136, 42.408674133783684 ], [ 117.313262447721542, 42.408674117179814 ], [ 117.313262492532743, 42.408683123068741 ] ] ] } },
{ "type": "Feature", "properties": { "crown_id": 4804, "tree_id": "4806", "top_h_m": 23.21, "H_95_Mean": 22.9689, "DBH": 30.1496, "Carbon_kg": 186.632376, "area_m2": 16.25 }, "geometry": { "type": "Polygon", "coordinates": [ [ [ 117.313286797761791, 42.408683056650041 ], [ 117.313292874069035, 42.408683040044565 ], [ 117.313292829253498, 42.40867403415568 ], [ 117.313311058172616, 42.408673984337334 ], [ 117.313311035763547, 42.408669481392891 ], [ 117.313317112069484, 42.408669464786136 ], [ 117.313317089659975, 42.408664961841687 ], [ 117.313329242270953, 42.408664928627211 ], [ 117.313329197450244, 42.408655922738319 ], [ 117.313335273754859, 42.408655906130598 ], [ 117.313335139290245, 42.408628888463873 ], [ 117.313329062988231, 42.408628905071573 ], [ 117.313329040577912, 42.408624402127096 ], [ 117.313322964276324, 42.408624418734469 ], [ 117.313322986686217, 42.408628921678947 ], [ 117.313316910384202, 42.408628938286007 ], [ 117.313316932793668, 42.408633441230478 ], [ 117.313304780188759, 42.408633474443633 ], [ 117.313304802597344, 42.408637977388103 ], [ 117.313292649991553, 42.408638010599972 ], [ 117.313292672399285, 42.40864251354445 ], [ 117.313286596095935, 42.408642530149912 ], [ 117.313286797761791, 42.408683056650041 ] ] ] } },
{ "type": "Feature", "properties": { "crown_id": 4844, "tree_id": "4846", "top_h_m": 22.303, "H_95_Mean": 22.1385, "DBH": 27.9755, "Carbon_kg": 157.0426, "area_m2": 13.0 }, "geometry": { "type": "Polygon", "coordinates": [ [ [ 117.313110472875621, 42.408661023346177 ], [ 117.313134778096497, 42.408660956959743 ], [ 117.313134755700048, 42.408656454015208 ], [ 117.313140832004834, 42.408656437417804 ], [ 117.313140809607958, 42.408651934473276 ], [ 117.313146885912289, 42.408651917875538 ], [ 117.313146729131248, 42.408620397263746 ], [ 117.313140652829972, 42.408620413861456 ], [ 117.313140630433139, 42.4086159109169 ], [ 117.313122401530535, 42.40861596070809 ], [ 117.31312242392606, 42.408620463652653 ], [ 117.313116347624742, 42.408620480249084 ], [ 117.31311637001987, 42.408624983193654 ], [ 117.313110293718111, 42.408624999789765 ], [ 117.313110428086205, 42.408652017457086 ], [ 117.313116504390564, 42.408652000860968 ], [ 117.31311652678572, 42.408656503805503 ], [ 117.313110450480934, 42.408656520401628 ], [ 117.313110472875621, 42.408661023346177 ] ] ] } },
{ "type": "Feature", "properties": { "crown_id": 4873, "tree_id": "4875", "top_h_m": 21.363, "H_95_Mean": 21.7499, "DBH": 31.8618, "Carbon_kg": 201.989395, "area_m2": 22.25 }, "geometry": { "type": "Polygon", "coordinates": [ [ [ 117.313152872625679, 42.408633889499349 ], [ 117.313195406743674, 42.408633773304039 ], [ 117.313195361942149, 42.408624767414992 ], [ 117.313213590847184, 42.408624717612184 ], [ 117.313213546043059, 42.408615711723122 ], [ 117.313219622343851, 42.408615695121554 ], [ 117.313219599941377, 42.40861119217702 ], [ 117.313213523641011, 42.408611208778595 ], [ 117.313213501238991, 42.40860670583406 ], [ 117.313183119739278, 42.408606788837076 ], [ 117.313183074939559, 42.408597782947972 ], [ 117.313170922341385, 42.408597816146909 ], [ 117.313170899942392, 42.408593313202353 ], [ 117.313164823643746, 42.408593329801334 ], [ 117.313164801245179, 42.408588826856771 ], [ 117.313158724946959, 42.408588843455426 ], [ 117.313158702548861, 42.408584340510856 ], [ 117.313152626251039, 42.408584357109191 ], [ 117.313152603853396, 42.408579854164593 ], [ 117.313146527556015, 42.408579870762615 ], [ 117.313146549953245, 42.408584373707193 ], [ 117.313140473655437, 42.408584390304888 ], [ 117.313140518449018, 42.408593396194057 ], [ 117.313134442150343, 42.408593412791426 ], [ 117.313134531735869, 42.40861142456972 ], [ 117.313146684336729, 42.408611391374627 ], [ 117.313146706733988, 42.408615894319183 ], [ 117.313152783034823, 42.408615877721147 ], [ 117.313152872625679, 42.408633889499349 ] ] ] } },
{ "type": "Feature", "properties": { "crown_id": 4874, "tree_id": "4876", "top_h_m": 23.16, "H_95_Mean": 22.9061, "DBH": 35.4133, "Carbon_kg": 257.712756, "area_m2": 30.5 }, "geometry": { "type": "Polygon", "coordinates": [ [ [ 117.313280497385719, 42.408638043810562 ], [ 117.313286573688657, 42.408638027205427 ], [ 117.313286551281365, 42.408633524260949 ], [ 117.313298703886304, 42.40863349104972 ], [ 117.313298681478159, 42.408628988105242 ], [ 117.313310834082188, 42.408628954892741 ], [ 117.31331081167319, 42.408624451948256 ], [ 117.313316887974779, 42.40862443534153 ], [ 117.313316865565326, 42.408619932397038 ], [ 117.313329018167593, 42.408619899182625 ], [ 117.313328928526417, 42.408601887404693 ], [ 117.313310699628175, 42.408601937225811 ], [ 117.313310677219206, 42.408597434281312 ], [ 117.313286372023242, 42.408597500704964 ], [ 117.313286349616007, 42.408592997760451 ], [ 117.31328027331746, 42.40859301436555 ], [ 117.313280250910651, 42.40858851142103 ], [ 117.313268098314381, 42.40858854463027 ], [ 117.313268075908439, 42.408584041685735 ], [ 117.313261999610731, 42.408584058289883 ], [ 117.313262022016232, 42.40858856123441 ], [ 117.31324986941992, 42.40858859444171 ], [ 117.313249891824526, 42.408593097386245 ], [ 117.313243815525951, 42.408593113989404 ], [ 117.313243837930131, 42.408597616933946 ], [ 117.3132377616311, 42.408597633536793 ], [ 117.313237784034882, 42.408602136481328 ], [ 117.313231707735412, 42.408602153083855 ], [ 117.313231730138753, 42.40860665602839 ], [ 117.313225653838828, 42.408606672630611 ], [ 117.313225698644644, 42.408615678519652 ], [ 117.313231774945436, 42.408615661917437 ], [ 117.313231842155517, 42.408629170750977 ], [ 117.313237918457617, 42.408629154148443 ], [ 117.313237896053806, 42.40862465120393 ], [ 117.313243972355437, 42.408624634601061 ], [ 117.313243994759674, 42.408629137545567 ], [ 117.313274376270002, 42.408629054526379 ], [ 117.313274398676398, 42.408633557470878 ], [ 117.313280474978896, 42.408633540866077 ], [ 117.313280497385719, 42.408638043810562 ] ] ] } },
{ "type": "Feature", "properties": { "crown_id": 4928, "tree_id": "4930", "top_h_m": 21.323, "H_95_Mean": 21.1533, "DBH": 29.0001, "Carbon_kg": 164.36507, "area_m2": 16.25 }, "geometry": { "type": "Polygon", "coordinates": [ [ [ 117.313189173638946, 42.408602269292565 ], [ 117.313219555136442, 42.408602186287958 ], [ 117.313219532733967, 42.408597683343423 ], [ 117.31323168533207, 42.408597650139328 ], [ 117.313231662928743, 42.408593147194793 ], [ 117.313225586630139, 42.408593163796994 ], [ 117.313225564227224, 42.408588660852452 ], [ 117.313219487929061, 42.408588677454333 ], [ 117.313219465526601, 42.40858417450977 ], [ 117.313213389228864, 42.408584191111331 ], [ 117.313213366826844, 42.408579688166789 ], [ 117.313207290529519, 42.408579704768016 ], [ 117.313207245726389, 42.40857069887889 ], [ 117.313201169429917, 42.40857071547979 ], [ 117.313201124627682, 42.40856170959065 ], [ 117.313176819445275, 42.408561775991018 ], [ 117.313176841844651, 42.408566278935602 ], [ 117.313152536660411, 42.408566345330833 ], [ 117.313152581455725, 42.408575351220016 ], [ 117.313158657752652, 42.408575334621688 ], [ 117.31315868015075, 42.408579837566265 ], [ 117.313164756448117, 42.408579820967617 ], [ 117.313164778846641, 42.408584323912194 ], [ 117.313170855144435, 42.408584307313205 ], [ 117.313170877543428, 42.408588810257775 ], [ 117.313176953841648, 42.408588793658481 ], [ 117.313176976241053, 42.408593296603044 ], [ 117.31318912883836, 42.408593263403461 ], [ 117.313189173638946, 42.408602269292565 ] ] ] } },
{ "type": "Feature", "properties": { "crown_id": 4937, "tree_id": "4939", "top_h_m": 23.431, "H_95_Mean": 23.085, "DBH": 29.6045, "Carbon_kg": 180.431228, "area_m2": 15.0 }, "geometry": { "type": "Polygon", "coordinates": [ [ [ 117.31331675351818, 42.408597417674599 ], [ 117.313334982415086, 42.408597367852515 ], [ 117.313334915182935, 42.408583859019025 ], [ 117.313340991480572, 42.408583842411026 ], [ 117.313340946658315, 42.408574836522021 ], [ 117.313334870361544, 42.408574853130013 ], [ 117.31333475830813, 42.408552338407425 ], [ 117.31332868201352, 42.40855235501509 ], [ 117.313328704423768, 42.408556857959617 ], [ 117.313310475538586, 42.408556907780664 ], [ 117.313310520356467, 42.408565913669712 ], [ 117.313298367764574, 42.408565946882149 ], [ 117.313298390172662, 42.408570449826676 ], [ 117.313292313876289, 42.408570466432408 ], [ 117.313292336283936, 42.40857496937695 ], [ 117.313286259987109, 42.408574985982362 ], [ 117.313286282394316, 42.408579488926883 ], [ 117.31327412979978, 42.408579522136755 ], [ 117.313274152206162, 42.408584025081282 ], [ 117.313286304801565, 42.408583991871403 ], [ 117.313286327208772, 42.40858849481593 ], [ 117.313292403506921, 42.408588478210511 ], [ 117.313292425914582, 42.408592981155024 ], [ 117.31331673110877, 42.4085929147301 ], [ 117.31331675351818, 42.408597417674599 ] ] ] } },
{ "type": "Feature", "properties": { "crown_id": 4970, "tree_id": "4972", "top_h_m": 20.056, "H_95_Mean": 19.8412, "DBH": 27.907, "Carbon_kg": 146.463617, "area_m2": 15.75 }, "geometry": { "type": "Polygon", "coordinates": [ [ [ 117.31323164052543, 42.408588644250244 ], [ 117.313243793121742, 42.408588611044877 ], [ 117.313243748313383, 42.408579605155801 ], [ 117.313249824610679, 42.408579588552634 ], [ 117.313249645373929, 42.408543564996187 ], [ 117.313231416492471, 42.408543614804643 ], [ 117.3132313940892, 42.408539111860073 ], [ 117.313213165208992, 42.408539161665622 ], [ 117.313213187610955, 42.408543664610207 ], [ 117.313201035023269, 42.408543697812306 ], [ 117.313201102226586, 42.408557206646073 ], [ 117.313207178521722, 42.408557190045173 ], [ 117.313207223324824, 42.40856619593432 ], [ 117.313213299620855, 42.408566179333086 ], [ 117.313213344424852, 42.408575185222233 ], [ 117.313219420721722, 42.408575168620665 ], [ 117.313219443124183, 42.408579671565228 ], [ 117.313225519421479, 42.408579654963354 ], [ 117.313225541824366, 42.408584157907903 ], [ 117.313231618122103, 42.408584141305703 ], [ 117.31323164052543, 42.408588644250244 ] ] ] } },
{ "type": "Feature", "properties": { "crown_id": 4985, "tree_id": "4987", "top_h_m": 22.258, "H_95_Mean": 22.0208, "DBH": 30.9777, "Carbon_kg": 192.254527, "area_m2": 19.5 }, "geometry": { "type": "Polygon", "coordinates": [ [ [ 117.313255900907961, 42.40857957194914 ], [ 117.313268053502526, 42.408579538741208 ], [ 117.313268031096612, 42.408575035796666 ], [ 117.313280183690281, 42.408575002587455 ], [ 117.313280161283515, 42.408570499642927 ], [ 117.313286237579902, 42.408570483037828 ], [ 117.313286215172681, 42.408565980093286 ], [ 117.313292291468642, 42.408565963487874 ], [ 117.313292269061009, 42.408561460543339 ], [ 117.313304421652035, 42.408561427331563 ], [ 117.313304376835006, 42.408552421442501 ], [ 117.313322605718895, 42.408552371622413 ], [ 117.313322583309116, 42.408547868677886 ], [ 117.313316507014903, 42.408547885284889 ], [ 117.313316462196212, 42.408538879395813 ], [ 117.313304309609563, 42.408538912608861 ], [ 117.313304287201078, 42.408534409664306 ], [ 117.313298210908172, 42.40853442627035 ], [ 117.313298188500141, 42.40852992332578 ], [ 117.313292112207677, 42.408529939931491 ], [ 117.313292089800086, 42.408525436986935 ], [ 117.313273860923942, 42.40852548680212 ], [ 117.313273883330226, 42.40852998974669 ], [ 117.313267807037732, 42.408530006351121 ], [ 117.313267829443603, 42.408534509295698 ], [ 117.31326175315067, 42.408534525899796 ], [ 117.313261797961559, 42.408543531788929 ], [ 117.31325572166773, 42.408543548392721 ], [ 117.313255900907961, 42.40857957194914 ] ] ] } },
{ "type": "Feature", "properties": { "crown_id": 5005, "tree_id": "5008", "top_h_m": 18.288, "H_95_Mean": 18.2626, "DBH": 25.9031, "Carbon_kg": 120.00793, "area_m2": 13.75 }, "geometry": { "type": "Polygon", "coordinates": [ [ [ 117.313140406465052, 42.408570881471121 ], [ 117.313146482761567, 42.40857086487344 ], [ 117.313146437967134, 42.408561858984243 ], [ 117.313170743149655, 42.408561792590298 ], [ 117.313170720750705, 42.408557289645721 ], [ 117.313195025931407, 42.408557223246639 ], [ 117.313194936328742, 42.40853921146828 ], [ 117.313170631154989, 42.40853927786732 ], [ 117.313170608756081, 42.4085347749227 ], [ 117.313146303583991, 42.40853484131658 ], [ 117.313146281186832, 42.408530338371961 ], [ 117.313140204894239, 42.408530354969614 ], [ 117.313140227290972, 42.40853485791424 ], [ 117.313134150997939, 42.408534874511574 ], [ 117.313134285375867, 42.408561892179272 ], [ 117.313140361671515, 42.408561875581917 ], [ 117.313140406465052, 42.408570881471121 ] ] ] } },
{ "type": "Feature", "properties": { "crown_id": 5058, "tree_id": "5061", "top_h_m": 21.831, "H_95_Mean": 21.6871, "DBH": 30.2346, "Carbon_kg": 181.426623, "area_m2": 18.25 }, "geometry": { "type": "Polygon", "coordinates": [ [ [ 117.313115922118783, 42.408534924301669 ], [ 117.313128074704878, 42.408534891108594 ], [ 117.313128029913145, 42.408525885219333 ], [ 117.313140182497477, 42.408525852024987 ], [ 117.313140048117191, 42.408498834357125 ], [ 117.313146124406757, 42.408498817759487 ], [ 117.313146079612494, 42.408489811870183 ], [ 117.313140003323809, 42.408489828467822 ], [ 117.313139958530428, 42.40848082257849 ], [ 117.31313388224261, 42.408480839175802 ], [ 117.31313390463886, 42.408485342120478 ], [ 117.313109599485784, 42.408485408506493 ], [ 117.313109621880301, 42.408489911451177 ], [ 117.313097469302846, 42.408489944642263 ], [ 117.31309751409016, 42.408498950531602 ], [ 117.313091437800566, 42.408498967126675 ], [ 117.313091527373487, 42.40851697890534 ], [ 117.313097603664843, 42.408516962310266 ], [ 117.313097626058507, 42.408521465254914 ], [ 117.313103702350276, 42.408521448659528 ], [ 117.313103747138513, 42.40853045454881 ], [ 117.313115899723783, 42.408530421357028 ], [ 117.313115922118783, 42.408534924301669 ] ] ] } },
{ "type": "Feature", "properties": { "crown_id": 5059, "tree_id": "5062", "top_h_m": 22.096, "H_95_Mean": 21.7312, "DBH": 31.9407, "Carbon_kg": 202.895544, "area_m2": 22.5 }, "geometry": { "type": "Polygon", "coordinates": [ [ [ 117.313201012622159, 42.408539194867721 ], [ 117.313207088915576, 42.408539178266828 ], [ 117.313207066514067, 42.408534675322237 ], [ 117.313219219100006, 42.408534642119498 ], [ 117.313219196697631, 42.408530139174914 ], [ 117.313207044112531, 42.408530172377638 ], [ 117.313206932105018, 42.408507657654603 ], [ 117.313200855814628, 42.408507674255475 ], [ 117.313200766210471, 42.40848966247696 ], [ 117.313152155901179, 42.408489795272232 ], [ 117.31315222309388, 42.408503304106169 ], [ 117.313146146803902, 42.408503320704142 ], [ 117.313146258789658, 42.408525835427319 ], [ 117.313152335081824, 42.408525818829347 ], [ 117.31315235747941, 42.408530321773974 ], [ 117.313176662649738, 42.408530255378821 ], [ 117.313176685049086, 42.408534758323434 ], [ 117.313200990221077, 42.408534691923123 ], [ 117.313201012622159, 42.408539194867721 ] ] ] } },
{ "type": "Feature", "properties": { "crown_id": 5060, "tree_id": "5063", "top_h_m": 20.334, "H_95_Mean": 19.8739, "DBH": 33.1126, "Carbon_kg": 206.949131, "area_m2": 30.5 }, "geometry": { "type": "Polygon", "coordinates": [ [ [ 117.313328659603286, 42.408547852070555 ], [ 117.31333473589747, 42.408547835462905 ], [ 117.31333471348681, 42.408543332518363 ], [ 117.31334078978054, 42.408543315910393 ], [ 117.313340744958381, 42.408534310021317 ], [ 117.313352897544092, 42.408534276804417 ], [ 117.313352807896337, 42.408516265026257 ], [ 117.313346731605208, 42.40851628163486 ], [ 117.313346619547815, 42.408493766912073 ], [ 117.313352695836741, 42.408493750303485 ], [ 117.313352673424845, 42.408489247358922 ], [ 117.313346597136317, 42.408489263967496 ], [ 117.313346529901963, 42.408475755133772 ], [ 117.313340453614728, 42.408475771742019 ], [ 117.313340431203727, 42.408471268797449 ], [ 117.313334354916933, 42.408471285405376 ], [ 117.313334377327536, 42.408475788349953 ], [ 117.313303995891346, 42.408475871384809 ], [ 117.31330401829976, 42.408480374329407 ], [ 117.313291865724381, 42.408480407541091 ], [ 117.313292067392481, 42.408520934042365 ], [ 117.313298143684065, 42.408520917436654 ], [ 117.313298166092125, 42.408525420381217 ], [ 117.313304242384135, 42.408525403775187 ], [ 117.31330426479262, 42.408529906719757 ], [ 117.313310341085071, 42.408529890113385 ], [ 117.313310363493983, 42.408534393057948 ], [ 117.313322516079737, 42.408534359844253 ], [ 117.313322560899323, 42.408543365733351 ], [ 117.313328637193067, 42.408543349126028 ], [ 117.313328659603286, 42.408547852070555 ] ] ] } },
{ "type": "Feature", "properties": { "crown_id": 5073, "tree_id": "5076", "top_h_m": 21.447, "H_95_Mean": 20.97, "DBH": 34.7307, "Carbon_kg": 235.187999, "area_m2": 33.25 }, "geometry": { "type": "Polygon", "coordinates": [ [ [ 117.313237470382589, 42.408539095257574 ], [ 117.31325569926274, 42.408539045448158 ], [ 117.313255654452732, 42.40853003955899 ], [ 117.313261730745239, 42.408530022955212 ], [ 117.313261708339809, 42.408525520010649 ], [ 117.313267784631876, 42.408525503406544 ], [ 117.313267762226005, 42.408521000461967 ], [ 117.313285991100884, 42.408520950647741 ], [ 117.313285811843798, 42.408484927091052 ], [ 117.313273659267509, 42.408484960300811 ], [ 117.313273636861268, 42.408480457356205 ], [ 117.313267560573578, 42.408480473960601 ], [ 117.313267538167764, 42.408475971015989 ], [ 117.313261461880487, 42.408475987620051 ], [ 117.31326148428586, 42.408480490564671 ], [ 117.31321895027169, 42.408480606784167 ], [ 117.313218972674008, 42.408485109728801 ], [ 117.313206820097633, 42.408485142931475 ], [ 117.313206909703538, 42.408503154709983 ], [ 117.313212985993459, 42.408503138108799 ], [ 117.313213098003132, 42.408525652831841 ], [ 117.313225250587337, 42.40852561962847 ], [ 117.313225295392982, 42.408534625517646 ], [ 117.313237447978892, 42.408534592312989 ], [ 117.313237470382589, 42.408539095257574 ] ] ] } }
]
}
