{
"type": "FeatureCollection",
"name": "tile_1_9",
"crs": { "type": "name", "properties": { "name": "urn:ogc:def:crs:OGC:1.3:CRS84" } },
"features": [
{ "type": "Feature", "properties": { "crown_id": 12, "tree_id": "12", "top_h_m": 16.857, "H_95_Mean": 16.857, "DBH": 19.6856, "Carbon_kg": 65.824106, "area_m2": 5.5 }, "geometry": { "type": "Polygon", "coordinates": [ [ [ 117.311987882810257, 42.411424425790962 ], [ 117.312048648536049, 42.411424260401574 ], [ 117.31204862621513, 42.411419757458759 ], [ 117.312030396498727, 42.41141980707895 ], [ 117.312030351859519, 42.411410801193284 ], [ 117.312018198716984, 42.411410834271791 ], [ 117.31201817639824, 42.411406331328955 ], [ 117.312006023256544, 42.411406364406169 ], [ 117.312006067892298, 42.411415370291856 ], [ 117.311993914748854, 42.411415403367783 ], [ 117.311993937065836, 42.411419906310641 ], [ 117.311987860493673, 42.411419922848125 ], [ 117.311987882810257, 42.411424425790962 ] ] ] } },
{ "type": "Feature", "properties": { "crown_id": 43, "tree_id": "43", "top_h_m": 18.707, "H_95_Mean": 18.1912, "DBH": 28.8349, "Carbon_kg": 148.613565, "area_m2": 21.0 }, "geometry": { "type": "Polygon", "coordinates": [ [ [ 117.312091184543803, 42.411424144609832 ], [ 117.312097261116321, 42.411424128066869 ], [ 117.312097238791907, 42.411419625124076 ], [ 117.312103315363984, 42.411419608580779 ], [ 117.312103337688811, 42.41142411152358 ], [ 117.312151950268714, 42.41142397916569 ], [ 117.312151927940405, 42.411419476222918 ], [ 117.312158004512426, 42.411419459676736 ], [ 117.312157937526209, 42.411405950848405 ], [ 117.31215186095551, 42.411405967394579 ], [ 117.312151838627202, 42.411401464451792 ], [ 117.312145762056915, 42.41140148099764 ], [ 117.312145717401222, 42.411392475112052 ], [ 117.312139640831788, 42.411392491657573 ], [ 117.312139618504375, 42.411387988714772 ], [ 117.312133541935367, 42.411388005259973 ], [ 117.312133519608409, 42.411383502317157 ], [ 117.312115289902664, 42.41138355195082 ], [ 117.312115267577013, 42.411379049007991 ], [ 117.312109191008872, 42.411379065551898 ], [ 117.312109213334082, 42.41138356849472 ], [ 117.312103136765487, 42.411383585038315 ], [ 117.312103181415068, 42.411392590923946 ], [ 117.31209710484562, 42.411392607467221 ], [ 117.312097149494363, 42.411401613352851 ], [ 117.312091072924019, 42.411401629895806 ], [ 117.312091095247951, 42.411406132838621 ], [ 117.312085018677195, 42.411406149381257 ], [ 117.312085041000685, 42.411410652324051 ], [ 117.312078964429475, 42.411410668866374 ], [ 117.312078986752567, 42.411415171809182 ], [ 117.312085063324218, 42.411415155266873 ], [ 117.312085085647738, 42.411419658209681 ], [ 117.312091162219815, 42.411419641667038 ], [ 117.312091184543803, 42.411424144609832 ] ] ] } },
{ "type": "Feature", "properties": { "crown_id": 66, "tree_id": "66", "top_h_m": 17.725, "H_95_Mean": 17.8458, "DBH": 25.7376, "Carbon_kg": 116.860869, "area_m2": 14.0 }, "geometry": { "type": "Polygon", "coordinates": [ [ [ 117.312054725108595, 42.411424243860871 ], [ 117.312072954826206, 42.411424194236801 ], [ 117.312072865535598, 42.411406182465555 ], [ 117.312078942106382, 42.411406165923559 ], [ 117.312078919783318, 42.411401662980744 ], [ 117.312084996353661, 42.411401646438435 ], [ 117.312084974030171, 42.411397143495613 ], [ 117.312078897460253, 42.411397160037922 ], [ 117.312078875137175, 42.411392657095092 ], [ 117.312060645428701, 42.411392706720072 ], [ 117.312060623106959, 42.411388203777236 ], [ 117.312036316830643, 42.411388269939351 ], [ 117.312036294510619, 42.411383766996501 ], [ 117.312024141373314, 42.411383800075619 ], [ 117.312024186011598, 42.411392805961327 ], [ 117.312018109442064, 42.41139282250041 ], [ 117.312018154079524, 42.411401828386111 ], [ 117.312024230649925, 42.411401811847021 ], [ 117.312024252969067, 42.411406314789858 ], [ 117.312036406110749, 42.411406281710718 ], [ 117.312036450750824, 42.411415287596377 ], [ 117.312054680465891, 42.411415237975234 ], [ 117.312054725108595, 42.411424243860871 ] ] ] } },
{ "type": "Feature", "properties": { "crown_id": 73, "tree_id": "73", "top_h_m": 18.979, "H_95_Mean": 18.7668, "DBH": 30.5327, "Carbon_kg": 169.878587, "area_m2": 24.75 }, "geometry": { "type": "Polygon", "coordinates": [ [ [ 117.311963554204937, 42.411419988994851 ], [ 117.311981783921496, 42.411419939385283 ], [ 117.311981761605367, 42.411415436442439 ], [ 117.311987838177103, 42.411415419905268 ], [ 117.311987815860547, 42.411410916962424 ], [ 117.311999969003125, 42.411410883887136 ], [ 117.311999924368266, 42.411401878001435 ], [ 117.312012077509095, 42.411401844924875 ], [ 117.312012010554241, 42.411388336096316 ], [ 117.312018087123349, 42.411388319557553 ], [ 117.312018042485946, 42.411379313671837 ], [ 117.312005889349464, 42.411379346749023 ], [ 117.312005822395989, 42.411365837920393 ], [ 117.311987592695175, 42.411365887533726 ], [ 117.311987615011674, 42.411370390476606 ], [ 117.311981538444272, 42.411370407013749 ], [ 117.311981516128199, 42.41136590407087 ], [ 117.311975439561238, 42.411365920607672 ], [ 117.31197548419253, 42.411374926493458 ], [ 117.311963331056845, 42.411374959566118 ], [ 117.311963353371638, 42.411379462509011 ], [ 117.311957276803355, 42.411379479044861 ], [ 117.311957321432075, 42.41138848493064 ], [ 117.311945168293775, 42.411388518001388 ], [ 117.311945190607275, 42.411393020944267 ], [ 117.311933037468066, 42.411393054013736 ], [ 117.311933059780685, 42.411397556956629 ], [ 117.311945212920776, 42.411397523887146 ], [ 117.31194530217482, 42.411415535658641 ], [ 117.311963531890115, 42.411415486051993 ], [ 117.311963554204937, 42.411419988994851 ] ] ] } },
{ "type": "Feature", "properties": { "crown_id": 123, "tree_id": "123", "top_h_m": 19.916, "H_95_Mean": 19.6851, "DBH": 32.3183, "Carbon_kg": 195.956122, "area_m2": 28.25 }, "geometry": { "type": "Polygon", "coordinates": [ [ [ 117.312066699676009, 42.411388187235893 ], [ 117.312091005952226, 42.411388121067347 ], [ 117.312090983628295, 42.411383618124525 ], [ 117.312097060196891, 42.411383601581569 ], [ 117.312097037872547, 42.41137909863874 ], [ 117.312103114440703, 42.411379082095479 ], [ 117.312103092115919, 42.411374579152657 ], [ 117.312097015548176, 42.411374595695918 ], [ 117.312096993223847, 42.411370092753081 ], [ 117.312103069791135, 42.41137007620982 ], [ 117.312103002816826, 42.411356567381304 ], [ 117.312096926250859, 42.411356583924551 ], [ 117.312096903926516, 42.4113520809817 ], [ 117.312090827360976, 42.411352097524635 ], [ 117.312090782713213, 42.411343091638912 ], [ 117.312078629583809, 42.411343124723771 ], [ 117.312078607260787, 42.411338621780914 ], [ 117.31204214787509, 42.411338721027782 ], [ 117.312042170195483, 42.411343223970654 ], [ 117.312036093630738, 42.411343240510675 ], [ 117.312036138270685, 42.411352246396447 ], [ 117.312017908573836, 42.411352296014591 ], [ 117.312017930892495, 42.411356798957478 ], [ 117.312024007458575, 42.411356782418409 ], [ 117.312024119054186, 42.411379297132761 ], [ 117.312042348758823, 42.411379247513601 ], [ 117.312042371079272, 42.411383750456459 ], [ 117.312066677353826, 42.411383684293064 ], [ 117.312066699676009, 42.411388187235893 ] ], [ [ 117.312030173302844, 42.411374777650508 ], [ 117.312030150983261, 42.411370274707636 ], [ 117.312036227550607, 42.411370258167928 ], [ 117.31203624987063, 42.411374761110785 ], [ 117.312030173302844, 42.411374777650508 ] ] ] } },
{ "type": "Feature", "properties": { "crown_id": 137, "tree_id": "137", "top_h_m": 20.511, "H_95_Mean": 20.3608, "DBH": 34.8313, "Carbon_kg": 232.473844, "area_m2": 35.5 }, "geometry": { "type": "Polygon", "coordinates": [ [ [ 117.31190870887869, 42.411388617205908 ], [ 117.311914785447897, 42.411388600672623 ], [ 117.311914763136556, 42.41138409772973 ], [ 117.311932992842799, 42.411384048127957 ], [ 117.311933015155432, 42.411388551070843 ], [ 117.311939091724597, 42.411388534536286 ], [ 117.311939069411551, 42.411384031593386 ], [ 117.311951222548998, 42.411383998523284 ], [ 117.311951177921159, 42.411374992637498 ], [ 117.311957254489016, 42.411374976101975 ], [ 117.311957232174677, 42.411370473159074 ], [ 117.311969385309467, 42.411370440087062 ], [ 117.31196934067907, 42.411361434201261 ], [ 117.311975417245591, 42.411361417664772 ], [ 117.311975350298709, 42.411347908836071 ], [ 117.31195104403777, 42.41134797498006 ], [ 117.311950999410001, 42.411338969094224 ], [ 117.311938846281237, 42.411339002164276 ], [ 117.311938801655231, 42.411329996278397 ], [ 117.311920571964663, 42.411330045881044 ], [ 117.3119205273413, 42.411321039995144 ], [ 117.311902297653276, 42.411321089594871 ], [ 117.311902319963664, 42.411325592537843 ], [ 117.31189624340054, 42.411325609070438 ], [ 117.311896265710487, 42.411330112013388 ], [ 117.311890189146922, 42.411330128545671 ], [ 117.311890211456458, 42.411334631488636 ], [ 117.311884134892466, 42.411334648020599 ], [ 117.311884179510628, 42.411343653906492 ], [ 117.311878102945784, 42.41134367043815 ], [ 117.311878147563107, 42.411352676324043 ], [ 117.311890300694571, 42.411352643260415 ], [ 117.311890345313685, 42.411361649146286 ], [ 117.311896421880263, 42.411361632613989 ], [ 117.311896488810262, 42.411375141442768 ], [ 117.311902565378162, 42.411375124910137 ], [ 117.311902587688593, 42.411379627853051 ], [ 117.311908664256933, 42.411379611320093 ], [ 117.31190870887869, 42.411388617205908 ] ] ] } },
{ "type": "Feature", "properties": { "crown_id": 176, "tree_id": "176", "top_h_m": 20.03, "H_95_Mean": 19.9147, "DBH": 29.9203, "Carbon_kg": 168.909369, "area_m2": 20.5 }, "geometry": { "type": "Polygon", "coordinates": [ [ [ 117.312109079382822, 42.411356550837738 ], [ 117.31212123251477, 42.411356517749631 ], [ 117.312121210188707, 42.411352014806781 ], [ 117.312139439885314, 42.411351965172216 ], [ 117.312139417557944, 42.411347462229372 ], [ 117.312157647253187, 42.411347412591923 ], [ 117.31215760259586, 42.41133840670625 ], [ 117.31215152603167, 42.411338423252388 ], [ 117.31215145904703, 42.411324914423858 ], [ 117.312157535609941, 42.411324897877734 ], [ 117.312157513281306, 42.41132039493489 ], [ 117.31214536015635, 42.411320428026812 ], [ 117.312145293173117, 42.411306919198232 ], [ 117.312120986928377, 42.411306985378197 ], [ 117.312121009254398, 42.411311488321068 ], [ 117.3121027795695, 42.41131153795267 ], [ 117.312102846543638, 42.411325046781307 ], [ 117.312096769980684, 42.411325063324526 ], [ 117.312096881602201, 42.411347578038843 ], [ 117.31210295816733, 42.411347561495596 ], [ 117.312102980492085, 42.411352064438454 ], [ 117.312109057057626, 42.41135204789488 ], [ 117.312109079382822, 42.411356550837738 ] ] ] } },
{ "type": "Feature", "properties": { "crown_id": 187, "tree_id": "187", "top_h_m": 18.995, "H_95_Mean": 18.8787, "DBH": 26.3169, "Carbon_kg": 126.358706, "area_m2": 13.75 }, "geometry": { "type": "MultiPolygon", "coordinates": [ [ [ [ 117.311957098288687, 42.41134345550163 ], [ 117.311963174853489, 42.411343438965801 ], [ 117.311963152538752, 42.411338936022872 ], [ 117.311969229103113, 42.411338919486731 ], [ 117.311969251418304, 42.411343422429638 ], [ 117.311975327983077, 42.411343405893163 ], [ 117.311975261036267, 42.411329897064412 ], [ 117.311981337599747, 42.411329880527624 ], [ 117.311981270651643, 42.411316371698867 ], [ 117.311975194089484, 42.41131638823564 ], [ 117.31197512714273, 42.411302879406826 ], [ 117.311969050581837, 42.41130289594328 ], [ 117.311969028266716, 42.411298393000344 ], [ 117.31195687514581, 42.411298426072271 ], [ 117.311956897460064, 42.411302929015221 ], [ 117.311950820899185, 42.411302945550709 ], [ 117.311950843213012, 42.411307448493659 ], [ 117.311938690090329, 42.411307481563682 ], [ 117.31193871240329, 42.411311984506618 ], [ 117.31192655927974, 42.411312017575348 ], [ 117.311926626216064, 42.411325526404212 ], [ 117.311944855905338, 42.411325476800613 ], [ 117.311944900532183, 42.41133448268647 ], [ 117.311957053660066, 42.411334449615779 ], [ 117.311957098288687, 42.41134345550163 ] ] ], [ [ [ 117.311981337599747, 42.411329880527624 ], [ 117.311981359915791, 42.411334383470553 ], [ 117.311987436479711, 42.411334366933431 ], [ 117.311987414163227, 42.41132986399051 ], [ 117.311981337599747, 42.411329880527624 ] ] ] ] } },
{ "type": "Feature", "properties": { "crown_id": 202, "tree_id": "202", "top_h_m": 20.155, "H_95_Mean": 19.9393, "DBH": 31.1786, "Carbon_kg": 183.666227, "area_m2": 24.0 }, "geometry": { "type": "Polygon", "coordinates": [ [ [ 117.312005733124764, 42.411347826148848 ], [ 117.312030039385533, 42.411347759993269 ], [ 117.312029994746482, 42.41133875410749 ], [ 117.312036071310771, 42.411338737567803 ], [ 117.312036048990834, 42.41133423462491 ], [ 117.312048202118561, 42.411334201544562 ], [ 117.312048135156104, 42.411320692715883 ], [ 117.312042058593562, 42.411320709256209 ], [ 117.312041946991741, 42.411298194541665 ], [ 117.312011564189731, 42.411298277238416 ], [ 117.312011541871584, 42.41129377429548 ], [ 117.311999388751616, 42.411293807371926 ], [ 117.311999366434293, 42.411289304428983 ], [ 117.311993289874763, 42.411289320966709 ], [ 117.311993334508472, 42.411298326852602 ], [ 117.311981181387623, 42.411298359927109 ], [ 117.311981248335627, 42.411311868755924 ], [ 117.311987324897373, 42.411311852218823 ], [ 117.311987391846756, 42.411325361047595 ], [ 117.311993468409796, 42.411325344510168 ], [ 117.311993513043589, 42.411334350395997 ], [ 117.31199958960751, 42.411334333858235 ], [ 117.311999611924847, 42.411338836801129 ], [ 117.311993535360529, 42.41133885333889 ], [ 117.31199355767744, 42.411343356281797 ], [ 117.312005710806972, 42.411343323205948 ], [ 117.312005733124764, 42.411347826148848 ] ] ] } },
{ "type": "Feature", "properties": { "crown_id": 203, "tree_id": "203", "top_h_m": 20.388, "H_95_Mean": 19.959, "DBH": 29.4704, "Carbon_kg": 164.044908, "area_m2": 19.25 }, "geometry": { "type": "Polygon", "coordinates": [ [ [ 117.312054278682425, 42.411334185003909 ], [ 117.312084661501643, 42.411334102295768 ], [ 117.312084639178209, 42.411329599352896 ], [ 117.31209071574159, 42.411329582810303 ], [ 117.312090671093884, 42.411320576924567 ], [ 117.312096747656398, 42.411320560381654 ], [ 117.312096680683581, 42.411307051553003 ], [ 117.312108833805993, 42.411307018466246 ], [ 117.31210881148084, 42.411302515523367 ], [ 117.312102734920074, 42.411302532066898 ], [ 117.31210271259539, 42.411298029124019 ], [ 117.312096636035037, 42.411298045667223 ], [ 117.312096569062291, 42.411284536838529 ], [ 117.312066186267032, 42.41128461954974 ], [ 117.312066208589101, 42.41128912249264 ], [ 117.312060132029586, 42.411289139033926 ], [ 117.312060154351258, 42.41129364197684 ], [ 117.312054077791316, 42.411293658517792 ], [ 117.312054100112519, 42.411298161460714 ], [ 117.312048023552151, 42.411298178001353 ], [ 117.312048112835299, 42.411316189772975 ], [ 117.312054189397443, 42.411316173232329 ], [ 117.312054278682425, 42.411334185003909 ] ] ] } },
{ "type": "Feature", "properties": { "crown_id": 241, "tree_id": "241", "top_h_m": 17.549, "H_95_Mean": 17.4436, "DBH": 25.3399, "Carbon_kg": 111.733307, "area_m2": 13.75 }, "geometry": { "type": "Polygon", "coordinates": [ [ [ 117.311908307283531, 42.41130756423307 ], [ 117.311914383844908, 42.411307547699842 ], [ 117.311914361533695, 42.411303044756878 ], [ 117.311920438094603, 42.411303028223315 ], [ 117.31192046040627, 42.411307531166273 ], [ 117.311932613528981, 42.411307498098196 ], [ 117.311932591216447, 42.411302995155239 ], [ 117.311944744338277, 42.411302962085877 ], [ 117.311944722024876, 42.41129845914292 ], [ 117.311950798585357, 42.411298442607752 ], [ 117.31195077627153, 42.411293939664802 ], [ 117.311956852831543, 42.411293923129314 ], [ 117.31195678588881, 42.411280414300428 ], [ 117.311944632771343, 42.411280447371055 ], [ 117.311944588144613, 42.411271441485098 ], [ 117.311938511586732, 42.411271458019918 ], [ 117.311938489273814, 42.411266955076933 ], [ 117.311932412716388, 42.41126697161144 ], [ 117.311932390403882, 42.411262468668447 ], [ 117.311926313846897, 42.411262485202627 ], [ 117.311926336158947, 42.411266988145627 ], [ 117.311920259601493, 42.41126700467948 ], [ 117.311920281913103, 42.411271507622466 ], [ 117.311914205355222, 42.411271524156007 ], [ 117.311914227666435, 42.411276027098992 ], [ 117.311908151108099, 42.411276043632213 ], [ 117.311908173418871, 42.411280546575206 ], [ 117.311902096860095, 42.4112805631081 ], [ 117.311902119170441, 42.411285066051086 ], [ 117.311908195729629, 42.411285049518192 ], [ 117.311908218040401, 42.41128955246117 ], [ 117.311914294600044, 42.411289535927949 ], [ 117.311914316911242, 42.411294038870921 ], [ 117.311908240351173, 42.411294055404156 ], [ 117.311908307283531, 42.41130756423307 ] ] ] } },
{ "type": "Feature", "properties": { "crown_id": 253, "tree_id": "253", "top_h_m": 19.439, "H_95_Mean": 19.3696, "DBH": 28.2436, "Carbon_kg": 147.926186, "area_m2": 17.25 }, "geometry": { "type": "Polygon", "coordinates": [ [ [ 117.312017618431554, 42.411293757756788 ], [ 117.312048001231375, 42.411293675058424 ], [ 117.312047978910599, 42.411289172115509 ], [ 117.312054055470099, 42.411289155574877 ], [ 117.312054033148897, 42.411284652631963 ], [ 117.312060109707971, 42.411284636091011 ], [ 117.312060087386328, 42.411280133148082 ], [ 117.312072240503596, 42.411280100065227 ], [ 117.3120722181811, 42.411275597122291 ], [ 117.312066141622907, 42.411275613663882 ], [ 117.312066096978782, 42.411266607778032 ], [ 117.312060020421455, 42.411266624319289 ], [ 117.31205995345664, 42.411253115490474 ], [ 117.312053876900606, 42.411253132031412 ], [ 117.312053899221766, 42.411257634974355 ], [ 117.312029592995856, 42.411257701134879 ], [ 117.312029615315311, 42.411262204077836 ], [ 117.312017462201453, 42.411262237156173 ], [ 117.312017484520013, 42.41126674009913 ], [ 117.31199925484789, 42.411266789714226 ], [ 117.311999321799718, 42.411280298543083 ], [ 117.312005398358409, 42.411280282005038 ], [ 117.312005442993865, 42.411289287890924 ], [ 117.312017596112952, 42.411289254813852 ], [ 117.312017618431554, 42.411293757756788 ] ] ] } },
{ "type": "Feature", "properties": { "crown_id": 269, "tree_id": "269", "top_h_m": 19.339, "H_95_Mean": 19.049, "DBH": 30.8306, "Carbon_kg": 174.771779, "area_m2": 25.0 }, "geometry": { "type": "Polygon", "coordinates": [ [ [ 117.312102690270692, 42.411293526181112 ], [ 117.312126996510258, 42.411293460005048 ], [ 117.31212697418384, 42.411288957062155 ], [ 117.312157356981018, 42.411288874334844 ], [ 117.312157334652426, 42.411284371391964 ], [ 117.312151258093422, 42.411284387938075 ], [ 117.312151213437133, 42.411275382052295 ], [ 117.312163366553364, 42.411275348959769 ], [ 117.312163344224345, 42.411270846016897 ], [ 117.312169420782027, 42.411270829470141 ], [ 117.312169398452596, 42.411266326527269 ], [ 117.312157245338099, 42.41126635962042 ], [ 117.312157200680971, 42.411257353734626 ], [ 117.312145047568208, 42.411257386826485 ], [ 117.312145025240511, 42.41125288388357 ], [ 117.312138948684563, 42.41125290042902 ], [ 117.312138926357306, 42.411248397486105 ], [ 117.312132849801785, 42.411248414031235 ], [ 117.312132827474983, 42.411243911088313 ], [ 117.312126750919873, 42.411243927633109 ], [ 117.312126728593512, 42.411239424690173 ], [ 117.312114575484159, 42.411239457778791 ], [ 117.312114597809668, 42.411243960721727 ], [ 117.312108521254544, 42.411243977265556 ], [ 117.312108543579612, 42.411248480208492 ], [ 117.312102467024076, 42.411248496751988 ], [ 117.312102511673359, 42.411257502637845 ], [ 117.312090358560496, 42.411257535723898 ], [ 117.312090403208046, 42.411266541609756 ], [ 117.312084326650748, 42.41126655815232 ], [ 117.312084371297473, 42.411275564038149 ], [ 117.31207829473928, 42.411275580580387 ], [ 117.312078317062216, 42.411280083523302 ], [ 117.312102623296653, 42.411280017352425 ], [ 117.312102690270692, 42.411293526181112 ] ], [ [ 117.312120897624382, 42.411288973606659 ], [ 117.312120875298405, 42.411284470663766 ], [ 117.312126951857408, 42.411284454119269 ], [ 117.31212697418384, 42.411288957062155 ], [ 117.312120897624382, 42.411288973606659 ] ] ] } },
{ "type": "Feature", "properties": { "crown_id": 298, "tree_id": "298", "top_h_m": 20.044, "H_95_Mean": 19.7644, "DBH": 30.1808, "Carbon_kg": 171.117995, "area_m2": 21.5 }, "geometry": { "type": "Polygon", "coordinates": [ [ [ 117.311962907076889, 42.411289403650557 ], [ 117.311968983636461, 42.411289387114429 ], [ 117.311968961321355, 42.411284884171472 ], [ 117.311975037880487, 42.411284867635032 ], [ 117.311975015564954, 42.411280364692075 ], [ 117.31198716868235, 42.411280331618222 ], [ 117.311987124049523, 42.411271325732308 ], [ 117.311981047491685, 42.411271342269387 ], [ 117.311981025175726, 42.411266839326416 ], [ 117.311993178290521, 42.411266806251945 ], [ 117.311993089023218, 42.411248794480066 ], [ 117.311987012467569, 42.411248811017458 ], [ 117.311986990151198, 42.411244308074473 ], [ 117.31198091359596, 42.411244324611538 ], [ 117.311980846648154, 42.411230815782552 ], [ 117.311974770094238, 42.411230832319291 ], [ 117.311974747778763, 42.411226329376291 ], [ 117.311962594671769, 42.411226362448787 ], [ 117.31196257235716, 42.411221859505773 ], [ 117.311956495804083, 42.41122187604153 ], [ 117.311956518118265, 42.411226378984551 ], [ 117.311950441564761, 42.411226395519989 ], [ 117.311950486192259, 42.411235401406017 ], [ 117.311944409637874, 42.411235417941135 ], [ 117.311944387324544, 42.411230914998143 ], [ 117.311938310770614, 42.411230931532941 ], [ 117.31193846696091, 42.411262452133947 ], [ 117.311944543517896, 42.411262435599127 ], [ 117.31194456583124, 42.41126693854212 ], [ 117.311950642388666, 42.411266922006973 ], [ 117.311950687016278, 42.411275927892916 ], [ 117.311962840132836, 42.411275894821657 ], [ 117.311962907076889, 42.411289403650557 ] ] ] } },
{ "type": "Feature", "properties": { "crown_id": 337, "tree_id": "337", "top_h_m": 19.79, "H_95_Mean": 19.6402, "DBH": 31.7557, "Carbon_kg": 188.886317, "area_m2": 26.5 }, "geometry": { "type": "Polygon", "coordinates": [ [ [ 117.311999232530624, 42.411262286771262 ], [ 117.31201138564451, 42.411262253694858 ], [ 117.312011363326377, 42.411257750751894 ], [ 117.312023516439382, 42.411257717674218 ], [ 117.312023494120382, 42.411253214731246 ], [ 117.312047800344587, 42.411253148572023 ], [ 117.312047755703134, 42.411244142686122 ], [ 117.312059908813453, 42.411244109604581 ], [ 117.312059886491866, 42.411239606661617 ], [ 117.31205380993714, 42.411239623202555 ], [ 117.31205378761598, 42.41123512025959 ], [ 117.31205986417028, 42.411235103718667 ], [ 117.312059841848708, 42.411230600775703 ], [ 117.312047688740989, 42.41123063385723 ], [ 117.312047666420284, 42.411226130914251 ], [ 117.312041589866851, 42.411226147454528 ], [ 117.312041478265584, 42.411203632739607 ], [ 117.312035401714326, 42.41120364927955 ], [ 117.312035379394516, 42.411199146336557 ], [ 117.312017149742005, 42.411199195954438 ], [ 117.312017127423502, 42.411194693011424 ], [ 117.312011050873096, 42.411194709550074 ], [ 117.312011073191144, 42.411199212493081 ], [ 117.312004996640283, 42.411199229031411 ], [ 117.312005018957933, 42.41120373197441 ], [ 117.311998942406646, 42.41120374851242 ], [ 117.311998987041036, 42.411212754398441 ], [ 117.3119868339367, 42.411212787473502 ], [ 117.311986856253029, 42.411217290416502 ], [ 117.311980779700406, 42.411217306953539 ], [ 117.311980824332238, 42.41122631283956 ], [ 117.311986900885728, 42.411226296302502 ], [ 117.311986967834827, 42.411239805131487 ], [ 117.311993044389595, 42.411239788594095 ], [ 117.311993066706407, 42.411244291537081 ], [ 117.311999143261616, 42.411244274999376 ], [ 117.311999232530624, 42.411262286771262 ] ], [ [ 117.312005197499161, 42.411239755518373 ], [ 117.31200513054614, 42.411226246689409 ], [ 117.312023360206538, 42.411226197073418 ], [ 117.312023427163425, 42.411239705902354 ], [ 117.312005197499161, 42.411239755518373 ] ] ] } },
{ "type": "Feature", "properties": { "crown_id": 370, "tree_id": "370", "top_h_m": 18.271, "H_95_Mean": 17.9727, "DBH": 26.8359, "Carbon_kg": 127.663446, "area_m2": 16.25 }, "geometry": { "type": "Polygon", "coordinates": [ [ [ 117.312071994956412, 42.41123056769289 ], [ 117.312078071510243, 42.411230551151014 ], [ 117.312078049187363, 42.411226048208043 ], [ 117.312084125740768, 42.411226031665841 ], [ 117.312084103417462, 42.411221528722884 ], [ 117.312090179970411, 42.411221512180354 ], [ 117.312090157646693, 42.411217009237397 ], [ 117.312096234199203, 42.411216992694563 ], [ 117.312096167226713, 42.411203483865663 ], [ 117.312084014124281, 42.411203516951026 ], [ 117.312083947154477, 42.411190008122077 ], [ 117.312077870604526, 42.411190024664258 ], [ 117.312077848281717, 42.411185521721272 ], [ 117.312071771732207, 42.411185538263133 ], [ 117.312071749409824, 42.411181035320148 ], [ 117.31204744321353, 42.411181101484352 ], [ 117.312047510175503, 42.411194610313366 ], [ 117.312041433625112, 42.411194626853622 ], [ 117.312041455945348, 42.411199129796621 ], [ 117.31204753249618, 42.411199113256366 ], [ 117.312047644099579, 42.41122162797128 ], [ 117.312053720652585, 42.411221611430683 ], [ 117.312053742973717, 42.411226114373662 ], [ 117.312071972633959, 42.411226064749933 ], [ 117.312071994956412, 42.41123056769289 ] ] ] } }
]
}
