{
"type": "FeatureCollection",
"name": "tile_3_10",
"crs": { "type": "name", "properties": { "name": "urn:ogc:def:crs:OGC:1.3:CRS84" } },
"features": [
{ "type": "Feature", "properties": { "crown_id": 666, "tree_id": "666", "top_h_m": 20.584, "H_95_Mean": 20.0897, "DBH": 29.3621, "Carbon_kg": 163.461978, "area_m2": 18.75 }, "geometry": { "type": "Polygon", "coordinates": [ [ [ 117.312271538416795, 42.41103189215071 ], [ 117.31233230376202, 42.411031726612187 ], [ 117.312332281421121, 42.411027223669194 ], [ 117.312344434489248, 42.411027190557625 ], [ 117.312344389805716, 42.411018184671619 ], [ 117.312350466338899, 42.411018168115362 ], [ 117.312350443996692, 42.411013665172348 ], [ 117.31234436746395, 42.411013681728605 ], [ 117.312344345122199, 42.411009178785598 ], [ 117.312332192057553, 42.411009211897145 ], [ 117.312332169716683, 42.411004708954117 ], [ 117.31232609318478, 42.4110047255094 ], [ 117.31232607084435, 42.411000222566365 ], [ 117.31231391778141, 42.411000255675951 ], [ 117.312313873102269, 42.410991249789895 ], [ 117.312295643510453, 42.410991299451858 ], [ 117.31229571052522, 42.411004808280993 ], [ 117.31228355746137, 42.411004841387388 ], [ 117.312283602136205, 42.411013847273459 ], [ 117.312277525603378, 42.41101386382617 ], [ 117.312277547940369, 42.41101836676922 ], [ 117.312271471407115, 42.411018383321611 ], [ 117.312271538416795, 42.41103189215071 ] ] ] } },
{ "type": "Feature", "properties": { "crown_id": 694, "tree_id": "694", "top_h_m": 17.594, "H_95_Mean": 17.4519, "DBH": 26.3548, "Carbon_kg": 120.970279, "area_m2": 16.0 }, "geometry": { "type": "Polygon", "coordinates": [ [ [ 117.312229002674812, 42.411032008008505 ], [ 117.312235079209387, 42.411031991458358 ], [ 117.312235056875437, 42.411027488515309 ], [ 117.312259363011975, 42.41102742231152 ], [ 117.312259296004939, 42.411013913482385 ], [ 117.312265372537766, 42.411013896930626 ], [ 117.312265350201642, 42.411009393987591 ], [ 117.312253197136869, 42.411009427090754 ], [ 117.31225315246644, 42.411000421204626 ], [ 117.312247075934891, 42.411000437755739 ], [ 117.312247053600117, 42.410995934812661 ], [ 117.312240977069024, 42.410995951363439 ], [ 117.312240954734662, 42.410991448420368 ], [ 117.312234878204009, 42.410991464970813 ], [ 117.312234811202316, 42.410977956141565 ], [ 117.31221658161418, 42.410978005790959 ], [ 117.312216693277193, 42.411000520506377 ], [ 117.312210616745631, 42.41100053705555 ], [ 117.312210639077819, 42.411005039998628 ], [ 117.312204562545816, 42.411005056547467 ], [ 117.312204607209324, 42.411014062433622 ], [ 117.312210683742208, 42.41101404588477 ], [ 117.31221070607441, 42.41101854882784 ], [ 117.312222859140988, 42.411018515729175 ], [ 117.312222903807111, 42.411027521615281 ], [ 117.312228980341288, 42.411027505065462 ], [ 117.312229002674812, 42.411032008008505 ] ] ] } },
{ "type": "Feature", "properties": { "crown_id": 702, "tree_id": "702", "top_h_m": 18.338, "H_95_Mean": 18.0666, "DBH": 26.4664, "Carbon_kg": 124.528639, "area_m2": 15.25 }, "geometry": { "type": "Polygon", "coordinates": [ [ [ 117.312162049150416, 42.411009675323456 ], [ 117.312198508345119, 42.411009576039064 ], [ 117.312198463682506, 42.411000570152908 ], [ 117.312204540214083, 42.411000553604389 ], [ 117.312204517882336, 42.410996050661311 ], [ 117.312210594413443, 42.410996034112458 ], [ 117.312210505084792, 42.410978022340103 ], [ 117.31219835202603, 42.410978055437432 ], [ 117.31219830736346, 42.41096904955122 ], [ 117.312192230834938, 42.410969066099405 ], [ 117.312192208504086, 42.410964563156291 ], [ 117.312180055447882, 42.410964596251674 ], [ 117.312180033117926, 42.410960093308553 ], [ 117.312173956590243, 42.410960109855758 ], [ 117.312174023578848, 42.410973618685126 ], [ 117.312167947049844, 42.410973635232025 ], [ 117.312168036366344, 42.410991647004465 ], [ 117.312161959835606, 42.410991663551052 ], [ 117.312162049150416, 42.411009675323456 ] ] ] } },
{ "type": "Feature", "properties": { "crown_id": 716, "tree_id": "716", "top_h_m": 18.39, "H_95_Mean": 18.2312, "DBH": 29.7138, "Carbon_kg": 158.089901, "area_m2": 23.5 }, "geometry": { "type": "Polygon", "coordinates": [ [ [ 117.312350421654514, 42.411009162229341 ], [ 117.31235649818683, 42.411009145672757 ], [ 117.312356475844197, 42.41100464272975 ], [ 117.312362552376072, 42.411004626172847 ], [ 117.312362530033027, 42.411000123229833 ], [ 117.312386836158723, 42.41100005699905 ], [ 117.312386813813916, 42.410995554056043 ], [ 117.312398966875875, 42.410995520938727 ], [ 117.31239892218457, 42.410986515052713 ], [ 117.312404998714669, 42.410986498493564 ], [ 117.312404976368612, 42.41098199555055 ], [ 117.312392823309267, 42.410982028668506 ], [ 117.312392800964091, 42.410977525725485 ], [ 117.312386724434859, 42.41097754228398 ], [ 117.312386702090095, 42.410973039340959 ], [ 117.312380625561289, 42.41097305589912 ], [ 117.31238058087267, 42.410964050013064 ], [ 117.312368427816779, 42.410964083128412 ], [ 117.312368450160221, 42.410968586071455 ], [ 117.312362373631828, 42.410968602628643 ], [ 117.312362351288812, 42.4109640996856 ], [ 117.312325892120995, 42.410964199022018 ], [ 117.312325936801813, 42.410973204908125 ], [ 117.312319860272964, 42.410973221463074 ], [ 117.312319971972869, 42.4109957361783 ], [ 117.312332125034928, 42.410995703068053 ], [ 117.312332147375798, 42.411000206011082 ], [ 117.312338223907247, 42.411000189455486 ], [ 117.312338246248558, 42.411004692398507 ], [ 117.312350399312336, 42.411004659286327 ], [ 117.312350421654514, 42.411009162229341 ] ] ] } },
{ "type": "Feature", "properties": { "crown_id": 725, "tree_id": "725", "top_h_m": 19.418, "H_95_Mean": 19.0326, "DBH": 28.8112, "Carbon_kg": 152.388811, "area_m2": 19.25 }, "geometry": { "type": "Polygon", "coordinates": [ [ [ 117.3122592513336, 42.411004907596293 ], [ 117.312277480929438, 42.411004857940085 ], [ 117.312277458592476, 42.411000354997029 ], [ 117.312289611655473, 42.411000321891301 ], [ 117.312289544641999, 42.410986813062145 ], [ 117.312295621172197, 42.410986796508809 ], [ 117.312295598833941, 42.410982293565745 ], [ 117.312301675363713, 42.410982277012096 ], [ 117.312301630686349, 42.410973271125968 ], [ 117.312289477628582, 42.410973304232961 ], [ 117.312289410615207, 42.410959795403748 ], [ 117.312283334087624, 42.410959811956744 ], [ 117.312283311750292, 42.410955309013659 ], [ 117.312277235223135, 42.410955325566349 ], [ 117.312277212886229, 42.410950822623263 ], [ 117.312265059832782, 42.410950855727641 ], [ 117.312265082168793, 42.410955358670741 ], [ 117.31225292911445, 42.410955391773847 ], [ 117.312252951449636, 42.410959894716939 ], [ 117.312246874922025, 42.410959911268009 ], [ 117.312246964261035, 42.41097792304037 ], [ 117.312240887731676, 42.410977939591127 ], [ 117.312240932400329, 42.410986945477305 ], [ 117.312247008930555, 42.410986928926526 ], [ 117.312247031265343, 42.410991431869597 ], [ 117.31225310779601, 42.41099141531852 ], [ 117.312253130131211, 42.41099591826157 ], [ 117.312259206662304, 42.410995901710159 ], [ 117.3122592513336, 42.411004907596293 ] ] ] } },
{ "type": "Feature", "properties": { "crown_id": 764, "tree_id": "764", "top_h_m": 18.975, "H_95_Mean": 18.504, "DBH": 30.5619, "Carbon_kg": 168.792401, "area_m2": 25.5 }, "geometry": { "type": "Polygon", "coordinates": [ [ [ 117.312204406223699, 42.410973535945828 ], [ 117.312240865397328, 42.41097343664805 ], [ 117.312240776060079, 42.410955424875667 ], [ 117.312246852587279, 42.410955408324917 ], [ 117.312246830252533, 42.41095090538181 ], [ 117.312258983306037, 42.410950872279351 ], [ 117.312258960970425, 42.410946369336244 ], [ 117.312265037496729, 42.410946352784542 ], [ 117.312264970488656, 42.41093284395523 ], [ 117.312252817438662, 42.410932877058322 ], [ 117.31225275043326, 42.41091936822896 ], [ 117.312222367814698, 42.410919450980977 ], [ 117.312222390147639, 42.410923953924119 ], [ 117.312198084050962, 42.41092402011995 ], [ 117.312198128713433, 42.410933026006234 ], [ 117.312204205238459, 42.410933009457757 ], [ 117.312204249901825, 42.410942015344013 ], [ 117.312192096849969, 42.410942048440653 ], [ 117.312192186173249, 42.410960060213171 ], [ 117.312198262700917, 42.410960043665 ], [ 117.312198285032196, 42.410964546608099 ], [ 117.312204361560291, 42.410964530059609 ], [ 117.312204406223699, 42.410973535945828 ] ] ] } },
{ "type": "Feature", "properties": { "crown_id": 799, "tree_id": "799", "top_h_m": 21.074, "H_95_Mean": 20.4042, "DBH": 30.2673, "Carbon_kg": 175.381672, "area_m2": 20.5 }, "geometry": { "type": "Polygon", "coordinates": [ [ [ 117.312307640197943, 42.410959745742787 ], [ 117.312319793253053, 42.41095971263389 ], [ 117.312319748573145, 42.410950706747755 ], [ 117.312325825099833, 42.41095069019282 ], [ 117.312325869780608, 42.410959696078955 ], [ 117.312362328945824, 42.410959596742558 ], [ 117.31236226191686, 42.410946087913402 ], [ 117.312368338443065, 42.410946071356214 ], [ 117.312368226726022, 42.410923556640896 ], [ 117.312362150201977, 42.410923573198076 ], [ 117.312362127859046, 42.410919070254998 ], [ 117.312356051335428, 42.410919086811845 ], [ 117.312356028992909, 42.410914583868767 ], [ 117.312343875946553, 42.410914616981486 ], [ 117.312343853604901, 42.410910114038387 ], [ 117.312337777082135, 42.41091013059426 ], [ 117.31233773239974, 42.410901124708062 ], [ 117.312331655877841, 42.410901141263608 ], [ 117.312331678218612, 42.410905644206707 ], [ 117.312325601696273, 42.410905660761941 ], [ 117.312325668717278, 42.410919169591239 ], [ 117.312319592193646, 42.41091918614616 ], [ 117.312319726233213, 42.41094620380467 ], [ 117.312313649706965, 42.410946220359278 ], [ 117.312313672046457, 42.410950723302371 ], [ 117.312307595519769, 42.410950739856652 ], [ 117.312307640197943, 42.410959745742787 ] ] ] } },
{ "type": "Feature", "properties": { "crown_id": 809, "tree_id": "809", "top_h_m": 19.623, "H_95_Mean": 19.1646, "DBH": 29.9179, "Carbon_kg": 165.090284, "area_m2": 22.0 }, "geometry": { "type": "Polygon", "coordinates": [ [ [ 117.312289388277435, 42.410955292460663 ], [ 117.312301541331721, 42.410955259353692 ], [ 117.312301496654428, 42.410946253467529 ], [ 117.312307573180703, 42.410946236913567 ], [ 117.312307550841638, 42.410941733970489 ], [ 117.312313627367459, 42.410941717416208 ], [ 117.312313493330535, 42.410914699757654 ], [ 117.312319569853742, 42.41091468320306 ], [ 117.312319502834058, 42.410901174373734 ], [ 117.312325579355957, 42.410901157818827 ], [ 117.312325557015612, 42.410896654875721 ], [ 117.312319480494168, 42.410896671430628 ], [ 117.312319435814402, 42.410887665544386 ], [ 117.312313359293796, 42.410887682098952 ], [ 117.312313381633246, 42.41089218504208 ], [ 117.312307305112213, 42.41089220159634 ], [ 117.312307327451208, 42.410896704539454 ], [ 117.312276944843745, 42.410896787305909 ], [ 117.312277056528032, 42.41091930202154 ], [ 117.312258826956949, 42.410919351677585 ], [ 117.312258871628089, 42.410928357563819 ], [ 117.312271024677216, 42.410928324460102 ], [ 117.312271114023048, 42.410946336232513 ], [ 117.3122832670756, 42.410946303127481 ], [ 117.312283289412946, 42.410950806070588 ], [ 117.312289365939662, 42.410950789517585 ], [ 117.312289388277435, 42.410955292460663 ] ] ] } },
{ "type": "Feature", "properties": { "crown_id": 842, "tree_id": "842", "top_h_m": 19.476, "H_95_Mean": 19.1891, "DBH": 28.5291, "Carbon_kg": 150.121832, "area_m2": 18.25 }, "geometry": { "type": "Polygon", "coordinates": [ [ [ 117.312368204382651, 42.410919053697832 ], [ 117.312380357429845, 42.410919020582526 ], [ 117.312380335085578, 42.410914517639455 ], [ 117.312386411608742, 42.410914501081322 ], [ 117.31238636691937, 42.410905495195159 ], [ 117.312392443441667, 42.410905478636714 ], [ 117.312392421096561, 42.410900975693636 ], [ 117.312398497618389, 42.410900959134871 ], [ 117.312398452927312, 42.410891953248701 ], [ 117.312392376406351, 42.410891969807466 ], [ 117.312392264680923, 42.410869455091984 ], [ 117.312386188162122, 42.410869471650408 ], [ 117.312386210506773, 42.410873974593514 ], [ 117.312361904429764, 42.410874040824019 ], [ 117.312361926772667, 42.410878543767133 ], [ 117.31234977373326, 42.410878576880457 ], [ 117.31234979607531, 42.41088307982357 ], [ 117.312337643035008, 42.410883112935622 ], [ 117.312337665376177, 42.410887615878735 ], [ 117.312325512335008, 42.410887648989487 ], [ 117.312325534675296, 42.410892151932607 ], [ 117.312331611196342, 42.410892135377374 ], [ 117.312331633537084, 42.410896638320494 ], [ 117.312343786580016, 42.410896605209082 ], [ 117.312343831263263, 42.410905611095281 ], [ 117.312349907785574, 42.410905594539095 ], [ 117.312349930127652, 42.410910097482187 ], [ 117.312362083173142, 42.410910064368828 ], [ 117.312362105516073, 42.410914567311913 ], [ 117.312368182039251, 42.410914550754754 ], [ 117.312368204382651, 42.410919053697832 ] ] ] } },
{ "type": "Feature", "properties": { "crown_id": 893, "tree_id": "893", "top_h_m": 16.914, "H_95_Mean": 16.5716, "DBH": 30.1607, "Carbon_kg": 153.976519, "area_m2": 29.75 }, "geometry": { "type": "Polygon", "coordinates": [ [ [ 117.312185819350873, 42.41090153850012 ], [ 117.312191895872914, 42.410901521952304 ], [ 117.312191873542133, 42.410897019009141 ], [ 117.312197950063705, 42.410897002461013 ], [ 117.312197905401348, 42.410887996574658 ], [ 117.31221005844273, 42.410887963477428 ], [ 117.312210013778639, 42.410878957591088 ], [ 117.312222166818302, 42.410878924492579 ], [ 117.312222122152477, 42.410869918606238 ], [ 117.312216045633519, 42.410869935155638 ], [ 117.312216023301062, 42.410865432212461 ], [ 117.312209946782545, 42.410865448761548 ], [ 117.312209924450514, 42.410860945818349 ], [ 117.312216000968604, 42.410860929269262 ], [ 117.312215978636146, 42.410856426326085 ], [ 117.312222055153811, 42.410856409776677 ], [ 117.312222010488028, 42.410847403890294 ], [ 117.312215933971274, 42.410847420439694 ], [ 117.312215889306387, 42.41083841455329 ], [ 117.312221965822303, 42.410838398003897 ], [ 117.312221943489448, 42.410833895060698 ], [ 117.312215866973972, 42.410833911610084 ], [ 117.312215844641543, 42.410829408666878 ], [ 117.312203691611458, 42.410829441764683 ], [ 117.312203736274554, 42.410838447651109 ], [ 117.312173353694902, 42.410838530390009 ], [ 117.312173331365528, 42.410834027446789 ], [ 117.31216725485001, 42.41083404399361 ], [ 117.312167299507919, 42.41084304988005 ], [ 117.312161222991534, 42.410843066426544 ], [ 117.312161245320056, 42.410847569369771 ], [ 117.31215516880323, 42.410847585915946 ], [ 117.312155191131339, 42.410852088859173 ], [ 117.312161267648591, 42.410852072312998 ], [ 117.312161401619889, 42.410879089972234 ], [ 117.312155325100022, 42.410879106518429 ], [ 117.312155369756297, 42.410888112404827 ], [ 117.312167522797779, 42.410888079312102 ], [ 117.312167567455788, 42.410897085198478 ], [ 117.312185797020561, 42.410897035556957 ], [ 117.312185819350873, 42.41090153850012 ] ] ] } },
{ "type": "Feature", "properties": { "crown_id": 894, "tree_id": "894", "top_h_m": 19.759, "H_95_Mean": 19.6743, "DBH": 33.2968, "Carbon_kg": 208.030257, "area_m2": 31.75 }, "geometry": { "type": "Polygon", "coordinates": [ [ [ 117.312313336954361, 42.410883179155832 ], [ 117.312331566514871, 42.410883129491161 ], [ 117.312331544174114, 42.410878626548033 ], [ 117.312343697213549, 42.410878593436642 ], [ 117.312343674871954, 42.410874090493508 ], [ 117.312355827910494, 42.410874057380838 ], [ 117.312355805568018, 42.410869554437731 ], [ 117.312367958605677, 42.410869521323768 ], [ 117.312367936262348, 42.410865018380655 ], [ 117.312374012780751, 42.41086500182319 ], [ 117.312373990436996, 42.410860498880069 ], [ 117.31238006695493, 42.410860482322285 ], [ 117.312379999922371, 42.410846973492916 ], [ 117.312367846889089, 42.410847006608137 ], [ 117.312367779859187, 42.410833497778725 ], [ 117.312361703343839, 42.410833514335849 ], [ 117.312361658658148, 42.410824508449544 ], [ 117.312349505629172, 42.410824541562803 ], [ 117.312349483287193, 42.41082003861964 ], [ 117.312337330259069, 42.410820071731607 ], [ 117.312337352600167, 42.410824574674777 ], [ 117.312331276085672, 42.410824591230273 ], [ 117.312331253745, 42.41082008828711 ], [ 117.312306947688668, 42.410820154505892 ], [ 117.31230697002762, 42.410824657449076 ], [ 117.312300893513097, 42.410824674002974 ], [ 117.31230091585158, 42.410829176946145 ], [ 117.31230699236653, 42.410829160392254 ], [ 117.312307193417212, 42.410869686880673 ], [ 117.312313269936084, 42.410869670326427 ], [ 117.312313336954361, 42.410883179155832 ] ] ] } },
{ "type": "Feature", "properties": { "crown_id": 902, "tree_id": "902", "top_h_m": 19.166, "H_95_Mean": 18.6131, "DBH": 33.7909, "Carbon_kg": 207.38504, "area_m2": 37.25 }, "geometry": { "type": "Polygon", "coordinates": [ [ [ 117.312264769464747, 42.410892317467081 ], [ 117.312276922506911, 42.410892284362767 ], [ 117.312276900170076, 42.410887781419632 ], [ 117.31228297669071, 42.410887764866999 ], [ 117.312282999027971, 42.410892267810134 ], [ 117.312301228591139, 42.410892218150259 ], [ 117.312301206252585, 42.410887715207146 ], [ 117.31230728277319, 42.410887698653205 ], [ 117.312307215756206, 42.410874189823801 ], [ 117.312301139236894, 42.410874206377727 ], [ 117.312300938190091, 42.410833679889322 ], [ 117.312294861674673, 42.410833696442907 ], [ 117.312294839336616, 42.41082919349973 ], [ 117.312282686306645, 42.410829226605905 ], [ 117.312282663969455, 42.410824723662714 ], [ 117.312270510940365, 42.410824756767603 ], [ 117.312270488604042, 42.410820253824411 ], [ 117.312252259061623, 42.410820303479319 ], [ 117.312252326066698, 42.410833812308915 ], [ 117.312246249551265, 42.410833828859914 ], [ 117.312246271885854, 42.410838331803113 ], [ 117.312228042338205, 42.410838381454184 ], [ 117.312228109338122, 42.410851890283773 ], [ 117.312234185855317, 42.410851873733726 ], [ 117.312234208189068, 42.410856376676904 ], [ 117.312228131671432, 42.41085639322695 ], [ 117.312228176338081, 42.41086539911332 ], [ 117.312234252856598, 42.410865382563273 ], [ 117.312234297524128, 42.410874388449614 ], [ 117.312240374043498, 42.410874371899233 ], [ 117.312240396377703, 42.410878874842389 ], [ 117.312258625937076, 42.410878825189322 ], [ 117.312258670608131, 42.41088783107562 ], [ 117.312264747128779, 42.41088781452396 ], [ 117.312264769464747, 42.410892317467081 ] ] ] } }
]
}
