{
"type": "FeatureCollection",
"name": "tile_16_16",
"crs": { "type": "name", "properties": { "name": "urn:ogc:def:crs:OGC:1.3:CRS84" } },
"features": [
{ "type": "Feature", "properties": { "crown_id": 4786, "tree_id": "4788", "top_h_m": 22.895, "H_95_Mean": 22.9816, "DBH": 37.0159, "Carbon_kg": 282.30772, "area_m2": 36.0 }, "geometry": { "type": "Polygon", "coordinates": [ [ [ 117.313645367179845, 42.408695585208669 ], [ 117.3136696724128, 42.40869551870879 ], [ 117.313669649978081, 42.408691015764518 ], [ 117.313675726285879, 42.408690999138742 ], [ 117.313675703850706, 42.408686496194463 ], [ 117.313687856465421, 42.408686462941965 ], [ 117.313687834029409, 42.408681959997693 ], [ 117.313706062950132, 42.408681910116528 ], [ 117.313706040512784, 42.408677407172256 ], [ 117.313712116819261, 42.408677390544561 ], [ 117.313712094381515, 42.408672887600297 ], [ 117.313718170687523, 42.408672870972275 ], [ 117.313718125811164, 42.408663865083732 ], [ 117.313724202116305, 42.408663848455411 ], [ 117.313724157239122, 42.408654842566854 ], [ 117.313718080934834, 42.408654859195174 ], [ 117.313718058496661, 42.408650356250895 ], [ 117.313711982192814, 42.40865037287891 ], [ 117.313711914879676, 42.408636864046024 ], [ 117.313681533366861, 42.408636947181179 ], [ 117.31368155580239, 42.408641450125486 ], [ 117.313663326893348, 42.408641500002723 ], [ 117.313663349327584, 42.408646002947023 ], [ 117.3136390441137, 42.40864606944551 ], [ 117.313639088978732, 42.408655075334146 ], [ 117.313633012674373, 42.408655091957954 ], [ 117.313633079970643, 42.408668600790897 ], [ 117.31362700366499, 42.408668617414413 ], [ 117.313627070959981, 42.408682126247314 ], [ 117.313633147266955, 42.408682109623804 ], [ 117.313633192131192, 42.408691115512397 ], [ 117.313645344746831, 42.408691082264397 ], [ 117.313645367179845, 42.408695585208669 ] ] ] } },
{ "type": "Feature", "properties": { "crown_id": 4793, "tree_id": "4795", "top_h_m": 21.882, "H_95_Mean": 21.7071, "DBH": 30.6664, "Carbon_kg": 186.788583, "area_m2": 19.25 }, "geometry": { "type": "Polygon", "coordinates": [ [ [ 117.31357846050409, 42.408682259223838 ], [ 117.313620994653022, 42.408682142870504 ], [ 117.313620904928101, 42.408664131093275 ], [ 117.313626981233327, 42.408664114470092 ], [ 117.313626913938378, 42.408650605637142 ], [ 117.313632990242311, 42.408650589013646 ], [ 117.31363294537816, 42.408641583124989 ], [ 117.313620792772056, 42.408641616371654 ], [ 117.313620747909667, 42.408632610482982 ], [ 117.313608595305283, 42.408632643728332 ], [ 117.313608528014342, 42.408619134895282 ], [ 117.31360245171345, 42.408619151517463 ], [ 117.313602519003069, 42.408632660350534 ], [ 117.313596442700842, 42.40863267697241 ], [ 117.313596487559778, 42.408641682861102 ], [ 117.313590411256683, 42.408641699482665 ], [ 117.313590456114724, 42.408650705371343 ], [ 117.313584379810777, 42.408650721992586 ], [ 117.313584447096602, 42.4086642308256 ], [ 117.313572294486065, 42.408664264067127 ], [ 117.313572361769332, 42.40867777290012 ], [ 117.313578438075893, 42.408677756279516 ], [ 117.31357846050409, 42.408682259223838 ] ] ] } },
{ "type": "Feature", "properties": { "crown_id": 4794, "tree_id": "4796", "top_h_m": 24.439, "H_95_Mean": 23.9625, "DBH": 32.9568, "Carbon_kg": 228.976512, "area_m2": 21.25 }, "geometry": { "type": "Polygon", "coordinates": [ [ [ 117.313778978632556, 42.408681710562874 ], [ 117.313791131246205, 42.40868167729942 ], [ 117.313791108802818, 42.408677174355191 ], [ 117.313797185109209, 42.408677157722984 ], [ 117.313797162665352, 42.408672654778741 ], [ 117.313809315277268, 42.408672621513382 ], [ 117.313809270387864, 42.408663615624924 ], [ 117.313815346692934, 42.408663598991758 ], [ 117.313815324247813, 42.408659096047522 ], [ 117.313827476857071, 42.408659062780231 ], [ 117.313827454411083, 42.408654559835988 ], [ 117.31382137810688, 42.4086545764698 ], [ 117.313821333215799, 42.408645570581328 ], [ 117.313815256912463, 42.408645587214806 ], [ 117.313815212022263, 42.408636581326292 ], [ 117.313809135719794, 42.408636597959443 ], [ 117.313809113275127, 42.408632095015186 ], [ 117.313803036973113, 42.408632111648018 ], [ 117.313802969640463, 42.408618602815203 ], [ 117.313796893339727, 42.408618619447701 ], [ 117.31379693822727, 42.408627625336237 ], [ 117.313790861925668, 42.408627641968415 ], [ 117.313790884369013, 42.408632144912694 ], [ 117.313778731764899, 42.408632178176092 ], [ 117.313778776649883, 42.408641184064635 ], [ 117.313766624044021, 42.408641217326746 ], [ 117.313766668927272, 42.408650223215275 ], [ 117.313760592623481, 42.408650239845862 ], [ 117.313760637505894, 42.408659245734377 ], [ 117.313754561201208, 42.408659262364651 ], [ 117.31375458364198, 42.408663765308901 ], [ 117.313760659947093, 42.408663748678634 ], [ 117.31376068238832, 42.408668251622892 ], [ 117.313766758693873, 42.408668234992298 ], [ 117.313766803577195, 42.408677240880792 ], [ 117.313778956190006, 42.408677207618638 ], [ 117.313778978632556, 42.408681710562874 ] ] ] } },
{ "type": "Feature", "properties": { "crown_id": 4838, "tree_id": "4840", "top_h_m": 18.069, "H_95_Mean": 18.0298, "DBH": 25.1202, "Carbon_kg": 111.95687, "area_m2": 12.5 }, "geometry": { "type": "Polygon", "coordinates": [ [ [ 117.313833530715257, 42.408654543201877 ], [ 117.313839607019446, 42.408654526567418 ], [ 117.313839562125764, 42.408645520678959 ], [ 117.313845638429044, 42.408645504044202 ], [ 117.313845615981791, 42.408641001099966 ], [ 117.313851692284643, 42.408640984464874 ], [ 117.31385166983695, 42.408636481520645 ], [ 117.313857746139362, 42.408636464885241 ], [ 117.313857633898735, 42.408613950164018 ], [ 117.313863710198987, 42.408613933528301 ], [ 117.313863687750441, 42.408609430584058 ], [ 117.313845458850977, 42.408609480490206 ], [ 117.313845481298216, 42.408613983434471 ], [ 117.313815099796855, 42.408614066604983 ], [ 117.31381512224192, 42.408618569549247 ], [ 117.313809045941184, 42.408618586182378 ], [ 117.313809090830489, 42.408627592070928 ], [ 117.313815167132063, 42.408627575437784 ], [ 117.31381518957717, 42.408632078382041 ], [ 117.313821265879184, 42.408632061748577 ], [ 117.313821310770237, 42.408641067637078 ], [ 117.313827387073147, 42.408641051003279 ], [ 117.313827431965095, 42.408650056891766 ], [ 117.313833508268843, 42.408650040257633 ], [ 117.313833530715257, 42.408654543201877 ] ] ] } },
{ "type": "Feature", "properties": { "crown_id": 4845, "tree_id": "4847", "top_h_m": 23.498, "H_95_Mean": 23.3355, "DBH": 33.675, "Carbon_kg": 235.423833, "area_m2": 24.25 }, "geometry": { "type": "Polygon", "coordinates": [ [ [ 117.313730255982406, 42.408659328882479 ], [ 117.313736332287121, 42.408659312253505 ], [ 117.313736309847641, 42.408654809309219 ], [ 117.313754538760435, 42.408654759420379 ], [ 117.313754493878918, 42.408645753531857 ], [ 117.313760570182268, 42.40864573690159 ], [ 117.313760525299884, 42.40863673101304 ], [ 117.313772677904907, 42.408636697751568 ], [ 117.31377263302079, 42.408627691863018 ], [ 117.313784785624065, 42.408627658600274 ], [ 117.313784763181147, 42.408623155656002 ], [ 117.313790839482323, 42.408623139024151 ], [ 117.313790817038978, 42.408618636079879 ], [ 117.313784740738242, 42.408618652711716 ], [ 117.313784718295324, 42.40861414976743 ], [ 117.313778641995015, 42.408614166398969 ], [ 117.313778619552551, 42.408609663454669 ], [ 117.313766466952771, 42.408609696716759 ], [ 117.313766444511174, 42.408605193772459 ], [ 117.313760368211703, 42.40860521040301 ], [ 117.313760300888291, 42.408591701570096 ], [ 117.313742071993786, 42.408591751459795 ], [ 117.313742049553952, 42.408587248515474 ], [ 117.313735973256215, 42.408587265144739 ], [ 117.313736063013806, 42.40860527692201 ], [ 117.313729986714335, 42.408605293550963 ], [ 117.313730054031282, 42.408618802383877 ], [ 117.31372397773049, 42.40861881901251 ], [ 117.313724067484756, 42.40863683078971 ], [ 117.313717991182202, 42.40863684741803 ], [ 117.313718036058503, 42.408645853306624 ], [ 117.313724112361925, 42.408645836678289 ], [ 117.313724134800509, 42.408650339622575 ], [ 117.313730211104357, 42.408650322993928 ], [ 117.313730255982406, 42.408659328882479 ] ] ] } },
{ "type": "Feature", "properties": { "crown_id": 4875, "tree_id": "4877", "top_h_m": 22.817, "H_95_Mean": 22.4574, "DBH": 39.7462, "Carbon_kg": 321.432077, "area_m2": 49.5 }, "geometry": { "type": "Polygon", "coordinates": [ [ [ 117.313639021681198, 42.408641566501188 ], [ 117.313657250590325, 42.408641516627824 ], [ 117.313657228156515, 42.408637013683489 ], [ 117.313675457064292, 42.408636963807233 ], [ 117.313675434629189, 42.408632460862918 ], [ 117.313717968744072, 42.408632344473737 ], [ 117.313717878991554, 42.408614332696509 ], [ 117.313723955291934, 42.408614316068203 ], [ 117.31372388797628, 42.408600807235246 ], [ 117.313729964275339, 42.408600790606634 ], [ 117.31372987451951, 42.408582778829334 ], [ 117.313723798222171, 42.408582795457946 ], [ 117.313723753345158, 42.408573789569267 ], [ 117.313717677048714, 42.408573806197559 ], [ 117.313717654610642, 42.408569303253202 ], [ 117.313705502018578, 42.408569336508798 ], [ 117.313705457144181, 42.408560330620077 ], [ 117.313699380849002, 42.408560347247388 ], [ 117.313699448159284, 42.408573856080459 ], [ 117.313675142973366, 42.408573922586505 ], [ 117.313675210278461, 42.408587431419576 ], [ 117.313663057682859, 42.408587464670681 ], [ 117.313663080117038, 42.408591967615038 ], [ 117.31365700381879, 42.408591984240104 ], [ 117.313657026252542, 42.408596487184461 ], [ 117.31364487365515, 42.40859652043364 ], [ 117.313644896088036, 42.408601023377997 ], [ 117.313626667190647, 42.408601073249365 ], [ 117.313626689622239, 42.408605576193722 ], [ 117.313614537023071, 42.408605609439697 ], [ 117.313614559453782, 42.408610112384054 ], [ 117.313602406853732, 42.408610145628749 ], [ 117.313602429283591, 42.408614648573113 ], [ 117.313614581884508, 42.408614615328418 ], [ 117.313614649176728, 42.408628124161481 ], [ 117.313626801780245, 42.408628090915478 ], [ 117.313626846643473, 42.408637096804156 ], [ 117.313638999248724, 42.40863706355686 ], [ 117.313639021681198, 42.408641566501188 ] ] ] } },
{ "type": "Feature", "properties": { "crown_id": 4926, "tree_id": "4928", "top_h_m": 21.757, "H_95_Mean": 21.6468, "DBH": 28.3428, "Carbon_kg": 159.098332, "area_m2": 14.25 }, "geometry": { "type": "Polygon", "coordinates": [ [ [ 117.313790794595633, 42.408614133135586 ], [ 117.313809023496546, 42.40861408323812 ], [ 117.313809001051908, 42.408609580293842 ], [ 117.313815077351776, 42.408609563660711 ], [ 117.313814965126497, 42.408587048939296 ], [ 117.313808888828831, 42.408587065572412 ], [ 117.313808843939626, 42.408578059683819 ], [ 117.313802767642798, 42.408578076316601 ], [ 117.313802722754488, 42.408569070427987 ], [ 117.313790570162567, 42.408569103692599 ], [ 117.313790592605869, 42.408573606636921 ], [ 117.313772363716637, 42.408573656531431 ], [ 117.313772453484617, 42.408591668308688 ], [ 117.31376637718644, 42.408591684939537 ], [ 117.313766422069591, 42.408600690828159 ], [ 117.313772498368635, 42.408600674197281 ], [ 117.313772520810645, 42.408605177141595 ], [ 117.313784673409543, 42.408605143878866 ], [ 117.313784695852448, 42.408609646823166 ], [ 117.313790772152316, 42.408609630191314 ], [ 117.313790794595633, 42.408614133135586 ] ] ] } },
{ "type": "Feature", "properties": { "crown_id": 4954, "tree_id": "4956", "top_h_m": 21.97, "H_95_Mean": 21.8514, "DBH": 28.0753, "Carbon_kg": 156.957324, "area_m2": 13.5 }, "geometry": { "type": "Polygon", "coordinates": [ [ [ 117.313614514592345, 42.408601106495333 ], [ 117.313620590891489, 42.408601089872505 ], [ 117.313620568460351, 42.408596586928141 ], [ 117.313638797356475, 42.40859653705774 ], [ 117.313638774924016, 42.40859203411339 ], [ 117.313650927520541, 42.40859200086485 ], [ 117.313650905087229, 42.4085874979205 ], [ 117.313656981385037, 42.408587481295754 ], [ 117.313656958951313, 42.408582978351383 ], [ 117.313669111546062, 42.408582945100932 ], [ 117.313669089111471, 42.408578442156575 ], [ 117.313663012814516, 42.408578458781946 ], [ 117.313662990380365, 42.408573955837589 ], [ 117.313656914083836, 42.408573972462655 ], [ 117.313656891650112, 42.408569469518284 ], [ 117.313638662761861, 42.408569519391527 ], [ 117.313638640329458, 42.408565016447128 ], [ 117.313626487738134, 42.408565049694346 ], [ 117.313626465306598, 42.408560546749953 ], [ 117.313608236420876, 42.408560596618351 ], [ 117.31360837100236, 42.408587614284713 ], [ 117.313614447300225, 42.408587597662219 ], [ 117.313614514592345, 42.408601106495333 ] ] ] } },
{ "type": "Feature", "properties": { "crown_id": 4955, "tree_id": "4957", "top_h_m": 22.941, "H_95_Mean": 22.5548, "DBH": 33.1397, "Carbon_kg": 223.400374, "area_m2": 24.25 }, "geometry": { "type": "Polygon", "coordinates": [ [ [ 117.313821153651631, 42.408609547027254 ], [ 117.313839382551151, 42.408609497124949 ], [ 117.313839360104353, 42.408604994180692 ], [ 117.313851512703138, 42.408604960910885 ], [ 117.313851490255473, 42.408600457966614 ], [ 117.313863642853363, 42.408600424695535 ], [ 117.313863463265264, 42.408564401141327 ], [ 117.313857386969815, 42.408564417777022 ], [ 117.313857364521738, 42.408559914832722 ], [ 117.313851288226687, 42.408559931468083 ], [ 117.313851265779078, 42.408555428523776 ], [ 117.313845189484468, 42.408555445158825 ], [ 117.3138451670373, 42.408550942214518 ], [ 117.31383909074313, 42.408550958849219 ], [ 117.313839068296375, 42.408546455904904 ], [ 117.313826915708859, 42.408546489173361 ], [ 117.313826938154747, 42.408550992117668 ], [ 117.313802632977911, 42.408551058650708 ], [ 117.313802677866207, 42.408560064539358 ], [ 117.313796601571113, 42.408560081171821 ], [ 117.313796624014813, 42.408564584116142 ], [ 117.313808776605853, 42.40856455085089 ], [ 117.313808821495016, 42.408573556739512 ], [ 117.313814897791403, 42.408573540106396 ], [ 117.313814942681475, 42.408582545994996 ], [ 117.3138210189787, 42.408582529361553 ], [ 117.313821153651631, 42.408609547027254 ] ] ] } },
{ "type": "Feature", "properties": { "crown_id": 4993, "tree_id": "4996", "top_h_m": 22.772, "H_95_Mean": 22.5088, "DBH": 37.8444, "Carbon_kg": 291.580605, "area_m2": 40.75 }, "geometry": { "type": "Polygon", "coordinates": [ [ [ 117.3136629679462, 42.408569452893218 ], [ 117.313693349426501, 42.4085693697631 ], [ 117.313693304553837, 42.408560363874372 ], [ 117.313687228258672, 42.408560380501029 ], [ 117.313687205822788, 42.408555877556665 ], [ 117.313705434706989, 42.408555827675713 ], [ 117.313705367395485, 42.408542318842606 ], [ 117.313699291102054, 42.40854233546991 ], [ 117.313699268665317, 42.408537832525525 ], [ 117.313693192372313, 42.408537849152502 ], [ 117.313693147499748, 42.408528843263724 ], [ 117.31368707120761, 42.408528859890367 ], [ 117.313687026335913, 42.40851985400159 ], [ 117.313668797462086, 42.408519903879565 ], [ 117.313668775027551, 42.408515400935151 ], [ 117.313650546154989, 42.408515450810235 ], [ 117.313650523721748, 42.408510947865807 ], [ 117.313644447431315, 42.408510964490183 ], [ 117.313644424998529, 42.408506461545763 ], [ 117.31362619612851, 42.408506511416967 ], [ 117.313626218559975, 42.408511014361402 ], [ 117.313601913398131, 42.408511080851838 ], [ 117.31360200311714, 42.408529092629593 ], [ 117.313608079409363, 42.408529076007447 ], [ 117.313608124269763, 42.408538081896303 ], [ 117.313602047976687, 42.408538098518441 ], [ 117.313602070406461, 42.408542601462855 ], [ 117.313608146699977, 42.40854258484071 ], [ 117.313608191560405, 42.408551590729537 ], [ 117.313614267854788, 42.408551574107058 ], [ 117.313614290285457, 42.408556077051479 ], [ 117.313632519169843, 42.408556027182122 ], [ 117.31363254160182, 42.408560530126508 ], [ 117.313644694192277, 42.408560496878657 ], [ 117.313644716625106, 42.408564999823049 ], [ 117.31366294551205, 42.40856494994884 ], [ 117.3136629679462, 42.408569452893218 ] ] ] } },
{ "type": "Feature", "properties": { "crown_id": 4994, "tree_id": "4997", "top_h_m": 22.913, "H_95_Mean": 22.5347, "DBH": 38.3351, "Carbon_kg": 299.454366, "area_m2": 42.75 }, "geometry": { "type": "Polygon", "coordinates": [ [ [ 117.313748125851689, 42.40858723188591 ], [ 117.313766354744885, 42.408587181995237 ], [ 117.313766264978668, 42.408569170217952 ], [ 117.313784493866621, 42.408569120324429 ], [ 117.313784471423759, 42.408564617380094 ], [ 117.313790547719279, 42.408564600748278 ], [ 117.313790502832745, 42.408555594859642 ], [ 117.313796579127413, 42.408555578227492 ], [ 117.313796556683712, 42.408551075283171 ], [ 117.313790480389486, 42.408551091915299 ], [ 117.313790457946212, 42.408546588970971 ], [ 117.313778305358625, 42.408546622234262 ], [ 117.313778215589124, 42.408528610456877 ], [ 117.313772139297058, 42.408528627088032 ], [ 117.313772094413196, 42.408519621199304 ], [ 117.313766018121996, 42.408519637830139 ], [ 117.313765950797574, 42.408506128997033 ], [ 117.313759874507667, 42.408506145627513 ], [ 117.313759852066639, 42.408501642683127 ], [ 117.313741623198197, 42.408501692572692 ], [ 117.313741645637933, 42.408506195517077 ], [ 117.313735569348012, 42.408506212146285 ], [ 117.313735591787307, 42.408510715090678 ], [ 117.313717362916194, 42.408510764976377 ], [ 117.313717430230213, 42.40852427380954 ], [ 117.31371135393853, 42.408524290437477 ], [ 117.313711376376133, 42.408528793381848 ], [ 117.313699223791872, 42.408528826636761 ], [ 117.313699246228595, 42.40853332958114 ], [ 117.313705322521145, 42.408533312953857 ], [ 117.313705344958308, 42.408537815898235 ], [ 117.313711421251313, 42.408537799270626 ], [ 117.313711555876992, 42.408564816936803 ], [ 117.313723708468174, 42.408564783680575 ], [ 117.313723730906645, 42.408569286624925 ], [ 117.313729807202691, 42.408569269996327 ], [ 117.31372985208057, 42.408578275885006 ], [ 117.313748080971195, 42.408578225997253 ], [ 117.313748125851689, 42.40858723188591 ] ] ] } },
{ "type": "Feature", "properties": { "crown_id": 5045, "tree_id": "5048", "top_h_m": 25.873, "H_95_Mean": 25.6578, "DBH": 36.7859, "Carbon_kg": 297.551343, "area_m2": 28.75 }, "geometry": { "type": "Polygon", "coordinates": [ [ [ 117.313796534240012, 42.40854657233885 ], [ 117.313820839415115, 42.408546505807102 ], [ 117.313820816969695, 42.408542002862781 ], [ 117.313826893263027, 42.408541986229032 ], [ 117.313826848371306, 42.408532980340382 ], [ 117.313839000956193, 42.408532947071954 ], [ 117.313838978509494, 42.408528444127619 ], [ 117.313832902217484, 42.408528460762007 ], [ 117.313832812432409, 42.408510448984643 ], [ 117.313838888722685, 42.408510432350283 ], [ 117.313838821382646, 42.408496923517241 ], [ 117.313820592515711, 42.408496973419339 ], [ 117.313820547624971, 42.408487967530618 ], [ 117.313814471336855, 42.408487984164005 ], [ 117.313814448891932, 42.408483481219633 ], [ 117.313802296316553, 42.408483514485425 ], [ 117.313802318760608, 42.408488017429811 ], [ 117.313778013608029, 42.408488083957543 ], [ 117.313777991165722, 42.408483581013158 ], [ 117.313771914878004, 42.408483597644285 ], [ 117.313772071971286, 42.40851511825494 ], [ 117.313778148262045, 42.408515101623799 ], [ 117.313778193146746, 42.408524107512527 ], [ 117.313784269438386, 42.408524090881045 ], [ 117.313784359209606, 42.408542102658451 ], [ 117.313796511796312, 42.4085420693945 ], [ 117.313796534240012, 42.40854657233885 ] ] ] } }
]
}
