{
"type": "FeatureCollection",
"name": "tile_8_19",
"crs": { "type": "name", "properties": { "name": "urn:ogc:def:crs:OGC:1.3:CRS84" } },
"features": [
{ "type": "Feature", "properties": { "crown_id": 2337, "tree_id": "2337", "top_h_m": 20.463, "H_95_Mean": 20.1787, "DBH": 28.2458, "Carbon_kg": 151.574094, "area_m2": 16.0 }, "geometry": { "type": "Polygon", "coordinates": [ [ [ 117.314521455419879, 42.410129643562286 ], [ 117.314527531866034, 42.410129626890914 ], [ 117.314527486871597, 42.410120621005369 ], [ 117.314533563316886, 42.41012060433367 ], [ 117.314533540819241, 42.410116101390905 ], [ 117.314539617264074, 42.410116084718886 ], [ 117.314539572267961, 42.410107078833335 ], [ 117.314533495823994, 42.410107095505339 ], [ 117.314533450828733, 42.410098089619765 ], [ 117.314539527271833, 42.410098072947761 ], [ 117.314539504773791, 42.410093570004975 ], [ 117.314533428331117, 42.410093586676986 ], [ 117.314533383335913, 42.410084580791377 ], [ 117.314515154010465, 42.410084630805429 ], [ 117.314515199003083, 42.410093636691045 ], [ 117.314496969675019, 42.410093686702204 ], [ 117.314496992170007, 42.410098189645005 ], [ 117.31448483928375, 42.410098222984175 ], [ 117.314484861777885, 42.41010272592699 ], [ 117.314478785334302, 42.410102742596095 ], [ 117.314478852815455, 42.410116251424512 ], [ 117.314484929260345, 42.410116234755392 ], [ 117.314484951754508, 42.410120737698193 ], [ 117.314497104645142, 42.410120704358995 ], [ 117.314497127140186, 42.410125207301782 ], [ 117.314521432923101, 42.410125140619513 ], [ 117.314521455419879, 42.410129643562286 ] ] ] } },
{ "type": "Feature", "properties": { "crown_id": 2365, "tree_id": "2365", "top_h_m": 20.062, "H_95_Mean": 19.9483, "DBH": 29.561, "Carbon_kg": 165.0106, "area_m2": 19.5 }, "geometry": { "type": "Polygon", "coordinates": [ [ [ 117.314393782586521, 42.410116484758262 ], [ 117.314412011921377, 42.410116434763502 ], [ 117.314411989432443, 42.410111931820666 ], [ 117.314418065876936, 42.410111915155106 ], [ 117.314418088366338, 42.410116418097921 ], [ 117.314436317701123, 42.410116368099288 ], [ 117.31443627271976, 42.410107362213637 ], [ 117.314418043387576, 42.410107412212255 ], [ 117.314417953430137, 42.410089400440896 ], [ 117.314411876987791, 42.410089417106448 ], [ 117.314411832009966, 42.410080411220747 ], [ 117.314405755568515, 42.410080427885973 ], [ 117.314405710591586, 42.410071422000243 ], [ 117.314369251947866, 42.410071521984811 ], [ 117.314369229462017, 42.410067019041939 ], [ 117.314363153021816, 42.410067035704898 ], [ 117.314363175507239, 42.410071538647792 ], [ 117.314357099066569, 42.410071555310424 ], [ 117.314357121551566, 42.41007605825331 ], [ 117.314351045110485, 42.410076074915651 ], [ 117.314351067595041, 42.41008057785853 ], [ 117.314357144036563, 42.410080561196196 ], [ 117.314357211491583, 42.410094070024826 ], [ 117.3143693643772, 42.410094036699192 ], [ 117.314369386863063, 42.410098539642043 ], [ 117.314381539749547, 42.410098506315116 ], [ 117.314381562236292, 42.410103009257973 ], [ 117.31438763867996, 42.41010299259402 ], [ 117.31438766116716, 42.41010749553687 ], [ 117.314393737611269, 42.410107478872582 ], [ 117.314393782586521, 42.410116484758262 ] ] ] } },
{ "type": "Feature", "properties": { "crown_id": 2366, "tree_id": "2366", "top_h_m": 21.301, "H_95_Mean": 21.2819, "DBH": 28.8502, "Carbon_kg": 163.241364, "area_m2": 15.75 }, "geometry": { "type": "Polygon", "coordinates": [ [ [ 117.314545626213416, 42.410102559218217 ], [ 117.314594237761483, 42.410102425828015 ], [ 117.314594125251702, 42.410079911114181 ], [ 117.314600201692997, 42.410079894438965 ], [ 117.31460017919062, 42.410075391496193 ], [ 117.314594102749751, 42.410075408171394 ], [ 117.314594057745879, 42.410066402285821 ], [ 117.314551522665695, 42.41006651900323 ], [ 117.314551567663472, 42.410075524888839 ], [ 117.31454549122256, 42.410075541561469 ], [ 117.314545626213416, 42.410102559218217 ] ] ] } },
{ "type": "Feature", "properties": { "crown_id": 2394, "tree_id": "2394", "top_h_m": 23.357, "H_95_Mean": 23.1635, "DBH": 32.3367, "Carbon_kg": 215.999868, "area_m2": 21.0 }, "geometry": { "type": "Polygon", "coordinates": [ [ [ 117.314424097341842, 42.41010289260354 ], [ 117.314448403116316, 42.410102825936789 ], [ 117.314448380624782, 42.410098322993967 ], [ 117.314466609954295, 42.410098272990517 ], [ 117.314466542475799, 42.410084764162043 ], [ 117.314460466033935, 42.410084780830175 ], [ 117.314460376064446, 42.410066769058815 ], [ 117.314466452504547, 42.410066752390698 ], [ 117.314466430011763, 42.410062249447847 ], [ 117.314460353572073, 42.410062266115965 ], [ 117.314460308587343, 42.410053260230256 ], [ 117.314448155709712, 42.410053293565511 ], [ 117.314448133218235, 42.410048790622632 ], [ 117.314442056779839, 42.410048807289783 ], [ 117.314442034288788, 42.410044304346904 ], [ 117.314429881412863, 42.410044337680219 ], [ 117.314429903903019, 42.410048840623091 ], [ 117.314423827464594, 42.410048857289276 ], [ 117.314423849954352, 42.410053360232148 ], [ 117.314417773515501, 42.410053376898006 ], [ 117.314417818494135, 42.410062382783757 ], [ 117.314411742054389, 42.410062399449288 ], [ 117.314411809521076, 42.410075908277896 ], [ 117.314417885962101, 42.410075891612344 ], [ 117.314417930940792, 42.410084897498052 ], [ 117.314424007382669, 42.41008488083218 ], [ 117.314424097341842, 42.41010289260354 ] ] ] } },
{ "type": "Feature", "properties": { "crown_id": 2398, "tree_id": "2398", "top_h_m": 22.052, "H_95_Mean": 21.9408, "DBH": 29.8506, "Carbon_kg": 178.032854, "area_m2": 17.0 }, "geometry": { "type": "MultiPolygon", "coordinates": [ [ [ [ 117.314478762840594, 42.410098239653273 ], [ 117.3144787403469, 42.410093736710465 ], [ 117.314490893232318, 42.410093703371949 ], [ 117.314490870737728, 42.410089200429127 ], [ 117.314509100064527, 42.410089150418933 ], [ 117.314509055072804, 42.410080144533318 ], [ 117.314533360838297, 42.410080077848576 ], [ 117.314533315843121, 42.410071071962953 ], [ 117.314521162962123, 42.410071105305953 ], [ 117.314521140465402, 42.410066602363145 ], [ 117.314515064025329, 42.410066619034161 ], [ 117.314515041529063, 42.410062116091332 ], [ 117.314508965089416, 42.410062132762029 ], [ 117.314508920097751, 42.410053126876363 ], [ 117.314466385026179, 42.410053243562146 ], [ 117.31446640751895, 42.410057746504997 ], [ 117.314472483958198, 42.410057729836559 ], [ 117.314472551437902, 42.41007123866509 ], [ 117.314466474997346, 42.410071255333534 ], [ 117.314466519982986, 42.410080261219214 ], [ 117.31447259642438, 42.410080244550763 ], [ 117.314472686397437, 42.410098256322058 ], [ 117.314478762840594, 42.410098239653273 ] ] ], [ [ [ 117.314472731384001, 42.410107262207688 ], [ 117.314472708890705, 42.410102759264873 ], [ 117.314460556003539, 42.410102792601478 ], [ 117.31446057849594, 42.410107295544293 ], [ 117.314472731384001, 42.410107262207688 ] ] ] ] } },
{ "type": "Feature", "properties": { "crown_id": 2460, "tree_id": "2460", "top_h_m": 22.083, "H_95_Mean": 21.8624, "DBH": 28.9777, "Carbon_kg": 167.341131, "area_m2": 15.25 }, "geometry": { "type": "Polygon", "coordinates": [ [ [ 117.314375305902217, 42.410067002378646 ], [ 117.314399611662949, 42.410066935722277 ], [ 117.314399589174926, 42.410062432779405 ], [ 117.314405665614672, 42.410062416114499 ], [ 117.314405643126221, 42.410057913171627 ], [ 117.314411719565527, 42.410057896506423 ], [ 117.314411674587774, 42.410048890620651 ], [ 117.314417751026198, 42.410048873955127 ], [ 117.314417728536881, 42.410044371012241 ], [ 117.314423804974865, 42.410044354346397 ], [ 117.314423782485136, 42.410039851403504 ], [ 117.314411629610021, 42.410039884734879 ], [ 117.314411607121187, 42.410035381791985 ], [ 117.314417683558318, 42.410035365126461 ], [ 117.314417661069015, 42.410030862183582 ], [ 117.314411584632325, 42.410030878849099 ], [ 117.314411562143491, 42.410026375906206 ], [ 117.314393332834712, 42.410026425900824 ], [ 117.314393355322252, 42.410030928843724 ], [ 117.314375126012123, 42.410030978835451 ], [ 117.314375148498371, 42.410035481778365 ], [ 117.314362995624052, 42.410035515104582 ], [ 117.314363063080208, 42.410049023933304 ], [ 117.314369139518675, 42.410049007270352 ], [ 117.314369206976181, 42.410062516099046 ], [ 117.314375283415927, 42.410062499435767 ], [ 117.314375305902217, 42.410067002378646 ] ] ] } },
{ "type": "Feature", "properties": { "crown_id": 2468, "tree_id": "2468", "top_h_m": 22.575, "H_95_Mean": 22.3681, "DBH": 30.1235, "Carbon_kg": 183.408962, "area_m2": 17.0 }, "geometry": { "type": "Polygon", "coordinates": [ [ [ 117.314527216905475, 42.410066585691808 ], [ 117.314533293345519, 42.410066569020138 ], [ 117.31453327084796, 42.410062066077323 ], [ 117.314551500166814, 42.410062016060422 ], [ 117.314551275178275, 42.410016986632108 ], [ 117.314545198743005, 42.410017003304716 ], [ 117.314545176244593, 42.410012500361859 ], [ 117.314539099809764, 42.410012517034133 ], [ 117.314539122307707, 42.410017019976983 ], [ 117.314533045872437, 42.410017036648945 ], [ 117.314533068369954, 42.410021539591803 ], [ 117.314508762627057, 42.410021606276409 ], [ 117.314508807618651, 42.410030612162117 ], [ 117.31450273118206, 42.410030628832473 ], [ 117.314502821163572, 42.410048640603868 ], [ 117.314514974040264, 42.410048607262837 ], [ 117.314515019032797, 42.410057613148503 ], [ 117.314521095471974, 42.410057596477486 ], [ 117.314521117968681, 42.410062099420323 ], [ 117.314527194408313, 42.410062082748986 ], [ 117.314527216905475, 42.410066585691808 ] ] ] } },
{ "type": "Feature", "properties": { "crown_id": 2481, "tree_id": "2481", "top_h_m": 24.372, "H_95_Mean": 24.3837, "DBH": 31.7221, "Carbon_kg": 214.211959, "area_m2": 17.75 }, "geometry": { "type": "Polygon", "coordinates": [ [ [ 117.314454209656631, 42.410048773955175 ], [ 117.314496744725218, 42.410048657273911 ], [ 117.31449663225051, 42.410026142559651 ], [ 117.314502708686689, 42.410026125889623 ], [ 117.314502686191332, 42.410021622946758 ], [ 117.314496609755579, 42.410021639616765 ], [ 117.314496564765747, 42.410012633731043 ], [ 117.314484411895975, 42.41001266707012 ], [ 117.314484366907919, 42.410003661184341 ], [ 117.3144782904739, 42.410003677853382 ], [ 117.314478267980306, 42.409999174910503 ], [ 117.314472191546699, 42.409999191579217 ], [ 117.314472214039853, 42.410003694522125 ], [ 117.314466137605834, 42.410003711190512 ], [ 117.314466160098576, 42.410008214133413 ], [ 117.314460083664088, 42.410008230801502 ], [ 117.314460106156417, 42.410012733744381 ], [ 117.314454029721503, 42.410012750412157 ], [ 117.314454052213364, 42.410017253355043 ], [ 117.314447975778023, 42.410017270022486 ], [ 117.314448110726744, 42.410044287679767 ], [ 117.314454187164714, 42.41004427101231 ], [ 117.314454209656631, 42.410048773955175 ] ] ] } },
{ "type": "Feature", "properties": { "crown_id": 2492, "tree_id": "2492", "top_h_m": 23.792, "H_95_Mean": 23.4661, "DBH": 33.9415, "Carbon_kg": 239.984888, "area_m2": 24.75 }, "geometry": { "type": "Polygon", "coordinates": [ [ [ 117.314362973138671, 42.41003101216166 ], [ 117.31436904957539, 42.410030995498722 ], [ 117.314369027089597, 42.410026492555801 ], [ 117.314387256398433, 42.410026442565055 ], [ 117.314387233911319, 42.410021939622133 ], [ 117.314411539654657, 42.410021872963299 ], [ 117.314411517165823, 42.410017370020384 ], [ 117.314405440730425, 42.410017386685581 ], [ 117.314405395753639, 42.410008380799766 ], [ 117.314399319319108, 42.410008397464622 ], [ 117.314399229367353, 42.409990385692907 ], [ 117.314393152934556, 42.409990402357444 ], [ 117.314393085472091, 42.409976893528622 ], [ 117.314387009040587, 42.409976910192825 ], [ 117.314386986553558, 42.409972407249874 ], [ 117.314368757260354, 42.409972457240528 ], [ 117.31436880223184, 42.409981463126442 ], [ 117.314344496504035, 42.409981529776175 ], [ 117.314344518988037, 42.409986032719132 ], [ 117.314338442555638, 42.409986049380763 ], [ 117.314338554973617, 42.410008564095534 ], [ 117.314350707842749, 42.410008530771918 ], [ 117.314350797780705, 42.410026542543669 ], [ 117.31436295065329, 42.410026509218746 ], [ 117.314362973138671, 42.41003101216166 ] ] ] } },
{ "type": "Feature", "properties": { "crown_id": 2516, "tree_id": "2516", "top_h_m": 23.772, "H_95_Mean": 23.549, "DBH": 34.9332, "Carbon_kg": 254.857937, "area_m2": 27.5 }, "geometry": { "type": "Polygon", "coordinates": [ [ [ 117.314423759995407, 42.410035348460632 ], [ 117.314441989306729, 42.41003529846116 ], [ 117.314441944324685, 42.410026292575395 ], [ 117.314435867888449, 42.410026309242198 ], [ 117.314435845397881, 42.410021806299305 ], [ 117.314441921833662, 42.410021789632502 ], [ 117.31444187685166, 42.410012783746716 ], [ 117.314447953286574, 42.410012767079593 ], [ 117.31444793079514, 42.4100082641367 ], [ 117.314454007229614, 42.410008247469264 ], [ 117.314453984737767, 42.41000374452635 ], [ 117.3144600611718, 42.410003727858594 ], [ 117.314460038679528, 42.409999224915708 ], [ 117.314466115113106, 42.409999208247619 ], [ 117.314466092620378, 42.409994705304719 ], [ 117.314472169053559, 42.409994688636317 ], [ 117.314472079080986, 42.409976676864702 ], [ 117.314466002649567, 42.409976693533096 ], [ 117.314465957664183, 42.409967687647253 ], [ 117.314429499080745, 42.409967787650778 ], [ 117.31442952157083, 42.409972290593728 ], [ 117.314411292277725, 42.409972340591146 ], [ 117.314411314766517, 42.409976843534089 ], [ 117.314399161903566, 42.409976876864093 ], [ 117.314399206879401, 42.409985882749979 ], [ 117.314405283311771, 42.409985866085123 ], [ 117.314405373265259, 42.410003877856838 ], [ 117.314411449699335, 42.410003861191662 ], [ 117.314411494676975, 42.410012867077484 ], [ 117.314417571111917, 42.410012850411967 ], [ 117.314417638579727, 42.410026359240682 ], [ 117.314423715015977, 42.410026342574852 ], [ 117.314423759995407, 42.410035348460632 ] ] ] } },
{ "type": "Feature", "properties": { "crown_id": 2517, "tree_id": "2517", "top_h_m": 23.777, "H_95_Mean": 23.5199, "DBH": 32.059, "Carbon_kg": 214.203299, "area_m2": 19.75 }, "geometry": { "type": "Polygon", "coordinates": [ [ [ 117.31450266369599, 42.410017120003886 ], [ 117.314526969437154, 42.410017053320573 ], [ 117.314526946940077, 42.410012550377722 ], [ 117.314533023374906, 42.410012533706087 ], [ 117.314532910887394, 42.409990018991756 ], [ 117.314538987320063, 42.409990002319816 ], [ 117.314538942324191, 42.409980996434058 ], [ 117.314526789460601, 42.409981029777605 ], [ 117.314526744466519, 42.409972023891825 ], [ 117.314490285880765, 42.409972123914699 ], [ 117.314490263386361, 42.409967620971784 ], [ 117.314472034094734, 42.409967670978858 ], [ 117.314472056587846, 42.409972173921787 ], [ 117.314478133018838, 42.40997215725308 ], [ 117.314478245486711, 42.409994671967603 ], [ 117.314484321919863, 42.409994655298561 ], [ 117.31448434441387, 42.409999158241448 ], [ 117.314490420847463, 42.409999141572087 ], [ 117.3144904658364, 42.410008147457866 ], [ 117.314502618705276, 42.410008114118142 ], [ 117.31450266369599, 42.410017120003886 ] ] ] } },
{ "type": "Feature", "properties": { "crown_id": 2522, "tree_id": "2522", "top_h_m": 24.314, "H_95_Mean": 24.2182, "DBH": 32.5027, "Carbon_kg": 224.06441, "area_m2": 19.75 }, "geometry": { "type": "Polygon", "coordinates": [ [ [ 117.314557351613516, 42.410016969959194 ], [ 117.314563428048771, 42.410016953285961 ], [ 117.31456340554908, 42.41001245034311 ], [ 117.314593787723112, 42.410012366972083 ], [ 117.314593652712006, 42.409985349315029 ], [ 117.314599729144192, 42.40998533263987 ], [ 117.314599706641928, 42.409980829697012 ], [ 117.314593630210169, 42.409980846372179 ], [ 117.314593607708346, 42.409976343429314 ], [ 117.314587531277027, 42.409976360104146 ], [ 117.314587508775645, 42.409971857161274 ], [ 117.314581432344752, 42.409971873835786 ], [ 117.314581409843811, 42.409967370892915 ], [ 117.314563180552412, 42.409967420914484 ], [ 117.314563158052763, 42.409962917971598 ], [ 117.314557081622738, 42.40996293464481 ], [ 117.314557104121931, 42.409967437587689 ], [ 117.314551027691451, 42.409967454260581 ], [ 117.314551095187781, 42.409980963089232 ], [ 117.314545018755993, 42.409980979761805 ], [ 117.314545086251087, 42.409994488590428 ], [ 117.314539009817977, 42.409994505262688 ], [ 117.314539077311821, 42.410008014091282 ], [ 117.314551230180626, 42.410007980746421 ], [ 117.314551252679436, 42.410012483689265 ], [ 117.314557329114265, 42.410012467016351 ], [ 117.314557351613516, 42.410016969959194 ] ] ] } },
{ "type": "Feature", "properties": { "crown_id": 2589, "tree_id": "2589", "top_h_m": 23.099, "H_95_Mean": 22.9702, "DBH": 32.5019, "Carbon_kg": 217.150737, "area_m2": 21.75 }, "geometry": { "type": "Polygon", "coordinates": [ [ [ 117.314532843394929, 42.409976510163112 ], [ 117.314544996257638, 42.409976476818926 ], [ 117.314544928762629, 42.409962967990268 ], [ 117.314551005192683, 42.409962951317702 ], [ 117.314550915197643, 42.409944939546108 ], [ 117.314544838769351, 42.409944956218673 ], [ 117.314544816271024, 42.409940453275766 ], [ 117.31453873984313, 42.40994046994799 ], [ 117.314538717345272, 42.409935967005069 ], [ 117.314532640917804, 42.409935983676974 ], [ 117.314532573425552, 42.409922474848216 ], [ 117.314526496999392, 42.409922491519787 ], [ 117.314526474502415, 42.409917988576851 ], [ 117.314520398076681, 42.409918005248109 ], [ 117.314520420573231, 42.409922508191045 ], [ 117.314514344147057, 42.409922524861976 ], [ 117.314514366643195, 42.409927027804905 ], [ 117.31450829021658, 42.409927044475531 ], [ 117.314508312712263, 42.409931547418459 ], [ 117.314502236285207, 42.409931564088744 ], [ 117.314502258780465, 42.40993606703168 ], [ 117.314490105925501, 42.409936100371304 ], [ 117.314490128419877, 42.409940603314261 ], [ 117.314484051991968, 42.40994061998358 ], [ 117.314484164461831, 42.409963134698216 ], [ 117.314496317322025, 42.409963101359196 ], [ 117.314496339816898, 42.409967604302118 ], [ 117.314532798399966, 42.409967504277333 ], [ 117.314532843394929, 42.409976510163112 ] ] ] } },
{ "type": "Feature", "properties": { "crown_id": 2593, "tree_id": "2593", "top_h_m": 23.061, "H_95_Mean": 23.1353, "DBH": 27.5179, "Carbon_kg": 155.917266, "area_m2": 11.25 }, "geometry": { "type": "Polygon", "coordinates": [ [ [ 117.314393062984593, 42.409972390585679 ], [ 117.314405215846705, 42.409972357256308 ], [ 117.314405193358354, 42.409967854313351 ], [ 117.314423422650165, 42.409967804316906 ], [ 117.314423265222757, 42.409936283716235 ], [ 117.314417188795204, 42.409936300382014 ], [ 117.314417098838547, 42.409918288610115 ], [ 117.314411022412727, 42.409918305275568 ], [ 117.314411044901462, 42.409922808218568 ], [ 117.314404968475202, 42.409922824883694 ], [ 117.314404990963482, 42.409927327826679 ], [ 117.314398914536781, 42.409927344491493 ], [ 117.314398982000398, 42.409940853320428 ], [ 117.314392905572376, 42.409940869984936 ], [ 117.314393062984593, 42.409972390585679 ] ] ] } },
{ "type": "Feature", "properties": { "crown_id": 2611, "tree_id": "2611", "top_h_m": 25.395, "H_95_Mean": 25.0342, "DBH": 35.258, "Carbon_kg": 269.221007, "area_m2": 25.5 }, "geometry": { "type": "Polygon", "coordinates": [ [ [ 117.314429476590661, 42.409963284707828 ], [ 117.31447808803172, 42.409963151367236 ], [ 117.314477840602962, 42.409913618994892 ], [ 117.314471764177625, 42.409913635663564 ], [ 117.314471719191502, 42.409904629777643 ], [ 117.314435260644629, 42.409904729782888 ], [ 117.314435328115977, 42.409918238611816 ], [ 117.314423175264352, 42.409918271944328 ], [ 117.314423242733156, 42.409931780773256 ], [ 117.314429319160254, 42.409931764107156 ], [ 117.314429476590661, 42.409963284707828 ] ] ] } },
{ "type": "Feature", "properties": { "crown_id": 2620, "tree_id": "2620", "top_h_m": 24.58, "H_95_Mean": 24.4002, "DBH": 34.9241, "Carbon_kg": 260.130318, "area_m2": 25.75 }, "geometry": { "type": "Polygon", "coordinates": [ [ [ 117.31435055045155, 42.409977010171261 ], [ 117.314362703314586, 42.409976976846401 ], [ 117.314362658343981, 42.409967970960473 ], [ 117.314356581913316, 42.409967987623055 ], [ 117.314356559428447, 42.409963484680077 ], [ 117.314380865149289, 42.409963418027814 ], [ 117.314380887635892, 42.409967920970779 ], [ 117.3143869640665, 42.40996790430691 ], [ 117.314386806657367, 42.409936383706125 ], [ 117.314392883084949, 42.409936367041951 ], [ 117.314392815622654, 42.409922858212994 ], [ 117.314398892048914, 42.409922841548507 ], [ 117.314398847073221, 42.409913835662522 ], [ 117.314380617797013, 42.409913885655016 ], [ 117.314380595310467, 42.409909382712016 ], [ 117.31436236603551, 42.409909432701603 ], [ 117.314362321065062, 42.409900426815568 ], [ 117.314331938944377, 42.40990051012507 ], [ 117.314331983910478, 42.409909516011133 ], [ 117.314338060335487, 42.409909499349872 ], [ 117.314338105302497, 42.4099185052359 ], [ 117.314344181728373, 42.409918488574313 ], [ 117.314344294148142, 42.409941003289354 ], [ 117.314350370576179, 42.409940986627426 ], [ 117.31435055045155, 42.409977010171261 ] ] ] } }
]
}
