{
"type": "FeatureCollection",
"name": "tile_19_11",
"crs": { "type": "name", "properties": { "name": "urn:ogc:def:crs:OGC:1.3:CRS84" } },
"features": [
{ "type": "Feature", "properties": { "crown_id": 5697, "tree_id": "5700", "top_h_m": 23.476, "H_95_Mean": 23.2102, "DBH": 38.5161, "Carbon_kg": 307.638344, "area_m2": 41.25 }, "geometry": { "type": "Polygon", "coordinates": [ [ [ 117.312482110247444, 42.408158401181623 ], [ 117.312512491532814, 42.408158318365075 ], [ 117.312512469181272, 42.408153815419887 ], [ 117.312518545437896, 42.408153798855622 ], [ 117.312518500733916, 42.408144792965231 ], [ 117.312500271966655, 42.408144842657059 ], [ 117.312500227265332, 42.408135836766633 ], [ 117.312494151010441, 42.408135853329931 ], [ 117.312493972208841, 42.408099829768091 ], [ 117.312487895957418, 42.408099846331041 ], [ 117.312487873607679, 42.408095343385789 ], [ 117.312481797356682, 42.408095359948419 ], [ 117.312481730308775, 42.408081851112641 ], [ 117.312475654059085, 42.40808186767493 ], [ 117.312475676407942, 42.408086370620197 ], [ 117.312433142656843, 42.408086486547269 ], [ 117.312433120311027, 42.408081983601981 ], [ 117.312408815312025, 42.408082049838931 ], [ 117.312408837656108, 42.408086552784226 ], [ 117.31240276140592, 42.408086569342657 ], [ 117.312402806093232, 42.408095575233247 ], [ 117.312408882344272, 42.408095558674809 ], [ 117.312408904688382, 42.40810006162009 ], [ 117.312414980939863, 42.408100045061325 ], [ 117.3124150032844, 42.408104548006598 ], [ 117.312421079536321, 42.408104531447513 ], [ 117.312421124226262, 42.408113537338046 ], [ 117.312427200479078, 42.408113520778635 ], [ 117.312427222824482, 42.408118023723894 ], [ 117.312433299077696, 42.408118007164148 ], [ 117.312433343769428, 42.40812701305466 ], [ 117.312439420023495, 42.408126996494588 ], [ 117.312439442369794, 42.40813149943984 ], [ 117.312445518624301, 42.408131482879448 ], [ 117.312445540971055, 42.408135985824678 ], [ 117.312451617226003, 42.408135969263967 ], [ 117.312451639573169, 42.408140472209197 ], [ 117.312457715828543, 42.408140455648166 ], [ 117.312457738176164, 42.408144958593375 ], [ 117.312463814431965, 42.408144942032017 ], [ 117.312463836780012, 42.408149444977241 ], [ 117.312475989292466, 42.408149411853529 ], [ 117.312476011641408, 42.408153914798746 ], [ 117.312482087898061, 42.408153898236407 ], [ 117.312482110247444, 42.408158401181623 ] ] ] } },
{ "type": "Feature", "properties": { "crown_id": 5721, "tree_id": "5724", "top_h_m": 19.265, "H_95_Mean": 18.8615, "DBH": 37.0111, "Carbon_kg": 251.107444, "area_m2": 51.75 }, "geometry": { "type": "Polygon", "coordinates": [ [ [ 117.312524599342083, 42.408149279345835 ], [ 117.312530675598268, 42.408149262780924 ], [ 117.312530653245432, 42.408144759835736 ], [ 117.312536729501161, 42.408144743270505 ], [ 117.312536707147899, 42.408140240325309 ], [ 117.312561012169056, 42.408140174061181 ], [ 117.312560967459063, 42.408131168170804 ], [ 117.312554891204655, 42.408131184737314 ], [ 117.312554824140975, 42.408117675901714 ], [ 117.312560900394089, 42.408117659335204 ], [ 117.31256085568414, 42.408108653444799 ], [ 117.312566931936388, 42.408108636877976 ], [ 117.31256690958098, 42.408104133932767 ], [ 117.312572985832787, 42.408104117365632 ], [ 117.312572851697865, 42.40807709969431 ], [ 117.312566775448701, 42.408077116261445 ], [ 117.312566730737956, 42.408068110370969 ], [ 117.312572806986282, 42.408068093803855 ], [ 117.312572762274712, 42.408059087913358 ], [ 117.31256060977978, 42.408059121047273 ], [ 117.312560587424883, 42.408054618102021 ], [ 117.312548434930832, 42.408054651234636 ], [ 117.312548412576803, 42.408050148289377 ], [ 117.312530183836955, 42.408050197985865 ], [ 117.312530206189692, 42.408054700931139 ], [ 117.312524129942645, 42.408054717496 ], [ 117.312524152294941, 42.408059220441253 ], [ 117.312518076047454, 42.408059237005801 ], [ 117.312518120751221, 42.408068242896327 ], [ 117.312499892006088, 42.408068292588034 ], [ 117.312499914356692, 42.408072795533286 ], [ 117.312493838107855, 42.408072812096563 ], [ 117.312493882808155, 42.408081817987082 ], [ 117.31248780655848, 42.408081834550011 ], [ 117.312487851257941, 42.408090840440529 ], [ 117.312493927508484, 42.408090823877586 ], [ 117.312493949858677, 42.408095326822838 ], [ 117.312500026109646, 42.408095310259569 ], [ 117.312500204914684, 42.408131333821416 ], [ 117.312506281169135, 42.408131317257812 ], [ 117.312506325871325, 42.408140323148231 ], [ 117.312524554637278, 42.408140273455444 ], [ 117.312524599342083, 42.408149279345835 ] ] ] } },
{ "type": "Feature", "properties": { "crown_id": 5799, "tree_id": "5803", "top_h_m": 22.372, "H_95_Mean": 21.8313, "DBH": 38.2132, "Carbon_kg": 292.009609, "area_m2": 44.75 }, "geometry": { "type": "Polygon", "coordinates": [ [ [ 117.312439196560774, 42.408081967041944 ], [ 117.312469577809381, 42.4080818842369 ], [ 117.31246955546095, 42.408077381291641 ], [ 117.312487784208756, 42.408077331604744 ], [ 117.312487739509336, 42.408068325714211 ], [ 117.312493815757719, 42.408068309151275 ], [ 117.312493793407569, 42.408063806205995 ], [ 117.312512022151409, 42.408063756515283 ], [ 117.312511977448537, 42.40805475062475 ], [ 117.312499824954372, 42.408054783752206 ], [ 117.312499802603824, 42.408050280806926 ], [ 117.31248765011054, 42.408050313933089 ], [ 117.312487627760859, 42.408045810987801 ], [ 117.312481551514637, 42.408045827550403 ], [ 117.312481484466915, 42.408032318714511 ], [ 117.312469331977056, 42.408032351838706 ], [ 117.312469287280337, 42.408023345948095 ], [ 117.312463211036288, 42.408023362509724 ], [ 117.312463188688369, 42.4080188595644 ], [ 117.312432807470145, 42.40801894236764 ], [ 117.312432829815904, 42.408023445312985 ], [ 117.312426753571799, 42.408023461872659 ], [ 117.312426775917103, 42.408027964817983 ], [ 117.3124206996726, 42.408027981377359 ], [ 117.312420677327694, 42.408023478432021 ], [ 117.312408524839498, 42.408023511549786 ], [ 117.31240863655961, 42.408046026276452 ], [ 117.312396484067023, 42.408046059392944 ], [ 117.312396528753368, 42.408055065283605 ], [ 117.312402605000514, 42.408055048725515 ], [ 117.312402627344142, 42.408059551670824 ], [ 117.312396551096526, 42.408059568228929 ], [ 117.312396573439727, 42.408064071174245 ], [ 117.312390497191672, 42.408064087732008 ], [ 117.312390519534432, 42.408068590677331 ], [ 117.312396595782914, 42.408068574119554 ], [ 117.312396618126115, 42.408073077064877 ], [ 117.312408770623904, 42.408073043948342 ], [ 117.312408792967972, 42.408077546893637 ], [ 117.312439174214532, 42.408077464096657 ], [ 117.312439196560774, 42.408081967041944 ] ] ] } },
{ "type": "Feature", "properties": { "crown_id": 5861, "tree_id": "5865", "top_h_m": 21.58, "H_95_Mean": 21.3319, "DBH": 33.105, "Carbon_kg": 215.69892, "area_m2": 26.75 }, "geometry": { "type": "Polygon", "coordinates": [ [ [ 117.312505878850473, 42.40805026424335 ], [ 117.312524107590335, 42.408050214550727 ], [ 117.312524062885757, 42.40804120866018 ], [ 117.312517986640003, 42.408041225224707 ], [ 117.312517897232652, 42.408023213443556 ], [ 117.312523973476672, 42.408023196879043 ], [ 117.312523884067645, 42.408005185097842 ], [ 117.312517807825373, 42.408005201662348 ], [ 117.31251778547356, 42.408000698717032 ], [ 117.312511709231728, 42.408000715281219 ], [ 117.312511686880356, 42.407996212335895 ], [ 117.312505610638937, 42.407996228899755 ], [ 117.312505565937073, 42.407987223009101 ], [ 117.312499489696535, 42.407987239572627 ], [ 117.312499444995566, 42.407978233681966 ], [ 117.312475140036767, 42.407978299932843 ], [ 117.312475184734268, 42.407987305823532 ], [ 117.312469108493673, 42.407987322385459 ], [ 117.31246913084199, 42.407991825330789 ], [ 117.312463054600968, 42.407991841892404 ], [ 117.312463099296735, 42.408000847783086 ], [ 117.312457023054847, 42.408000864344359 ], [ 117.31245706774979, 42.408009870235034 ], [ 117.312463143992545, 42.408009853673747 ], [ 117.312463166340464, 42.40801435661907 ], [ 117.312469242583646, 42.408014340057449 ], [ 117.312469264931977, 42.408018843002779 ], [ 117.312475341175599, 42.408018826440838 ], [ 117.312475385873185, 42.408027832331463 ], [ 117.312487538362149, 42.408027799206614 ], [ 117.312487605411178, 42.408041308042513 ], [ 117.31249368165696, 42.408041291479591 ], [ 117.312493704007068, 42.408045794424879 ], [ 117.31250585649947, 42.408045761298077 ], [ 117.312505878850473, 42.40805026424335 ] ] ] } },
{ "type": "Feature", "properties": { "crown_id": 5873, "tree_id": "5877", "top_h_m": 20.786, "H_95_Mean": 20.3081, "DBH": 39.7389, "Carbon_kg": 302.752292, "area_m2": 59.5 }, "geometry": { "type": "Polygon", "coordinates": [ [ [ 117.312566663671916, 42.408054601535234 ], [ 117.31257273991892, 42.40805458496812 ], [ 117.312572717563157, 42.408050082022861 ], [ 117.312584870056298, 42.408050048887688 ], [ 117.31258484769964, 42.408045545942443 ], [ 117.312597000191928, 42.408045512805977 ], [ 117.312596977834403, 42.408041009860732 ], [ 117.312609130325782, 42.40804097672298 ], [ 117.31260906325069, 42.408027467887237 ], [ 117.312615139495065, 42.408027451317885 ], [ 117.312615117136275, 42.40802294837264 ], [ 117.312621193380238, 42.408022931802968 ], [ 117.312621126302588, 42.408009422967197 ], [ 117.312615050059961, 42.408009439536869 ], [ 117.312615027701199, 42.408004936591595 ], [ 117.312621103943385, 42.408004920021931 ], [ 117.312621014506647, 42.407986908240836 ], [ 117.312608862025726, 42.407986941379818 ], [ 117.312608817309112, 42.407977935489235 ], [ 117.312602741069512, 42.407977952058246 ], [ 117.312602718711659, 42.407973449112951 ], [ 117.312572337515746, 42.407973531953111 ], [ 117.312572359871439, 42.407978034898406 ], [ 117.312517673714623, 42.407978183990423 ], [ 117.312517651362825, 42.407973681045092 ], [ 117.31251157512358, 42.407973697609258 ], [ 117.31251155277225, 42.407969194663913 ], [ 117.312505476533431, 42.407969211227758 ], [ 117.31250554358617, 42.407982720063771 ], [ 117.312511619826282, 42.407982703499911 ], [ 117.312511664528998, 42.407991709390572 ], [ 117.312517740769977, 42.4079916928264 ], [ 117.312517763121761, 42.407996195771716 ], [ 117.312523839363166, 42.407996179207217 ], [ 117.312523861715391, 42.408000682152526 ], [ 117.312529937957237, 42.408000665587714 ], [ 117.312530072073386, 42.408027683259483 ], [ 117.312523995828926, 42.408027699824324 ], [ 117.312524040533489, 42.408036705714906 ], [ 117.312530116778802, 42.408036689150052 ], [ 117.312530161484247, 42.408045695040606 ], [ 117.312554466468924, 42.40804562877797 ], [ 117.312554488823395, 42.408050131723229 ], [ 117.312566641316565, 42.408050098589975 ], [ 117.312566663671916, 42.408054601535234 ] ] ] } },
{ "type": "Feature", "properties": { "crown_id": 5895, "tree_id": "5899", "top_h_m": 20.823, "H_95_Mean": 20.5714, "DBH": 32.7734, "Carbon_kg": 206.876559, "area_m2": 27.5 }, "geometry": { "type": "Polygon", "coordinates": [ [ [ 117.312408480151475, 42.408014505659089 ], [ 117.312420632637952, 42.408014472541339 ], [ 117.312420587948239, 42.40800546665065 ], [ 117.312450969159997, 42.408005383850657 ], [ 117.312450924465921, 42.407996377959982 ], [ 117.312457000707411, 42.407996361399022 ], [ 117.312456978359933, 42.407991858453677 ], [ 117.312450902118911, 42.407991875014631 ], [ 117.312450857424892, 42.40798286912392 ], [ 117.312444781184738, 42.407982885684554 ], [ 117.312444758838154, 42.407978382739195 ], [ 117.312450835077911, 42.407978366178568 ], [ 117.312450812730901, 42.407973863233209 ], [ 117.312456888970189, 42.407973846672256 ], [ 117.312456866622782, 42.407969343726904 ], [ 117.312444714145059, 42.407969376848463 ], [ 117.312444691798504, 42.407964873903097 ], [ 117.312438615560083, 42.40796489046339 ], [ 117.31243857086784, 42.40795588457263 ], [ 117.312426418392718, 42.407955917692249 ], [ 117.312426463083199, 42.407964923583016 ], [ 117.312408234367837, 42.407964973260043 ], [ 117.312408256711763, 42.40796947620543 ], [ 117.312377875517228, 42.407969558994047 ], [ 117.312378009567965, 42.407996576666356 ], [ 117.312384085809498, 42.407996560109261 ], [ 117.312384130493982, 42.408005566000014 ], [ 117.312402359221124, 42.408005516326774 ], [ 117.312402381564695, 42.408010019272133 ], [ 117.312408457807493, 42.408010002713745 ], [ 117.312408480151475, 42.408014505659089 ] ] ] } }
]
}
