{
"type": "FeatureCollection",
"name": "tile_4_24",
"crs": { "type": "name", "properties": { "name": "urn:ogc:def:crs:OGC:1.3:CRS84" } },
"features": [
{ "type": "Feature", "properties": { "crown_id": 919, "tree_id": "919", "top_h_m": 19.648, "H_95_Mean": 19.6209, "DBH": 38.2201, "Carbon_kg": 274.24246, "area_m2": 54.5 }, "geometry": { "type": "MultiPolygon", "coordinates": [ [ [ [ 117.315795182169722, 42.410873640604407 ], [ 117.31580733520417, 42.410873607125836 ], [ 117.315807244846823, 42.410855595359294 ], [ 117.315813321362299, 42.41085557861954 ], [ 117.315813276182766, 42.410846572736254 ], [ 117.315807199668171, 42.410846589476002 ], [ 117.315807154489562, 42.410837583592702 ], [ 117.31581323100329, 42.410837566852955 ], [ 117.315813253593021, 42.410842069794604 ], [ 117.315819330107189, 42.41084205305453 ], [ 117.315819307517003, 42.41083755011288 ], [ 117.315825384030745, 42.410837533372494 ], [ 117.315825406621357, 42.410842036314136 ], [ 117.315837559649651, 42.410842002832389 ], [ 117.315837424100849, 42.410814985182476 ], [ 117.315831347589295, 42.410815001923496 ], [ 117.315831324998271, 42.410810498981839 ], [ 117.315837401509384, 42.410810482240819 ], [ 117.315837333735075, 42.410796973415799 ], [ 117.315825180715464, 42.410797006897518 ], [ 117.315825203306034, 42.410801509839196 ], [ 117.315819126795773, 42.410801526579569 ], [ 117.315819104205644, 42.410797023637883 ], [ 117.315813027695825, 42.410797040377929 ], [ 117.315813005106151, 42.410792537436251 ], [ 117.315806928596743, 42.410792554175956 ], [ 117.315806906007495, 42.410788051234263 ], [ 117.315782599971641, 42.410788118189927 ], [ 117.315782577384127, 42.410783615248207 ], [ 117.315776500875572, 42.41078363198632 ], [ 117.315776523462659, 42.410788134928033 ], [ 117.315764370444697, 42.410788168403279 ], [ 117.315764393030918, 42.410792671344986 ], [ 117.315758316521467, 42.410792688082132 ], [ 117.315758361693028, 42.410801693965553 ], [ 117.315752285182739, 42.410801710702387 ], [ 117.315752307768079, 42.410806213644086 ], [ 117.31574623125735, 42.410806230380594 ], [ 117.315746253842264, 42.4108107333223 ], [ 117.315734100819896, 42.410810766794363 ], [ 117.315734145988031, 42.410819772677762 ], [ 117.315740222500082, 42.410819755941901 ], [ 117.315740245084598, 42.410824258883594 ], [ 117.315746321597089, 42.410824242147392 ], [ 117.315746344182017, 42.410828745089084 ], [ 117.315740267669099, 42.410828761825279 ], [ 117.315740312838145, 42.410837767708671 ], [ 117.315746389351929, 42.410837750972462 ], [ 117.3157464119369, 42.41084225391414 ], [ 117.315740335422674, 42.410842270650342 ], [ 117.315740358007204, 42.410846773592013 ], [ 117.315746434521856, 42.410846756855818 ], [ 117.315746457106826, 42.410851259797482 ], [ 117.315752533621918, 42.410851243060947 ], [ 117.315752556207343, 42.410855746002625 ], [ 117.315758632722861, 42.410855729265769 ], [ 117.315758655308713, 42.410860232207426 ], [ 117.315776884856547, 42.410860181994906 ], [ 117.315776907443691, 42.410864684936556 ], [ 117.315789060476433, 42.410864651459931 ], [ 117.315789083064459, 42.41086915440156 ], [ 117.315795159581242, 42.410869137662758 ], [ 117.315795182169722, 42.410873640604407 ] ] ], [ [ [ 117.315825406621357, 42.410842036314136 ], [ 117.315819330107189, 42.41084205305453 ], [ 117.315819352697375, 42.410846555996166 ], [ 117.315825429211969, 42.410846539255779 ], [ 117.315825406621357, 42.410842036314136 ] ] ] ] } },
{ "type": "Feature", "properties": { "crown_id": 920, "tree_id": "920", "top_h_m": 19.654, "H_95_Mean": 19.6955, "DBH": 30.2206, "Carbon_kg": 171.219094, "area_m2": 21.75 }, "geometry": { "type": "Polygon", "coordinates": [ [ [ 117.316001648132897, 42.410846053644164 ], [ 117.316007724647321, 42.410846036894114 ], [ 117.316007702043677, 42.410841533952549 ], [ 117.316025931585642, 42.410841483700452 ], [ 117.316025908980677, 42.410836980758887 ], [ 117.316031985494249, 42.410836964007558 ], [ 117.316031962888843, 42.410832461065979 ], [ 117.316044115915076, 42.410832427562333 ], [ 117.316043935065224, 42.41079640402976 ], [ 117.3160074760074, 42.410796504536705 ], [ 117.316007453403785, 42.410792001595105 ], [ 117.316001376894576, 42.410792018345141 ], [ 117.316001399497736, 42.410796521286734 ], [ 117.315995322988073, 42.410796538036443 ], [ 117.315995345590821, 42.410801040978058 ], [ 117.315989269080703, 42.410801057727447 ], [ 117.315989314285332, 42.410810063610654 ], [ 117.315983237774347, 42.410810080359724 ], [ 117.315983282978124, 42.410819086242917 ], [ 117.315977206466272, 42.410819102991667 ], [ 117.315977251669196, 42.410828108874853 ], [ 117.316001557720028, 42.410828041877878 ], [ 117.316001580323231, 42.410832544819449 ], [ 117.315995503810115, 42.41083256156918 ], [ 117.315995526412891, 42.410837064510758 ], [ 117.316001602926448, 42.410837047761035 ], [ 117.316001648132897, 42.410846053644164 ] ] ] } },
{ "type": "Feature", "properties": { "crown_id": 969, "tree_id": "969", "top_h_m": 22.211, "H_95_Mean": 21.7668, "DBH": 37.713, "Carbon_kg": 283.859752, "area_m2": 42.75 }, "geometry": { "type": "MultiPolygon", "coordinates": [ [ [ [ 117.315636831486003, 42.410802028640909 ], [ 117.315642907996406, 42.410802011910199 ], [ 117.31564284026382, 42.410788503084923 ], [ 117.315648916772929, 42.410788486353894 ], [ 117.315648939350865, 42.410792989295651 ], [ 117.315655015860386, 42.410792972564309 ], [ 117.31565499328201, 42.410788469622553 ], [ 117.315667146300171, 42.410788436158896 ], [ 117.315667123720928, 42.410783933217139 ], [ 117.315661047212274, 42.410783949949121 ], [ 117.315661024633471, 42.410779447007357 ], [ 117.315667101141656, 42.410779430275369 ], [ 117.315667078562441, 42.410774927333613 ], [ 117.31567923157796, 42.410774893868691 ], [ 117.315679186417768, 42.410765887985164 ], [ 117.315673109910875, 42.410765904717778 ], [ 117.315673064751564, 42.410756898834229 ], [ 117.31567914125759, 42.410756882101609 ], [ 117.315679118677508, 42.410752379159838 ], [ 117.315673042171909, 42.410752395892459 ], [ 117.315672997012641, 42.410743390008875 ], [ 117.315666920507908, 42.410743406741162 ], [ 117.315666875349507, 42.410734400857571 ], [ 117.315654722341776, 42.410734434321178 ], [ 117.315654677185151, 42.410725428437551 ], [ 117.315636447676127, 42.410725478630511 ], [ 117.315636470253125, 42.410729981572324 ], [ 117.3156303937497, 42.410729998302664 ], [ 117.315630416326272, 42.410734501244484 ], [ 117.315612186814576, 42.410734551433592 ], [ 117.315612209389869, 42.410739054375412 ], [ 117.31560613288552, 42.410739071104473 ], [ 117.315606178035225, 42.410748076988099 ], [ 117.315600101530009, 42.410748093716855 ], [ 117.315600124104435, 42.410752596658675 ], [ 117.315587971093123, 42.410752630115198 ], [ 117.315587993666696, 42.410757133057011 ], [ 117.315594070172764, 42.410757116328909 ], [ 117.315594092746764, 42.410761619270708 ], [ 117.315588016240255, 42.410761635998824 ], [ 117.315588083960989, 42.410775144824228 ], [ 117.315575930945286, 42.410775178279508 ], [ 117.315575976090742, 42.410784184163106 ], [ 117.315582052599467, 42.410784167435629 ], [ 117.315582030026306, 42.410779664493838 ], [ 117.315594183042847, 42.410779631037919 ], [ 117.315594205616875, 42.410784133979718 ], [ 117.31560635863427, 42.410784100522513 ], [ 117.315606403784074, 42.410793106406068 ], [ 117.315618556803173, 42.410793072947563 ], [ 117.315618579378977, 42.410797575889326 ], [ 117.315636808908891, 42.410797525699152 ], [ 117.315636831486003, 42.410802028640909 ] ] ], [ [ [ 117.315667101141656, 42.410779430275369 ], [ 117.315667123720928, 42.410783933217139 ], [ 117.315673200229554, 42.410783916484831 ], [ 117.31567317764987, 42.410779413543068 ], [ 117.315667101141656, 42.410779430275369 ] ] ] ] } },
{ "type": "Feature", "properties": { "crown_id": 970, "tree_id": "970", "top_h_m": 22.905, "H_95_Mean": 21.9085, "DBH": 30.6969, "Carbon_kg": 188.18834, "area_m2": 19.0 }, "geometry": { "type": "Polygon", "coordinates": [ [ [ 117.315964917839125, 42.410792118838536 ], [ 117.315977070857642, 42.410792085342024 ], [ 117.315977048256215, 42.410787582400403 ], [ 117.315983124765012, 42.410787565651674 ], [ 117.315983147366879, 42.410792068593281 ], [ 117.315995300385339, 42.410792035094836 ], [ 117.315995187371769, 42.410769520386744 ], [ 117.316001263878832, 42.410769503637049 ], [ 117.316001173466333, 42.410751491870521 ], [ 117.315995096961018, 42.410751508620194 ], [ 117.315995074358341, 42.410747005678559 ], [ 117.315976844843661, 42.410747055925661 ], [ 117.315976822242291, 42.410742552983997 ], [ 117.315970745737815, 42.410742569732392 ], [ 117.315970768338758, 42.410747072674049 ], [ 117.315964691833841, 42.410747089422117 ], [ 117.315964714434358, 42.410751592363781 ], [ 117.315958637929015, 42.410751609111536 ], [ 117.315958660529077, 42.410756112053186 ], [ 117.315952584023307, 42.410756128800607 ], [ 117.315952606622943, 42.410760631742271 ], [ 117.31594045361048, 42.410760665236161 ], [ 117.315940476209263, 42.410765168177825 ], [ 117.315946552715928, 42.410765151431043 ], [ 117.315946665712104, 42.410787666139257 ], [ 117.315964895238594, 42.410787615896915 ], [ 117.315964917839125, 42.410792118838536 ] ] ] } },
{ "type": "Feature", "properties": { "crown_id": 971, "tree_id": "971", "top_h_m": 21.803, "H_95_Mean": 21.5596, "DBH": 29.2623, "Carbon_kg": 169.268048, "area_m2": 16.25 }, "geometry": { "type": "Polygon", "coordinates": [ [ [ 117.316013529913022, 42.410791984844757 ], [ 117.316043912459008, 42.410791901088174 ], [ 117.316043663791078, 42.410742368730482 ], [ 117.316019357773413, 42.410742435736267 ], [ 117.31601938037781, 42.410746938677903 ], [ 117.316007227368075, 42.410746972178863 ], [ 117.316007317782308, 42.410764983945413 ], [ 117.31601339428893, 42.410764967195085 ], [ 117.316013416892929, 42.4107694701367 ], [ 117.31600734038588, 42.410769486887034 ], [ 117.316007362989453, 42.410773989828662 ], [ 117.316001286481963, 42.410774006578677 ], [ 117.316001354291416, 42.41078751540352 ], [ 117.316013507308966, 42.410787481903149 ], [ 117.316013529913022, 42.410791984844757 ] ] ] } },
{ "type": "Feature", "properties": { "crown_id": 993, "tree_id": "993", "top_h_m": 21.891, "H_95_Mean": 21.319, "DBH": 35.4032, "Carbon_kg": 246.855017, "area_m2": 34.75 }, "geometry": { "type": "Polygon", "coordinates": [ [ [ 117.315812982516448, 42.410788034494551 ], [ 117.315831212043292, 42.410787984273462 ], [ 117.315831189452297, 42.410783481331777 ], [ 117.315837265960795, 42.410783464590772 ], [ 117.315837288552217, 42.41078796753245 ], [ 117.315843365061141, 42.410787950791125 ], [ 117.315843342469279, 42.410783447849447 ], [ 117.315849418977777, 42.410783431107795 ], [ 117.315849306016418, 42.410760916399354 ], [ 117.315843229510108, 42.410760933140985 ], [ 117.315843161734648, 42.410747424315865 ], [ 117.315837085229631, 42.410747441057168 ], [ 117.31583697227282, 42.41072492634855 ], [ 117.31581266626138, 42.410724993310502 ], [ 117.315812621082188, 42.410715987427018 ], [ 117.31580046807818, 42.410716020906044 ], [ 117.315800490666902, 42.410720523847793 ], [ 117.315794414164472, 42.41072054058683 ], [ 117.315794391576162, 42.410716037645074 ], [ 117.315788315074158, 42.410716054383784 ], [ 117.315788337662028, 42.41072055732554 ], [ 117.315782261159555, 42.410720574063937 ], [ 117.315782374096784, 42.410743088772684 ], [ 117.315770221087533, 42.410743122248526 ], [ 117.315770266260714, 42.410752128132017 ], [ 117.315776342766213, 42.410752111394252 ], [ 117.315776387940289, 42.410761117277715 ], [ 117.31578246444667, 42.410761100539617 ], [ 117.315782441859184, 42.410756597597889 ], [ 117.31578851836511, 42.410756580859484 ], [ 117.315788586128861, 42.410770089684654 ], [ 117.315794662636122, 42.410770072945908 ], [ 117.315794730401194, 42.410783581771028 ], [ 117.315812959926774, 42.410783531552852 ], [ 117.315812982516448, 42.410788034494551 ] ] ] } },
{ "type": "Feature", "properties": { "crown_id": 994, "tree_id": "994", "top_h_m": 22.504, "H_95_Mean": 22.1851, "DBH": 32.7064, "Carbon_kg": 215.436082, "area_m2": 23.75 }, "geometry": { "type": "Polygon", "coordinates": [ [ [ 117.315885923218374, 42.410792336534463 ], [ 117.315891999727683, 42.410792319790552 ], [ 117.315891977132367, 42.410787816848895 ], [ 117.315910206658998, 42.41078776661525 ], [ 117.315910184062361, 42.410783263673601 ], [ 117.315916260570773, 42.410783246928403 ], [ 117.315916283167851, 42.410787749870053 ], [ 117.315922359676705, 42.410787733124543 ], [ 117.315922337079215, 42.410783230182894 ], [ 117.315928413587642, 42.410783213437064 ], [ 117.315928368391781, 42.410774207553757 ], [ 117.315916215376674, 42.410774241045097 ], [ 117.315916192779611, 42.410769738103433 ], [ 117.315910116272462, 42.41076975484863 ], [ 117.315910093675882, 42.410765251906952 ], [ 117.315916170182561, 42.410765235161769 ], [ 117.31591612498849, 42.410756229278427 ], [ 117.315910048482664, 42.41075624602361 ], [ 117.315910025886069, 42.410751743081931 ], [ 117.315903949380669, 42.410751759826795 ], [ 117.315903858996052, 42.410733748060025 ], [ 117.315897782492399, 42.410733764804554 ], [ 117.315897714705301, 42.410720255979435 ], [ 117.315891638202942, 42.410720272723616 ], [ 117.315891615607697, 42.410715769781909 ], [ 117.315885539105764, 42.410715786525778 ], [ 117.315885652079913, 42.410738301234325 ], [ 117.315879575575792, 42.410738317977874 ], [ 117.315879620764633, 42.410747323861266 ], [ 117.315873544259645, 42.410747340604502 ], [ 117.315873589447619, 42.410756346487901 ], [ 117.315867512941765, 42.410756363230817 ], [ 117.315867535535304, 42.410760866172517 ], [ 117.315855382522713, 42.410760899657383 ], [ 117.315855405115414, 42.410765402599097 ], [ 117.315867558128872, 42.410765369114195 ], [ 117.315867603316036, 42.410774374997565 ], [ 117.315861526808433, 42.410774391740176 ], [ 117.315861504215292, 42.410769888798491 ], [ 117.315855427708115, 42.410769905540782 ], [ 117.315855472893517, 42.410778911424146 ], [ 117.315861549401589, 42.410778894681854 ], [ 117.315861571994716, 42.410783397623533 ], [ 117.315867648503186, 42.410783380880915 ], [ 117.315867671096782, 42.410787883822593 ], [ 117.315885900623485, 42.410787833592806 ], [ 117.315885923218374, 42.410792336534463 ] ] ] } },
{ "type": "Feature", "properties": { "crown_id": 1025, "tree_id": "1025", "top_h_m": 22.847, "H_95_Mean": 22.6188, "DBH": 32.9165, "Carbon_kg": 220.747822, "area_m2": 23.5 }, "geometry": { "type": "Polygon", "coordinates": [ [ [ 117.315849283424143, 42.410756413457641 ], [ 117.315861436435895, 42.410756379973414 ], [ 117.315861413842754, 42.410751877031728 ], [ 117.315867490348197, 42.410751860289125 ], [ 117.315867445161089, 42.410742854405719 ], [ 117.315873521665651, 42.410742837662802 ], [ 117.315873476477691, 42.410733831779403 ], [ 117.315879552981386, 42.410733815036167 ], [ 117.315879440009454, 42.410711300327591 ], [ 117.31588551651096, 42.410711283584043 ], [ 117.315885471321323, 42.410702277700601 ], [ 117.315891547821963, 42.410702260956747 ], [ 117.315891525226746, 42.410697758015026 ], [ 117.315885448726547, 42.410697774758873 ], [ 117.315885426131757, 42.410693271817131 ], [ 117.315879349631984, 42.410693288560665 ], [ 117.315879372226334, 42.4106977915024 ], [ 117.315861142725709, 42.410697841731064 ], [ 117.315861120132652, 42.410693338789315 ], [ 117.315842890633306, 42.410693389015059 ], [ 117.315842868041543, 42.410688886073309 ], [ 117.315836791542182, 42.410688902814577 ], [ 117.315836814133476, 42.410693405756348 ], [ 117.315830737633689, 42.410693422497296 ], [ 117.31583080540635, 42.410706931322558 ], [ 117.315824728905227, 42.410706948063201 ], [ 117.315824706314771, 42.410702445121444 ], [ 117.315818629814089, 42.410702461861753 ], [ 117.315818720174207, 42.410720473628764 ], [ 117.315843026183884, 42.410720406665533 ], [ 117.315843139142842, 42.410742921374158 ], [ 117.315849215647418, 42.410742904632528 ], [ 117.315849283424143, 42.410756413457641 ] ] ] } },
{ "type": "Feature", "properties": { "crown_id": 1041, "tree_id": "1041", "top_h_m": 22.787, "H_95_Mean": 22.5448, "DBH": 33.1327, "Carbon_kg": 223.246713, "area_m2": 24.25 }, "geometry": { "type": "MultiPolygon", "coordinates": [ [ [ [ 117.315709546369888, 42.410761301375473 ], [ 117.315727775889144, 42.410761251170854 ], [ 117.315727730722031, 42.410752245287348 ], [ 117.315752036744158, 42.410752178343373 ], [ 117.315752014158861, 42.410747675401623 ], [ 117.315764167169036, 42.410747641927699 ], [ 117.315764144582872, 42.410743138985964 ], [ 117.315758068078253, 42.410743155723075 ], [ 117.315758022906806, 42.41073414983957 ], [ 117.315764099410572, 42.410734133102459 ], [ 117.315764054238301, 42.410725127218925 ], [ 117.315745824729561, 42.410725177429292 ], [ 117.315745802144747, 42.410720674487507 ], [ 117.315733649139759, 42.410720707959463 ], [ 117.315733626555783, 42.410716205017678 ], [ 117.315715397049587, 42.410716255223193 ], [ 117.315715374466933, 42.410711752281387 ], [ 117.315697144961987, 42.410711802483981 ], [ 117.315697190124666, 42.410720808367586 ], [ 117.315691113622151, 42.410720825101144 ], [ 117.315691136203043, 42.410725328042936 ], [ 117.315685059700101, 42.410725344776182 ], [ 117.315685127441554, 42.410738853601558 ], [ 117.315691203945832, 42.410738836868305 ], [ 117.315691271688664, 42.410752345693638 ], [ 117.315709501205376, 42.410752295491946 ], [ 117.315709546369888, 42.410761301375473 ] ] ], [ [ [ 117.315764099410572, 42.410734133102459 ], [ 117.315764121996736, 42.410738636044215 ], [ 117.315776275005149, 42.410738602569019 ], [ 117.315776252418132, 42.410734099627263 ], [ 117.315764099410572, 42.410734133102459 ] ] ] ] } },
{ "type": "Feature", "properties": { "crown_id": 1042, "tree_id": "1042", "top_h_m": 25.35, "H_95_Mean": 24.9346, "DBH": 37.609, "Carbon_kg": 305.905592, "area_m2": 33.0 }, "geometry": { "type": "Polygon", "coordinates": [ [ [ 117.315922269286744, 42.41076972135793 ], [ 117.315934422300955, 42.410769687865958 ], [ 117.315934354505913, 42.410756179040966 ], [ 117.315940431011711, 42.410756162294518 ], [ 117.315940408412942, 42.410751659352847 ], [ 117.315952561423657, 42.410751625858957 ], [ 117.315952538824035, 42.410747122917293 ], [ 117.315958615328938, 42.410747106169865 ], [ 117.31595859272889, 42.410742603228208 ], [ 117.315964669233367, 42.410742586480467 ], [ 117.315964624032361, 42.410733580597139 ], [ 117.315970700535971, 42.410733563849071 ], [ 117.31597063273324, 42.410720055024051 ], [ 117.315964556230924, 42.410720071772104 ], [ 117.315964443228637, 42.410697557063664 ], [ 117.315958366728523, 42.410697573811383 ], [ 117.315958344128489, 42.410693070869669 ], [ 117.315934038129669, 42.410693137857308 ], [ 117.31593406072794, 42.410697640799029 ], [ 117.315897601726917, 42.410697741270845 ], [ 117.315897646918245, 42.410706747154286 ], [ 117.315891570417207, 42.410706763898467 ], [ 117.315891593012452, 42.410711266840188 ], [ 117.31589766951393, 42.410711250096014 ], [ 117.315897692109601, 42.410715753037721 ], [ 117.315903768611534, 42.41071573629322 ], [ 117.315903836399912, 42.410729245118326 ], [ 117.315909912903152, 42.410729228373491 ], [ 117.315910003289474, 42.410747240140246 ], [ 117.315916079794405, 42.41074722339507 ], [ 117.315916102391427, 42.410751726336763 ], [ 117.315922178896827, 42.410751709591274 ], [ 117.315922269286744, 42.41076972135793 ] ] ] } },
{ "type": "Feature", "properties": { "crown_id": 1043, "tree_id": "1043", "top_h_m": 21.578, "H_95_Mean": 21.5861, "DBH": 26.7841, "Carbon_kg": 141.720416, "area_m2": 11.5 }, "geometry": { "type": "Polygon", "coordinates": [ [ [ 117.315982898746768, 42.410742536235297 ], [ 117.31601328126898, 42.410742452486915 ], [ 117.316013190853113, 42.410724440720308 ], [ 117.316007114350427, 42.410724457470629 ], [ 117.316007091746911, 42.410719954528972 ], [ 117.316001015244652, 42.410719971278951 ], [ 117.316000947435427, 42.410706462453952 ], [ 117.31599487093446, 42.410706479203604 ], [ 117.315994825729206, 42.410697473320248 ], [ 117.315982672728992, 42.410697506818572 ], [ 117.315982717932513, 42.41070651270195 ], [ 117.315970564930524, 42.410706546199002 ], [ 117.315970610132311, 42.410715552082372 ], [ 117.315976686634173, 42.410715535333999 ], [ 117.315976799640936, 42.410738050042355 ], [ 117.315982876144957, 42.41073803329364 ], [ 117.315982898746768, 42.410742536235297 ] ] ] } },
{ "type": "Feature", "properties": { "crown_id": 1064, "tree_id": "1064", "top_h_m": 23.007, "H_95_Mean": 22.9391, "DBH": 34.1769, "Carbon_kg": 240.103881, "area_m2": 26.5 }, "geometry": { "type": "MultiPolygon", "coordinates": [ [ [ [ 117.315551489488072, 42.410748227535201 ], [ 117.315569719003847, 42.410748177355742 ], [ 117.315569696431595, 42.410743674413915 ], [ 117.315575772936398, 42.410743657686773 ], [ 117.315575795509076, 42.410748160628607 ], [ 117.315594025024794, 42.410748110445269 ], [ 117.315594002450794, 42.410743607503456 ], [ 117.315600078955583, 42.410743590775034 ], [ 117.31560003380676, 42.410734584891387 ], [ 117.315606110310682, 42.410734568162653 ], [ 117.315606087735816, 42.410730065220811 ], [ 117.315612164239297, 42.410730048491764 ], [ 117.315612141664019, 42.410725545549937 ], [ 117.315587835651854, 42.410725612464219 ], [ 117.315587767931277, 42.410712103638687 ], [ 117.315581691429529, 42.410712120366441 ], [ 117.315581668856439, 42.410707617424585 ], [ 117.315575592355117, 42.410707634152018 ], [ 117.315575547209846, 42.410698628268293 ], [ 117.315569470709391, 42.410698644995406 ], [ 117.315569448137197, 42.410694142053529 ], [ 117.315563371637168, 42.410694158780295 ], [ 117.315563349065414, 42.410689655838425 ], [ 117.315545119566593, 42.410689706016832 ], [ 117.315545142137026, 42.410694208958716 ], [ 117.315539065636983, 42.41069422568421 ], [ 117.315539133347045, 42.410707734509856 ], [ 117.315533056845695, 42.410707751235023 ], [ 117.315533169693737, 42.410730265944373 ], [ 117.315539246197275, 42.410730249219178 ], [ 117.315539291337402, 42.410739255102882 ], [ 117.315545367841807, 42.410739238377367 ], [ 117.315545390412325, 42.410743741319209 ], [ 117.315551466917157, 42.410743724593374 ], [ 117.315551489488072, 42.410748227535201 ] ] ], [ [ [ 117.315563349065414, 42.410689655838425 ], [ 117.315569425565002, 42.410689639111645 ], [ 117.315569380420641, 42.410680633227891 ], [ 117.31556330392192, 42.410680649954671 ], [ 117.315563349065414, 42.410689655838425 ] ] ] ] } },
{ "type": "Feature", "properties": { "crown_id": 1065, "tree_id": "1065", "top_h_m": 23.647, "H_95_Mean": 23.403, "DBH": 29.9228, "Carbon_kg": 185.860413, "area_m2": 15.25 }, "geometry": { "type": "Polygon", "coordinates": [ [ [ 117.316019335169003, 42.410737932794632 ], [ 117.316043641184947, 42.410737865788846 ], [ 117.316043369911597, 42.410683830489006 ], [ 117.316025140415292, 42.410683880743733 ], [ 117.316025163020086, 42.410688383685404 ], [ 117.316006933522431, 42.410688433937246 ], [ 117.316006978729405, 42.410697439820616 ], [ 117.316000902229305, 42.410697456570595 ], [ 117.316000924832366, 42.410701959512267 ], [ 117.316007001332906, 42.410701942762287 ], [ 117.316007069143396, 42.410715451587308 ], [ 117.316013145645229, 42.410715434837009 ], [ 117.316013168249171, 42.410719937778659 ], [ 117.316019244751431, 42.410719921028033 ], [ 117.316019335169003, 42.410737932794632 ] ] ] } },
{ "type": "Feature", "properties": { "crown_id": 1091, "tree_id": "1091", "top_h_m": 24.365, "H_95_Mean": 24.3498, "DBH": 33.5038, "Carbon_kg": 238.956162, "area_m2": 22.0 }, "geometry": { "type": "Polygon", "coordinates": [ [ [ 117.315618240742751, 42.410730031762384 ], [ 117.315624317246233, 42.410730015032691 ], [ 117.315624294670101, 42.41072551209087 ], [ 117.3156303711731, 42.41072549536085 ], [ 117.315630348596528, 42.410720992419023 ], [ 117.315636425099129, 42.41072097568869 ], [ 117.315636221906303, 42.410680449212151 ], [ 117.315617992410282, 42.410680499402119 ], [ 117.315617969834634, 42.410675996460263 ], [ 117.315599740339863, 42.410676046647332 ], [ 117.315599717765522, 42.410671543705455 ], [ 117.315587564769856, 42.410671577161892 ], [ 117.31558758734333, 42.410676080103762 ], [ 117.315581510845064, 42.410676096831502 ], [ 117.315581533418083, 42.410680599773386 ], [ 117.315575456919362, 42.410680616500805 ], [ 117.315575524637211, 42.41069412532643 ], [ 117.315581601137239, 42.410694108599003 ], [ 117.315581646283377, 42.410703114482729 ], [ 117.315587722784272, 42.410703097754975 ], [ 117.31558774535776, 42.410707600696831 ], [ 117.315593821859082, 42.410707583968758 ], [ 117.315593889580924, 42.410721092794297 ], [ 117.315618195591369, 42.410721025878736 ], [ 117.315618240742751, 42.410730031762384 ] ] ] } },
{ "type": "Feature", "properties": { "crown_id": 1092, "tree_id": "1092", "top_h_m": 22.097, "H_95_Mean": 21.7897, "DBH": 31.4179, "Carbon_kg": 196.570113, "area_m2": 21.0 }, "geometry": { "type": "Polygon", "coordinates": [ [ [ 117.31566077626691, 42.410729914647732 ], [ 117.315672929273745, 42.410729881183499 ], [ 117.315672906694118, 42.410725378241693 ], [ 117.315678983197103, 42.410725361509094 ], [ 117.315678960617063, 42.410720858567302 ], [ 117.315685037119607, 42.410720841834383 ], [ 117.315685014539127, 42.410716338892584 ], [ 117.315691091041231, 42.410716322159338 ], [ 117.315691045879419, 42.410707316275733 ], [ 117.315697122380655, 42.410707299542189 ], [ 117.31569700947405, 42.410684784833101 ], [ 117.315678779976878, 42.410684835032754 ], [ 117.315678757396881, 42.410680332090926 ], [ 117.31566660439961, 42.410680365555734 ], [ 117.31566655924135, 42.410671359672044 ], [ 117.315648329748001, 42.41067140986685 ], [ 117.315648397481468, 42.410684918692397 ], [ 117.315642320982363, 42.410684935423355 ], [ 117.315642501601687, 42.410720958958024 ], [ 117.315660731109418, 42.410720908764112 ], [ 117.31566077626691, 42.410729914647732 ] ] ] } },
{ "type": "Feature", "properties": { "crown_id": 1093, "tree_id": "1093", "top_h_m": 21.583, "H_95_Mean": 21.6638, "DBH": 30.9406, "Carbon_kg": 189.945577, "area_m2": 20.0 }, "geometry": { "type": "Polygon", "coordinates": [ [ [ 117.315751878647205, 42.410720657751064 ], [ 117.315770108154652, 42.410720607539744 ], [ 117.315770062981514, 42.41071160165621 ], [ 117.315763986479922, 42.410711618393627 ], [ 117.315763918721586, 42.410698109568294 ], [ 117.315757842221288, 42.410698126305384 ], [ 117.315757729293011, 42.410675611596396 ], [ 117.315715193805957, 42.410675728746916 ], [ 117.315715171223388, 42.410671225805082 ], [ 117.315709094725634, 42.410671242539586 ], [ 117.315709139889961, 42.41068024842324 ], [ 117.315703063391368, 42.410680265157417 ], [ 117.315703198881877, 42.41070728280831 ], [ 117.315721428385501, 42.41070723260475 ], [ 117.315721450968596, 42.410711735546542 ], [ 117.31573968047347, 42.410711685340083 ], [ 117.315739703057844, 42.410716188281867 ], [ 117.315751856061965, 42.410716154809286 ], [ 117.315751878647205, 42.410720657751064 ] ] ] } },
{ "type": "Feature", "properties": { "crown_id": 1124, "tree_id": "1124", "top_h_m": 24.085, "H_95_Mean": 23.9295, "DBH": 33.5193, "Carbon_kg": 236.728531, "area_m2": 22.75 }, "geometry": { "type": "Polygon", "coordinates": [ [ [ 117.31577613948312, 42.410711584918474 ], [ 117.315782215984726, 42.410711568180403 ], [ 117.315782193397283, 42.41070706523864 ], [ 117.315788269898448, 42.410707048500257 ], [ 117.315788292486289, 42.410711551442013 ], [ 117.315812598492599, 42.410711484485255 ], [ 117.315812530723832, 42.410697975659986 ], [ 117.31582468372433, 42.410697942179695 ], [ 117.315824638543432, 42.410688936296161 ], [ 117.315830715042821, 42.410688919555533 ], [ 117.315830647270204, 42.410675410730228 ], [ 117.315824570772151, 42.410675427470842 ], [ 117.315824548181737, 42.410670924529072 ], [ 117.315806318688786, 42.410670974748989 ], [ 117.31580629609968, 42.41066647180719 ], [ 117.315781990110764, 42.410666538762577 ], [ 117.315781967523378, 42.410662035820764 ], [ 117.315763738032956, 42.410662086033902 ], [ 117.315763896135493, 42.410693606626502 ], [ 117.315769972635366, 42.4106935898891 ], [ 117.31577004039498, 42.410707098714433 ], [ 117.315776116896146, 42.410707081976689 ], [ 117.31577613948312, 42.410711584918474 ] ] ] } },
{ "type": "Feature", "properties": { "crown_id": 1162, "tree_id": "1162", "top_h_m": 23.333, "H_95_Mean": 23.1332, "DBH": 35.5028, "Carbon_kg": 260.543029, "area_m2": 30.25 }, "geometry": { "type": "Polygon", "coordinates": [ [ [ 117.315891502631501, 42.410693255073284 ], [ 117.315927961629953, 42.410693154603408 ], [ 117.315927939032107, 42.410688651661701 ], [ 117.315964398027774, 42.41068855118025 ], [ 117.315964375427328, 42.410684048238544 ], [ 117.315970451926134, 42.410684031490518 ], [ 117.315970406724418, 42.410675025607098 ], [ 117.315964330226478, 42.410675042355116 ], [ 117.315964307626047, 42.41067053941341 ], [ 117.315976460621087, 42.410670505917032 ], [ 117.315976438019803, 42.410666002975319 ], [ 117.315964285025643, 42.410666036471682 ], [ 117.315964262425226, 42.410661533529961 ], [ 117.315970338921886, 42.410661516781936 ], [ 117.315970248518568, 42.410643505015017 ], [ 117.315964172023655, 42.410643521763028 ], [ 117.31596414942328, 42.410639018821279 ], [ 117.31592161396182, 42.410639136048303 ], [ 117.315921659156487, 42.41064814193183 ], [ 117.315903429670328, 42.410648192167159 ], [ 117.315903520054519, 42.410666203934191 ], [ 117.315909596551663, 42.410666187189385 ], [ 117.315909619148158, 42.410670690131134 ], [ 117.315903542650602, 42.410670706875926 ], [ 117.315903587842755, 42.410679712759425 ], [ 117.315891434845867, 42.410679746248064 ], [ 117.315891502631501, 42.410693255073284 ] ] ] } },
{ "type": "Feature", "properties": { "crown_id": 1181, "tree_id": "1181", "top_h_m": 21.893, "H_95_Mean": 21.7439, "DBH": 26.5705, "Carbon_kg": 140.053779, "area_m2": 11.0 }, "geometry": { "type": "Polygon", "coordinates": [ [ [ 117.315684833895503, 42.410680315358036 ], [ 117.315696986892746, 42.410680281891281 ], [ 117.315696964311442, 42.41067577894944 ], [ 117.315703040809638, 42.41067576221559 ], [ 117.315702905319355, 42.410648744564561 ], [ 117.31569075232818, 42.410648778031913 ], [ 117.315690729747374, 42.41064427509005 ], [ 117.315684653252205, 42.410644291823246 ], [ 117.315684630671825, 42.410639788881383 ], [ 117.315678554177111, 42.410639805614252 ], [ 117.315678576757065, 42.410644308556122 ], [ 117.315672500261911, 42.410644325288679 ], [ 117.315672522841425, 42.410648828230528 ], [ 117.315660369850235, 42.410648861694668 ], [ 117.315660460164878, 42.410666873462119 ], [ 117.315672613159592, 42.410666839997965 ], [ 117.315672658318675, 42.410675845881649 ], [ 117.31568481131508, 42.410675812416194 ], [ 117.315684833895503, 42.410680315358036 ] ] ] } },
{ "type": "Feature", "properties": { "crown_id": 1182, "tree_id": "1182", "top_h_m": 24.266, "H_95_Mean": 24.133, "DBH": 32.1269, "Carbon_kg": 218.417862, "area_m2": 19.0 }, "geometry": { "type": "Polygon", "coordinates": [ [ [ 117.315867196632453, 42.410693322046754 ], [ 117.315873273132212, 42.410693305303859 ], [ 117.315873250538289, 42.410688802362131 ], [ 117.315885403536967, 42.410688768875396 ], [ 117.315885313157864, 42.410670757108406 ], [ 117.315891389655448, 42.410670740364573 ], [ 117.315891321869856, 42.410657231539304 ], [ 117.315897398366147, 42.410657214795151 ], [ 117.315897330579318, 42.410643705969868 ], [ 117.315891254084349, 42.410643722714006 ], [ 117.315891231489189, 42.410639219772229 ], [ 117.315885154994632, 42.41063923651604 ], [ 117.315885177589365, 42.410643739457832 ], [ 117.315879101094382, 42.410643756201331 ], [ 117.315879123688688, 42.410648259143095 ], [ 117.315842664716087, 42.410648359597346 ], [ 117.315842800266338, 42.410675377248019 ], [ 117.315836723768271, 42.410675393989287 ], [ 117.315836768950874, 42.410684399872814 ], [ 117.315848921948728, 42.410684366389965 ], [ 117.315848944540903, 42.410688869331722 ], [ 117.315867174038956, 42.410688819105005 ], [ 117.315867196632453, 42.410693322046754 ] ] ] } },
{ "type": "Feature", "properties": { "crown_id": 1193, "tree_id": "1193", "top_h_m": 20.639, "H_95_Mean": 20.5393, "DBH": 30.9196, "Carbon_kg": 183.799016, "area_m2": 22.0 }, "geometry": { "type": "Polygon", "coordinates": [ [ [ 117.315994757921388, 42.410683964495156 ], [ 117.316019063916514, 42.410683897494671 ], [ 117.316019041312188, 42.410679394552979 ], [ 117.316043347305509, 42.410679327547342 ], [ 117.316043098639014, 42.410629795188655 ], [ 117.316030945651917, 42.410629828692066 ], [ 117.316030968257053, 42.41063433163378 ], [ 117.316024891763092, 42.410634348385003 ], [ 117.316024914367802, 42.410638851326723 ], [ 117.315988455401154, 42.41063895182733 ], [ 117.315988500605414, 42.410647957710786 ], [ 117.315994577100724, 42.410647940961489 ], [ 117.315994599703274, 42.41065244390321 ], [ 117.315988523207523, 42.410652460652514 ], [ 117.31598854580966, 42.410656963594235 ], [ 117.315982469313454, 42.410656980343212 ], [ 117.315982514516875, 42.410665986226647 ], [ 117.315994667511021, 42.410665952728351 ], [ 117.315994757921388, 42.410683964495156 ] ] ] } },
{ "type": "Feature", "properties": { "crown_id": 1216, "tree_id": "1216", "top_h_m": 22.914, "H_95_Mean": 22.673, "DBH": 30.6554, "Carbon_kg": 191.522207, "area_m2": 17.75 }, "geometry": { "type": "Polygon", "coordinates": [ [ [ 117.3157212477211, 42.410671209070273 ], [ 117.315757706707387, 42.410671108654597 ], [ 117.315757638950487, 42.41065759982915 ], [ 117.315763715446892, 42.410657583092089 ], [ 117.315763692860827, 42.410653080150269 ], [ 117.315757616364877, 42.41065309688733 ], [ 117.315757480851261, 42.410626079236323 ], [ 117.31573317487782, 42.410626146181293 ], [ 117.315733197461668, 42.410630649123142 ], [ 117.315727120967878, 42.410630665858591 ], [ 117.315727143551285, 42.410635168800447 ], [ 117.315714990562796, 42.410635202270363 ], [ 117.315715013145336, 42.410639705212212 ], [ 117.315708936650637, 42.410639721946694 ], [ 117.315709072143491, 42.410666739597751 ], [ 117.315721225138091, 42.410666706128445 ], [ 117.3157212477211, 42.410671209070273 ] ] ] } }
]
}
