{
"type": "FeatureCollection",
"name": "tile_20_11",
"crs": { "type": "name", "properties": { "name": "urn:ogc:def:crs:OGC:1.3:CRS84" } },
"features": [
{ "type": "Feature", "properties": { "crown_id": 5931, "tree_id": "5935", "top_h_m": 20.985, "H_95_Mean": 20.7934, "DBH": 31.0089, "Carbon_kg": 186.219814, "area_m2": 21.75 }, "geometry": { "type": "Polygon", "coordinates": [ [ [ 117.31252372760207, 42.4079736644806 ], [ 117.312566261276558, 42.407973548520161 ], [ 117.312566238921335, 42.407969045574852 ], [ 117.312590543876325, 42.407968979304663 ], [ 117.312590432091469, 42.407946464578089 ], [ 117.312578279618336, 42.407946497713802 ], [ 117.312578257262246, 42.407941994768464 ], [ 117.312560028553776, 42.407942044469607 ], [ 117.312560006199007, 42.407937541524284 ], [ 117.312553929963272, 42.407937558090666 ], [ 117.31255390760893, 42.407933055145321 ], [ 117.312529602667709, 42.407933121407694 ], [ 117.312529625020318, 42.407937624353046 ], [ 117.312517472548805, 42.407937657482307 ], [ 117.312517539604031, 42.407951166318377 ], [ 117.312523615841087, 42.407951149753906 ], [ 117.312523638193269, 42.40795565269925 ], [ 117.312517561955772, 42.407955669263728 ], [ 117.312517629011055, 42.407969178099755 ], [ 117.312523705249873, 42.40796916153527 ], [ 117.31252372760207, 42.4079736644806 ] ] ] } },
{ "type": "Feature", "properties": { "crown_id": 5952, "tree_id": "5956", "top_h_m": 20.647, "H_95_Mean": 20.3449, "DBH": 32.7534, "Carbon_kg": 205.273576, "area_m2": 28.0 }, "geometry": { "type": "Polygon", "coordinates": [ [ [ 117.31246904144875, 42.407973813549404 ], [ 117.312499422645104, 42.407973730736629 ], [ 117.31249937794415, 42.407964724845932 ], [ 117.312511530420906, 42.407964691718576 ], [ 117.312511396313027, 42.407937674046451 ], [ 117.312505320077264, 42.407937690610275 ], [ 117.312505275375543, 42.407928684719536 ], [ 117.3124809704359, 42.407928750971585 ], [ 117.312480948086773, 42.407924248026198 ], [ 117.312474871852288, 42.407924264588395 ], [ 117.312474827154972, 42.407915258697621 ], [ 117.312462674687694, 42.407915291821048 ], [ 117.3124626970355, 42.40791979476645 ], [ 117.312450544567341, 42.407919827888598 ], [ 117.312450566914279, 42.407924330834007 ], [ 117.312444490679766, 42.407924347394591 ], [ 117.312444535372776, 42.407933353285408 ], [ 117.312438459137397, 42.407933369845686 ], [ 117.31243854852174, 42.40795138162725 ], [ 117.312444624758882, 42.407951365066964 ], [ 117.312444669451949, 42.407960370957724 ], [ 117.312450745689944, 42.407960354397098 ], [ 117.312450768036939, 42.407964857342471 ], [ 117.312462920513767, 42.407964824220272 ], [ 117.312462942861615, 42.407969327165631 ], [ 117.312469019100476, 42.407969310604052 ], [ 117.31246904144875, 42.407973813549404 ] ] ] } },
{ "type": "Feature", "properties": { "crown_id": 5961, "tree_id": "5965", "top_h_m": 22.84, "H_95_Mean": 22.4823, "DBH": 37.0221, "Carbon_kg": 278.757851, "area_m2": 37.5 }, "geometry": { "type": "Polygon", "coordinates": [ [ [ 117.312365745380291, 42.40797409505263 ], [ 117.312371821619649, 42.407974078496188 ], [ 117.312371776936956, 42.407965072605393 ], [ 117.312402158129359, 42.407964989818403 ], [ 117.31240213578586, 42.407960486873009 ], [ 117.312420364499914, 42.407960437196962 ], [ 117.312420319810329, 42.407951431306181 ], [ 117.312432472284613, 42.407951398187222 ], [ 117.312432449938953, 42.407946895241814 ], [ 117.312420297465536, 42.407946928360786 ], [ 117.312420275120758, 42.407942425415385 ], [ 117.312426351357033, 42.407942408856066 ], [ 117.31242623963098, 42.407919894129037 ], [ 117.312414087162779, 42.40791992724732 ], [ 117.312414020129822, 42.407906418411045 ], [ 117.312383638965741, 42.40790650120109 ], [ 117.312383616623592, 42.407901998255632 ], [ 117.312377540391196, 42.407902014812684 ], [ 117.312377562732905, 42.407906517758128 ], [ 117.312359334034369, 42.407906567427325 ], [ 117.312359378715186, 42.407915573318228 ], [ 117.312353302481441, 42.407915589873994 ], [ 117.312353324821416, 42.407920092819431 ], [ 117.312347248587272, 42.407920109374878 ], [ 117.312347293266356, 42.407929115265773 ], [ 117.312341217031332, 42.407929131820886 ], [ 117.312341239370454, 42.407933634766337 ], [ 117.312347315605905, 42.40793361821121 ], [ 117.312347360285045, 42.407942624102077 ], [ 117.312353436521377, 42.407942607546623 ], [ 117.312353503541416, 42.407956116382898 ], [ 117.312359579779056, 42.407956099827118 ], [ 117.312359646800445, 42.407969608663343 ], [ 117.312365723039377, 42.407969592107243 ], [ 117.312365745380291, 42.40797409505263 ] ] ] } },
{ "type": "Feature", "properties": { "crown_id": 6010, "tree_id": "6014", "top_h_m": 23.294, "H_95_Mean": 23.2046, "DBH": 35.3251, "Carbon_kg": 258.391893, "area_m2": 29.5 }, "geometry": { "type": "Polygon", "coordinates": [ [ [ 117.312596441255891, 42.407932939173769 ], [ 117.312608593726395, 42.407932906036152 ], [ 117.312608571368159, 42.407928403090814 ], [ 117.312614647602985, 42.407928386521519 ], [ 117.312614625244294, 42.407923883576188 ], [ 117.312626777713035, 42.407923850436653 ], [ 117.312626755353506, 42.407919347491323 ], [ 117.312638907821352, 42.407919314350487 ], [ 117.312638885460956, 42.407914811405163 ], [ 117.312657114161382, 42.407914761691508 ], [ 117.312657069438004, 42.407905755800861 ], [ 117.312650993205395, 42.407905772372402 ], [ 117.312650948482883, 42.407896766481727 ], [ 117.312644872251141, 42.407896783052948 ], [ 117.312644849890319, 42.407892280107603 ], [ 117.312638773659017, 42.407892296678476 ], [ 117.312638684217575, 42.407874284897062 ], [ 117.312632607987993, 42.407874301467615 ], [ 117.312632540908268, 42.407860792631503 ], [ 117.312620388451691, 42.407860825771628 ], [ 117.312620410810737, 42.407865328717008 ], [ 117.31260218212455, 42.407865378424773 ], [ 117.312602249197766, 42.407878887260907 ], [ 117.312596172967744, 42.407878903829527 ], [ 117.312596195325057, 42.407883406774907 ], [ 117.312590119094565, 42.407883423343208 ], [ 117.312590163808352, 42.407892429233939 ], [ 117.312584087576994, 42.40789244580192 ], [ 117.312584221715852, 42.40791946347408 ], [ 117.312590297949825, 42.407919446906078 ], [ 117.312590342663697, 42.407928452796753 ], [ 117.312596418898508, 42.407928436228431 ], [ 117.312596441255891, 42.407932939173769 ] ] ] } },
{ "type": "Feature", "properties": { "crown_id": 6021, "tree_id": "6025", "top_h_m": 23.542, "H_95_Mean": 23.1798, "DBH": 37.6231, "Carbon_kg": 293.20444, "area_m2": 37.75 }, "geometry": { "type": "Polygon", "coordinates": [ [ [ 117.31251137396174, 42.407933171101078 ], [ 117.312523526432386, 42.407933137972471 ], [ 117.312523481728093, 42.407924132081746 ], [ 117.312541710431418, 42.40792408238643 ], [ 117.312541509250522, 42.407883555878023 ], [ 117.312535433020003, 42.407883572443417 ], [ 117.31253541066701, 42.40787906949803 ], [ 117.312529334436931, 42.407879086063097 ], [ 117.312529267379347, 42.407865577226865 ], [ 117.312517114921746, 42.407865610356055 ], [ 117.312517092570076, 42.407861107410611 ], [ 117.312504940113328, 42.407861140538493 ], [ 117.312504962464104, 42.407865643483937 ], [ 117.312498886235289, 42.407865660047385 ], [ 117.31249886388494, 42.407861157101955 ], [ 117.312486711428136, 42.407861190227905 ], [ 117.312486733777618, 42.407865693173342 ], [ 117.312480657548775, 42.407865709735844 ], [ 117.312480679897831, 42.407870212681267 ], [ 117.312474603668562, 42.40787022924345 ], [ 117.312474670714423, 42.407883738079732 ], [ 117.312468594483832, 42.407883754641595 ], [ 117.312468639180238, 42.407892760532427 ], [ 117.312462562948781, 42.40789277709397 ], [ 117.312462585296558, 42.407897280039414 ], [ 117.312456509064646, 42.407897296600623 ], [ 117.312456553759347, 42.407906302491469 ], [ 117.312462629992098, 42.407906285930231 ], [ 117.312462652339903, 42.40791078887564 ], [ 117.312480881039491, 42.407910739190001 ], [ 117.312480925737674, 42.407919745080804 ], [ 117.312487001971732, 42.40791972851828 ], [ 117.312487024321285, 42.407924231463667 ], [ 117.312511329259181, 42.407924165210339 ], [ 117.31251137396174, 42.407933171101078 ] ] ] } },
{ "type": "Feature", "properties": { "crown_id": 6048, "tree_id": "6052", "top_h_m": 21.834, "H_95_Mean": 21.5663, "DBH": 32.0959, "Carbon_kg": 203.966472, "area_m2": 23.25 }, "geometry": { "type": "Polygon", "coordinates": [ [ [ 117.312559872070452, 42.407910523852138 ], [ 117.312572024536678, 42.4079104907184 ], [ 117.312571979825464, 42.407901484827676 ], [ 117.312578056057703, 42.407901468260334 ], [ 117.312577988989602, 42.407887959424215 ], [ 117.31258406522052, 42.407887942856554 ], [ 117.312584020507629, 42.407878936965808 ], [ 117.312590096737679, 42.407878920397827 ], [ 117.312590074380807, 42.407874417452447 ], [ 117.312596150610432, 42.407874400884161 ], [ 117.312596083538509, 42.407860892047992 ], [ 117.312602159766811, 42.407860875479379 ], [ 117.312602070335942, 42.407842863697802 ], [ 117.312595994109373, 42.407842880266415 ], [ 117.312595971752117, 42.407838377321006 ], [ 117.312583819299803, 42.407838410457231 ], [ 117.312583886369055, 42.407851919293456 ], [ 117.312571733914126, 42.407851952428409 ], [ 117.312571756269691, 42.407856455373818 ], [ 117.312547451358057, 42.407856521639879 ], [ 117.312547473711888, 42.40786102458528 ], [ 117.312535321255183, 42.407861057716389 ], [ 117.312535388314046, 42.407874566552614 ], [ 117.312541464543699, 42.407874549987213 ], [ 117.312541486897118, 42.407879052932628 ], [ 117.312547563127211, 42.4078790363669 ], [ 117.312547697250338, 42.407906054039209 ], [ 117.312559849715711, 42.407906020906779 ], [ 117.312559872070452, 42.407910523852138 ] ] ] } },
{ "type": "Feature", "properties": { "crown_id": 6064, "tree_id": "6068", "top_h_m": 20.084, "H_95_Mean": 19.7674, "DBH": 32.1588, "Carbon_kg": 194.49117, "area_m2": 27.5 }, "geometry": { "type": "Polygon", "coordinates": [ [ [ 117.312420074017908, 42.407901898906644 ], [ 117.312426150250246, 42.407901882347346 ], [ 117.312426127905098, 42.407897379401909 ], [ 117.312438280368923, 42.407897346282368 ], [ 117.31243825802288, 42.407892843336931 ], [ 117.312450410485852, 42.407892810216097 ], [ 117.312450388138942, 42.407888307270674 ], [ 117.312462540601018, 42.407888274148547 ], [ 117.312462495905493, 42.407879268257709 ], [ 117.312468572135643, 42.407879251696173 ], [ 117.312468482742929, 42.407861239914411 ], [ 117.312474558971331, 42.407861223352569 ], [ 117.312474514274129, 42.407852217461681 ], [ 117.312462361819058, 42.407852250585044 ], [ 117.312462339471338, 42.407847747639586 ], [ 117.312444110789968, 42.407847797322205 ], [ 117.312444088443542, 42.40784329437674 ], [ 117.312419783536726, 42.407843360615715 ], [ 117.31241980588139, 42.407847863561202 ], [ 117.312413729654239, 42.40784788012013 ], [ 117.312413751998477, 42.407852383065602 ], [ 117.312407675770885, 42.407852399624225 ], [ 117.31240774280235, 42.407865908460636 ], [ 117.312401666573464, 42.407865925018953 ], [ 117.312401800633907, 42.407892942691703 ], [ 117.312413953096936, 42.407892909574727 ], [ 117.312413975441217, 42.407897412520178 ], [ 117.312420051673158, 42.4078973959612 ], [ 117.312420074017908, 42.407901898906644 ] ] ] } },
{ "type": "Feature", "properties": { "crown_id": 6106, "tree_id": "6110", "top_h_m": 20.835, "H_95_Mean": 20.5892, "DBH": 31.5716, "Carbon_kg": 191.969535, "area_m2": 23.75 }, "geometry": { "type": "Polygon", "coordinates": [ [ [ 117.3125292226743, 42.407856571336033 ], [ 117.312541375130166, 42.407856538205579 ], [ 117.312541352776776, 42.407852035260156 ], [ 117.312565657686676, 42.407851968995409 ], [ 117.312565635331566, 42.407847466049986 ], [ 117.3125777877856, 42.407847432915695 ], [ 117.312577720717698, 42.407833924079448 ], [ 117.312583796943414, 42.407833907511815 ], [ 117.312583685161513, 42.407811392784694 ], [ 117.312559380267317, 42.407811459053228 ], [ 117.312559357912704, 42.407806956107777 ], [ 117.31255328168956, 42.407806972674109 ], [ 117.312553214627016, 42.407793463837749 ], [ 117.312541062183357, 42.407793496969404 ], [ 117.312541039830037, 42.407788994023932 ], [ 117.312528887387231, 42.407789027154308 ], [ 117.312528954444559, 42.407802535990726 ], [ 117.312541106889967, 42.407802502860328 ], [ 117.312541129243286, 42.407807005805779 ], [ 117.312528976797026, 42.407807038936184 ], [ 117.312529133264306, 42.407838559554328 ], [ 117.312523057038121, 42.407838576119055 ], [ 117.312523101742244, 42.407847582009929 ], [ 117.312535254196348, 42.40784754888012 ], [ 117.312535276549283, 42.40785205182555 ], [ 117.312529200321791, 42.407852068390618 ], [ 117.3125292226743, 42.407856571336033 ] ] ] } },
{ "type": "Feature", "properties": { "crown_id": 6124, "tree_id": "6128", "top_h_m": 21.191, "H_95_Mean": 21.119, "DBH": 26.8006, "Carbon_kg": 140.072253, "area_m2": 12.0 }, "geometry": { "type": "Polygon", "coordinates": [ [ [ 117.312468415698433, 42.407847731078078 ], [ 117.312474491925542, 42.40784771451623 ], [ 117.312474290788458, 42.407807188007013 ], [ 117.312468214565271, 42.407807204568833 ], [ 117.312468236913375, 42.407811707514327 ], [ 117.31245000824245, 42.407811757197841 ], [ 117.312450030589247, 42.407816260143328 ], [ 117.312443954365179, 42.407816276703869 ], [ 117.312443976711549, 42.407820779649342 ], [ 117.312437900487041, 42.407820796209563 ], [ 117.312437922832984, 42.407825299155057 ], [ 117.312419694158066, 42.407825348833761 ], [ 117.312419761192061, 42.407838857670228 ], [ 117.312450142323414, 42.407838774870719 ], [ 117.312450164670238, 42.407843277816184 ], [ 117.312468393350287, 42.407843228132613 ], [ 117.312468415698433, 42.407847731078078 ] ] ] } },
{ "type": "Feature", "properties": { "crown_id": 6132, "tree_id": "6136", "top_h_m": 19.606, "H_95_Mean": 19.4399, "DBH": 29.944, "Carbon_kg": 166.781724, "area_m2": 21.5 }, "geometry": { "type": "Polygon", "coordinates": [ [ [ 117.312480568152651, 42.407847697954075 ], [ 117.31248664437976, 42.407847681391587 ], [ 117.312486622030306, 42.407843178446136 ], [ 117.312517003163535, 42.407843095628898 ], [ 117.312516958460307, 42.407834089738017 ], [ 117.312523034686066, 42.407834073173611 ], [ 117.31252281116582, 42.407789043719013 ], [ 117.312504582501546, 42.407789093411189 ], [ 117.312504560150856, 42.407784590465695 ], [ 117.312486331487861, 42.407784640154979 ], [ 117.31248635383723, 42.407789143100473 ], [ 117.312480277615805, 42.407789159662926 ], [ 117.312480568152651, 42.407847697954075 ] ] ] } },
{ "type": "Feature", "properties": { "crown_id": 6164, "tree_id": "6168", "top_h_m": 20.895, "H_95_Mean": 20.5893, "DBH": 34.2287, "Carbon_kg": 225.92526, "area_m2": 32.5 }, "geometry": { "type": "Polygon", "coordinates": [ [ [ 117.312407519364328, 42.407820879005804 ], [ 117.312431824262504, 42.407820812769458 ], [ 117.312431801916986, 42.407816309823957 ], [ 117.312437878141097, 42.407816293264077 ], [ 117.312437855795125, 42.407811790318576 ], [ 117.312443932018795, 42.407811773758375 ], [ 117.312443909672425, 42.407807270812874 ], [ 117.31246213834207, 42.407807221130327 ], [ 117.312462115994393, 42.407802718184833 ], [ 117.312474268439928, 42.407802685061533 ], [ 117.312474179045807, 42.407784673279551 ], [ 117.312480255266834, 42.407784656717425 ], [ 117.312480232917892, 42.407780153771924 ], [ 117.31248630913845, 42.407780137209485 ], [ 117.312486264439727, 42.407771131318469 ], [ 117.312480188219993, 42.407771147880908 ], [ 117.312480165871079, 42.4077666449354 ], [ 117.31240725123935, 42.407766843659509 ], [ 117.312407273583077, 42.407771346605053 ], [ 117.3124011973633, 42.407771363163313 ], [ 117.312401264393188, 42.407784871999937 ], [ 117.312407340614257, 42.407784855441676 ], [ 117.312407385301739, 42.407793861332721 ], [ 117.312395232857838, 42.407793894448929 ], [ 117.312395255200727, 42.407798397394465 ], [ 117.312389178978322, 42.407798413952086 ], [ 117.312389223663232, 42.407807419843138 ], [ 117.312401376109761, 42.407807386727548 ], [ 117.312401398453076, 42.40781188967307 ], [ 117.312407474676775, 42.407811873114795 ], [ 117.312407519364328, 42.407820879005804 ] ] ] } }
]
}
