{
"type": "FeatureCollection",
"name": "tile_16_24",
"crs": { "type": "name", "properties": { "name": "urn:ogc:def:crs:OGC:1.3:CRS84" } },
"features": [
{ "type": "Feature", "properties": { "crown_id": 4763, "tree_id": "4765", "top_h_m": 23.851, "H_95_Mean": 23.8706, "DBH": 30.7006, "Carbon_kg": 198.029779, "area_m2": 16.25 }, "geometry": { "type": "Polygon", "coordinates": [ [ [ 117.3155837092512, 42.408690265662187 ], [ 117.315608014477604, 42.408690198751351 ], [ 117.315607969330898, 42.408681192864478 ], [ 117.315614045636593, 42.408681176135964 ], [ 117.315614000489035, 42.408672170249076 ], [ 117.315620076793877, 42.408672153520257 ], [ 117.315620054219664, 42.408667650576803 ], [ 117.31562613052408, 42.408667633847678 ], [ 117.315626017650914, 42.408645119130398 ], [ 117.315632093953141, 42.408645102400946 ], [ 117.315632048803053, 42.408636096514016 ], [ 117.315625972501707, 42.40863611324346 ], [ 117.315625949927096, 42.408631610299992 ], [ 117.315601644723358, 42.408631677214544 ], [ 117.315601712441975, 42.408645186044986 ], [ 117.315595636139705, 42.408645202772824 ], [ 117.315595681284606, 42.408654208659769 ], [ 117.315589604981497, 42.408654225387295 ], [ 117.315589695269608, 42.408672237161156 ], [ 117.315583618964737, 42.408672253888369 ], [ 117.3155837092512, 42.408690265662187 ] ] ] } },
{ "type": "Feature", "properties": { "crown_id": 4780, "tree_id": "4782", "top_h_m": 23.519, "H_95_Mean": 23.2181, "DBH": 28.8898, "Carbon_kg": 172.344597, "area_m2": 13.5 }, "geometry": { "type": "Polygon", "coordinates": [ [ [ 117.315929968334061, 42.40867129992322 ], [ 117.315948197247764, 42.408671249685547 ], [ 117.315948174650103, 42.408666746742234 ], [ 117.315966403562456, 42.408666696501669 ], [ 117.315966380963459, 42.408662193558371 ], [ 117.315972457267151, 42.408662176810871 ], [ 117.315972412068348, 42.408653170924268 ], [ 117.315960259462713, 42.408653204418933 ], [ 117.315960236864186, 42.408648701475613 ], [ 117.31594200795702, 42.408648751715177 ], [ 117.315941962762622, 42.40863974582853 ], [ 117.31592981015956, 42.408639779319955 ], [ 117.315929787563221, 42.408635276376621 ], [ 117.315905482358772, 42.408635343355606 ], [ 117.315905504953349, 42.408639846298946 ], [ 117.315911581254909, 42.40863982955468 ], [ 117.315911716825241, 42.408666847214675 ], [ 117.315929945737693, 42.408666796979915 ], [ 117.315929968334061, 42.40867129992322 ] ] ] } },
{ "type": "Feature", "properties": { "crown_id": 4790, "tree_id": "4792", "top_h_m": 23.549, "H_95_Mean": 23.2677, "DBH": 34.4898, "Carbon_kg": 246.62097, "area_m2": 26.75 }, "geometry": { "type": "Polygon", "coordinates": [ [ [ 117.315553327718092, 42.408690349293458 ], [ 117.315577632944596, 42.408690282389081 ], [ 117.315577520088695, 42.408667767671787 ], [ 117.315583596393125, 42.408667750944893 ], [ 117.315583506106776, 42.408649739171018 ], [ 117.315589582409473, 42.408649722443812 ], [ 117.315589537265453, 42.408640716556867 ], [ 117.315595613567254, 42.408640699829355 ], [ 117.315595545849973, 42.408627190998892 ], [ 117.315583393248943, 42.408627224453589 ], [ 117.315583370677388, 42.408622721510078 ], [ 117.315571218077167, 42.408622754963488 ], [ 117.31557124064787, 42.408627257907 ], [ 117.315559088046783, 42.408627291359103 ], [ 117.315559110616618, 42.408631794302615 ], [ 117.315553034315613, 42.408631811028194 ], [ 117.315553056885008, 42.408636313971705 ], [ 117.315546980583591, 42.408636330696957 ], [ 117.315547003152545, 42.408640833640462 ], [ 117.315540926850687, 42.408640850365401 ], [ 117.315540949419216, 42.408645353308906 ], [ 117.315528796814604, 42.408645386757826 ], [ 117.315528819382266, 42.408649889701323 ], [ 117.315522743079512, 42.40864990642531 ], [ 117.315522855915745, 42.408672421142782 ], [ 117.315547161135399, 42.408672354244878 ], [ 117.31554718370441, 42.408676857188354 ], [ 117.315553260009736, 42.408676840463073 ], [ 117.315553327718092, 42.408690349293458 ] ] ] } },
{ "type": "Feature", "properties": { "crown_id": 4797, "tree_id": "4799", "top_h_m": 22.751, "H_95_Mean": 22.85, "DBH": 31.0977, "Carbon_kg": 198.041204, "area_m2": 18.5 }, "geometry": { "type": "Polygon", "coordinates": [ [ [ 117.316015013995184, 42.40866656251265 ], [ 117.31603324290738, 42.408666512261448 ], [ 117.316032881247878, 42.408594465168683 ], [ 117.316020728653641, 42.408594498669721 ], [ 117.316020751256474, 42.408599001613041 ], [ 117.316014674958907, 42.408599018363091 ], [ 117.316014742766072, 42.408612527193057 ], [ 117.316008666467212, 42.40861254394278 ], [ 117.316008711671145, 42.408621549829427 ], [ 117.315996559071664, 42.408621583327914 ], [ 117.315996717279504, 42.40865310393108 ], [ 117.316002793582285, 42.408653087181982 ], [ 117.316002838785451, 42.408662093068557 ], [ 117.316014991392734, 42.408662059569366 ], [ 117.316015013995184, 42.40866656251265 ] ] ] } },
{ "type": "Feature", "properties": { "crown_id": 4812, "tree_id": "4814", "top_h_m": 21.955, "H_95_Mean": 21.713, "DBH": 29.3605, "Carbon_kg": 171.130999, "area_m2": 16.25 }, "geometry": { "type": "Polygon", "coordinates": [ [ [ 117.315662588350378, 42.408667533466044 ], [ 117.315686893567829, 42.408667466538525 ], [ 117.315686870988841, 42.408662963595098 ], [ 117.31569294729276, 42.408662946862421 ], [ 117.315692924713346, 42.408658443919009 ], [ 117.31569900101681, 42.408658427186005 ], [ 117.315698978436956, 42.408653924242579 ], [ 117.315705054740008, 42.408653907509255 ], [ 117.315704986999179, 42.408640398678976 ], [ 117.315711063300924, 42.408640381945339 ], [ 117.315711018139538, 42.408631376058466 ], [ 117.315698865537826, 42.408631409525412 ], [ 117.315698842958, 42.408626906581965 ], [ 117.315686690357126, 42.408626940047611 ], [ 117.315686667778195, 42.408622437104157 ], [ 117.315680591478184, 42.408622453836493 ], [ 117.315680614056689, 42.408626956779941 ], [ 117.315668461455786, 42.408626990243654 ], [ 117.31566850661109, 42.408635996130577 ], [ 117.315650277707078, 42.40863604632375 ], [ 117.315650368012527, 42.408654058097561 ], [ 117.315662520618659, 42.408654024635744 ], [ 117.315662588350378, 42.408667533466044 ] ] ] } },
{ "type": "Feature", "properties": { "crown_id": 4813, "tree_id": "4815", "top_h_m": 22.007, "H_95_Mean": 21.9244, "DBH": 26.3567, "Carbon_kg": 138.467101, "area_m2": 10.5 }, "geometry": { "type": "Polygon", "coordinates": [ [ [ 117.315747588861086, 42.408653790366976 ], [ 117.315759741467062, 42.408653756894871 ], [ 117.315759583377883, 42.408622236290981 ], [ 117.315753507077929, 42.40862225302719 ], [ 117.315753461910518, 42.408613247140323 ], [ 117.315747385611431, 42.408613263876205 ], [ 117.315747430777975, 42.408622269763072 ], [ 117.315735278178067, 42.408622303233862 ], [ 117.315735300760494, 42.408626806177296 ], [ 117.315729224460071, 42.408626822912218 ], [ 117.315729247042071, 42.408631325855644 ], [ 117.315717094440373, 42.408631359324517 ], [ 117.315717162183773, 42.408644868154809 ], [ 117.315711085881617, 42.408644884888773 ], [ 117.315711108462324, 42.408649387832185 ], [ 117.315747566277764, 42.408649287423572 ], [ 117.315747588861086, 42.408653790366976 ] ] ] } },
{ "type": "Feature", "properties": { "crown_id": 4814, "tree_id": "4816", "top_h_m": 24.373, "H_95_Mean": 24.1369, "DBH": 30.6135, "Carbon_kg": 198.195313, "area_m2": 15.75 }, "geometry": { "type": "Polygon", "coordinates": [ [ [ 117.315796221871679, 42.408658159414173 ], [ 117.315802298175058, 42.408658142675698 ], [ 117.315802275587828, 42.408653639732307 ], [ 117.315814428193718, 42.408653606254397 ], [ 117.315814405605622, 42.408649103311014 ], [ 117.315820481908119, 42.408649086571579 ], [ 117.315820346377023, 42.408622068911257 ], [ 117.315808193777244, 42.408622102389785 ], [ 117.315808171189616, 42.408617599446366 ], [ 117.315796018590675, 42.408617632923608 ], [ 117.31579604117745, 42.408622135867013 ], [ 117.315765659677808, 42.408622219554459 ], [ 117.315765795185442, 42.408649237214924 ], [ 117.315777947790508, 42.408649203740879 ], [ 117.31577797037599, 42.408653706684277 ], [ 117.315796199284875, 42.40865365647079 ], [ 117.315796221871679, 42.408658159414173 ] ] ] } },
{ "type": "Feature", "properties": { "crown_id": 4815, "tree_id": "4817", "top_h_m": 21.591, "H_95_Mean": 21.3927, "DBH": 27.108, "Carbon_kg": 144.424991, "area_m2": 12.25 }, "geometry": { "type": "Polygon", "coordinates": [ [ [ 117.315844809708338, 42.408653522553969 ], [ 117.315850886011248, 42.408653505812921 ], [ 117.315850863420536, 42.408649002869559 ], [ 117.315856939723005, 42.408648986128185 ], [ 117.315856917131882, 42.408644483184823 ], [ 117.315875146037939, 42.408644432958788 ], [ 117.315875100853077, 42.40863542707207 ], [ 117.315881177154225, 42.408635410329424 ], [ 117.315881154561367, 42.408630907386055 ], [ 117.31587507826066, 42.408630924128701 ], [ 117.315875055668258, 42.408626421185346 ], [ 117.315868979367977, 42.408626437927666 ], [ 117.315868956775986, 42.408621934984282 ], [ 117.315862880476132, 42.408621951726289 ], [ 117.315862857884611, 42.408617448782898 ], [ 117.315844628986326, 42.408617499006958 ], [ 117.315844651576555, 42.408622001950341 ], [ 117.315826422676935, 42.408622052171509 ], [ 117.315826558210617, 42.408649069831824 ], [ 117.315844787118053, 42.4086490196106 ], [ 117.315844809708338, 42.408653522553969 ] ] ] } },
{ "type": "Feature", "properties": { "crown_id": 4833, "tree_id": "4835", "top_h_m": 23.146, "H_95_Mean": 22.8169, "DBH": 30.7469, "Carbon_kg": 193.398458, "area_m2": 17.75 }, "geometry": { "type": "Polygon", "coordinates": [ [ [ 117.315978510970979, 42.408657657119754 ], [ 117.315984587274215, 42.408657640371615 ], [ 117.315984564673926, 42.408653137428317 ], [ 117.315990640976722, 42.408653120679858 ], [ 117.315990460171278, 42.408617097133359 ], [ 117.316002612769893, 42.408617063635511 ], [ 117.316002590168353, 42.408612560692191 ], [ 117.315947903478346, 42.4086127114223 ], [ 117.315947880880728, 42.408608208478945 ], [ 117.315941804582252, 42.40860822522513 ], [ 117.315941872373799, 42.408621734055174 ], [ 117.315929719774218, 42.408621767546585 ], [ 117.315929742370528, 42.408626270489933 ], [ 117.315917589770066, 42.408626303980057 ], [ 117.315917612365524, 42.408630806923405 ], [ 117.315935841267546, 42.408630756687735 ], [ 117.315935863864311, 42.408635259631076 ], [ 117.315948016466479, 42.408635226139012 ], [ 117.315948061661786, 42.408644232025658 ], [ 117.315966290567616, 42.408644181785135 ], [ 117.315966313166584, 42.408648684728448 ], [ 117.315978465771295, 42.40864865123315 ], [ 117.315978510970979, 42.408657657119754 ] ] ] } },
{ "type": "Feature", "properties": { "crown_id": 4861, "tree_id": "4863", "top_h_m": 22.545, "H_95_Mean": 22.2634, "DBH": 34.7929, "Carbon_kg": 244.542998, "area_m2": 30.0 }, "geometry": { "type": "Polygon", "coordinates": [ [ [ 117.315704919258437, 42.408626889848655 ], [ 117.315723148159663, 42.408626839646807 ], [ 117.315723125578131, 42.408622336703367 ], [ 117.315729201878085, 42.408622319968778 ], [ 117.315729179296127, 42.408617817025345 ], [ 117.315741331895168, 42.408617783555194 ], [ 117.315741286729505, 42.408608777668313 ], [ 117.315747363028166, 42.408608760932765 ], [ 117.31574727269512, 42.408590749158982 ], [ 117.315735120101294, 42.40859078262973 ], [ 117.315735097518925, 42.408586279686276 ], [ 117.315729021222424, 42.40858629642117 ], [ 117.315728998640495, 42.408581793477701 ], [ 117.315735074936555, 42.408581776742821 ], [ 117.31573502977183, 42.408572770855876 ], [ 117.31571680088625, 42.408572821059551 ], [ 117.315716778305202, 42.408568318116082 ], [ 117.315698549420887, 42.408568368316857 ], [ 117.315698526841146, 42.408563865373381 ], [ 117.315692450546806, 42.408563882106321 ], [ 117.315692427967491, 42.408559379162817 ], [ 117.315686351673577, 42.408559395895438 ], [ 117.315686329094717, 42.408554892951933 ], [ 117.315680252801215, 42.408554909684234 ], [ 117.315680275379648, 42.408559412627731 ], [ 117.31567419908572, 42.408559429359713 ], [ 117.315674244241734, 42.408568435246721 ], [ 117.315668167946924, 42.40856845197839 ], [ 117.315668213102072, 42.408577457865391 ], [ 117.315674289397748, 42.408577441133723 ], [ 117.315674311975769, 42.408581944077227 ], [ 117.315680388271886, 42.408581927345232 ], [ 117.315680410850334, 42.408586430288707 ], [ 117.315686487146849, 42.408586413556392 ], [ 117.31568664519925, 42.408617934160709 ], [ 117.31569272149882, 42.408617917428046 ], [ 117.315692744078191, 42.408622420371493 ], [ 117.31570489667817, 42.408622386905208 ], [ 117.315704919258437, 42.408626889848655 ] ] ] } },
{ "type": "Feature", "properties": { "crown_id": 4872, "tree_id": "4874", "top_h_m": 21.907, "H_95_Mean": 21.5366, "DBH": 30.3458, "Carbon_kg": 182.022747, "area_m2": 18.75 }, "geometry": { "type": "Polygon", "coordinates": [ [ [ 117.315638147679877, 42.408640582727713 ], [ 117.315644223981664, 42.408640565997622 ], [ 117.315644178829842, 42.408631560110692 ], [ 117.31566240773256, 42.408631509918493 ], [ 117.315662362578152, 42.40862250403157 ], [ 117.315674515178173, 42.40862247056851 ], [ 117.31567449260011, 42.408617967625041 ], [ 117.31568056889968, 42.408617950893031 ], [ 117.315680433428795, 42.408590933232205 ], [ 117.31567435713184, 42.4085909499642 ], [ 117.31567433455379, 42.40858644702071 ], [ 117.315668258257247, 42.408586463752378 ], [ 117.315668235679667, 42.408581960808895 ], [ 117.31565000679133, 42.408582011001968 ], [ 117.315650029367589, 42.408586513945473 ], [ 117.315637876774488, 42.40858654740591 ], [ 117.315637989651634, 42.408609062123382 ], [ 117.315631913352902, 42.408609078853139 ], [ 117.315631981077956, 42.408622587683595 ], [ 117.315613752177782, 42.408622637870941 ], [ 117.315613774751512, 42.408627140814438 ], [ 117.315632003652965, 42.408627090627064 ], [ 117.315632026228016, 42.40863159357054 ], [ 117.315638102528936, 42.408631576840783 ], [ 117.315638147679877, 42.408640582727713 ] ] ] } },
{ "type": "Feature", "properties": { "crown_id": 4877, "tree_id": "4879", "top_h_m": 20.516, "H_95_Mean": 20.2817, "DBH": 28.5395, "Carbon_kg": 155.234179, "area_m2": 16.5 }, "geometry": { "type": "Polygon", "coordinates": [ [ [ 117.315893329756506, 42.408635376843151 ], [ 117.315899406057653, 42.408635360099538 ], [ 117.315899383463474, 42.408630857156183 ], [ 117.31591153606486, 42.408630823667984 ], [ 117.315911490874797, 42.408621817781274 ], [ 117.31592364347442, 42.408621784291803 ], [ 117.315923620878536, 42.408617281348455 ], [ 117.315935773477278, 42.408617247857698 ], [ 117.315935705687039, 42.408603739027626 ], [ 117.315941781985074, 42.408603722281775 ], [ 117.315941714193613, 42.408590213451681 ], [ 117.315935637896871, 42.408590230197525 ], [ 117.315935524913343, 42.408567715480629 ], [ 117.31592944861876, 42.408567732226132 ], [ 117.315929426022493, 42.408563229282734 ], [ 117.315923349728337, 42.408563246027924 ], [ 117.315923372324164, 42.408567748971322 ], [ 117.315917296029554, 42.408567765716178 ], [ 117.315917318624955, 42.408572268659583 ], [ 117.315911242329946, 42.408572285404119 ], [ 117.315911355304792, 42.408594800121065 ], [ 117.315905279007595, 42.408594816865303 ], [ 117.315905324196706, 42.408603822752063 ], [ 117.315899247898614, 42.408603839495974 ], [ 117.315899338275173, 42.408621851269459 ], [ 117.315893261975347, 42.408621868013064 ], [ 117.315893329756506, 42.408635376843151 ] ] ] } },
{ "type": "Feature", "properties": { "crown_id": 4891, "tree_id": "4893", "top_h_m": 20.409, "H_95_Mean": 20.5882, "DBH": 27.8023, "Carbon_kg": 148.570577, "area_m2": 14.5 }, "geometry": { "type": "Polygon", "coordinates": [ [ [ 117.315759560793722, 42.408617733347555 ], [ 117.315789942291204, 42.408617649661728 ], [ 117.315789919704883, 42.408613146718317 ], [ 117.315795996003928, 42.408613129980182 ], [ 117.315795928243702, 42.408599621149932 ], [ 117.315789851945965, 42.408599637888045 ], [ 117.315789784187075, 42.408586129057753 ], [ 117.315783707890631, 42.408586145795539 ], [ 117.315783685304808, 42.408581642852106 ], [ 117.315777609008791, 42.408581659589565 ], [ 117.315777586423366, 42.408577156646118 ], [ 117.315771510127789, 42.408577173383257 ], [ 117.315771487542833, 42.408572670439803 ], [ 117.315759334952517, 42.408572703913116 ], [ 117.315759357536606, 42.40857720685657 ], [ 117.315741128649805, 42.408577257064131 ], [ 117.315741173815383, 42.408586262951061 ], [ 117.315753326408355, 42.408586229479674 ], [ 117.315753439326798, 42.408608744196883 ], [ 117.315759515625444, 42.408608727460695 ], [ 117.315759560793722, 42.408617733347555 ] ] ] } },
{ "type": "Feature", "properties": { "crown_id": 4901, "tree_id": "4903", "top_h_m": 20.872, "H_95_Mean": 20.7534, "DBH": 28.3914, "Carbon_kg": 155.718035, "area_m2": 15.5 }, "geometry": { "type": "Polygon", "coordinates": [ [ [ 117.315953957179218, 42.408608191732441 ], [ 117.316008643865246, 42.408608040999454 ], [ 117.316008598661355, 42.4085990351128 ], [ 117.316002522363789, 42.40859905186219 ], [ 117.316002499762291, 42.408594548918856 ], [ 117.315990347168025, 42.408594582416669 ], [ 117.315990301966778, 42.408585576529966 ], [ 117.315978149374217, 42.408585610026485 ], [ 117.315978104174718, 42.40857660413976 ], [ 117.315972027879297, 42.408576620887537 ], [ 117.315972005280003, 42.408572117944168 ], [ 117.315965928985023, 42.408572134691617 ], [ 117.315965906386154, 42.408567631748234 ], [ 117.315947677502479, 42.408567681988643 ], [ 117.31594770010004, 42.408572184932012 ], [ 117.315941623805031, 42.408572201678176 ], [ 117.315941691596464, 42.408585710508312 ], [ 117.315947767892752, 42.408585693762149 ], [ 117.315947858283124, 42.40860370553559 ], [ 117.315953934581174, 42.4086036887891 ], [ 117.315953957179218, 42.408608191732441 ] ] ] } },
{ "type": "Feature", "properties": { "crown_id": 4908, "tree_id": "4910", "top_h_m": 22.772, "H_95_Mean": 22.5205, "DBH": 34.6777, "Carbon_kg": 244.569093, "area_m2": 29.0 }, "geometry": { "type": "Polygon", "coordinates": [ [ [ 117.315601622150481, 42.408627174271054 ], [ 117.315607698450989, 42.408627157542909 ], [ 117.315607653304411, 42.408618151655922 ], [ 117.315625882203307, 42.40861810146955 ], [ 117.315625814479574, 42.40860459263908 ], [ 117.31563189077788, 42.408604575909663 ], [ 117.315631755327956, 42.408577558248631 ], [ 117.315619602736518, 42.408577591707136 ], [ 117.31561955758832, 42.408568585820099 ], [ 117.315613481293482, 42.408568602548854 ], [ 117.31561345871981, 42.408564099605329 ], [ 117.31558307724768, 42.408564183244287 ], [ 117.315583122390635, 42.408573189131374 ], [ 117.315577046095342, 42.408573205858204 ], [ 117.315577091237458, 42.408582211745291 ], [ 117.315571014941284, 42.408582228471801 ], [ 117.315571037511916, 42.408586731415333 ], [ 117.315558884918659, 42.408586764867401 ], [ 117.315558952627981, 42.408600273698006 ], [ 117.315565028925917, 42.408600256972129 ], [ 117.31556507406637, 42.408609262859166 ], [ 117.315571150365173, 42.408609246132954 ], [ 117.315571195506507, 42.40861825201997 ], [ 117.315589424405474, 42.40861820183941 ], [ 117.315589446977469, 42.408622704782893 ], [ 117.315601599577619, 42.408622671327578 ], [ 117.315601622150481, 42.408627174271054 ] ] ] } },
{ "type": "Feature", "properties": { "crown_id": 4909, "tree_id": "4911", "top_h_m": 22.214, "H_95_Mean": 21.9987, "DBH": 29.7739, "Carbon_kg": 177.388364, "area_m2": 16.75 }, "geometry": { "type": "Polygon", "coordinates": [ [ [ 117.315814247489072, 42.408617582707279 ], [ 117.315838552686884, 42.408617515747672 ], [ 117.315838530097082, 42.408613012804274 ], [ 117.315844606396098, 42.408612996063567 ], [ 117.315844561215656, 42.408603990176772 ], [ 117.315850637513776, 42.40860397343576 ], [ 117.315850547151214, 42.408585961662133 ], [ 117.315844470854827, 42.408585978403138 ], [ 117.31584440308427, 42.408572469572881 ], [ 117.315826174198975, 42.408572519793964 ], [ 117.315826196787853, 42.408577022737383 ], [ 117.315820120492305, 42.408577039477109 ], [ 117.315820143080757, 42.408581542420542 ], [ 117.3157958378968, 42.408581609376206 ], [ 117.315795905656955, 42.408595118206506 ], [ 117.315801981954266, 42.408595101468066 ], [ 117.315802072302958, 42.408613113241742 ], [ 117.315814224901033, 42.408613079763867 ], [ 117.315814247489072, 42.408617582707279 ] ] ] } },
{ "type": "Feature", "properties": { "crown_id": 4910, "tree_id": "4912", "top_h_m": 20.86, "H_95_Mean": 20.6791, "DBH": 33.3809, "Carbon_kg": 215.342242, "area_m2": 29.25 }, "geometry": { "type": "Polygon", "coordinates": [ [ [ 117.315881131968524, 42.408626404442693 ], [ 117.315887208268805, 42.408626387699734 ], [ 117.315887163082223, 42.408617381812995 ], [ 117.315893239381623, 42.408617365069702 ], [ 117.315893149006854, 42.408599353296204 ], [ 117.315899225304491, 42.408599336552605 ], [ 117.315899180116261, 42.408590330665831 ], [ 117.315905256413032, 42.40859031392192 ], [ 117.315905143440361, 42.408567799204945 ], [ 117.315911219734971, 42.408567782460729 ], [ 117.315911197140039, 42.408563279517324 ], [ 117.315917273434181, 42.40856326277278 ], [ 117.315917228243421, 42.408554256885971 ], [ 117.315892923070223, 42.408554323862184 ], [ 117.315892900476598, 42.408549820918758 ], [ 117.315862519012157, 42.408549904631776 ], [ 117.315862564195086, 42.408558910518629 ], [ 117.315856487901314, 42.408558927260273 ], [ 117.315856510492338, 42.408563430203706 ], [ 117.31585043419814, 42.408563446945031 ], [ 117.315850524560602, 42.408581458718722 ], [ 117.315856600856549, 42.40858144197739 ], [ 117.315856736402992, 42.408608459637797 ], [ 117.315850660104431, 42.408608476379143 ], [ 117.315850682695071, 42.408612979322541 ], [ 117.315868911592062, 42.408612929097515 ], [ 117.315868934184024, 42.408617432040913 ], [ 117.315875010483424, 42.408617415298586 ], [ 117.315875033075841, 42.408621918241955 ], [ 117.315881109375695, 42.408621901499323 ], [ 117.315881131968524, 42.408626404442693 ] ] ] } },
{ "type": "Feature", "properties": { "crown_id": 4946, "tree_id": "4948", "top_h_m": 21.177, "H_95_Mean": 21.0566, "DBH": 23.5049, "Carbon_kg": 107.333946, "area_m2": 7.25 }, "geometry": { "type": "Polygon", "coordinates": [ [ [ 117.315783662718943, 42.408577139908658 ], [ 117.31581404419677, 42.408577056216501 ], [ 117.315814021608759, 42.408572553273061 ], [ 117.315820097903881, 42.408572536533676 ], [ 117.315820075315429, 42.408568033590242 ], [ 117.31580792272608, 42.4085680670687 ], [ 117.315807900138509, 42.408563564125252 ], [ 117.315789671255729, 42.408563614340515 ], [ 117.315789648669465, 42.408559111397061 ], [ 117.315783572375651, 42.408559128134826 ], [ 117.315783549789813, 42.408554625191364 ], [ 117.31575924461616, 42.408554692139234 ], [ 117.315759312368414, 42.408568200969647 ], [ 117.315777541252572, 42.408568150759223 ], [ 117.315777563837969, 42.408572653702663 ], [ 117.31578364013312, 42.408572636965204 ], [ 117.315783662718943, 42.408577139908658 ] ] ] } },
{ "type": "Feature", "properties": { "crown_id": 4947, "tree_id": "4949", "top_h_m": 21.746, "H_95_Mean": 21.8098, "DBH": 31.9952, "Carbon_kg": 204.029126, "area_m2": 22.5 }, "geometry": { "type": "Polygon", "coordinates": [ [ [ 117.316008576059417, 42.408594532169467 ], [ 117.316014652356543, 42.40859451541975 ], [ 117.316014629754179, 42.408590012476417 ], [ 117.316026782347507, 42.408589978976032 ], [ 117.316026759744275, 42.408585476032698 ], [ 117.316020683448045, 42.408585492783047 ], [ 117.316020660845268, 42.408580989839706 ], [ 117.316032813436848, 42.408580956338689 ], [ 117.31603274562589, 42.408567447508659 ], [ 117.316026669331393, 42.40856746425932 ], [ 117.316026601521784, 42.408553955429262 ], [ 117.316032677814974, 42.408553938678601 ], [ 117.316032655211359, 42.408549435735246 ], [ 117.316026578918596, 42.408549452485893 ], [ 117.316026556315421, 42.408544949542531 ], [ 117.31602048002307, 42.408544966292851 ], [ 117.316020457420322, 42.408540463349482 ], [ 117.316014381128426, 42.408540480099482 ], [ 117.316014358526118, 42.408535977156106 ], [ 117.315990053360224, 42.408536044152889 ], [ 117.315990075960784, 42.408540547096273 ], [ 117.315983999668845, 42.40854056384466 ], [ 117.315984044869126, 42.408549569731449 ], [ 117.315977968576334, 42.408549586479516 ], [ 117.315977991176055, 42.4085540894229 ], [ 117.315965838589577, 42.40855412291809 ], [ 117.315965883787271, 42.408563128804865 ], [ 117.315971960081399, 42.408563112057429 ], [ 117.315971982680693, 42.408567615000798 ], [ 117.315978058975247, 42.408567598253036 ], [ 117.315978081574968, 42.408572101196405 ], [ 117.315984157869934, 42.408572084448309 ], [ 117.3159842030703, 42.408581090335034 ], [ 117.315996355661966, 42.408581056837889 ], [ 117.31599640086408, 42.408590062724578 ], [ 117.316008553457479, 42.408590029226126 ], [ 117.316008576059417, 42.408594532169467 ] ] ] } },
{ "type": "Feature", "properties": { "crown_id": 4972, "tree_id": "4974", "top_h_m": 17.874, "H_95_Mean": 17.5871, "DBH": 28.5447, "Carbon_kg": 142.734665, "area_m2": 21.5 }, "geometry": { "type": "Polygon", "coordinates": [ [ [ 117.315637854199053, 42.408582044462406 ], [ 117.315643930495199, 42.408582027732358 ], [ 117.315643907919338, 42.408577524788839 ], [ 117.315662136806395, 42.40857747459674 ], [ 117.315662069074989, 42.40856396576622 ], [ 117.315668145369358, 42.408563949034892 ], [ 117.315668100214239, 42.408554943147855 ], [ 117.315674176507727, 42.408554926416201 ], [ 117.315674153929734, 42.408550423472697 ], [ 117.315668077636673, 42.408550440204337 ], [ 117.315668032481582, 42.408541434317286 ], [ 117.315674108773791, 42.408541417585653 ], [ 117.315674063617834, 42.408532411698594 ], [ 117.315643682161166, 42.408532495353576 ], [ 117.315643704736956, 42.408536998297123 ], [ 117.315619399569783, 42.408537065215313 ], [ 117.31561942214384, 42.408541568158867 ], [ 117.315607269559351, 42.408541601616037 ], [ 117.315607292132569, 42.408546104559584 ], [ 117.315601215839891, 42.408546121287692 ], [ 117.31560123841264, 42.408550624231246 ], [ 117.315589085826403, 42.408550657686504 ], [ 117.315589130970196, 42.408559663573598 ], [ 117.315601283558195, 42.408559630118333 ], [ 117.315601260985417, 42.408555127174793 ], [ 117.315607337278962, 42.408555110446684 ], [ 117.315607359852194, 42.408559613390217 ], [ 117.315619512440136, 42.408559579933026 ], [ 117.315619535014235, 42.408564082876573 ], [ 117.315625611308647, 42.40856406614747 ], [ 117.315625656457698, 42.408573072034528 ], [ 117.315637809048226, 42.408573038575376 ], [ 117.315637854199053, 42.408582044462406 ] ] ] } },
{ "type": "Feature", "properties": { "crown_id": 4981, "tree_id": "4983", "top_h_m": 21.661, "H_95_Mean": 21.1923, "DBH": 30.8157, "Carbon_kg": 185.967166, "area_m2": 20.5 }, "geometry": { "type": "Polygon", "coordinates": [ [ [ 117.315826151610111, 42.408568016850523 ], [ 117.315844380494084, 42.408567966629448 ], [ 117.315844335313756, 42.408558960742589 ], [ 117.315850411607528, 42.408558944001591 ], [ 117.31585038901693, 42.408554441058165 ], [ 117.315856465310276, 42.40855442431684 ], [ 117.315856420128227, 42.408545418429966 ], [ 117.315850343835749, 42.40854543517127 ], [ 117.315850321245193, 42.40854093222783 ], [ 117.315844244953126, 42.40854094896882 ], [ 117.315844222362998, 42.408536446025359 ], [ 117.315838146071385, 42.408536462766016 ], [ 117.315838123481683, 42.408531959822561 ], [ 117.315832047190483, 42.408531976562898 ], [ 117.315832002011987, 42.408522970675968 ], [ 117.31582592572164, 42.408522987415964 ], [ 117.315825857955218, 42.40850947858555 ], [ 117.315807629088141, 42.408509528803606 ], [ 117.315807674263155, 42.408518534690586 ], [ 117.315801597973234, 42.408518551429303 ], [ 117.315801710908673, 42.408541066146697 ], [ 117.315789558324511, 42.408541099623186 ], [ 117.31578962608323, 42.408554608453592 ], [ 117.315795702376619, 42.408554591715507 ], [ 117.315795724963309, 42.408559094658955 ], [ 117.315813953844753, 42.408559044442732 ], [ 117.31581397643275, 42.40856354738618 ], [ 117.315826129021232, 42.408563513907083 ], [ 117.315826151610111, 42.408568016850523 ] ] ] } },
{ "type": "Feature", "properties": { "crown_id": 4988, "tree_id": "4990", "top_h_m": 18.367, "H_95_Mean": 18.197, "DBH": 30.3947, "Carbon_kg": 165.292658, "area_m2": 25.75 }, "geometry": { "type": "Polygon", "coordinates": [ [ [ 117.315741106067009, 42.408572754120669 ], [ 117.315753258657338, 42.408572720649289 ], [ 117.31575310057184, 42.408541200044944 ], [ 117.31574702427973, 42.408541216780776 ], [ 117.315746956530177, 42.408527707950284 ], [ 117.315740880239346, 42.40852772468579 ], [ 117.315740857656593, 42.408523221742279 ], [ 117.315734781366217, 42.408523238477457 ], [ 117.31573473620162, 42.408514232590434 ], [ 117.315728659912082, 42.408514249325279 ], [ 117.31572863733021, 42.408509746381746 ], [ 117.315710408462905, 42.408509796584362 ], [ 117.315710431043442, 42.408514299527901 ], [ 117.31570435475389, 42.40851431626146 ], [ 117.315704377334001, 42.408518819204993 ], [ 117.315698301044023, 42.408518835938231 ], [ 117.315698323623693, 42.408523338881757 ], [ 117.31569224733326, 42.408523355614683 ], [ 117.315692405388205, 42.408554876219306 ], [ 117.315698481681665, 42.408554859486372 ], [ 117.31569850426142, 42.408559362429862 ], [ 117.31570458055532, 42.408559345696595 ], [ 117.315704603135501, 42.408563848640107 ], [ 117.31572283201848, 42.408563798438365 ], [ 117.315722854599969, 42.408568301381841 ], [ 117.315741083484198, 42.408568251177194 ], [ 117.315741106067009, 42.408572754120669 ] ] ] } },
{ "type": "Feature", "properties": { "crown_id": 5009, "tree_id": "5012", "top_h_m": 21.381, "H_95_Mean": 21.152, "DBH": 28.4074, "Carbon_kg": 157.659016, "area_m2": 15.0 }, "geometry": { "type": "Polygon", "coordinates": [ [ [ 117.315935502316648, 42.408563212537224 ], [ 117.315959807493172, 42.408563145551973 ], [ 117.315959739697917, 42.408549636721823 ], [ 117.315971892283528, 42.408549603227272 ], [ 117.315971869684262, 42.408545100283881 ], [ 117.315977945976627, 42.408545083536133 ], [ 117.315977900777213, 42.408536077649345 ], [ 117.315983977068711, 42.40853606090127 ], [ 117.315983931868445, 42.408527055014481 ], [ 117.315929245252633, 42.408527205735446 ], [ 117.315929290445055, 42.408536211622291 ], [ 117.315923214153528, 42.408536228367467 ], [ 117.315923327132538, 42.408558743084519 ], [ 117.31593547971994, 42.408558709593827 ], [ 117.315935502316648, 42.408563212537224 ] ] ] } },
{ "type": "Feature", "properties": { "crown_id": 5024, "tree_id": "5027", "top_h_m": 20.865, "H_95_Mean": 20.3736, "DBH": 28.7118, "Carbon_kg": 157.549578, "area_m2": 16.75 }, "geometry": { "type": "MultiPolygon", "coordinates": [ [ [ [ 117.315740767325721, 42.408505209968219 ], [ 117.315740835073868, 42.40851871879876 ], [ 117.315746911363831, 42.408518702063269 ], [ 117.315746933947011, 42.40852320500678 ], [ 117.315753010237401, 42.408523188270955 ], [ 117.315753077988219, 42.408536697101447 ], [ 117.315759154279903, 42.408536680365302 ], [ 117.315759222032113, 42.408550189195765 ], [ 117.315783527204005, 42.40855012224791 ], [ 117.315783459446621, 42.408536613417475 ], [ 117.31579561202993, 42.408536579941632 ], [ 117.31579549909668, 42.40851406522421 ], [ 117.315801575386175, 42.40851404848582 ], [ 117.315801552799101, 42.40850954554233 ], [ 117.315777247642899, 42.408509612493951 ], [ 117.315777225057573, 42.408505109550447 ], [ 117.315740767325721, 42.408505209968219 ] ] ], [ [ [ 117.315740767325721, 42.408505209968219 ], [ 117.315740744742996, 42.408500707024693 ], [ 117.315734668454766, 42.40850072375985 ], [ 117.315734691037036, 42.408505226703376 ], [ 117.315740767325721, 42.408505209968219 ] ] ] ] } },
{ "type": "Feature", "properties": { "crown_id": 5025, "tree_id": "5028", "top_h_m": 19.846, "H_95_Mean": 19.6193, "DBH": 27.4114, "Carbon_kg": 140.331898, "area_m2": 15.0 }, "geometry": { "type": "Polygon", "coordinates": [ [ [ 117.315898976769475, 42.408549804175195 ], [ 117.315917205648063, 42.408549753942573 ], [ 117.315917115266629, 42.40853174216889 ], [ 117.315923191557729, 42.408531725424041 ], [ 117.315923168961945, 42.408527222480622 ], [ 117.315917092671285, 42.408527239225464 ], [ 117.31591697969462, 42.408504724508269 ], [ 117.315904827117606, 42.408504757996965 ], [ 117.315904849712041, 42.408509260940413 ], [ 117.315892697134146, 42.408509294427816 ], [ 117.315892719727714, 42.40851379737127 ], [ 117.315880567148923, 42.408513830857409 ], [ 117.315880657519827, 42.408531842631191 ], [ 117.315868504937541, 42.408531876116058 ], [ 117.315868527529403, 42.408536379059498 ], [ 117.31586245123782, 42.408536395801448 ], [ 117.315862496420692, 42.408545401688329 ], [ 117.31589895417541, 42.408545301231769 ], [ 117.315898976769475, 42.408549804175195 ] ] ] } },
{ "type": "Feature", "properties": { "crown_id": 5054, "tree_id": "5057", "top_h_m": 19.616, "H_95_Mean": 19.1479, "DBH": 33.1983, "Carbon_kg": 203.5012, "area_m2": 33.0 }, "geometry": { "type": "Polygon", "coordinates": [ [ [ 117.315558659221196, 42.408541735431847 ], [ 117.31558296439033, 42.40854166852651 ], [ 117.315582896675991, 42.40852815969582 ], [ 117.315588972966935, 42.408528142968677 ], [ 117.315588882679478, 42.408510131194362 ], [ 117.315582806390267, 42.408510147921483 ], [ 117.315582625819061, 42.40847412437266 ], [ 117.315570473247547, 42.4084741578259 ], [ 117.315570495818065, 42.408478660769518 ], [ 117.315564419531853, 42.408478677495651 ], [ 117.315564442101959, 42.408483180439276 ], [ 117.315558365815306, 42.40848319716509 ], [ 117.315558410954608, 42.408492203052319 ], [ 117.315546258379584, 42.408492236502994 ], [ 117.315546280948368, 42.408496739446612 ], [ 117.315509823220552, 42.408496839790914 ], [ 117.315509800654368, 42.408492336847281 ], [ 117.315503724366806, 42.408492353570196 ], [ 117.315503701801077, 42.408487850626564 ], [ 117.31549154922682, 42.408487884071434 ], [ 117.315491662051272, 42.408510398789616 ], [ 117.315509890919145, 42.408510348621789 ], [ 117.315509936051569, 42.408519354509025 ], [ 117.315522088631894, 42.408519321062187 ], [ 117.315522133766066, 42.40852832694938 ], [ 117.315540362639084, 42.4085282767767 ], [ 117.315540385207484, 42.408532779720304 ], [ 117.31555861408178, 42.408532729544696 ], [ 117.315558659221196, 42.408541735431847 ] ] ] } },
{ "type": "Feature", "properties": { "crown_id": 5055, "tree_id": "5058", "top_h_m": 21.541, "H_95_Mean": 21.4647, "DBH": 28.1014, "Carbon_kg": 155.599607, "area_m2": 14.0 }, "geometry": { "type": "Polygon", "coordinates": [ [ [ 117.315850298654595, 42.408536429284375 ], [ 117.315856374946208, 42.408536412543071 ], [ 117.315856352355212, 42.408531909599624 ], [ 117.315862428646355, 42.408531892858001 ], [ 117.315862406054933, 42.408527389914546 ], [ 117.315874558636395, 42.408527356430341 ], [ 117.315874490859514, 42.40851384759997 ], [ 117.31586841457009, 42.408513864342233 ], [ 117.315868346794559, 42.408500355511833 ], [ 117.315856194218313, 42.408500388995364 ], [ 117.315856126445453, 42.408486880164915 ], [ 117.315831821298104, 42.40848694712809 ], [ 117.315831843887324, 42.408491450071587 ], [ 117.315825767600046, 42.408491466811569 ], [ 117.315825835366411, 42.40850497564206 ], [ 117.315831911654996, 42.408504958902043 ], [ 117.315831979422711, 42.408518467732492 ], [ 117.315838055712618, 42.408518450992169 ], [ 117.315838100891995, 42.408527456879092 ], [ 117.315844177182726, 42.408527440138442 ], [ 117.315844199772869, 42.408531943081904 ], [ 117.31585027606404, 42.40853192634092 ], [ 117.315850298654595, 42.408536429284375 ] ] ] } },
{ "type": "Feature", "properties": { "crown_id": 5065, "tree_id": "5068", "top_h_m": 19.367, "H_95_Mean": 19.0741, "DBH": 32.4027, "Carbon_kg": 193.349283, "area_m2": 30.25 }, "geometry": { "type": "Polygon", "coordinates": [ [ [ 117.315589063254478, 42.408546154742936 ], [ 117.315595139547185, 42.408546138015474 ], [ 117.315595116974862, 42.40854163507192 ], [ 117.315601193267113, 42.408541618344145 ], [ 117.31560117069435, 42.408537115400584 ], [ 117.315613323277972, 42.408537081944061 ], [ 117.315613300704356, 42.408532579000514 ], [ 117.315637605869824, 42.40853251208361 ], [ 117.315637583294475, 42.408528009140056 ], [ 117.315655812167208, 42.408527958949001 ], [ 117.315655767013894, 42.408518953061915 ], [ 117.315661843303914, 42.408518936330921 ], [ 117.315661820726845, 42.408514433387381 ], [ 117.315649668147643, 42.408514466849027 ], [ 117.31564964557144, 42.408509963905466 ], [ 117.315643569282273, 42.408509980635806 ], [ 117.315643501555002, 42.408496471805108 ], [ 117.315637425267113, 42.408496488535121 ], [ 117.315637357541192, 42.408482979704381 ], [ 117.315625204968029, 42.408483013163412 ], [ 117.315625159819191, 42.408474007276219 ], [ 117.315619083533463, 42.408474024005251 ], [ 117.315619060959492, 42.408469521061654 ], [ 117.315588679533008, 42.408469604701963 ], [ 117.315588860107624, 42.408505628250779 ], [ 117.315594936396408, 42.408505611523339 ], [ 117.315595071830231, 42.408532629184798 ], [ 117.315588995538818, 42.40853264591226 ], [ 117.315589063254478, 42.408546154742936 ] ] ] } },
{ "type": "Feature", "properties": { "crown_id": 5066, "tree_id": "5069", "top_h_m": 22.601, "H_95_Mean": 22.1431, "DBH": 33.0262, "Carbon_kg": 219.456714, "area_m2": 24.75 }, "geometry": { "type": "Polygon", "coordinates": [ [ [ 117.315923146366188, 42.408522719537189 ], [ 117.31598390926834, 42.408522552071076 ], [ 117.315983728467558, 42.408486528523731 ], [ 117.315977652180848, 42.408486545271764 ], [ 117.315977629581212, 42.408482042328338 ], [ 117.315971553294915, 42.40848205907605 ], [ 117.315971530695734, 42.408477556132603 ], [ 117.315965454409877, 42.408477572880003 ], [ 117.315965409212353, 42.408468566993093 ], [ 117.315959332927363, 42.408468583740152 ], [ 117.315959355525663, 42.408473086683614 ], [ 117.315953279240247, 42.408473103430353 ], [ 117.315953324436023, 42.408482109317255 ], [ 117.315935095577103, 42.408482159555568 ], [ 117.315935118173698, 42.40848666249903 ], [ 117.315910813026633, 42.408486729478945 ], [ 117.315910880811231, 42.408500238309315 ], [ 117.315923033387392, 42.408500204819994 ], [ 117.315923146366188, 42.408522719537189 ] ] ] } },
{ "type": "Feature", "properties": { "crown_id": 5067, "tree_id": "5070", "top_h_m": 21.46, "H_95_Mean": 21.6217, "DBH": 27.9354, "Carbon_kg": 154.416781, "area_m2": 13.5 }, "geometry": { "type": "Polygon", "coordinates": [ [ [ 117.315990030759636, 42.408531541209491 ], [ 117.316014335923825, 42.40853147421273 ], [ 117.316014290719238, 42.408522468325955 ], [ 117.316032519589697, 42.408522418075002 ], [ 117.316032383968235, 42.408495400414644 ], [ 117.316020231393125, 42.408495433915562 ], [ 117.316020208790434, 42.40849093097215 ], [ 117.315989827354784, 42.408491014718798 ], [ 117.315989917756895, 42.408509026492474 ], [ 117.315995994045778, 42.408509009743781 ], [ 117.31599601664675, 42.408513512687193 ], [ 117.315989940357426, 42.408513529435893 ], [ 117.315990030759636, 42.408531541209491 ] ] ] } },
{ "type": "Feature", "properties": { "crown_id": 5100, "tree_id": "5103", "top_h_m": 17.283, "H_95_Mean": 17.2896, "DBH": 27.2367, "Carbon_kg": 128.555193, "area_m2": 18.5 }, "geometry": { "type": "Polygon", "coordinates": [ [ [ 117.315667919593949, 42.408518919599615 ], [ 117.31568007217399, 42.408518886136029 ], [ 117.315680049595613, 42.40851438319249 ], [ 117.315692202174745, 42.408514349727625 ], [ 117.315692179595516, 42.408509846784085 ], [ 117.315698255884655, 42.408509830051159 ], [ 117.315698210725301, 42.408500824164079 ], [ 117.315692134437029, 42.408500840896984 ], [ 117.315692111857814, 42.408496337953444 ], [ 117.315679959282136, 42.408496371418295 ], [ 117.315679868968758, 42.408478359644036 ], [ 117.315673792682645, 42.408478376375967 ], [ 117.315673770104752, 42.408473873432385 ], [ 117.315667693819066, 42.408473890163989 ], [ 117.315667648664146, 42.408464884276832 ], [ 117.315661572379341, 42.408464901008102 ], [ 117.315661549802329, 42.408460398064513 ], [ 117.315637244664757, 42.408460464986412 ], [ 117.315637267240035, 42.408464967930001 ], [ 117.315631190955187, 42.408464984659673 ], [ 117.315631258679758, 42.40847849349047 ], [ 117.31564341125204, 42.408478460030786 ], [ 117.315643478979254, 42.408491968861533 ], [ 117.315649555266688, 42.408491952131193 ], [ 117.315649622995252, 42.408505460961898 ], [ 117.31565569928398, 42.408505444231253 ], [ 117.315655721860622, 42.408509947174799 ], [ 117.31566787443893, 42.408509913712521 ], [ 117.315667919593949, 42.408518919599615 ] ] ] } },
{ "type": "Feature", "properties": { "crown_id": 5116, "tree_id": "5119", "top_h_m": 23.06, "H_95_Mean": 22.5309, "DBH": 31.6201, "Carbon_kg": 203.10711, "area_m2": 20.25 }, "geometry": { "type": "Polygon", "coordinates": [ [ [ 117.315783301346173, 42.408505092813023 ], [ 117.31581975907784, 42.408504992381722 ], [ 117.315819668724401, 42.408486980607741 ], [ 117.315825745011281, 42.408486963868079 ], [ 117.315825722422503, 42.408482460924581 ], [ 117.315819646136077, 42.408482477664236 ], [ 117.315819623547739, 42.408477974720739 ], [ 117.31580747097577, 42.40847800819909 ], [ 117.315807448388298, 42.408473505255571 ], [ 117.315795295817182, 42.408473538732629 ], [ 117.315795273230577, 42.408469035789103 ], [ 117.315783120660313, 42.408469069264868 ], [ 117.31578309807459, 42.408464566321335 ], [ 117.31576486922043, 42.408464616532562 ], [ 117.315764914389263, 42.408473622419642 ], [ 117.315758838103662, 42.408473639156078 ], [ 117.315758883271641, 42.408482645043158 ], [ 117.315746730698677, 42.408482678515085 ], [ 117.315746821031212, 42.408500690289202 ], [ 117.315783278760449, 42.408500589869519 ], [ 117.315783301346173, 42.408505092813023 ] ] ] } }
]
}
