{
"type": "FeatureCollection",
"name": "tile_5_17",
"crs": { "type": "name", "properties": { "name": "urn:ogc:def:crs:OGC:1.3:CRS84" } },
"features": [
{ "type": "Feature", "properties": { "crown_id": 1206, "tree_id": "1206", "top_h_m": 21.505, "H_95_Mean": 21.5232, "DBH": 26.1277, "Carbon_kg": 134.57493, "area_m2": 10.5 }, "geometry": { "type": "Polygon", "coordinates": [ [ [ 117.313898253265307, 42.41066720918549 ], [ 117.313904329763702, 42.410667192546967 ], [ 117.313904284857571, 42.410658186661728 ], [ 117.313910361355099, 42.410658170022899 ], [ 117.313910316448144, 42.410649164137659 ], [ 117.313916392944805, 42.410649147498511 ], [ 117.313916348036969, 42.410640141613264 ], [ 117.313928501028514, 42.410640108334007 ], [ 117.313928456118987, 42.410631102448747 ], [ 117.313885920654556, 42.410631218920443 ], [ 117.313885965558001, 42.410640224805739 ], [ 117.313879889062179, 42.410640241443275 ], [ 117.313879933964799, 42.410649247328557 ], [ 117.31387385746811, 42.410649263965773 ], [ 117.313873902369878, 42.410658269851041 ], [ 117.313886055364961, 42.410658236576289 ], [ 117.313886077816719, 42.410662739518905 ], [ 117.313898230812669, 42.410662706242853 ], [ 117.313898253265307, 42.41066720918549 ] ] ] } },
{ "type": "Feature", "properties": { "crown_id": 1265, "tree_id": "1265", "top_h_m": 25.929, "H_95_Mean": 25.6261, "DBH": 34.2147, "Carbon_kg": 256.932837, "area_m2": 21.75 }, "geometry": { "type": "Polygon", "coordinates": [ [ [ 117.314043976910312, 42.410644295059477 ], [ 117.314080435886851, 42.410644195177277 ], [ 117.314080413421223, 42.410639692234717 ], [ 117.314092566412498, 42.410639658938081 ], [ 117.314092543945989, 42.410635155995529 ], [ 117.314098620441186, 42.410635139346724 ], [ 117.314098597974251, 42.410630636404157 ], [ 117.314104674469007, 42.41063061975504 ], [ 117.314104562132229, 42.410608105042215 ], [ 117.314037720713557, 42.410608288164674 ], [ 117.314037743176101, 42.410612791107276 ], [ 117.31404381966918, 42.410612774461384 ], [ 117.314043842132165, 42.410617277403986 ], [ 117.314031689145182, 42.410617310695443 ], [ 117.314031734069445, 42.410626316580633 ], [ 117.314025657575073, 42.410626333225885 ], [ 117.314025724960231, 42.410639842053655 ], [ 117.314043954447271, 42.410639792116903 ], [ 117.314043976910312, 42.410644295059477 ] ] ] } },
{ "type": "Feature", "properties": { "crown_id": 1287, "tree_id": "1287", "top_h_m": 23.549, "H_95_Mean": 23.2862, "DBH": 34.1657, "Carbon_kg": 242.086145, "area_m2": 25.75 }, "geometry": { "type": "Polygon", "coordinates": [ [ [ 117.313946752971901, 42.41064456135534 ], [ 117.313977135452802, 42.410644478146736 ], [ 117.313977090536298, 42.410635472261532 ], [ 117.313989243526876, 42.410635438975852 ], [ 117.313989176149548, 42.410621930148025 ], [ 117.313995252643551, 42.410621913504706 ], [ 117.31399516280544, 42.410603901734234 ], [ 117.313983009820944, 42.410603935020525 ], [ 117.313982987362309, 42.410599432077895 ], [ 117.313940451919478, 42.410599548569749 ], [ 117.313940429463898, 42.41059504562709 ], [ 117.31392827648105, 42.410595078907569 ], [ 117.313928298935764, 42.410599581850235 ], [ 117.313922222443921, 42.410599598490002 ], [ 117.313922312261127, 42.410617610260616 ], [ 117.313916235767522, 42.410617626900063 ], [ 117.313916280675286, 42.410626632785352 ], [ 117.313934510158688, 42.410626582866023 ], [ 117.313934577524293, 42.410640091693907 ], [ 117.313946730515809, 42.410640058412724 ], [ 117.313946752971901, 42.41064456135534 ] ] ] } },
{ "type": "Feature", "properties": { "crown_id": 1320, "tree_id": "1320", "top_h_m": 23.955, "H_95_Mean": 23.6854, "DBH": 32.5767, "Carbon_kg": 222.151525, "area_m2": 20.75 }, "geometry": { "type": "Polygon", "coordinates": [ [ [ 117.313885898202841, 42.410626715977791 ], [ 117.313910204180786, 42.410626649424479 ], [ 117.313910136820468, 42.410613140596531 ], [ 117.313916213313632, 42.410613123957404 ], [ 117.313916145952035, 42.410599615129435 ], [ 117.313910069460178, 42.410599631768555 ], [ 117.313910024553323, 42.410590625883216 ], [ 117.313903948062332, 42.410590642522003 ], [ 117.313903925609338, 42.41058613957933 ], [ 117.31389784911876, 42.410586156217803 ], [ 117.31389778176117, 42.410572647389742 ], [ 117.313867399314731, 42.410572730577194 ], [ 117.313867421765067, 42.410577233519895 ], [ 117.313849192295834, 42.410577283428516 ], [ 117.313849214744877, 42.41058178637121 ], [ 117.313855291235086, 42.410581769735344 ], [ 117.313855336134054, 42.410590775620733 ], [ 117.313861412625116, 42.410590758984519 ], [ 117.313861479974946, 42.41060426781258 ], [ 117.313873632959641, 42.410604234539178 ], [ 117.313873722762963, 42.410622246309856 ], [ 117.313885875751126, 42.410622213035133 ], [ 117.313885898202841, 42.410626715977791 ] ] ] } },
{ "type": "Feature", "properties": { "crown_id": 1334, "tree_id": "1334", "top_h_m": 23.096, "H_95_Mean": 22.9399, "DBH": 33.4051, "Carbon_kg": 229.305618, "area_m2": 24.25 }, "geometry": { "type": "Polygon", "coordinates": [ [ [ 117.314043774743183, 42.410603768576188 ], [ 117.314110616157052, 42.410603585450218 ], [ 117.314110593689279, 42.410599082507638 ], [ 117.314116670180979, 42.410599065857895 ], [ 117.31411664771278, 42.410594562915307 ], [ 117.314110571221505, 42.41059457956505 ], [ 117.314110413947304, 42.410563058966886 ], [ 117.314080031506094, 42.410563142210691 ], [ 117.314080009040538, 42.410558639268061 ], [ 117.314073932552731, 42.410558655915864 ], [ 117.314073955017832, 42.410563158858487 ], [ 117.314067878529556, 42.410563175505956 ], [ 117.31406790099426, 42.410567678448572 ], [ 117.314055748016855, 42.410567711742559 ], [ 117.314055792944501, 42.410576717627798 ], [ 117.314049716454917, 42.410576734274315 ], [ 117.3140497389183, 42.410581237216938 ], [ 117.314037585938266, 42.410581270509006 ], [ 117.314037608400781, 42.410585773451622 ], [ 117.314031531910331, 42.410585790097173 ], [ 117.314031554372434, 42.410590293039796 ], [ 117.314037630863339, 42.410590276394231 ], [ 117.314037675788427, 42.41059928227947 ], [ 117.314043752280199, 42.410599265633586 ], [ 117.314043774743183, 42.410603768576188 ] ] ] } },
{ "type": "Feature", "properties": { "crown_id": 1349, "tree_id": "1349", "top_h_m": 23.369, "H_95_Mean": 23.1027, "DBH": 31.2592, "Carbon_kg": 201.425621, "area_m2": 18.5 }, "geometry": { "type": "MultiPolygon", "coordinates": [ [ [ [ 117.313995140345924, 42.410599398791611 ], [ 117.313995072967415, 42.410585889963706 ], [ 117.313982919986415, 42.410585923249982 ], [ 117.313982807693364, 42.410563408536717 ], [ 117.313976731205017, 42.410563425179348 ], [ 117.313976686288697, 42.410554419294016 ], [ 117.313952380338776, 42.410554485861326 ], [ 117.313952357882357, 42.410549982918653 ], [ 117.313946281395289, 42.410549999559663 ], [ 117.313946258939325, 42.410545496616983 ], [ 117.313928029479413, 42.410545546538103 ], [ 117.31392805193407, 42.410550049480797 ], [ 117.313934128421138, 42.410550032840739 ], [ 117.313934150876264, 42.41055453578344 ], [ 117.313940227363773, 42.410554519143048 ], [ 117.313940317185995, 42.410572530913768 ], [ 117.313934240696753, 42.410572547554167 ], [ 117.313934285607033, 42.410581553439513 ], [ 117.313940362097128, 42.410581536799121 ], [ 117.313940407008289, 42.410590542684439 ], [ 117.313946483499279, 42.41059052604372 ], [ 117.3139465059553, 42.410595028986364 ], [ 117.313989041395047, 42.410594912492272 ], [ 117.313989063854123, 42.410599415434923 ], [ 117.313995140345924, 42.410599398791611 ] ] ], [ [ [ 117.314007338250278, 42.410608371389266 ], [ 117.314007315789894, 42.410603868446657 ], [ 117.314001239297681, 42.410603885090602 ], [ 117.31400126175761, 42.410608388033218 ], [ 117.314007338250278, 42.410608371389266 ] ] ] ] } },
{ "type": "Feature", "properties": { "crown_id": 1367, "tree_id": "1367", "top_h_m": 19.559, "H_95_Mean": 19.627, "DBH": 23.1276, "Carbon_kg": 99.658127, "area_m2": 7.75 }, "geometry": { "type": "Polygon", "coordinates": [ [ [ 117.313916123498188, 42.410595112186769 ], [ 117.313922199989605, 42.410595095547336 ], [ 117.313922177535318, 42.41059059260467 ], [ 117.313934330517327, 42.410590559324831 ], [ 117.313934308062159, 42.410586056382179 ], [ 117.313928231571623, 42.410586073022259 ], [ 117.313928141752811, 42.41056806125156 ], [ 117.313934218241613, 42.410568044611487 ], [ 117.313934173331361, 42.41055903872612 ], [ 117.313928096843426, 42.410559055366178 ], [ 117.31392807438877, 42.410554552423491 ], [ 117.313921997901232, 42.410554569063223 ], [ 117.313921975447002, 42.410550066120535 ], [ 117.313915898959905, 42.41055008275994 ], [ 117.313915921413709, 42.410554585702641 ], [ 117.313909844926172, 42.410554602341733 ], [ 117.313909912286334, 42.410568111169809 ], [ 117.313903835797504, 42.410568127808595 ], [ 117.313903903156387, 42.41058163663665 ], [ 117.31390997964651, 42.41058161999787 ], [ 117.313910002099931, 42.410586122940551 ], [ 117.313916078590481, 42.410586106301444 ], [ 117.313916123498188, 42.410595112186769 ] ] ] } },
{ "type": "Feature", "properties": { "crown_id": 1382, "tree_id": "1382", "top_h_m": 22.254, "H_95_Mean": 22.2148, "DBH": 28.4288, "Carbon_kg": 162.543916, "area_m2": 13.75 }, "geometry": { "type": "Polygon", "coordinates": [ [ [ 117.314013392282135, 42.410603851802378 ], [ 117.314025545266574, 42.410603818512875 ], [ 117.314025522804883, 42.410599315570266 ], [ 117.314019446313111, 42.410599332215178 ], [ 117.31401942385186, 42.410594829272547 ], [ 117.314025500343206, 42.410594812627636 ], [ 117.314025432958189, 42.410581303799759 ], [ 117.314031509448242, 42.41058128715455 ], [ 117.314031464524049, 42.410572281269289 ], [ 117.314025388034892, 42.410572297914513 ], [ 117.314025365573229, 42.410567794971861 ], [ 117.314019289084499, 42.410567811616758 ], [ 117.314019199239681, 42.410549799846166 ], [ 117.314000969778675, 42.410549849778889 ], [ 117.314000992238562, 42.410554352721554 ], [ 117.313982762776178, 42.410554402651385 ], [ 117.313982785234757, 42.410558905594051 ], [ 117.313988861722663, 42.410558888951087 ], [ 117.313988974017875, 42.410581403664359 ], [ 117.314001126997994, 42.41058137037745 ], [ 117.314001194377795, 42.410594879205348 ], [ 117.314007270869141, 42.410594862561403 ], [ 117.314007293329524, 42.410599365504034 ], [ 117.314013369821311, 42.410599348859762 ], [ 117.314013392282135, 42.410603851802378 ] ] ] } },
{ "type": "Feature", "properties": { "crown_id": 1425, "tree_id": "1425", "top_h_m": 19.807, "H_95_Mean": 19.5348, "DBH": 31.8274, "Carbon_kg": 189.143931, "area_m2": 27.0 }, "geometry": { "type": "Polygon", "coordinates": [ [ [ 117.314037563475736, 42.410576767566369 ], [ 117.31404363996532, 42.410576750920505 ], [ 117.314043617502364, 42.410572247977875 ], [ 117.314049693991521, 42.410572231331685 ], [ 117.314049649064756, 42.410563225446431 ], [ 117.314061802041294, 42.410563192153106 ], [ 117.314061779577059, 42.410558689210461 ], [ 117.314067856064895, 42.410558672563312 ], [ 117.314067833600205, 42.410554169620688 ], [ 117.31407998657501, 42.410554136325445 ], [ 117.314079806850827, 42.410518112784303 ], [ 117.314085883334741, 42.410518096136215 ], [ 117.314085860868801, 42.410513593193571 ], [ 117.314067631418382, 42.410513643136852 ], [ 117.314067608953735, 42.410509140194186 ], [ 117.314037226538431, 42.410509223426544 ], [ 117.314037249000876, 42.410513726369231 ], [ 117.314031172517375, 42.410513743014739 ], [ 117.314031194979393, 42.410518245957419 ], [ 117.314025118495451, 42.410518262602608 ], [ 117.31402518588024, 42.410531771430634 ], [ 117.314019109394962, 42.410531788075509 ], [ 117.314019176778501, 42.410545296903507 ], [ 117.314025253265072, 42.410545280258624 ], [ 117.314025343111595, 42.410563292029224 ], [ 117.314031419599885, 42.410563275384014 ], [ 117.314031442061975, 42.410567778326644 ], [ 117.314037518550705, 42.410567761681108 ], [ 117.314037563475736, 42.410576767566369 ] ] ] } },
{ "type": "Feature", "properties": { "crown_id": 1440, "tree_id": "1440", "top_h_m": 23.365, "H_95_Mean": 23.0559, "DBH": 35.7451, "Carbon_kg": 263.616912, "area_m2": 31.25 }, "geometry": { "type": "Polygon", "coordinates": [ [ [ 117.313837016868121, 42.410572813756602 ], [ 117.313861322825417, 42.41057274721372 ], [ 117.313861300375478, 42.410568244271005 ], [ 117.313897759308645, 42.410568144447041 ], [ 117.31389773685612, 42.410563641504346 ], [ 117.313903813344538, 42.410563624865901 ], [ 117.313903745985712, 42.41055011603779 ], [ 117.313909822472809, 42.410550099399039 ], [ 117.313909800019445, 42.410545596456323 ], [ 117.313921952992771, 42.410545563177827 ], [ 117.313921930538541, 42.410541060235126 ], [ 117.313903701079866, 42.410541110152373 ], [ 117.313903723532775, 42.410545613095088 ], [ 117.313885494072764, 42.410545663009451 ], [ 117.313885426717917, 42.410532154181283 ], [ 117.313879350232526, 42.41053217081874 ], [ 117.31387930533019, 42.410523164933274 ], [ 117.313873228845694, 42.410523181570404 ], [ 117.313873206394973, 42.410518678627668 ], [ 117.313867129910875, 42.410518695264486 ], [ 117.313867107460595, 42.410514192321735 ], [ 117.313854954493266, 42.410514225594405 ], [ 117.313854976942693, 42.410518728537156 ], [ 117.313848900458595, 42.410518745173007 ], [ 117.313848945356582, 42.410527751058503 ], [ 117.31383679238661, 42.41052778432924 ], [ 117.31383681483473, 42.410532287271991 ], [ 117.31383073834931, 42.410532303906884 ], [ 117.313830760797003, 42.410536806849642 ], [ 117.313812531339408, 42.410536856752387 ], [ 117.313812553785837, 42.410541359695138 ], [ 117.313806477299494, 42.410541376328752 ], [ 117.313806499745482, 42.41054587927151 ], [ 117.313812576232223, 42.410545862637889 ], [ 117.313812598678652, 42.41055036558064 ], [ 117.31381867516582, 42.4105503489467 ], [ 117.31381872005953, 42.410559354832174 ], [ 117.313830873035585, 42.410559321563333 ], [ 117.313830895483321, 42.410563824506063 ], [ 117.313836971971796, 42.410563807871156 ], [ 117.313837016868121, 42.410572813756602 ] ] ] } },
{ "type": "Feature", "properties": { "crown_id": 1467, "tree_id": "1467", "top_h_m": 22.127, "H_95_Mean": 21.8945, "DBH": 32.4149, "Carbon_kg": 209.939998, "area_m2": 23.5 }, "geometry": { "type": "Polygon", "coordinates": [ [ [ 117.313958434369397, 42.410549966277308 ], [ 117.31399489329165, 42.410549866422478 ], [ 117.313994870832204, 42.410545363479812 ], [ 117.314013100291945, 42.41054531354807 ], [ 117.314013010448988, 42.410527301777385 ], [ 117.314019086933811, 42.410527285132829 ], [ 117.314019019550329, 42.410513776304796 ], [ 117.314025096033859, 42.410513759659928 ], [ 117.314025028649127, 42.410500250831866 ], [ 117.314012875684682, 42.410500284121255 ], [ 117.314012830763289, 42.410491278235853 ], [ 117.314006754281948, 42.410491294880053 ], [ 117.31400677674219, 42.410495797822762 ], [ 117.313988547296773, 42.410495847753467 ], [ 117.313988569755736, 42.410500350696175 ], [ 117.3139824932735, 42.410500367339097 ], [ 117.313982515732008, 42.410504870281812 ], [ 117.31397643924933, 42.410504886924414 ], [ 117.313976484165536, 42.410513892809838 ], [ 117.313970407681978, 42.410513909452121 ], [ 117.313970475055001, 42.410527418280218 ], [ 117.313964398570121, 42.410527434922187 ], [ 117.313964443484636, 42.410536440807583 ], [ 117.313952290513143, 42.41053647409057 ], [ 117.313952335425938, 42.410545479975966 ], [ 117.31395841191258, 42.410545463334628 ], [ 117.313958434369397, 42.410549966277308 ] ] ] } },
{ "type": "Feature", "properties": { "crown_id": 1498, "tree_id": "1498", "top_h_m": 20.462, "H_95_Mean": 20.3174, "DBH": 28.3378, "Carbon_kg": 153.190178, "area_m2": 16.0 }, "geometry": { "type": "Polygon", "coordinates": [ [ [ 117.313891548107406, 42.410541143428937 ], [ 117.313897624593636, 42.410541126790804 ], [ 117.313897602141125, 42.410536623848095 ], [ 117.313921908084296, 42.410536557292417 ], [ 117.313921863175892, 42.410527551406993 ], [ 117.313915786690956, 42.410527568046383 ], [ 117.313915651968415, 42.410500550390012 ], [ 117.313909575486093, 42.410500567029075 ], [ 117.313909553032772, 42.410496064086324 ], [ 117.313897400069024, 42.410496097363477 ], [ 117.313897355164144, 42.410487091477961 ], [ 117.313879125721073, 42.410487141391251 ], [ 117.313879148172191, 42.410491644334009 ], [ 117.313873071690722, 42.41049166097114 ], [ 117.313873094141414, 42.410496163913912 ], [ 117.31386701765949, 42.410496180550709 ], [ 117.313867085010301, 42.410509689378983 ], [ 117.313873161493532, 42.410509672742172 ], [ 117.313873183944253, 42.410514175684924 ], [ 117.313879260427882, 42.410514159047793 ], [ 117.313879282879043, 42.41051866199053 ], [ 117.313885359363113, 42.410518645353072 ], [ 117.313885404266316, 42.410527651238546 ], [ 117.313891480751238, 42.410527634600754 ], [ 117.313891548107406, 42.410541143428937 ] ] ] } },
{ "type": "Feature", "properties": { "crown_id": 1499, "tree_id": "1499", "top_h_m": 23.476, "H_95_Mean": 23.0146, "DBH": 35.4922, "Carbon_kg": 259.595866, "area_m2": 30.5 }, "geometry": { "type": "Polygon", "coordinates": [ [ [ 117.313928007024742, 42.410541043595401 ], [ 117.313946236483361, 42.410540993674282 ], [ 117.313946191571432, 42.410531987788893 ], [ 117.313958344542073, 42.410531954506546 ], [ 117.313958299628439, 42.410522948621136 ], [ 117.313964376112892, 42.410522931979493 ], [ 117.313964308741163, 42.410509423151368 ], [ 117.31397038522428, 42.410509406509405 ], [ 117.31397034030897, 42.410500400623974 ], [ 117.313976416791235, 42.410500383981699 ], [ 117.313976394333139, 42.41049588103899 ], [ 117.313982470814963, 42.410495864396388 ], [ 117.313982448356427, 42.410491361453673 ], [ 117.314000677800578, 42.410491311523934 ], [ 117.314000655340749, 42.410486808581226 ], [ 117.313994578859834, 42.41048682522478 ], [ 117.313994556400431, 42.410482322282078 ], [ 117.313982403439425, 42.410482355568227 ], [ 117.313982380980917, 42.410477852625498 ], [ 117.313951998580464, 42.410477935835225 ], [ 117.313951976124144, 42.410473432892474 ], [ 117.313939823164787, 42.410473466174103 ], [ 117.313939800709335, 42.410468963231352 ], [ 117.31392764775083, 42.410468996511689 ], [ 117.313927692659988, 42.410478002397205 ], [ 117.313909463219588, 42.410478052315312 ], [ 117.31390948567288, 42.410482555258071 ], [ 117.313903409192292, 42.410482571896793 ], [ 117.313903454098039, 42.410491577782302 ], [ 117.313915607060906, 42.410491544504524 ], [ 117.313915629514653, 42.410496047447268 ], [ 117.31392170599652, 42.410496030807892 ], [ 117.313921840721662, 42.410523048464277 ], [ 117.313927917206129, 42.41052303182456 ], [ 117.313928007024742, 42.410541043595401 ] ] ] } }
]
}
