{
"type": "FeatureCollection",
"name": "tile_6_13",
"crs": { "type": "name", "properties": { "name": "urn:ogc:def:crs:OGC:1.3:CRS84" } },
"features": [
{ "type": "Feature", "properties": { "crown_id": 1589, "tree_id": "1589", "top_h_m": 23.033, "H_95_Mean": 22.8276, "DBH": 30.5282, "Carbon_kg": 190.688781, "area_m2": 17.25 }, "geometry": { "type": "Polygon", "coordinates": [ [ [ 117.313101403292833, 42.410502777153965 ], [ 117.313107479775837, 42.41050276055774 ], [ 117.313107434983962, 42.410493754671549 ], [ 117.313113511466085, 42.410493738075019 ], [ 117.313113489069721, 42.410489235131919 ], [ 117.31314994795973, 42.410489135545937 ], [ 117.313149791167092, 42.410457614944292 ], [ 117.313143714688465, 42.410457631542755 ], [ 117.313143647492993, 42.410444122713407 ], [ 117.313131494538354, 42.410444155909339 ], [ 117.313131516935982, 42.410448658852459 ], [ 117.313119363980462, 42.41044869204709 ], [ 117.313119408773971, 42.410457697933332 ], [ 117.313113332295316, 42.410457714530175 ], [ 117.313113354691637, 42.410462217473295 ], [ 117.313107278212584, 42.410462234069811 ], [ 117.31310732300436, 42.410471239956046 ], [ 117.313101246524411, 42.410471256552256 ], [ 117.313101291315377, 42.410480262438476 ], [ 117.313089138353703, 42.410480295629924 ], [ 117.313089160748319, 42.410484798573037 ], [ 117.313095237229589, 42.410484781977466 ], [ 117.313095259624632, 42.410489284920573 ], [ 117.313101336106342, 42.410489268324682 ], [ 117.313101403292833, 42.410502777153965 ] ] ] } },
{ "type": "Feature", "properties": { "crown_id": 1599, "tree_id": "1599", "top_h_m": 19.893, "H_95_Mean": 19.8052, "DBH": 28.3286, "Carbon_kg": 150.795388, "area_m2": 16.75 }, "geometry": { "type": "Polygon", "coordinates": [ [ [ 117.312894802867945, 42.41050334123392 ], [ 117.312906955834279, 42.410503308063056 ], [ 117.312906933452695, 42.410498805119872 ], [ 117.312913009935414, 42.410498788533964 ], [ 117.312912965171378, 42.410489782647602 ], [ 117.312925118135084, 42.41048974947482 ], [ 117.312925095752192, 42.41048524653165 ], [ 117.31293117223359, 42.410485229944769 ], [ 117.312931127466982, 42.410476224058414 ], [ 117.312943280428016, 42.410476190883706 ], [ 117.312943213275517, 42.41046268205416 ], [ 117.312949289754727, 42.410462665466341 ], [ 117.312949267370129, 42.410458162523135 ], [ 117.31294319089136, 42.410458179110968 ], [ 117.312943168507203, 42.410453676167776 ], [ 117.312931015550518, 42.410453709342448 ], [ 117.312930993167214, 42.410449206399257 ], [ 117.312918840211367, 42.410449239572628 ], [ 117.312918862593776, 42.410453742515841 ], [ 117.312900633158634, 42.410453792273501 ], [ 117.312900722683111, 42.410471804046338 ], [ 117.312894646202992, 42.410471820631585 ], [ 117.312894713345088, 42.410485329461181 ], [ 117.312888636863661, 42.410485346046116 ], [ 117.312888704004479, 42.410498854875691 ], [ 117.312894780487227, 42.410498838290742 ], [ 117.312894802867945, 42.41050334123392 ] ] ] } },
{ "type": "Feature", "properties": { "crown_id": 1623, "tree_id": "1623", "top_h_m": 25.413, "H_95_Mean": 25.1951, "DBH": 37.1888, "Carbon_kg": 300.900043, "area_m2": 31.0 }, "geometry": { "type": "Polygon", "coordinates": [ [ [ 117.312991869884399, 42.41047155522886 ], [ 117.313010099324529, 42.41047150545667 ], [ 117.313010076935555, 42.410467002513521 ], [ 117.313034382853914, 42.410466936146108 ], [ 117.313034360463249, 42.410462433202952 ], [ 117.313046513421511, 42.41046240001733 ], [ 117.313046491029979, 42.410457897074174 ], [ 117.313052567508649, 42.410457880480877 ], [ 117.313052500332745, 42.41044437165143 ], [ 117.313058576810135, 42.410444355057805 ], [ 117.313058509632953, 42.41043084622833 ], [ 117.313064586109036, 42.410430829634407 ], [ 117.313064474145008, 42.410408314918541 ], [ 117.313058397671128, 42.410408331512457 ], [ 117.313058375278771, 42.410403828569272 ], [ 117.313052298805289, 42.410403845162868 ], [ 117.313052321197205, 42.410408348106046 ], [ 117.313046244723296, 42.410408364699315 ], [ 117.313046267114771, 42.410412867642513 ], [ 117.313040190640422, 42.410412884235463 ], [ 117.313040213031485, 42.410417387178647 ], [ 117.313034136556695, 42.41041740377127 ], [ 117.313034181337969, 42.410426409657639 ], [ 117.312985569532486, 42.410426542387142 ], [ 117.312985703855531, 42.410453560046264 ], [ 117.312979627377217, 42.410453576636023 ], [ 117.312979694537532, 42.410467085465548 ], [ 117.312991847496761, 42.410467052285703 ], [ 117.312991869884399, 42.41047155522886 ] ] ] } },
{ "type": "Feature", "properties": { "crown_id": 1624, "tree_id": "1624", "top_h_m": 22.31, "H_95_Mean": 22.1365, "DBH": 30.5289, "Carbon_kg": 187.261481, "area_m2": 18.25 }, "geometry": { "type": "Polygon", "coordinates": [ [ [ 117.313070886517878, 42.41047584247157 ], [ 117.313076962998295, 42.410475825876965 ], [ 117.313076940604546, 42.410471322933851 ], [ 117.313083017084523, 42.410471306338927 ], [ 117.313083039478713, 42.410475809282055 ], [ 117.313095192439491, 42.410475776091239 ], [ 117.31309514764942, 42.410466770205019 ], [ 117.313101224128957, 42.410466753609136 ], [ 117.31310117933802, 42.410457747722887 ], [ 117.313107255816675, 42.410457731126691 ], [ 117.31310723342078, 42.410453228183563 ], [ 117.313113309898995, 42.410453211587047 ], [ 117.313113265106381, 42.410444205700813 ], [ 117.313107188629033, 42.410444222297315 ], [ 117.313107166233166, 42.410439719354173 ], [ 117.313101089756245, 42.410439735950362 ], [ 117.313101067360819, 42.41043523300722 ], [ 117.313094990884338, 42.410435249603083 ], [ 117.313094923699381, 42.410421740773636 ], [ 117.313082770749006, 42.410421773964366 ], [ 117.313082748354901, 42.410417271021203 ], [ 117.313076671880154, 42.410417287616092 ], [ 117.313076649486476, 42.410412784672928 ], [ 117.313070573012155, 42.410412801267491 ], [ 117.313070684978356, 42.410435315983307 ], [ 117.313064608501847, 42.41043533257757 ], [ 117.313064675680351, 42.410448841407025 ], [ 117.313058599202549, 42.410448858000962 ], [ 117.313058643987347, 42.410457863887245 ], [ 117.313064720466031, 42.410457847293301 ], [ 117.313064787644606, 42.41047135612272 ], [ 117.313070864124583, 42.410471339528442 ], [ 117.313070886517878, 42.41047584247157 ] ] ] } },
{ "type": "Feature", "properties": { "crown_id": 1662, "tree_id": "1662", "top_h_m": 21.04, "H_95_Mean": 20.8872, "DBH": 26.8029, "Carbon_kg": 139.184954, "area_m2": 12.25 }, "geometry": { "type": "Polygon", "coordinates": [ [ [ 117.312955343848913, 42.410458145935003 ], [ 117.31297357328522, 42.410458096168625 ], [ 117.312973528512572, 42.41044909028227 ], [ 117.31297960499046, 42.410449073692838 ], [ 117.312979470670044, 42.410422056033667 ], [ 117.312961241244196, 42.41042210580094 ], [ 117.312961263629617, 42.410426608744146 ], [ 117.312930881250907, 42.410426691683178 ], [ 117.312930970783952, 42.410444703456051 ], [ 117.312937047261428, 42.410444686868871 ], [ 117.312937069645159, 42.41044918981207 ], [ 117.312949222600977, 42.410449156636759 ], [ 117.312949244985575, 42.410453659579957 ], [ 117.312955321463917, 42.410453642991811 ], [ 117.312955343848913, 42.410458145935003 ] ] ] } },
{ "type": "Feature", "properties": { "crown_id": 1680, "tree_id": "1680", "top_h_m": 21.864, "H_95_Mean": 21.9972, "DBH": 28.6868, "Carbon_kg": 164.569805, "area_m2": 14.5 }, "geometry": { "type": "Polygon", "coordinates": [ [ [ 117.312894534299573, 42.410449305915527 ], [ 117.312912763733436, 42.410449256158842 ], [ 117.312912741351468, 42.410444753215621 ], [ 117.312924894306448, 42.410444720042889 ], [ 117.312924782392344, 42.410422205326789 ], [ 117.312918705917028, 42.410422221913294 ], [ 117.312918661152281, 42.410413216026839 ], [ 117.312912584677818, 42.410413232613024 ], [ 117.312912517532041, 42.410399723783279 ], [ 117.312906441058885, 42.41039974036913 ], [ 117.31290646344037, 42.410404243312399 ], [ 117.312894310493149, 42.410404276483149 ], [ 117.3128943552544, 42.410413282369639 ], [ 117.312882202305445, 42.410413315539124 ], [ 117.312882269444742, 42.410426824368862 ], [ 117.312876192968943, 42.410426840953129 ], [ 117.312876237727608, 42.410435846839619 ], [ 117.312882314204273, 42.410435830255352 ], [ 117.312882336584053, 42.410440333198579 ], [ 117.31288841306116, 42.410440316613986 ], [ 117.312888435441394, 42.410444819557227 ], [ 117.312894511918927, 42.410444802972307 ], [ 117.312894534299573, 42.410449305915527 ] ] ] } },
{ "type": "Feature", "properties": { "crown_id": 1690, "tree_id": "1690", "top_h_m": 23.452, "H_95_Mean": 23.3324, "DBH": 26.9733, "Carbon_kg": 150.513839, "area_m2": 10.25 }, "geometry": { "type": "Polygon", "coordinates": [ [ [ 117.313119341583715, 42.410444189103977 ], [ 117.313125418061034, 42.410444172506814 ], [ 117.313125373266686, 42.410435166620559 ], [ 117.313137526219606, 42.410435133425281 ], [ 117.313137369433448, 42.410403612823316 ], [ 117.313113063539802, 42.410403679212479 ], [ 117.313113108332331, 42.410412685098798 ], [ 117.313094878909439, 42.410412734887316 ], [ 117.31309490130441, 42.410417237830472 ], [ 117.313100977779143, 42.410417221234617 ], [ 117.313101044965393, 42.410430730064078 ], [ 117.313107121441448, 42.410430713467903 ], [ 117.3131071438373, 42.410435216411045 ], [ 117.313113220313767, 42.410435199814536 ], [ 117.31311324271006, 42.410439702757664 ], [ 117.313119319186981, 42.410439686160835 ], [ 117.313119341583715, 42.410444189103977 ] ] ] } },
{ "type": "Feature", "properties": { "crown_id": 1716, "tree_id": "1716", "top_h_m": 21.593, "H_95_Mean": 21.5135, "DBH": 26.7415, "Carbon_kg": 140.985273, "area_m2": 11.5 }, "geometry": { "type": "Polygon", "coordinates": [ [ [ 117.312930858867659, 42.410422188739943 ], [ 117.312955164768894, 42.410422122389384 ], [ 117.312955142383927, 42.410417619446171 ], [ 117.31296729533365, 42.410417586268956 ], [ 117.312967205790287, 42.410399574496076 ], [ 117.3129732822634, 42.410399557906999 ], [ 117.312973259877154, 42.410395054963772 ], [ 117.31296110693178, 42.410395088141591 ], [ 117.312961084546401, 42.410390585198357 ], [ 117.312930702185085, 42.410390668137282 ], [ 117.312930724568275, 42.41039517108053 ], [ 117.312924648095589, 42.410395187667355 ], [ 117.312924692861159, 42.410404193553845 ], [ 117.312918616387577, 42.410404210140342 ], [ 117.312918638769929, 42.410408713083591 ], [ 117.312924715243938, 42.410408696497086 ], [ 117.312924760009537, 42.410417702383555 ], [ 117.312930836484412, 42.410417685796723 ], [ 117.312930858867659, 42.410422188739943 ] ] ] } },
{ "type": "Feature", "properties": { "crown_id": 1724, "tree_id": "1724", "top_h_m": 22.698, "H_95_Mean": 22.4099, "DBH": 32.0304, "Carbon_kg": 207.791081, "area_m2": 21.5 }, "geometry": { "type": "Polygon", "coordinates": [ [ [ 117.312985547145331, 42.41042203944393 ], [ 117.313028082472101, 42.410421923306764 ], [ 117.313028037691709, 42.410412917420395 ], [ 117.313034114166072, 42.410412900828092 ], [ 117.313034091775464, 42.410408397884893 ], [ 117.313040168249373, 42.410408381292278 ], [ 117.31304010107624, 42.410394872462696 ], [ 117.313034024603624, 42.410394889055297 ], [ 117.313034002213016, 42.410390386112098 ], [ 117.31302792574084, 42.410390402704394 ], [ 117.3130278137901, 42.410367887988293 ], [ 117.313015660850027, 42.41036792117189 ], [ 117.313015705628573, 42.410376927058344 ], [ 117.313003552686766, 42.410376960240676 ], [ 117.313003575075172, 42.410381463183903 ], [ 117.312991422132484, 42.410381496364927 ], [ 117.312991444520023, 42.410385999308154 ], [ 117.312985368048246, 42.410386015898204 ], [ 117.312985412822457, 42.410395021784652 ], [ 117.312979336349812, 42.410395038374375 ], [ 117.312979381123199, 42.410404044260808 ], [ 117.31297330464966, 42.410404060850219 ], [ 117.312973371808482, 42.410417569679872 ], [ 117.312985524758162, 42.410417536500731 ], [ 117.312985547145331, 42.41042203944393 ] ] ] } },
{ "type": "Feature", "properties": { "crown_id": 1749, "tree_id": "1749", "top_h_m": 20.818, "H_95_Mean": 20.7495, "DBH": 29.1821, "Carbon_kg": 164.564024, "area_m2": 17.25 }, "geometry": { "type": "Polygon", "coordinates": [ [ [ 117.313082703566721, 42.410408265134869 ], [ 117.3131070094622, 42.41040819875213 ], [ 117.313106964670553, 42.410399192865796 ], [ 117.313131270562508, 42.410399126477927 ], [ 117.313131248164936, 42.410394623534771 ], [ 117.313137324637481, 42.410394606937004 ], [ 117.313137257443529, 42.410381098107507 ], [ 117.313143333914752, 42.410381081509421 ], [ 117.313143289117932, 42.410372075623066 ], [ 117.313131136177219, 42.410372108818912 ], [ 117.313131113779676, 42.410367605875734 ], [ 117.31312503730976, 42.410367622473167 ], [ 117.313125014912671, 42.410363119529976 ], [ 117.313118938443154, 42.410363136127081 ], [ 117.313118916046506, 42.41035863318389 ], [ 117.31310068663926, 42.410358682973282 ], [ 117.313100753825324, 42.410372191802871 ], [ 117.313088600884512, 42.410372224994198 ], [ 117.313088735251554, 42.41039924265332 ], [ 117.313082658778526, 42.410399259248528 ], [ 117.313082703566721, 42.410408265134869 ] ] ] } },
{ "type": "Feature", "properties": { "crown_id": 1778, "tree_id": "1778", "top_h_m": 20.876, "H_95_Mean": 20.8075, "DBH": 27.9423, "Carbon_kg": 151.025774, "area_m2": 14.5 }, "geometry": { "type": "Polygon", "coordinates": [ [ [ 117.31289428811256, 42.410399773539886 ], [ 117.312900364585701, 42.410399756954668 ], [ 117.312900342204685, 42.410395254011426 ], [ 117.312918571622873, 42.410395204253852 ], [ 117.312918549240521, 42.410390701310597 ], [ 117.312924625712796, 42.410390684724092 ], [ 117.312924603330018, 42.410386181780829 ], [ 117.312942832745534, 42.410386132019433 ], [ 117.31294278797742, 42.410377126132921 ], [ 117.312936711506453, 42.410377142720371 ], [ 117.312936666739205, 42.410368136833853 ], [ 117.312918437328875, 42.410368186594262 ], [ 117.312918392564285, 42.410359180707722 ], [ 117.312900163156527, 42.410359230465218 ], [ 117.312900185537529, 42.410363733408502 ], [ 117.312894109067813, 42.410363749993699 ], [ 117.312894131448402, 42.410368252936976 ], [ 117.31288197850813, 42.410368286106397 ], [ 117.312882000887839, 42.410372789049688 ], [ 117.312875924417256, 42.410372805633926 ], [ 117.312875969175792, 42.410381811520502 ], [ 117.312888122118693, 42.410381778351699 ], [ 117.312888189259183, 42.410395287181508 ], [ 117.312894265731927, 42.410395270596631 ], [ 117.31289428811256, 42.410399773539886 ] ] ] } },
{ "type": "Feature", "properties": { "crown_id": 1779, "tree_id": "1779", "top_h_m": 21.233, "H_95_Mean": 20.9963, "DBH": 27.2837, "Carbon_kg": 144.708172, "area_m2": 13.0 }, "geometry": { "type": "Polygon", "coordinates": [ [ [ 117.313070550618932, 42.41040829832432 ], [ 117.313076627092826, 42.410408281729751 ], [ 117.313076559911849, 42.410394772900219 ], [ 117.313082636384436, 42.410394756305344 ], [ 117.313082524414114, 42.410372241589378 ], [ 117.3130764479437, 42.410372258184232 ], [ 117.313076425550079, 42.41036775524104 ], [ 117.313033890260087, 42.410367871396019 ], [ 117.313033979822421, 42.410385883168892 ], [ 117.313040056294184, 42.41038586657627 ], [ 117.313040078685205, 42.410390369519483 ], [ 117.313046155157394, 42.410390352926548 ], [ 117.313046199940345, 42.410399358812946 ], [ 117.313064429359443, 42.410399309032179 ], [ 117.313064451752226, 42.410403811975364 ], [ 117.313070528225694, 42.410403795381136 ], [ 117.313070550618932, 42.41040829832432 ] ] ] } },
{ "type": "Feature", "properties": { "crown_id": 1833, "tree_id": "1833", "top_h_m": 22.395, "H_95_Mean": 22.114, "DBH": 31.5403, "Carbon_kg": 199.855368, "area_m2": 20.75 }, "geometry": { "type": "Polygon", "coordinates": [ [ [ 117.312967161018648, 42.4103905686096 ], [ 117.312979313963112, 42.410390535431141 ], [ 117.312979269189768, 42.410381529544672 ], [ 117.312985345661133, 42.410381512954963 ], [ 117.31298532327402, 42.410377010011729 ], [ 117.312997476215855, 42.410376976831344 ], [ 117.312997409051945, 42.410363468001627 ], [ 117.312991332582328, 42.410363484591976 ], [ 117.312991220644804, 42.410340969875698 ], [ 117.312985144177347, 42.410340986465712 ], [ 117.312985099403221, 42.410331980579159 ], [ 117.312972946470055, 42.4103320137582 ], [ 117.312972968856243, 42.410336516701477 ], [ 117.312966892389227, 42.410336533290511 ], [ 117.312966914774989, 42.410341036233802 ], [ 117.312954761840032, 42.410341069410926 ], [ 117.312954806609824, 42.410350075297472 ], [ 117.312942653673133, 42.410350108473317 ], [ 117.312942698441191, 42.410359114359878 ], [ 117.312924469033518, 42.410359164121239 ], [ 117.312924491416254, 42.410363667064516 ], [ 117.312942720825248, 42.41036361730314 ], [ 117.312942765593334, 42.410372623189666 ], [ 117.312948842063875, 42.410372606601889 ], [ 117.312948909217369, 42.410386115431642 ], [ 117.312967138632828, 42.410386065666373 ], [ 117.312967161018648, 42.4103905686096 ] ] ] } },
{ "type": "Feature", "properties": { "crown_id": 1834, "tree_id": "1834", "top_h_m": 21.102, "H_95_Mean": 21.2204, "DBH": 25.629, "Carbon_kg": 128.36779, "area_m2": 10.0 }, "geometry": { "type": "Polygon", "coordinates": [ [ [ 117.313082502020052, 42.410367738646187 ], [ 117.313094654959997, 42.410367705455506 ], [ 117.313094565380368, 42.410349693682676 ], [ 117.313082412443904, 42.410349726873342 ], [ 117.313082390049871, 42.410345223930122 ], [ 117.313076313582087, 42.410345240524961 ], [ 117.313076291188494, 42.410340737581734 ], [ 117.313070214721108, 42.410340754176261 ], [ 117.31307019232797, 42.410336251233012 ], [ 117.313058039394079, 42.410336284421078 ], [ 117.31305806178635, 42.410340787364326 ], [ 117.31305198531895, 42.41034080395788 ], [ 117.313052007710823, 42.410345306901107 ], [ 117.313045931242982, 42.410345323494347 ], [ 117.313045998417238, 42.410358832324043 ], [ 117.313033845478984, 42.410358865509565 ], [ 117.313033867869521, 42.410363368452785 ], [ 117.313082479626019, 42.410363235702974 ], [ 117.313082502020052, 42.410367738646187 ] ] ] } },
{ "type": "Feature", "properties": { "crown_id": 1890, "tree_id": "1890", "top_h_m": 22.138, "H_95_Mean": 22.8308, "DBH": 34.1834, "Carbon_kg": 239.524555, "area_m2": 26.75 }, "geometry": { "type": "Polygon", "coordinates": [ [ [ 117.312900140775525, 42.41035472752192 ], [ 117.312936599588355, 42.410354628004036 ], [ 117.312936554821192, 42.410345622117482 ], [ 117.312948707757016, 42.410345588942278 ], [ 117.312948662988106, 42.410336583055702 ], [ 117.312960815922182, 42.410336549879233 ], [ 117.312960793536874, 42.410332046935949 ], [ 117.312966870003464, 42.410332030347242 ], [ 117.31296684761773, 42.41032752740395 ], [ 117.31297292408388, 42.410327510814923 ], [ 117.312972812153035, 42.410304996098468 ], [ 117.312966735689074, 42.410305012687481 ], [ 117.312966713303339, 42.410300509744182 ], [ 117.312954560376241, 42.410300542921263 ], [ 117.31295458276108, 42.410305045864561 ], [ 117.312936353369054, 42.410305095627777 ], [ 117.312936330985508, 42.41030059268445 ], [ 117.312924178058353, 42.410300625858305 ], [ 117.312924222823696, 42.410309631744937 ], [ 117.312918146359252, 42.410309648331399 ], [ 117.31291816874149, 42.410314151274719 ], [ 117.312912092276591, 42.410314167860847 ], [ 117.312912114658403, 42.410318670804159 ], [ 117.312899961727723, 42.410318703975463 ], [ 117.312900028870601, 42.4103322128054 ], [ 117.312893952403968, 42.410332229390576 ], [ 117.312894019545581, 42.410345738220506 ], [ 117.312900096013536, 42.410345721635331 ], [ 117.312900140775525, 42.41035472752192 ] ] ] } },
{ "type": "Feature", "properties": { "crown_id": 1896, "tree_id": "1896", "top_h_m": 24.102, "H_95_Mean": 23.9644, "DBH": 33.3508, "Carbon_kg": 234.538254, "area_m2": 22.25 }, "geometry": { "type": "Polygon", "coordinates": [ [ [ 117.312997386663994, 42.410358965058386 ], [ 117.313015616071496, 42.410358915285428 ], [ 117.313015593682252, 42.410354412342173 ], [ 117.313039899557126, 42.410354345973737 ], [ 117.313039832384177, 42.41034083714402 ], [ 117.313045908851578, 42.410340820551113 ], [ 117.313045886460159, 42.410336317607857 ], [ 117.313051962927105, 42.410336301014631 ], [ 117.313051940535289, 42.410331798071383 ], [ 117.313058017001808, 42.410331781477844 ], [ 117.31305797221728, 42.410322775591361 ], [ 117.313064048682932, 42.410322758997488 ], [ 117.313064026290249, 42.410318256054225 ], [ 117.313051873359811, 42.410318289241637 ], [ 117.313051783792574, 42.410300277468586 ], [ 117.313045707329081, 42.410300294061791 ], [ 117.313045752111833, 42.410309299948324 ], [ 117.31303967564746, 42.410309316541223 ], [ 117.313039698038409, 42.410313819484486 ], [ 117.31302146864401, 42.41031386926123 ], [ 117.313021491033638, 42.4103183722045 ], [ 117.312978955776813, 42.410318488338994 ], [ 117.31297900055003, 42.410327494225569 ], [ 117.312991153482329, 42.410327461045881 ], [ 117.312991198257279, 42.410336466932421 ], [ 117.312997274724296, 42.410336450342093 ], [ 117.312997386663994, 42.410358965058386 ] ] ] } },
{ "type": "Feature", "properties": { "crown_id": 1897, "tree_id": "1897", "top_h_m": 23.791, "H_95_Mean": 23.667, "DBH": 30.6978, "Carbon_kg": 196.992804, "area_m2": 16.5 }, "geometry": { "type": "Polygon", "coordinates": [ [ [ 117.313100664243933, 42.410354180030076 ], [ 117.313106740712584, 42.410354163433936 ], [ 117.313106718316817, 42.410349660490724 ], [ 117.313112794785013, 42.410349643894271 ], [ 117.313112749992627, 42.410340638007852 ], [ 117.313118826459984, 42.410340621411081 ], [ 117.313118781666731, 42.41033161552464 ], [ 117.313124858133193, 42.410331598927563 ], [ 117.313124813339087, 42.410322593041123 ], [ 117.313130889804697, 42.410322576443718 ], [ 117.313130845009752, 42.410313570557264 ], [ 117.313124768545023, 42.410313587154668 ], [ 117.313124701353971, 42.410300078324966 ], [ 117.313118624890549, 42.410300094922043 ], [ 117.313118647287126, 42.410304597865284 ], [ 117.313106494359417, 42.410304631058466 ], [ 117.313106516755127, 42.410309134001714 ], [ 117.313094363826494, 42.41030916719361 ], [ 117.313094386221351, 42.410313670136858 ], [ 117.313082233291851, 42.410313703327468 ], [ 117.313082255685842, 42.410318206270716 ], [ 117.313070102755432, 42.410318239460047 ], [ 117.313070147541694, 42.410327245346537 ], [ 117.313064071075615, 42.410327261940729 ], [ 117.313064093468313, 42.410331764883971 ], [ 117.313076246401337, 42.410331731695265 ], [ 117.313076268794916, 42.410336234638493 ], [ 117.313082345261833, 42.41033621804366 ], [ 117.313082367655866, 42.410340720986895 ], [ 117.313088444123224, 42.410340704391729 ], [ 117.313088466517684, 42.410345207334956 ], [ 117.313100619453252, 42.41034517414365 ], [ 117.313100664243933, 42.410354180030076 ] ] ] } },
{ "type": "Feature", "properties": { "crown_id": 1936, "tree_id": "1936", "top_h_m": 21.896, "H_95_Mean": 21.7873, "DBH": 30.4069, "Carbon_kg": 184.017508, "area_m2": 18.5 }, "geometry": { "type": "Polygon", "coordinates": [ [ [ 117.312869624158495, 42.410327792784734 ], [ 117.312893930023421, 42.410327726447271 ], [ 117.312893862881864, 42.410314217617298 ], [ 117.312906015811677, 42.410314184446648 ], [ 117.312905993430292, 42.410309681503328 ], [ 117.312912069894764, 42.410309664917527 ], [ 117.312912047512981, 42.4103051619742 ], [ 117.312918123976999, 42.410305145388079 ], [ 117.312918034448074, 42.410287133614744 ], [ 117.312905881523463, 42.410287166786659 ], [ 117.312905814379434, 42.410273657956608 ], [ 117.312881508535426, 42.41027372429653 ], [ 117.312881530915035, 42.410278227239885 ], [ 117.312875454453561, 42.410278243824067 ], [ 117.312875499211927, 42.410287249710777 ], [ 117.312869422749586, 42.410287266294645 ], [ 117.312869445128328, 42.410291769238 ], [ 117.312863368665575, 42.410291785821542 ], [ 117.312863435800551, 42.410305294651607 ], [ 117.312869512264612, 42.410305278068051 ], [ 117.312869624158495, 42.410327792784734 ] ] ] } },
{ "type": "Feature", "properties": { "crown_id": 1948, "tree_id": "1948", "top_h_m": 23.316, "H_95_Mean": 23.2069, "DBH": 28.7445, "Carbon_kg": 170.553353, "area_m2": 13.25 }, "geometry": { "type": "Polygon", "coordinates": [ [ [ 117.312978933390212, 42.410313985395703 ], [ 117.313015392179182, 42.410313885852844 ], [ 117.31301536978998, 42.41030938290956 ], [ 117.3130335991831, 42.410309333133796 ], [ 117.31303357679262, 42.410304830190519 ], [ 117.313039653256524, 42.410304813597946 ], [ 117.313039608474682, 42.410295807711393 ], [ 117.31302745554855, 42.41029584089619 ], [ 117.31302743315851, 42.410291337952913 ], [ 117.31302135669587, 42.410291354544832 ], [ 117.313021311916629, 42.410282348658228 ], [ 117.313009158993097, 42.410282381841093 ], [ 117.313009136604364, 42.41027787889778 ], [ 117.312996983681671, 42.410277912079344 ], [ 117.312997006069537, 42.410282415022643 ], [ 117.312990929607736, 42.410282431612949 ], [ 117.312990951995175, 42.410286934556254 ], [ 117.312984875532933, 42.410286951146226 ], [ 117.312984965081, 42.410304962919447 ], [ 117.312978888617025, 42.410304979509114 ], [ 117.312978933390212, 42.410313985395703 ] ] ] } }
]
}
