{
"type": "FeatureCollection",
"name": "tile_11_18",
"crs": { "type": "name", "properties": { "name": "urn:ogc:def:crs:OGC:1.3:CRS84" } },
"features": [
{ "type": "Feature", "properties": { "crown_id": 3272, "tree_id": "3273", "top_h_m": 20.409, "H_95_Mean": 20.1305, "DBH": 29.4909, "Carbon_kg": 165.108398, "area_m2": 19.0 }, "geometry": { "type": "Polygon", "coordinates": [ [ [ 117.314306059568594, 42.409585370745063 ], [ 117.314318212356071, 42.40958533742517 ], [ 117.314318054983474, 42.409553816822068 ], [ 117.314311978592769, 42.409553833482157 ], [ 117.314311956111425, 42.409549330538837 ], [ 117.314305879721147, 42.409549347198613 ], [ 117.314305857240257, 42.409544844255279 ], [ 117.314293704460553, 42.409544877573836 ], [ 117.31429368198053, 42.409540374630524 ], [ 117.314269376422828, 42.409540441263758 ], [ 117.314269443857739, 42.409553950093773 ], [ 117.314263367467007, 42.409553966751282 ], [ 117.31426338994487, 42.40955846969463 ], [ 117.314257313553711, 42.409558486351813 ], [ 117.314257336031147, 42.409562989295154 ], [ 117.314251259639519, 42.40956300595203 ], [ 117.314251282116544, 42.409567508895357 ], [ 117.314245205724475, 42.409567525551907 ], [ 117.314245228201059, 42.409572028495248 ], [ 117.314263457378544, 42.40957197852461 ], [ 117.314263479856436, 42.409576481467923 ], [ 117.314281709035143, 42.409576431494386 ], [ 117.314281731514356, 42.409580934437678 ], [ 117.314306037087647, 42.409580867801772 ], [ 117.314306059568594, 42.409585370745063 ] ] ] } },
{ "type": "Feature", "properties": { "crown_id": 3288, "tree_id": "3289", "top_h_m": 23.092, "H_95_Mean": 22.7254, "DBH": 32.0473, "Carbon_kg": 209.739263, "area_m2": 21.0 }, "geometry": { "type": "Polygon", "coordinates": [ [ [ 117.314129844147729, 42.409585853738776 ], [ 117.314141996935518, 42.409585820437556 ], [ 117.314141974466295, 42.409581317494194 ], [ 117.314154127253204, 42.409581284191702 ], [ 117.314154104783114, 42.40957678124834 ], [ 117.314166257569113, 42.409576747944556 ], [ 117.31416623509817, 42.409572245001179 ], [ 117.314172311490736, 42.409572228348814 ], [ 117.314172266547999, 42.409563222462097 ], [ 117.314184419331369, 42.409563189156394 ], [ 117.314184396859147, 42.409558686213025 ], [ 117.314190473250392, 42.409558669559701 ], [ 117.314190450777701, 42.409554166616331 ], [ 117.314184374386912, 42.409554183269655 ], [ 117.314184306970276, 42.409540674439533 ], [ 117.314178230580765, 42.409540691092531 ], [ 117.314178208108999, 42.409536188149133 ], [ 117.31416605533083, 42.409536221454161 ], [ 117.31416603285993, 42.40953171851077 ], [ 117.314159956471272, 42.409531735162801 ], [ 117.314159978941746, 42.409536238106192 ], [ 117.314153902552661, 42.409536254757896 ], [ 117.314153925022666, 42.409540757701301 ], [ 117.314141772243602, 42.409540791003742 ], [ 117.314141794712768, 42.40954529394714 ], [ 117.314135718322802, 42.409545310597892 ], [ 117.314135740791528, 42.40954981354129 ], [ 117.314123588010688, 42.40954984684182 ], [ 117.314123610478561, 42.409554349785211 ], [ 117.3141175340877, 42.409554366434996 ], [ 117.3141176239575, 42.409572378208566 ], [ 117.314123700350095, 42.409572361558766 ], [ 117.314123722818024, 42.409576864502149 ], [ 117.314129799211045, 42.40957684785203 ], [ 117.314129844147729, 42.409585853738776 ] ] ] } },
{ "type": "Feature", "properties": { "crown_id": 3334, "tree_id": "3335", "top_h_m": 21.993, "H_95_Mean": 21.7808, "DBH": 33.9058, "Carbon_kg": 229.149495, "area_m2": 28.25 }, "geometry": { "type": "Polygon", "coordinates": [ [ [ 117.314208747372007, 42.409567625484478 ], [ 117.314239129332421, 42.409567542208151 ], [ 117.314239106856249, 42.40956303926481 ], [ 117.314245183247877, 42.409563022608573 ], [ 117.314245160771307, 42.409558519665246 ], [ 117.314251237162509, 42.409558503008689 ], [ 117.314251214685498, 42.409554000065349 ], [ 117.314257291076245, 42.409553983408479 ], [ 117.314257268598823, 42.409549480465138 ], [ 117.314263344989129, 42.409549463807949 ], [ 117.314263142688532, 42.409508937317746 ], [ 117.314238837142909, 42.409509003944471 ], [ 117.314238814666837, 42.409504501001088 ], [ 117.314220585508878, 42.409504550967739 ], [ 117.314220652933201, 42.409518059797904 ], [ 117.314214576545893, 42.409518076452819 ], [ 117.314214643968995, 42.409531585282963 ], [ 117.314208567580366, 42.409531601937573 ], [ 117.314208590054321, 42.409536104880949 ], [ 117.314202513665265, 42.409536121535226 ], [ 117.314202536138751, 42.409540624478609 ], [ 117.314190383359772, 42.409540657786216 ], [ 117.314190428305054, 42.409549663672962 ], [ 117.314196504695431, 42.409549647019318 ], [ 117.314196527168519, 42.409554149962673 ], [ 117.314202603559309, 42.409554133308717 ], [ 117.314202626032852, 42.409558636252065 ], [ 117.314208702424082, 42.409558619597782 ], [ 117.314208747372007, 42.409567625484478 ] ] ] } },
{ "type": "Feature", "properties": { "crown_id": 3368, "tree_id": "3369", "top_h_m": 22.176, "H_95_Mean": 21.9342, "DBH": 34.3246, "Carbon_kg": 235.867021, "area_m2": 29.25 }, "geometry": { "type": "Polygon", "coordinates": [ [ [ 117.314099282448936, 42.409549913439015 ], [ 117.314117511620253, 42.409549863491598 ], [ 117.314117489152821, 42.409545360548194 ], [ 117.314129641932794, 42.40954532724831 ], [ 117.314129619464524, 42.409540824304919 ], [ 117.314135695854063, 42.409540807654494 ], [ 117.314135673385323, 42.409536304711082 ], [ 117.314147826163548, 42.40953627140928 ], [ 117.314147803693942, 42.409531768465875 ], [ 117.314153880082628, 42.409531751814498 ], [ 117.314153767732563, 42.409509237097453 ], [ 117.314141614959581, 42.409509270399859 ], [ 117.314141592490458, 42.409504767456433 ], [ 117.314135516104386, 42.409504784107163 ], [ 117.314135493635689, 42.409500281163723 ], [ 117.314123340864427, 42.409500314464196 ], [ 117.314123318396597, 42.409495811520756 ], [ 117.314111165626159, 42.409495844819936 ], [ 117.314111120692303, 42.409486838933027 ], [ 117.314098967923599, 42.4094868722309 ], [ 117.314098945457545, 42.40948236928746 ], [ 117.31409286907359, 42.409482385935902 ], [ 117.314092936470487, 42.409495894766287 ], [ 117.31408686008524, 42.409495911414425 ], [ 117.314086905015671, 42.409504917301334 ], [ 117.314080828629542, 42.409504933949165 ], [ 117.314080851094332, 42.40950943689262 ], [ 117.314086927480872, 42.409509420244788 ], [ 117.314086994876547, 42.409522929075123 ], [ 117.314080918488699, 42.409522945722948 ], [ 117.314081008347927, 42.409540957496681 ], [ 117.314093161127104, 42.409540924200662 ], [ 117.314093183592789, 42.409545427144089 ], [ 117.314099259982825, 42.409545410495589 ], [ 117.314099282448936, 42.409549913439015 ] ] ] } },
{ "type": "Feature", "properties": { "crown_id": 3369, "tree_id": "3370", "top_h_m": 23.505, "H_95_Mean": 23.2019, "DBH": 30.5306, "Carbon_kg": 192.562454, "area_m2": 16.75 }, "geometry": { "type": "Polygon", "coordinates": [ [ [ 117.314184284498054, 42.409536171496143 ], [ 117.314196437276195, 42.409536138189189 ], [ 117.314196414803135, 42.409531635245813 ], [ 117.314202491191736, 42.409531618591849 ], [ 117.31420246871825, 42.409527115648466 ], [ 117.314208545106439, 42.409527098994197 ], [ 117.314208477684659, 42.409513590164039 ], [ 117.314214554071555, 42.409513573509443 ], [ 117.314214486648538, 42.409500064679264 ], [ 117.314220563034084, 42.409500048024348 ], [ 117.314220540559319, 42.409495545080951 ], [ 117.314202311403918, 42.409495595044696 ], [ 117.314202288930446, 42.409491092101291 ], [ 117.314190136161031, 42.409491125408834 ], [ 117.314190113688454, 42.409486622465415 ], [ 117.314184037304145, 42.409486639118697 ], [ 117.314184082248474, 42.409495645005535 ], [ 117.314171929478135, 42.40949567831116 ], [ 117.314171974420717, 42.409504684197998 ], [ 117.314165898034659, 42.409504700850341 ], [ 117.31416592050553, 42.409509203793746 ], [ 117.314159844119047, 42.409509220445763 ], [ 117.314159934000841, 42.409527232219396 ], [ 117.314172086777248, 42.409527198915029 ], [ 117.314172109248588, 42.409531701858427 ], [ 117.314184262025861, 42.409531668552766 ], [ 117.314184284498054, 42.409536171496143 ] ] ] } },
{ "type": "Feature", "properties": { "crown_id": 3398, "tree_id": "3400", "top_h_m": 24.019, "H_95_Mean": 23.5024, "DBH": 39.4505, "Carbon_kg": 325.263799, "area_m2": 44.25 }, "geometry": { "type": "Polygon", "coordinates": [ [ [ 117.314318032501689, 42.409549313878742 ], [ 117.314336261672452, 42.409549263896558 ], [ 117.314336216706309, 42.40954025800994 ], [ 117.314342293095663, 42.409540241348566 ], [ 117.314342270612173, 42.409535738405246 ], [ 117.314348347001115, 42.409535721743552 ], [ 117.314348302033224, 42.409526715856927 ], [ 117.314342225645191, 42.409526732518607 ], [ 117.314342158194734, 42.40951322368862 ], [ 117.314336081807966, 42.409513240349973 ], [ 117.314335969392815, 42.409490725633255 ], [ 117.314342045777423, 42.409490708971909 ], [ 117.314341910876806, 42.409463691311721 ], [ 117.314335834494827, 42.409463707973046 ], [ 117.314335856977806, 42.409468210916422 ], [ 117.314287245918266, 42.409468344195453 ], [ 117.314287313356829, 42.409481853025625 ], [ 117.314275160589276, 42.409481886342185 ], [ 117.314275295461329, 42.40950890400245 ], [ 117.314269219074944, 42.409508920660265 ], [ 117.314269353944553, 42.409535938320403 ], [ 117.314299735889477, 42.409535855028054 ], [ 117.314299758369941, 42.409540357971402 ], [ 117.314311911148749, 42.409540324652198 ], [ 117.31431193363008, 42.409544827595525 ], [ 117.314318010019917, 42.409544810935436 ], [ 117.314318032501689, 42.409549313878742 ] ] ] } },
{ "type": "Feature", "properties": { "crown_id": 3437, "tree_id": "3439", "top_h_m": 23.201, "H_95_Mean": 23.0386, "DBH": 35.2059, "Carbon_kg": 255.550111, "area_m2": 29.5 }, "geometry": { "type": "Polygon", "coordinates": [ [ [ 117.314147668876515, 42.409504750805397 ], [ 117.31415982164863, 42.409504717502351 ], [ 117.314159799178185, 42.409500214558918 ], [ 117.314165875563816, 42.409500197906908 ], [ 117.314165830622116, 42.409491192020063 ], [ 117.314177983391588, 42.409491158715092 ], [ 117.314177960919878, 42.409486655771666 ], [ 117.314171884535568, 42.4094866724243 ], [ 117.314171727236769, 42.409455151820218 ], [ 117.314153498092963, 42.409455201776154 ], [ 117.314153475623044, 42.409450698832693 ], [ 117.314147399242202, 42.40945071548402 ], [ 117.314147376772695, 42.409446212540558 ], [ 117.314129147631448, 42.409446262492622 ], [ 117.314129125163277, 42.409441759549139 ], [ 117.314123048783273, 42.409441776199181 ], [ 117.314123071251018, 42.409446279142664 ], [ 117.314110918490144, 42.409446312441773 ], [ 117.314110940957022, 42.40945081538527 ], [ 117.314092711814368, 42.409450865331543 ], [ 117.314092734279981, 42.40945536827504 ], [ 117.314098810661278, 42.409455351626598 ], [ 117.314098833127318, 42.409459854570073 ], [ 117.314104909509069, 42.409459837921325 ], [ 117.31410493197555, 42.409464340864787 ], [ 117.314098855593357, 42.409464357513549 ], [ 117.314098922991477, 42.409477866343977 ], [ 117.314104999374962, 42.4094778496952 ], [ 117.314105021841456, 42.409482352638676 ], [ 117.314117174609294, 42.409482319340157 ], [ 117.314117219544016, 42.409491325227059 ], [ 117.314129372313559, 42.409491291927246 ], [ 117.314129394781816, 42.409495794870679 ], [ 117.314141547552225, 42.409495761569573 ], [ 117.314141570021349, 42.409500264513014 ], [ 117.314147646406965, 42.40950024786197 ], [ 117.314147668876515, 42.409504750805397 ] ] ] } },
{ "type": "Feature", "properties": { "crown_id": 3438, "tree_id": "3440", "top_h_m": 21.05, "H_95_Mean": 20.8946, "DBH": 26.5212, "Carbon_kg": 136.280892, "area_m2": 11.75 }, "geometry": { "type": "Polygon", "coordinates": [ [ [ 117.314244891052823, 42.4095044843449 ], [ 117.314269196596669, 42.409504417716896 ], [ 117.314269061727273, 42.409477400056581 ], [ 117.314281214493946, 42.409477366740681 ], [ 117.314281169535789, 42.409468360853886 ], [ 117.314275093153327, 42.409468377511992 ], [ 117.314275070674682, 42.409463874568594 ], [ 117.314256841528533, 42.409463924540972 ], [ 117.314256864005856, 42.409468427484384 ], [ 117.314250787623365, 42.409468444141204 ], [ 117.31425081010029, 42.409472947084623 ], [ 117.314244733717345, 42.409472963741123 ], [ 117.314244801146813, 42.409486472571331 ], [ 117.314226571994055, 42.40948652253892 ], [ 117.314226639419658, 42.409500031369127 ], [ 117.314244868576296, 42.40949998140151 ], [ 117.314244891052823, 42.4095044843449 ] ] ] } },
{ "type": "Feature", "properties": { "crown_id": 3472, "tree_id": "3474", "top_h_m": 23.588, "H_95_Mean": 23.3055, "DBH": 33.0114, "Carbon_kg": 225.99497, "area_m2": 22.5 }, "geometry": { "type": "Polygon", "coordinates": [ [ [ 117.314208365315153, 42.409491075447036 ], [ 117.31421444169986, 42.409491058792447 ], [ 117.31421441922555, 42.409486555849043 ], [ 117.314220495609803, 42.409486539194148 ], [ 117.314220473135066, 42.409482036250736 ], [ 117.314238702286517, 42.409481986284113 ], [ 117.314238634858384, 42.409468477453878 ], [ 117.314244711240875, 42.409468460797704 ], [ 117.314244688764404, 42.409463957854292 ], [ 117.314250765146483, 42.409463941197792 ], [ 117.314250742669586, 42.409459438254373 ], [ 117.314244666287962, 42.409459454910866 ], [ 117.314244621335035, 42.409450449024028 ], [ 117.314232468573508, 42.409450482336041 ], [ 117.314232446097932, 42.409445979392601 ], [ 117.314220293337243, 42.40944601270332 ], [ 117.314220270862549, 42.40944150975988 ], [ 117.314208118102698, 42.409441543069299 ], [ 117.314208095628871, 42.409437040125852 ], [ 117.314202019249379, 42.409437056780071 ], [ 117.314201996775992, 42.409432553836616 ], [ 117.314195920396926, 42.409432570490523 ], [ 117.314195987815808, 42.409446079320887 ], [ 117.314189911435435, 42.409446095974481 ], [ 117.314189933907983, 42.409450598917921 ], [ 117.314183857527169, 42.409450615571188 ], [ 117.314183879999263, 42.409455118514643 ], [ 117.314177803618009, 42.40945513516759 ], [ 117.314177915976444, 42.409477649884799 ], [ 117.314190068743301, 42.409477616578563 ], [ 117.314190091215877, 42.409482119521989 ], [ 117.314202243983559, 42.409482086214453 ], [ 117.314202266457002, 42.409486589157865 ], [ 117.314208342841283, 42.40948657250361 ], [ 117.314208365315153, 42.409491075447036 ] ] ] } },
{ "type": "Feature", "properties": { "crown_id": 3520, "tree_id": "3522", "top_h_m": 22.632, "H_95_Mean": 22.3133, "DBH": 32.5254, "Carbon_kg": 213.767162, "area_m2": 23.0 }, "geometry": { "type": "Polygon", "coordinates": [ [ [ 117.314281147056718, 42.409463857910488 ], [ 117.314317605348847, 42.409463757955095 ], [ 117.314317537903804, 42.409450249124923 ], [ 117.314323614284518, 42.409450232464572 ], [ 117.314323569320337, 42.409441226577769 ], [ 117.314317492940503, 42.40944124323812 ], [ 117.314317403013916, 42.409423231464487 ], [ 117.314305250257732, 42.409423264784195 ], [ 117.314305227776956, 42.409418761840769 ], [ 117.314299151399297, 42.40941877850014 ], [ 117.314299128918961, 42.409414275556706 ], [ 117.314293052541728, 42.409414292215743 ], [ 117.314293007581966, 42.409405286328877 ], [ 117.314286931205586, 42.409405302987594 ], [ 117.314286998643922, 42.409418811817915 ], [ 117.314274845888548, 42.40941884513439 ], [ 117.314274868367136, 42.409423348077837 ], [ 117.31426271561088, 42.409423381393033 ], [ 117.314262850477306, 42.409450399053597 ], [ 117.314250697715806, 42.409450432367535 ], [ 117.314250720192689, 42.409454935310961 ], [ 117.314256796573872, 42.409454918654149 ], [ 117.314256819051209, 42.409459421597568 ], [ 117.314281124577661, 42.409459354967098 ], [ 117.314281147056718, 42.409463857910488 ] ] ] } },
{ "type": "Feature", "properties": { "crown_id": 3551, "tree_id": "3553", "top_h_m": 21.15, "H_95_Mean": 20.8172, "DBH": 33.2631, "Carbon_kg": 214.656741, "area_m2": 28.5 }, "geometry": { "type": "Polygon", "coordinates": [ [ [ 117.314159552003872, 42.409450682181038 ], [ 117.314177781146356, 42.409450632224129 ], [ 117.314177758674688, 42.409446129280674 ], [ 117.314183835055076, 42.409446112627734 ], [ 117.314183812582982, 42.409441609684279 ], [ 117.3141898889629, 42.409441593031012 ], [ 117.314189821545341, 42.409428084200627 ], [ 117.314201974302605, 42.409428050893155 ], [ 117.314201951829233, 42.4094235479497 ], [ 117.314208028207432, 42.409423531295481 ], [ 117.314207983259806, 42.409414525408543 ], [ 117.31419583050517, 42.409414558716641 ], [ 117.314195808032238, 42.409410055773158 ], [ 117.31420188440913, 42.40941003911928 ], [ 117.314201861935771, 42.409405536175804 ], [ 117.314195785559306, 42.409405552829689 ], [ 117.314195763086389, 42.409401049886206 ], [ 117.314189686710364, 42.409401066539758 ], [ 117.314189664237887, 42.409396563596268 ], [ 117.314183587862289, 42.409396580249506 ], [ 117.314183542918229, 42.409387574362512 ], [ 117.314177466543484, 42.409387591015424 ], [ 117.31417748901508, 42.409392093958921 ], [ 117.314171412639908, 42.409392110611513 ], [ 117.314171457582262, 42.409401116498515 ], [ 117.314159304830156, 42.409401149802733 ], [ 117.314159327300459, 42.40940565274623 ], [ 117.314153250923979, 42.40940566939787 ], [ 117.314153273393856, 42.40941017234136 ], [ 117.314122891509172, 42.409410255594693 ], [ 117.314122936444605, 42.409419261481709 ], [ 117.314116860066761, 42.409419278131423 ], [ 117.314116905001356, 42.409428284018418 ], [ 117.314122981380038, 42.40942826736871 ], [ 117.314123026315528, 42.409437273255698 ], [ 117.31413517907464, 42.409437239955295 ], [ 117.314135201543252, 42.409441742898778 ], [ 117.314153430683177, 42.409441692945755 ], [ 117.314153453153111, 42.409446195889224 ], [ 117.314159529533512, 42.409446179237577 ], [ 117.314159552003872, 42.409450682181038 ] ] ] } },
{ "type": "Feature", "properties": { "crown_id": 3552, "tree_id": "3554", "top_h_m": 21.449, "H_95_Mean": 21.4087, "DBH": 26.2203, "Carbon_kg": 135.111019, "area_m2": 10.75 }, "geometry": { "type": "MultiPolygon", "coordinates": [ [ [ [ 117.31421403716287, 42.40941000581055 ], [ 117.314214127059856, 42.409428017584403 ], [ 117.314208050681231, 42.409428034238935 ], [ 117.314208073155058, 42.40943253718239 ], [ 117.314214149534109, 42.409432520527844 ], [ 117.314214172008363, 42.409437023471305 ], [ 117.314226324767333, 42.40943699016124 ], [ 117.314226347242453, 42.409441493104687 ], [ 117.314238500002247, 42.409441459793328 ], [ 117.314238522478263, 42.409445962736761 ], [ 117.314256751619226, 42.409445912767303 ], [ 117.314256616755443, 42.409418895106704 ], [ 117.314238387622282, 42.409418945076112 ], [ 117.314238365146323, 42.409414442132643 ], [ 117.314220136014441, 42.409414492099152 ], [ 117.314220113539747, 42.409409989155677 ], [ 117.31421403716287, 42.40941000581055 ] ] ], [ [ [ 117.31421403716287, 42.40941000581055 ], [ 117.314214014688673, 42.409405502867074 ], [ 117.314207938312208, 42.409405519521592 ], [ 117.314207960786007, 42.409410022465067 ], [ 117.31421403716287, 42.40941000581055 ] ] ] ] } },
{ "type": "Feature", "properties": { "crown_id": 3577, "tree_id": "3579", "top_h_m": 21.653, "H_95_Mean": 21.5562, "DBH": 25.9848, "Carbon_kg": 133.216248, "area_m2": 10.25 }, "geometry": { "type": "Polygon", "coordinates": [ [ [ 117.314262693133159, 42.409418878449593 ], [ 117.314268769510861, 42.409418861792155 ], [ 117.314268747032713, 42.4094143588487 ], [ 117.314280899787221, 42.409414325532872 ], [ 117.314280854829221, 42.409405319645991 ], [ 117.314274778452827, 42.409405336304054 ], [ 117.314274688538575, 42.409387324530236 ], [ 117.314256459414594, 42.409387374502494 ], [ 117.314256481891832, 42.409391877445962 ], [ 117.314238252766515, 42.409391927415321 ], [ 117.314238275242474, 42.40939643035879 ], [ 117.314232198866904, 42.409396447014601 ], [ 117.314232221342436, 42.409400949958076 ], [ 117.314220068590444, 42.409400983268746 ], [ 117.31422009106511, 42.409405486212222 ], [ 117.314226167441518, 42.409405469557036 ], [ 117.314226189916624, 42.409409972500498 ], [ 117.314244419047213, 42.409409922533044 ], [ 117.314244441523599, 42.409414425476498 ], [ 117.314262670655438, 42.409414375506138 ], [ 117.314262693133159, 42.409418878449593 ] ] ] } }
]
}
