{
"type": "FeatureCollection",
"name": "tile_6_19",
"crs": { "type": "name", "properties": { "name": "urn:ogc:def:crs:OGC:1.3:CRS84" } },
"features": [
{ "type": "Feature", "properties": { "crown_id": 1639, "tree_id": "1639", "top_h_m": 23.525, "H_95_Mean": 22.9514, "DBH": 37.9495, "Carbon_kg": 296.611538, "area_m2": 39.75 }, "geometry": { "type": "Polygon", "coordinates": [ [ [ 117.314371320668087, 42.410485792714972 ], [ 117.314389550109937, 42.410485742723417 ], [ 117.314389527622296, 42.410481239780864 ], [ 117.31440168058262, 42.410481206451557 ], [ 117.314401658094141, 42.410476703509019 ], [ 117.314407734573862, 42.410476686843886 ], [ 117.314407712084943, 42.410472183901327 ], [ 117.314425941522785, 42.410472133903994 ], [ 117.314425896542332, 42.410463128018904 ], [ 117.314444125977516, 42.410463078018687 ], [ 117.314444058502986, 42.410449569191051 ], [ 117.314437982025922, 42.41044958585811 ], [ 117.314437847079617, 42.410422568202712 ], [ 117.314431770605111, 42.41042258486943 ], [ 117.314431748114515, 42.410418081926835 ], [ 117.314425671640478, 42.410418098593226 ], [ 117.314425626660153, 42.410409092708058 ], [ 117.31441347371377, 42.410409126039859 ], [ 117.314413496203073, 42.410413628982447 ], [ 117.314407419729434, 42.410413645647864 ], [ 117.314407397240601, 42.410409142705277 ], [ 117.31439524429419, 42.410409176035145 ], [ 117.314395266782157, 42.41041367897774 ], [ 117.314383113834865, 42.41041371230633 ], [ 117.314383158809093, 42.410422718191541 ], [ 117.314377082334573, 42.410422734855366 ], [ 117.314377172281368, 42.410440746625731 ], [ 117.314371095805086, 42.410440763289245 ], [ 117.314371118291376, 42.410445266231825 ], [ 117.314365041814668, 42.410445282895004 ], [ 117.314365109272217, 42.410458791722768 ], [ 117.314352956316171, 42.410458825048188 ], [ 117.314353001286179, 42.410467830933349 ], [ 117.314359077765062, 42.410467814270795 ], [ 117.314359100250513, 42.410472317213362 ], [ 117.314371253209131, 42.41047228388728 ], [ 117.31437127569545, 42.410476786829854 ], [ 117.3143773521752, 42.410476770166333 ], [ 117.314377374661944, 42.410481273108886 ], [ 117.314371298181769, 42.41048128977242 ], [ 117.314371320668087, 42.410485792714972 ] ] ] } },
{ "type": "Feature", "properties": { "crown_id": 1640, "tree_id": "1640", "top_h_m": 23.708, "H_95_Mean": 23.5218, "DBH": 34.4983, "Carbon_kg": 248.333707, "area_m2": 26.25 }, "geometry": { "type": "Polygon", "coordinates": [ [ [ 117.314517088711227, 42.410471883873868 ], [ 117.314523165190437, 42.410471867202617 ], [ 117.314523007710307, 42.410440346605029 ], [ 117.314510854758012, 42.410440379947168 ], [ 117.31451080976548, 42.4104313740621 ], [ 117.314492580339589, 42.41043142407289 ], [ 117.3144925353497, 42.410422418187792 ], [ 117.314474305926367, 42.410422468195669 ], [ 117.31447428343273, 42.410417965253103 ], [ 117.314456054010677, 42.41041801525806 ], [ 117.314456076503021, 42.410422518200647 ], [ 117.314443923554066, 42.410422551535682 ], [ 117.31444403601148, 42.410445066248506 ], [ 117.314450112488146, 42.410445049581135 ], [ 117.314450202455888, 42.410463061351308 ], [ 117.314510967239428, 42.41046289465978 ], [ 117.314510989735723, 42.410467397602289 ], [ 117.314517066214492, 42.410467380931365 ], [ 117.314517088711227, 42.410471883873868 ] ] ] } },
{ "type": "Feature", "properties": { "crown_id": 1669, "tree_id": "1669", "top_h_m": 18.313, "H_95_Mean": 17.9916, "DBH": 30.5282, "Carbon_kg": 165.643278, "area_m2": 26.75 }, "geometry": { "type": "Polygon", "coordinates": [ [ [ 117.314553570085636, 42.410476286784011 ], [ 117.314559646565229, 42.410476270110834 ], [ 117.314559624065453, 42.410471767168339 ], [ 117.314565700544591, 42.410471750494835 ], [ 117.314565678044374, 42.410467247552361 ], [ 117.314559601565648, 42.410467264225858 ], [ 117.314559579065872, 42.41046276128337 ], [ 117.314577808500729, 42.410462711261907 ], [ 117.314577831001799, 42.410467214204381 ], [ 117.314589983959209, 42.410467180855115 ], [ 117.314589938955294, 42.410458174970167 ], [ 117.314583862477491, 42.410458191644949 ], [ 117.314583749969998, 42.410435676932472 ], [ 117.314589826445669, 42.410435660257697 ], [ 117.314589736438037, 42.410417648487666 ], [ 117.314577583490191, 42.410417681836876 ], [ 117.314577560989179, 42.410413178894352 ], [ 117.314547178621652, 42.410413262261713 ], [ 117.314547201120519, 42.410417765204244 ], [ 117.314541124646567, 42.41041778187676 ], [ 117.314541169643405, 42.410426787761828 ], [ 117.314535093168573, 42.410426804434017 ], [ 117.314535160662587, 42.410440313261596 ], [ 117.314529084186461, 42.410440329933486 ], [ 117.314529241669618, 42.410471850531046 ], [ 117.3145535475863, 42.410471783841523 ], [ 117.314553570085636, 42.410476286784011 ] ] ] } },
{ "type": "Feature", "properties": { "crown_id": 1696, "tree_id": "1696", "top_h_m": 21.774, "H_95_Mean": 21.6732, "DBH": 29.335, "Carbon_kg": 170.646293, "area_m2": 16.25 }, "geometry": { "type": "Polygon", "coordinates": [ [ [ 117.314516908737446, 42.410435860333727 ], [ 117.314529061688873, 42.410435826990941 ], [ 117.314528994196195, 42.410422318163356 ], [ 117.314535070670573, 42.410422301491487 ], [ 117.31453502567463, 42.410413295606403 ], [ 117.314541102148141, 42.410413278934222 ], [ 117.314541079649743, 42.410408775991677 ], [ 117.31453500317663, 42.410408792663858 ], [ 117.314534980678658, 42.410404289721313 ], [ 117.314528904206014, 42.410404306393168 ], [ 117.314528859210967, 42.410395300508064 ], [ 117.314522782739161, 42.410395317179592 ], [ 117.314522737744994, 42.410386311294467 ], [ 117.314504508332178, 42.410386361307097 ], [ 117.314504485836423, 42.410381858364516 ], [ 117.314498409365896, 42.410381875034759 ], [ 117.314498431861239, 42.410386377977332 ], [ 117.314492355390271, 42.410386394647247 ], [ 117.314492422875034, 42.410399903474975 ], [ 117.314486346402774, 42.410399920144577 ], [ 117.314486413886257, 42.410413428972291 ], [ 117.314480337412661, 42.410413445641566 ], [ 117.314480359906739, 42.410417948584126 ], [ 117.31449858932875, 42.410417898575304 ], [ 117.314498634319506, 42.410426904460408 ], [ 117.314516863744075, 42.410426854448666 ], [ 117.314516908737446, 42.410435860333727 ] ] ] } },
{ "type": "Feature", "properties": { "crown_id": 1739, "tree_id": "1739", "top_h_m": 20.564, "H_95_Mean": 20.2722, "DBH": 29.18, "Carbon_kg": 162.290899, "area_m2": 18.0 }, "geometry": { "type": "Polygon", "coordinates": [ [ [ 117.314437824588566, 42.410418065260131 ], [ 117.314449977536654, 42.410418031925744 ], [ 117.314449955044765, 42.41041352898317 ], [ 117.314474260939107, 42.410413462310537 ], [ 117.314474238445456, 42.41040895936797 ], [ 117.314480314918612, 42.410408942699 ], [ 117.31448024743645, 42.410395433871287 ], [ 117.314486323908284, 42.410395417202004 ], [ 117.314486278919333, 42.410386411316843 ], [ 117.314474125977412, 42.41038644465506 ], [ 117.314474058496614, 42.410372935827283 ], [ 117.31446190555728, 42.4103729691642 ], [ 117.314461883064553, 42.410368466221584 ], [ 117.314455806595319, 42.41036848288956 ], [ 117.314455829087592, 42.410372985832176 ], [ 117.314449752617904, 42.410373002499824 ], [ 117.314449775109765, 42.410377505442426 ], [ 117.314443698639636, 42.410377522109762 ], [ 117.314443721131042, 42.410382025052364 ], [ 117.314431568189931, 42.410382058386062 ], [ 117.314431590680471, 42.410386561328671 ], [ 117.314425514209489, 42.410386577995041 ], [ 117.314425604170026, 42.410404589765456 ], [ 117.31443168064277, 42.410404573099079 ], [ 117.314431725623933, 42.410413578984254 ], [ 117.314437802097544, 42.410413562317544 ], [ 117.314437824588566, 42.410418065260131 ] ] ] } },
{ "type": "Feature", "properties": { "crown_id": 1752, "tree_id": "1752", "top_h_m": 19.474, "H_95_Mean": 19.2399, "DBH": 30.7353, "Carbon_kg": 174.71204, "area_m2": 24.25 }, "geometry": { "type": "Polygon", "coordinates": [ [ [ 117.31438309134775, 42.410409209363728 ], [ 117.314389167820963, 42.410409192699603 ], [ 117.314389145333422, 42.41040468975698 ], [ 117.31440129827898, 42.410404656427765 ], [ 117.314401275790587, 42.410400153485156 ], [ 117.314413428735236, 42.410400120154641 ], [ 117.31441345122451, 42.410404623097257 ], [ 117.314419527697254, 42.410404606431513 ], [ 117.314419437738465, 42.410386594661098 ], [ 117.314413361267455, 42.410386611326814 ], [ 117.314413248821225, 42.410364096613705 ], [ 117.314407172352375, 42.410364113279094 ], [ 117.314407149863584, 42.410359610336464 ], [ 117.314401073395175, 42.410359627001526 ], [ 117.31440105090681, 42.410355124058881 ], [ 117.314376745034807, 42.410355190715926 ], [ 117.314376767521438, 42.41035969365857 ], [ 117.314370691052986, 42.410359710322027 ], [ 117.314370736025353, 42.41036871620733 ], [ 117.314358583086701, 42.410368749533284 ], [ 117.314358673028025, 42.410386761303869 ], [ 117.314340443614796, 42.410386811290422 ], [ 117.314340488582914, 42.410395817175711 ], [ 117.314352641526796, 42.410395783851648 ], [ 117.314352664011722, 42.410400286794285 ], [ 117.31437089342883, 42.410400236805778 ], [ 117.314370915915049, 42.410404739748394 ], [ 117.31438306886065, 42.410404706421104 ], [ 117.31438309134775, 42.410409209363728 ] ] ] } },
{ "type": "Feature", "properties": { "crown_id": 1753, "tree_id": "1753", "top_h_m": 21.042, "H_95_Mean": 20.8882, "DBH": 29.0534, "Carbon_kg": 163.748498, "area_m2": 16.75 }, "geometry": { "type": "Polygon", "coordinates": [ [ [ 117.314547156122813, 42.410408759319189 ], [ 117.314577538488152, 42.410408675951835 ], [ 117.314577493486127, 42.410399670066774 ], [ 117.314583569958316, 42.410399653392339 ], [ 117.314583524955452, 42.410390647507271 ], [ 117.314589601426761, 42.410390630832531 ], [ 117.314589511419328, 42.41037261906235 ], [ 117.314528746723397, 42.410372785795225 ], [ 117.314528836713421, 42.410390797565505 ], [ 117.314534913184801, 42.410390780893664 ], [ 117.314534958180715, 42.410399786778768 ], [ 117.314541034652933, 42.410399770106586 ], [ 117.314541057151331, 42.410404273049124 ], [ 117.314547133623975, 42.41040425637663 ], [ 117.314547156122813, 42.410408759319189 ] ] ] } },
{ "type": "Feature", "properties": { "crown_id": 1798, "tree_id": "1798", "top_h_m": 16.326, "H_95_Mean": 16.3232, "DBH": 22.3131, "Carbon_kg": 83.135146, "area_m2": 9.5 }, "geometry": { "type": "Polygon", "coordinates": [ [ [ 117.314419415248764, 42.410382091718482 ], [ 117.314425491719348, 42.410382075052432 ], [ 117.314425469229235, 42.41037757210983 ], [ 117.314437622169521, 42.410377538776764 ], [ 117.314437599678513, 42.410373035834155 ], [ 117.31444367614823, 42.410373019167146 ], [ 117.314443653656795, 42.41036851622453 ], [ 117.314449730126057, 42.410368499557208 ], [ 117.314449707634225, 42.410363996614592 ], [ 117.314455784103046, 42.410363979946943 ], [ 117.3144557391185, 42.410354974061718 ], [ 117.314443586182605, 42.410355007396674 ], [ 117.314443563691228, 42.410350504454037 ], [ 117.314437487223699, 42.410350521121025 ], [ 117.314437464732748, 42.410346018178394 ], [ 117.314401005930108, 42.410346118173585 ], [ 117.314401028418459, 42.41035062111623 ], [ 117.314407104886016, 42.410350604451168 ], [ 117.314407127374807, 42.410355107393819 ], [ 117.314413203842761, 42.41035509072843 ], [ 117.314413226332007, 42.410359593671068 ], [ 117.314419302800403, 42.410359577005359 ], [ 117.314419415248764, 42.410382091718482 ] ] ] } },
{ "type": "Feature", "properties": { "crown_id": 1821, "tree_id": "1821", "top_h_m": 21.058, "H_95_Mean": 20.8787, "DBH": 28.9348, "Carbon_kg": 162.360358, "area_m2": 16.5 }, "geometry": { "type": "Polygon", "coordinates": [ [ [ 117.314480179954344, 42.410381925043531 ], [ 117.314492332895384, 42.41038189170466 ], [ 117.314492310400496, 42.410377388762086 ], [ 117.314510539810712, 42.410377338751395 ], [ 117.314510562306936, 42.410381841693976 ], [ 117.314522715247918, 42.410381808351893 ], [ 117.314522647756732, 42.410368299524166 ], [ 117.314528724225909, 42.410368282852644 ], [ 117.31452870172842, 42.410363779910064 ], [ 117.31452262525967, 42.410363796581578 ], [ 117.314522535271493, 42.410345784811199 ], [ 117.31446784706813, 42.410345934840223 ], [ 117.314467892054381, 42.410354940725462 ], [ 117.314461815586441, 42.41035495739375 ], [ 117.314461860571853, 42.410363963278968 ], [ 117.314467937040661, 42.410363946610694 ], [ 117.314467959533786, 42.410368449553296 ], [ 117.314480112472268, 42.410368416215739 ], [ 117.314480179954344, 42.410381925043531 ] ] ] } },
{ "type": "Feature", "properties": { "crown_id": 1822, "tree_id": "1822", "top_h_m": 22.086, "H_95_Mean": 21.9759, "DBH": 28.9252, "Carbon_kg": 167.242062, "area_m2": 15.0 }, "geometry": { "type": "Polygon", "coordinates": [ [ [ 117.3145348006951, 42.410368266180818 ], [ 117.314583412448357, 42.410368132794531 ], [ 117.314583277440022, 42.410341115139133 ], [ 117.314571124506955, 42.410341148487603 ], [ 117.314571102006454, 42.410336645545016 ], [ 117.314546796141983, 42.410336712238085 ], [ 117.314546773643229, 42.410332209295476 ], [ 117.314534620711825, 42.410332242640074 ], [ 117.314534665707626, 42.410341248525285 ], [ 117.314528589241036, 42.410341265197111 ], [ 117.314528679230932, 42.410359276967483 ], [ 117.314534755699256, 42.41035926029565 ], [ 117.3145348006951, 42.410368266180818 ] ] ] } },
{ "type": "Feature", "properties": { "crown_id": 1868, "tree_id": "1868", "top_h_m": 16.926, "H_95_Mean": 16.9069, "DBH": 24.1019, "Carbon_kg": 99.154192, "area_m2": 12.0 }, "geometry": { "type": "Polygon", "coordinates": [ [ [ 117.314376722548189, 42.41035068777326 ], [ 117.314394951950902, 42.410350637780972 ], [ 117.314394906975096, 42.410341631895669 ], [ 117.314400983441786, 42.410341615230926 ], [ 117.314400960953449, 42.410337112288275 ], [ 117.3143948844872, 42.410337128953003 ], [ 117.314394861999304, 42.41033262601033 ], [ 117.314388785533481, 42.410332642674732 ], [ 117.314388718071143, 42.41031913384672 ], [ 117.314364412212996, 42.410319200501092 ], [ 117.314364389727317, 42.410314697558398 ], [ 117.314352236799081, 42.410314730883655 ], [ 117.314352259283922, 42.41031923382635 ], [ 117.314340106354791, 42.410319267150321 ], [ 117.314340128838765, 42.410323770093015 ], [ 117.314327975908739, 42.4103238034157 ], [ 117.31432799839186, 42.410328306358394 ], [ 117.31434015132271, 42.410328273035709 ], [ 117.314340173806698, 42.410332775978404 ], [ 117.314352326738415, 42.410332742654418 ], [ 117.314352349223284, 42.410337245597105 ], [ 117.314364502155854, 42.410337212271841 ], [ 117.31436452464159, 42.4103417152145 ], [ 117.31437060110828, 42.410341698551385 ], [ 117.314370623594442, 42.41034620149405 ], [ 117.314376700061587, 42.410346184830594 ], [ 117.314376722548189, 42.41035068777326 ] ] ] } },
{ "type": "Feature", "properties": { "crown_id": 1893, "tree_id": "1893", "top_h_m": 20.304, "H_95_Mean": 19.9391, "DBH": 32.2154, "Carbon_kg": 196.182665, "area_m2": 27.25 }, "geometry": { "type": "Polygon", "coordinates": [ [ [ 117.314449640158728, 42.410350487786715 ], [ 117.31446179309377, 42.41035045445112 ], [ 117.314461748108386, 42.410341448565866 ], [ 117.314522512774474, 42.410341281868604 ], [ 117.31452249027744, 42.410336778925995 ], [ 117.31452856674359, 42.410336762254502 ], [ 117.314528409261513, 42.410305241656182 ], [ 117.314510179872201, 42.410305291669637 ], [ 117.314510157376091, 42.410300788727007 ], [ 117.314455469211723, 42.410300938749984 ], [ 117.314455649149494, 42.41033696229119 ], [ 117.314449572683287, 42.410336978958824 ], [ 117.314449640158728, 42.410350487786715 ] ] ] } },
{ "type": "Feature", "properties": { "crown_id": 1909, "tree_id": "1909", "top_h_m": 17.568, "H_95_Mean": 17.3509, "DBH": 27.7465, "Carbon_kg": 133.730642, "area_m2": 19.75 }, "geometry": { "type": "Polygon", "coordinates": [ [ [ 117.314407059908476, 42.410341598565871 ], [ 117.314443518708458, 42.410341498568776 ], [ 117.314443473725717, 42.41033249268348 ], [ 117.314449550191497, 42.410332476016166 ], [ 117.314449347765475, 42.410291949532258 ], [ 117.314418965456099, 42.410292032865449 ], [ 117.3144189879457, 42.410296535808129 ], [ 117.314412911483359, 42.410296552473795 ], [ 117.314412956461666, 42.41030555835917 ], [ 117.314406879998486, 42.410305575024523 ], [ 117.314406902487192, 42.410310077967203 ], [ 117.314400826023558, 42.410310094632237 ], [ 117.314400848511866, 42.410314597574917 ], [ 117.314394772047791, 42.410314614239645 ], [ 117.314394839511436, 42.410328123067657 ], [ 117.31440091597679, 42.410328106402936 ], [ 117.314400938465127, 42.410332609345602 ], [ 117.314407014930921, 42.41033259268054 ], [ 117.314407059908476, 42.410341598565871 ] ] ] } },
{ "type": "Feature", "properties": { "crown_id": 1925, "tree_id": "1925", "top_h_m": 20.52, "H_95_Mean": 20.2571, "DBH": 28.1833, "Carbon_kg": 151.245366, "area_m2": 15.75 }, "geometry": { "type": "Polygon", "coordinates": [ [ [ 117.314577178472561, 42.410336628870951 ], [ 117.314583254938668, 42.410336612196566 ], [ 117.314583187434579, 42.410323103368782 ], [ 117.314589263899364, 42.410323086694078 ], [ 117.314589173892259, 42.410305074923698 ], [ 117.314583097429207, 42.410305091598389 ], [ 117.314583029925245, 42.410291582770554 ], [ 117.314576953463487, 42.410291599444925 ], [ 117.314576975964357, 42.410296102387534 ], [ 117.314546593653347, 42.410296185754561 ], [ 117.314546638650796, 42.410305191639814 ], [ 117.314534485724607, 42.410305224984377 ], [ 117.314534598213967, 42.410327739697472 ], [ 117.314552827609731, 42.410327689680095 ], [ 117.314552850108925, 42.410332192622697 ], [ 117.314577155971634, 42.410332125928356 ], [ 117.314577178472561, 42.410336628870951 ] ] ] } }
]
}
