{
"type": "FeatureCollection",
"name": "tile_19_17",
"crs": { "type": "name", "properties": { "name": "urn:ogc:def:crs:OGC:1.3:CRS84" } },
"features": [
{ "type": "Feature", "properties": { "crown_id": 5698, "tree_id": "5701", "top_h_m": 22.653, "H_95_Mean": 22.474, "DBH": 32.3581, "Carbon_kg": 212.456666, "area_m2": 22.25 }, "geometry": { "type": "Polygon", "coordinates": [ [ [ 117.31394642069391, 42.40814089143246 ], [ 117.313982878221097, 42.408140791586014 ], [ 117.313982833307691, 42.408131785696867 ], [ 117.314007138322239, 42.408131719126139 ], [ 117.314007093405408, 42.408122713237006 ], [ 117.314001017152648, 42.408122729880162 ], [ 117.314000972236684, 42.408113723990994 ], [ 117.314007048488577, 42.408113707347844 ], [ 117.314007026030168, 42.40810920440326 ], [ 117.314013102281621, 42.408109187759798 ], [ 117.314013057363965, 42.408100181870623 ], [ 117.314019133614536, 42.408100165226834 ], [ 117.314019111155261, 42.408095662282243 ], [ 117.313958348653628, 42.408095828705598 ], [ 117.313958393563468, 42.40810483459483 ], [ 117.313946241061345, 42.40810486787565 ], [ 117.313946353331673, 42.408127382598678 ], [ 117.313952429584916, 42.408127365958421 ], [ 117.313952452039416, 42.408131868903013 ], [ 117.313946375785747, 42.408131885543284 ], [ 117.31394642069391, 42.40814089143246 ] ] ] } },
{ "type": "Feature", "properties": { "crown_id": 5716, "tree_id": "5719", "top_h_m": 23.022, "H_95_Mean": 22.5242, "DBH": 33.0302, "Carbon_kg": 221.736998, "area_m2": 24.0 }, "geometry": { "type": "Polygon", "coordinates": [ [ [ 117.313909963166552, 42.408140991267317 ], [ 117.313940344439374, 42.408140908072404 ], [ 117.313940142356657, 42.408100381570954 ], [ 117.313952294857941, 42.408100348290787 ], [ 117.313952272403455, 42.408095845346168 ], [ 117.31393404365285, 42.408095895265937 ], [ 117.313934021199685, 42.408091392321296 ], [ 117.31392794494991, 42.40809140896058 ], [ 117.313927922497172, 42.408086906015939 ], [ 117.313921846247808, 42.408086922654888 ], [ 117.313921823795539, 42.408082419710247 ], [ 117.313909671297679, 42.40808245298718 ], [ 117.313909693749096, 42.408086955931822 ], [ 117.313903617499747, 42.408086972569812 ], [ 117.313903639950723, 42.408091475514446 ], [ 117.31389756370092, 42.408091492152117 ], [ 117.313897586151498, 42.408095995096758 ], [ 117.313891509901254, 42.408096011734102 ], [ 117.313891532351363, 42.40810051467875 ], [ 117.313885456100707, 42.408100531315775 ], [ 117.313885590799003, 42.408127548983579 ], [ 117.313891667052289, 42.408127532346533 ], [ 117.313891689502441, 42.40813203529116 ], [ 117.313897765756167, 42.408132018653795 ], [ 117.313897788206788, 42.408136521598422 ], [ 117.313909940715064, 42.408136488322711 ], [ 117.313909963166552, 42.408140991267317 ] ] ] } },
{ "type": "Feature", "properties": { "crown_id": 5717, "tree_id": "5720", "top_h_m": 21.92, "H_95_Mean": 21.5778, "DBH": 32.7938, "Carbon_kg": 213.071224, "area_m2": 25.25 }, "geometry": { "type": "Polygon", "coordinates": [ [ [ 117.314080030901735, 42.408127016438542 ], [ 117.31411041216731, 42.408126933198581 ], [ 117.314110389701511, 42.40812243025406 ], [ 117.314122542206832, 42.408122396955832 ], [ 117.314122497273488, 42.40811339106677 ], [ 117.314128573525267, 42.408113374417177 ], [ 117.314128528591084, 42.408104368528107 ], [ 117.314122452340186, 42.408104385177694 ], [ 117.314122407406884, 42.408095379288604 ], [ 117.31411025490678, 42.408095412586803 ], [ 117.314110232440996, 42.408090909642254 ], [ 117.314104156191362, 42.408090926290868 ], [ 117.314104133726033, 42.408086423346319 ], [ 117.314098057476855, 42.408086439994598 ], [ 117.314098035011952, 42.408081937050021 ], [ 117.314049425021636, 42.408082070224722 ], [ 117.314049402560215, 42.408077567280131 ], [ 117.314025097566685, 42.40807763385974 ], [ 117.314025120026372, 42.408082136804353 ], [ 117.314019043777535, 42.408082153448447 ], [ 117.314019088696014, 42.408091159337644 ], [ 117.314025164945718, 42.408091142693543 ], [ 117.31402518740542, 42.408095645638127 ], [ 117.314043416155798, 42.408095595703877 ], [ 117.314043371233822, 42.408086589814708 ], [ 117.314055523732307, 42.408086556523592 ], [ 117.314055568656016, 42.408095562412761 ], [ 117.314061644906118, 42.408095545766713 ], [ 117.314061667368421, 42.408100048711304 ], [ 117.314067743618963, 42.40810003206493 ], [ 117.314067833469934, 42.408118043843174 ], [ 117.314079985974473, 42.408118010549451 ], [ 117.314080030901735, 42.408127016438542 ] ] ] } },
{ "type": "Feature", "properties": { "crown_id": 5751, "tree_id": "5755", "top_h_m": 22.494, "H_95_Mean": 22.3987, "DBH": 32.1183, "Carbon_kg": 208.880215, "area_m2": 21.75 }, "geometry": { "type": "Polygon", "coordinates": [ [ [ 117.313867227348624, 42.408100581224922 ], [ 117.313879379850007, 42.408100547952479 ], [ 117.313879357400737, 42.408096045007831 ], [ 117.313885433650995, 42.408096028371126 ], [ 117.313885411201298, 42.408091525426471 ], [ 117.313891487451116, 42.408091508789468 ], [ 117.313891465000978, 42.408087005844806 ], [ 117.313897541250384, 42.408086989207469 ], [ 117.313897518799806, 42.408082486262813 ], [ 117.313903595048743, 42.40808246962515 ], [ 117.313903572597766, 42.408077966680501 ], [ 117.313909648846277, 42.408077950042532 ], [ 117.313909626394874, 42.40807344709787 ], [ 117.31390355014679, 42.408073463735839 ], [ 117.313903460342942, 42.408055451957175 ], [ 117.313897384096634, 42.40805546859481 ], [ 117.313897361646113, 42.408050965650133 ], [ 117.313891285400203, 42.408050982287456 ], [ 117.313891262950136, 42.408046479342772 ], [ 117.313854805477234, 42.408046579159901 ], [ 117.313854872819675, 42.408060087993995 ], [ 117.313848796572856, 42.408060104629065 ], [ 117.313848841466964, 42.408069110518454 ], [ 117.313836688971605, 42.408069143787635 ], [ 117.313836711417807, 42.408073646732326 ], [ 117.313842787665905, 42.408073630097896 ], [ 117.313842810112547, 42.408078133042565 ], [ 117.313848886361086, 42.408078116407815 ], [ 117.313848908808168, 42.408082619352477 ], [ 117.313861061306113, 42.408082586082003 ], [ 117.313861128649961, 42.408096094915997 ], [ 117.31386720490022, 42.408096078280259 ], [ 117.313867227348624, 42.408100581224922 ] ] ] } },
{ "type": "Feature", "properties": { "crown_id": 5752, "tree_id": "5756", "top_h_m": 18.167, "H_95_Mean": 18.2113, "DBH": 25.37, "Carbon_kg": 114.890717, "area_m2": 12.75 }, "geometry": { "type": "Polygon", "coordinates": [ [ [ 117.313958326198744, 42.408091325760985 ], [ 117.314013012446324, 42.408091175981426 ], [ 117.314012945069877, 42.408077667147616 ], [ 117.314019021318288, 42.408077650503841 ], [ 117.314018976399851, 42.408068644614637 ], [ 117.314006823904776, 42.408068677901852 ], [ 117.314006801446411, 42.408064174957225 ], [ 117.313994648952175, 42.408064208243147 ], [ 117.313994626494718, 42.408059705298506 ], [ 117.313976397754644, 42.408059755224976 ], [ 117.313976442667013, 42.408068761114251 ], [ 117.313970366419426, 42.408068777755766 ], [ 117.313970388875177, 42.408073280700407 ], [ 117.313964312627164, 42.408073297341595 ], [ 117.313964357537813, 42.408082303230856 ], [ 117.313958281288919, 42.408082319871724 ], [ 117.313958326198744, 42.408091325760985 ] ] ] } },
{ "type": "Feature", "properties": { "crown_id": 5794, "tree_id": "5798", "top_h_m": 22.934, "H_95_Mean": 22.8793, "DBH": 31.7478, "Carbon_kg": 206.6306, "area_m2": 20.0 }, "geometry": { "type": "Polygon", "coordinates": [ [ [ 117.313940097449432, 42.4080913756817 ], [ 117.313952249948983, 42.408091342401541 ], [ 117.313952182585581, 42.408077833567653 ], [ 117.313958258834035, 42.408077816927104 ], [ 117.313958213924266, 42.408068811037836 ], [ 117.313964290171853, 42.408068794396961 ], [ 117.313964267716528, 42.40806429145232 ], [ 117.313970343963689, 42.408064274811132 ], [ 117.313970276596478, 42.408050765977201 ], [ 117.313958124104786, 42.408050799259243 ], [ 117.313958101649945, 42.408046296314588 ], [ 117.313952025404518, 42.408046312955115 ], [ 117.313952002950117, 42.408041810010467 ], [ 117.313897316745098, 42.408041959760773 ], [ 117.313897339195591, 42.40804646270545 ], [ 117.313903415441047, 42.408046446067814 ], [ 117.313903437891994, 42.408050949012498 ], [ 117.313909514137876, 42.408050932374536 ], [ 117.313909603943458, 42.408068944153214 ], [ 117.313915680191073, 42.408068927514925 ], [ 117.313915725094759, 42.408077933404222 ], [ 117.313927877591709, 42.408077900126656 ], [ 117.313927900044447, 42.40808240307129 ], [ 117.313933976293356, 42.408082386432035 ], [ 117.313933998746521, 42.408086889376669 ], [ 117.313940074995841, 42.40808687273708 ], [ 117.313940097449432, 42.4080913756817 ] ] ] } },
{ "type": "Feature", "properties": { "crown_id": 5802, "tree_id": "5806", "top_h_m": 22.473, "H_95_Mean": 22.4251, "DBH": 28.2842, "Carbon_kg": 161.780956, "area_m2": 13.25 }, "geometry": { "type": "Polygon", "coordinates": [ [ [ 117.314055478808598, 42.408077550634424 ], [ 117.314085860050383, 42.408077467401057 ], [ 117.314085770194367, 42.408059455622713 ], [ 117.314091846440959, 42.408059438975094 ], [ 117.31409180151212, 42.408050433085911 ], [ 117.314097877757845, 42.408050416437966 ], [ 117.314097855292985, 42.408045913493361 ], [ 117.314103931538284, 42.408045896845088 ], [ 117.314103886607725, 42.408036890955898 ], [ 117.314109962852143, 42.408036874307314 ], [ 117.31410994038643, 42.408032371362722 ], [ 117.314103864142453, 42.4080323880113 ], [ 117.314103841677181, 42.408027885066687 ], [ 117.314085612946528, 42.408027935010487 ], [ 117.314085590482577, 42.408023432065875 ], [ 117.314079514239438, 42.408023448713159 ], [ 117.314079581630025, 42.408036957547012 ], [ 117.314067429141133, 42.408036990840642 ], [ 117.31406751899182, 42.408055002619065 ], [ 117.31406144274564, 42.408055019265419 ], [ 117.314061532594707, 42.408073031043813 ], [ 117.314055456346765, 42.408073047689832 ], [ 117.314055478808598, 42.408077550634424 ] ] ] } },
{ "type": "Feature", "properties": { "crown_id": 5823, "tree_id": "5827", "top_h_m": 24.788, "H_95_Mean": 24.4924, "DBH": 36.1537, "Carbon_kg": 279.542334, "area_m2": 29.25 }, "geometry": { "type": "Polygon", "coordinates": [ [ [ 117.31402507510704, 42.408073130915142 ], [ 117.314049380098808, 42.408073064335539 ], [ 117.31404935763743, 42.408068561390948 ], [ 117.314055433884917, 42.408068544745234 ], [ 117.314055344037627, 42.408050532966811 ], [ 117.314061420283394, 42.408050516320806 ], [ 117.314061330434455, 42.408032504542341 ], [ 117.314073482922481, 42.408032471249371 ], [ 117.314073415533215, 42.408018962415497 ], [ 117.314085568018626, 42.408018929121255 ], [ 117.314085500626788, 42.40800542028736 ], [ 117.314061195661196, 42.408005486874536 ], [ 117.314061173198994, 42.408000983929895 ], [ 117.314042944476057, 42.408001033866881 ], [ 117.314042966936952, 42.408005536811537 ], [ 117.314030814454085, 42.40800557010126 ], [ 117.314030859374128, 42.408014575990563 ], [ 117.314024783131842, 42.408014592634949 ], [ 117.314024805591416, 42.40801909557959 ], [ 117.314018729348689, 42.408019112223663 ], [ 117.314018864103772, 42.408046129891503 ], [ 117.314012787858417, 42.408046146535263 ], [ 117.314012877693514, 42.408064158313778 ], [ 117.314025030187707, 42.408064125025916 ], [ 117.31402507510704, 42.408073130915142 ] ] ] } },
{ "type": "Feature", "properties": { "crown_id": 5841, "tree_id": "5845", "top_h_m": 21.152, "H_95_Mean": 21.1206, "DBH": 30.1699, "Carbon_kg": 177.838965, "area_m2": 19.0 }, "geometry": { "type": "Polygon", "coordinates": [ [ [ 117.313848706784725, 42.408042092850259 ], [ 117.313885164255041, 42.40804199303507 ], [ 117.313885141805386, 42.408037490090386 ], [ 117.313891218050003, 42.408037473453405 ], [ 117.313891195599936, 42.408032970508707 ], [ 117.31388511935576, 42.408032987145688 ], [ 117.313885074456536, 42.408023981256278 ], [ 117.313878998213241, 42.40802399789294 ], [ 117.313878975764041, 42.408019494948228 ], [ 117.313885052006924, 42.40801947831158 ], [ 117.313885007107729, 42.408010472422156 ], [ 117.313878930865727, 42.408010489058803 ], [ 117.313878908416569, 42.408005986114077 ], [ 117.313872832175008, 42.408006002750412 ], [ 117.313872809726263, 42.408001499805678 ], [ 117.313866733485142, 42.408001516441679 ], [ 117.313866711036866, 42.407997013496946 ], [ 117.313836329833251, 42.407997096672112 ], [ 117.313836374725483, 42.408006102561593 ], [ 117.31382422224226, 42.408006135829424 ], [ 117.313824267132759, 42.408015141718913 ], [ 117.313830343375258, 42.40801512508515 ], [ 117.313830410712342, 42.408028633919344 ], [ 117.313842563199913, 42.408028600650852 ], [ 117.313842585646483, 42.408033103595571 ], [ 117.313848661890688, 42.408033086960849 ], [ 117.313848706784725, 42.408042092850259 ] ] ] } },
{ "type": "Feature", "properties": { "crown_id": 5842, "tree_id": "5846", "top_h_m": 24.072, "H_95_Mean": 23.7457, "DBH": 34.481, "Carbon_kg": 249.47678, "area_m2": 25.75 }, "geometry": { "type": "Polygon", "coordinates": [ [ [ 117.313897294294577, 42.408037456816082 ], [ 117.313909446783754, 42.408037423540499 ], [ 117.313909424332394, 42.408032920595808 ], [ 117.313915500576556, 42.40803290395754 ], [ 117.313915523028342, 42.408037406902231 ], [ 117.313964132984779, 42.408037273784416 ], [ 117.313963885977046, 42.40798774139293 ], [ 117.313933504778205, 42.407987824593825 ], [ 117.313933549684307, 42.407996830483249 ], [ 117.313915320962337, 42.407996880399942 ], [ 117.313915343414095, 42.408001383344654 ], [ 117.313903190931896, 42.408001416620841 ], [ 117.313903280735488, 42.408019428399676 ], [ 117.313891128249779, 42.408019461674598 ], [ 117.313891173149884, 42.408028467563994 ], [ 117.313897249393591, 42.4080284509267 ], [ 117.313897294294577, 42.408037456816082 ] ] ] } },
{ "type": "Feature", "properties": { "crown_id": 5843, "tree_id": "5847", "top_h_m": 25.411, "H_95_Mean": 25.1175, "DBH": 34.672, "Carbon_kg": 260.790599, "area_m2": 23.75 }, "geometry": { "type": "Polygon", "coordinates": [ [ [ 117.314000702741396, 42.408059688655712 ], [ 117.314006778988059, 42.408059672012591 ], [ 117.314006689154724, 42.408041660234069 ], [ 117.314012765399667, 42.408041643590629 ], [ 117.314012630647198, 42.408014625922753 ], [ 117.314018706889513, 42.408014609279014 ], [ 117.314018684430351, 42.408010106334345 ], [ 117.31402476067224, 42.408010089690286 ], [ 117.314024738212638, 42.408005586745638 ], [ 117.314012585729742, 42.408005620033428 ], [ 117.314012563271035, 42.408001117088752 ], [ 117.314006487030014, 42.408001133732171 ], [ 117.314006442113453, 42.40799212784281 ], [ 117.313969984672454, 42.407992227696468 ], [ 117.313970231685047, 42.40804176008789 ], [ 117.313964155440075, 42.408041776729071 ], [ 117.313964177895343, 42.408046279673727 ], [ 117.313976330386154, 42.408046246391045 ], [ 117.313976352842317, 42.4080507493357 ], [ 117.313982429088128, 42.408050732693859 ], [ 117.313982451544717, 42.408055235638514 ], [ 117.314000680283499, 42.408055185711092 ], [ 117.314000702741396, 42.408059688655712 ] ] ] } },
{ "type": "Feature", "properties": { "crown_id": 5890, "tree_id": "5894", "top_h_m": 22.339, "H_95_Mean": 22.3976, "DBH": 30.2558, "Carbon_kg": 185.180392, "area_m2": 17.25 }, "geometry": { "type": "Polygon", "coordinates": [ [ [ 117.314018639512028, 42.408001100445027 ], [ 117.31403686823505, 42.408001050511906 ], [ 117.314036845774609, 42.407996547567244 ], [ 117.314067226977357, 42.407996464338943 ], [ 117.314067249439972, 42.408000967283577 ], [ 117.314079401921916, 42.408000933990003 ], [ 117.31407937945842, 42.407996431045362 ], [ 117.314073303217882, 42.407996447692319 ], [ 117.314073235828744, 42.407982938858353 ], [ 117.314079312067989, 42.40798292221141 ], [ 117.314079289604521, 42.407978419266755 ], [ 117.314073213365702, 42.407978435913698 ], [ 117.31407314597665, 42.407964927079703 ], [ 117.314054917264144, 42.407964977018551 ], [ 117.314054939725878, 42.407969479963235 ], [ 117.314012406060158, 42.407969596475986 ], [ 117.314012540812328, 42.407996614144089 ], [ 117.314018617052895, 42.407996597500365 ], [ 117.314018639512028, 42.408001100445027 ] ] ] } },
{ "type": "Feature", "properties": { "crown_id": 5897, "tree_id": "5901", "top_h_m": 24.597, "H_95_Mean": 24.0678, "DBH": 35.0422, "Carbon_kg": 259.790126, "area_m2": 26.75 }, "geometry": { "type": "Polygon", "coordinates": [ [ [ 117.313891105799755, 42.408014958729879 ], [ 117.313897182042169, 42.408014942092592 ], [ 117.313897092240325, 42.407996930313736 ], [ 117.313909244721671, 42.407996897038196 ], [ 117.313909222270354, 42.407992394093476 ], [ 117.313927450991031, 42.40799234417775 ], [ 117.31392740608581, 42.407983338288325 ], [ 117.313951711043188, 42.407983271729542 ], [ 117.313951666134486, 42.407974265840117 ], [ 117.313945589896036, 42.407974282480289 ], [ 117.313945544988229, 42.407965276590843 ], [ 117.313927316275411, 42.407965326509419 ], [ 117.313927293822829, 42.407960823564672 ], [ 117.313921217585658, 42.40796084020355 ], [ 117.313921195133503, 42.407956337258817 ], [ 117.313909042660015, 42.407956370535608 ], [ 117.313909020208726, 42.407951867590846 ], [ 117.313902943972408, 42.407951884228751 ], [ 117.313902966423228, 42.407956387173499 ], [ 117.313890813949712, 42.407956420448357 ], [ 117.313890836399665, 42.407960923393105 ], [ 117.313884760162466, 42.407960940030051 ], [ 117.313884805061562, 42.407969945919547 ], [ 117.313854423871078, 42.407970029099467 ], [ 117.313854446318459, 42.407974532044236 ], [ 117.313842293841347, 42.40797456531395 ], [ 117.313842316287875, 42.407979068258705 ], [ 117.313854468765825, 42.407979034988983 ], [ 117.313854491213235, 42.407983537933745 ], [ 117.313860567452636, 42.407983521298391 ], [ 117.313860612348307, 42.407992527187886 ], [ 117.313872764828844, 42.407992493916204 ], [ 117.31387278727756, 42.407996996860952 ], [ 117.313878863518255, 42.407996980224624 ], [ 117.313878885967398, 42.408001483169357 ], [ 117.313884962208547, 42.408001466532717 ], [ 117.313884984658117, 42.408005969477429 ], [ 117.313891060899678, 42.408005952840455 ], [ 117.313891105799755, 42.408014958729879 ] ] ] } },
{ "type": "Feature", "properties": { "crown_id": 5906, "tree_id": "5910", "top_h_m": 22.642, "H_95_Mean": 22.8614, "DBH": 28.68, "Carbon_kg": 168.283282, "area_m2": 13.5 }, "geometry": { "type": "Polygon", "coordinates": [ [ [ 117.313969962216802, 42.407987724751777 ], [ 117.314000343415472, 42.407987641541212 ], [ 117.314000320957661, 42.407983138596535 ], [ 117.314006397196948, 42.40798312195345 ], [ 117.31400630736394, 42.407965110174679 ], [ 117.313994154888832, 42.407965143460501 ], [ 117.313994132431475, 42.407960640515768 ], [ 117.313988056194376, 42.407960657158199 ], [ 117.313988011280514, 42.407951651268768 ], [ 117.313969782571718, 42.407951701194079 ], [ 117.313969760116109, 42.407947198249353 ], [ 117.313963683880274, 42.40794721489047 ], [ 117.313963751245822, 42.407960723724656 ], [ 117.31395159877151, 42.407960757005952 ], [ 117.313951643680156, 42.407969762895405 ], [ 117.313957719918179, 42.407969746254906 ], [ 117.313957787282504, 42.407983255089043 ], [ 117.313969939761137, 42.407983221807079 ], [ 117.313969962216802, 42.407987724751777 ] ] ] } }
]
}
