{
"type": "FeatureCollection",
"name": "tile_1_20",
"crs": { "type": "name", "properties": { "name": "urn:ogc:def:crs:OGC:1.3:CRS84" } },
"features": [
{ "type": "Feature", "properties": { "crown_id": 24, "tree_id": "24", "top_h_m": 22.214, "H_95_Mean": 22.0506, "DBH": 28.0604, "Carbon_kg": 157.633293, "area_m2": 13.25 }, "geometry": { "type": "Polygon", "coordinates": [ [ [ 117.314612961697065, 42.411417251610246 ], [ 117.314655497689643, 42.411417134867058 ], [ 117.314655295123373, 42.411376608391627 ], [ 117.314649218556951, 42.411376625070176 ], [ 117.314649241063847, 42.411381128011897 ], [ 117.314643164496957, 42.411381144690125 ], [ 117.314643187003426, 42.411385647631846 ], [ 117.314637110436124, 42.411385664309755 ], [ 117.314637132942167, 42.411390167251483 ], [ 117.314631056374409, 42.411390183929065 ], [ 117.314631011363176, 42.411381178045602 ], [ 117.314624934796285, 42.411381194722857 ], [ 117.314624957301461, 42.411385697664599 ], [ 117.31461888073413, 42.411385714341527 ], [ 117.31461890323888, 42.411390217283262 ], [ 117.314612826671095, 42.411390233959871 ], [ 117.314612894184066, 42.411403742785076 ], [ 117.314606817614958, 42.411403759461379 ], [ 117.314606862622767, 42.411412765344828 ], [ 117.314612939192727, 42.411412748668532 ], [ 117.314612961697065, 42.411417251610246 ] ] ] } },
{ "type": "Feature", "properties": { "crown_id": 25, "tree_id": "25", "top_h_m": 22.783, "H_95_Mean": 22.7399, "DBH": 26.3075, "Carbon_kg": 140.958792, "area_m2": 9.75 }, "geometry": { "type": "Polygon", "coordinates": [ [ [ 117.314661574260001, 42.411417118188169 ], [ 117.314704110252279, 42.411417001426955 ], [ 117.314704065230558, 42.411407995543591 ], [ 117.314710141799992, 42.411407978862123 ], [ 117.314710096777432, 42.411398972978759 ], [ 117.314704020208865, 42.411398989660213 ], [ 117.314703997698018, 42.411394486718514 ], [ 117.314673614857284, 42.41139457012094 ], [ 117.314673592348626, 42.411390067179227 ], [ 117.314661439213168, 42.411390100537929 ], [ 117.314661574260001, 42.411417118188169 ] ] ] } },
{ "type": "Feature", "properties": { "crown_id": 26, "tree_id": "26", "top_h_m": 20.101, "H_95_Mean": 19.8107, "DBH": 21.5109, "Carbon_kg": 86.591295, "area_m2": 5.75 }, "geometry": { "type": "Polygon", "coordinates": [ [ [ 117.31471018682258, 42.411416984745479 ], [ 117.314752722814603, 42.411416867966217 ], [ 117.314752700300247, 42.411412365024574 ], [ 117.314746623730429, 42.411412381708281 ], [ 117.314746578702625, 42.411403375824953 ], [ 117.31474050213366, 42.41140339250834 ], [ 117.314740479620212, 42.411398889566662 ], [ 117.314734403051673, 42.41139890624973 ], [ 117.314734380538653, 42.411394403308051 ], [ 117.314722227402413, 42.411394436673199 ], [ 117.314722249914553, 42.411398939614891 ], [ 117.314716173346014, 42.411398956296985 ], [ 117.314716240881168, 42.411412465122027 ], [ 117.314710164311307, 42.411412481803815 ], [ 117.31471018682258, 42.411416984745479 ] ] ] } },
{ "type": "Feature", "properties": { "crown_id": 50, "tree_id": "50", "top_h_m": 19.381, "H_95_Mean": 19.7496, "DBH": 25.6786, "Carbon_kg": 123.508737, "area_m2": 11.5 }, "geometry": { "type": "Polygon", "coordinates": [ [ [ 117.314770952525379, 42.411416817913143 ], [ 117.314819565087248, 42.411416684424069 ], [ 117.314819475010779, 42.411398672657526 ], [ 117.314807321873843, 42.411398706031704 ], [ 117.314807254319163, 42.411385197206748 ], [ 117.314801177751974, 42.411385213893361 ], [ 117.314801155234207, 42.41138071095169 ], [ 117.314789002100682, 42.411380744323914 ], [ 117.31478902461761, 42.411385247265585 ], [ 117.314782948050407, 42.41138526395121 ], [ 117.314782993083369, 42.411394269834553 ], [ 117.314776916515285, 42.411394286519858 ], [ 117.314776961547409, 42.411403292403179 ], [ 117.314770884978458, 42.411403309088179 ], [ 117.314770952525379, 42.411416817913143 ] ] ] } },
{ "type": "Feature", "properties": { "crown_id": 77, "tree_id": "77", "top_h_m": 21.195, "H_95_Mean": 20.6678, "DBH": 26.6692, "Carbon_kg": 136.931269, "area_m2": 12.25 }, "geometry": { "type": "Polygon", "coordinates": [ [ [ 117.314758776870093, 42.411412348340534 ], [ 117.314764853439911, 42.411412331656166 ], [ 117.314764785894312, 42.411398822831195 ], [ 117.314770862462836, 42.411398806146515 ], [ 117.314770817431594, 42.411389800263187 ], [ 117.314776893999252, 42.411389783578194 ], [ 117.314776848967156, 42.411380777694852 ], [ 117.314782925533919, 42.411380761009539 ], [ 117.314782903017445, 42.411376258067868 ], [ 117.314776826451109, 42.411376274753181 ], [ 117.31477678141907, 42.411367268869817 ], [ 117.314758551722647, 42.41136731892378 ], [ 117.314758529207936, 42.411362815982088 ], [ 117.314746376077807, 42.411362849349779 ], [ 117.314746398591666, 42.411367352291471 ], [ 117.314740322026168, 42.411367368974837 ], [ 117.314740344539587, 42.411371871916536 ], [ 117.314734267973662, 42.411371888599582 ], [ 117.314734312999633, 42.411380894482981 ], [ 117.314740389566438, 42.411380877799935 ], [ 117.314740457106737, 42.411394386624991 ], [ 117.31474653367485, 42.411394369941597 ], [ 117.314746556188737, 42.411398872883275 ], [ 117.314752632757276, 42.411398856199568 ], [ 117.314752677785918, 42.41140786208291 ], [ 117.314758754355324, 42.411407845398863 ], [ 117.314758776870093, 42.411412348340534 ] ] ] } },
{ "type": "Feature", "properties": { "crown_id": 89, "tree_id": "89", "top_h_m": 21.125, "H_95_Mean": 21.1657, "DBH": 25.2617, "Carbon_kg": 124.496687, "area_m2": 9.5 }, "geometry": { "type": "Polygon", "coordinates": [ [ [ 117.314679668916355, 42.411390050499385 ], [ 117.314716128322587, 42.411389950413593 ], [ 117.314716105810902, 42.411385447471915 ], [ 117.314728258945394, 42.411385414107414 ], [ 117.314728213920262, 42.411376408224029 ], [ 117.314722137353883, 42.411376424906429 ], [ 117.314722159866022, 42.411380927848121 ], [ 117.314716083299189, 42.411380944530215 ], [ 117.314716038275819, 42.411371938646795 ], [ 117.314709961709866, 42.411371955328562 ], [ 117.314709939198607, 42.411367452386848 ], [ 117.314703862633095, 42.411367469068288 ], [ 117.314703840122306, 42.411362966126568 ], [ 117.314697763557191, 42.411362982807667 ], [ 117.314697786067583, 42.411367485749402 ], [ 117.314679556370947, 42.411367535790795 ], [ 117.314679578880018, 42.411372038732523 ], [ 117.314673502314022, 42.41137205541235 ], [ 117.31467352482268, 42.411376558354078 ], [ 117.314667448256245, 42.411376575033586 ], [ 117.314667493272665, 42.411385580917013 ], [ 117.314679646407271, 42.411385547557664 ], [ 117.314679668916355, 42.411390050499385 ] ] ] } },
{ "type": "Feature", "properties": { "crown_id": 94, "tree_id": "94", "top_h_m": 21.546, "H_95_Mean": 21.1364, "DBH": 30.4831, "Carbon_kg": 181.659873, "area_m2": 19.75 }, "geometry": { "type": "Polygon", "coordinates": [ [ [ 117.314837749757018, 42.4114076284771 ], [ 117.314843826326324, 42.411407611788562 ], [ 117.314843781284623, 42.411398605905298 ], [ 117.314837704716183, 42.411398622593843 ], [ 117.314837682195773, 42.411394119652215 ], [ 117.3148437587638, 42.411394102963676 ], [ 117.314843736242963, 42.411389600022041 ], [ 117.314837659675376, 42.411389616710572 ], [ 117.314837637154994, 42.41138511376893 ], [ 117.314849790289287, 42.41138508039154 ], [ 117.314849677683071, 42.411362565683312 ], [ 117.314837524553099, 42.411362599060659 ], [ 117.314837502032745, 42.411358096119002 ], [ 117.314831425468199, 42.4113581128072 ], [ 117.314831402948286, 42.411353609865515 ], [ 117.314819249820033, 42.411353643240936 ], [ 117.314819227300987, 42.411349140299258 ], [ 117.314794921046172, 42.4113492070462 ], [ 117.314794966080797, 42.411358212929592 ], [ 117.31478281295162, 42.411358246301141 ], [ 117.314782880500999, 42.411371755126197 ], [ 117.314788957066867, 42.411371738440572 ], [ 117.314788979583781, 42.41137624138225 ], [ 117.314807209282748, 42.411376191323434 ], [ 117.314807231800941, 42.411380694265098 ], [ 117.314813308367675, 42.411380677578173 ], [ 117.314813375923649, 42.411394186403129 ], [ 117.314825529059732, 42.411394153028326 ], [ 117.314825574098791, 42.41140315891159 ], [ 117.314837727236593, 42.411403125535479 ], [ 117.314837749757018, 42.4114076284771 ] ] ] } },
{ "type": "Feature", "properties": { "crown_id": 157, "tree_id": "157", "top_h_m": 19.431, "H_95_Mean": 20.1227, "DBH": 28.3215, "Carbon_kg": 152.143666, "area_m2": 16.25 }, "geometry": { "type": "MultiPolygon", "coordinates": [ [ [ [ 117.314582263815183, 42.41135429380401 ], [ 117.314582286317275, 42.411358796745795 ], [ 117.314588362882034, 42.411358780070799 ], [ 117.314588340379501, 42.411354277129028 ], [ 117.314582263815183, 42.41135429380401 ] ] ], [ [ [ 117.314582263815183, 42.41135429380401 ], [ 117.31458224131309, 42.411349790862232 ], [ 117.314588317876982, 42.411349774187258 ], [ 117.314588340379501, 42.411354277129028 ], [ 117.314594416943834, 42.41135426045372 ], [ 117.314594439446779, 42.411358763395491 ], [ 117.314600516011538, 42.41135874671987 ], [ 117.314600493508152, 42.411354243778085 ], [ 117.31461264663676, 42.411354210425863 ], [ 117.314612691645308, 42.411363216309397 ], [ 117.314618768210494, 42.411363199632788 ], [ 117.314618723201065, 42.411354193749268 ], [ 117.314624799765355, 42.411354177072347 ], [ 117.314624822270503, 42.411358680014118 ], [ 117.314636975399935, 42.411358646659309 ], [ 117.314636907881919, 42.41134513783404 ], [ 117.314630831318496, 42.411345154511594 ], [ 117.314630786307376, 42.411336148628052 ], [ 117.31462470974482, 42.411336165305279 ], [ 117.314624619724384, 42.411318153538154 ], [ 117.314618543163576, 42.41131817021504 ], [ 117.314618498154246, 42.411309164331456 ], [ 117.314612421594305, 42.411309181008029 ], [ 117.314612399090066, 42.411304678066223 ], [ 117.314606322530565, 42.411304694742462 ], [ 117.314606435049527, 42.411327209451464 ], [ 117.314600358487823, 42.411327226127398 ], [ 117.314600380991195, 42.41133172906919 ], [ 117.314588227866906, 42.411331762420097 ], [ 117.314588250369425, 42.411336265361889 ], [ 117.314576097244242, 42.411336298711511 ], [ 117.314576142247546, 42.411345304595109 ], [ 117.314570065684066, 42.411345321269444 ], [ 117.314570110686518, 42.411354327153013 ], [ 117.314582263815183, 42.41135429380401 ] ], [ [ 117.314618700696343, 42.411349690807505 ], [ 117.31461867819165, 42.411345187865734 ], [ 117.314624754755087, 42.411345171188835 ], [ 117.314624777260207, 42.411349674130591 ], [ 117.314618700696343, 42.411349690807505 ] ] ] ] } },
{ "type": "Feature", "properties": { "crown_id": 170, "tree_id": "170", "top_h_m": 21.389, "H_95_Mean": 21.2661, "DBH": 34.7571, "Carbon_kg": 237.510006, "area_m2": 32.5 }, "geometry": { "type": "Polygon", "coordinates": [ [ [ 117.314722092329674, 42.411367419023016 ], [ 117.314728168895158, 42.411367402340609 ], [ 117.314728146382635, 42.41136289939891 ], [ 117.314740299512749, 42.411362866033144 ], [ 117.314740276999359, 42.411358363091438 ], [ 117.31474635356399, 42.411358346408072 ], [ 117.314746308536314, 42.411349340524652 ], [ 117.314752385100078, 42.41134932384098 ], [ 117.314752407614336, 42.411353826782687 ], [ 117.314758484178498, 42.411353810098682 ], [ 117.314758506693209, 42.411358313040388 ], [ 117.314770659822443, 42.411358279671411 ], [ 117.314770592275735, 42.411344770846313 ], [ 117.314782745402312, 42.411344737476057 ], [ 117.314782767918757, 42.411349240417756 ], [ 117.314788844482464, 42.411349223732145 ], [ 117.314788821965593, 42.411344720790446 ], [ 117.314794898528859, 42.411344704104522 ], [ 117.314794876011575, 42.411340201162815 ], [ 117.314770569760171, 42.411340267904599 ], [ 117.314770547244621, 42.411335764962885 ], [ 117.314782700369449, 42.411335731592644 ], [ 117.314782632820211, 42.41132222276751 ], [ 117.314776556259105, 42.411322239452772 ], [ 117.314776533743142, 42.411317736511059 ], [ 117.314740074378918, 42.411317836615929 ], [ 117.314740029352208, 42.411308830732438 ], [ 117.314715723112798, 42.411308897462554 ], [ 117.314715745624397, 42.411313400404303 ], [ 117.314709669064101, 42.411313417086021 ], [ 117.314709691575274, 42.411317920027777 ], [ 117.314703615014551, 42.411317936709189 ], [ 117.314703660036031, 42.411326942592694 ], [ 117.314691506912808, 42.411326975954552 ], [ 117.314691574442506, 42.411340484779792 ], [ 117.314697651005432, 42.411340468099013 ], [ 117.314697741046828, 42.411358479865953 ], [ 117.314715970740806, 42.411358429821668 ], [ 117.314715993252463, 42.411362932763382 ], [ 117.314722069817549, 42.411362916081302 ], [ 117.314722092329674, 42.411367419023016 ] ], [ [ 117.314752385100078, 42.41134932384098 ], [ 117.314752362585793, 42.411344820899266 ], [ 117.314758439149116, 42.411344804215268 ], [ 117.314758461663814, 42.411349307156975 ], [ 117.314752385100078, 42.41134932384098 ] ], [ [ 117.314764425651944, 42.411326775764095 ], [ 117.314764403136849, 42.41132227282236 ], [ 117.314770479697984, 42.411322256137737 ], [ 117.31477050221352, 42.411326759079458 ], [ 117.314764425651944, 42.411326775764095 ] ] ] } },
{ "type": "Feature", "properties": { "crown_id": 179, "tree_id": "179", "top_h_m": 20.619, "H_95_Mean": 20.5394, "DBH": 30.4572, "Carbon_kg": 178.301618, "area_m2": 20.75 }, "geometry": { "type": "Polygon", "coordinates": [ [ [ 117.314661349182046, 42.411372088771039 ], [ 117.314667425748041, 42.411372072091844 ], [ 117.314667380731649, 42.411363066208395 ], [ 117.314691686992106, 42.41136299948846 ], [ 117.314691596952414, 42.411344987721534 ], [ 117.314685520389034, 42.411345004401994 ], [ 117.314685452860644, 42.411331495576754 ], [ 117.314667223174425, 42.411331545616157 ], [ 117.31466720066625, 42.411327042674401 ], [ 117.314661124104589, 42.411327059353553 ], [ 117.314661101596883, 42.411322556411776 ], [ 117.314655025035663, 42.411322573090608 ], [ 117.314654980021118, 42.41131356720706 ], [ 117.314648903460764, 42.411313583885565 ], [ 117.314648880953939, 42.411309080943781 ], [ 117.314630651274129, 42.411309130977351 ], [ 117.314630628768612, 42.411304628035559 ], [ 117.314624552209125, 42.411304644712757 ], [ 117.314624597219293, 42.411313650596355 ], [ 117.314630673779661, 42.41131363391915 ], [ 117.31463076380183, 42.411331645686275 ], [ 117.314636840363931, 42.411331629008728 ], [ 117.314636885375904, 42.411340634892269 ], [ 117.314642961938887, 42.411340618214389 ], [ 117.314643096977548, 42.411367635864913 ], [ 117.314661326674269, 42.411367585829304 ], [ 117.314661349182046, 42.411372088771039 ] ], [ [ 117.314661304166506, 42.411363082887576 ], [ 117.314661281658772, 42.411358579945841 ], [ 117.314667358223446, 42.41135856326666 ], [ 117.314667380731649, 42.411363066208395 ], [ 117.314661304166506, 42.411363082887576 ] ] ] } },
{ "type": "Feature", "properties": { "crown_id": 205, "tree_id": "205", "top_h_m": 20.96, "H_95_Mean": 20.8058, "DBH": 31.2897, "Carbon_kg": 189.701055, "area_m2": 22.5 }, "geometry": { "type": "Polygon", "coordinates": [ [ [ 117.314673277227897, 42.411327025994908 ], [ 117.314685430351162, 42.41132699263499 ], [ 117.314685407841722, 42.411322489693234 ], [ 117.314697560964106, 42.41132245633203 ], [ 117.314697515943479, 42.411313450448517 ], [ 117.314703592503776, 42.411313433767425 ], [ 117.314703569993057, 42.411308930825669 ], [ 117.314709646552927, 42.411308914144271 ], [ 117.314709601530566, 42.41129990826073 ], [ 117.314703524971563, 42.411299924942128 ], [ 117.314703502460844, 42.411295422000364 ], [ 117.314697425902281, 42.411295438681435 ], [ 117.314697403391989, 42.411290935739657 ], [ 117.314703479950126, 42.411290919058594 ], [ 117.314703434928688, 42.411281913175024 ], [ 117.314697358371419, 42.411281929856102 ], [ 117.314697335861155, 42.411277426914303 ], [ 117.31467910619061, 42.411277476955547 ], [ 117.314679128699581, 42.411281979897353 ], [ 117.314673052142282, 42.411281996577117 ], [ 117.314673029633752, 42.411277493635325 ], [ 117.314648723406265, 42.411277560351188 ], [ 117.314648745913061, 42.411282063293001 ], [ 117.314642669355734, 42.411282079971159 ], [ 117.314642714368475, 42.411291085854778 ], [ 117.314636637810281, 42.411291102532623 ], [ 117.314636660316225, 42.411295605474429 ], [ 117.314630583757605, 42.411295622151947 ], [ 117.314630606263108, 42.411300125093753 ], [ 117.314636682822155, 42.411300108416228 ], [ 117.314636705328112, 42.41130461135802 ], [ 117.314654935006601, 42.41130456132349 ], [ 117.314654957513866, 42.411309064265282 ], [ 117.314661034073779, 42.41130904758645 ], [ 117.314661079089191, 42.411318053470005 ], [ 117.314667155649971, 42.41131803679086 ], [ 117.314667178158089, 42.411322539732623 ], [ 117.31467325471931, 42.411322523053144 ], [ 117.314673277227897, 42.411327025994908 ] ] ] } },
{ "type": "Feature", "properties": { "crown_id": 228, "tree_id": "228", "top_h_m": 20.939, "H_95_Mean": 20.9208, "DBH": 31.5497, "Carbon_kg": 193.521384, "area_m2": 23.0 }, "geometry": { "type": "Polygon", "coordinates": [ [ [ 117.314782610303823, 42.411317719825789 ], [ 117.314788686864503, 42.411317703140192 ], [ 117.314788619314001, 42.411304194315029 ], [ 117.314782542754642, 42.411304211000605 ], [ 117.314782520238253, 42.411299708058877 ], [ 117.3147885967972, 42.411299691373294 ], [ 117.31478855176357, 42.411290685489824 ], [ 117.314782475205519, 42.4112907021754 ], [ 117.314782430172784, 42.411281696291901 ], [ 117.314776353615585, 42.411281712977157 ], [ 117.314776331099651, 42.411277210035401 ], [ 117.314764177986092, 42.411277243404939 ], [ 117.314764155471053, 42.411272740463168 ], [ 117.314758078914693, 42.411272757147451 ], [ 117.31475805640008, 42.411268254205666 ], [ 117.314751979844161, 42.411268270889622 ], [ 117.314751957330003, 42.411263767947851 ], [ 117.31474588077451, 42.41126378463148 ], [ 117.314745903288227, 42.411268287573265 ], [ 117.314739826732307, 42.411268304256573 ], [ 117.314739849245598, 42.411272807198344 ], [ 117.314733772689237, 42.411272823881333 ], [ 117.314733750176359, 42.411268320939548 ], [ 117.314727673620439, 42.411268337622211 ], [ 117.314727718645301, 42.41127734350578 ], [ 117.314721642088472, 42.41127736018813 ], [ 117.314721664600484, 42.411281863129908 ], [ 117.314715588043242, 42.411281879811938 ], [ 117.314715700601184, 42.411304394520783 ], [ 117.31474608339829, 42.411304311107351 ], [ 117.314746128425853, 42.411313316990842 ], [ 117.314782587787434, 42.411313216884068 ], [ 117.314782610303823, 42.411317719825789 ] ] ] } },
{ "type": "Feature", "properties": { "crown_id": 274, "tree_id": "274", "top_h_m": 21.557, "H_95_Mean": 21.065, "DBH": 30.0296, "Carbon_kg": 175.901614, "area_m2": 18.75 }, "geometry": { "type": "Polygon", "coordinates": [ [ [ 117.314806758919659, 42.411286132489415 ], [ 117.314818912034866, 42.411286099115372 ], [ 117.314818866996944, 42.411277093231902 ], [ 117.314824943553674, 42.411277076544408 ], [ 117.314824921034287, 42.411272573602666 ], [ 117.314830997590562, 42.411272556914845 ], [ 117.31483102011039, 42.41127705985658 ], [ 117.314837096667134, 42.411277043168432 ], [ 117.314837119187388, 42.411281546110153 ], [ 117.314843195744558, 42.411281529421686 ], [ 117.314843150703155, 42.411272523538244 ], [ 117.314861380371966, 42.411272473470909 ], [ 117.314861335327976, 42.411263467587453 ], [ 117.314843105661765, 42.411263517654767 ], [ 117.314843083141099, 42.411259014713032 ], [ 117.314837006586117, 42.411259031401485 ], [ 117.314836984065877, 42.411254528459736 ], [ 117.314830907511308, 42.41125454514787 ], [ 117.314830884991522, 42.411250042206113 ], [ 117.314824808437379, 42.411250058893927 ], [ 117.314824763398661, 42.411241053010407 ], [ 117.314818686845413, 42.411241069697894 ], [ 117.314818664326495, 42.411236566756131 ], [ 117.314812587773659, 42.411236583443284 ], [ 117.314812610292137, 42.411241086385047 ], [ 117.314806533738889, 42.41124110307188 ], [ 117.314806556256926, 42.411245606013651 ], [ 117.314800479703223, 42.411245622700164 ], [ 117.314800524738473, 42.411254628583706 ], [ 117.314794448183903, 42.411254645269914 ], [ 117.314794493218287, 42.411263651153426 ], [ 117.314770186996455, 42.411263717895032 ], [ 117.314770232027385, 42.411272723778566 ], [ 117.314782385140063, 42.411272690408396 ], [ 117.314782407656409, 42.411277193350152 ], [ 117.314788484213196, 42.411277176664584 ], [ 117.314788506729968, 42.411281679606326 ], [ 117.314806736401536, 42.41128162954768 ], [ 117.314806758919659, 42.411286132489415 ] ] ] } },
{ "type": "Feature", "properties": { "crown_id": 294, "tree_id": "294", "top_h_m": 19.729, "H_95_Mean": 19.4707, "DBH": 30.5768, "Carbon_kg": 174.12464, "area_m2": 23.25 }, "geometry": { "type": "Polygon", "coordinates": [ [ [ 117.31466083150471, 42.41126852111028 ], [ 117.314679061172683, 42.411268471071949 ], [ 117.314679038663741, 42.411263968130136 ], [ 117.314691191774827, 42.411263934769643 ], [ 117.314691169265032, 42.411259431827844 ], [ 117.314703322375223, 42.411259398466058 ], [ 117.314703277353857, 42.411250392582453 ], [ 117.3146911242454, 42.411250425944218 ], [ 117.314690989186673, 42.411223408293274 ], [ 117.314666682980103, 42.411223475012875 ], [ 117.31466670548815, 42.411227977954724 ], [ 117.314660628936053, 42.411227994633826 ], [ 117.314660606428461, 42.41122349169197 ], [ 117.314642376773463, 42.411223541727331 ], [ 117.314642399279748, 42.41122804466918 ], [ 117.314636322727637, 42.411228061346989 ], [ 117.314636412751156, 42.411246073114377 ], [ 117.314612106535733, 42.411246139822453 ], [ 117.314612129039858, 42.411250642764294 ], [ 117.314618205594186, 42.411250626087764 ], [ 117.314618228098766, 42.411255129029612 ], [ 117.314630381208218, 42.411255095675571 ], [ 117.314630403713679, 42.411259598617406 ], [ 117.314642556823998, 42.411259565262071 ], [ 117.314642579330339, 42.411264068203884 ], [ 117.314660808997075, 42.411264018168467 ], [ 117.31466083150471, 42.41126852111028 ] ] ] } },
{ "type": "Feature", "properties": { "crown_id": 308, "tree_id": "308", "top_h_m": 18.427, "H_95_Mean": 18.188, "DBH": 25.8524, "Carbon_kg": 119.245939, "area_m2": 13.75 }, "geometry": { "type": "MultiPolygon", "coordinates": [ [ [ [ 117.314697043228094, 42.411218888670724 ], [ 117.314697178289407, 42.411245906321689 ], [ 117.314709331396983, 42.411245872959284 ], [ 117.314709398930304, 42.411259381784703 ], [ 117.314715475485414, 42.411259365102993 ], [ 117.314715452973857, 42.411254862161208 ], [ 117.314733682637794, 42.411254812114201 ], [ 117.314733637612093, 42.41124580623061 ], [ 117.314739714165867, 42.411245789547628 ], [ 117.314739556573073, 42.411214268954964 ], [ 117.314727403471593, 42.411214302320552 ], [ 117.314727425983975, 42.411218805262386 ], [ 117.314697043228094, 42.411218888670724 ] ] ], [ [ [ 117.314697043228094, 42.411218888670724 ], [ 117.314697020717901, 42.41121438572889 ], [ 117.314690944167154, 42.411214402409584 ], [ 117.314690966676906, 42.411218905351433 ], [ 117.314697043228094, 42.411218888670724 ] ] ], [ [ [ 117.314715475485414, 42.411259365102993 ], [ 117.314715497996957, 42.411263868044792 ], [ 117.314721574552465, 42.411263851362776 ], [ 117.314721552040496, 42.411259348420991 ], [ 117.314715475485414, 42.411259365102993 ] ] ] ] } },
{ "type": "Feature", "properties": { "crown_id": 309, "tree_id": "309", "top_h_m": 19.703, "H_95_Mean": 19.6985, "DBH": 29.481, "Carbon_kg": 162.893175, "area_m2": 19.75 }, "geometry": { "type": "Polygon", "coordinates": [ [ [ 117.314758033885497, 42.411263751263903 ], [ 117.314764110440962, 42.411263734579627 ], [ 117.314764087925937, 42.411259231637857 ], [ 117.314788394146078, 42.411259164897551 ], [ 117.314788349112547, 42.41125015901401 ], [ 117.31479442566669, 42.411250142328136 ], [ 117.314794380632321, 42.411241136444595 ], [ 117.314800457185598, 42.411241119758401 ], [ 117.314800434667987, 42.411236616816623 ], [ 117.314806511220837, 42.411236600130117 ], [ 117.314806488702786, 42.411232097188332 ], [ 117.314800412150376, 42.411232113874846 ], [ 117.314800367115168, 42.411223107991269 ], [ 117.314788214012097, 42.411223141363315 ], [ 117.314788168978652, 42.411214135479725 ], [ 117.314776015877285, 42.411214168850464 ], [ 117.31477603839312, 42.411218671792263 ], [ 117.314769961842003, 42.411218688477156 ], [ 117.314769939326609, 42.41121418553535 ], [ 117.314763862775891, 42.411214202219924 ], [ 117.314763885290873, 42.411218705161723 ], [ 117.314745655637438, 42.411218755213504 ], [ 117.314745813233344, 42.411250275806111 ], [ 117.314739736679144, 42.41125029248942 ], [ 117.314739781705697, 42.411259298372997 ], [ 117.314751934815817, 42.41125926500608 ], [ 117.314751912301674, 42.411254762064289 ], [ 117.3147579888563, 42.41125474538034 ], [ 117.314758033885497, 42.411263751263903 ] ] ] } },
{ "type": "Feature", "properties": { "crown_id": 324, "tree_id": "324", "top_h_m": 19.42, "H_95_Mean": 19.4262, "DBH": 29.0935, "Carbon_kg": 157.306202, "area_m2": 19.25 }, "geometry": { "type": "Polygon", "coordinates": [ [ [ 117.314599953427972, 42.411246173174547 ], [ 117.314606029981846, 42.411246156498656 ], [ 117.314606007478147, 42.411241653556807 ], [ 117.314630313691865, 42.411241586850039 ], [ 117.314630223670108, 42.411223575082623 ], [ 117.314624147118437, 42.411223591759779 ], [ 117.314624124613445, 42.411219088817909 ], [ 117.314611971510928, 42.411219122171275 ], [ 117.314611949006803, 42.411214619229405 ], [ 117.314605872455971, 42.411214635905587 ], [ 117.314605827448617, 42.411205630021826 ], [ 117.314593674348686, 42.411205663373238 ], [ 117.314593629343122, 42.411196657489441 ], [ 117.314587552793995, 42.411196674164657 ], [ 117.314587530291647, 42.411192171222758 ], [ 117.314575377194302, 42.411192204572224 ], [ 117.314575399695784, 42.411196707514129 ], [ 117.314569323146657, 42.411196724188372 ], [ 117.314569345647698, 42.411201227130277 ], [ 117.314563269098144, 42.411201243804207 ], [ 117.314563314099374, 42.411210249688018 ], [ 117.314557237548954, 42.411210266361635 ], [ 117.314557305049547, 42.411223775187331 ], [ 117.314563381601303, 42.411223758513707 ], [ 117.314563404101946, 42.411228261455591 ], [ 117.314587710310605, 42.411228194757889 ], [ 117.314587755315372, 42.411237200641629 ], [ 117.314593831868407, 42.411237183966385 ], [ 117.314593854371239, 42.411241686908248 ], [ 117.314599930924686, 42.411241670232691 ], [ 117.314599953427972, 42.411246173174547 ] ], [ [ 117.31456335910066, 42.411219255571808 ], [ 117.314563336600017, 42.411214752629917 ], [ 117.314569413150878, 42.41121473595598 ], [ 117.314569435651961, 42.411219238897871 ], [ 117.31456335910066, 42.411219255571808 ] ] ] } },
{ "type": "Feature", "properties": { "crown_id": 356, "tree_id": "356", "top_h_m": 18.725, "H_95_Mean": 18.5461, "DBH": 25.3295, "Carbon_kg": 115.761971, "area_m2": 12.25 }, "geometry": { "type": "Polygon", "coordinates": [ [ [ 117.314806443666725, 42.41122309130477 ], [ 117.31481252021824, 42.411223074617943 ], [ 117.314812497699791, 42.411218571676159 ], [ 117.314818574250879, 42.411218554989006 ], [ 117.314818551731989, 42.411214052047221 ], [ 117.314824628282622, 42.411214035359755 ], [ 117.314824583243976, 42.411205029476179 ], [ 117.31483065979377, 42.411205012788407 ], [ 117.314830569714815, 42.411187001021212 ], [ 117.314806263522641, 42.411187067770371 ], [ 117.314806286040621, 42.411191570712177 ], [ 117.314775903298127, 42.41119165414139 ], [ 117.314775925813933, 42.411196157083211 ], [ 117.314769849264977, 42.411196173768097 ], [ 117.314769871780371, 42.411200676709903 ], [ 117.314775948329768, 42.411200660025024 ], [ 117.314775970845602, 42.411205162966844 ], [ 117.314782047395411, 42.411205146281645 ], [ 117.314782069911701, 42.411209649223451 ], [ 117.314794223012186, 42.411209615852066 ], [ 117.314794268046498, 42.411218621735657 ], [ 117.314806421148702, 42.411218588362985 ], [ 117.314806443666725, 42.41122309130477 ] ] ] } },
{ "type": "Feature", "properties": { "crown_id": 378, "tree_id": "378", "top_h_m": 19.688, "H_95_Mean": 19.4338, "DBH": 29.9395, "Carbon_kg": 166.700266, "area_m2": 21.5 }, "geometry": { "type": "MultiPolygon", "coordinates": [ [ [ [ 117.314617800512423, 42.411169573133961 ], [ 117.314623877058906, 42.411169556457153 ], [ 117.314623854553972, 42.411165053515234 ], [ 117.314617778007943, 42.411165070192048 ], [ 117.314617800512423, 42.411169573133961 ] ] ], [ [ [ 117.314617800512423, 42.411169573133961 ], [ 117.314605647419455, 42.411169606486617 ], [ 117.314605669923097, 42.411174109428529 ], [ 117.314599593376158, 42.411174126104378 ], [ 117.314599615879374, 42.41117862904629 ], [ 117.31458746278463, 42.411178662397006 ], [ 117.314587507789298, 42.411187668280853 ], [ 117.31459358433753, 42.411187651605637 ], [ 117.314593606840319, 42.411192154547543 ], [ 117.314599683388991, 42.411192137872014 ], [ 117.314599728395436, 42.411201143755797 ], [ 117.314611881494486, 42.411201110403759 ], [ 117.314611926502693, 42.411210116287521 ], [ 117.314618003053099, 42.411210099611012 ], [ 117.314618025557635, 42.411214602552874 ], [ 117.314630178659286, 42.41121456919889 ], [ 117.314630201164675, 42.41121907214076 ], [ 117.314648430818409, 42.411219022107339 ], [ 117.314648363298261, 42.411205513281757 ], [ 117.314654439848184, 42.411205496603309 ], [ 117.314654417341046, 42.411200993661438 ], [ 117.314666570439996, 42.411200960303596 ], [ 117.314666525424002, 42.41119195441987 ], [ 117.314660448875387, 42.411191971098951 ], [ 117.314660426367823, 42.411187468157067 ], [ 117.314654349819648, 42.411187484835821 ], [ 117.314654327312525, 42.41118298189393 ], [ 117.314642174217013, 42.411183015250465 ], [ 117.314642129204529, 42.411174009366682 ], [ 117.314636052657633, 42.411174026044471 ], [ 117.314636030151831, 42.411169523102565 ], [ 117.314623877058906, 42.411169556457153 ], [ 117.314623899563827, 42.411174059399052 ], [ 117.314617823016917, 42.411174076075866 ], [ 117.314617800512423, 42.411169573133961 ] ] ] ] } }
]
}
