{
"type": "FeatureCollection",
"name": "tile_23_21",
"crs": { "type": "name", "properties": { "name": "urn:ogc:def:crs:OGC:1.3:CRS84" } },
"features": [
{ "type": "Feature", "properties": { "crown_id": 6659, "tree_id": "6664", "top_h_m": 14.562, "H_95_Mean": 14.5508, "DBH": 22.1675, "Carbon_kg": 76.653057, "area_m2": 11.5 }, "geometry": { "type": "Polygon", "coordinates": [ [ [ 117.314945443612459, 42.407426676209568 ], [ 117.314969748352539, 42.407426609435667 ], [ 117.314969725825819, 42.407422106490955 ], [ 117.314975802010409, 42.407422089796675 ], [ 117.314975734428984, 42.407408580962539 ], [ 117.314981810612252, 42.407408564267932 ], [ 117.314981788084694, 42.40740406132322 ], [ 117.314975711901852, 42.407404078017812 ], [ 117.31497562179338, 42.407386066238885 ], [ 117.314963469431177, 42.407386099627082 ], [ 117.314963424378732, 42.407377093737587 ], [ 117.314945195837964, 42.407377143817456 ], [ 117.314945218362908, 42.407381646762204 ], [ 117.314951294543576, 42.407381630069231 ], [ 117.314951407170483, 42.407404144792956 ], [ 117.314945330987626, 42.407404161485928 ], [ 117.314945443612459, 42.407426676209568 ] ] ] } },
{ "type": "Feature", "properties": { "crown_id": 6666, "tree_id": "6671", "top_h_m": 13.202, "H_95_Mean": 13.1659, "DBH": 17.6551, "Carbon_kg": 45.668256, "area_m2": 5.75 }, "geometry": { "type": "Polygon", "coordinates": [ [ [ 117.314836049763841, 42.407422473683631 ], [ 117.31484212594853, 42.407422456996443 ], [ 117.314842103430948, 42.40741795405166 ], [ 117.314848179615197, 42.407417937364151 ], [ 117.314848134579151, 42.407408931474613 ], [ 117.314866363129283, 42.407408881410149 ], [ 117.314866295571377, 42.407395372575834 ], [ 117.314854143207242, 42.407395405952443 ], [ 117.314854120688807, 42.407390903007659 ], [ 117.314835892143876, 42.407390953070163 ], [ 117.314836049763841, 42.407422473683631 ] ] ] } },
{ "type": "Feature", "properties": { "crown_id": 6667, "tree_id": "6672", "top_h_m": 14.586, "H_95_Mean": 14.6094, "DBH": 24.2802, "Carbon_kg": 92.309281, "area_m2": 16.25 }, "geometry": { "type": "Polygon", "coordinates": [ [ [ 117.314908963979789, 42.407422273416032 ], [ 117.314939344902882, 42.407422189957522 ], [ 117.314939232280224, 42.407399675233854 ], [ 117.314945308462654, 42.407399658541188 ], [ 117.314945240887823, 42.407386149706959 ], [ 117.314939164706701, 42.407386166399604 ], [ 117.314939142182212, 42.407381663454856 ], [ 117.314896608917223, 42.407381780294351 ], [ 117.314896631438671, 42.407386283239134 ], [ 117.314890555257506, 42.4073862999292 ], [ 117.314890622820599, 42.407399808763508 ], [ 117.314896699003071, 42.40739979207342 ], [ 117.314896744046038, 42.407408797962944 ], [ 117.314902820229349, 42.407408781272544 ], [ 117.314902865273211, 42.407417787162025 ], [ 117.314908941457418, 42.407417770471291 ], [ 117.314908963979789, 42.407422273416032 ] ] ] } },
{ "type": "Feature", "properties": { "crown_id": 6668, "tree_id": "6673", "top_h_m": 14.556, "H_95_Mean": 14.4178, "DBH": 19.7673, "Carbon_kg": 60.514738, "area_m2": 7.5 }, "geometry": { "type": "Polygon", "coordinates": [ [ [ 117.315042685104274, 42.407430912027692 ], [ 117.315048761289674, 42.407430895329547 ], [ 117.31504860356317, 42.407399374716768 ], [ 117.315042527380839, 42.407399391414891 ], [ 117.31504248231704, 42.407390385525488 ], [ 117.315018177591099, 42.407390452314772 ], [ 117.315018290241923, 42.407412967038312 ], [ 117.31503044260927, 42.407412933644281 ], [ 117.315030465140325, 42.407417436588979 ], [ 117.315036541324403, 42.40741741989148 ], [ 117.315036563855884, 42.407421922836164 ], [ 117.315042640040417, 42.407421906138346 ], [ 117.315042685104274, 42.407430912027692 ] ] ] } },
{ "type": "Feature", "properties": { "crown_id": 6686, "tree_id": "6691", "top_h_m": 15.027, "H_95_Mean": 15.0181, "DBH": 21.4303, "Carbon_kg": 72.953252, "area_m2": 9.5 }, "geometry": { "type": "Polygon", "coordinates": [ [ [ 117.315006115345255, 42.407408497486344 ], [ 117.315012191528524, 42.407408480790131 ], [ 117.315012078879874, 42.40738596606657 ], [ 117.315006002698823, 42.407385982762754 ], [ 117.315005980169531, 42.407381479818035 ], [ 117.314999903988877, 42.407381496513899 ], [ 117.31499985893123, 42.407372490624425 ], [ 117.314993782751458, 42.40737250731997 ], [ 117.314993737694678, 42.407363501430481 ], [ 117.314981585336852, 42.407363534820597 ], [ 117.31498163039187, 42.407372540710085 ], [ 117.314969478032296, 42.4073725740989 ], [ 117.314969523085608, 42.407381579988403 ], [ 117.314981675446944, 42.407381546599574 ], [ 117.314981765557121, 42.407399558378494 ], [ 117.314987841739523, 42.407399541683581 ], [ 117.314987864267522, 42.407404044628301 ], [ 117.315006092815963, 42.407403994541632 ], [ 117.315006115345255, 42.407408497486344 ] ] ] } },
{ "type": "Feature", "properties": { "crown_id": 6697, "tree_id": "6702", "top_h_m": 14.473, "H_95_Mean": 14.1586, "DBH": 21.6246, "Carbon_kg": 71.747506, "area_m2": 11.0 }, "geometry": { "type": "Polygon", "coordinates": [ [ [ 117.314872439312651, 42.407408864721361 ], [ 117.314890667862699, 42.407408814653031 ], [ 117.314890645341649, 42.407404311708284 ], [ 117.314884569158735, 42.407404328398037 ], [ 117.314884479076341, 42.407386316618947 ], [ 117.314878402895161, 42.407386333308381 ], [ 117.314878380375006, 42.407381830363597 ], [ 117.314872304194267, 42.407381847052704 ], [ 117.314872236635139, 42.407368338218326 ], [ 117.314860084276233, 42.407368371595553 ], [ 117.3148600617574, 42.407363868650748 ], [ 117.314853985578381, 42.407363885338874 ], [ 117.314853963059988, 42.407359382394077 ], [ 117.314841810702788, 42.407359415769349 ], [ 117.314841833220299, 42.407363918714161 ], [ 117.314829680862218, 42.407363952088161 ], [ 117.314829703378877, 42.407368455032987 ], [ 117.314835779558365, 42.40736843834614 ], [ 117.314835847109663, 42.407381947180561 ], [ 117.31484192329043, 42.407381930493386 ], [ 117.314841945807999, 42.407386433438184 ], [ 117.31486017435158, 42.407386383374735 ], [ 117.314860196870441, 42.407390886319519 ], [ 117.314872349233696, 42.407390852942271 ], [ 117.314872439312651, 42.407408864721361 ] ] ] } },
{ "type": "Feature", "properties": { "crown_id": 6727, "tree_id": "6732", "top_h_m": 16.032, "H_95_Mean": 15.9726, "DBH": 22.5168, "Carbon_kg": 83.591484, "area_m2": 10.25 }, "geometry": { "type": "Polygon", "coordinates": [ [ [ 117.314926967297183, 42.407377193894419 ], [ 117.314939119657723, 42.407377160510094 ], [ 117.31493909713322, 42.407372657565325 ], [ 117.314963401852481, 42.407372590792839 ], [ 117.314963379326272, 42.40736808784807 ], [ 117.314975531684993, 42.407368054459909 ], [ 117.314975509157904, 42.407363551515147 ], [ 117.314969432978998, 42.407363568209391 ], [ 117.314969410452349, 42.407359065264636 ], [ 117.314963334273841, 42.407359081958568 ], [ 117.314963244169064, 42.407341070179477 ], [ 117.314938939461982, 42.407341136951899 ], [ 117.314938984510874, 42.407350142841459 ], [ 117.314932908333233, 42.40735015953377 ], [ 117.314932953381287, 42.40735916542333 ], [ 117.314926877202751, 42.407359182115329 ], [ 117.314926967297183, 42.407377193894419 ] ] ] } },
{ "type": "Feature", "properties": { "crown_id": 6743, "tree_id": "6748", "top_h_m": 16.31, "H_95_Mean": 16.2266, "DBH": 22.3987, "Carbon_kg": 83.485601, "area_m2": 9.75 }, "geometry": { "type": "Polygon", "coordinates": [ [ [ 117.314975486630829, 42.407359048570399 ], [ 117.314993715166295, 42.407358998485734 ], [ 117.314993692637927, 42.407354495540986 ], [ 117.315005844993962, 42.407354462149605 ], [ 117.315005709818607, 42.407327444481048 ], [ 117.314993557467758, 42.407327477872379 ], [ 117.314993512411078, 42.407318471982833 ], [ 117.314987436236507, 42.407318488678023 ], [ 117.314987481292334, 42.407327494567575 ], [ 117.314981405116868, 42.407327511262451 ], [ 117.314981427644355, 42.407332014207235 ], [ 117.314969275292583, 42.407332047596007 ], [ 117.3149693879257, 42.407354562319867 ], [ 117.314975464103767, 42.407354545625637 ], [ 117.314975486630829, 42.407359048570399 ] ] ] } },
{ "type": "Feature", "properties": { "crown_id": 6744, "tree_id": "6749", "top_h_m": 15.323, "H_95_Mean": 15.1514, "DBH": 22.9794, "Carbon_kg": 84.412142, "area_m2": 12.25 }, "geometry": { "type": "Polygon", "coordinates": [ [ [ 117.31501815506094, 42.407385949370052 ], [ 117.315042459785147, 42.407385882580783 ], [ 117.315042437253268, 42.407381379636071 ], [ 117.315048513433879, 42.407381362937947 ], [ 117.31504849090156, 42.407376859993242 ], [ 117.315036338541219, 42.407376893389156 ], [ 117.315036316009781, 42.407372390444436 ], [ 117.315030239830023, 42.407372407141906 ], [ 117.31503017223703, 42.407358898307713 ], [ 117.315036248415481, 42.40735888161025 ], [ 117.315036158289843, 42.407340869831287 ], [ 117.31503008211314, 42.407340886528743 ], [ 117.31503005958217, 42.407336383584003 ], [ 117.315017907229603, 42.407336416977927 ], [ 117.315017884699529, 42.407331914033172 ], [ 117.315011808523693, 42.40733193072964 ], [ 117.315011943701691, 42.407358948398176 ], [ 117.314999791344746, 42.407358981790203 ], [ 117.314999836402393, 42.407367987679692 ], [ 117.315005912581725, 42.407367970983834 ], [ 117.315005957640253, 42.407376976873309 ], [ 117.315012033820466, 42.407376960177118 ], [ 117.31501205635017, 42.407381463121851 ], [ 117.315018132530781, 42.407381446425333 ], [ 117.31501815506094, 42.407385949370052 ] ] ] } },
{ "type": "Feature", "properties": { "crown_id": 6764, "tree_id": "6769", "top_h_m": 20.418, "H_95_Mean": 20.1973, "DBH": 30.4013, "Carbon_kg": 175.886666, "area_m2": 21.25 }, "geometry": { "type": "Polygon", "coordinates": [ [ [ 117.31488445655576, 42.407381813674171 ], [ 117.314890532736499, 42.407381796984424 ], [ 117.314890510215477, 42.407377294039648 ], [ 117.314920891116913, 42.407377210586091 ], [ 117.314920778501062, 42.40735469586221 ], [ 117.314926854679157, 42.407354679170545 ], [ 117.31492680963197, 42.407345673280965 ], [ 117.314932885809199, 42.40734565658898 ], [ 117.314932863285179, 42.407341153644197 ], [ 117.314926787108405, 42.407341170336181 ], [ 117.314926742061232, 42.407332164446579 ], [ 117.314908513533453, 42.407332214520565 ], [ 117.314908491011181, 42.407327711575753 ], [ 117.314902414835672, 42.407327728266438 ], [ 117.314902392313869, 42.407323225321626 ], [ 117.314890239963688, 42.407323258702014 ], [ 117.314890262484639, 42.407327761646833 ], [ 117.314884186309115, 42.407327778336551 ], [ 117.314884253870716, 42.407341287171 ], [ 117.314878177693885, 42.407341303860399 ], [ 117.314878222734094, 42.407350309750036 ], [ 117.314872146556382, 42.407350326439108 ], [ 117.314872191595754, 42.407359332328724 ], [ 117.314866115417175, 42.407359349017497 ], [ 117.31486613793642, 42.407363851962302 ], [ 117.314878290294445, 42.407363818584436 ], [ 117.314878357854852, 42.407377327418814 ], [ 117.314884434035164, 42.407377310729387 ], [ 117.31488445655576, 42.407381813674171 ] ] ] } },
{ "type": "Feature", "properties": { "crown_id": 6788, "tree_id": "6793", "top_h_m": 20.774, "H_95_Mean": 20.442, "DBH": 32.5986, "Carbon_kg": 203.896295, "area_m2": 27.25 }, "geometry": { "type": "Polygon", "coordinates": [ [ [ 117.314829658345573, 42.40735944914335 ], [ 117.314835734524181, 42.407359432456509 ], [ 117.314835712007095, 42.407354929511691 ], [ 117.31486609289793, 42.407354846072693 ], [ 117.314866047859425, 42.407345840183062 ], [ 117.314872124036711, 42.40734582349431 ], [ 117.314872078997382, 42.407336817604673 ], [ 117.314878155173773, 42.407336800915594 ], [ 117.314878087613494, 42.407323292081117 ], [ 117.314884163788591, 42.407323275391732 ], [ 117.314884141268081, 42.407318772446899 ], [ 117.314890217442752, 42.407318755757188 ], [ 117.314890172400851, 42.407309749867522 ], [ 117.314884096227075, 42.407309766557233 ], [ 117.31488405118607, 42.407300760667546 ], [ 117.314859746494363, 42.407300827423128 ], [ 117.314859769013125, 42.40730533036799 ], [ 117.314847616666356, 42.407305363743845 ], [ 117.314847639184251, 42.407309866688699 ], [ 117.3148354868366, 42.407309900063275 ], [ 117.314835509353628, 42.407314403008137 ], [ 117.314823357005096, 42.407314436381434 ], [ 117.314823379521258, 42.407318939326302 ], [ 117.314805150997117, 42.407318989383832 ], [ 117.314805196026839, 42.407327995273562 ], [ 117.314811272202419, 42.407327978588022 ], [ 117.314811339748374, 42.407341487422578 ], [ 117.314817415925276, 42.407341470736711 ], [ 117.31481743844104, 42.407345973681558 ], [ 117.314829590795654, 42.407345940308858 ], [ 117.314829658345573, 42.40735944914335 ] ] ] } },
{ "type": "Feature", "properties": { "crown_id": 6807, "tree_id": "6812", "top_h_m": 14.16, "H_95_Mean": 14.1192, "DBH": 18.858, "Carbon_kg": 54.358215, "area_m2": 6.5 }, "geometry": { "type": "Polygon", "coordinates": [ [ [ 117.315011785994045, 42.407327427784892 ], [ 117.315017862169441, 42.40732741108841 ], [ 117.315017817109307, 42.407318405198872 ], [ 117.315042121807423, 42.407318338409752 ], [ 117.315042099275615, 42.407313835464997 ], [ 117.315048175449689, 42.407313818766902 ], [ 117.31504815291747, 42.40730931582214 ], [ 117.315029924396512, 42.407309365915417 ], [ 117.315029901865557, 42.407304862970634 ], [ 117.31502382569235, 42.407304879667748 ], [ 117.31502380316185, 42.407300376722965 ], [ 117.315005574643436, 42.407300426812355 ], [ 117.315005619701793, 42.407309432701936 ], [ 117.314999543528117, 42.407309449397758 ], [ 117.314999611114402, 42.407322958232101 ], [ 117.315011763464383, 42.407322924840116 ], [ 117.315011785994045, 42.407327427784892 ] ] ] } },
{ "type": "Feature", "properties": { "crown_id": 6817, "tree_id": "6822", "top_h_m": 20.464, "H_95_Mean": 19.9342, "DBH": 31.8243, "Carbon_kg": 191.38416, "area_m2": 26.0 }, "geometry": { "type": "Polygon", "coordinates": [ [ [ 117.314932840761173, 42.407336650699399 ], [ 117.31496322164287, 42.407336567234701 ], [ 117.31496317659051, 42.407327561345127 ], [ 117.314975328941415, 42.407327527957001 ], [ 117.314975306414397, 42.407323025012218 ], [ 117.314981382589409, 42.407323008317668 ], [ 117.31498136006195, 42.407318505372885 ], [ 117.314957055363593, 42.407318572149116 ], [ 117.314957032837867, 42.407314069204304 ], [ 117.314950956663708, 42.407314085897561 ], [ 117.314950911613138, 42.407305080007944 ], [ 117.314938759266553, 42.40730511339347 ], [ 117.314938646644563, 42.40728259866934 ], [ 117.314932570473445, 42.407282615361602 ], [ 117.314932547949482, 42.407278112416762 ], [ 117.31492647177879, 42.407278129108704 ], [ 117.314926494302313, 42.407282632053544 ], [ 117.314896113446522, 42.407282715508444 ], [ 117.314896135967842, 42.407287218453298 ], [ 117.31487790745301, 42.407287268522374 ], [ 117.314877952493106, 42.407296274412069 ], [ 117.314890104838085, 42.407296241032995 ], [ 117.314890149879929, 42.407305246922697 ], [ 117.314896226053264, 42.407305230232673 ], [ 117.31489629361738, 42.407318739067158 ], [ 117.314908445966665, 42.407318705686123 ], [ 117.314908468488937, 42.407323208630942 ], [ 117.314914544664006, 42.407323191939938 ], [ 117.31491456718669, 42.407327694884756 ], [ 117.314932795713176, 42.407327644809811 ], [ 117.314932840761173, 42.407336650699399 ] ] ] } },
{ "type": "Feature", "properties": { "crown_id": 6878, "tree_id": "6883", "top_h_m": 22.114, "H_95_Mean": 22.1726, "DBH": 32.2454, "Carbon_kg": 209.289878, "area_m2": 22.5 }, "geometry": { "type": "Polygon", "coordinates": [ [ [ 117.314805128482249, 42.40731448643897 ], [ 117.314817280830809, 42.407314453067599 ], [ 117.314817258315102, 42.40730995012273 ], [ 117.314829410662782, 42.407309916750087 ], [ 117.31482938814618, 42.407305413805219 ], [ 117.314841540492964, 42.407305380431296 ], [ 117.314841517975523, 42.407300877486428 ], [ 117.314853670321426, 42.407300844111226 ], [ 117.314853647803091, 42.407296341166358 ], [ 117.314871876320623, 42.407296291101126 ], [ 117.314871831281408, 42.407287285211417 ], [ 117.314865755109764, 42.407287301900155 ], [ 117.314865732590604, 42.407282798955272 ], [ 117.314859656419401, 42.407282815643676 ], [ 117.314859633900667, 42.407278312698814 ], [ 117.314847481559113, 42.407278346074641 ], [ 117.314847459041275, 42.407273843129772 ], [ 117.314823154359871, 42.40727390987756 ], [ 117.314823131843752, 42.407269406932656 ], [ 117.314817055673828, 42.4072694236188 ], [ 117.314817033158135, 42.407264920673896 ], [ 117.314810956988637, 42.407264937359706 ], [ 117.314810979503889, 42.407269440304624 ], [ 117.314792750994044, 42.407269490360136 ], [ 117.314792886077754, 42.407296508029518 ], [ 117.3147868099052, 42.40729652471407 ], [ 117.314786854932251, 42.40730553060385 ], [ 117.314805083452541, 42.407305480549233 ], [ 117.314805128482249, 42.40731448643897 ] ] ] } },
{ "type": "Feature", "properties": { "crown_id": 6903, "tree_id": "6908", "top_h_m": 20.295, "H_95_Mean": 20.0446, "DBH": 31.0021, "Carbon_kg": 182.143248, "area_m2": 23.25 }, "geometry": { "type": "Polygon", "coordinates": [ [ [ 117.314963109012027, 42.407314052510735 ], [ 117.314987413708621, 42.407313985733218 ], [ 117.314987391180722, 42.407309482788435 ], [ 117.314993467354427, 42.40730946609326 ], [ 117.314993444826101, 42.407304963148462 ], [ 117.314999520999365, 42.407304946452967 ], [ 117.314999475941875, 42.40729594056338 ], [ 117.315011628286612, 42.407295907171417 ], [ 117.315011583227417, 42.407286901281829 ], [ 117.314999430884399, 42.40728693467377 ], [ 117.314999385826937, 42.407277928784161 ], [ 117.314987233485638, 42.407277962174796 ], [ 117.314987188429924, 42.407268956285165 ], [ 117.314981112260156, 42.407268972979999 ], [ 117.314981022150562, 42.407250961200653 ], [ 117.314974945982513, 42.40725097789516 ], [ 117.31497496850946, 42.40725548084 ], [ 117.314962816172454, 42.407255514228041 ], [ 117.314962838698534, 42.407260017172888 ], [ 117.314956762529604, 42.407260033866429 ], [ 117.314956807580927, 42.407269039756116 ], [ 117.314944655241277, 42.407269073142238 ], [ 117.314944677766093, 42.407273576087078 ], [ 117.314938601595827, 42.407273592779667 ], [ 117.314938624120202, 42.4072780957245 ], [ 117.314944700290908, 42.407278079031911 ], [ 117.314944812915002, 42.407300593756062 ], [ 117.314956965260748, 42.407300560369897 ], [ 117.314957010312156, 42.407309566259507 ], [ 117.314963086485889, 42.407309549565944 ], [ 117.314963109012027, 42.407314052510735 ] ] ] } },
{ "type": "Feature", "properties": { "crown_id": 6918, "tree_id": "6923", "top_h_m": 22.485, "H_95_Mean": 22.4542, "DBH": 27.5882, "Carbon_kg": 153.975573, "area_m2": 12.0 }, "geometry": { "type": "Polygon", "coordinates": [ [ [ 117.31486571007143, 42.407278296010411 ], [ 117.314871786242179, 42.407278279321687 ], [ 117.314871628605133, 42.407246758707522 ], [ 117.314865552437425, 42.407246775396239 ], [ 117.314865529918308, 42.407242272451342 ], [ 117.314829072914506, 42.407242372576775 ], [ 117.314829117947525, 42.407251378466597 ], [ 117.314823041779349, 42.407251395153047 ], [ 117.314823109327648, 42.407264903987766 ], [ 117.314829185497146, 42.407264887301302 ], [ 117.314829208013663, 42.407269390246199 ], [ 117.314853512693318, 42.407269323497133 ], [ 117.314853535211611, 42.407273826442015 ], [ 117.31486568755227, 42.407273793065542 ], [ 117.31486571007143, 42.407278296010411 ] ] ] } },
{ "type": "Feature", "properties": { "crown_id": 6919, "tree_id": "6924", "top_h_m": 22.341, "H_95_Mean": 22.2281, "DBH": 29.0814, "Carbon_kg": 170.212207, "area_m2": 15.0 }, "geometry": { "type": "Polygon", "coordinates": [ [ [ 117.314877884932983, 42.407282765577506 ], [ 117.314890037275347, 42.407282732198453 ], [ 117.31489001475444, 42.407278229253592 ], [ 117.31492039560807, 42.407278145800333 ], [ 117.314920215423669, 42.407242122241435 ], [ 117.314908063089177, 42.407242155623678 ], [ 117.314908040567005, 42.407237652678788 ], [ 117.314901964400207, 42.407237669369415 ], [ 117.314901941878489, 42.407233166424533 ], [ 117.314895865712103, 42.407233183114833 ], [ 117.31489588823338, 42.40723768605973 ], [ 117.314889812066554, 42.407237702749718 ], [ 117.31488985710827, 42.407246708639491 ], [ 117.314877704772854, 42.407246742018501 ], [ 117.314877884932983, 42.407282765577506 ] ] ] } },
{ "type": "Feature", "properties": { "crown_id": 6925, "tree_id": "6930", "top_h_m": 20.895, "H_95_Mean": 20.8302, "DBH": 25.5669, "Carbon_kg": 126.347113, "area_m2": 10.25 }, "geometry": { "type": "Polygon", "coordinates": [ [ [ 117.314926449255282, 42.407273626163871 ], [ 117.314932525425561, 42.407273609471929 ], [ 117.314932502901613, 42.407269106527075 ], [ 117.314938579071466, 42.40726908983482 ], [ 117.314938556547091, 42.407264586889973 ], [ 117.314950708885874, 42.407264553504497 ], [ 117.314950663835432, 42.407255547614803 ], [ 117.314956740003936, 42.407255530921574 ], [ 117.314956717478282, 42.407251027976734 ], [ 117.314968869814436, 42.40725099458934 ], [ 117.314968847287915, 42.407246491644493 ], [ 117.314974923455551, 42.407246474950306 ], [ 117.314974878401657, 42.407237469060611 ], [ 117.314968802234901, 42.407237485754777 ], [ 117.314968779708408, 42.407232982809923 ], [ 117.314944475043049, 42.407233049583382 ], [ 117.314944497567822, 42.407237552528251 ], [ 117.314938421401024, 42.407237569220811 ], [ 117.314938443925342, 42.407242072165673 ], [ 117.314926291590908, 42.407242105549834 ], [ 117.314926449255282, 42.407273626163871 ] ] ] } },
{ "type": "Feature", "properties": { "crown_id": 6926, "tree_id": "6931", "top_h_m": 21.947, "H_95_Mean": 21.8259, "DBH": 34.4685, "Carbon_kg": 237.1689, "area_m2": 30.0 }, "geometry": { "type": "Polygon", "coordinates": [ [ [ 117.315017659398933, 42.407286884585361 ], [ 117.315029811741923, 42.407286851191493 ], [ 117.315029789210996, 42.407282348246696 ], [ 117.315041941553105, 42.407282314851535 ], [ 117.315041896489575, 42.407273308961962 ], [ 117.315047972659769, 42.407273292263895 ], [ 117.315047950127564, 42.407268789319104 ], [ 117.315060102467029, 42.407268755922026 ], [ 117.315060079934, 42.407264252977221 ], [ 117.315066156103271, 42.407264236278209 ], [ 117.3150661335698, 42.407259733333419 ], [ 117.315060057400927, 42.407259750032431 ], [ 117.315060034867898, 42.407255247087633 ], [ 117.315053958699465, 42.407255263786318 ], [ 117.31505389110167, 42.40724175495189 ], [ 117.31504781493453, 42.407241771650241 ], [ 117.315047792402382, 42.407237268705416 ], [ 117.315041716235683, 42.407237285403468 ], [ 117.315041693703975, 42.407232782458628 ], [ 117.315005236706298, 42.407232882640066 ], [ 117.315005214177177, 42.407228379695226 ], [ 117.314999138011316, 42.407228396390998 ], [ 117.314999115482664, 42.407223893446144 ], [ 117.314986963151782, 42.407223926836728 ], [ 117.314986985679568, 42.407228429781597 ], [ 117.314980909513679, 42.40722844647641 ], [ 117.314980999623174, 42.407246458255806 ], [ 117.314987075790796, 42.407246441560986 ], [ 117.314987165902082, 42.407264453340325 ], [ 117.314993242071466, 42.407264436645171 ], [ 117.314993287128019, 42.407273442534823 ], [ 117.315005439468436, 42.407273409143528 ], [ 117.315005484526736, 42.407282415033151 ], [ 117.315017636868902, 42.40728238164057 ], [ 117.315017659398933, 42.407286884585361 ] ] ] } }
]
}
