{
"type": "FeatureCollection",
"name": "tile_16_1",
"crs": { "type": "name", "properties": { "name": "urn:ogc:def:crs:OGC:1.3:CRS84" } },
"features": [
{ "type": "Feature", "properties": { "crown_id": 4771, "tree_id": "4773", "top_h_m": 22.551, "H_95_Mean": 22.4203, "DBH": 35.2045, "Carbon_kg": 251.450998, "area_m2": 31.0 }, "geometry": { "type": "Polygon", "coordinates": [ [ [ 117.310163641709082, 42.408705058077089 ], [ 117.310169718020262, 42.408705041637141 ], [ 117.310169673651444, 42.408696035745606 ], [ 117.310181826272057, 42.408696002864765 ], [ 117.310181804086781, 42.408691499918994 ], [ 117.310187880396654, 42.40869148347808 ], [ 117.310187836025236, 42.408682477586545 ], [ 117.310193912334228, 42.408682461145325 ], [ 117.310193823589756, 42.40866444936222 ], [ 117.310199899897015, 42.408664432920681 ], [ 117.310199855523919, 42.40865542702911 ], [ 117.310193779217556, 42.408655443470643 ], [ 117.310193757031456, 42.408650940524851 ], [ 117.310169451807653, 42.408651006287734 ], [ 117.310169429623315, 42.40864650334192 ], [ 117.310163353317762, 42.408646519781833 ], [ 117.31016333113385, 42.408642016836033 ], [ 117.31015117852364, 42.408642049714892 ], [ 117.310151156340609, 42.408637546769057 ], [ 117.310145080035923, 42.408637563208011 ], [ 117.310145102218542, 42.408642066153831 ], [ 117.310139025913429, 42.408642082592458 ], [ 117.310139048095579, 42.408646585538278 ], [ 117.310132971790026, 42.408646601976578 ], [ 117.310132993971777, 42.408651104922406 ], [ 117.310114765053783, 42.408651154235393 ], [ 117.310114809414671, 42.408660160127042 ], [ 117.310108733107782, 42.408660176564069 ], [ 117.310108799647864, 42.408673685401531 ], [ 117.310133104880563, 42.408673619651466 ], [ 117.310133171425917, 42.408687128488857 ], [ 117.3101514003543, 42.408687079172914 ], [ 117.310151444720489, 42.408696085064463 ], [ 117.310157521030831, 42.408696068625176 ], [ 117.310157543214359, 42.408700571570954 ], [ 117.310163619525099, 42.408700555131325 ], [ 117.310163641709082, 42.408705058077089 ] ] ] } },
{ "type": "Feature", "properties": { "crown_id": 4826, "tree_id": "4828", "top_h_m": 20.206, "H_95_Mean": 20.0467, "DBH": 29.4325, "Carbon_kg": 164.044831, "area_m2": 19.0 }, "geometry": { "type": "Polygon", "coordinates": [ [ [ 117.310054090697861, 42.40866933037448 ], [ 117.310078395929011, 42.408669264636025 ], [ 117.31007835157331, 42.408660258744362 ], [ 117.310084427880213, 42.40866024230894 ], [ 117.310084405701943, 42.408655739363105 ], [ 117.310090482008405, 42.408655722927385 ], [ 117.310090459829695, 42.408651219981543 ], [ 117.310084383523659, 42.408651236417271 ], [ 117.310084339167133, 42.408642230525579 ], [ 117.310066110251626, 42.408642279830822 ], [ 117.310066088074663, 42.408637776884959 ], [ 117.31006001176992, 42.408637793319393 ], [ 117.310059945240383, 42.408624284481796 ], [ 117.310041716330005, 42.408624333783138 ], [ 117.31004173850522, 42.408628836729015 ], [ 117.310035662201329, 42.408628853162156 ], [ 117.310035684376103, 42.408633356108048 ], [ 117.310029608071744, 42.408633372540855 ], [ 117.310029630246092, 42.40863787548674 ], [ 117.310023553941321, 42.408637891919234 ], [ 117.310023576115242, 42.408642394865112 ], [ 117.310017499810016, 42.408642411297301 ], [ 117.310017566330473, 42.408655920134926 ], [ 117.310023642636992, 42.408655903702723 ], [ 117.310023686984877, 42.408664909594449 ], [ 117.310054068521737, 42.40866482742863 ], [ 117.310054090697861, 42.40866933037448 ] ] ] } },
{ "type": "Feature", "properties": { "crown_id": 4862, "tree_id": "4864", "top_h_m": 20.776, "H_95_Mean": 20.3155, "DBH": 33.8764, "Carbon_kg": 219.51798, "area_m2": 32.0 }, "geometry": { "type": "Polygon", "coordinates": [ [ [ 117.310199833337421, 42.408650924083318 ], [ 117.310224138561125, 42.40865085831399 ], [ 117.310224094184591, 42.40864185242242 ], [ 117.310218017879549, 42.408641868865232 ], [ 117.310217951316119, 42.408628360027834 ], [ 117.310211875012342, 42.408628376470311 ], [ 117.310211830637627, 42.408619370578698 ], [ 117.310205754334731, 42.408619387020856 ], [ 117.310205621213271, 42.408592369345889 ], [ 117.31019954491299, 42.408592385787713 ], [ 117.310199522726535, 42.408587882841879 ], [ 117.310187370126798, 42.408587915724532 ], [ 117.310187259198926, 42.408565400995258 ], [ 117.310169030305843, 42.408565450316793 ], [ 117.31016905249011, 42.408569953262671 ], [ 117.310175128788231, 42.408569936822467 ], [ 117.310175150972924, 42.40857443976833 ], [ 117.310181227271499, 42.408574423327821 ], [ 117.310181249456633, 42.408578926273677 ], [ 117.310175173157646, 42.4085789427142 ], [ 117.310175195342353, 42.408583445660049 ], [ 117.310169119042911, 42.408583462100253 ], [ 117.310169141227206, 42.40858796504611 ], [ 117.310156988627426, 42.408587997925551 ], [ 117.310157121727983, 42.408615015600645 ], [ 117.310151045425485, 42.408615032039897 ], [ 117.310151134157564, 42.408633043823237 ], [ 117.310157210461824, 42.408633027383978 ], [ 117.310157232645281, 42.408637530329798 ], [ 117.310169385254625, 42.4086374974503 ], [ 117.310169407438963, 42.408642000396128 ], [ 117.310175483744032, 42.408641983955881 ], [ 117.310175505928839, 42.408646486901688 ], [ 117.310199811150881, 42.408646421137526 ], [ 117.310199833337421, 42.408650924083318 ] ] ] } },
{ "type": "Feature", "properties": { "crown_id": 4878, "tree_id": "4880", "top_h_m": 18.442, "H_95_Mean": 18.2072, "DBH": 28.7581, "Carbon_kg": 147.893749, "area_m2": 20.75 }, "geometry": { "type": "Polygon", "coordinates": [ [ [ 117.30989604019895, 42.40865624871109 ], [ 117.309908192812188, 42.408656215859267 ], [ 117.309908126315193, 42.408642707021514 ], [ 117.309926355231113, 42.408642657741389 ], [ 117.309926333064169, 42.408638154795469 ], [ 117.309932409369011, 42.408638138368111 ], [ 117.309932387201627, 42.408633635422206 ], [ 117.309938463506043, 42.408633618994536 ], [ 117.309938441338232, 42.408629116048616 ], [ 117.309944517642208, 42.408629099620626 ], [ 117.30994442896926, 42.408611087836924 ], [ 117.309950505271502, 42.408611071408622 ], [ 117.309950460934189, 42.40860206551676 ], [ 117.309944384632814, 42.408602081945048 ], [ 117.309944362464606, 42.408597578999107 ], [ 117.30992613356176, 42.408597628282052 ], [ 117.309926111394844, 42.408593125336097 ], [ 117.309920035094336, 42.408593141763092 ], [ 117.309920057260811, 42.408597644709062 ], [ 117.309895752056931, 42.408597710413851 ], [ 117.30989604019895, 42.40865624871109 ] ] ] } },
{ "type": "Feature", "properties": { "crown_id": 4892, "tree_id": "4894", "top_h_m": 21.695, "H_95_Mean": 21.3229, "DBH": 36.5346, "Carbon_kg": 263.041482, "area_m2": 39.25 }, "geometry": { "type": "Polygon", "coordinates": [ [ [ 117.310096558314882, 42.408655706491317 ], [ 117.310108710927793, 42.408655673618249 ], [ 117.310108666567757, 42.408646667726579 ], [ 117.310126895484473, 42.408646618414565 ], [ 117.310126873303162, 42.408642115468744 ], [ 117.310132949608303, 42.408642099030757 ], [ 117.310132905244842, 42.408633093139102 ], [ 117.310138981549088, 42.408633076700802 ], [ 117.310138959366938, 42.40862857375496 ], [ 117.310145035670729, 42.408628557316348 ], [ 117.310144991305577, 42.408619551424664 ], [ 117.310138915002625, 42.408619567863283 ], [ 117.31013889282049, 42.408615064917441 ], [ 117.310144969122987, 42.408615048478836 ], [ 117.310144946940426, 42.408610545532987 ], [ 117.310151023242497, 42.408610529094048 ], [ 117.310151001059495, 42.408606026148206 ], [ 117.310138848456205, 42.408606059025729 ], [ 117.310138759727735, 42.408588047242297 ], [ 117.310065844128502, 42.408588244480292 ], [ 117.310065932836139, 42.408606256263859 ], [ 117.310059856534423, 42.408606272698272 ], [ 117.310059878710916, 42.408610775644156 ], [ 117.310053802408774, 42.40861079207825 ], [ 117.310053846760866, 42.408619797970019 ], [ 117.310065999366898, 42.408619765101484 ], [ 117.310066065897715, 42.408633273939103 ], [ 117.310072142202031, 42.408633257504341 ], [ 117.310072164379392, 42.408637760450198 ], [ 117.310090393293606, 42.408637711144003 ], [ 117.310090437650999, 42.408646717035694 ], [ 117.310096513956594, 42.408646700599647 ], [ 117.310096558314882, 42.408655706491317 ] ] ] } },
{ "type": "Feature", "properties": { "crown_id": 4902, "tree_id": "4904", "top_h_m": 21.429, "H_95_Mean": 21.3679, "DBH": 34.1247, "Carbon_kg": 229.528006, "area_m2": 30.0 }, "geometry": { "type": "Polygon", "coordinates": [ [ [ 117.310005347199549, 42.408642444160698 ], [ 117.310011423504776, 42.408642427729163 ], [ 117.310011401331749, 42.408637924783271 ], [ 117.310017477636535, 42.408637908351409 ], [ 117.310017455463054, 42.408633405405531 ], [ 117.310023531767413, 42.408633388973357 ], [ 117.310023509593506, 42.408628886027472 ], [ 117.310029585897425, 42.408628869594978 ], [ 117.310029563723077, 42.408624366649086 ], [ 117.310035640026541, 42.408624350216279 ], [ 117.310035617851796, 42.408619847270394 ], [ 117.310047770457857, 42.408619814403799 ], [ 117.31004765957978, 42.408597299674348 ], [ 117.310029430677204, 42.408597348973714 ], [ 117.310029408502899, 42.408592846027801 ], [ 117.310005103301165, 42.408592911755782 ], [ 117.310005081128594, 42.408588408809855 ], [ 117.309992928528558, 42.408588441671903 ], [ 117.309992906356868, 42.408583938725975 ], [ 117.309974677458072, 42.408583988016616 ], [ 117.309974655287704, 42.408579485070682 ], [ 117.309968578988531, 42.408579501500249 ], [ 117.309968601158459, 42.408584004446197 ], [ 117.309956448559234, 42.408584037304379 ], [ 117.309956492897385, 42.408593043196262 ], [ 117.309968645498344, 42.408593010338066 ], [ 117.309968712008214, 42.408606519175869 ], [ 117.309974788310001, 42.408606502746288 ], [ 117.309974832650795, 42.408615508638128 ], [ 117.309968756348155, 42.408615525067717 ], [ 117.309968822858082, 42.408629033905456 ], [ 117.309974899162043, 42.408629017475853 ], [ 117.309974921332469, 42.408633520421766 ], [ 117.309993150245617, 42.408633471131026 ], [ 117.309993172417336, 42.40863797407691 ], [ 117.30999924872215, 42.408637957646029 ], [ 117.309999226549976, 42.408633454700137 ], [ 117.31000530285435, 42.408633438268929 ], [ 117.310005347199549, 42.408642444160698 ] ], [ [ 117.309968645498344, 42.408593010338066 ], [ 117.309968623328402, 42.408588507392146 ], [ 117.309974699628455, 42.408588490962572 ], [ 117.309974721798824, 42.408592993908492 ], [ 117.309968645498344, 42.408593010338066 ] ] ] } },
{ "type": "Feature", "properties": { "crown_id": 4948, "tree_id": "4950", "top_h_m": 21.041, "H_95_Mean": 21.0543, "DBH": 27.8459, "Carbon_kg": 151.027087, "area_m2": 14.0 }, "geometry": { "type": "Polygon", "coordinates": [ [ [ 117.310035484803336, 42.408592829595015 ], [ 117.310059790005013, 42.40859276386059 ], [ 117.310059745652069, 42.408583757968792 ], [ 117.310065821951625, 42.408583741534379 ], [ 117.310065777597842, 42.408574735642581 ], [ 117.310059701299181, 42.408574752076966 ], [ 117.310059656946308, 42.408565746185147 ], [ 117.310053580648486, 42.408565762619212 ], [ 117.310053558472489, 42.408561259673291 ], [ 117.310047482175136, 42.408561276107037 ], [ 117.310047459999566, 42.408556773161102 ], [ 117.310029231108743, 42.408556822460412 ], [ 117.310029253282977, 42.408561325406339 ], [ 117.310023176985595, 42.408561341838798 ], [ 117.310023199159403, 42.408565844784739 ], [ 117.310017122861595, 42.408565861216886 ], [ 117.31001714503499, 42.408570364162806 ], [ 117.310011068736728, 42.408570380594625 ], [ 117.310011090909697, 42.408574883540567 ], [ 117.310005014610965, 42.408574899972066 ], [ 117.310005036783494, 42.408579402918001 ], [ 117.309998960484364, 42.408579419349174 ], [ 117.309998982656467, 42.408583922295115 ], [ 117.310011135255635, 42.408583889432435 ], [ 117.310011157428605, 42.408588392378341 ], [ 117.310035462628619, 42.408588326649095 ], [ 117.310035484803336, 42.408592829595015 ] ] ] } },
{ "type": "Feature", "properties": { "crown_id": 4973, "tree_id": "4975", "top_h_m": 22.544, "H_95_Mean": 22.3902, "DBH": 30.0227, "Carbon_kg": 182.280538, "area_m2": 16.75 }, "geometry": { "type": "Polygon", "coordinates": [ [ [ 117.309895729892204, 42.408593207467888 ], [ 117.3099139587938, 42.408593158189774 ], [ 117.30991393662778, 42.408588655243825 ], [ 117.309938241828092, 42.408588589535178 ], [ 117.309938219660339, 42.408584086589237 ], [ 117.309944295959966, 42.408584070161268 ], [ 117.309944229455411, 42.408570561323387 ], [ 117.309938153157077, 42.408570577751341 ], [ 117.309938175324803, 42.408575080697311 ], [ 117.309932099026057, 42.408575097124938 ], [ 117.309932054691416, 42.408566091233006 ], [ 117.309938130989323, 42.408566074805371 ], [ 117.309938086653844, 42.408557068913424 ], [ 117.30994416295087, 42.40855705248547 ], [ 117.309944140782719, 42.4085525495395 ], [ 117.30991375929969, 42.408552631676002 ], [ 117.309913737133712, 42.408548128730004 ], [ 117.309907660837524, 42.408548145156338 ], [ 117.309907638671959, 42.408543642210333 ], [ 117.309901562376211, 42.40854365863634 ], [ 117.309901540211101, 42.408539155690342 ], [ 117.30989546391578, 42.408539172116029 ], [ 117.309895729892204, 42.408593207467888 ] ] ] } },
{ "type": "Feature", "properties": { "crown_id": 4974, "tree_id": "4976", "top_h_m": 21.298, "H_95_Mean": 21.0082, "DBH": 29.2437, "Carbon_kg": 166.480514, "area_m2": 17.0 }, "geometry": { "type": "Polygon", "coordinates": [ [ [ 117.310071898251138, 42.408583725099668 ], [ 117.310132661246143, 42.408583560734691 ], [ 117.310132594701145, 42.408570051897051 ], [ 117.310138670999322, 42.408570035458794 ], [ 117.310138604453087, 42.408556526621133 ], [ 117.310126451859333, 42.408556559497313 ], [ 117.310126429678149, 42.408552056551414 ], [ 117.310120353381706, 42.408552072989025 ], [ 117.310120331200949, 42.408547570043119 ], [ 117.310108178608914, 42.408547602917366 ], [ 117.310108200788804, 42.408552105863272 ], [ 117.310096048195888, 42.408552138736226 ], [ 117.310096070374911, 42.408556641682146 ], [ 117.310083917781114, 42.408556674553807 ], [ 117.31008393995927, 42.408561177499728 ], [ 117.310077863661945, 42.408561193935078 ], [ 117.310077885839675, 42.408565696880999 ], [ 117.310065733244087, 42.408565729750748 ], [ 117.31006575542095, 42.408570232696668 ], [ 117.310071831719199, 42.408570216261943 ], [ 117.310071898251138, 42.408583725099668 ] ] ] } },
{ "type": "Feature", "properties": { "crown_id": 5000, "tree_id": "5003", "top_h_m": 21.126, "H_95_Mean": 20.95, "DBH": 29.6386, "Carbon_kg": 170.762213, "area_m2": 18.0 }, "geometry": { "type": "Polygon", "coordinates": [ [ [ 117.309950350090972, 42.408579550787032 ], [ 117.309962502689345, 42.408579517929503 ], [ 117.309962480519857, 42.408575014983548 ], [ 117.309980709416081, 42.408574965694839 ], [ 117.309980731586862, 42.408579468640795 ], [ 117.309992884185192, 42.408579435780034 ], [ 117.309992862013544, 42.4085749328341 ], [ 117.309998938312248, 42.408574916403246 ], [ 117.309998916140145, 42.408570413457312 ], [ 117.310004992438451, 42.408570397026125 ], [ 117.310004970265908, 42.408565894080198 ], [ 117.310011046563758, 42.408565877648691 ], [ 117.310011024390803, 42.408561374702749 ], [ 117.310017100688185, 42.408561358270944 ], [ 117.310017078514818, 42.408556855324996 ], [ 117.310023154811759, 42.408556838892856 ], [ 117.310023132637951, 42.408552335946915 ], [ 117.310017056341437, 42.408552352379047 ], [ 117.310017034168055, 42.408547849433106 ], [ 117.310010957871953, 42.408547865864911 ], [ 117.310010935699026, 42.408543362918948 ], [ 117.31000485940335, 42.408543379350427 ], [ 117.310004815058377, 42.408534373458508 ], [ 117.309992662468758, 42.408534406320491 ], [ 117.309992706811997, 42.408543412212431 ], [ 117.309980554220644, 42.408543445073128 ], [ 117.309980576391396, 42.408547948019105 ], [ 117.30996842379912, 42.408547980878545 ], [ 117.309968445969034, 42.408552483824501 ], [ 117.309950217079304, 42.408552533111241 ], [ 117.309950261416489, 42.40856153900318 ], [ 117.309944185119036, 42.408561555431454 ], [ 117.309944207287216, 42.408566058377417 ], [ 117.30995028358511, 42.40856604194915 ], [ 117.309950350090972, 42.408579550787032 ] ] ] } },
{ "type": "Feature", "properties": { "crown_id": 5019, "tree_id": "5022", "top_h_m": 21.123, "H_95_Mean": 20.9797, "DBH": 29.1136, "Carbon_kg": 164.858707, "area_m2": 16.75 }, "geometry": { "type": "Polygon", "coordinates": [ [ [ 117.310059634769871, 42.408561243239213 ], [ 117.310071787364592, 42.408561210370124 ], [ 117.310071765187288, 42.408556707424196 ], [ 117.310077841484187, 42.408556690989158 ], [ 117.310077819306457, 42.408552188043245 ], [ 117.31008997189943, 42.408552155172224 ], [ 117.310089949720833, 42.408547652226311 ], [ 117.310102102312896, 42.408547619353996 ], [ 117.310102080133447, 42.408543116408069 ], [ 117.310108156429024, 42.408543099971439 ], [ 117.310108089889397, 42.408529591133679 ], [ 117.310102013595099, 42.408529607570301 ], [ 117.310101947056822, 42.408516098732498 ], [ 117.310095870763831, 42.408516115168801 ], [ 117.31009582640587, 42.408507109276904 ], [ 117.310083673821637, 42.408507142148522 ], [ 117.310083695999737, 42.408511645094478 ], [ 117.310071543414594, 42.40851167796481 ], [ 117.310071587769102, 42.408520683856722 ], [ 117.310065511475642, 42.408520700291398 ], [ 117.310065555829297, 42.408529706183309 ], [ 117.310059479534985, 42.408529722617679 ], [ 117.310059546064181, 42.408543231455496 ], [ 117.310053469768548, 42.408543247889568 ], [ 117.310053536296522, 42.408556756727364 ], [ 117.310059612593435, 42.408556740293292 ], [ 117.310059634769871, 42.408561243239213 ] ] ] } },
{ "type": "Feature", "properties": { "crown_id": 5048, "tree_id": "5051", "top_h_m": 21.825, "H_95_Mean": 21.7358, "DBH": 30.5824, "Carbon_kg": 185.90403, "area_m2": 19.0 }, "geometry": { "type": "Polygon", "coordinates": [ [ [ 117.309919813429872, 42.408548112303357 ], [ 117.309944118614553, 42.408548046593531 ], [ 117.309944096446387, 42.408543543647539 ], [ 117.309938020150668, 42.408543560075479 ], [ 117.30993779847374, 42.408498530615418 ], [ 117.309925645890985, 42.408498563470275 ], [ 117.309925623724169, 42.408494060524255 ], [ 117.309919547433225, 42.408494076951186 ], [ 117.309919525266864, 42.408489574005152 ], [ 117.309907372685785, 42.408489606858062 ], [ 117.30990739485128, 42.408494109804124 ], [ 117.309895242269334, 42.408494142655748 ], [ 117.30989544175111, 42.40853466917001 ], [ 117.309907594340885, 42.408534636318329 ], [ 117.309907616506422, 42.408539139264342 ], [ 117.309913692801743, 42.408539122838008 ], [ 117.30991371496772, 42.408543625784013 ], [ 117.309919791263468, 42.408543609357352 ], [ 117.309919813429872, 42.408548112303357 ] ] ] } },
{ "type": "Feature", "properties": { "crown_id": 5049, "tree_id": "5052", "top_h_m": 21.652, "H_95_Mean": 21.2983, "DBH": 34.2175, "Carbon_kg": 230.342873, "area_m2": 30.5 }, "geometry": { "type": "Polygon", "coordinates": [ [ [ 117.310029208934466, 42.408552319514463 ], [ 117.310047437824025, 42.408552270215175 ], [ 117.310047371297387, 42.408538761377343 ], [ 117.31005344759258, 42.40853874494362 ], [ 117.310053381064705, 42.408525236105767 ], [ 117.310059457358577, 42.408525219671716 ], [ 117.310059413005817, 42.408516213779819 ], [ 117.310065489298836, 42.408516197345456 ], [ 117.310065444945209, 42.408507191453531 ], [ 117.310071521237347, 42.408507175018855 ], [ 117.310071499060129, 42.408502672072892 ], [ 117.310065422768417, 42.408502688507568 ], [ 117.310065378414819, 42.408493682615628 ], [ 117.310047149542285, 42.408493731917716 ], [ 117.310047127366801, 42.408489228971739 ], [ 117.31003497478595, 42.408489261838177 ], [ 117.31003495261136, 42.408484758892186 ], [ 117.310016723741342, 42.408484808189428 ], [ 117.310016745914638, 42.408489311135433 ], [ 117.309998517043283, 42.408489360429776 ], [ 117.309998716591508, 42.40852988694369 ], [ 117.310010869180246, 42.408529854081067 ], [ 117.310010913526085, 42.408538859972992 ], [ 117.310016989821335, 42.408538843541187 ], [ 117.310017011994688, 42.40854334648715 ], [ 117.310023088290336, 42.408543330055025 ], [ 117.310023110464144, 42.408547833000981 ], [ 117.310029186760232, 42.408547816568522 ], [ 117.310029208934466, 42.408552319514463 ] ] ] } },
{ "type": "Feature", "properties": { "crown_id": 5050, "tree_id": "5053", "top_h_m": 24.324, "H_95_Mean": 23.7323, "DBH": 36.3091, "Carbon_kg": 276.760385, "area_m2": 31.5 }, "geometry": { "type": "Polygon", "coordinates": [ [ [ 117.310144725114981, 42.408565516074326 ], [ 117.310150801412703, 42.408565499635422 ], [ 117.310150779229758, 42.408560996689552 ], [ 117.31015685552704, 42.408560980250321 ], [ 117.310156811160283, 42.408551974358552 ], [ 117.310150734863868, 42.408551990797768 ], [ 117.310150712680922, 42.408547487851884 ], [ 117.310181094160768, 42.408547405652584 ], [ 117.310181049790572, 42.408538399760815 ], [ 117.310174973495478, 42.408538416201317 ], [ 117.310174951310827, 42.408533913255418 ], [ 117.310187103900134, 42.408533880374108 ], [ 117.310187081714616, 42.408529377428223 ], [ 117.310193158008815, 42.408529360987089 ], [ 117.310193135822871, 42.40852485804119 ], [ 117.310199212116643, 42.408524841599736 ], [ 117.310199189930259, 42.408520338653844 ], [ 117.310187037343582, 42.408520371536426 ], [ 117.310187015158078, 42.408515868590527 ], [ 117.310180938865145, 42.408515885031328 ], [ 117.310180916680082, 42.408511382085429 ], [ 117.310162687802617, 42.408511431405906 ], [ 117.310162643435106, 42.408502425514051 ], [ 117.310126185685249, 42.408502524146286 ], [ 117.310126163504123, 42.408498021200344 ], [ 117.310107934630409, 42.408498070512103 ], [ 117.310107956810256, 42.408502573458044 ], [ 117.310101880518573, 42.408502589894667 ], [ 117.310101924877387, 42.408511595786557 ], [ 117.310108001169937, 42.408511579349941 ], [ 117.310108067709535, 42.408525088187744 ], [ 117.31011414400335, 42.408525071750795 ], [ 117.310114232724601, 42.408543083534482 ], [ 117.310126385315741, 42.408543050659603 ], [ 117.310126407496938, 42.408547553605516 ], [ 117.310132483792941, 42.408547537167593 ], [ 117.310132505974593, 42.408552040113491 ], [ 117.310144658567452, 42.408552007236665 ], [ 117.310144725114981, 42.408565516074326 ] ] ] } },
{ "type": "Feature", "properties": { "crown_id": 5056, "tree_id": "5059", "top_h_m": 21.922, "H_95_Mean": 21.7285, "DBH": 33.4747, "Carbon_kg": 222.997855, "area_m2": 27.0 }, "geometry": { "type": "Polygon", "coordinates": [ [ [ 117.309950194910712, 42.408548030165257 ], [ 117.309962347502989, 42.408547997307764 ], [ 117.30996232533353, 42.408543494361787 ], [ 117.309974477924939, 42.408543461503008 ], [ 117.309974455754613, 42.408538958557045 ], [ 117.309986608345127, 42.40853892569698 ], [ 117.309986564002756, 42.408529919805034 ], [ 117.309992640297125, 42.408529903374514 ], [ 117.309992440752822, 42.408489376860601 ], [ 117.309986364462361, 42.40848939329107 ], [ 117.309986342291225, 42.408484890345065 ], [ 117.309968113421078, 42.408484939634569 ], [ 117.309968091251264, 42.408480436688549 ], [ 117.309955938672019, 42.40848046954661 ], [ 117.309955916503071, 42.408475966600591 ], [ 117.309949840213875, 42.408475983029135 ], [ 117.309949862382396, 42.408480485975161 ], [ 117.309943786092745, 42.408480502403393 ], [ 117.30994380826084, 42.408485005349419 ], [ 117.309931655680671, 42.408485038204915 ], [ 117.309931700015142, 42.408494044096983 ], [ 117.30994385259703, 42.408494011241473 ], [ 117.309944074278249, 42.408539040701541 ], [ 117.309950150573528, 42.408539024273281 ], [ 117.309950194910712, 42.408548030165257 ] ] ] } }
]
}
