{
"type": "FeatureCollection",
"name": "tile_14_9",
"crs": { "type": "name", "properties": { "name": "urn:ogc:def:crs:OGC:1.3:CRS84" } },
"features": [
{ "type": "Feature", "properties": { "crown_id": 4189, "tree_id": "4191", "top_h_m": 20.014, "H_95_Mean": 20.0006, "DBH": 21.1081, "Carbon_kg": 83.825998, "area_m2": 5.25 }, "geometry": { "type": "Polygon", "coordinates": [ [ [ 117.312061191492504, 42.409051142884273 ], [ 117.312079420522949, 42.409051093261418 ], [ 117.31207935355917, 42.409037584427374 ], [ 117.31208542990133, 42.409037567885782 ], [ 117.312085385257944, 42.409028561996415 ], [ 117.312091461599252, 42.409028545454511 ], [ 117.312091439277154, 42.40902404250982 ], [ 117.312067133913672, 42.40902410867551 ], [ 117.312067178554415, 42.409033114564913 ], [ 117.312061102212681, 42.409033131105524 ], [ 117.312061124532619, 42.409037634050215 ], [ 117.31205504819043, 42.40903765059052 ], [ 117.312055070509956, 42.409042153535218 ], [ 117.312061146852585, 42.40904213699492 ], [ 117.312061191492504, 42.409051142884273 ] ] ] } },
{ "type": "Feature", "properties": { "crown_id": 4235, "tree_id": "4237", "top_h_m": 19.167, "H_95_Mean": 19.0205, "DBH": 28.6079, "Carbon_kg": 150.172825, "area_m2": 18.75 }, "geometry": { "type": "Polygon", "coordinates": [ [ [ 117.311939530754103, 42.409024455960825 ], [ 117.311957759777044, 42.409024406357332 ], [ 117.311957737464482, 42.409019903412592 ], [ 117.311975966486074, 42.409019853806207 ], [ 117.311975944172218, 42.409015350861459 ], [ 117.311988096852403, 42.409015317788935 ], [ 117.31198807453768, 42.409010814844194 ], [ 117.311994150877325, 42.409010798307442 ], [ 117.311994061616787, 42.408992786528451 ], [ 117.31198798527889, 42.408992803065189 ], [ 117.311987962964196, 42.408988300120427 ], [ 117.311975810289255, 42.408988333192923 ], [ 117.311975787975456, 42.408983830248147 ], [ 117.311969711638397, 42.408983846783926 ], [ 117.311969689325025, 42.408979343839142 ], [ 117.311957536651789, 42.408979376909706 ], [ 117.311957558964295, 42.408983879854475 ], [ 117.311945406290178, 42.408983912923745 ], [ 117.311945428601788, 42.408988415868528 ], [ 117.311927199589263, 42.408988465470024 ], [ 117.3119272665203, 42.409001974304374 ], [ 117.311933342859135, 42.409001957770862 ], [ 117.311933365169907, 42.409006460715631 ], [ 117.311939441509139, 42.409006444181784 ], [ 117.311939530754103, 42.409024455960825 ] ] ] } },
{ "type": "Feature", "properties": { "crown_id": 4236, "tree_id": "4238", "top_h_m": 22.901, "H_95_Mean": 22.6545, "DBH": 42.6839, "Carbon_kg": 373.035764, "area_m2": 64.25 }, "geometry": { "type": "Polygon", "coordinates": [ [ [ 117.312006415136707, 42.409033279956631 ], [ 117.312055025870933, 42.409033147645822 ], [ 117.312055003551393, 42.409028644701124 ], [ 117.312061079892729, 42.409028628160826 ], [ 117.312061035252853, 42.409019622271423 ], [ 117.312097493295454, 42.409019523022899 ], [ 117.312097426327867, 42.409006014188826 ], [ 117.312091349988719, 42.409006030731035 ], [ 117.31209132766665, 42.409001527786337 ], [ 117.312085251327971, 42.40900154432822 ], [ 117.312085206684657, 42.408992538438795 ], [ 117.312091283022482, 42.408992521896913 ], [ 117.312091260700399, 42.408988018952193 ], [ 117.312103413375169, 42.408987985867448 ], [ 117.312103368729282, 42.408978979978023 ], [ 117.312097292392792, 42.408978996520553 ], [ 117.312097270070296, 42.408974493575826 ], [ 117.312091193734233, 42.408974510118021 ], [ 117.31209110444604, 42.408956498339087 ], [ 117.312097180780384, 42.408956481796892 ], [ 117.312097069168104, 42.408933967073153 ], [ 117.312090992835948, 42.40893398361532 ], [ 117.312090970513921, 42.408929480670565 ], [ 117.312084894182192, 42.408929497212412 ], [ 117.312084916503778, 42.408934000157181 ], [ 117.312054534842844, 42.408934082861606 ], [ 117.312054579481654, 42.408943088751151 ], [ 117.31203635048243, 42.408943138369978 ], [ 117.312036462073067, 42.408965653093809 ], [ 117.312030385737785, 42.408965669632778 ], [ 117.312030452690905, 42.40897917846705 ], [ 117.312012223681208, 42.40897922808206 ], [ 117.312012245997607, 42.408983731026815 ], [ 117.312006169660606, 42.408983747564506 ], [ 117.312006214292566, 42.408992753454029 ], [ 117.312000137954684, 42.408992769991407 ], [ 117.312000249532531, 42.409015284715124 ], [ 117.311994173192446, 42.40901530125219 ], [ 117.311994195507609, 42.409019804196923 ], [ 117.312006348188604, 42.409019771122452 ], [ 117.312006415136707, 42.409033279956631 ] ] ] } },
{ "type": "Feature", "properties": { "crown_id": 4315, "tree_id": "4317", "top_h_m": 19.27, "H_95_Mean": 18.8919, "DBH": 36.3773, "Carbon_kg": 242.747071, "area_m2": 48.25 }, "geometry": { "type": "Polygon", "coordinates": [ [ [ 117.31187255716425, 42.408997620146742 ], [ 117.311902938856349, 42.408997537490436 ], [ 117.311902916547737, 42.408993034545638 ], [ 117.311908992885733, 42.408993018013426 ], [ 117.311908970576681, 42.408988515068629 ], [ 117.31192112325175, 42.408988482003217 ], [ 117.311921100941845, 42.408983979058426 ], [ 117.311939329953091, 42.408983929457897 ], [ 117.311939307641893, 42.40897942651312 ], [ 117.311951460315143, 42.40897939344449 ], [ 117.311951438003106, 42.408974890499707 ], [ 117.311957514339284, 42.408974873964908 ], [ 117.311957492026806, 42.408970371020118 ], [ 117.311951415691055, 42.408970387554916 ], [ 117.311951393379005, 42.408965884610119 ], [ 117.311945317043651, 42.408965901144583 ], [ 117.311945138550897, 42.40892987758609 ], [ 117.311926909555325, 42.408929927187494 ], [ 117.31192688724505, 42.408925424242653 ], [ 117.31192081091362, 42.408925440775803 ], [ 117.311920788603786, 42.40892093783097 ], [ 117.311896483279739, 42.408921003960344 ], [ 117.311896527895925, 42.408930009850032 ], [ 117.311890451564011, 42.40893002638159 ], [ 117.311890473871685, 42.408934529326437 ], [ 117.311866168542309, 42.408934595449402 ], [ 117.311866213154161, 42.408943601339111 ], [ 117.311860136820954, 42.408943617869042 ], [ 117.311860159126439, 42.408948120813903 ], [ 117.311866235460101, 42.408948104283944 ], [ 117.311866257766056, 42.408952607228791 ], [ 117.311860181431982, 42.408952623758751 ], [ 117.311860292959594, 42.408975138482923 ], [ 117.311866369295856, 42.408975121952963 ], [ 117.311866413907822, 42.408984127842601 ], [ 117.311860337570693, 42.408984144372575 ], [ 117.31186038218182, 42.408993150262205 ], [ 117.311872534857827, 42.408993117201938 ], [ 117.31187255716425, 42.408997620146742 ] ] ] } },
{ "type": "Feature", "properties": { "crown_id": 4316, "tree_id": "4318", "top_h_m": 19.735, "H_95_Mean": 20.1421, "DBH": 34.5268, "Carbon_kg": 226.941707, "area_m2": 35.0 }, "geometry": { "type": "Polygon", "coordinates": [ [ [ 117.311994039301652, 42.408988283583696 ], [ 117.312000115639123, 42.408988267046645 ], [ 117.312000071008015, 42.408979261157121 ], [ 117.312006147344619, 42.408979244619744 ], [ 117.312006125028645, 42.408974741674996 ], [ 117.312024354037078, 42.408974692060958 ], [ 117.312024287085251, 42.408961183226673 ], [ 117.312030363420092, 42.408961166688023 ], [ 117.31203027414935, 42.408943154908926 ], [ 117.312024197816271, 42.408943171447575 ], [ 117.312024153181824, 42.408934165557994 ], [ 117.312005924185115, 42.408934215171961 ], [ 117.312005857237367, 42.408920706337561 ], [ 117.311963322920704, 42.408920822092156 ], [ 117.311963345233565, 42.408925325036975 ], [ 117.311957268902162, 42.408925341572065 ], [ 117.311957291214597, 42.408929844516891 ], [ 117.311951214882768, 42.408929861051647 ], [ 117.311951371066954, 42.408961381665321 ], [ 117.311957447401838, 42.408961365130537 ], [ 117.311957469714329, 42.408965868075342 ], [ 117.31196354604964, 42.408965851540223 ], [ 117.311963590675475, 42.40897485742979 ], [ 117.311975743347844, 42.408974824358609 ], [ 117.311975765661643, 42.408979327303385 ], [ 117.311981841998247, 42.4089793107673 ], [ 117.311981864312486, 42.408983813712069 ], [ 117.31199401698656, 42.408983780638934 ], [ 117.311994039301652, 42.408988283583696 ] ] ] } },
{ "type": "Feature", "properties": { "crown_id": 4424, "tree_id": "4426", "top_h_m": 16.765, "H_95_Mean": 16.4357, "DBH": 29.9103, "Carbon_kg": 150.675249, "area_m2": 29.25 }, "geometry": { "type": "Polygon", "coordinates": [ [ [ 117.312030184878708, 42.408925143129792 ], [ 117.312048413872716, 42.408925093511975 ], [ 117.312048391553773, 42.408920590567185 ], [ 117.312054467884664, 42.408920574027277 ], [ 117.312054445565295, 42.408916071082473 ], [ 117.312060521895745, 42.408916054542239 ], [ 117.312060544215555, 42.408920557487043 ], [ 117.31206662054646, 42.408920540946482 ], [ 117.312066352703752, 42.408866505608835 ], [ 117.31201166577253, 42.408866654461967 ], [ 117.31201168808883, 42.408871157406828 ], [ 117.312005611762672, 42.408871173944455 ], [ 117.312005634078531, 42.408875676889302 ], [ 117.311999557751932, 42.408875693426609 ], [ 117.311999669329126, 42.408898208150802 ], [ 117.312011821986644, 42.408898175075819 ], [ 117.312011888935615, 42.408911683910276 ], [ 117.312017965265667, 42.408911667372301 ], [ 117.31201798758245, 42.408916170317113 ], [ 117.312030140243422, 42.40891613724019 ], [ 117.312030184878708, 42.408925143129792 ] ] ] } },
{ "type": "Feature", "properties": { "crown_id": 4436, "tree_id": "4438", "top_h_m": 18.939, "H_95_Mean": 18.876, "DBH": 38.2127, "Carbon_kg": 267.931256, "area_m2": 58.5 }, "geometry": { "type": "Polygon", "coordinates": [ [ [ 117.312060588855203, 42.408929563376603 ], [ 117.312078817850448, 42.408929513753947 ], [ 117.312078773208185, 42.408920507864401 ], [ 117.312084849539076, 42.408920491322881 ], [ 117.31208487186062, 42.408924994267643 ], [ 117.312090948191923, 42.408924977725803 ], [ 117.312090925869924, 42.408920474781034 ], [ 117.312097002200787, 42.408920458238867 ], [ 117.312096979878362, 42.408915955294091 ], [ 117.312103056208798, 42.408915938751598 ], [ 117.312103078531663, 42.408920441696374 ], [ 117.312109154862497, 42.408920425153561 ], [ 117.312109132539206, 42.408915922208791 ], [ 117.312121285200035, 42.408915889122206 ], [ 117.312121262875863, 42.408911386177444 ], [ 117.312127339205816, 42.408911369633664 ], [ 117.312127316881231, 42.408906866688909 ], [ 117.312139469540284, 42.408906833600398 ], [ 117.312139447214832, 42.408902330655636 ], [ 117.312145523543919, 42.408902314110904 ], [ 117.312145367262829, 42.408870793497485 ], [ 117.312139290936798, 42.408870810042202 ], [ 117.312139246285994, 42.408861804152615 ], [ 117.312151398936322, 42.408861771062867 ], [ 117.31215119800008, 42.408821244559604 ], [ 117.312139045357554, 42.408821277649302 ], [ 117.312139000706864, 42.408812271759622 ], [ 117.312132924386447, 42.408812288303992 ], [ 117.312132946711372, 42.408816791248832 ], [ 117.312126870390529, 42.408816807792881 ], [ 117.312126892715028, 42.408821310737707 ], [ 117.312108663751204, 42.408821360367902 ], [ 117.312108686074396, 42.408825863312742 ], [ 117.312102609752657, 42.408825879855499 ], [ 117.312102632075423, 42.408830382800332 ], [ 117.312096555753257, 42.408830399342769 ], [ 117.312096578075582, 42.408834902287609 ], [ 117.312090501752991, 42.408834918829726 ], [ 117.312090613362514, 42.408857433553877 ], [ 117.312072384388173, 42.408857483178345 ], [ 117.312072719198028, 42.408925027350385 ], [ 117.312060566535393, 42.40892506043182 ], [ 117.312060588855203, 42.408929563376603 ] ] ] } }
]
}
