{
"type": "FeatureCollection",
"name": "tile_2_24",
"crs": { "type": "name", "properties": { "name": "urn:ogc:def:crs:OGC:1.3:CRS84" } },
"features": [
{ "type": "Feature", "properties": { "crown_id": 427, "tree_id": "427", "top_h_m": 18.434, "H_95_Mean": 18.3724, "DBH": 29.0603, "Carbon_kg": 151.85185, "area_m2": 21.25 }, "geometry": { "type": "Polygon", "coordinates": [ [ [ 117.31599123550069, 42.411192813633683 ], [ 117.316015541692295, 42.411192746633283 ], [ 117.316015519087813, 42.411188243691996 ], [ 117.316027672182727, 42.41118821018987 ], [ 117.316027604366681, 42.411174701365994 ], [ 117.316021527820524, 42.411174718117216 ], [ 117.316021482610722, 42.41116571223462 ], [ 117.316033635701302, 42.411165678731869 ], [ 117.316033680912838, 42.411174684614451 ], [ 117.316039757458967, 42.411174667862596 ], [ 117.316039780065168, 42.411179170803877 ], [ 117.316045856611765, 42.411179154051695 ], [ 117.316045811398467, 42.41117014816912 ], [ 117.316039734852751, 42.411170164921309 ], [ 117.316039712246564, 42.411165661980014 ], [ 117.316045788791826, 42.411165645227832 ], [ 117.316045720971943, 42.411152136403935 ], [ 117.316033567884006, 42.411152169907957 ], [ 117.316033522672527, 42.411143164025326 ], [ 117.316015293043208, 42.411143214278923 ], [ 117.316015270438768, 42.411138711337607 ], [ 117.316009193896107, 42.411138728088147 ], [ 117.316009239104105, 42.411147733970807 ], [ 117.316003162560548, 42.411147750721035 ], [ 117.316003185164107, 42.411152253662372 ], [ 117.315997108620124, 42.411152270412273 ], [ 117.315997086016992, 42.411147767470958 ], [ 117.315991009473407, 42.411147784220546 ], [ 117.315991054678832, 42.411156790103199 ], [ 117.315984978134381, 42.411156806852475 ], [ 117.315985045941233, 42.411170315676443 ], [ 117.315978969395488, 42.411170332425399 ], [ 117.315979059802956, 42.411188344190649 ], [ 117.315991212897941, 42.411188310692381 ], [ 117.31599123550069, 42.411192813633683 ] ] ] } },
{ "type": "Feature", "properties": { "crown_id": 449, "tree_id": "449", "top_h_m": 18.15, "H_95_Mean": 18.5405, "DBH": 28.261, "Carbon_kg": 144.326765, "area_m2": 18.75 }, "geometry": { "type": "Polygon", "coordinates": [ [ [ 117.315693462065099, 42.411189131028955 ], [ 117.315699538612833, 42.411189114295119 ], [ 117.315699493449088, 42.41118010841226 ], [ 117.315711646542795, 42.411180074943623 ], [ 117.315711623960041, 42.4111755720022 ], [ 117.315699470867202, 42.41117560547081 ], [ 117.315699448285329, 42.411171102529387 ], [ 117.315705524831316, 42.411171085795239 ], [ 117.315705502249017, 42.411166582853795 ], [ 117.315699425703471, 42.411166599587943 ], [ 117.315699403121613, 42.411162096646493 ], [ 117.315711556211852, 42.411162063177883 ], [ 117.315711578794591, 42.411166566119341 ], [ 117.315717655340123, 42.411166549384554 ], [ 117.315717632756972, 42.411162046443103 ], [ 117.315723709302048, 42.411162029708009 ], [ 117.315723664134893, 42.411153023825129 ], [ 117.315717587590655, 42.411153040560229 ], [ 117.315717519841215, 42.411139531735863 ], [ 117.315668907497596, 42.411139665605013 ], [ 117.315668930077237, 42.411144168546478 ], [ 117.315675006620651, 42.411144151813971 ], [ 117.315675029200747, 42.411148654755429 ], [ 117.315668952656907, 42.411148671487972 ], [ 117.315668975236591, 42.41115317442943 ], [ 117.315662898692295, 42.411153191161638 ], [ 117.315662921271539, 42.411157694103103 ], [ 117.31566899781626, 42.411157677370895 ], [ 117.31566902039593, 42.411162180312353 ], [ 117.315662943850768, 42.411162197044561 ], [ 117.315663034167812, 42.411180208810393 ], [ 117.315656957620917, 42.411180225542282 ], [ 117.315656980199762, 42.41118472848374 ], [ 117.315669133294406, 42.411184695019621 ], [ 117.315669110714708, 42.411180192078163 ], [ 117.315687340355353, 42.411180141879591 ], [ 117.315687362936345, 42.411184644821027 ], [ 117.315693439483653, 42.411184628087526 ], [ 117.315693462065099, 42.411189131028955 ] ] ] } },
{ "type": "Feature", "properties": { "crown_id": 450, "tree_id": "450", "top_h_m": 19.66, "H_95_Mean": 19.7527, "DBH": 29.5195, "Carbon_kg": 163.587847, "area_m2": 19.75 }, "geometry": { "type": "MultiPolygon", "coordinates": [ [ [ [ 117.315814902658261, 42.411170784525574 ], [ 117.315820979204133, 42.411170767785308 ], [ 117.315820956613592, 42.411166264843914 ], [ 117.315827033159024, 42.411166248103335 ], [ 117.315827055750034, 42.411170751044722 ], [ 117.315851361933525, 42.411170684079153 ], [ 117.315851316748066, 42.4111616781964 ], [ 117.31584524020306, 42.411161694938258 ], [ 117.315845195018497, 42.411152689055491 ], [ 117.315851271562636, 42.411152672313627 ], [ 117.315851203784504, 42.411139163489445 ], [ 117.315845127241687, 42.411139180231302 ], [ 117.315845059464934, 42.411125671407078 ], [ 117.315796447132598, 42.411125805330265 ], [ 117.315796492310142, 42.411134811213131 ], [ 117.315790415767708, 42.41113482795209 ], [ 117.315790460944399, 42.411143833834934 ], [ 117.315802614031014, 42.41114380035669 ], [ 117.315802636620248, 42.411148303298106 ], [ 117.315796560076521, 42.411148320037398 ], [ 117.315796605254107, 42.411157325920215 ], [ 117.315802681798715, 42.411157309180929 ], [ 117.315802726977196, 42.411166315063731 ], [ 117.315814880068118, 42.41116628158418 ], [ 117.315814902658261, 42.411170784525574 ] ], [ [ 117.315845195018497, 42.411152689055491 ], [ 117.315839118474386, 42.411152705797036 ], [ 117.315839095882538, 42.411148202855642 ], [ 117.315845172426222, 42.411148186114104 ], [ 117.315845195018497, 42.411152689055491 ] ], [ [ 117.315833109704471, 42.411166231362429 ], [ 117.315833087113063, 42.411161728421042 ], [ 117.315839163658055, 42.41116171167981 ], [ 117.315839186249917, 42.411166214621197 ], [ 117.315833109704471, 42.411166231362429 ] ] ], [ [ [ 117.315851271562636, 42.411152672313627 ], [ 117.315851294155337, 42.411157175255013 ], [ 117.315857370699888, 42.411157158512822 ], [ 117.315857348106761, 42.411152655571442 ], [ 117.315851271562636, 42.411152672313627 ] ] ] ] } },
{ "type": "Feature", "properties": { "crown_id": 459, "tree_id": "459", "top_h_m": 19.943, "H_95_Mean": 19.9248, "DBH": 29.4464, "Carbon_kg": 163.609721, "area_m2": 19.25 }, "geometry": { "type": "Polygon", "coordinates": [ [ [ 117.31557782707182, 42.411153425378622 ], [ 117.31558998016051, 42.411153391922923 ], [ 117.315589957586482, 42.411148888981415 ], [ 117.315596034130394, 42.411148872253079 ], [ 117.31559589868381, 42.411121854603998 ], [ 117.315583745601202, 42.411121888060322 ], [ 117.315583677880568, 42.411108379235721 ], [ 117.315571524800532, 42.411108412690716 ], [ 117.31557154737321, 42.411112915632266 ], [ 117.315559394292293, 42.411112949085989 ], [ 117.315559416864104, 42.41111745202754 ], [ 117.315541187241394, 42.41111750220572 ], [ 117.315541209811883, 42.41112200514727 ], [ 117.315535133270544, 42.411122021872686 ], [ 117.315535223550896, 42.411140033638858 ], [ 117.315529147007794, 42.411140050363962 ], [ 117.31552919214711, 42.411149056247027 ], [ 117.315577804498659, 42.411148922437121 ], [ 117.31557782707182, 42.411153425378622 ] ] ] } },
{ "type": "Feature", "properties": { "crown_id": 460, "tree_id": "460", "top_h_m": 19.796, "H_95_Mean": 19.9863, "DBH": 26.7842, "Carbon_kg": 135.411706, "area_m2": 13.25 }, "geometry": { "type": "Polygon", "coordinates": [ [ [ 117.315729785847168, 42.411162012972575 ], [ 117.315748015482413, 42.411161962764368 ], [ 117.315747970311776, 42.411152956881509 ], [ 117.315754046855986, 42.411152940144788 ], [ 117.315754024270234, 42.411148437203366 ], [ 117.315760100814003, 42.41114842046634 ], [ 117.315760078227811, 42.411143917524896 ], [ 117.31576615477114, 42.41114390078755 ], [ 117.31576613218455, 42.411139397846114 ], [ 117.315772208727424, 42.411139381108448 ], [ 117.315772163553333, 42.411130375225575 ], [ 117.315766087011326, 42.411130391963248 ], [ 117.315766064424736, 42.41112588902179 ], [ 117.315759987883141, 42.411125905759128 ], [ 117.315759942710812, 42.411116899876227 ], [ 117.315741713088642, 42.411116950086289 ], [ 117.315741735673484, 42.411121453027761 ], [ 117.315729582591118, 42.411121486499525 ], [ 117.315729627759097, 42.411130492382455 ], [ 117.315723551217033, 42.411130509117868 ], [ 117.315723641551301, 42.411148520883685 ], [ 117.315729718095085, 42.411148504148265 ], [ 117.315729785847168, 42.411162012972575 ] ] ] } },
{ "type": "Feature", "properties": { "crown_id": 469, "tree_id": "469", "top_h_m": 21.655, "H_95_Mean": 21.2972, "DBH": 34.6425, "Carbon_kg": 236.138311, "area_m2": 32.0 }, "geometry": { "type": "Polygon", "coordinates": [ [ [ 117.315863424650871, 42.411152638828938 ], [ 117.315875577739092, 42.411152605342956 ], [ 117.315875555144629, 42.411148102401583 ], [ 117.315899861319267, 42.411148035425761 ], [ 117.315899838723084, 42.411143532484388 ], [ 117.315893762179883, 42.411143549228825 ], [ 117.315893739584126, 42.411139046287438 ], [ 117.315918045755225, 42.411138979307779 ], [ 117.315918000560288, 42.411129973425041 ], [ 117.3159058474765, 42.411130006915506 ], [ 117.315905824879906, 42.411125503974112 ], [ 117.315911901421359, 42.411125487229036 ], [ 117.315911878824352, 42.411120984287656 ], [ 117.315917955365364, 42.411120967542267 ], [ 117.315917910170469, 42.411111961659486 ], [ 117.315923986710615, 42.411111944913792 ], [ 117.315924009308517, 42.411116447855171 ], [ 117.315930085849089, 42.411116431109143 ], [ 117.315930040652447, 42.411107425226369 ], [ 117.315936117192166, 42.411107408480028 ], [ 117.315936094593425, 42.411102905538641 ], [ 117.31594217113269, 42.411102888791966 ], [ 117.315942148533523, 42.411098385850586 ], [ 117.315929995455846, 42.411098419343581 ], [ 117.315929950259246, 42.411089413460779 ], [ 117.315936026797232, 42.411089396714445 ], [ 117.315936004198505, 42.411084893773044 ], [ 117.315923851123443, 42.411084927265385 ], [ 117.315923783329922, 42.411071418441139 ], [ 117.31591770679367, 42.411071435186827 ], [ 117.315917729391074, 42.411075938128235 ], [ 117.315911652854382, 42.411075954873603 ], [ 117.31591167545136, 42.411080457815032 ], [ 117.315899522377123, 42.411080491304787 ], [ 117.315899499781011, 42.411075988363358 ], [ 117.315893423244319, 42.411076005107759 ], [ 117.315893468435661, 42.411085010990611 ], [ 117.315881315360528, 42.411085044478455 ], [ 117.31588142833462, 42.411107559185545 ], [ 117.315875351794844, 42.411107575928995 ], [ 117.31587537438925, 42.41111207887041 ], [ 117.315857144768657, 42.411112129098825 ], [ 117.315857189954869, 42.411121134981656 ], [ 117.315851113413785, 42.411121151723819 ], [ 117.315851181191832, 42.411134660548051 ], [ 117.315857257734223, 42.411134643805873 ], [ 117.315857302920463, 42.411143649688668 ], [ 117.315863379463721, 42.411143632946164 ], [ 117.315863424650871, 42.411152638828938 ] ], [ [ 117.315893558818388, 42.411103022756286 ], [ 117.315893491031332, 42.411089513932026 ], [ 117.315911720645317, 42.411089463697849 ], [ 117.315911788436296, 42.411102972522073 ], [ 117.315893558818388, 42.411103022756286 ] ] ] } },
{ "type": "Feature", "properties": { "crown_id": 479, "tree_id": "479", "top_h_m": 19.508, "H_95_Mean": 19.6692, "DBH": 28.6609, "Carbon_kg": 153.753839, "area_m2": 17.75 }, "geometry": { "type": "MultiPolygon", "coordinates": [ [ [ [ 117.315978856386266, 42.411147817718764 ], [ 117.315978878988091, 42.411152320660094 ], [ 117.315984955532116, 42.411152303911145 ], [ 117.315984932929851, 42.411147800969822 ], [ 117.315978856386266, 42.411147817718764 ] ] ], [ [ [ 117.315978856386266, 42.411147817718764 ], [ 117.315978788580779, 42.411134308894731 ], [ 117.315972712038487, 42.411134325643353 ], [ 117.315972689437118, 42.411129822702009 ], [ 117.315978765978969, 42.411129805953387 ], [ 117.315978743377158, 42.411125303012028 ], [ 117.315984819918555, 42.411125286263093 ], [ 117.315984842520791, 42.411129789204445 ], [ 117.315990919062642, 42.41112977245519 ], [ 117.315990896459979, 42.411125269513832 ], [ 117.316003049542743, 42.411125236014371 ], [ 117.3160030269392, 42.411120733073027 ], [ 117.31599695039823, 42.411120749822906 ], [ 117.315996927795155, 42.411116246881569 ], [ 117.316003004335656, 42.411116230131668 ], [ 117.316002959128596, 42.411107224248958 ], [ 117.3159908060493, 42.411107257748412 ], [ 117.315990851254625, 42.411116263631136 ], [ 117.315972621633009, 42.411116313877926 ], [ 117.315972553828956, 42.411102805053815 ], [ 117.315978630368178, 42.411102788305207 ], [ 117.315978607766397, 42.411098285363835 ], [ 117.315966454688791, 42.411098318860709 ], [ 117.315966432087905, 42.411093815919315 ], [ 117.315948202472754, 42.411093866162204 ], [ 117.315948270271562, 42.411107374986372 ], [ 117.315942193731871, 42.411107391733353 ], [ 117.315942216331038, 42.41111189467474 ], [ 117.315936139790921, 42.411111911421415 ], [ 117.315936207587185, 42.41112542024554 ], [ 117.31594228412861, 42.411125403498865 ], [ 117.315942329327044, 42.411134409381603 ], [ 117.315954482411641, 42.411134375887272 ], [ 117.315954505011717, 42.411138878828616 ], [ 117.315948428468971, 42.411138895575952 ], [ 117.315948451068621, 42.411143398517304 ], [ 117.315960604154967, 42.411143365022326 ], [ 117.315960581554435, 42.411138862080968 ], [ 117.315966658097182, 42.411138845332992 ], [ 117.315966680698125, 42.411143348274329 ], [ 117.315972757241269, 42.411143331526041 ], [ 117.315972779842681, 42.411147834467386 ], [ 117.315978856386266, 42.411147817718764 ] ] ], [ [ [ 117.315990919062642, 42.41112977245519 ], [ 117.315990941665319, 42.411134275396535 ], [ 117.315997018207582, 42.411134258646953 ], [ 117.315996995604479, 42.411129755705616 ], [ 117.315990919062642, 42.41112977245519 ] ] ] ] } },
{ "type": "Feature", "properties": { "crown_id": 480, "tree_id": "480", "top_h_m": 18.573, "H_95_Mean": 18.7189, "DBH": 23.6658, "Carbon_kg": 101.503323, "area_m2": 9.25 }, "geometry": { "type": "MultiPolygon", "coordinates": [ [ [ [ 117.316015202625508, 42.411125202513588 ], [ 117.316021279166876, 42.411125185762721 ], [ 117.316021301771741, 42.411129688704065 ], [ 117.316015225229933, 42.411129705454933 ], [ 117.316015247834343, 42.41113420839627 ], [ 117.316021324376607, 42.411134191645402 ], [ 117.316021346981458, 42.411138694586725 ], [ 117.316039576609469, 42.411138644332162 ], [ 117.316039599215628, 42.411143147273485 ], [ 117.31604567575873, 42.411143130521324 ], [ 117.316045427086351, 42.411093598166666 ], [ 117.316039350548039, 42.411093614918805 ], [ 117.31603937315414, 42.41109811786017 ], [ 117.316033296615387, 42.411098134611976 ], [ 117.316033364432471, 42.41111164343603 ], [ 117.316015134812289, 42.411111693689563 ], [ 117.316015157416686, 42.411116196630914 ], [ 117.316009080876185, 42.411116213381455 ], [ 117.316009103480155, 42.411120716322799 ], [ 117.316015180021097, 42.411120699572258 ], [ 117.316015202625508, 42.411125202513588 ] ], [ [ 117.316021256562038, 42.411120682821391 ], [ 117.316021233957201, 42.411116179880047 ], [ 117.316027310497702, 42.411116163128867 ], [ 117.316027333102966, 42.411120666070211 ], [ 117.316021256562038, 42.411120682821391 ] ] ], [ [ [ 117.316015202625508, 42.411125202513588 ], [ 117.31600912608414, 42.411125219264136 ], [ 117.31600914868811, 42.41112972220548 ], [ 117.316015225229933, 42.411129705454933 ], [ 117.316015202625508, 42.411125202513588 ] ] ] ] } },
{ "type": "Feature", "properties": { "crown_id": 489, "tree_id": "489", "top_h_m": 22.591, "H_95_Mean": 22.0337, "DBH": 32.6889, "Carbon_kg": 214.333961, "area_m2": 24.0 }, "geometry": { "type": "Polygon", "coordinates": [ [ [ 117.315608209793524, 42.411153341736942 ], [ 117.315614286337876, 42.411153325007646 ], [ 117.315614263762086, 42.411148822066146 ], [ 117.315626416849867, 42.411148788606589 ], [ 117.315626394273252, 42.411144285665095 ], [ 117.315632470816709, 42.411144268934834 ], [ 117.315632448239654, 42.411139765993333 ], [ 117.315644601325644, 42.411139732531851 ], [ 117.315644646481488, 42.411148738414816 ], [ 117.315656799569211, 42.411148704952041 ], [ 117.315656776990423, 42.411144202010561 ], [ 117.315650700446994, 42.411144218742109 ], [ 117.315650677868646, 42.411139715800623 ], [ 117.315662830954622, 42.4111396823372 ], [ 117.315662808375407, 42.411135179395721 ], [ 117.315674961460488, 42.41113514593102 ], [ 117.315674893720242, 42.411121637106568 ], [ 117.315668817179002, 42.411121653839068 ], [ 117.315668726860508, 42.411103642073073 ], [ 117.31565657378151, 42.411103675537099 ], [ 117.315656528624018, 42.411094669654062 ], [ 117.315644375546725, 42.411094703116781 ], [ 117.315644420702483, 42.411103708999825 ], [ 117.315632267623428, 42.411103742461272 ], [ 117.31563229020044, 42.411108245402794 ], [ 117.315626213660465, 42.411108262133034 ], [ 117.315626236237065, 42.411112765074556 ], [ 117.315614083156234, 42.411112798534084 ], [ 117.315614105731953, 42.411117301475599 ], [ 117.31560195265024, 42.411117334933842 ], [ 117.31560211067432, 42.411148855524431 ], [ 117.315608187218203, 42.411148838795448 ], [ 117.315608209793524, 42.411153341736942 ] ] ] } },
{ "type": "Feature", "properties": { "crown_id": 514, "tree_id": "514", "top_h_m": 21.203, "H_95_Mean": 21.1167, "DBH": 32.3773, "Carbon_kg": 205.016131, "area_m2": 25.0 }, "geometry": { "type": "Polygon", "coordinates": [ [ [ 117.315681038002992, 42.411135129198179 ], [ 117.315717497258092, 42.411135028794419 ], [ 117.315717452091846, 42.411126022911482 ], [ 117.31572352863347, 42.411126006176403 ], [ 117.315723483466385, 42.411117000293459 ], [ 117.315735636547885, 42.411116966822334 ], [ 117.315735613963469, 42.411112463880876 ], [ 117.315729537423167, 42.411112480616595 ], [ 117.315729514839191, 42.411107977675123 ], [ 117.315735591379067, 42.411107960939397 ], [ 117.315735568794679, 42.411103457997918 ], [ 117.31572949225523, 42.411103474733636 ], [ 117.315729469671282, 42.41109897179215 ], [ 117.315735546210277, 42.411098955056445 ], [ 117.315735523625904, 42.411094452114959 ], [ 117.315729447087321, 42.411094468850671 ], [ 117.315729401919427, 42.411085462967698 ], [ 117.315723325381725, 42.411085479703075 ], [ 117.315723302798204, 42.411080976761575 ], [ 117.315680767037151, 42.411081093900215 ], [ 117.315680812198067, 42.411090099783245 ], [ 117.315674735659883, 42.411090116516043 ], [ 117.315674758239908, 42.411094619457558 ], [ 117.315662605162672, 42.411094652922209 ], [ 117.31566262774183, 42.411099155863731 ], [ 117.315674780819961, 42.411099122399072 ], [ 117.315674871140189, 42.411117134165067 ], [ 117.315680947680974, 42.411117117432248 ], [ 117.315681038002992, 42.411135129198179 ] ] ] } },
{ "type": "Feature", "properties": { "crown_id": 529, "tree_id": "529", "top_h_m": 17.73, "H_95_Mean": 17.5127, "DBH": 24.7722, "Carbon_kg": 106.995403, "area_m2": 12.5 }, "geometry": { "type": "Polygon", "coordinates": [ [ [ 117.315589799568514, 42.411117368390798 ], [ 117.31559587610937, 42.411117351662476 ], [ 117.315595853534973, 42.411112848720947 ], [ 117.315608006615832, 42.411112815263365 ], [ 117.315607984040525, 42.411108312321829 ], [ 117.31562013712049, 42.411108278862955 ], [ 117.315620114544359, 42.411103775921433 ], [ 117.315626191083894, 42.411103759191512 ], [ 117.315626168507322, 42.411099256249983 ], [ 117.31563832158551, 42.411099222789197 ], [ 117.315638276430647, 42.411090216906139 ], [ 117.315656506045286, 42.41109016671254 ], [ 117.315656483466555, 42.411085663771026 ], [ 117.315662560004341, 42.411085647039179 ], [ 117.315662537425169, 42.411081144097651 ], [ 117.315632154738452, 42.41108122775362 ], [ 117.315632109584499, 42.411072221870533 ], [ 117.315613879975018, 42.411072272060231 ], [ 117.315613947702047, 42.411085780884882 ], [ 117.315607871164246, 42.411085797614142 ], [ 117.315607893739497, 42.411090300555692 ], [ 117.315601817201255, 42.411090317284625 ], [ 117.315601862350874, 42.411099323167718 ], [ 117.315583632733507, 42.411099373352627 ], [ 117.315583655307023, 42.41110387629417 ], [ 117.315589731846586, 42.411103859566182 ], [ 117.315589799568514, 42.411117368390798 ] ] ] } },
{ "type": "Feature", "properties": { "crown_id": 530, "tree_id": "530", "top_h_m": 20.07, "H_95_Mean": 19.6322, "DBH": 30.439, "Carbon_kg": 173.391717, "area_m2": 22.5 }, "geometry": { "type": "Polygon", "coordinates": [ [ [ 117.315796424543848, 42.411121302388835 ], [ 117.315838960331604, 42.411121185207193 ], [ 117.315838937739812, 42.411116682265771 ], [ 117.315851090821113, 42.411116648782411 ], [ 117.315851045635782, 42.411107642899566 ], [ 117.31584496909602, 42.411107659641402 ], [ 117.315844923911555, 42.411098653758536 ], [ 117.315832770833723, 42.411098687241243 ], [ 117.315832703059712, 42.411085178416911 ], [ 117.315826626522082, 42.411085195157767 ], [ 117.315826581340318, 42.411076189274851 ], [ 117.315820504803554, 42.41107620601538 ], [ 117.315820459622657, 42.41106720013245 ], [ 117.31579615347907, 42.411067267091326 ], [ 117.315796176067764, 42.411071770032812 ], [ 117.315790099531412, 42.411071786771728 ], [ 117.315790122119679, 42.411076289713193 ], [ 117.315796198656471, 42.411076272974277 ], [ 117.315796221245179, 42.411080775915757 ], [ 117.315790144707961, 42.41108079265468 ], [ 117.315790167296257, 42.411085295596145 ], [ 117.315784090758598, 42.411085312334748 ], [ 117.315784113346453, 42.411089815276227 ], [ 117.315790189884538, 42.41108979853761 ], [ 117.315790212472834, 42.411094301479068 ], [ 117.315778059395768, 42.411094334955962 ], [ 117.315778081983197, 42.411098837897434 ], [ 117.315784158522177, 42.411098821159158 ], [ 117.315784181110047, 42.411103324100601 ], [ 117.315790257649425, 42.411103307361991 ], [ 117.315790325414383, 42.411116816186343 ], [ 117.315796401955083, 42.411116799447385 ], [ 117.315796424543848, 42.411121302388835 ] ] ] } },
{ "type": "Feature", "properties": { "crown_id": 538, "tree_id": "538", "top_h_m": 19.709, "H_95_Mean": 19.8656, "DBH": 28.2599, "Carbon_kg": 150.329745, "area_m2": 16.5 }, "geometry": { "type": "Polygon", "coordinates": [ [ [ 117.316009035668245, 42.411107207498745 ], [ 117.316027265287161, 42.411107157246171 ], [ 117.316027220076649, 42.411098151363483 ], [ 117.316021143537867, 42.411098168114648 ], [ 117.316021120933058, 42.411093665173283 ], [ 117.316027197471399, 42.411093648422124 ], [ 117.316027152260915, 42.411084642539393 ], [ 117.316021075723455, 42.411084659290559 ], [ 117.316021053118646, 42.411080156349186 ], [ 117.316008900044579, 42.411080189850544 ], [ 117.316008877440652, 42.411075686909172 ], [ 117.316014953977273, 42.411075670158652 ], [ 117.316014908768565, 42.411066664275893 ], [ 117.316008832232839, 42.411066681026398 ], [ 117.316008854836738, 42.411071183967792 ], [ 117.315972395619667, 42.4110712844641 ], [ 117.315972418220966, 42.411075787405494 ], [ 117.315954188611059, 42.411075837649307 ], [ 117.31595421121105, 42.411080340590708 ], [ 117.315948134673988, 42.411080357338008 ], [ 117.315948157273553, 42.411084860279416 ], [ 117.315954233811084, 42.411084843532109 ], [ 117.315954256411118, 42.411089346473503 ], [ 117.315972486024947, 42.411089296229662 ], [ 117.315972508626274, 42.411093799171049 ], [ 117.315984661702998, 42.411093765673542 ], [ 117.315984706907415, 42.411102771556287 ], [ 117.316009013064289, 42.411102704557393 ], [ 117.316009035668245, 42.411107207498745 ] ] ] } },
{ "type": "Feature", "properties": { "crown_id": 569, "tree_id": "569", "top_h_m": 19.075, "H_95_Mean": 19.4851, "DBH": 30.5025, "Carbon_kg": 173.348694, "area_m2": 23.0 }, "geometry": { "type": "Polygon", "coordinates": [ [ [ 117.315857122175544, 42.411107626157403 ], [ 117.315869275255082, 42.411107592672117 ], [ 117.31586925266113, 42.411103089730702 ], [ 117.315875329200466, 42.411103072987579 ], [ 117.315875216228562, 42.411080558280453 ], [ 117.315887369302857, 42.411080524793263 ], [ 117.315887346707612, 42.411076021851827 ], [ 117.315881270170919, 42.411076038595581 ], [ 117.315881202386535, 42.411062529771272 ], [ 117.315887278921949, 42.411062513027517 ], [ 117.315887256326732, 42.411058010086073 ], [ 117.315893332861691, 42.411057993342006 ], [ 117.315893310266063, 42.411053490400562 ], [ 117.31588723373153, 42.411053507144629 ], [ 117.315887211136342, 42.411049004203171 ], [ 117.315881134602222, 42.411049020946905 ], [ 117.31588111200746, 42.411044518005447 ], [ 117.315862882406449, 42.411044568234715 ], [ 117.315862904999889, 42.411049071176187 ], [ 117.315856828465769, 42.411049087918634 ], [ 117.315856873651839, 42.41105809380155 ], [ 117.315850797116852, 42.411058110543685 ], [ 117.31585077452425, 42.41105360760222 ], [ 117.31582646838595, 42.411053674567505 ], [ 117.315826490976818, 42.411058177508984 ], [ 117.315814337906772, 42.411058210989694 ], [ 117.315814360496788, 42.411062713931187 ], [ 117.315826513567686, 42.411062680450463 ], [ 117.315826558749436, 42.411071686333386 ], [ 117.315832635285759, 42.411071669592538 ], [ 117.31583268046839, 42.411080675475453 ], [ 117.315838757005579, 42.411080658734278 ], [ 117.315838824780869, 42.411094167558609 ], [ 117.315850977857835, 42.41109413407527 ], [ 117.315851023043123, 42.411103139958136 ], [ 117.315857099582459, 42.41110312321598 ], [ 117.315857122175544, 42.411107626157403 ] ], [ [ 117.315857076989388, 42.411098620274551 ], [ 117.315857054396304, 42.411094117333128 ], [ 117.315863130934773, 42.411094100590653 ], [ 117.315863153528284, 42.411098603532075 ], [ 117.315857076989388, 42.411098620274551 ] ] ] } },
{ "type": "Feature", "properties": { "crown_id": 581, "tree_id": "581", "top_h_m": 20.497, "H_95_Mean": 19.6686, "DBH": 33.4931, "Carbon_kg": 210.473449, "area_m2": 32.5 }, "geometry": { "type": "Polygon", "coordinates": [ [ [ 117.315559304005134, 42.411094937319774 ], [ 117.315565380543845, 42.411094920593086 ], [ 117.315565357971636, 42.411090417651529 ], [ 117.31557143450992, 42.411090400924515 ], [ 117.315571457082569, 42.411094903866065 ], [ 117.315583610159976, 42.41109487041107 ], [ 117.31558358758646, 42.411090367469541 ], [ 117.315595740662985, 42.411090334013245 ], [ 117.315595718088602, 42.411085831071695 ], [ 117.315601794626417, 42.411085814343089 ], [ 117.315601772051622, 42.411081311401531 ], [ 117.315607848588996, 42.411081294672591 ], [ 117.315607735712845, 42.41105877996479 ], [ 117.31561381224806, 42.411058763235545 ], [ 117.315613789672398, 42.41105426029398 ], [ 117.315607713137624, 42.411054277023226 ], [ 117.31560769056243, 42.411049774081654 ], [ 117.31558338442504, 42.411049840995403 ], [ 117.315583294131201, 42.411031829229024 ], [ 117.315577217598587, 42.411031845956643 ], [ 117.315577172452578, 42.411022840073429 ], [ 117.315565019389069, 42.411022873527699 ], [ 117.315564996816931, 42.411018370586085 ], [ 117.315558920285611, 42.41101838731273 ], [ 117.315558942857294, 42.411022890254337 ], [ 117.315552866325547, 42.411022906980669 ], [ 117.315552911468075, 42.411031912863912 ], [ 117.31554075840279, 42.41103194631561 ], [ 117.315540780973166, 42.411036449257232 ], [ 117.315534704440097, 42.411036465982598 ], [ 117.315534727010075, 42.411040968924212 ], [ 117.315540803543584, 42.411040952198839 ], [ 117.3155408938253, 42.411058963965253 ], [ 117.315534817290043, 42.41105898069064 ], [ 117.315534862430056, 42.411067986573833 ], [ 117.315547015502304, 42.411067953122725 ], [ 117.315547060644079, 42.411076959005896 ], [ 117.31555313718107, 42.411076942279855 ], [ 117.315553159752398, 42.411081445221441 ], [ 117.315559236289815, 42.411081428495088 ], [ 117.315559304005134, 42.411094937319774 ] ] ] } },
{ "type": "Feature", "properties": { "crown_id": 614, "tree_id": "614", "top_h_m": 17.937, "H_95_Mean": 17.245, "DBH": 32.1177, "Carbon_kg": 178.943111, "area_m2": 35.25 }, "geometry": { "type": "Polygon", "coordinates": [ [ [ 117.31574153241003, 42.411080926554469 ], [ 117.315753685484552, 42.411080893081454 ], [ 117.315753617727538, 42.411067384256967 ], [ 117.315759694263491, 42.411067367519991 ], [ 117.315759739435691, 42.41107637340297 ], [ 117.315765815972497, 42.411076356665653 ], [ 117.315765793385964, 42.411071853724174 ], [ 117.315771869922344, 42.411071836986544 ], [ 117.315771779574519, 42.41105382522057 ], [ 117.315777856109136, 42.41105380848262 ], [ 117.31577783352175, 42.411049305541141 ], [ 117.315783910055956, 42.411049288802879 ], [ 117.315783887468129, 42.411044785861378 ], [ 117.315777810934378, 42.411044802599626 ], [ 117.315777720584947, 42.411026790833581 ], [ 117.31578379711695, 42.41102677409534 ], [ 117.315783751941396, 42.41101776821229 ], [ 117.315777675410246, 42.411017784950531 ], [ 117.315777697997589, 42.411022287892052 ], [ 117.315765544934408, 42.411022321367582 ], [ 117.315765522347945, 42.411017818426053 ], [ 117.315759445816781, 42.411017835163321 ], [ 117.315759423230773, 42.411013332221792 ], [ 117.315753346700035, 42.411013348958733 ], [ 117.31575336928563, 42.411017851900276 ], [ 117.315747292754438, 42.411017868636918 ], [ 117.315747270169297, 42.411013365695361 ], [ 117.315741193638544, 42.411013382431683 ], [ 117.31574117105383, 42.411008879490126 ], [ 117.315722941462866, 42.411008929697111 ], [ 117.315723054380015, 42.411031444404848 ], [ 117.315716977847529, 42.411031461139871 ], [ 117.315717000430539, 42.411035964081414 ], [ 117.315710923897583, 42.411035980816138 ], [ 117.315710991645361, 42.411049489640732 ], [ 117.315704915111112, 42.411049506375136 ], [ 117.315704937693283, 42.411054009316658 ], [ 117.31569886115858, 42.411054026050735 ], [ 117.315698906322055, 42.4110630319338 ], [ 117.315711059393166, 42.411062998465312 ], [ 117.315711127141014, 42.411076507289863 ], [ 117.315741509825244, 42.411076423612961 ], [ 117.31574153241003, 42.411080926554469 ] ], [ [ 117.315759649091319, 42.411058361636996 ], [ 117.315759603919176, 42.411049355753981 ], [ 117.315771756987559, 42.411049322279069 ], [ 117.315771779574519, 42.41105382522057 ], [ 117.315765703039887, 42.411053841958193 ], [ 117.315765725626406, 42.411058344899686 ], [ 117.315759649091319, 42.411058361636996 ] ] ] } },
{ "type": "Feature", "properties": { "crown_id": 631, "tree_id": "631", "top_h_m": 17.097, "H_95_Mean": 19.0483, "DBH": 25.3805, "Carbon_kg": 118.083615, "area_m2": 11.75 }, "geometry": { "type": "Polygon", "coordinates": [ [ [ 117.31561385739937, 42.411067769118674 ], [ 117.315638163543596, 42.411067702198437 ], [ 117.315638118388804, 42.411058696315337 ], [ 117.315644194923962, 42.411058679584478 ], [ 117.315644127190509, 42.411045170759813 ], [ 117.315638050656659, 42.411045187490672 ], [ 117.315638028079292, 42.411040684549086 ], [ 117.315631951545839, 42.41104070127961 ], [ 117.315631928968912, 42.411036198338046 ], [ 117.315625852435886, 42.411036215068236 ], [ 117.3156258298594, 42.411031712126672 ], [ 117.315631906391985, 42.411031695396467 ], [ 117.315631861238131, 42.411022689513302 ], [ 117.315619708174737, 42.411022722973364 ], [ 117.315619730750768, 42.411027225914957 ], [ 117.31560757768645, 42.411027259373732 ], [ 117.315607600261643, 42.411031762315325 ], [ 117.315589370663815, 42.411031812501093 ], [ 117.315589438385487, 42.411045321325865 ], [ 117.315613744521116, 42.411045254410844 ], [ 117.31561376709675, 42.411049757352409 ], [ 117.315619843631069, 42.411049740622836 ], [ 117.315619911359335, 42.411063249447544 ], [ 117.315613834823708, 42.411063266177109 ], [ 117.31561385739937, 42.411067769118674 ] ] ] } },
{ "type": "Feature", "properties": { "crown_id": 635, "tree_id": "635", "top_h_m": 19.702, "H_95_Mean": 19.3097, "DBH": 28.4103, "Carbon_kg": 149.417201, "area_m2": 17.75 }, "geometry": { "type": "Polygon", "coordinates": [ [ [ 117.315802162247593, 42.411053741527645 ], [ 117.315820391851375, 42.411053691308034 ], [ 117.315820369260962, 42.411049188366547 ], [ 117.315844675397543, 42.411049121402556 ], [ 117.315844630213235, 42.411040115519597 ], [ 117.315838553679953, 42.411040132261078 ], [ 117.315838531088247, 42.411035629319585 ], [ 117.315844607621088, 42.411035612578125 ], [ 117.315844585028941, 42.411031109636632 ], [ 117.315850661561342, 42.411031092894838 ], [ 117.31585061637621, 42.411022087011865 ], [ 117.31584453984469, 42.411022103753652 ], [ 117.315844517252543, 42.411017600812166 ], [ 117.315838440721464, 42.411017617553618 ], [ 117.315838418129772, 42.411013114612118 ], [ 117.315826265068466, 42.411013148094078 ], [ 117.315826242477641, 42.411008645152563 ], [ 117.315801936356664, 42.411008712112597 ], [ 117.315801958945727, 42.411013215054112 ], [ 117.315795882415017, 42.411013231793319 ], [ 117.315796017946951, 42.411040249442387 ], [ 117.315789941413641, 42.411040266181281 ], [ 117.315789964001866, 42.411044769122796 ], [ 117.315802117069367, 42.411044735644666 ], [ 117.315802162247593, 42.411053741527645 ] ] ] } },
{ "type": "Feature", "properties": { "crown_id": 645, "tree_id": "645", "top_h_m": 20.271, "H_95_Mean": 20.0382, "DBH": 31.252, "Carbon_kg": 185.079562, "area_m2": 24.0 }, "geometry": { "type": "MultiPolygon", "coordinates": [ [ [ [ 117.31597842695237, 42.411062261832711 ], [ 117.315996656558312, 42.411062211585062 ], [ 117.31599663395528, 42.411057708643654 ], [ 117.316002710490139, 42.411057691893788 ], [ 117.316002665283236, 42.411048686010993 ], [ 117.316026971419177, 42.411048619008355 ], [ 117.316026948813985, 42.411044116066961 ], [ 117.316014795746895, 42.411044149568916 ], [ 117.316014727933947, 42.411030640744698 ], [ 117.316008651401688, 42.411030657495182 ], [ 117.316008674005559, 42.41103516043659 ], [ 117.316002597472874, 42.411035177186768 ], [ 117.316002642679777, 42.411044183069592 ], [ 117.315996566146211, 42.411044199819443 ], [ 117.315996588749215, 42.411048702760858 ], [ 117.315990512215222, 42.411048719510383 ], [ 117.3159905348178, 42.411053222451791 ], [ 117.315972305214459, 42.411053272698467 ], [ 117.315972327815757, 42.411057775639868 ], [ 117.315978404350645, 42.411057758891303 ], [ 117.31597842695237, 42.411062261832711 ] ] ], [ [ [ 117.316014727933947, 42.411030640744698 ], [ 117.316020804466191, 42.411030623993888 ], [ 117.316020827070929, 42.411035126935296 ], [ 117.316026903603614, 42.411035110184152 ], [ 117.316026858393258, 42.411026104301335 ], [ 117.316032934925062, 42.411026087549885 ], [ 117.316032912319457, 42.41102158460847 ], [ 117.31602683578808, 42.411021601359913 ], [ 117.316026745367481, 42.411003589594223 ], [ 117.316020668837851, 42.411003606345353 ], [ 117.316020646233127, 42.41099910340391 ], [ 117.316014569703924, 42.410999120154713 ], [ 117.316014524495401, 42.410990114271819 ], [ 117.31600844796705, 42.410990131022295 ], [ 117.316008470570893, 42.410994633963732 ], [ 117.315990240984519, 42.410994684213215 ], [ 117.315990263587068, 42.410999187154658 ], [ 117.315978110528604, 42.410999220652705 ], [ 117.315978133130258, 42.411003723594149 ], [ 117.315965980070914, 42.41100375709091 ], [ 117.315966025272516, 42.411012762973812 ], [ 117.315972101803069, 42.411012746225602 ], [ 117.315972147005553, 42.411021752108482 ], [ 117.315978223536973, 42.411021735359924 ], [ 117.315978268740366, 42.411030741242797 ], [ 117.315966115675792, 42.411030774739594 ], [ 117.315966138276607, 42.411035277681016 ], [ 117.315960061743894, 42.411035294428935 ], [ 117.315960129545118, 42.411048803253216 ], [ 117.315972282613174, 42.411048769757052 ], [ 117.315972237410605, 42.411039763874207 ], [ 117.315978313943759, 42.411039747125642 ], [ 117.315978291342049, 42.411035244184212 ], [ 117.315984367874762, 42.411035227435342 ], [ 117.315984345272625, 42.411030724493919 ], [ 117.31600257486943, 42.411030674245346 ], [ 117.316002552265985, 42.411026171303931 ], [ 117.31601470532965, 42.411026137803276 ], [ 117.316014727933947, 42.411030640744698 ] ] ] ] } },
{ "type": "Feature", "properties": { "crown_id": 657, "tree_id": "657", "top_h_m": 17.004, "H_95_Mean": 16.9975, "DBH": 28.6528, "Carbon_kg": 140.954524, "area_m2": 23.25 }, "geometry": { "type": "Polygon", "coordinates": [ [ [ 117.315686685508325, 42.411049556576387 ], [ 117.31569883857685, 42.411049523109199 ], [ 117.315698815995134, 42.41104502016767 ], [ 117.315704892528956, 42.411045003433607 ], [ 117.3157048247825, 42.41103149460897 ], [ 117.315710901315015, 42.411031477874587 ], [ 117.315710878732446, 42.411026974933037 ], [ 117.31571695526452, 42.411026958198342 ], [ 117.31571686493254, 42.411008946432119 ], [ 117.315710788402214, 42.411008963166815 ], [ 117.315710743237119, 42.410999957283678 ], [ 117.315692513648713, 42.411000007485818 ], [ 117.31569249106748, 42.410995504544246 ], [ 117.315686414538433, 42.410995521277641 ], [ 117.315686369376849, 42.410986515394455 ], [ 117.315680292848683, 42.410986532127517 ], [ 117.31568031542902, 42.410991035069124 ], [ 117.315668162371765, 42.410991068534294 ], [ 117.315668184951235, 42.410995571475901 ], [ 117.315656031893099, 42.410995604939799 ], [ 117.315656144786288, 42.411018119647728 ], [ 117.315662221317524, 42.411018102915932 ], [ 117.315662266475698, 42.411027108799082 ], [ 117.315668343007815, 42.411027092066945 ], [ 117.315668433325968, 42.411045103833196 ], [ 117.31568666292749, 42.411045053634844 ], [ 117.315686685508325, 42.411049556576387 ] ] ] } }
]
}
