{
"type": "FeatureCollection",
"name": "tile_20_10",
"crs": { "type": "name", "properties": { "name": "urn:ogc:def:crs:OGC:1.3:CRS84" } },
"features": [
{ "type": "Feature", "properties": { "crown_id": 5945, "tree_id": "5949", "top_h_m": 22.588, "H_95_Mean": 22.2351, "DBH": 37.142, "Carbon_kg": 278.751585, "area_m2": 38.75 }, "geometry": { "type": "Polygon", "coordinates": [ [ [ 117.312280678028657, 42.40797432680894 ], [ 117.312304982986362, 42.407974260599296 ], [ 117.312304960649811, 42.407969757653873 ], [ 117.312311036888801, 42.407969741100658 ], [ 117.312311014551781, 42.407965238155221 ], [ 117.312323167028865, 42.40796520504783 ], [ 117.312323144691021, 42.4079607021024 ], [ 117.312317068452927, 42.407960718656263 ], [ 117.31231704611551, 42.407956215710833 ], [ 117.312329198590831, 42.407956182602803 ], [ 117.312329176252547, 42.407951679657387 ], [ 117.31233525248976, 42.407951663102892 ], [ 117.312335207812353, 42.407942657212018 ], [ 117.312329131576007, 42.407942673766506 ], [ 117.312329019884729, 42.407920159039271 ], [ 117.312316867416371, 42.407920192147238 ], [ 117.312316822741636, 42.407911186256314 ], [ 117.312304670274983, 42.407911219362994 ], [ 117.31230464793849, 42.407906716417514 ], [ 117.312292495472676, 42.407906749522908 ], [ 117.312292517808302, 42.407911252468381 ], [ 117.312268212874869, 42.40791131867531 ], [ 117.312268235208776, 42.407915821620804 ], [ 117.312262158974974, 42.407915838171739 ], [ 117.312262225975346, 42.407929347008178 ], [ 117.31225614974025, 42.4079293635588 ], [ 117.31225617207329, 42.40793386650428 ], [ 117.31225009583774, 42.407933883054575 ], [ 117.312250185168196, 42.407951894836472 ], [ 117.31225626140548, 42.407951878286163 ], [ 117.312256306071646, 42.407960884177079 ], [ 117.312250229833467, 42.407960900727389 ], [ 117.312250274498766, 42.407969906618305 ], [ 117.312280655693826, 42.407969823863503 ], [ 117.312280678028657, 42.40797432680894 ] ] ] } },
{ "type": "Feature", "properties": { "crown_id": 5984, "tree_id": "5988", "top_h_m": 23.833, "H_95_Mean": 23.5839, "DBH": 39.5148, "Carbon_kg": 327.002028, "area_m2": 44.25 }, "geometry": { "type": "Polygon", "coordinates": [ [ [ 117.312219870973067, 42.407965486419577 ], [ 117.312238099688912, 42.407965436772507 ], [ 117.312238077357151, 42.407960933827049 ], [ 117.312232001118971, 42.407960950376392 ], [ 117.312231978787636, 42.407956447430927 ], [ 117.312238055025375, 42.407956430881583 ], [ 117.312238032693614, 42.407951927936111 ], [ 117.312244108930912, 42.407951911386441 ], [ 117.312243997270016, 42.407929396659057 ], [ 117.31225007350514, 42.407929380109081 ], [ 117.312250051172526, 42.407924877163595 ], [ 117.31225612740721, 42.407924860613321 ], [ 117.312256060408146, 42.407911351776839 ], [ 117.312262136641507, 42.407911335226238 ], [ 117.312262114308055, 42.407906832280737 ], [ 117.312286419239769, 42.407906766075115 ], [ 117.312286396904582, 42.407902263129628 ], [ 117.312280320672116, 42.407902279681515 ], [ 117.31228029833737, 42.407897776736029 ], [ 117.312274222105302, 42.407897793287589 ], [ 117.312274199771011, 42.407893290342081 ], [ 117.312268123539383, 42.407893306893314 ], [ 117.312268101205518, 42.407888803947813 ], [ 117.312219491355833, 42.407888936346112 ], [ 117.312219536016613, 42.407897942237156 ], [ 117.312213459784502, 42.40789795878549 ], [ 117.312213482114458, 42.40790246173102 ], [ 117.312189177184251, 42.407902527921173 ], [ 117.312189199512488, 42.407907030866703 ], [ 117.312183123279482, 42.407907047413438 ], [ 117.312183145607278, 42.407911550358968 ], [ 117.312170993140398, 42.407911583451487 ], [ 117.312171104775118, 42.407934098179105 ], [ 117.312177181010753, 42.407934081632995 ], [ 117.312177203338138, 42.407938584578496 ], [ 117.312183279574171, 42.407938568032073 ], [ 117.312183301902024, 42.407943070977566 ], [ 117.312189378138498, 42.40794305443081 ], [ 117.312189422795043, 42.407952060321797 ], [ 117.312195499032399, 42.407952043774728 ], [ 117.312195521361105, 42.407956546720214 ], [ 117.312207673836639, 42.407956513625066 ], [ 117.312207696166226, 42.407961016570546 ], [ 117.312219848642627, 42.407960983474119 ], [ 117.312219870973067, 42.407965486419577 ] ] ] } },
{ "type": "Feature", "properties": { "crown_id": 6047, "tree_id": "6051", "top_h_m": 21.71, "H_95_Mean": 21.6068, "DBH": 33.3061, "Carbon_kg": 220.007836, "area_m2": 26.75 }, "geometry": { "type": "MultiPolygon", "coordinates": [ [ [ [ 117.312158818347442, 42.407907113597162 ], [ 117.312177047046475, 42.407907063959854 ], [ 117.312177024719134, 42.407902561014318 ], [ 117.312183100951714, 42.407902544467909 ], [ 117.312183078623903, 42.407898041522365 ], [ 117.312207383552376, 42.407897975333526 ], [ 117.312207361222875, 42.407893472387983 ], [ 117.312213437454531, 42.407893455839954 ], [ 117.312213392794632, 42.407884449948902 ], [ 117.31223162148703, 42.40788440030294 ], [ 117.312231599155794, 42.407879897357411 ], [ 117.312237675386129, 42.407879880808117 ], [ 117.312237653054453, 42.407875377862574 ], [ 117.312231576824558, 42.407875394411874 ], [ 117.312231420506023, 42.407843873793041 ], [ 117.312225344279142, 42.407843890341994 ], [ 117.312225321948361, 42.407839387396436 ], [ 117.312213169495479, 42.407839420493374 ], [ 117.312213214155278, 42.407848426384511 ], [ 117.312201061700605, 42.407848459480171 ], [ 117.312201084029653, 42.407852962425743 ], [ 117.312195007801861, 42.407852978973082 ], [ 117.312195030130468, 42.407857481918654 ], [ 117.312182877674047, 42.407857515012395 ], [ 117.312182944657295, 42.407871023849083 ], [ 117.31217686842777, 42.40787104039547 ], [ 117.312176890755083, 42.407875543341035 ], [ 117.312164738295152, 42.407875576432872 ], [ 117.312164782948074, 42.407884582323987 ], [ 117.312152630486352, 42.407884615414531 ], [ 117.312152652811974, 42.407889118360096 ], [ 117.312158729043247, 42.40788910181498 ], [ 117.312158818347442, 42.407907113597162 ] ] ], [ [ [ 117.312237675386129, 42.407879880808117 ], [ 117.312237697717819, 42.40788438375364 ], [ 117.312243773948595, 42.407884367204005 ], [ 117.312243751616492, 42.40787986425849 ], [ 117.312237675386129, 42.407879880808117 ] ] ] ] } },
{ "type": "Feature", "properties": { "crown_id": 6076, "tree_id": "6080", "top_h_m": 22.298, "H_95_Mean": 22.0841, "DBH": 35.3123, "Carbon_kg": 250.754416, "area_m2": 32.25 }, "geometry": { "type": "Polygon", "coordinates": [ [ [ 117.312134424118085, 42.407889167993503 ], [ 117.312146576580687, 42.407889134904885 ], [ 117.312146531930352, 42.407880129013762 ], [ 117.312158684391179, 42.407880095923865 ], [ 117.312158639739152, 42.407871090032721 ], [ 117.312170792198216, 42.407871056941545 ], [ 117.312170769871344, 42.407866553995987 ], [ 117.312176846100428, 42.407866537449912 ], [ 117.312176779118502, 42.407853028613211 ], [ 117.312188931574084, 42.407852995520116 ], [ 117.312188909245904, 42.407848492574544 ], [ 117.312194985473269, 42.407848476027524 ], [ 117.312194963144677, 42.407843973081938 ], [ 117.312207115598454, 42.407843939986925 ], [ 117.31220707093955, 42.407834934095789 ], [ 117.312200994713521, 42.407834950643448 ], [ 117.312200927726508, 42.407821441806689 ], [ 117.312182699052286, 42.407821491447727 ], [ 117.312182676724589, 42.407816988502127 ], [ 117.312158371827309, 42.407817054685637 ], [ 117.312158394153286, 42.407821557631252 ], [ 117.312134089254172, 42.407821623809632 ], [ 117.312134111578388, 42.407826126755246 ], [ 117.312128035353155, 42.407826143299033 ], [ 117.312128258591358, 42.40787117275503 ], [ 117.312134334820925, 42.407871156211222 ], [ 117.312134424118085, 42.407889167993503 ] ] ] } },
{ "type": "Feature", "properties": { "crown_id": 6077, "tree_id": "6081", "top_h_m": 20.377, "H_95_Mean": 19.9518, "DBH": 34.2443, "Carbon_kg": 221.965044, "area_m2": 34.5 }, "geometry": { "type": "Polygon", "coordinates": [ [ [ 117.312377473366141, 42.40788850597631 ], [ 117.312395702059391, 42.407888456304249 ], [ 117.312395568001577, 42.40786143863145 ], [ 117.312401644230064, 42.407861422073481 ], [ 117.312401577199921, 42.407847913237056 ], [ 117.312407653427073, 42.407847896678753 ], [ 117.312407631083275, 42.407843393733259 ], [ 117.31241370731, 42.40784337717465 ], [ 117.312413662621523, 42.407834371283677 ], [ 117.312407586395665, 42.407834387842286 ], [ 117.312407541708112, 42.407825381951298 ], [ 117.312395389258128, 42.407825415067556 ], [ 117.312395366915212, 42.407820912122048 ], [ 117.312377138241473, 42.407820961793988 ], [ 117.312377115899892, 42.40781645884848 ], [ 117.312364963451571, 42.407816491961484 ], [ 117.3123649857923, 42.407820994907006 ], [ 117.312352833343127, 42.407821028018738 ], [ 117.312352878022878, 42.407830033909782 ], [ 117.312346801797403, 42.407830050465172 ], [ 117.312346824136824, 42.407834553410687 ], [ 117.312340747910909, 42.407834569965758 ], [ 117.312340792588955, 42.407843575856788 ], [ 117.312334716362187, 42.407843592411545 ], [ 117.312334761039352, 42.407852598302568 ], [ 117.312328684811689, 42.407852614856992 ], [ 117.312328707149874, 42.407857117802507 ], [ 117.312334783377963, 42.407857101248077 ], [ 117.312334828055171, 42.407866107139085 ], [ 117.312346980513098, 42.407866074029229 ], [ 117.312347002852576, 42.407870576974716 ], [ 117.312353079081973, 42.407870560419305 ], [ 117.312353101421877, 42.407875063364784 ], [ 117.312359177651715, 42.407875046809046 ], [ 117.312359222332447, 42.407884052700012 ], [ 117.312377451024446, 42.407884003030844 ], [ 117.312377473366141, 42.40788850597631 ] ] ] } }
]
}
