{
"type": "FeatureCollection",
"name": "tile_23_4",
"crs": { "type": "name", "properties": { "name": "urn:ogc:def:crs:OGC:1.3:CRS84" } },
"features": [
{ "type": "Feature", "properties": { "crown_id": 6654, "tree_id": "6659", "top_h_m": 13.066, "H_95_Mean": 12.9599, "DBH": 23.9155, "Carbon_kg": 83.411104, "area_m2": 19.25 }, "geometry": { "type": "Polygon", "coordinates": [ [ [ 117.310758973129765, 42.407442604077687 ], [ 117.310771125507742, 42.407442571135149 ], [ 117.310771103281311, 42.407438068188654 ], [ 117.310777179469852, 42.407438051716902 ], [ 117.310777201696737, 42.407442554663405 ], [ 117.310783277885719, 42.407442538191326 ], [ 117.310783255658407, 42.407438035244823 ], [ 117.310795408035489, 42.407438002299727 ], [ 117.310795363579118, 42.407428996406722 ], [ 117.310801439766792, 42.407428979933684 ], [ 117.310801417538201, 42.407424476987181 ], [ 117.310807493725434, 42.407424460513838 ], [ 117.310807360351319, 42.407397442834778 ], [ 117.310801284166672, 42.407397459308108 ], [ 117.310801217481, 42.407383950468521 ], [ 117.310789065114349, 42.407383983414213 ], [ 117.310789087342044, 42.407388486360752 ], [ 117.310783011158279, 42.407388502833122 ], [ 117.310783033385547, 42.407393005779646 ], [ 117.310776957201341, 42.407393022251703 ], [ 117.310776934974527, 42.407388519305158 ], [ 117.310770858790747, 42.407388535776889 ], [ 117.310770903243537, 42.407397541669972 ], [ 117.310764827058875, 42.407397558141362 ], [ 117.310764849284837, 42.407402061087907 ], [ 117.310758773099735, 42.407402077559006 ], [ 117.310758795325285, 42.407406580505537 ], [ 117.310764871510813, 42.407406564034439 ], [ 117.31076493818874, 42.407420072874032 ], [ 117.310758862001919, 42.407420089345123 ], [ 117.310758973129765, 42.407442604077687 ] ] ] } },
{ "type": "Feature", "properties": { "crown_id": 6680, "tree_id": "6685", "top_h_m": 19.904, "H_95_Mean": 19.5985, "DBH": 39.5304, "Carbon_kg": 293.323476, "area_m2": 62.25 }, "geometry": { "type": "Polygon", "coordinates": [ [ [ 117.310838030280038, 42.407455898767566 ], [ 117.310856258850748, 42.407455849340685 ], [ 117.310856236618193, 42.407451346394232 ], [ 117.31086231280797, 42.407451329917969 ], [ 117.310862290575002, 42.407446826971501 ], [ 117.310868366764339, 42.407446810494925 ], [ 117.310868388997775, 42.407451313441371 ], [ 117.310874465187524, 42.407451296964474 ], [ 117.310874487421387, 42.407455799910913 ], [ 117.310892715991983, 42.407455750478235 ], [ 117.310892604816289, 42.407433235746005 ], [ 117.310886528628259, 42.407433252223868 ], [ 117.310886506393558, 42.4074287492774 ], [ 117.31089865876875, 42.407428716321363 ], [ 117.310898636533182, 42.407424213374902 ], [ 117.310904712720316, 42.407424196896407 ], [ 117.31090469048435, 42.407419693949933 ], [ 117.310910766671043, 42.407419677471118 ], [ 117.310910722198216, 42.407410671578184 ], [ 117.310904646012375, 42.407410688057006 ], [ 117.310904623776409, 42.407406185110524 ], [ 117.310898547591009, 42.407406201589033 ], [ 117.310898436413424, 42.407383686856605 ], [ 117.310886284046944, 42.407383719812607 ], [ 117.310886261812286, 42.407379216866104 ], [ 117.310868033263844, 42.407379266297681 ], [ 117.310868011030522, 42.407374763351164 ], [ 117.31086193484812, 42.407374779827713 ], [ 117.310861912615238, 42.407370276881196 ], [ 117.310831531705375, 42.407370359259083 ], [ 117.310831509474639, 42.407365856312538 ], [ 117.310819357111541, 42.407365889261435 ], [ 117.310819401571223, 42.407374895154504 ], [ 117.310813325388793, 42.407374911628466 ], [ 117.310813369847637, 42.407383917521543 ], [ 117.310807293664325, 42.407383933995192 ], [ 117.310807338122288, 42.407392939888247 ], [ 117.310813414306466, 42.407392923414598 ], [ 117.310813592142125, 42.407428946986649 ], [ 117.310807515954451, 42.407428963460333 ], [ 117.310807538183511, 42.407433466406836 ], [ 117.31080146199541, 42.407433482880194 ], [ 117.310801506452634, 42.407442488773164 ], [ 117.310795430263681, 42.407442505246209 ], [ 117.31079545249186, 42.407447008192705 ], [ 117.310801528681253, 42.407446991719667 ], [ 117.3108015509099, 42.407451494666141 ], [ 117.310813703289554, 42.407451461719077 ], [ 117.310813681060054, 42.40744695877261 ], [ 117.310819757249448, 42.407446942298591 ], [ 117.310819712789595, 42.407437936405636 ], [ 117.310831865166605, 42.40743790345666 ], [ 117.310831909628192, 42.407446909349609 ], [ 117.310837985817557, 42.407446892874624 ], [ 117.310838030280038, 42.407455898767566 ] ] ] } },
{ "type": "Feature", "properties": { "crown_id": 6714, "tree_id": "6719", "top_h_m": 18.596, "H_95_Mean": 18.4062, "DBH": 34.8248, "Carbon_kg": 218.920599, "area_m2": 42.75 }, "geometry": { "type": "Polygon", "coordinates": [ [ [ 117.310691957284206, 42.407406761666238 ], [ 117.310728414397602, 42.40740666285614 ], [ 117.310728392174227, 42.407402159909594 ], [ 117.310752696914676, 42.407402094029756 ], [ 117.310752674689567, 42.407397591083217 ], [ 117.310758750874228, 42.407397574612453 ], [ 117.310758617521159, 42.407370556933145 ], [ 117.310764693703192, 42.407370540462068 ], [ 117.310764627025407, 42.407357031622368 ], [ 117.310752474663943, 42.407357064564167 ], [ 117.310752430213839, 42.407348058671005 ], [ 117.310734201674194, 42.40734810808128 ], [ 117.310734223897924, 42.407352611027861 ], [ 117.310728147717583, 42.407352627497318 ], [ 117.310728058824424, 42.407334615710923 ], [ 117.31070375410998, 42.407334681585446 ], [ 117.310703798553092, 42.407343687478672 ], [ 117.310691646194101, 42.407343720414012 ], [ 117.310691712856183, 42.407357229253833 ], [ 117.310685636675387, 42.40735724572103 ], [ 117.310685658895665, 42.407361748667626 ], [ 117.310673506533149, 42.407361781601061 ], [ 117.310673595410819, 42.407379793387456 ], [ 117.310679671593803, 42.407379776920891 ], [ 117.310679716033533, 42.407388782814067 ], [ 117.310685792217384, 42.407388766347175 ], [ 117.310685858878301, 42.407402275186897 ], [ 117.310691935063446, 42.407402258719678 ], [ 117.310691957284206, 42.407406761666238 ] ] ] } },
{ "type": "Feature", "properties": { "crown_id": 6756, "tree_id": "6761", "top_h_m": 17.587, "H_95_Mean": 17.1873, "DBH": 36.9709, "Carbon_kg": 237.154812, "area_m2": 61.25 }, "geometry": { "type": "Polygon", "coordinates": [ [ [ 117.310904534832574, 42.40738817332462 ], [ 117.310910611016254, 42.407388156845805 ], [ 117.310910588779876, 42.407383653899316 ], [ 117.310916664963088, 42.407383637420189 ], [ 117.310916642726269, 42.4073791344737 ], [ 117.310922718909055, 42.40737911799426 ], [ 117.31092269667181, 42.407374615047779 ], [ 117.310934849036514, 42.407374582087925 ], [ 117.310934826798402, 42.407370079141437 ], [ 117.310940902980292, 42.40737006266103 ], [ 117.310940858503244, 42.407361056768046 ], [ 117.310934782322221, 42.407361073248445 ], [ 117.310934760084137, 42.40735657030195 ], [ 117.31094083626472, 42.407356553821558 ], [ 117.310940791787701, 42.407347547928552 ], [ 117.310934715607971, 42.407347564408944 ], [ 117.310934693369916, 42.407343061462441 ], [ 117.310940769549177, 42.407343044982035 ], [ 117.3109407250722, 42.407334039089029 ], [ 117.310934648893777, 42.407334055569422 ], [ 117.310934626655722, 42.407329552622897 ], [ 117.310928550477712, 42.407329569102963 ], [ 117.310928483764897, 42.407316060263376 ], [ 117.310904179058099, 42.407316126180369 ], [ 117.310904134586366, 42.407307120287264 ], [ 117.310891982234665, 42.407307153243821 ], [ 117.310892004469665, 42.407311656190387 ], [ 117.310879852117083, 42.407311689145651 ], [ 117.310879829882964, 42.407307186199091 ], [ 117.310873753707085, 42.407307202676236 ], [ 117.310873709239743, 42.407298196783103 ], [ 117.310855480714707, 42.407298246212605 ], [ 117.310855525179477, 42.407307252105753 ], [ 117.310861601355342, 42.407307235629567 ], [ 117.310861623588153, 42.407311738576141 ], [ 117.310849471235542, 42.407311771528207 ], [ 117.310849493467487, 42.407316274474766 ], [ 117.310831264937192, 42.407316323900432 ], [ 117.310831353859825, 42.407334335686706 ], [ 117.31081920150281, 42.40733436863556 ], [ 117.310819245962406, 42.407343374528679 ], [ 117.31082532214181, 42.407343358054412 ], [ 117.310825388832569, 42.407356866894062 ], [ 117.310831465013237, 42.407356850419461 ], [ 117.310831487243945, 42.407361353365999 ], [ 117.310837563425068, 42.407361336891071 ], [ 117.310837585656202, 42.40736583983761 ], [ 117.310867966563876, 42.40736575745813 ], [ 117.310867988797199, 42.407370260404655 ], [ 117.310874064979146, 42.407370243927794 ], [ 117.310874087212895, 42.407374746874304 ], [ 117.310892315760043, 42.40737469744176 ], [ 117.310892337995099, 42.407379200388263 ], [ 117.310904490360684, 42.407379167431628 ], [ 117.310904534832574, 42.40738817332462 ] ] ] } },
{ "type": "Feature", "properties": { "crown_id": 6889, "tree_id": "6894", "top_h_m": 20.296, "H_95_Mean": 19.6309, "DBH": 38.3642, "Carbon_kg": 276.41369, "area_m2": 55.25 }, "geometry": { "type": "Polygon", "coordinates": [ [ [ 117.310709808066619, 42.407330162170695 ], [ 117.310721960422967, 42.407330129233429 ], [ 117.310721938200132, 42.40732562628682 ], [ 117.310734090555584, 42.407325593348283 ], [ 117.310734068331882, 42.407321090401659 ], [ 117.310727992154597, 42.407321106871088 ], [ 117.310727947708045, 42.407312100977855 ], [ 117.310734023884478, 42.407312084508433 ], [ 117.31073404610818, 42.40731658745505 ], [ 117.310746198461885, 42.407316554515234 ], [ 117.310746176237316, 42.407312051568617 ], [ 117.310752252413707, 42.407312035098222 ], [ 117.310752207963731, 42.407303029204989 ], [ 117.310758284139254, 42.407303012734289 ], [ 117.310758261913847, 42.40729850978768 ], [ 117.310764338088944, 42.407298493316645 ], [ 117.310764293637249, 42.407289487423405 ], [ 117.310746065114557, 42.407289536835492 ], [ 117.310746020665491, 42.407280530942231 ], [ 117.310739944492127, 42.407280547412277 ], [ 117.310739922268041, 42.407276044465625 ], [ 117.310733846095104, 42.407276060935359 ], [ 117.310733779424169, 42.407262552095403 ], [ 117.310721627080895, 42.407262585033862 ], [ 117.310721560412603, 42.407249076193864 ], [ 117.310691179560806, 42.407249158534349 ], [ 117.310691201781395, 42.407253661481043 ], [ 117.310642592414766, 42.407253793209115 ], [ 117.310642614631888, 42.407258296155817 ], [ 117.310648690803163, 42.407258279690929 ], [ 117.310648735238289, 42.407267285584325 ], [ 117.310654811410416, 42.40726726911911 ], [ 117.310654944718479, 42.407294286799178 ], [ 117.310661020893221, 42.407294270333622 ], [ 117.310661131985569, 42.407316785066904 ], [ 117.310697589046953, 42.407316686266768 ], [ 117.310697633489156, 42.407325692160029 ], [ 117.310709785844637, 42.407325659224071 ], [ 117.310709808066619, 42.407330162170695 ] ] ] } },
{ "type": "Feature", "properties": { "crown_id": 6928, "tree_id": "6933", "top_h_m": 19.083, "H_95_Mean": 18.6894, "DBH": 34.0889, "Carbon_kg": 211.599075, "area_m2": 38.25 }, "geometry": { "type": "Polygon", "coordinates": [ [ [ 117.310770369811465, 42.407289470952058 ], [ 117.310794674508287, 42.407289405063473 ], [ 117.310794652280279, 42.407284902116857 ], [ 117.310806804627802, 42.407284869170631 ], [ 117.310806782398927, 42.407280366224015 ], [ 117.31081285857222, 42.407280349750415 ], [ 117.310812836342919, 42.407275846803806 ], [ 117.310818912515799, 42.407275830329901 ], [ 117.310818823596904, 42.407257818543421 ], [ 117.310806671254625, 42.407257851490904 ], [ 117.310806626796932, 42.407248845597636 ], [ 117.310794474456387, 42.407248878543825 ], [ 117.310794452228436, 42.40724437559718 ], [ 117.310788376058568, 42.407244392069785 ], [ 117.310788287148512, 42.407226380283149 ], [ 117.310782210980378, 42.407226396755426 ], [ 117.310782188753322, 42.407221893808753 ], [ 117.310770036417935, 42.407221926752328 ], [ 117.310770014191732, 42.407217423805655 ], [ 117.310757861857184, 42.407217456747937 ], [ 117.31075788408252, 42.407221959694617 ], [ 117.31074573174709, 42.407221992635606 ], [ 117.310745798420498, 42.407235501475647 ], [ 117.310727569913396, 42.407235550884764 ], [ 117.310727681029334, 42.40725806561813 ], [ 117.310739833371741, 42.407258032679024 ], [ 117.310739900043956, 42.40727154151898 ], [ 117.310745976216452, 42.407271525048934 ], [ 117.310745998440979, 42.407276027995586 ], [ 117.310752074613902, 42.407276011525212 ], [ 117.310752119063835, 42.407285017418488 ], [ 117.310770347585191, 42.407284968005442 ], [ 117.310770369811465, 42.407289470952058 ] ] ] } },
{ "type": "Feature", "properties": { "crown_id": 6957, "tree_id": "6962", "top_h_m": 22.5, "H_95_Mean": 21.6436, "DBH": 40.3211, "Carbon_kg": 323.726497, "area_m2": 56.0 }, "geometry": { "type": "Polygon", "coordinates": [ [ [ 117.310904045642985, 42.407289108501033 ], [ 117.31091619799119, 42.407289075543218 ], [ 117.310916175754485, 42.407284572596666 ], [ 117.310934404275429, 42.407284523157514 ], [ 117.310934382037445, 42.407280020210955 ], [ 117.310940458210638, 42.407280003730612 ], [ 117.310940435972228, 42.407275500784053 ], [ 117.31094651214498, 42.407275484303362 ], [ 117.310946534383845, 42.407279987249929 ], [ 117.310952610557038, 42.407279970768926 ], [ 117.310952588317733, 42.407275467822373 ], [ 117.310958664490499, 42.40727545134105 ], [ 117.310958553291911, 42.407252936608245 ], [ 117.310952477121319, 42.407252953089554 ], [ 117.310952432642793, 42.407243947196399 ], [ 117.310946356473082, 42.407243963677381 ], [ 117.310946267517807, 42.407225951891029 ], [ 117.310940191349829, 42.407225968371662 ], [ 117.310940169111475, 42.40722146542506 ], [ 117.31093409294391, 42.407221481905381 ], [ 117.310934070705983, 42.407216978958772 ], [ 117.310927994538844, 42.407216995438766 ], [ 117.310927927826413, 42.407203486598917 ], [ 117.310921851660567, 42.407203503078577 ], [ 117.310921807186489, 42.407194497185323 ], [ 117.310915731021524, 42.407194513664663 ], [ 117.310915708784947, 42.407190010718033 ], [ 117.31090355645587, 42.40719004367574 ], [ 117.310903600927318, 42.407199049569016 ], [ 117.310885372431059, 42.407199099003179 ], [ 117.310885394665476, 42.407203601949817 ], [ 117.310879318499616, 42.407203618427225 ], [ 117.310879362967611, 42.407212624320515 ], [ 117.310873286800899, 42.40721264079761 ], [ 117.310873353501634, 42.407226149637516 ], [ 117.310867277333585, 42.407226166114306 ], [ 117.310867410732612, 42.407253183794019 ], [ 117.310873486903276, 42.407253167317215 ], [ 117.310873531370532, 42.407262173210427 ], [ 117.310879607542049, 42.407262156733296 ], [ 117.310879696478338, 42.407280168519662 ], [ 117.310885772651602, 42.407280152042205 ], [ 117.310885794886133, 42.407284654988779 ], [ 117.310891871059795, 42.407284638511001 ], [ 117.310891848824852, 42.40728013556442 ], [ 117.310897924998088, 42.407280119086323 ], [ 117.310897947233471, 42.407284622032897 ], [ 117.310904023407147, 42.407284605554473 ], [ 117.310904045642985, 42.407289108501033 ] ] ] } }
]
}
