{
"type": "FeatureCollection",
"name": "tile_1_12",
"crs": { "type": "name", "properties": { "name": "urn:ogc:def:crs:OGC:1.3:CRS84" } },
"features": [
{ "type": "Feature", "properties": { "crown_id": 15, "tree_id": "15", "top_h_m": 14.4, "H_95_Mean": 14.806, "DBH": 17.8021, "Carbon_kg": 49.777056, "area_m2": 4.75 }, "geometry": { "type": "Polygon", "coordinates": [ [ [ 117.312686688625959, 42.411422521868353 ], [ 117.312735301201911, 42.411422389263102 ], [ 117.31273527883188, 42.411417886320571 ], [ 117.312729202260329, 42.411417902897355 ], [ 117.312729179890724, 42.411413399954817 ], [ 117.312723103319613, 42.411413416531275 ], [ 117.312723080950462, 42.411408913588744 ], [ 117.312717004379792, 42.411408930164875 ], [ 117.312717026748501, 42.411413433107406 ], [ 117.31271095017739, 42.411413449683216 ], [ 117.312710927809107, 42.411408946740693 ], [ 117.31269269809701, 42.411408996466179 ], [ 117.312692720464, 42.411413499408724 ], [ 117.312686643892832, 42.411413515983256 ], [ 117.312686688625959, 42.411422521868353 ] ] ] } },
{ "type": "Feature", "properties": { "crown_id": 45, "tree_id": "45", "top_h_m": 22.278, "H_95_Mean": 21.9963, "DBH": 32.5747, "Carbon_kg": 212.613729, "area_m2": 23.75 }, "geometry": { "type": "Polygon", "coordinates": [ [ [ 117.312765684061745, 42.411422306374341 ], [ 117.312844679496635, 42.411422090825901 ], [ 117.312844657118788, 42.411417587883427 ], [ 117.312838580547336, 42.411417604466003 ], [ 117.312838558169901, 42.411413101523507 ], [ 117.312844634740941, 42.411413084940932 ], [ 117.312844589985232, 42.41140407905597 ], [ 117.312850666555363, 42.411404062473075 ], [ 117.312850599420571, 42.411390553645596 ], [ 117.312838446282868, 42.411390586811045 ], [ 117.312838468660289, 42.411395089753547 ], [ 117.312832392090996, 42.411395106335789 ], [ 117.312832347337093, 42.411386100450784 ], [ 117.312808041063363, 42.411386166776516 ], [ 117.312808018688159, 42.411381663834 ], [ 117.312795865552147, 42.41138169699493 ], [ 117.312795887926484, 42.411386199937446 ], [ 117.312789811358044, 42.411386216517442 ], [ 117.312789833731941, 42.411390719459959 ], [ 117.312777680594166, 42.411390752618964 ], [ 117.312777725340268, 42.411399758504025 ], [ 117.312771648770507, 42.411399775083048 ], [ 117.312771693515742, 42.411408780968081 ], [ 117.312765616945114, 42.411408797546791 ], [ 117.312765684061745, 42.411422306374341 ] ] ] } },
{ "type": "Feature", "properties": { "crown_id": 59, "tree_id": "59", "top_h_m": 22.621, "H_95_Mean": 22.2287, "DBH": 33.0863, "Carbon_kg": 220.765585, "area_m2": 24.75 }, "geometry": { "type": "Polygon", "coordinates": [ [ [ 117.312856832640392, 42.411422057659763 ], [ 117.312911521787029, 42.411421908396228 ], [ 117.312911477021771, 42.41141290251133 ], [ 117.312917553592712, 42.411412885924889 ], [ 117.312917486443538, 42.411399377097524 ], [ 117.312911409873877, 42.411399393683965 ], [ 117.312911320343446, 42.411381381914062 ], [ 117.312899167207604, 42.411381415085948 ], [ 117.312899122444179, 42.411372409200972 ], [ 117.312886969310028, 42.411372442371565 ], [ 117.312886946929183, 42.411367939429056 ], [ 117.312868717229279, 42.411367989182516 ], [ 117.312868784367907, 42.411381498010023 ], [ 117.312856631232023, 42.411381531177391 ], [ 117.312856765504222, 42.411408548832334 ], [ 117.312850688933636, 42.411408565415549 ], [ 117.312850733690226, 42.411417571300511 ], [ 117.312856810261678, 42.411417554717289 ], [ 117.312856832640392, 42.411422057659763 ] ] ] } },
{ "type": "Feature", "properties": { "crown_id": 93, "tree_id": "93", "top_h_m": 19.052, "H_95_Mean": 18.7542, "DBH": 28.5132, "Carbon_kg": 147.933751, "area_m2": 19.0 }, "geometry": { "type": "Polygon", "coordinates": [ [ [ 117.312674446019173, 42.411404543246228 ], [ 117.31269267573002, 42.411404493523634 ], [ 117.312692653363044, 42.411399990581081 ], [ 117.312704806502694, 42.41139995743108 ], [ 117.312704828870551, 42.411404460373625 ], [ 117.312710905440824, 42.411404443798141 ], [ 117.31271088307254, 42.411399940855588 ], [ 117.312716959642358, 42.411399924279785 ], [ 117.312716937273649, 42.411395421337239 ], [ 117.312729090412418, 42.411395388184658 ], [ 117.312729045673251, 42.411386382299561 ], [ 117.312735122241776, 42.411386365722805 ], [ 117.312735099871759, 42.41138186278026 ], [ 117.312722946735647, 42.411381895933452 ], [ 117.312722924366525, 42.411377392990886 ], [ 117.312716847798868, 42.411377409567002 ], [ 117.312716825430172, 42.411372906624443 ], [ 117.312692519161317, 42.411372972925662 ], [ 117.312692496794355, 42.411368469983096 ], [ 117.312686420227578, 42.411368486557585 ], [ 117.3126863531281, 42.411354977729808 ], [ 117.31267419999709, 42.411355010877827 ], [ 117.312674222362702, 42.411359513820429 ], [ 117.312668145796778, 42.411359530393945 ], [ 117.312668168161949, 42.411364033336554 ], [ 117.31266209159557, 42.411364049909757 ], [ 117.312662203419421, 42.41138656462271 ], [ 117.312668279987989, 42.411386548049492 ], [ 117.312668324718416, 42.411395553934639 ], [ 117.31267440128785, 42.411395537361088 ], [ 117.312674446019173, 42.411404543246228 ] ] ] } },
{ "type": "Feature", "properties": { "crown_id": 138, "tree_id": "138", "top_h_m": 20.019, "H_95_Mean": 19.6683, "DBH": 32.3052, "Carbon_kg": 195.697216, "area_m2": 28.25 }, "geometry": { "type": "Polygon", "coordinates": [ [ [ 117.312729000934155, 42.411377376414457 ], [ 117.312747230637029, 42.411377326683208 ], [ 117.312747185895333, 42.411368320798097 ], [ 117.312753262462067, 42.411368304220382 ], [ 117.312753284833349, 42.411372807162934 ], [ 117.312759361400524, 42.411372790584892 ], [ 117.312759294285371, 42.411359281757214 ], [ 117.312747141153636, 42.411359314912971 ], [ 117.312747118782809, 42.411354811970405 ], [ 117.312759271913691, 42.411354778814648 ], [ 117.312759227170275, 42.411345772929529 ], [ 117.31275315060573, 42.411345789507543 ], [ 117.312753128234476, 42.411341286564976 ], [ 117.312747051670328, 42.41134130314267 ], [ 117.312747006928703, 42.411332297257516 ], [ 117.312753083491984, 42.411332280679815 ], [ 117.312753061120745, 42.411327777737228 ], [ 117.31274090799505, 42.411327810892288 ], [ 117.312740885624692, 42.411323307949708 ], [ 117.312722655937449, 42.411323357679876 ], [ 117.312722633568413, 42.411318854737274 ], [ 117.312704403882421, 42.411318904464551 ], [ 117.312704448617907, 42.411327910349783 ], [ 117.312692295492141, 42.4113279434997 ], [ 117.312692317859046, 42.411332446442316 ], [ 117.312686241295722, 42.411332463016784 ], [ 117.312686263662201, 42.4113369659594 ], [ 117.312680187098437, 42.411336982533562 ], [ 117.312680254196536, 42.411350491361375 ], [ 117.312692407326679, 42.411350458212723 ], [ 117.312692474427422, 42.411363967040501 ], [ 117.312698550993787, 42.411363950465685 ], [ 117.312698573361175, 42.411368453408265 ], [ 117.312722879628282, 42.41136838710576 ], [ 117.312722901997404, 42.41137289004832 ], [ 117.312728978564593, 42.411372873471898 ], [ 117.312729000934155, 42.411377376414457 ] ], [ [ 117.312740997476581, 42.411345822662646 ], [ 117.31274097510618, 42.411341319720059 ], [ 117.312747051670328, 42.41134130314267 ], [ 117.312747074041155, 42.411345806085258 ], [ 117.312740997476581, 42.411345822662646 ] ] ] } },
{ "type": "Feature", "properties": { "crown_id": 154, "tree_id": "154", "top_h_m": 20.399, "H_95_Mean": 19.9004, "DBH": 32.1093, "Carbon_kg": 194.658788, "area_m2": 27.0 }, "geometry": { "type": "Polygon", "coordinates": [ [ [ 117.312814050504883, 42.41137264136799 ], [ 117.312832280206237, 42.411372591623234 ], [ 117.312832257829314, 42.41136808868071 ], [ 117.312826181262622, 42.411368105262625 ], [ 117.312826158886125, 42.411363602320094 ], [ 117.312838312018599, 42.411363569155967 ], [ 117.312838289641263, 42.411359066213429 ], [ 117.312844366207059, 42.411359049630882 ], [ 117.312844343829269, 42.411354546688365 ], [ 117.312850420394625, 42.411354530105505 ], [ 117.312850398016423, 42.411350027162968 ], [ 117.312856474581324, 42.411350010579788 ], [ 117.31285638506678, 42.411331998809651 ], [ 117.312850308503585, 42.41133201539283 ], [ 117.312850218990832, 42.411314003622621 ], [ 117.312825912745026, 42.411314069952056 ], [ 117.312825957497907, 42.411323075837188 ], [ 117.312807727810863, 42.411323125580893 ], [ 117.312807750186025, 42.411327628523466 ], [ 117.312795597060429, 42.411327661684332 ], [ 117.312795619434723, 42.411332164626906 ], [ 117.312783466308233, 42.411332197786486 ], [ 117.312783511055088, 42.411341203671618 ], [ 117.312777434490968, 42.411341220250939 ], [ 117.312777501609958, 42.411354729078624 ], [ 117.312789654740783, 42.411354695919663 ], [ 117.312789677114665, 42.411359198862208 ], [ 117.312801830246357, 42.411359165701946 ], [ 117.312801874995841, 42.411368171587029 ], [ 117.312814028129239, 42.411368138425473 ], [ 117.312814050504883, 42.41137264136799 ] ] ] } },
{ "type": "Feature", "properties": { "crown_id": 212, "tree_id": "212", "top_h_m": 19.272, "H_95_Mean": 19.2742, "DBH": 28.6897, "Carbon_kg": 152.227856, "area_m2": 18.5 }, "geometry": { "type": "Polygon", "coordinates": [ [ [ 117.312649804279559, 42.411337065399515 ], [ 117.31266195740713, 42.411337032254096 ], [ 117.312661935042385, 42.411332529311473 ], [ 117.312668011605737, 42.411332512738291 ], [ 117.31266798924058, 42.41132800979566 ], [ 117.312686218929272, 42.411327960074168 ], [ 117.312686196562822, 42.411323457131552 ], [ 117.312698349687722, 42.411323423982282 ], [ 117.312698327320405, 42.411318921039665 ], [ 117.312692250758374, 42.411318937614453 ], [ 117.312692206024636, 42.411309931729193 ], [ 117.312686129463501, 42.411309948303668 ], [ 117.312686107097051, 42.411305445361037 ], [ 117.312692183657759, 42.411305428786576 ], [ 117.312692116557187, 42.411291919958657 ], [ 117.312661733760109, 42.411292002827714 ], [ 117.312661711395421, 42.411287499885056 ], [ 117.312649558277414, 42.411287533030411 ], [ 117.312649580641249, 42.411292035973084 ], [ 117.312643504081791, 42.411292052545278 ], [ 117.312643526445157, 42.411296555487937 ], [ 117.312637449885287, 42.411296572059825 ], [ 117.312637561700058, 42.411319086773098 ], [ 117.312643638262102, 42.411319070201195 ], [ 117.312643660625511, 42.411323573143839 ], [ 117.312649737187996, 42.411323556571624 ], [ 117.312649804279559, 42.411337065399515 ] ] ] } },
{ "type": "Feature", "properties": { "crown_id": 219, "tree_id": "219", "top_h_m": 19.301, "H_95_Mean": 19.1, "DBH": 31.4127, "Carbon_kg": 181.773476, "area_m2": 26.75 }, "geometry": { "type": "Polygon", "coordinates": [ [ [ 117.312783443934848, 42.411327694843912 ], [ 117.312789520497631, 42.411327678264279 ], [ 117.312789498123777, 42.411323175321705 ], [ 117.312801651248506, 42.411323142161486 ], [ 117.312801628873814, 42.411318639218919 ], [ 117.31281985855955, 42.411318589476174 ], [ 117.312819813807536, 42.411309583591034 ], [ 117.312844120051665, 42.4113095172629 ], [ 117.312843985785335, 42.411282499607452 ], [ 117.312837909226928, 42.411282516189956 ], [ 117.312837864472399, 42.411273510304767 ], [ 117.312807481684615, 42.411273593212421 ], [ 117.312807459309539, 42.411269090269812 ], [ 117.312789229638099, 42.411269140010539 ], [ 117.312789252011882, 42.411273642953141 ], [ 117.3127831754543, 42.411273659532739 ], [ 117.312783220200984, 42.411282665417978 ], [ 117.312777143642549, 42.411282681997257 ], [ 117.31277721076134, 42.411296190825084 ], [ 117.312771134201569, 42.41129620740405 ], [ 117.312771156574073, 42.411300710346659 ], [ 117.31277723313427, 42.411300693767686 ], [ 117.312777255507214, 42.411305196710281 ], [ 117.312771178946576, 42.411305213289253 ], [ 117.312771223691612, 42.411314219174443 ], [ 117.312783376814636, 42.411314186016156 ], [ 117.312783443934848, 42.411327694843912 ] ] ] } },
{ "type": "Feature", "properties": { "crown_id": 245, "tree_id": "245", "top_h_m": 20.706, "H_95_Mean": 20.3416, "DBH": 30.1278, "Carbon_kg": 173.440823, "area_m2": 20.25 }, "geometry": { "type": "Polygon", "coordinates": [ [ [ 117.312728665391404, 42.411309832275649 ], [ 117.312746895074724, 42.411309782544528 ], [ 117.31274685033317, 42.41130077665931 ], [ 117.312752926893396, 42.411300760081623 ], [ 117.312752904522213, 42.411296257139021 ], [ 117.312758981081984, 42.411296240561015 ], [ 117.312759003453621, 42.411300743503624 ], [ 117.312765080013847, 42.411300726925305 ], [ 117.312765035269706, 42.411291721040087 ], [ 117.312771111829065, 42.411291704461441 ], [ 117.312771044711567, 42.411278195633592 ], [ 117.312777121269605, 42.411278179054634 ], [ 117.312777054150871, 42.411264670226771 ], [ 117.312758824480682, 42.411264719962645 ], [ 117.312758802109087, 42.411260217020015 ], [ 117.312728419327485, 42.411260299906687 ], [ 117.312728396958065, 42.411255796964028 ], [ 117.312722320402159, 42.411255813540393 ], [ 117.312722342771139, 42.411260316483059 ], [ 117.312716266214807, 42.411260333059111 ], [ 117.312716355689048, 42.411278344829704 ], [ 117.312722432247128, 42.411278328253651 ], [ 117.312722454616122, 42.411282831196289 ], [ 117.31271637805763, 42.411282847772348 ], [ 117.312716400426197, 42.411287350714993 ], [ 117.312722476985144, 42.411287334138926 ], [ 117.312722521723188, 42.411296340024187 ], [ 117.312728598283002, 42.411296323447793 ], [ 117.312728665391404, 42.411309832275649 ] ] ] } },
{ "type": "Feature", "properties": { "crown_id": 281, "tree_id": "281", "top_h_m": 20.756, "H_95_Mean": 20.3693, "DBH": 30.431, "Carbon_kg": 177.119283, "area_m2": 21.0 }, "geometry": { "type": "Polygon", "coordinates": [ [ [ 117.312667787954425, 42.411287483311881 ], [ 117.312698170749343, 42.411287400441246 ], [ 117.312698148382054, 42.411282897498602 ], [ 117.31270422494056, 42.411282880923501 ], [ 117.312704202572874, 42.41127837798085 ], [ 117.31269812601478, 42.41127839455595 ], [ 117.31269810364752, 42.411273891613291 ], [ 117.312710256762827, 42.411273858462792 ], [ 117.312710167290334, 42.411255846692157 ], [ 117.312716243846268, 42.411255830116438 ], [ 117.3127162214777, 42.411251327173787 ], [ 117.312710144922235, 42.411251343749505 ], [ 117.312710122554137, 42.411246840806832 ], [ 117.312697969444045, 42.411246873957303 ], [ 117.312697947076799, 42.411242371014623 ], [ 117.312673640858279, 42.411242437311692 ], [ 117.312673618492795, 42.411237934368984 ], [ 117.312655388830152, 42.411237984088388 ], [ 117.312655455922709, 42.411251492916477 ], [ 117.312649379367201, 42.411251509488977 ], [ 117.312649401730951, 42.411256012431679 ], [ 117.312655478286899, 42.411255995859172 ], [ 117.312655567743732, 42.411274007629885 ], [ 117.312661644301443, 42.411273991057058 ], [ 117.312661689030747, 42.41128299694239 ], [ 117.312667765589325, 42.411282980369229 ], [ 117.312667787954425, 42.411287483311881 ] ] ] } },
{ "type": "Feature", "properties": { "crown_id": 307, "tree_id": "307", "top_h_m": 19.852, "H_95_Mean": 19.7038, "DBH": 28.4745, "Carbon_kg": 151.902912, "area_m2": 17.25 }, "geometry": { "type": "Polygon", "coordinates": [ [ [ 117.312783130707615, 42.4112646536475 ], [ 117.312789207264316, 42.411264637067902 ], [ 117.312789184890548, 42.411260134125278 ], [ 117.312795261446823, 42.411260117545375 ], [ 117.312795171950057, 42.411242105774853 ], [ 117.312783018840989, 42.411242138934334 ], [ 117.312782951721076, 42.411228630106393 ], [ 117.312770798614579, 42.411228663264559 ], [ 117.312770753869714, 42.41121965737922 ], [ 117.312764677317332, 42.411219673957824 ], [ 117.312764699689325, 42.411224176900497 ], [ 117.31272824037228, 42.411224276365353 ], [ 117.312728262741658, 42.411228779308033 ], [ 117.312734339294963, 42.411228762731355 ], [ 117.312734428774263, 42.411246774502025 ], [ 117.312728352219239, 42.41124679107871 ], [ 117.31272837458863, 42.411251294021383 ], [ 117.312734451144095, 42.411251277444691 ], [ 117.312734473513956, 42.411255780387343 ], [ 117.312764856293356, 42.411255697499065 ], [ 117.312764878665377, 42.411260200441717 ], [ 117.312783108334258, 42.411260150704877 ], [ 117.312783130707615, 42.4112646536475 ] ] ] } },
{ "type": "Feature", "properties": { "crown_id": 348, "tree_id": "348", "top_h_m": 18.927, "H_95_Mean": 18.8247, "DBH": 26.4032, "Carbon_kg": 126.979927, "area_m2": 14.0 }, "geometry": { "type": "MultiPolygon", "coordinates": [ [ [ [ 117.312704001263754, 42.411237851496871 ], [ 117.312704023631426, 42.411242354439558 ], [ 117.312710100186024, 42.411242337864152 ], [ 117.312710077817925, 42.411237834921472 ], [ 117.312704001263754, 42.411237851496871 ] ] ], [ [ [ 117.312704001263754, 42.411237851496871 ], [ 117.31270397889611, 42.411233348554184 ], [ 117.312716132003587, 42.411233315403095 ], [ 117.312716109635076, 42.411228812460415 ], [ 117.312722186188381, 42.411228795884384 ], [ 117.312722163819416, 42.411224292941696 ], [ 117.312716087266566, 42.411224309517728 ], [ 117.312716064898055, 42.411219806575033 ], [ 117.312709988345617, 42.411219823150731 ], [ 117.312709965977533, 42.411215320208044 ], [ 117.312703889425535, 42.411215336783414 ], [ 117.312703822322675, 42.41120182795531 ], [ 117.312679516119815, 42.411201894253566 ], [ 117.31267953848571, 42.411206397196274 ], [ 117.312661308832205, 42.411206446916594 ], [ 117.312661375925956, 42.411219955744755 ], [ 117.312667452478422, 42.41121993917163 ], [ 117.312667519573552, 42.411233447999749 ], [ 117.312679672681071, 42.411233414852518 ], [ 117.312679695046981, 42.411237917795205 ], [ 117.312704001263754, 42.411237851496871 ] ] ] ] } },
{ "type": "Feature", "properties": { "crown_id": 354, "tree_id": "354", "top_h_m": 18.864, "H_95_Mean": 18.2969, "DBH": 34.4077, "Carbon_kg": 212.916692, "area_m2": 41.25 }, "geometry": { "type": "Polygon", "coordinates": [ [ [ 117.312807347434187, 42.41124657555671 ], [ 117.312831653653987, 42.411246509231297 ], [ 117.312831631277206, 42.411242006288674 ], [ 117.312837707831704, 42.411241989706511 ], [ 117.312837685454497, 42.411237486763888 ], [ 117.312861991670715, 42.411237420432052 ], [ 117.312861969291774, 42.411232917489443 ], [ 117.312855892738156, 42.411232934072885 ], [ 117.312855825602625, 42.411219425245008 ], [ 117.312849749050301, 42.411219441828109 ], [ 117.312849704294194, 42.411210435942841 ], [ 117.312843627742723, 42.41121045252563 ], [ 117.312843538232286, 42.411192440755038 ], [ 117.312849614781982, 42.411192424172256 ], [ 117.312849570025932, 42.411183418286939 ], [ 117.312843493477075, 42.411183434869699 ], [ 117.312843471099484, 42.41117893192704 ], [ 117.312831318002679, 42.411178965091601 ], [ 117.312831273249245, 42.411169959206248 ], [ 117.312800890511397, 42.411170042111983 ], [ 117.312800935260483, 42.411179047997372 ], [ 117.312788782163565, 42.411179081157414 ], [ 117.312788826910946, 42.411188087042795 ], [ 117.31278275036162, 42.411188103622344 ], [ 117.312782772734863, 42.411192606565038 ], [ 117.312776696185097, 42.411192623144267 ], [ 117.312776852794968, 42.41122414374297 ], [ 117.312789005900584, 42.411224110584151 ], [ 117.31278907302179, 42.411237619412105 ], [ 117.312801226129992, 42.411237586251993 ], [ 117.312801248504613, 42.411242089194623 ], [ 117.31280732505914, 42.411242072614073 ], [ 117.312807347434187, 42.41124657555671 ] ] ] } },
{ "type": "Feature", "properties": { "crown_id": 362, "tree_id": "362", "top_h_m": 17.466, "H_95_Mean": 17.3988, "DBH": 26.6287, "Carbon_kg": 123.295142, "area_m2": 16.75 }, "geometry": { "type": "Polygon", "coordinates": [ [ [ 117.312722141450465, 42.411219789999016 ], [ 117.312758600764937, 42.411219690536115 ], [ 117.312758578393399, 42.411215187593434 ], [ 117.312770731497309, 42.411215154436562 ], [ 117.31277061963533, 42.411192639723168 ], [ 117.31275846653574, 42.411192672880013 ], [ 117.312758444164231, 42.411188169937311 ], [ 117.312752367614863, 42.411188186515254 ], [ 117.312752345243808, 42.411183683572553 ], [ 117.31274626869488, 42.411183700150161 ], [ 117.312746246324238, 42.41117919720746 ], [ 117.312734093227249, 42.411179230361711 ], [ 117.31273411559701, 42.411183733304426 ], [ 117.312728039048082, 42.411183749881076 ], [ 117.312728061417403, 42.41118825282377 ], [ 117.31272198486802, 42.411188269400114 ], [ 117.312722007236943, 42.411192772342837 ], [ 117.312709854137282, 42.411192805494522 ], [ 117.312709943609491, 42.411210817265349 ], [ 117.312716020161062, 42.411210800689659 ], [ 117.312716042529544, 42.411215303632346 ], [ 117.312722119081556, 42.411215287056322 ], [ 117.312722141450465, 42.411219789999016 ] ] ] } },
{ "type": "Feature", "properties": { "crown_id": 363, "tree_id": "363", "top_h_m": 16.579, "H_95_Mean": 16.7357, "DBH": 26.1358, "Carbon_kg": 116.040826, "area_m2": 16.75 }, "geometry": { "type": "MultiPolygon", "coordinates": [ [ [ [ 117.312868112983551, 42.411246409733515 ], [ 117.312880266093373, 42.411246376565011 ], [ 117.312880221332833, 42.4112373706798 ], [ 117.312886297886877, 42.411237354095071 ], [ 117.312886230744809, 42.411223845267244 ], [ 117.312898383850239, 42.411223812096836 ], [ 117.312898271942558, 42.411201297383748 ], [ 117.312904348493078, 42.411201280798075 ], [ 117.312904303729198, 42.411192274912828 ], [ 117.312873920980792, 42.411192357837947 ], [ 117.312873898601012, 42.411187854895296 ], [ 117.312867822051757, 42.411187871479349 ], [ 117.312867844431111, 42.411192374422008 ], [ 117.312855691331691, 42.411192407589162 ], [ 117.312855713710178, 42.411196910531814 ], [ 117.312849637160028, 42.411196927114915 ], [ 117.312849681916134, 42.411205933000211 ], [ 117.312855758467123, 42.411205916417103 ], [ 117.312855803224124, 42.411214922302371 ], [ 117.312861879775994, 42.411214905718957 ], [ 117.312861946912832, 42.411228414546819 ], [ 117.31286802346601, 42.411228397963072 ], [ 117.312868112983551, 42.411246409733515 ] ] ], [ [ [ 117.312904303729198, 42.411192274912828 ], [ 117.312910380278865, 42.411192258326835 ], [ 117.312910357896456, 42.411187755384198 ], [ 117.312904281347244, 42.411187771970191 ], [ 117.312904303729198, 42.411192274912828 ] ] ] ] } }
]
}
