{
"type": "FeatureCollection",
"name": "tile_13_13",
"crs": { "type": "name", "properties": { "name": "urn:ogc:def:crs:OGC:1.3:CRS84" } },
"features": [
{ "type": "Feature", "properties": { "crown_id": 3945, "tree_id": "3947", "top_h_m": 22.042, "H_95_Mean": 22.0388, "DBH": 28.0533, "Carbon_kg": 157.503043, "area_m2": 13.25 }, "geometry": { "type": "Polygon", "coordinates": [ [ [ 117.31292490510603, 42.409224405715783 ], [ 117.31295528690454, 42.409224322780233 ], [ 117.312955264520483, 42.409219819836075 ], [ 117.31296741723898, 42.409219786659605 ], [ 117.31296739485407, 42.409215283715447 ], [ 117.312973471212871, 42.409215267126726 ], [ 117.31297344882752, 42.409210764182561 ], [ 117.312979525185895, 42.409210747593534 ], [ 117.312979502800133, 42.409206244649369 ], [ 117.312985579158038, 42.409206228060015 ], [ 117.312985534385632, 42.409197222171677 ], [ 117.312973381671526, 42.409197255350058 ], [ 117.312973359286204, 42.409192752405865 ], [ 117.312942977502985, 42.409192835346175 ], [ 117.312942999886147, 42.409197338290355 ], [ 117.312930847171941, 42.409197371464231 ], [ 117.312930869554222, 42.409201874408424 ], [ 117.312924793196686, 42.409201890994865 ], [ 117.31292490510603, 42.409224405715783 ] ] ] } },
{ "type": "Feature", "properties": { "crown_id": 3970, "tree_id": "3972", "top_h_m": 21.272, "H_95_Mean": 21.2862, "DBH": 34.634, "Carbon_kg": 235.949439, "area_m2": 32.0 }, "geometry": { "type": "Polygon", "coordinates": [ [ [ 117.313088966816409, 42.409223957768134 ], [ 117.313113272254668, 42.409223891385565 ], [ 117.313113227463987, 42.40921488549737 ], [ 117.313107151105285, 42.409214902093495 ], [ 117.313107083920585, 42.409201393261178 ], [ 117.313101007563191, 42.409201409856976 ], [ 117.31310094037984, 42.409187901024595 ], [ 117.313107016735927, 42.40918788442881 ], [ 117.313106882366753, 42.409160866764012 ], [ 117.313100806013296, 42.409160883359775 ], [ 117.313100783618879, 42.409156380415624 ], [ 117.313076478206654, 42.409156446795478 ], [ 117.31307645581397, 42.409151943851306 ], [ 117.313039997698112, 42.40915204341141 ], [ 117.313040020088167, 42.409156546355582 ], [ 117.313027867381962, 42.409156579539705 ], [ 117.313027889771149, 42.409161082483891 ], [ 117.31304611883175, 42.409161032707217 ], [ 117.313046186003277, 42.409174541539699 ], [ 117.313052262358113, 42.409174524946835 ], [ 117.313052374312932, 42.409197039667575 ], [ 117.313058450669928, 42.409197023074356 ], [ 117.313058495452751, 42.409206028962629 ], [ 117.313064571810614, 42.40920601236909 ], [ 117.313064616594318, 42.409215018257349 ], [ 117.313088922029195, 42.409214951879932 ], [ 117.313088966816409, 42.409223957768134 ] ] ] } },
{ "type": "Feature", "properties": { "crown_id": 3981, "tree_id": "3983", "top_h_m": 23.077, "H_95_Mean": 22.8165, "DBH": 29.5675, "Carbon_kg": 178.735953, "area_m2": 15.25 }, "geometry": { "type": "Polygon", "coordinates": [ [ [ 117.312991655515958, 42.409206211470334 ], [ 117.312997731873878, 42.409206194880333 ], [ 117.312997709486808, 42.409201691936175 ], [ 117.313034167631585, 42.409201592389437 ], [ 117.3130341452419, 42.409197089445293 ], [ 117.313046297955935, 42.409197056260467 ], [ 117.3130462083938, 42.409179044483871 ], [ 117.313040132038523, 42.409179061076429 ], [ 117.313040064868289, 42.409165552243941 ], [ 117.313021835806381, 42.409165602019662 ], [ 117.313021791028845, 42.40915659613129 ], [ 117.313015714675743, 42.409156612722548 ], [ 117.313015737064049, 42.409161115666741 ], [ 117.313009660710506, 42.40916113225768 ], [ 117.313009705486309, 42.409170138146038 ], [ 117.313003629131885, 42.409170154736671 ], [ 117.313003673906806, 42.409179160625023 ], [ 117.312997597551515, 42.409179177215329 ], [ 117.312997664712668, 42.409192686047845 ], [ 117.312991588356056, 42.409192702637831 ], [ 117.312991655515958, 42.409206211470334 ] ] ] } },
{ "type": "Feature", "properties": { "crown_id": 4004, "tree_id": "4006", "top_h_m": 22.089, "H_95_Mean": 21.9113, "DBH": 32.1568, "Carbon_kg": 206.678218, "area_m2": 22.75 }, "geometry": { "type": "Polygon", "coordinates": [ [ [ 117.312912618100626, 42.409197421222622 ], [ 117.312924770814845, 42.409197388050679 ], [ 117.312924748433005, 42.409192885106478 ], [ 117.312936901146344, 42.40919285193327 ], [ 117.312936878763608, 42.409188348989069 ], [ 117.312949031476052, 42.409188315814561 ], [ 117.312949009092478, 42.409183812870374 ], [ 117.312942932736703, 42.409183829457788 ], [ 117.312942798437959, 42.409156811792528 ], [ 117.312936722084771, 42.409156828379608 ], [ 117.312936699702121, 42.409152325435379 ], [ 117.312930623349374, 42.409152342022125 ], [ 117.312930600967121, 42.409147839077903 ], [ 117.312906295557823, 42.409147905421662 ], [ 117.312906273177333, 42.409143402477412 ], [ 117.312881967769655, 42.409143468815998 ], [ 117.312881990148398, 42.409147971760262 ], [ 117.312863761091293, 42.409148021510831 ], [ 117.312863828223669, 42.409161530343596 ], [ 117.312894209991995, 42.409161447424324 ], [ 117.312894277130937, 42.409174956257019 ], [ 117.312900353485901, 42.409174939672191 ], [ 117.312900398246072, 42.409183945560628 ], [ 117.312906474601874, 42.409183928975473 ], [ 117.312906496982421, 42.409188431919688 ], [ 117.312912573338664, 42.409188415334206 ], [ 117.312912618100626, 42.409197421222622 ] ] ] } },
{ "type": "Feature", "properties": { "crown_id": 4007, "tree_id": "4009", "top_h_m": 20.173, "H_95_Mean": 20.0422, "DBH": 30.6512, "Carbon_kg": 177.999376, "area_m2": 22.25 }, "geometry": { "type": "Polygon", "coordinates": [ [ [ 117.312979435642816, 42.409192735816852 ], [ 117.312985511999429, 42.409192719227505 ], [ 117.312985489613268, 42.409188216283333 ], [ 117.312991565969455, 42.409188199693659 ], [ 117.312991498809595, 42.409174690861121 ], [ 117.312997575164488, 42.409174674271149 ], [ 117.312997530390419, 42.409165668382776 ], [ 117.313003606744417, 42.409165651792485 ], [ 117.313003561969481, 42.409156645904091 ], [ 117.313009638322612, 42.409156629313493 ], [ 117.313009615934746, 42.4091521263693 ], [ 117.313015692287408, 42.409152109778361 ], [ 117.313015669899102, 42.409147606834175 ], [ 117.313003517194602, 42.409147640015711 ], [ 117.313003472419723, 42.409138634127302 ], [ 117.312997396068312, 42.409138650717587 ], [ 117.312997373681327, 42.409134147773365 ], [ 117.3129852209794, 42.409134180952968 ], [ 117.312985243365532, 42.409138683897176 ], [ 117.312973090662709, 42.409138717075486 ], [ 117.31297311304796, 42.4091432200197 ], [ 117.312967036696122, 42.409143236608379 ], [ 117.312967059080947, 42.409147739552601 ], [ 117.312942753671749, 42.409147805904091 ], [ 117.312942776054868, 42.40915230884832 ], [ 117.312948852407587, 42.409152292260913 ], [ 117.312948986708903, 42.409179309926188 ], [ 117.312955063064251, 42.409179293338454 ], [ 117.312955107832266, 42.409188299226827 ], [ 117.312979413257082, 42.409188232872673 ], [ 117.312979435642816, 42.409192735816852 ] ] ] } },
{ "type": "Feature", "properties": { "crown_id": 4068, "tree_id": "4070", "top_h_m": 20.322, "H_95_Mean": 19.8709, "DBH": 39.9951, "Carbon_kg": 302.776544, "area_m2": 63.5 }, "geometry": { "type": "Polygon", "coordinates": [ [ [ 117.312839455681768, 42.409148087840421 ], [ 117.31285768473893, 42.409148038093711 ], [ 117.312857662361921, 42.409143535149447 ], [ 117.312875891417718, 42.409143485399852 ], [ 117.312875869039416, 42.409138982455588 ], [ 117.312912327148311, 42.409138882947715 ], [ 117.312912349529242, 42.409143385891952 ], [ 117.31296096034427, 42.409143253196731 ], [ 117.312960937959886, 42.409138750252509 ], [ 117.312967014311283, 42.409138733664172 ], [ 117.312966991926459, 42.409134230719943 ], [ 117.312979144628429, 42.409134197542279 ], [ 117.312979122242737, 42.409129694598057 ], [ 117.312985198593282, 42.409129678008746 ], [ 117.31298515382106, 42.409120672120309 ], [ 117.312979077471397, 42.409120688709606 ], [ 117.312979032700056, 42.409111682821134 ], [ 117.312972956351246, 42.409111699410111 ], [ 117.312972777269579, 42.409075675856059 ], [ 117.312966700924235, 42.409075692444709 ], [ 117.312966678539482, 42.40907118950043 ], [ 117.31295452584969, 42.409071222676729 ], [ 117.312954548233563, 42.409075725621001 ], [ 117.312936319197505, 42.409075775383052 ], [ 117.312936341580084, 42.40908027832733 ], [ 117.312924188888474, 42.409080311500425 ], [ 117.312924211270186, 42.409084814444704 ], [ 117.312899905885189, 42.409084880787027 ], [ 117.312899928265182, 42.40908938373132 ], [ 117.312875622878352, 42.409089450068493 ], [ 117.312875712391403, 42.409107461845664 ], [ 117.312863559694478, 42.40910749501235 ], [ 117.312863626826726, 42.409121003845215 ], [ 117.312857550476949, 42.409121020428074 ], [ 117.312857572853929, 42.409125523372346 ], [ 117.312851496503725, 42.409125539954893 ], [ 117.312851518880279, 42.409130042899179 ], [ 117.312833289828305, 42.409130092644901 ], [ 117.312833334578812, 42.409139098533458 ], [ 117.312839410930351, 42.409139081951871 ], [ 117.312839455681768, 42.409148087840421 ] ] ] } },
{ "type": "Feature", "properties": { "crown_id": 4072, "tree_id": "4074", "top_h_m": 22.564, "H_95_Mean": 22.0627, "DBH": 38.6775, "Carbon_kg": 301.076386, "area_m2": 46.0 }, "geometry": { "type": "Polygon", "coordinates": [ [ [ 117.313021768640084, 42.40915209318711 ], [ 117.313033921345436, 42.409152060003635 ], [ 117.313033898955837, 42.409147557059448 ], [ 117.313082509773508, 42.409147424312671 ], [ 117.313082464987332, 42.409138418424327 ], [ 117.313088541338658, 42.409138401829544 ], [ 117.313088496551629, 42.409129395941193 ], [ 117.313058114799333, 42.409129478911908 ], [ 117.313058047625361, 42.409115970079313 ], [ 117.313064123974513, 42.409115953485824 ], [ 117.313064101582782, 42.409111450541616 ], [ 117.313058025234042, 42.409111467135105 ], [ 117.313057980451433, 42.40910246124669 ], [ 117.313051904103546, 42.409102477839852 ], [ 117.313051814540117, 42.409084466062964 ], [ 117.313063967232381, 42.409084432876341 ], [ 117.313063922448947, 42.409075426987897 ], [ 117.31302138803207, 42.409075543135387 ], [ 117.313021432809393, 42.409084549023881 ], [ 117.312978898386163, 42.409084665155632 ], [ 117.312979010314393, 42.409107179876877 ], [ 117.312985086662763, 42.409107163287587 ], [ 117.312985131434942, 42.409116169176059 ], [ 117.312991207784194, 42.409116152586442 ], [ 117.312991274943812, 42.409129661419115 ], [ 117.313003427644858, 42.409129628238887 ], [ 117.313003450032269, 42.409134131183102 ], [ 117.31300952638324, 42.409134114592497 ], [ 117.313009571158972, 42.409143120480906 ], [ 117.313021723862605, 42.409143087298723 ], [ 117.313021768640084, 42.40915209318711 ] ] ] } },
{ "type": "Feature", "properties": { "crown_id": 4107, "tree_id": "4109", "top_h_m": 23.272, "H_95_Mean": 22.7904, "DBH": 41.9203, "Carbon_kg": 360.9823, "area_m2": 59.25 }, "geometry": { "type": "Polygon", "coordinates": [ [ [ 117.313094640083932, 42.409142888178586 ], [ 117.313106792787423, 42.409142854987387 ], [ 117.313106747997765, 42.409133849099071 ], [ 117.313124977050336, 42.409133799309878 ], [ 117.313124954654242, 42.40912929636572 ], [ 117.313131031004659, 42.409129279768685 ], [ 117.313131008608096, 42.409124776824513 ], [ 117.313143161308034, 42.409124743629469 ], [ 117.313143138910647, 42.409120240685304 ], [ 117.313149215260154, 42.40912022408731 ], [ 117.313149170464484, 42.409111218198994 ], [ 117.313173475859074, 42.409111151803785 ], [ 117.313173453459498, 42.40910664885962 ], [ 117.313161300763085, 42.409106682057867 ], [ 117.313161211168364, 42.409088670281193 ], [ 117.31316728751483, 42.40908865368224 ], [ 117.313167265115709, 42.409084150738053 ], [ 117.313173341461734, 42.40908413413878 ], [ 117.313173319062216, 42.409079631194615 ], [ 117.313167242716617, 42.409079647793867 ], [ 117.31316722031751, 42.409075144849687 ], [ 117.313155067627179, 42.409075178047253 ], [ 117.313155045228953, 42.409070675103052 ], [ 117.313148968884221, 42.409070691701345 ], [ 117.313148924088651, 42.409061685812951 ], [ 117.313136771400877, 42.409061719008555 ], [ 117.313136749003974, 42.409057216064348 ], [ 117.313130672660506, 42.409057232661667 ], [ 117.313130650264071, 42.409052729717452 ], [ 117.31309419220581, 42.409052829294581 ], [ 117.313094214599687, 42.409057332238838 ], [ 117.313082061912681, 42.409057365428644 ], [ 117.313082106698687, 42.409066371317103 ], [ 117.31307603035431, 42.409066387911523 ], [ 117.313076075139435, 42.409075393799995 ], [ 117.313069998794191, 42.409075410394095 ], [ 117.313070065970635, 42.409088919226768 ], [ 117.313057913277532, 42.409088952414038 ], [ 117.313057958060128, 42.409097958302482 ], [ 117.31306403440756, 42.409097941709007 ], [ 117.313064079191037, 42.409106947597408 ], [ 117.313070155539307, 42.409106931003613 ], [ 117.313070222715879, 42.409120439836201 ], [ 117.313064146366287, 42.409120456430024 ], [ 117.313064168758032, 42.409124959374211 ], [ 117.31309455050814, 42.409124876401904 ], [ 117.313094640083932, 42.409142888178586 ] ] ] } },
{ "type": "Feature", "properties": { "crown_id": 4153, "tree_id": "4155", "top_h_m": 18.98, "H_95_Mean": 18.7318, "DBH": 29.5068, "Carbon_kg": 158.395566, "area_m2": 21.75 }, "geometry": { "type": "Polygon", "coordinates": [ [ [ 117.312978876000528, 42.409080162211367 ], [ 117.313015334075004, 42.409080062670846 ], [ 117.313015289298534, 42.409071056782338 ], [ 117.313039594677946, 42.409070990415579 ], [ 117.31303946033826, 42.409043972750048 ], [ 117.313027307653769, 42.409044005934042 ], [ 117.31302728526471, 42.409039502989771 ], [ 117.312990827213767, 42.409039602534016 ], [ 117.312990849600226, 42.409044105478316 ], [ 117.31297262057339, 42.409044155246086 ], [ 117.312972665343693, 42.409053161134665 ], [ 117.312966589000538, 42.409053177723301 ], [ 117.312966656154742, 42.409066686556145 ], [ 117.312972732499205, 42.409066669967523 ], [ 117.312972754884399, 42.409071172911787 ], [ 117.312978831229287, 42.409071156322838 ], [ 117.312978876000528, 42.409080162211367 ] ] ] } },
{ "type": "Feature", "properties": { "crown_id": 4180, "tree_id": "4182", "top_h_m": 19.517, "H_95_Mean": 18.9282, "DBH": 38.8402, "Carbon_kg": 277.325487, "area_m2": 62.0 }, "geometry": { "type": "Polygon", "coordinates": [ [ [ 117.312875600500121, 42.4090849471242 ], [ 117.312893829538936, 42.409084897371798 ], [ 117.312893807159384, 42.409080394427505 ], [ 117.312918112542675, 42.409080328086468 ], [ 117.312918090161389, 42.409075825142189 ], [ 117.312930242852133, 42.409075791969755 ], [ 117.31293022046998, 42.409071289025462 ], [ 117.312948449504773, 42.409071239264378 ], [ 117.312948427121327, 42.409066736320099 ], [ 117.312960579810294, 42.409066703144454 ], [ 117.312960490273099, 42.409048691367296 ], [ 117.312966566615813, 42.409048674779001 ], [ 117.312966499461666, 42.409035165946101 ], [ 117.312960423120231, 42.409035182534389 ], [ 117.312960400735975, 42.409030679590082 ], [ 117.31295432439498, 42.40903069617805 ], [ 117.31295430201115, 42.409026193233736 ], [ 117.312948225670567, 42.409026209821377 ], [ 117.312948203287192, 42.409021706877049 ], [ 117.312942126947036, 42.409021723464363 ], [ 117.312942015032348, 42.408999208742699 ], [ 117.312935938694366, 42.408999225329673 ], [ 117.312935871546927, 42.408985716496616 ], [ 117.312893337190118, 42.408985832596414 ], [ 117.312893359569543, 42.408990335540786 ], [ 117.312887283232413, 42.408990352125194 ], [ 117.312887327990424, 42.408999358013922 ], [ 117.312893404328435, 42.408999341429521 ], [ 117.312893426707888, 42.409003844373878 ], [ 117.312881274030985, 42.409003877542375 ], [ 117.312881318788186, 42.409012883431096 ], [ 117.312869166109536, 42.409012916598314 ], [ 117.312869210865003, 42.409021922487035 ], [ 117.312875287205188, 42.409021905903593 ], [ 117.312875354339738, 42.409035414736628 ], [ 117.312869277998246, 42.409035431320085 ], [ 117.312869345131503, 42.409048940153113 ], [ 117.312875421474331, 42.409048923569642 ], [ 117.312875510987183, 42.409066935346942 ], [ 117.312881587331702, 42.409066918763145 ], [ 117.312881609710374, 42.409071421707466 ], [ 117.312875533365414, 42.409071438291264 ], [ 117.312875600500121, 42.4090849471242 ] ] ] } }
]
}
