{
"type": "FeatureCollection",
"name": "tile_8_16",
"crs": { "type": "name", "properties": { "name": "urn:ogc:def:crs:OGC:1.3:CRS84" } },
"features": [
{ "type": "Feature", "properties": { "crown_id": 2351, "tree_id": "2351", "top_h_m": 20.72, "H_95_Mean": 20.5897, "DBH": 28.4019, "Carbon_kg": 155.10593, "area_m2": 15.75 }, "geometry": { "type": "Polygon", "coordinates": [ [ [ 117.313676739609051, 42.410113945977088 ], [ 117.313694968944432, 42.410113896096334 ], [ 117.313694924069125, 42.41010489021005 ], [ 117.313701000513376, 42.41010487358249 ], [ 117.313700910761071, 42.41008686180988 ], [ 117.313694834318582, 42.410086878437426 ], [ 117.313694767005728, 42.410073369607929 ], [ 117.313670461240847, 42.410073436114857 ], [ 117.313670483676731, 42.410077939058048 ], [ 117.31366440723508, 42.410077955683981 ], [ 117.31366442967051, 42.410082458627151 ], [ 117.313652276786314, 42.410082491878065 ], [ 117.313652299220877, 42.410086994821242 ], [ 117.313646222778331, 42.410087011446208 ], [ 117.313646245212496, 42.410091514389393 ], [ 117.31363409232651, 42.410091547638366 ], [ 117.313634137193091, 42.410100553524735 ], [ 117.313652366524678, 42.410100503650767 ], [ 117.313652388959255, 42.41010500659393 ], [ 117.313664541847814, 42.410104973343003 ], [ 117.313664564283286, 42.410109476286159 ], [ 117.313676717172697, 42.410109443033932 ], [ 117.313676739609051, 42.410113945977088 ] ] ] } },
{ "type": "Feature", "properties": { "crown_id": 2352, "tree_id": "2352", "top_h_m": 20.279, "H_95_Mean": 20.238, "DBH": 27.5769, "Carbon_kg": 144.677383, "area_m2": 14.5 }, "geometry": { "type": "Polygon", "coordinates": [ [ [ 117.313719319603663, 42.410122835470403 ], [ 117.313743625387474, 42.410122768953052 ], [ 117.313743602946346, 42.410118266009938 ], [ 117.313749679391847, 42.410118249379792 ], [ 117.313749612067156, 42.410104740550437 ], [ 117.313755688511364, 42.410104723919979 ], [ 117.313755598743413, 42.410086712147468 ], [ 117.313706987203588, 42.410086845182022 ], [ 117.313707099396126, 42.410109359897746 ], [ 117.313701022951449, 42.410109376525625 ], [ 117.313701067827623, 42.410118382411909 ], [ 117.313707144273167, 42.410118365784022 ], [ 117.313707121834639, 42.410113862840895 ], [ 117.313713198279757, 42.410113846212681 ], [ 117.313713220718725, 42.410118349155809 ], [ 117.313719297164269, 42.410118332527283 ], [ 117.313719319603663, 42.410122835470403 ] ] ] } },
{ "type": "Feature", "properties": { "crown_id": 2353, "tree_id": "2353", "top_h_m": 21.645, "H_95_Mean": 21.6162, "DBH": 24.7939, "Carbon_kg": 121.396596, "area_m2": 8.5 }, "geometry": { "type": "Polygon", "coordinates": [ [ [ 117.313810466292551, 42.410122586003737 ], [ 117.313822619184336, 42.410122552736048 ], [ 117.313822596737538, 42.410118049792963 ], [ 117.313840826073843, 42.410117999889017 ], [ 117.313840803625766, 42.410113496945932 ], [ 117.313852956515731, 42.410113463675039 ], [ 117.313852934066773, 42.410108960731947 ], [ 117.313859010511322, 42.410108944096024 ], [ 117.313858943163183, 42.41009543526679 ], [ 117.313822484503675, 42.410095535077517 ], [ 117.3138225293972, 42.410104540963694 ], [ 117.313816452953048, 42.410104557597698 ], [ 117.313816475399392, 42.41010906054079 ], [ 117.313804322510236, 42.410109093807833 ], [ 117.313804344955699, 42.410113596750932 ], [ 117.313810421400731, 42.410113580117567 ], [ 117.313810466292551, 42.410122586003737 ] ] ] } },
{ "type": "Feature", "properties": { "crown_id": 2397, "tree_id": "2397", "top_h_m": 23.371, "H_95_Mean": 23.0051, "DBH": 36.3534, "Carbon_kg": 272.381265, "area_m2": 33.5 }, "geometry": { "type": "Polygon", "coordinates": [ [ [ 117.31380430006476, 42.410104590864741 ], [ 117.313810376508911, 42.41010457423139 ], [ 117.313810354062994, 42.410100071288291 ], [ 117.313816430506705, 42.410100054654613 ], [ 117.313816385614075, 42.4100910487684 ], [ 117.313864997156628, 42.410090915687455 ], [ 117.313865019606439, 42.410095418630547 ], [ 117.313871096049667, 42.410095401993964 ], [ 117.313871051149192, 42.410086396107808 ], [ 117.313877127591553, 42.410086379470918 ], [ 117.31387710514089, 42.410081876527826 ], [ 117.313864952257049, 42.410081909801278 ], [ 117.313864884907687, 42.41006840097198 ], [ 117.313870961348314, 42.410068384335432 ], [ 117.313870938898106, 42.410063881392333 ], [ 117.313864862457933, 42.410063898028874 ], [ 117.313864840008151, 42.410059395085767 ], [ 117.313846610688856, 42.410059444993493 ], [ 117.313846543343487, 42.410045936164117 ], [ 117.313828314028072, 42.410045986068901 ], [ 117.313828291580919, 42.410041483125767 ], [ 117.313822215142878, 42.410041499760048 ], [ 117.313822192696179, 42.410036996816906 ], [ 117.313816116258536, 42.410037013450868 ], [ 117.313816093812292, 42.410032510507719 ], [ 117.313810017375104, 42.410032527141347 ], [ 117.313810084712586, 42.410046035970801 ], [ 117.313804008274076, 42.41004605260413 ], [ 117.313804075610321, 42.410059561433549 ], [ 117.31379799917049, 42.410059578066559 ], [ 117.313798021615497, 42.410064081009693 ], [ 117.313785868734982, 42.410064114274746 ], [ 117.313785913623221, 42.410073120161016 ], [ 117.313779837182111, 42.410073136793073 ], [ 117.313779926956926, 42.410091148565584 ], [ 117.313786003399798, 42.41009113193352 ], [ 117.313786025843953, 42.410095634876647 ], [ 117.313798178730536, 42.410095601611559 ], [ 117.313798201175558, 42.410100104554672 ], [ 117.313804277619283, 42.410100087921627 ], [ 117.31380430006476, 42.410104590864741 ] ] ] } },
{ "type": "Feature", "properties": { "crown_id": 2429, "tree_id": "2429", "top_h_m": 20.538, "H_95_Mean": 20.3583, "DBH": 32.7636, "Carbon_kg": 205.482444, "area_m2": 28.0 }, "geometry": { "type": "Polygon", "coordinates": [ [ [ 117.31376169762828, 42.410091198459824 ], [ 117.313773850514053, 42.410091165197322 ], [ 117.313773760740958, 42.410073153424797 ], [ 117.313767684299819, 42.410073170056194 ], [ 117.313767639414181, 42.41006416416991 ], [ 117.313761562973895, 42.410064180800994 ], [ 117.313761540531516, 42.410059677857838 ], [ 117.31375546409167, 42.410059694488581 ], [ 117.313755441649732, 42.410055191545425 ], [ 117.313749365210313, 42.410055208175848 ], [ 117.313749275444351, 42.410037196403167 ], [ 117.313743199006666, 42.410037213033263 ], [ 117.313743176565609, 42.410032710090078 ], [ 117.313731023691119, 42.410032743349305 ], [ 117.313731046131281, 42.410037246292489 ], [ 117.313724969693595, 42.41003726292162 ], [ 117.313724947253831, 42.410032759978428 ], [ 117.313706717942011, 42.410032809863871 ], [ 117.313706740380439, 42.41003731280707 ], [ 117.313700663942726, 42.410037329434914 ], [ 117.313700686380727, 42.410041832378106 ], [ 117.313694609942587, 42.410041849005623 ], [ 117.31369474456811, 42.410068866664759 ], [ 117.313700821008879, 42.410068850037213 ], [ 117.313700888323027, 42.410082358866724 ], [ 117.31376165274348, 42.410082192573569 ], [ 117.31376169762828, 42.410091198459824 ] ] ] } },
{ "type": "Feature", "properties": { "crown_id": 2434, "tree_id": "2434", "top_h_m": 24.451, "H_95_Mean": 23.9646, "DBH": 37.2004, "Carbon_kg": 292.30309, "area_m2": 34.0 }, "geometry": { "type": "Polygon", "coordinates": [ [ [ 117.313627993450652, 42.410087061319189 ], [ 117.313640146335786, 42.410087028070869 ], [ 117.313640123902061, 42.410082525127677 ], [ 117.313646200344209, 42.410082508503017 ], [ 117.313646177910044, 42.410078005559846 ], [ 117.313658330793402, 42.410077972309587 ], [ 117.313658308358413, 42.410073469366395 ], [ 117.313664384799623, 42.410073452740797 ], [ 117.313664362364193, 42.410068949797612 ], [ 117.313688668127355, 42.41006888329197 ], [ 117.313688600815851, 42.410055374462409 ], [ 117.313676447936885, 42.410055407715852 ], [ 117.313676425500617, 42.41005090477266 ], [ 117.313682501939653, 42.410050888146102 ], [ 117.313682479502958, 42.410046385202897 ], [ 117.313688555941553, 42.410046368576019 ], [ 117.313688488630149, 42.410032859746423 ], [ 117.313676335755517, 42.410032892999844 ], [ 117.31367626844677, 42.410019384170184 ], [ 117.313651962702693, 42.410019450673133 ], [ 117.313651940268215, 42.410014947729898 ], [ 117.313627634525801, 42.410015014227675 ], [ 117.313627679391331, 42.410024020114165 ], [ 117.313621602954854, 42.410024036737809 ], [ 117.313621625387199, 42.410028539681058 ], [ 117.313615548950253, 42.41002855630439 ], [ 117.313615593814092, 42.410037562190858 ], [ 117.313621670251905, 42.410037545567519 ], [ 117.313621692684251, 42.410042048510761 ], [ 117.313615616246011, 42.410042065134085 ], [ 117.313615661109864, 42.410051071020547 ], [ 117.313621737548971, 42.410051054397208 ], [ 117.313621849710884, 42.410073569113273 ], [ 117.313627926152151, 42.410073552489607 ], [ 117.313627993450652, 42.410087061319189 ] ] ] } },
{ "type": "Feature", "properties": { "crown_id": 2455, "tree_id": "2455", "top_h_m": 20.91, "H_95_Mean": 21.0341, "DBH": 28.086, "Carbon_kg": 153.575983, "area_m2": 14.5 }, "geometry": { "type": "Polygon", "coordinates": [ [ [ 117.313773738297698, 42.410068650481662 ], [ 117.31377981473841, 42.410068633849932 ], [ 117.313779769851038, 42.410059627963633 ], [ 117.313791922730672, 42.410059594699234 ], [ 117.313791900286134, 42.410055091756099 ], [ 117.313797976725525, 42.410055075123417 ], [ 117.313797909390615, 42.410041566293962 ], [ 117.313803985828685, 42.410041549660974 ], [ 117.313803918492525, 42.410028040831506 ], [ 117.313809994929287, 42.410028024198205 ], [ 117.313809972483455, 42.410023521255027 ], [ 117.31376743742905, 42.410023637681427 ], [ 117.313767459871812, 42.410028140624604 ], [ 117.313749230561413, 42.410028190516812 ], [ 117.313749253002868, 42.410032693459996 ], [ 117.313755329440113, 42.41003267682958 ], [ 117.313755419207808, 42.410050688602269 ], [ 117.313761495646787, 42.410050671971511 ], [ 117.313761518089137, 42.410055174914675 ], [ 117.313767594528557, 42.410055158283605 ], [ 117.313767616971361, 42.410059661226754 ], [ 117.313773693411207, 42.410059644595357 ], [ 117.313773738297698, 42.410068650481662 ] ] ] } },
{ "type": "Feature", "properties": { "crown_id": 2505, "tree_id": "2505", "top_h_m": 11.031, "H_95_Mean": 11.0658, "DBH": 19.9784, "Carbon_kg": 52.86777, "area_m2": 13.0 }, "geometry": { "type": "Polygon", "coordinates": [ [ [ 117.313694565067422, 42.410032843119218 ], [ 117.313700641504724, 42.410032826491715 ], [ 117.313700619066736, 42.410028323548502 ], [ 117.313706695503569, 42.410028306920672 ], [ 117.313706650626742, 42.410019301034254 ], [ 117.313694497754753, 42.410019334289601 ], [ 117.313694408004608, 42.410001322516706 ], [ 117.313682255136086, 42.410001355770731 ], [ 117.313682187826146, 42.409987846941014 ], [ 117.313676111393193, 42.409987863567537 ], [ 117.313676088956967, 42.409983360624295 ], [ 117.313663936091913, 42.409983393876374 ], [ 117.313663958527229, 42.409987896819615 ], [ 117.31365180566128, 42.409987930070407 ], [ 117.313651828095772, 42.40999243301367 ], [ 117.31365790452918, 42.409992416388434 ], [ 117.313657926964069, 42.409996919331689 ], [ 117.313645774096386, 42.409996952581842 ], [ 117.313645796530423, 42.410001455525098 ], [ 117.313639720096148, 42.410001472149688 ], [ 117.313639764963369, 42.410010478036192 ], [ 117.313657994268866, 42.410010428161421 ], [ 117.313658016703783, 42.410014931104641 ], [ 117.313682322446098, 42.410014864600427 ], [ 117.313682389756153, 42.410028373430087 ], [ 117.313694542629861, 42.410028340176019 ], [ 117.313694565067422, 42.410032843119218 ] ] ] } },
{ "type": "Feature", "properties": { "crown_id": 2506, "tree_id": "2506", "top_h_m": 21.705, "H_95_Mean": 21.4643, "DBH": 34.3434, "Carbon_kg": 233.122284, "area_m2": 30.5 }, "geometry": { "type": "Polygon", "coordinates": [ [ [ 117.313731001250929, 42.410028240406106 ], [ 117.313743154124595, 42.410028207146894 ], [ 117.313743131683566, 42.410023704203702 ], [ 117.313761360992672, 42.410023654312475 ], [ 117.31376133855035, 42.410019151369291 ], [ 117.313809950037637, 42.410019018311871 ], [ 117.313809815362902, 42.409992000652814 ], [ 117.313791586063033, 42.409992050551722 ], [ 117.313791563618551, 42.409987547608516 ], [ 117.313785487185697, 42.409987564240843 ], [ 117.313785442297643, 42.409978558354432 ], [ 117.313779365865628, 42.409978574986425 ], [ 117.313779343422055, 42.409974072043212 ], [ 117.313773266990481, 42.409974088674886 ], [ 117.313773289433612, 42.409978591618106 ], [ 117.313761136569596, 42.40997862488048 ], [ 117.313761159011875, 42.409983127823686 ], [ 117.313749006146935, 42.409983161084781 ], [ 117.313749028588376, 42.409987664028002 ], [ 117.313730799289644, 42.409987713917232 ], [ 117.313730844169896, 42.409996719803672 ], [ 117.313724767736105, 42.409996736432781 ], [ 117.313724790175812, 42.410001239376001 ], [ 117.313706560873115, 42.410001289261388 ], [ 117.313706583311486, 42.410005792204615 ], [ 117.313700506876842, 42.41000580883243 ], [ 117.31370055175276, 42.41001481471887 ], [ 117.313724857494947, 42.410014748205633 ], [ 117.313724879934654, 42.410019251148839 ], [ 117.313730956370605, 42.410019234519716 ], [ 117.313731001250929, 42.410028240406106 ] ] ] } },
{ "type": "Feature", "properties": { "crown_id": 2573, "tree_id": "2573", "top_h_m": 23.343, "H_95_Mean": 22.5971, "DBH": 41.6156, "Carbon_kg": 353.925974, "area_m2": 58.5 }, "geometry": { "type": "Polygon", "coordinates": [ [ [ 117.313688309133255, 42.409996836200648 ], [ 117.313718691302313, 42.409996753061563 ], [ 117.313718668863046, 42.409992250118336 ], [ 117.313724745296398, 42.409992233489568 ], [ 117.31372470041704, 42.409983227603107 ], [ 117.313742929714465, 42.409983177714849 ], [ 117.313742907273493, 42.409978674771622 ], [ 117.313755060137566, 42.409978641511181 ], [ 117.313755037695728, 42.409974138567961 ], [ 117.313767190558906, 42.409974105306233 ], [ 117.313767033460039, 42.409942584703614 ], [ 117.313773109888558, 42.409942568072275 ], [ 117.31377297522998, 42.409915550412755 ], [ 117.313766898804047, 42.409915567044067 ], [ 117.313766876361427, 42.409911064100804 ], [ 117.313760799935906, 42.409911080731789 ], [ 117.313760777493698, 42.409906577788526 ], [ 117.313742548218485, 42.409906627679547 ], [ 117.313742570659386, 42.409911130622824 ], [ 117.313718264957274, 42.409911197139685 ], [ 117.313718309835593, 42.40992020302626 ], [ 117.313712233409206, 42.40992021965468 ], [ 117.313712255847946, 42.409924722597971 ], [ 117.313706179421075, 42.409924739226071 ], [ 117.313706224297704, 42.409933745112625 ], [ 117.313700147869994, 42.409933761740412 ], [ 117.313700215183658, 42.409947270570235 ], [ 117.313688062325596, 42.409947303824836 ], [ 117.313688084762632, 42.409951806768113 ], [ 117.313651626185688, 42.409951906524235 ], [ 117.313651648620123, 42.409956409467526 ], [ 117.313645572190168, 42.409956426092421 ], [ 117.313645617058185, 42.409965431978975 ], [ 117.313657769919814, 42.409965398728858 ], [ 117.313657837224468, 42.40997890755866 ], [ 117.31366999008867, 42.409978874307235 ], [ 117.313669945217143, 42.40996986842071 ], [ 117.313676021648391, 42.409969851794521 ], [ 117.313676044084588, 42.409974354737791 ], [ 117.313682120516233, 42.409974338111262 ], [ 117.313682142952871, 42.409978841054524 ], [ 117.313688219384957, 42.409978824427675 ], [ 117.313688309133255, 42.409996836200648 ] ] ] } },
{ "type": "Feature", "properties": { "crown_id": 2574, "tree_id": "2574", "top_h_m": 21.343, "H_95_Mean": 20.9587, "DBH": 34.7889, "Carbon_kg": 235.907792, "area_m2": 33.5 }, "geometry": { "type": "Polygon", "coordinates": [ [ [ 117.313815891796182, 42.4099919840192 ], [ 117.313834121096008, 42.409991934116434 ], [ 117.313834098648485, 42.409987431173256 ], [ 117.31384017508131, 42.409987414538357 ], [ 117.313840152633361, 42.409982911595186 ], [ 117.31384622906576, 42.40998289495996 ], [ 117.313846206617399, 42.409978392016782 ], [ 117.31384013018544, 42.409978408651995 ], [ 117.313839928154252, 42.409937882163192 ], [ 117.313833851726201, 42.409937898798049 ], [ 117.313833829278764, 42.409933395854836 ], [ 117.31382167642353, 42.409933429123612 ], [ 117.313821631530374, 42.40992442323715 ], [ 117.313779096542945, 42.409924539667642 ], [ 117.31377920876065, 42.409947054383863 ], [ 117.313773132331676, 42.409947071015516 ], [ 117.31377324454732, 42.409969585731666 ], [ 117.313785397409603, 42.409969552468006 ], [ 117.313785419853616, 42.409974055411226 ], [ 117.313791496285191, 42.409974038778913 ], [ 117.313791541174083, 42.409983044665317 ], [ 117.313797617606525, 42.40998302803267 ], [ 117.313797640051419, 42.409987530975869 ], [ 117.313815869349966, 42.409987481076023 ], [ 117.313815891796182, 42.4099919840192 ] ] ] } }
]
}
