{
"type": "FeatureCollection",
"name": "tile_12_8",
"crs": { "type": "name", "properties": { "name": "urn:ogc:def:crs:OGC:1.3:CRS84" } },
"features": [
{ "type": "Feature", "properties": { "crown_id": 3642, "tree_id": "3644", "top_h_m": 24.194, "H_95_Mean": 24.0291, "DBH": 32.798, "Carbon_kg": 227.130798, "area_m2": 20.75 }, "geometry": { "type": "Polygon", "coordinates": [ [ [ 117.311722677619869, 42.409407801275819 ], [ 117.311746983132267, 42.40940773518269 ], [ 117.31174691623896, 42.409394226349065 ], [ 117.311752992615766, 42.409394209824974 ], [ 117.311752948019375, 42.409385203935891 ], [ 117.3117590243953, 42.409385187411488 ], [ 117.311758912902249, 42.409362672688708 ], [ 117.31174676015479, 42.409362705737166 ], [ 117.311746715559352, 42.409353699848012 ], [ 117.311716333694918, 42.409353782463484 ], [ 117.311716378286008, 42.409362788352652 ], [ 117.311704225538449, 42.409362821396584 ], [ 117.311704270127848, 42.40937182728576 ], [ 117.311698193753188, 42.40937184380725 ], [ 117.311698216047446, 42.409376346751841 ], [ 117.311704292422533, 42.409376330230344 ], [ 117.311704359306631, 42.409389839064062 ], [ 117.311710435683011, 42.409389822542238 ], [ 117.311710457978165, 42.409394325486794 ], [ 117.311722610731778, 42.409394292442173 ], [ 117.311722677619869, 42.409407801275819 ] ] ] } },
{ "type": "Feature", "properties": { "crown_id": 3673, "tree_id": "3675", "top_h_m": 25.461, "H_95_Mean": 25.0746, "DBH": 35.5491, "Carbon_kg": 273.980925, "area_m2": 26.25 }, "geometry": { "type": "Polygon", "coordinates": [ [ [ 117.311880574219686, 42.409389359800372 ], [ 117.311923108853236, 42.409389244075456 ], [ 117.311923019611868, 42.409371232297524 ], [ 117.311916943237406, 42.409371248830617 ], [ 117.311916920927501, 42.409366745886125 ], [ 117.311910844553452, 42.409366762418884 ], [ 117.311910799934537, 42.409357756529893 ], [ 117.311904723561383, 42.409357773062325 ], [ 117.31190465663434, 42.409344264228793 ], [ 117.311892503890576, 42.409344297292684 ], [ 117.311892481582447, 42.409339794348156 ], [ 117.311880328839536, 42.409339827410754 ], [ 117.31188028422504, 42.409330821521685 ], [ 117.311874207854444, 42.40933083805249 ], [ 117.31187423016128, 42.409335340997025 ], [ 117.311868153790243, 42.40933535752751 ], [ 117.311868176096638, 42.409339860472059 ], [ 117.311843870610701, 42.40933992659081 ], [ 117.311844026743401, 42.409371447202538 ], [ 117.311874408615978, 42.409371364553216 ], [ 117.31187445322972, 42.409380370442221 ], [ 117.311880529605091, 42.409380353911381 ], [ 117.311880574219686, 42.409389359800372 ] ] ] } },
{ "type": "Feature", "properties": { "crown_id": 3685, "tree_id": "3687", "top_h_m": 24.921, "H_95_Mean": 24.6663, "DBH": 37.9202, "Carbon_kg": 309.044917, "area_m2": 34.75 }, "geometry": { "type": "Polygon", "coordinates": [ [ [ 117.311765100771211, 42.409385170886765 ], [ 117.31177725352299, 42.40938513783636 ], [ 117.311777231223076, 42.409380634891818 ], [ 117.311825842226554, 42.40938050267733 ], [ 117.311825819923158, 42.409375999732809 ], [ 117.311837972673104, 42.409375966675974 ], [ 117.311837950368869, 42.409371463731432 ], [ 117.311831873994308, 42.40937148026002 ], [ 117.311831829386705, 42.409362474370951 ], [ 117.31183790576037, 42.409362457842384 ], [ 117.311837749630797, 42.409330937230578 ], [ 117.311831673260158, 42.409330953759131 ], [ 117.311831650956407, 42.409326450814568 ], [ 117.311825574586209, 42.409326467342801 ], [ 117.311825552282883, 42.409321964398238 ], [ 117.311819475913111, 42.409321980926151 ], [ 117.311819453610227, 42.409317477981574 ], [ 117.311807300871536, 42.409317511036413 ], [ 117.311807323173568, 42.40932201398099 ], [ 117.311789094064196, 42.409322063560843 ], [ 117.311789138665645, 42.409331069450005 ], [ 117.311783062294964, 42.409331085975971 ], [ 117.311783106895575, 42.409340091865133 ], [ 117.311758801409354, 42.409340157965843 ], [ 117.311758823707947, 42.409344660910428 ], [ 117.311764900079936, 42.409344644385719 ], [ 117.311764922378927, 42.409349147330303 ], [ 117.311770998751356, 42.409349130805275 ], [ 117.311771021050802, 42.409353633749845 ], [ 117.311764944677947, 42.409353650274873 ], [ 117.311765100771211, 42.409385170886765 ] ] ] } },
{ "type": "Feature", "properties": { "crown_id": 3700, "tree_id": "3702", "top_h_m": 23.283, "H_95_Mean": 23.3191, "DBH": 27.299, "Carbon_kg": 154.147337, "area_m2": 10.75 }, "geometry": { "type": "Polygon", "coordinates": [ [ [ 117.311679964629192, 42.409371893369801 ], [ 117.311692117378527, 42.40937186032842 ], [ 117.311692095084695, 42.409367357383836 ], [ 117.311698171458929, 42.409367340862666 ], [ 117.311698126870439, 42.40935833497349 ], [ 117.311710279617117, 42.409358301930197 ], [ 117.311710257322005, 42.409353798985606 ], [ 117.311698104576209, 42.409353832028891 ], [ 117.311698037693517, 42.409340323195089 ], [ 117.311685884950279, 42.409340356237067 ], [ 117.311685840363594, 42.409331350347827 ], [ 117.31167368762209, 42.409331383388505 ], [ 117.311673709914544, 42.409335886333139 ], [ 117.311667633543351, 42.409335902852987 ], [ 117.311667678127449, 42.409344908742248 ], [ 117.311661601755375, 42.409344925261784 ], [ 117.311661690921881, 42.409362937040228 ], [ 117.311667767295688, 42.409362920520685 ], [ 117.311667789587773, 42.409367423465284 ], [ 117.311679942336241, 42.40936739042521 ], [ 117.311679964629192, 42.409371893369801 ] ] ] } },
{ "type": "Feature", "properties": { "crown_id": 3738, "tree_id": "3740", "top_h_m": 22.622, "H_95_Mean": 22.5374, "DBH": 30.4574, "Carbon_kg": 188.367671, "area_m2": 17.5 }, "geometry": { "type": "Polygon", "coordinates": [ [ [ 117.311704158654436, 42.40934931256281 ], [ 117.31174061688921, 42.409349213427177 ], [ 117.311740483105666, 42.409322195759607 ], [ 117.311734406735809, 42.409322212283008 ], [ 117.311734362142218, 42.409313206393776 ], [ 117.311722209404252, 42.409313239439598 ], [ 117.311722187108344, 42.409308736494971 ], [ 117.311703958002653, 42.409308786061274 ], [ 117.311703935708039, 42.409304283116654 ], [ 117.311691782971778, 42.409304316159229 ], [ 117.311691760678016, 42.409299813214581 ], [ 117.311685684310333, 42.409299829735396 ], [ 117.311685795776924, 42.40932234445858 ], [ 117.311679719407024, 42.409322360979083 ], [ 117.311679741699933, 42.40932686392371 ], [ 117.311691894440571, 42.409326830882378 ], [ 117.311691939028108, 42.409335836771625 ], [ 117.31170409177048, 42.409335803728993 ], [ 117.311704158654436, 42.40934931256281 ] ] ] } },
{ "type": "Feature", "properties": { "crown_id": 3763, "tree_id": "3765", "top_h_m": 21.18, "H_95_Mean": 20.9856, "DBH": 25.657, "Carbon_kg": 127.806751, "area_m2": 10.25 }, "geometry": { "type": "Polygon", "coordinates": [ [ [ 117.311843848306054, 42.409335423646255 ], [ 117.311862077419192, 42.409335374057683 ], [ 117.311862055113252, 42.409330871113148 ], [ 117.311868131483862, 42.409330854582969 ], [ 117.311868109177482, 42.409326351638434 ], [ 117.311880261917793, 42.409326318577143 ], [ 117.311880239610559, 42.409321815632595 ], [ 117.311886315980274, 42.40932179910147 ], [ 117.3118862936726, 42.409317296156928 ], [ 117.311874140934023, 42.409317329218844 ], [ 117.311874074013659, 42.40930382038519 ], [ 117.311843692173667, 42.409303903034328 ], [ 117.311843736782919, 42.409312908923461 ], [ 117.311825507676247, 42.409312958509084 ], [ 117.311825529979558, 42.409317461453668 ], [ 117.311831606348875, 42.409317444925449 ], [ 117.311831628652627, 42.409321947870012 ], [ 117.311837705022398, 42.409321931341459 ], [ 117.311837727326591, 42.409326434286022 ], [ 117.311843803696789, 42.40932641775715 ], [ 117.311843848306054, 42.409335423646255 ] ] ] } },
{ "type": "Feature", "properties": { "crown_id": 3773, "tree_id": "3775", "top_h_m": 23.446, "H_95_Mean": 23.2314, "DBH": 31.4496, "Carbon_kg": 204.577129, "area_m2": 18.75 }, "geometry": { "type": "Polygon", "coordinates": [ [ [ 117.311746670963956, 42.409344693958857 ], [ 117.311752747335944, 42.409344677434802 ], [ 117.311752702739682, 42.40933567154562 ], [ 117.311777008224155, 42.409335605446216 ], [ 117.311776963624439, 42.409326599557055 ], [ 117.311783039994666, 42.409326583031408 ], [ 117.311782995394111, 42.409317577142218 ], [ 117.311801224502176, 42.409317527563346 ], [ 117.311801179899021, 42.40930852167417 ], [ 117.311795103530542, 42.40930853820079 ], [ 117.311795081229405, 42.409304035256191 ], [ 117.311789004861367, 42.409304051782478 ], [ 117.311788915658596, 42.409286040004062 ], [ 117.311782839292277, 42.409286056530014 ], [ 117.311782794691794, 42.409277050640767 ], [ 117.311770641960877, 42.409277083691705 ], [ 117.311770708859001, 42.409290592525572 ], [ 117.31175855612544, 42.409290625575231 ], [ 117.311758600722499, 42.409299631464464 ], [ 117.311746447987176, 42.409299664512837 ], [ 117.311746514880141, 42.409313173346675 ], [ 117.31174043851118, 42.409313189870389 ], [ 117.311740460808423, 42.409317692814994 ], [ 117.311746537177811, 42.409317676291288 ], [ 117.311746670963956, 42.409344693958857 ] ] ] } },
{ "type": "Feature", "properties": { "crown_id": 3794, "tree_id": "3796", "top_h_m": 22.668, "H_95_Mean": 22.6526, "DBH": 31.0782, "Carbon_kg": 196.778572, "area_m2": 18.75 }, "geometry": { "type": "Polygon", "coordinates": [ [ [ 117.311892370041889, 42.409317279625476 ], [ 117.311910599149684, 42.40931723002921 ], [ 117.311910554530883, 42.40930822414014 ], [ 117.311922707267655, 42.409308191074359 ], [ 117.311922684957381, 42.409303688129818 ], [ 117.311940914061211, 42.409303638528741 ], [ 117.311940891749643, 42.409299135584199 ], [ 117.311934815382159, 42.409299152118216 ], [ 117.311934726137707, 42.409281140340028 ], [ 117.3119164970404, 42.409281189940103 ], [ 117.311916430111012, 42.409267681106407 ], [ 117.311910353746541, 42.409267697639109 ], [ 117.311910398365242, 42.409276703528249 ], [ 117.311880016538439, 42.409276786186972 ], [ 117.311880038845629, 42.409281289131542 ], [ 117.311873962479822, 42.409281305662326 ], [ 117.311874007093337, 42.409290311551494 ], [ 117.311867930726663, 42.409290328081944 ], [ 117.311867975339339, 42.409299333971084 ], [ 117.311880128074435, 42.409299300909829 ], [ 117.311880194996107, 42.409312809743504 ], [ 117.311892347733789, 42.409312776680942 ], [ 117.311892370041889, 42.409317279625476 ] ] ] } },
{ "type": "Feature", "properties": { "crown_id": 3823, "tree_id": "3825", "top_h_m": 21.947, "H_95_Mean": 21.9368, "DBH": 29.3854, "Carbon_kg": 172.466496, "area_m2": 16.0 }, "geometry": { "type": "Polygon", "coordinates": [ [ [ 117.311728263476894, 42.409308719972238 ], [ 117.311740416213965, 42.409308686925776 ], [ 117.311740349322292, 42.409295178091909 ], [ 117.311752502056748, 42.409295145044197 ], [ 117.311752457460585, 42.409286139154943 ], [ 117.311764610193293, 42.409286106105938 ], [ 117.311764543296476, 42.40927259727205 ], [ 117.311697703280785, 42.409272779025549 ], [ 117.311697770163249, 42.40928628785953 ], [ 117.311703846529639, 42.409286271338082 ], [ 117.311703868824225, 42.409290774282731 ], [ 117.311697792457409, 42.409290790804164 ], [ 117.311697837045728, 42.409299796693453 ], [ 117.311709989781136, 42.409299763650232 ], [ 117.311710012076176, 42.409304266594866 ], [ 117.311728241180518, 42.409304217027611 ], [ 117.311728263476894, 42.409308719972238 ] ] ] } },
{ "type": "Feature", "properties": { "crown_id": 3850, "tree_id": "3852", "top_h_m": 25.583, "H_95_Mean": 25.336, "DBH": 40.2582, "Carbon_kg": 354.219634, "area_m2": 41.75 }, "geometry": { "type": "Polygon", "coordinates": [ [ [ 117.311807256267514, 42.409308505147244 ], [ 117.311813332635992, 42.409308488619992 ], [ 117.311813310333534, 42.409303985675407 ], [ 117.311819386701586, 42.409303969147835 ], [ 117.311819409004443, 42.40930847209242 ], [ 117.31183763810985, 42.409308422507763 ], [ 117.311837593501494, 42.409299416618595 ], [ 117.311861898971785, 42.409299350501236 ], [ 117.311861832054078, 42.409285841667504 ], [ 117.311867908420311, 42.409285825137374 ], [ 117.311867752276157, 42.409254304525234 ], [ 117.311849523186496, 42.40925435411463 ], [ 117.311849500881522, 42.40924985117001 ], [ 117.311831271793125, 42.4092499007565 ], [ 117.311831249489444, 42.40924539781188 ], [ 117.311825173127048, 42.409245414340077 ], [ 117.311825150823836, 42.409240911395429 ], [ 117.311819074461866, 42.409240927923292 ], [ 117.31181905215908, 42.409236424978658 ], [ 117.311812975797579, 42.409236441506188 ], [ 117.311812953495206, 42.40923193856154 ], [ 117.311800800773028, 42.409231971615633 ], [ 117.31180082307452, 42.409236474560295 ], [ 117.311794746712991, 42.409236491086865 ], [ 117.311794769014057, 42.409240994031506 ], [ 117.311788692652073, 42.409241010557757 ], [ 117.311788737253337, 42.409250016447039 ], [ 117.311776584527635, 42.409250049498581 ], [ 117.311776629127181, 42.409259055387871 ], [ 117.311782705490927, 42.409259038862253 ], [ 117.311782727791112, 42.409263541806894 ], [ 117.31178880415527, 42.409263525280963 ], [ 117.311788893357914, 42.409281537059435 ], [ 117.31179496972382, 42.40928152053317 ], [ 117.311795058928283, 42.409299532311593 ], [ 117.311801135295894, 42.409299515784994 ], [ 117.311801157597458, 42.409304018729586 ], [ 117.311807233965496, 42.40930400220266 ], [ 117.311807256267514, 42.409308505147244 ] ] ] } },
{ "type": "Feature", "properties": { "crown_id": 3876, "tree_id": "3878", "top_h_m": 20.926, "H_95_Mean": 20.8175, "DBH": 22.023, "Carbon_kg": 93.497867, "area_m2": 5.75 }, "geometry": { "type": "Polygon", "coordinates": [ [ [ 117.311873917866308, 42.409272299773171 ], [ 117.31190429969098, 42.409272217116069 ], [ 117.311904277382055, 42.409267714171499 ], [ 117.31189820101757, 42.409267730703554 ], [ 117.311898111783677, 42.409249718925196 ], [ 117.311892035420925, 42.409249735456925 ], [ 117.311892013112896, 42.409245232512333 ], [ 117.31187986038826, 42.409245265574818 ], [ 117.311879882695408, 42.409249768519423 ], [ 117.311873806332656, 42.409249785050193 ], [ 117.311873917866308, 42.409272299773171 ] ] ] } },
{ "type": "Feature", "properties": { "crown_id": 3888, "tree_id": "3890", "top_h_m": 22.407, "H_95_Mean": 22.0728, "DBH": 33.963, "Carbon_kg": 231.747529, "area_m2": 27.75 }, "geometry": { "type": "Polygon", "coordinates": [ [ [ 117.311770619661516, 42.409272580747079 ], [ 117.311782772391581, 42.409272547696155 ], [ 117.311782750091353, 42.409268044751521 ], [ 117.311776673726754, 42.409268061277132 ], [ 117.311776651426968, 42.409263558332505 ], [ 117.311770575062823, 42.409263574857803 ], [ 117.311770485865452, 42.409245563079217 ], [ 117.311782638590302, 42.409245530028329 ], [ 117.311782616290103, 42.409241027083688 ], [ 117.311776539928118, 42.409241043609285 ], [ 117.31177651762836, 42.409236540664637 ], [ 117.311770441266802, 42.409236557189921 ], [ 117.31177039666818, 42.409227551300589 ], [ 117.311776473028871, 42.409227534775312 ], [ 117.311776450729127, 42.409223031830635 ], [ 117.311764298008626, 42.409223064880877 ], [ 117.311764320307489, 42.409227567825532 ], [ 117.311709633061085, 42.409227716535604 ], [ 117.31170961076613, 42.40922321359092 ], [ 117.311703534405822, 42.409223230112659 ], [ 117.311703601289409, 42.409236738946731 ], [ 117.311697524927794, 42.409236755468143 ], [ 117.311697569516028, 42.409245761357518 ], [ 117.311703645878495, 42.409245744836099 ], [ 117.31170373505671, 42.409263756614791 ], [ 117.311697658692523, 42.40926377313621 ], [ 117.311697680986654, 42.409268276080887 ], [ 117.31177059736217, 42.40926807780243 ], [ 117.311770619661516, 42.409272580747079 ] ] ] } },
{ "type": "Feature", "properties": { "crown_id": 3909, "tree_id": "3911", "top_h_m": 24.152, "H_95_Mean": 24.1557, "DBH": 29.0022, "Carbon_kg": 177.813837, "area_m2": 12.75 }, "geometry": { "type": "Polygon", "coordinates": [ [ [ 117.311855577244302, 42.409249834640541 ], [ 117.311867729969876, 42.409249801580614 ], [ 117.311867707663581, 42.409245298636009 ], [ 117.31187378402592, 42.40924528210558 ], [ 117.311873761719212, 42.40924077916096 ], [ 117.311879838081097, 42.409240762630212 ], [ 117.311879793466829, 42.409231756740979 ], [ 117.311885869827847, 42.409231740209911 ], [ 117.311885847520273, 42.409227237265299 ], [ 117.311867618438484, 42.409227286857544 ], [ 117.311867596132231, 42.409222783912917 ], [ 117.311861519772052, 42.409222800443018 ], [ 117.311861497466239, 42.409218297498391 ], [ 117.311831115667474, 42.409218380144054 ], [ 117.31183109336385, 42.409213877199413 ], [ 117.311825017004509, 42.409213893727575 ], [ 117.311825061610932, 42.409222899616879 ], [ 117.311818985250724, 42.409222916144721 ], [ 117.311819029856295, 42.40923192203401 ], [ 117.31182510621737, 42.409231905506168 ], [ 117.311825128520582, 42.409236408450802 ], [ 117.311831204882097, 42.409236391922619 ], [ 117.311831227185763, 42.409240894867253 ], [ 117.311837303547705, 42.40924087833875 ], [ 117.311837325851812, 42.409245381283377 ], [ 117.311855554938887, 42.409245331695921 ], [ 117.311855577244302, 42.409249834640541 ] ] ] } }
]
}
