{
"type": "FeatureCollection",
"name": "tile_8_21",
"crs": { "type": "name", "properties": { "name": "urn:ogc:def:crs:OGC:1.3:CRS84" } },
"features": [
{ "type": "Feature", "properties": { "crown_id": 2356, "tree_id": "2356", "top_h_m": 17.215, "H_95_Mean": 16.9515, "DBH": 29.3046, "Carbon_kg": 147.255558, "area_m2": 25.5 }, "geometry": { "type": "Polygon", "coordinates": [ [ [ 117.3149103029141, 42.410119570059756 ], [ 117.314922455803995, 42.410119536675474 ], [ 117.314922433278539, 42.410115033732872 ], [ 117.314928509723046, 42.410115017040241 ], [ 117.314928397093681, 42.410092502327167 ], [ 117.314934473535999, 42.410092485634237 ], [ 117.314934405957146, 42.410078976806354 ], [ 117.314922253075082, 42.410079010191879 ], [ 117.314922230549655, 42.410074507249242 ], [ 117.314916154109042, 42.410074523941518 ], [ 117.314916109059112, 42.410065518056228 ], [ 117.314903956179649, 42.410065551439807 ], [ 117.314903933655543, 42.410061048497141 ], [ 117.314897857216238, 42.410061065188444 ], [ 117.314897834692587, 42.410056562245785 ], [ 117.3148856818148, 42.410056595627417 ], [ 117.314885704337584, 42.410061098570097 ], [ 117.314879627898264, 42.410061115260433 ], [ 117.314879672942965, 42.410070121145765 ], [ 117.314873596502764, 42.410070137835788 ], [ 117.314873573980847, 42.410065634893122 ], [ 117.314861421101284, 42.410065668272196 ], [ 117.314861533706605, 42.410088182985518 ], [ 117.314873686590531, 42.410088149606423 ], [ 117.314873731634407, 42.410097155491719 ], [ 117.314879808077222, 42.410097138801682 ], [ 117.314879853122022, 42.410106144686956 ], [ 117.314898082453041, 42.410106094614896 ], [ 117.314898104976734, 42.410110597557527 ], [ 117.314910257864923, 42.410110564174538 ], [ 117.3149103029141, 42.410119570059756 ] ] ] } },
{ "type": "Feature", "properties": { "crown_id": 2357, "tree_id": "2357", "top_h_m": 17.544, "H_95_Mean": 16.8526, "DBH": 32.2746, "Carbon_kg": 178.26588, "area_m2": 37.5 }, "geometry": { "type": "Polygon", "coordinates": [ [ [ 117.315037908257025, 42.410119219460491 ], [ 117.315050061146721, 42.41011918606268 ], [ 117.315050038612142, 42.410114683120128 ], [ 117.315056115056535, 42.410114666420732 ], [ 117.315056137591554, 42.410119169363284 ], [ 117.315074366926027, 42.410119119263179 ], [ 117.315074344389714, 42.410114616320648 ], [ 117.315086497278472, 42.410114582918958 ], [ 117.31508642966692, 42.41010107409133 ], [ 117.315092506110005, 42.410101057390023 ], [ 117.315092461034766, 42.410092051504918 ], [ 117.315104613919175, 42.410092018101338 ], [ 117.315104591380688, 42.410087515158793 ], [ 117.315098514938938, 42.410087531860739 ], [ 117.315098492400921, 42.41008302891818 ], [ 117.315086339518274, 42.410083062321114 ], [ 117.315086271906836, 42.4100695534934 ], [ 117.315080195466805, 42.410069570194374 ], [ 117.315080172930109, 42.410065067251793 ], [ 117.31507409649052, 42.410065083952453 ], [ 117.31507407395425, 42.410060581009859 ], [ 117.315061921075909, 42.410060614410177 ], [ 117.315061943611312, 42.410065117352772 ], [ 117.315055867171694, 42.410065134052452 ], [ 117.315055844636717, 42.410060631109864 ], [ 117.315049768197539, 42.410060647809217 ], [ 117.315049745663032, 42.410056144866616 ], [ 117.31503151634675, 42.410056194962742 ], [ 117.315031561413164, 42.410065200847953 ], [ 117.315019408533885, 42.410065234243781 ], [ 117.315019431066261, 42.410069737186376 ], [ 117.31501335462616, 42.410069753883811 ], [ 117.315013377158095, 42.41007425682642 ], [ 117.315019453598595, 42.410074240128978 ], [ 117.315019521195723, 42.410087748956755 ], [ 117.315001291870232, 42.410087799048114 ], [ 117.315001336932369, 42.41009680493331 ], [ 117.315007413375071, 42.410096788236494 ], [ 117.315007458438131, 42.410105794121669 ], [ 117.315019611325255, 42.410105760727092 ], [ 117.315019633857659, 42.410110263669658 ], [ 117.315031786745649, 42.410110230273801 ], [ 117.315031809278906, 42.410114733216353 ], [ 117.315037885723328, 42.410114716517946 ], [ 117.315037908257025, 42.410119219460491 ] ] ] } },
{ "type": "Feature", "properties": { "crown_id": 2519, "tree_id": "2519", "top_h_m": 21.317, "H_95_Mean": 20.9248, "DBH": 36.6193, "Carbon_kg": 261.342541, "area_m2": 41.0 }, "geometry": { "type": "Polygon", "coordinates": [ [ [ 117.314830881270296, 42.410034231115326 ], [ 117.314843034143806, 42.410034197739506 ], [ 117.314843011624106, 42.410029694796798 ], [ 117.314849088060413, 42.410029678108415 ], [ 117.314849065540287, 42.410025175165707 ], [ 117.314855141976167, 42.410025158476998 ], [ 117.314855029373376, 42.410002643763399 ], [ 117.314861105807097, 42.410002627074384 ], [ 117.31486108328609, 42.409998124131661 ], [ 117.314867159719384, 42.409998107442334 ], [ 117.314867114676574, 42.409989101556882 ], [ 117.314873191108958, 42.40998908486722 ], [ 117.314873123543464, 42.409975576039024 ], [ 117.314867047112401, 42.409975592728657 ], [ 117.314867002069633, 42.409966586843169 ], [ 117.314848772778973, 42.409966636910141 ], [ 117.314848750258889, 42.409962133967383 ], [ 117.314836597399307, 42.409962167343771 ], [ 117.314836619918495, 42.409966670286522 ], [ 117.314818390627764, 42.409966720348685 ], [ 117.314818413145659, 42.409971223291457 ], [ 117.314812336714937, 42.409971239978205 ], [ 117.314812359232434, 42.40997574292097 ], [ 117.314806282801285, 42.409975759607391 ], [ 117.314806305318314, 42.409980262550157 ], [ 117.314788076023589, 42.409980312607502 ], [ 117.314788121055074, 42.409989318493039 ], [ 117.314775968190162, 42.409989351863011 ], [ 117.314776013219927, 42.409998357748542 ], [ 117.314782089653249, 42.409998341063712 ], [ 117.314782202229935, 42.410020855777475 ], [ 117.314800431536412, 42.410020805721032 ], [ 117.314800454053085, 42.410025308663762 ], [ 117.314824759796721, 42.41002524191731 ], [ 117.314824782315128, 42.410029744860033 ], [ 117.314830858751463, 42.410029728172617 ], [ 117.314830881270296, 42.410034231115326 ] ] ] } },
{ "type": "Feature", "properties": { "crown_id": 2526, "tree_id": "2526", "top_h_m": 18.212, "H_95_Mean": 17.9707, "DBH": 34.6847, "Carbon_kg": 214.095459, "area_m2": 44.0 }, "geometry": { "type": "Polygon", "coordinates": [ [ [ 117.315031381147577, 42.410029177307024 ], [ 117.315043534019892, 42.410029143909959 ], [ 117.31504351148584, 42.410024640967343 ], [ 117.315061740792956, 42.410024590869334 ], [ 117.315061718257638, 42.410020087926704 ], [ 117.315067794692894, 42.410020071226725 ], [ 117.315067772157121, 42.410015568284109 ], [ 117.315073848591922, 42.410015551583804 ], [ 117.315073803519553, 42.410006545698565 ], [ 117.315085956387435, 42.410006512297009 ], [ 117.315085933850384, 42.410002009354379 ], [ 117.315092010283863, 42.410001992653129 ], [ 117.315091987746385, 42.409997489710506 ], [ 117.315085911313304, 42.409997506411756 ], [ 117.315085888776267, 42.409993003469125 ], [ 117.315079812343626, 42.409993020170056 ], [ 117.315079789807001, 42.409988517227411 ], [ 117.315073713374787, 42.409988533928022 ], [ 117.315073690838631, 42.409984030985363 ], [ 117.315061537975069, 42.409984064385597 ], [ 117.315061492904462, 42.409975058500294 ], [ 117.315043263611699, 42.409975108598204 ], [ 117.315043241077703, 42.409970605655538 ], [ 117.315031088216685, 42.409970639052531 ], [ 117.31503106568357, 42.409966136109858 ], [ 117.315018912823419, 42.409966169505573 ], [ 117.315018890291171, 42.409961666562872 ], [ 117.315006737431858, 42.409961699957293 ], [ 117.315006692369153, 42.40995269407189 ], [ 117.314994539511574, 42.409952727464997 ], [ 117.314994584572517, 42.409961733350414 ], [ 117.314988508142861, 42.409961750046484 ], [ 117.314988553202994, 42.409970755931887 ], [ 117.314982476772428, 42.409970772627652 ], [ 117.31498249930209, 42.409975275570339 ], [ 117.314988575733054, 42.409975258874582 ], [ 117.314988733443698, 42.410006779473328 ], [ 117.314982657009679, 42.410006796169121 ], [ 117.314982679539355, 42.41001129911178 ], [ 117.314988755973815, 42.410011282415986 ], [ 117.314988778503945, 42.410015785358652 ], [ 117.315007007808603, 42.410015735269354 ], [ 117.315007030340027, 42.410020238211999 ], [ 117.315013106775325, 42.410020221514927 ], [ 117.315013129307218, 42.410024724457571 ], [ 117.315019205742942, 42.410024707760165 ], [ 117.315019183210637, 42.410020204817521 ], [ 117.315025259645935, 42.410020188119809 ], [ 117.315025282178681, 42.410024691062446 ], [ 117.315031358614405, 42.410024674364401 ], [ 117.315031381147577, 42.410029177307024 ] ] ] } },
{ "type": "Feature", "properties": { "crown_id": 2571, "tree_id": "2571", "top_h_m": 18.625, "H_95_Mean": 18.4814, "DBH": 32.449, "Carbon_kg": 190.319799, "area_m2": 32.25 }, "geometry": { "type": "Polygon", "coordinates": [ [ [ 117.314927946577441, 42.410002443473957 ], [ 117.314946175878362, 42.410002393394343 ], [ 117.314946153351272, 42.409997890451656 ], [ 117.314952229784481, 42.409997873757817 ], [ 117.314952162202019, 42.409984364929734 ], [ 117.314970391497639, 42.409984314846298 ], [ 117.314970414026433, 42.409988817788985 ], [ 117.314976490458719, 42.40998880109386 ], [ 117.314976467929498, 42.409984298151159 ], [ 117.314982544361357, 42.409984281455721 ], [ 117.314982521831709, 42.409979778513033 ], [ 117.314976445400291, 42.409979795208486 ], [ 117.314976377812684, 42.409966286380389 ], [ 117.314982454242809, 42.409966269684951 ], [ 117.314982409183557, 42.409957263799541 ], [ 117.314988485612801, 42.40995724710379 ], [ 117.31498844055271, 42.409948241218373 ], [ 117.314909446983407, 42.409948458237977 ], [ 117.314909469507811, 42.409952961180721 ], [ 117.314903393078936, 42.409952977872287 ], [ 117.314903415602885, 42.409957480815024 ], [ 117.314897339173569, 42.409957497506269 ], [ 117.314897384220657, 42.40996650339175 ], [ 117.314903460650825, 42.409966486700498 ], [ 117.314903483174831, 42.409970989643234 ], [ 117.314897406744194, 42.409971006334487 ], [ 117.314897474314876, 42.40998451516267 ], [ 117.314903550746806, 42.40998449847141 ], [ 117.314903573270811, 42.409989001414125 ], [ 117.314915726135524, 42.409988968030639 ], [ 117.314915748660383, 42.409993470973347 ], [ 117.314927901525934, 42.409993437588561 ], [ 117.314927946577441, 42.410002443473957 ] ] ] } },
{ "type": "Feature", "properties": { "crown_id": 2623, "tree_id": "2623", "top_h_m": 20.074, "H_95_Mean": 19.8659, "DBH": 30.4341, "Carbon_kg": 174.552915, "area_m2": 22.0 }, "geometry": { "type": "Polygon", "coordinates": [ [ [ 117.314873055978055, 42.40996206721077 ], [ 117.314885208837595, 42.409962033830539 ], [ 117.31488518631491, 42.409957530887787 ], [ 117.314891262744254, 42.409957514197188 ], [ 117.314891240221144, 42.409953011254444 ], [ 117.314897316650047, 42.409952994563518 ], [ 117.31489729412651, 42.409948491620774 ], [ 117.314903370554958, 42.409948474929536 ], [ 117.31490334803101, 42.409943971986785 ], [ 117.314915500887011, 42.409943938603348 ], [ 117.314915478362195, 42.409939435660597 ], [ 117.314909401934642, 42.409939452352468 ], [ 117.314909244264086, 42.409907931753111 ], [ 117.314915320688613, 42.409907915061247 ], [ 117.314915298163825, 42.409903412118474 ], [ 117.314897068891526, 42.409903462193085 ], [ 117.314897091415006, 42.409907965135865 ], [ 117.314878862141356, 42.409908015207584 ], [ 117.314878884663528, 42.409912518150371 ], [ 117.314860655388543, 42.409912568219191 ], [ 117.314860700430316, 42.409921574104786 ], [ 117.31485462400444, 42.409921590793751 ], [ 117.314854646524878, 42.409926093736537 ], [ 117.314860722951181, 42.409926077047558 ], [ 117.314860790513904, 42.409939585875897 ], [ 117.314854714086266, 42.409939602564883 ], [ 117.314854759127229, 42.409948608450428 ], [ 117.31486083555572, 42.409948591761449 ], [ 117.314860880597564, 42.409957597646979 ], [ 117.314873033456237, 42.409957564268034 ], [ 117.314873055978055, 42.40996206721077 ] ] ] } },
{ "type": "Feature", "properties": { "crown_id": 2625, "tree_id": "2625", "top_h_m": 20.455, "H_95_Mean": 20.2665, "DBH": 37.9604, "Carbon_kg": 275.729084, "area_m2": 50.0 }, "geometry": { "type": "Polygon", "coordinates": [ [ [ 117.315079767270404, 42.409984014284767 ], [ 117.315091920133938, 42.409983980882608 ], [ 117.315091852521533, 42.409970472054674 ], [ 117.315097928951985, 42.409970455353104 ], [ 117.315097906414096, 42.40996595241046 ], [ 117.315110059274147, 42.409965919006382 ], [ 117.315110036735391, 42.40996141606373 ], [ 117.315103960305791, 42.40996143276594 ], [ 117.315103892690871, 42.409947923937963 ], [ 117.315097816262593, 42.409947940639832 ], [ 117.315097793724732, 42.409943437697166 ], [ 117.315091717296895, 42.4099434543987 ], [ 117.315091627147225, 42.409925442628001 ], [ 117.315097703573329, 42.409925425926467 ], [ 117.315097681035496, 42.409920922983787 ], [ 117.315085528184142, 42.409920956386514 ], [ 117.315085505647161, 42.409916453443813 ], [ 117.315073352796659, 42.409916486845269 ], [ 117.315073330260574, 42.40991198390256 ], [ 117.315061177410925, 42.409912017302716 ], [ 117.315061154875707, 42.40990751436 ], [ 117.314988237782529, 42.409907714733819 ], [ 117.314988260312532, 42.409912217676549 ], [ 117.315000413162309, 42.409912184284138 ], [ 117.315000458224077, 42.409921190169598 ], [ 117.3149943817983, 42.409921206865981 ], [ 117.314994426859201, 42.409930212751426 ], [ 117.315000503285845, 42.409930196055043 ], [ 117.315000525816728, 42.409934698997773 ], [ 117.315006602243784, 42.409934682301056 ], [ 117.315006624775108, 42.409939185243772 ], [ 117.315012701202619, 42.409939168546757 ], [ 117.315012791329735, 42.409957180317555 ], [ 117.315024944188167, 42.409957146922501 ], [ 117.315024966720841, 42.409961649865203 ], [ 117.315037119580126, 42.409961616468848 ], [ 117.315037142113638, 42.409966119411514 ], [ 117.315049294973804, 42.409966086013888 ], [ 117.315049317508198, 42.409970588956568 ], [ 117.315067546799654, 42.409970538857692 ], [ 117.315067591871113, 42.409979544742995 ], [ 117.315079744733808, 42.409979511342129 ], [ 117.315079767270404, 42.409984014284767 ] ] ] } }
]
}
