{
"type": "FeatureCollection",
"name": "tile_2_15",
"crs": { "type": "name", "properties": { "name": "urn:ogc:def:crs:OGC:1.3:CRS84" } },
"features": [
{ "type": "Feature", "properties": { "crown_id": 389, "tree_id": "389", "top_h_m": 19.567, "H_95_Mean": 19.5053, "DBH": 28.752, "Carbon_kg": 153.97648, "area_m2": 18.25 }, "geometry": { "type": "Polygon", "coordinates": [ [ [ 117.313402692872458, 42.411213428503835 ], [ 117.313414845975302, 42.411213395278672 ], [ 117.313414756301398, 42.411195383509067 ], [ 117.313408679751731, 42.411195400121791 ], [ 117.31340865733371, 42.411190897179388 ], [ 117.313414733882937, 42.411190880566664 ], [ 117.313414689046041, 42.411181874681823 ], [ 117.313384306304158, 42.411181957742201 ], [ 117.313384261471626, 42.411172951857331 ], [ 117.31336603182902, 42.41117300168969 ], [ 117.313366054243986, 42.411177504632121 ], [ 117.313347824600058, 42.411177554461588 ], [ 117.313347869427375, 42.411186560346472 ], [ 117.313341792878532, 42.411186576955657 ], [ 117.313341860118257, 42.41120008578298 ], [ 117.313347936668421, 42.411200069173802 ], [ 117.313347959082094, 42.411204572116233 ], [ 117.31336011218329, 42.411204538896882 ], [ 117.313360134597858, 42.411209041839314 ], [ 117.313378364250894, 42.411208992007865 ], [ 117.313378341835033, 42.411204489065447 ], [ 117.313402648037254, 42.411204422619015 ], [ 117.313402692872458, 42.411213428503835 ] ] ] } },
{ "type": "Feature", "properties": { "crown_id": 424, "tree_id": "424", "top_h_m": 18.663, "H_95_Mean": 18.2781, "DBH": 30.5354, "Carbon_kg": 167.277834, "area_m2": 26.0 }, "geometry": { "type": "Polygon", "coordinates": [ [ [ 117.313524111768331, 42.411190581482522 ], [ 117.313536264866585, 42.411190548244505 ], [ 117.313536242439454, 42.411186045302138 ], [ 117.313542318988155, 42.41118602868265 ], [ 117.313542341415712, 42.411190531625017 ], [ 117.313548417964853, 42.411190515005217 ], [ 117.313548395536827, 42.411186012062849 ], [ 117.313572701731545, 42.411185945580385 ], [ 117.313572656872026, 42.411176939695686 ], [ 117.313578733419831, 42.411176923074279 ], [ 117.313578531548458, 42.411136396592951 ], [ 117.313572455004561, 42.411136413214344 ], [ 117.313572499863966, 42.411145419099114 ], [ 117.31351781096096, 42.411145568677171 ], [ 117.313517855812577, 42.411154574561984 ], [ 117.313511779266889, 42.411154591180164 ], [ 117.313511801692258, 42.41115909412256 ], [ 117.313505725146157, 42.411159110740421 ], [ 117.313505769996056, 42.411168116625205 ], [ 117.313511846543022, 42.411168100007338 ], [ 117.313511868968419, 42.411172602949733 ], [ 117.313505792420997, 42.411172619567601 ], [ 117.31350583727091, 42.411181625452365 ], [ 117.313511913819212, 42.411181608834482 ], [ 117.313511936244609, 42.411186111776864 ], [ 117.313524089342025, 42.411186078540148 ], [ 117.313524111768331, 42.411190581482522 ] ] ] } },
{ "type": "Feature", "properties": { "crown_id": 441, "tree_id": "441", "top_h_m": 18.93, "H_95_Mean": 18.4271, "DBH": 30.7298, "Carbon_kg": 170.246732, "area_m2": 26.25 }, "geometry": { "type": "Polygon", "coordinates": [ [ [ 117.313445139049691, 42.411195300440603 ], [ 117.313451215599329, 42.411195283825933 ], [ 117.313451170757205, 42.411186277941141 ], [ 117.313457247305948, 42.411186261326158 ], [ 117.313457224884459, 42.411181758383762 ], [ 117.313463301432776, 42.411181741768459 ], [ 117.313463279010861, 42.411177238826063 ], [ 117.313481508654505, 42.411177188978243 ], [ 117.313481486231296, 42.411172686035854 ], [ 117.313493639326154, 42.411172652802364 ], [ 117.313493504781732, 42.411145635147953 ], [ 117.313481351692076, 42.411145668381394 ], [ 117.313481329268882, 42.411141165438984 ], [ 117.313469176180092, 42.411141198671146 ], [ 117.313469153757765, 42.411136695728715 ], [ 117.313450924125846, 42.411136745574517 ], [ 117.31345090170484, 42.411132242632078 ], [ 117.313438748617727, 42.411132275861 ], [ 117.313438726197589, 42.411127772918555 ], [ 117.313426573111315, 42.41112780614619 ], [ 117.313426640369102, 42.411141314973541 ], [ 117.313432716913553, 42.411141298359887 ], [ 117.31343278417269, 42.411154807187195 ], [ 117.313426707626945, 42.411154823800864 ], [ 117.313426730046245, 42.411159326743295 ], [ 117.313432806592417, 42.411159310129626 ], [ 117.313432918691092, 42.411181824841726 ], [ 117.313426842142761, 42.411181841455409 ], [ 117.313426886981404, 42.411190847340251 ], [ 117.31344511662904, 42.411190797498207 ], [ 117.313445139049691, 42.411195300440603 ] ] ] } },
{ "type": "Feature", "properties": { "crown_id": 447, "tree_id": "447", "top_h_m": 20.88, "H_95_Mean": 20.2287, "DBH": 33.6708, "Carbon_kg": 216.292603, "area_m2": 31.5 }, "geometry": { "type": "Polygon", "coordinates": [ [ [ 117.313390360435832, 42.411177438188346 ], [ 117.313408590079661, 42.411177388352122 ], [ 117.313408500407675, 42.41115937658239 ], [ 117.31342065350006, 42.411159343356651 ], [ 117.313420608662355, 42.411150337471767 ], [ 117.313426685207673, 42.411150320858425 ], [ 117.313426662788373, 42.411145817915987 ], [ 117.313420586243495, 42.411145834529329 ], [ 117.313420496568185, 42.411127822759525 ], [ 117.313408343481882, 42.411127855985228 ], [ 117.313408298645982, 42.411118850100294 ], [ 117.313365762849884, 42.411118966380059 ], [ 117.313365740434989, 42.411114463437571 ], [ 117.313347510809308, 42.411114513266909 ], [ 117.313347533222895, 42.411119016209419 ], [ 117.313341456680533, 42.411119032818561 ], [ 117.313341501506869, 42.411128038703552 ], [ 117.313347578050099, 42.411128022094402 ], [ 117.313347667704534, 42.411146033864334 ], [ 117.313353744249497, 42.41114601725485 ], [ 117.313353766663553, 42.411150520197332 ], [ 117.313359843208914, 42.411150503587514 ], [ 117.313359910452434, 42.411164012414915 ], [ 117.313365986999116, 42.411163995804777 ], [ 117.313366009414068, 42.41116849874723 ], [ 117.313390315602419, 42.411168432303469 ], [ 117.313390360435832, 42.411177438188346 ] ] ] } },
{ "type": "Feature", "properties": { "crown_id": 491, "tree_id": "491", "top_h_m": 19.697, "H_95_Mean": 19.2076, "DBH": 27.3662, "Carbon_kg": 138.122449, "area_m2": 15.5 }, "geometry": { "type": "Polygon", "coordinates": [ [ [ 117.313517788535165, 42.411141065734775 ], [ 117.31356640088994, 42.411140932777805 ], [ 117.313566356031401, 42.41113192689302 ], [ 117.313572432574858, 42.411131910271955 ], [ 117.313572365285822, 42.411118401444774 ], [ 117.313566288743658, 42.411118418065833 ], [ 117.313566243885191, 42.411109412181005 ], [ 117.313554090802612, 42.411109445422149 ], [ 117.313554068374259, 42.411104942479732 ], [ 117.313547991833389, 42.411104959099823 ], [ 117.313547969405477, 42.411100456157392 ], [ 117.313541892865047, 42.411100472777143 ], [ 117.313541915292532, 42.411104975719589 ], [ 117.313529762210791, 42.411105008958138 ], [ 117.31352978463741, 42.41110951190057 ], [ 117.313523708096085, 42.411109528519368 ], [ 117.313523730522292, 42.411114031461793 ], [ 117.31351765398054, 42.411114048080272 ], [ 117.313517743683605, 42.411132059849955 ], [ 117.313523820227104, 42.411132043231476 ], [ 117.313523842653325, 42.411136546173879 ], [ 117.313517766109385, 42.411136562792365 ], [ 117.313517788535165, 42.411141065734775 ] ] ] } },
{ "type": "Feature", "properties": { "crown_id": 510, "tree_id": "510", "top_h_m": 19.31, "H_95_Mean": 19.0803, "DBH": 32.2689, "Carbon_kg": 191.780362, "area_m2": 29.75 }, "geometry": { "type": "Polygon", "coordinates": [ [ [ 117.313499581326539, 42.411145618530739 ], [ 117.313505657871346, 42.411145601913205 ], [ 117.313505635446433, 42.411141098970809 ], [ 117.313511711990799, 42.411141082352955 ], [ 117.313511532588123, 42.411105058813561 ], [ 117.313517609129008, 42.411105042195409 ], [ 117.313517564277547, 42.411096036310532 ], [ 117.313505411197468, 42.411096069546502 ], [ 117.313505388772612, 42.41109156660405 ], [ 117.313487159153809, 42.411091616455586 ], [ 117.313487181577358, 42.411096119398039 ], [ 117.313450722337009, 42.411096219092421 ], [ 117.313450677495098, 42.41108721320748 ], [ 117.313438524416682, 42.411087246436345 ], [ 117.313438546836778, 42.411091749378826 ], [ 117.313432470297101, 42.411091765992794 ], [ 117.313432492716757, 42.411096268935275 ], [ 117.313426416176668, 42.411096285548908 ], [ 117.313426438595883, 42.411100788491382 ], [ 117.313432515136412, 42.411100771877742 ], [ 117.313432559975752, 42.411109777762682 ], [ 117.313438636517148, 42.411109761148722 ], [ 117.313438658937258, 42.411114264091189 ], [ 117.313432582395421, 42.411114280705156 ], [ 117.313432627234789, 42.411123286590076 ], [ 117.313444780320168, 42.411123253361808 ], [ 117.313444802740719, 42.411127756304253 ], [ 117.313456955826965, 42.411127723074692 ], [ 117.313456978248382, 42.411132226017138 ], [ 117.313475207878994, 42.411132176170362 ], [ 117.313475230301762, 42.411136679112786 ], [ 117.313487383389656, 42.411136645879999 ], [ 117.313487405813291, 42.411141148822423 ], [ 117.313499558902052, 42.411141115588329 ], [ 117.313499581326539, 42.411145618530739 ] ] ] } },
{ "type": "Feature", "properties": { "crown_id": 523, "tree_id": "523", "top_h_m": 20.157, "H_95_Mean": 19.7148, "DBH": 30.4999, "Carbon_kg": 174.524473, "area_m2": 22.5 }, "geometry": { "type": "Polygon", "coordinates": [ [ [ 117.313584585661744, 42.411131877028851 ], [ 117.3136149683789, 42.411131793915473 ], [ 117.313614945946171, 42.411127290973099 ], [ 117.313645328660982, 42.411127207851685 ], [ 117.313645238921424, 42.411109196082201 ], [ 117.313639162380213, 42.41110921270711 ], [ 117.313639139945778, 42.411104709764743 ], [ 117.313633063404964, 42.411104726389333 ], [ 117.313633018536976, 42.411095720504548 ], [ 117.313626941997029, 42.411095737128825 ], [ 117.313626897129936, 42.411086731244026 ], [ 117.313614744051804, 42.411086764491579 ], [ 117.313614721619132, 42.411082261549161 ], [ 117.313608645080478, 42.411082278172451 ], [ 117.313608667512725, 42.411086781114861 ], [ 117.313596514434565, 42.411086814360495 ], [ 117.313596536865958, 42.411091317302905 ], [ 117.313590460326438, 42.411091333925235 ], [ 117.313590482757391, 42.411095836867652 ], [ 117.313584406217416, 42.411095853489662 ], [ 117.313584428647971, 42.411100356432073 ], [ 117.313578352107555, 42.411100373053763 ], [ 117.313578374537641, 42.411104875996188 ], [ 117.313572297996814, 42.411104892617544 ], [ 117.313572342856148, 42.411113898502364 ], [ 117.313578419397842, 42.411113881880993 ], [ 117.313578486688172, 42.411127390708181 ], [ 117.313584563231203, 42.411127374086469 ], [ 117.313584585661744, 42.411131877028851 ] ] ] } },
{ "type": "Feature", "properties": { "crown_id": 547, "tree_id": "547", "top_h_m": 20.261, "H_95_Mean": 19.7357, "DBH": 32.2838, "Carbon_kg": 195.831863, "area_m2": 28.0 }, "geometry": { "type": "Polygon", "coordinates": [ [ [ 117.313371816976868, 42.411114446827135 ], [ 117.31340827622806, 42.411114347157813 ], [ 117.313408231392188, 42.411105341272858 ], [ 117.313414307933186, 42.411105324660177 ], [ 117.313414263096476, 42.411096318775215 ], [ 117.313408186556345, 42.411096335387882 ], [ 117.313408164138451, 42.411091832445393 ], [ 117.313420317217776, 42.41109179921974 ], [ 117.313420227542707, 42.411073787449752 ], [ 117.313414151004793, 42.411073804062738 ], [ 117.313414128586459, 42.411069301120229 ], [ 117.313408052048956, 42.411069317732881 ], [ 117.313408029631091, 42.411064814790365 ], [ 117.313401953093987, 42.411064831402705 ], [ 117.313401930676548, 42.411060328460181 ], [ 117.313389777603277, 42.411060361683873 ], [ 117.313389800019849, 42.411064864626397 ], [ 117.313359417334354, 42.411064947679989 ], [ 117.313359439748766, 42.411069450622541 ], [ 117.313353363211206, 42.411069467232288 ], [ 117.313353408039163, 42.411078473117342 ], [ 117.313347331500751, 42.411078489726791 ], [ 117.313347353914295, 42.411082992669321 ], [ 117.313341277375443, 42.411083009278435 ], [ 117.313341299788561, 42.411087512220959 ], [ 117.31334737632784, 42.411087495611838 ], [ 117.313347398741413, 42.411091998554362 ], [ 117.313353475281133, 42.411091981944914 ], [ 117.313353564937174, 42.411109993714952 ], [ 117.313371794561547, 42.411109943884654 ], [ 117.313371816976868, 42.411114446827135 ] ] ] } },
{ "type": "Feature", "properties": { "crown_id": 579, "tree_id": "579", "top_h_m": 18.526, "H_95_Mean": 18.2014, "DBH": 31.2736, "Carbon_kg": 175.092468, "area_m2": 28.75 }, "geometry": { "type": "Polygon", "coordinates": [ [ [ 117.313456776455695, 42.411091699535028 ], [ 117.313481082614203, 42.411091633072118 ], [ 117.31348106019108, 42.411087130129658 ], [ 117.313505366347755, 42.411087063661597 ], [ 117.313505343922884, 42.411082560719144 ], [ 117.313511420461609, 42.411082544101333 ], [ 117.313511285909982, 42.411055526446518 ], [ 117.313505209373872, 42.411055543064322 ], [ 117.313505186949058, 42.411051040121855 ], [ 117.313486957341965, 42.411051089973313 ], [ 117.313486934918473, 42.411046587030818 ], [ 117.313456552242087, 42.411046670110125 ], [ 117.313456529820755, 42.411042167167622 ], [ 117.313432223681275, 42.41104223362526 ], [ 117.313432335779311, 42.411064748337829 ], [ 117.313438412316358, 42.41106473172389 ], [ 117.313438434736412, 42.411069234666392 ], [ 117.313426281661435, 42.41106926789395 ], [ 117.313426326499837, 42.411078273778948 ], [ 117.313438479576547, 42.411078240551369 ], [ 117.3134385019966, 42.411082743493857 ], [ 117.313456731612931, 42.411082693650073 ], [ 117.313456776455695, 42.411091699535028 ] ] ] } },
{ "type": "Feature", "properties": { "crown_id": 599, "tree_id": "599", "top_h_m": 18.889, "H_95_Mean": 18.3771, "DBH": 33.5855, "Carbon_kg": 203.311906, "area_m2": 37.25 }, "geometry": { "type": "Polygon", "coordinates": [ [ [ 117.313523663243728, 42.411100522634499 ], [ 117.313535816324617, 42.411100489396588 ], [ 117.313535793897557, 42.411095986454157 ], [ 117.31355402351754, 42.41109593659489 ], [ 117.313554045945892, 42.411100439537307 ], [ 117.313572275567154, 42.411100389675134 ], [ 117.313572253137508, 42.41109588673271 ], [ 117.313578329677469, 42.411095870111346 ], [ 117.313578307247383, 42.411091367168929 ], [ 117.313584383786932, 42.411091350547245 ], [ 117.313584361356405, 42.411086847604828 ], [ 117.313590437895485, 42.411086830982832 ], [ 117.31359041546456, 42.411082328040393 ], [ 117.313602568541853, 42.41108229479542 ], [ 117.313602546110047, 42.411077791853003 ], [ 117.31359646957182, 42.411077808475653 ], [ 117.313596447140469, 42.411073305533229 ], [ 117.313602523678256, 42.411073288910593 ], [ 117.313602501246464, 42.411068785968162 ], [ 117.313596424709104, 42.411068802590805 ], [ 117.313596402277753, 42.411064299648366 ], [ 117.313602478814673, 42.411064283025731 ], [ 117.313602456382881, 42.411059780083299 ], [ 117.313596379846388, 42.411059796705935 ], [ 117.313596357415065, 42.411055293763489 ], [ 117.313572051270853, 42.411055360250799 ], [ 117.313571983982072, 42.411041851423434 ], [ 117.313565907447298, 42.41104186804445 ], [ 117.31356588501815, 42.411037365101983 ], [ 117.313559808483831, 42.411037381722679 ], [ 117.313559786055109, 42.411032878780205 ], [ 117.31353547991948, 42.41103294525972 ], [ 117.313535457492506, 42.411028442317232 ], [ 117.313529380959025, 42.411028458936315 ], [ 117.313529515518283, 42.411055476591187 ], [ 117.313523438982216, 42.411055493209957 ], [ 117.313523461408323, 42.411059996152417 ], [ 117.313517384871787, 42.411060012770868 ], [ 117.313517474574624, 42.411078024540728 ], [ 117.313523551112894, 42.411078007922278 ], [ 117.313523573539058, 42.411082510864716 ], [ 117.313517497000333, 42.411082527483181 ], [ 117.313517541851809, 42.411091533368079 ], [ 117.313523618391372, 42.411091516749622 ], [ 117.313523663243728, 42.411100522634499 ] ] ] } },
{ "type": "Feature", "properties": { "crown_id": 652, "tree_id": "652", "top_h_m": 21.249, "H_95_Mean": 21.2322, "DBH": 27.0116, "Carbon_kg": 142.754438, "area_m2": 12.25 }, "geometry": { "type": "Polygon", "coordinates": [ [ [ 117.31360243395109, 42.411055277140861 ], [ 117.313614587023167, 42.411055243894637 ], [ 117.313614542157879, 42.411046238009753 ], [ 117.313620618693022, 42.411046221386165 ], [ 117.313620528960797, 42.411028209616383 ], [ 117.313614452427359, 42.411028226239971 ], [ 117.313614407562156, 42.411019220355058 ], [ 117.313596177964484, 42.411019270223854 ], [ 117.313596200395779, 42.411023773166328 ], [ 117.313571894263745, 42.411023839653566 ], [ 117.31357191669332, 42.411028342596026 ], [ 117.313565840159853, 42.411028359217035 ], [ 117.313565862589002, 42.411032862159516 ], [ 117.313571939122895, 42.411032845538507 ], [ 117.313571961552469, 42.411037348480967 ], [ 117.313578038086789, 42.411037331859632 ], [ 117.313578105376877, 42.411050840687011 ], [ 117.313602411519327, 42.411050774198429 ], [ 117.31360243395109, 42.411055277140861 ] ] ] } },
{ "type": "Feature", "properties": { "crown_id": 670, "tree_id": "670", "top_h_m": 19.07, "H_95_Mean": 18.8527, "DBH": 32.3591, "Carbon_kg": 191.498325, "area_m2": 30.75 }, "geometry": { "type": "Polygon", "coordinates": [ [ [ 117.313511263484727, 42.411051023504051 ], [ 117.313523416556066, 42.411050990267491 ], [ 117.313523281999451, 42.411023972612568 ], [ 117.3135111289333, 42.4110240058491 ], [ 117.313511061657664, 42.411010497021579 ], [ 117.313498908594113, 42.411010530256796 ], [ 117.313498886169782, 42.411006027314286 ], [ 117.313492809638433, 42.411006043931415 ], [ 117.313492787214557, 42.411001540988892 ], [ 117.313474557621788, 42.411001590838325 ], [ 117.313474535199191, 42.410997087895787 ], [ 117.313456305607701, 42.410997137742328 ], [ 117.313456283186412, 42.410992634799783 ], [ 117.313444130126271, 42.410992668029181 ], [ 117.313444152546666, 42.410997170971733 ], [ 117.313438076016155, 42.41099718758597 ], [ 117.313438098436123, 42.411001690528522 ], [ 117.313444174967088, 42.411001673914299 ], [ 117.31344421980792, 42.411010679799382 ], [ 117.313438143276088, 42.411010696413612 ], [ 117.313438165696098, 42.411015199356171 ], [ 117.31343208916384, 42.411015215970068 ], [ 117.313432134002966, 42.411024221855143 ], [ 117.313426057469812, 42.411024238468748 ], [ 117.313426079888956, 42.411028741411279 ], [ 117.313438232956102, 42.41102870818375 ], [ 117.313438277796152, 42.411037714068812 ], [ 117.313462583933841, 42.411037647609902 ], [ 117.3134626063556, 42.411042150552412 ], [ 117.313492989029783, 42.411042067471492 ], [ 117.313493011453716, 42.411046570413987 ], [ 117.313511241059473, 42.411046520561555 ], [ 117.313511263484727, 42.411051023504051 ] ], [ [ 117.313511241059473, 42.411046520561555 ], [ 117.313511218634218, 42.411042017619074 ], [ 117.313517295169035, 42.411042001000965 ], [ 117.313517317594716, 42.411046503943446 ], [ 117.313511241059473, 42.411046520561555 ] ] ] } }
]
}
