{
"type": "FeatureCollection",
"name": "tile_5_24",
"crs": { "type": "name", "properties": { "name": "urn:ogc:def:crs:OGC:1.3:CRS84" } },
"features": [
{ "type": "Feature", "properties": { "crown_id": 1215, "tree_id": "1215", "top_h_m": 23.998, "H_95_Mean": 23.6139, "DBH": 35.3018, "Carbon_kg": 260.731003, "area_m2": 28.5 }, "geometry": { "type": "Polygon", "coordinates": [ [ [ 117.3156240463329, 42.410675979730598 ], [ 117.315642275827599, 42.41067592953965 ], [ 117.315642208095468, 42.410662420714068 ], [ 117.315636131598524, 42.410662437444699 ], [ 117.315636086444684, 42.410653431560952 ], [ 117.315642162940733, 42.410653414830335 ], [ 117.31564214036338, 42.410648911888465 ], [ 117.315648216858989, 42.410648895157514 ], [ 117.315648194281223, 42.410644392215644 ], [ 117.315654270776392, 42.410644375484381 ], [ 117.315654225619966, 42.410635369600627 ], [ 117.315642072631348, 42.410635403062805 ], [ 117.315642050054024, 42.410630900120928 ], [ 117.315629897066231, 42.410630933581821 ], [ 117.315629874489773, 42.410626430639923 ], [ 117.315617721502846, 42.410626464099522 ], [ 117.315617698927255, 42.410621961157609 ], [ 117.315611622434218, 42.410621977886933 ], [ 117.315611645009369, 42.410626480828839 ], [ 117.315575186048449, 42.410626581197974 ], [ 117.315575208620999, 42.410631084139908 ], [ 117.315569132127052, 42.410631100866972 ], [ 117.315569199843424, 42.410644609692724 ], [ 117.315575276338663, 42.410644592965646 ], [ 117.315575366628991, 42.410662604733254 ], [ 117.31556929013199, 42.410662621460339 ], [ 117.315569312704142, 42.410667124402231 ], [ 117.315605771688595, 42.410667024034886 ], [ 117.315605794263362, 42.410671526976763 ], [ 117.315624023756811, 42.410671476788728 ], [ 117.3156240463329, 42.410675979730598 ] ] ] } },
{ "type": "Feature", "properties": { "crown_id": 1217, "tree_id": "1217", "top_h_m": 20.654, "H_95_Mean": 20.5633, "DBH": 33.2922, "Carbon_kg": 213.480284, "area_m2": 29.25 }, "geometry": { "type": "Polygon", "coordinates": [ [ [ 117.315830624679364, 42.41067090778845 ], [ 117.315836701176991, 42.410670891047516 ], [ 117.31583658822062, 42.410648376338592 ], [ 117.315830511725167, 42.410648393079526 ], [ 117.315830398771084, 42.410625878370496 ], [ 117.315824322277805, 42.410625895111082 ], [ 117.315824277097079, 42.410616889227448 ], [ 117.315818200604639, 42.410616905967721 ], [ 117.315818178014737, 42.41061240302588 ], [ 117.3157695660786, 42.41061253693637 ], [ 117.315769588665049, 42.410617039878218 ], [ 117.31576351217258, 42.410617056615585 ], [ 117.315763602516668, 42.410635068382959 ], [ 117.315769679010856, 42.410635051645585 ], [ 117.315769701597333, 42.410639554587412 ], [ 117.315763625102704, 42.410639571324786 ], [ 117.315763670274777, 42.410648577208441 ], [ 117.315769746770286, 42.41064856047106 ], [ 117.315769791943268, 42.410657566354701 ], [ 117.315788021432382, 42.410657516140603 ], [ 117.315788044020195, 42.410662019082402 ], [ 117.315812350007363, 42.410661952125771 ], [ 117.315812372596881, 42.410666455067549 ], [ 117.315830602088496, 42.410666404846666 ], [ 117.315830624679364, 42.41067090778845 ] ] ] } },
{ "type": "Feature", "properties": { "crown_id": 1250, "tree_id": "1250", "top_h_m": 23.945, "H_95_Mean": 23.7981, "DBH": 30.2858, "Carbon_kg": 192.327779, "area_m2": 15.5 }, "geometry": { "type": "Polygon", "coordinates": [ [ [ 117.315836565629368, 42.410643873396801 ], [ 117.315873024599398, 42.410643772944496 ], [ 117.315873002005532, 42.410639270002719 ], [ 117.315879078500075, 42.410639253259546 ], [ 117.315879010717211, 42.410625744434185 ], [ 117.315872934223989, 42.41062576117735 ], [ 117.315872889036299, 42.410616755293752 ], [ 117.315866812543902, 42.41061677203659 ], [ 117.315866767357136, 42.410607766152978 ], [ 117.315860690865605, 42.410607782895482 ], [ 117.31586064567972, 42.410598777011849 ], [ 117.315848492698407, 42.410598810495898 ], [ 117.315848515290469, 42.410603313437726 ], [ 117.315842438799379, 42.410603330179256 ], [ 117.315842461391014, 42.410607833121084 ], [ 117.315836384899484, 42.410607849862309 ], [ 117.315836339717052, 42.410598843978654 ], [ 117.315824186735696, 42.410598877460124 ], [ 117.315824254506722, 42.410612386285628 ], [ 117.315830330998708, 42.410612369545049 ], [ 117.315830376180287, 42.41062137542869 ], [ 117.315836452673139, 42.410621358687777 ], [ 117.315836565629368, 42.410643873396801 ] ] ] } },
{ "type": "Feature", "properties": { "crown_id": 1269, "tree_id": "1269", "top_h_m": 22.455, "H_95_Mean": 22.1691, "DBH": 31.8676, "Carbon_kg": 204.357964, "area_m2": 21.5 }, "geometry": { "type": "Polygon", "coordinates": [ [ [ 117.315696806242499, 42.410644258356541 ], [ 117.315702882737639, 42.410644241622705 ], [ 117.315702837574278, 42.410635235738994 ], [ 117.315708914068523, 42.410635219004831 ], [ 117.315708891486409, 42.410630716062983 ], [ 117.31572104447406, 42.410630682593698 ], [ 117.315721021891079, 42.410626179651842 ], [ 117.315727098384457, 42.410626162916735 ], [ 117.31572707580105, 42.410621659974872 ], [ 117.31575138177277, 42.410621593031202 ], [ 117.315751336602474, 42.41061258714749 ], [ 117.315745260110418, 42.410612603883884 ], [ 117.315745214941046, 42.410603598000158 ], [ 117.315739138449857, 42.410603614736225 ], [ 117.315739115865597, 42.410599111794355 ], [ 117.315733039374834, 42.410599128530102 ], [ 117.315733016791015, 42.410594625588217 ], [ 117.315690481358587, 42.410594742729394 ], [ 117.315690436197087, 42.410585736845583 ], [ 117.315678283218077, 42.41058577031157 ], [ 117.315678396117562, 42.410608285021084 ], [ 117.315684472609249, 42.410608268288236 ], [ 117.315684608091431, 42.41063528593952 ], [ 117.315690684585732, 42.410635269206324 ], [ 117.315690707166553, 42.410639772148201 ], [ 117.315696783661252, 42.410639755414685 ], [ 117.315696806242499, 42.410644258356541 ] ] ] } },
{ "type": "Feature", "properties": { "crown_id": 1270, "tree_id": "1270", "top_h_m": 23.225, "H_95_Mean": 23.0451, "DBH": 31.4377, "Carbon_kg": 203.449957, "area_m2": 19.0 }, "geometry": { "type": "Polygon", "coordinates": [ [ [ 117.315903407074273, 42.410643689225395 ], [ 117.315915560064184, 42.410643655735498 ], [ 117.315915514870383, 42.410634649851971 ], [ 117.31593374435262, 42.410634599614724 ], [ 117.315933721754419, 42.410630096672968 ], [ 117.315927645260786, 42.410630113419025 ], [ 117.31592760006528, 42.410621107535484 ], [ 117.31593367655806, 42.410621090789419 ], [ 117.31593365395986, 42.410616587847656 ], [ 117.315927577467548, 42.410616604593706 ], [ 117.315927554869774, 42.410612101651928 ], [ 117.315933631361688, 42.410612084905864 ], [ 117.315933586165343, 42.410603079022302 ], [ 117.315915356692244, 42.410603129259485 ], [ 117.315915334095394, 42.410598626317686 ], [ 117.31587887515164, 42.410598726783363 ], [ 117.315878829963168, 42.410589720899722 ], [ 117.315866676983632, 42.410589754385697 ], [ 117.315866744763738, 42.410603263211158 ], [ 117.315872821254828, 42.410603246468327 ], [ 117.315872866442476, 42.410612252351946 ], [ 117.315878942934404, 42.410612235608788 ], [ 117.315878988122961, 42.410621241492386 ], [ 117.315885064615756, 42.410621224748908 ], [ 117.315885132399899, 42.41063473357427 ], [ 117.315897285388104, 42.410634700086305 ], [ 117.315897307983704, 42.41063920302809 ], [ 117.315903384478233, 42.410639186283625 ], [ 117.315903407074273, 42.410643689225395 ] ] ] } },
{ "type": "Feature", "properties": { "crown_id": 1290, "tree_id": "1290", "top_h_m": 22.825, "H_95_Mean": 22.6876, "DBH": 32.2169, "Carbon_kg": 211.773804, "area_m2": 21.5 }, "geometry": { "type": "Polygon", "coordinates": [ [ [ 117.315635950983221, 42.410626413909625 ], [ 117.315660256957003, 42.410626346985282 ], [ 117.31566023437837, 42.410621844043391 ], [ 117.315672387364344, 42.410621810579293 ], [ 117.315672409943843, 42.410626313521171 ], [ 117.315678486437278, 42.410626296788635 ], [ 117.315678418697487, 42.410612787962975 ], [ 117.315672342205389, 42.410612804695511 ], [ 117.315672184149122, 42.410581284102179 ], [ 117.315660031170964, 42.410581317566241 ], [ 117.315660008592374, 42.410576814624307 ], [ 117.3156539321037, 42.410576831355854 ], [ 117.315653909525579, 42.410572328413927 ], [ 117.315647833037346, 42.410572345145141 ], [ 117.315647855615055, 42.410576848087082 ], [ 117.315623549660359, 42.41057691500874 ], [ 117.315623775420306, 42.410621944427973 ], [ 117.315635928406351, 42.410621910967734 ], [ 117.315635950983221, 42.410626413909625 ] ] ] } },
{ "type": "Feature", "properties": { "crown_id": 1307, "tree_id": "1307", "top_h_m": 23.294, "H_95_Mean": 23.1719, "DBH": 30.6287, "Carbon_kg": 193.663286, "area_m2": 17.0 }, "geometry": { "type": "Polygon", "coordinates": [ [ [ 117.315569086982819, 42.410622094983118 ], [ 117.315605545941168, 42.410621994615923 ], [ 117.315605523366457, 42.41061749167401 ], [ 117.315617676351678, 42.410617458215697 ], [ 117.315617473171685, 42.410576931738348 ], [ 117.315611396682982, 42.410576948467643 ], [ 117.315611419258076, 42.410581451409584 ], [ 117.315574960323232, 42.410581551778563 ], [ 117.315575073185769, 42.410604066488318 ], [ 117.315568996694424, 42.410604083215361 ], [ 117.315569019266519, 42.410608586157302 ], [ 117.315562942774747, 42.410608602884032 ], [ 117.315562987918085, 42.410617608767922 ], [ 117.315569064410724, 42.410617592041191 ], [ 117.315569086982819, 42.410622094983118 ] ] ] } },
{ "type": "Feature", "properties": { "crown_id": 1308, "tree_id": "1308", "top_h_m": 24.117, "H_95_Mean": 23.7453, "DBH": 39.6992, "Carbon_kg": 331.419171, "area_m2": 44.5 }, "geometry": { "type": "Polygon", "coordinates": [ [ [ 117.315939820846694, 42.410634582868326 ], [ 117.315970203316951, 42.410634499131525 ], [ 117.315970180716135, 42.41062999618979 ], [ 117.315982333703332, 42.410629962692809 ], [ 117.315982356305014, 42.410634465634558 ], [ 117.316018815269075, 42.410634365135913 ], [ 117.316018792664792, 42.410629862194178 ], [ 117.316024869158355, 42.410629845443289 ], [ 117.316024846553645, 42.410625342501554 ], [ 117.316030923046767, 42.410625325750338 ], [ 117.316030900441632, 42.41062082280861 ], [ 117.316024823948936, 42.410620839559819 ], [ 117.316024801344241, 42.410616336618091 ], [ 117.316036954328752, 42.410616303115347 ], [ 117.316036931723175, 42.410611800173612 ], [ 117.316030855231361, 42.410611816925147 ], [ 117.316030810021132, 42.410602811041649 ], [ 117.316036886512066, 42.410602794290128 ], [ 117.316036863906518, 42.410598291348386 ], [ 117.316042940396997, 42.410598274596538 ], [ 117.316042872579104, 42.410584765771297 ], [ 117.31603679608989, 42.410584782523131 ], [ 117.316036818695409, 42.410589285464894 ], [ 117.316030742205768, 42.410589302216401 ], [ 117.316030719600676, 42.410584799274652 ], [ 117.316024643111476, 42.410584816025839 ], [ 117.316024620506809, 42.41058031308409 ], [ 117.316018544018036, 42.410580329834957 ], [ 117.31601852141381, 42.410575826893194 ], [ 117.316006368437115, 42.410575860393955 ], [ 117.31600639104046, 42.410580363335725 ], [ 117.316000314551687, 42.410580380085634 ], [ 117.316000291948754, 42.410575877143856 ], [ 117.315957756530096, 42.410575994384153 ], [ 117.315957824329729, 42.410589503209522 ], [ 117.315951747840032, 42.410589519956851 ], [ 117.315951770439469, 42.41059402289865 ], [ 117.315945693949345, 42.410594039645659 ], [ 117.315945739147395, 42.410603045529228 ], [ 117.315939662656376, 42.410603062275925 ], [ 117.315939707853587, 42.410612068159487 ], [ 117.315945784345473, 42.410612051412784 ], [ 117.315945806944512, 42.410616554354561 ], [ 117.3159397304522, 42.410616571101265 ], [ 117.315939820846694, 42.410634582868326 ] ] ] } },
{ "type": "Feature", "properties": { "crown_id": 1325, "tree_id": "1325", "top_h_m": 19.786, "H_95_Mean": 19.634, "DBH": 30.8673, "Carbon_kg": 178.353822, "area_m2": 23.75 }, "geometry": { "type": "Polygon", "coordinates": [ [ [ 117.315757413094531, 42.410612570410777 ], [ 117.315763489586573, 42.41061255367373 ], [ 117.315763467000579, 42.410608050731874 ], [ 117.315818155424807, 42.410607900084059 ], [ 117.315818087655103, 42.410594391258542 ], [ 117.315830240635606, 42.410594357777711 ], [ 117.315830195454097, 42.410585351894035 ], [ 117.315836271943454, 42.410585335153144 ], [ 117.315836226761078, 42.41057632926946 ], [ 117.315824073784086, 42.410576362750895 ], [ 117.315824028603473, 42.410567356867176 ], [ 117.315805799140534, 42.41056740708693 ], [ 117.315805776551514, 42.410562904145046 ], [ 117.315775394115349, 42.410562987838148 ], [ 117.315775416702166, 42.410567490780039 ], [ 117.315769340214487, 42.41056750751769 ], [ 117.315769475732878, 42.410594525168946 ], [ 117.315763399242613, 42.410594541906292 ], [ 117.315763421828592, 42.410599044848162 ], [ 117.315757345337857, 42.410599061585195 ], [ 117.315757413094531, 42.410612570410777 ] ] ] } },
{ "type": "Feature", "properties": { "crown_id": 1356, "tree_id": "1356", "top_h_m": 25.417, "H_95_Mean": 24.9744, "DBH": 39.5494, "Carbon_kg": 338.868928, "area_m2": 40.0 }, "geometry": { "type": "Polygon", "coordinates": [ [ [ 117.315921410586, 42.41059860957229 ], [ 117.315939640057778, 42.41059855933414 ], [ 117.315939594860595, 42.410589553450549 ], [ 117.31594567135032, 42.41058953670386 ], [ 117.315945648751295, 42.410585033762068 ], [ 117.315951725240581, 42.410585017015066 ], [ 117.315951612243424, 42.410562502306064 ], [ 117.315945535756299, 42.410562519053059 ], [ 117.315945490558349, 42.410553513169418 ], [ 117.315939414072119, 42.410553529916086 ], [ 117.315939346276508, 42.410540021090611 ], [ 117.315945422761445, 42.410540004343957 ], [ 117.315945400162477, 42.410535501402109 ], [ 117.315939323677981, 42.41053551814877 ], [ 117.315939255882441, 42.410522009323245 ], [ 117.315933179399238, 42.410522026069565 ], [ 117.315933134203107, 42.41051302018586 ], [ 117.31590882827372, 42.410513087167928 ], [ 117.31590880567741, 42.410508584226065 ], [ 117.3159027291955, 42.410508600970772 ], [ 117.315902819579051, 42.410526612738238 ], [ 117.315896743095394, 42.410526629482639 ], [ 117.315896765690866, 42.410531132424495 ], [ 117.315890689206753, 42.41053114916857 ], [ 117.315890711801785, 42.410535652110433 ], [ 117.315878558832708, 42.410535685597623 ], [ 117.315878581426887, 42.4105401885395 ], [ 117.315884657911866, 42.41054017179605 ], [ 117.315884680506485, 42.410544674737906 ], [ 117.315896833477311, 42.410544641250063 ], [ 117.315896901263798, 42.410558150075587 ], [ 117.315890824777071, 42.410558166819683 ], [ 117.315890847372145, 42.410562669761518 ], [ 117.315884770884992, 42.410562686505294 ], [ 117.315884929047613, 42.410594207098079 ], [ 117.315921387988695, 42.410594106630498 ], [ 117.315921410586, 42.41059860957229 ] ] ] } },
{ "type": "Feature", "properties": { "crown_id": 1387, "tree_id": "1387", "top_h_m": 22.437, "H_95_Mean": 22.1857, "DBH": 33.1418, "Carbon_kg": 221.259053, "area_m2": 25.0 }, "geometry": { "type": "Polygon", "coordinates": [ [ [ 117.315739093281351, 42.410594608852485 ], [ 117.315757322752305, 42.410594558643318 ], [ 117.315757300166752, 42.410590055701455 ], [ 117.315763376656619, 42.410590038964429 ], [ 117.315763286312745, 42.410572027196913 ], [ 117.315751133336477, 42.410572060670624 ], [ 117.315751042996155, 42.41055404890303 ], [ 117.31573889002334, 42.410554082375434 ], [ 117.315738867439137, 42.410549579433528 ], [ 117.315732790953163, 42.41054959616924 ], [ 117.315732745785667, 42.4105405902854 ], [ 117.315726669300531, 42.410540607020792 ], [ 117.315726646717252, 42.410536104078858 ], [ 117.315714493747862, 42.410536137548661 ], [ 117.315714516330303, 42.410540640490595 ], [ 117.315708439845167, 42.41054065722502 ], [ 117.315708485009196, 42.410549663108874 ], [ 117.315702408523194, 42.41054967984298 ], [ 117.315702431104782, 42.410554182784914 ], [ 117.315696354618339, 42.410554199518693 ], [ 117.315696377199501, 42.410558702460627 ], [ 117.315690300712603, 42.410558719194086 ], [ 117.315690323293339, 42.410563222136012 ], [ 117.315696399780663, 42.410563205402553 ], [ 117.315696535267747, 42.410590223054001 ], [ 117.315739070697092, 42.410590105910586 ], [ 117.315739093281351, 42.410594608852485 ] ] ] } },
{ "type": "Feature", "properties": { "crown_id": 1388, "tree_id": "1388", "top_h_m": 21.345, "H_95_Mean": 21.0927, "DBH": 29.0749, "Carbon_kg": 164.940534, "area_m2": 16.5 }, "geometry": { "type": "Polygon", "coordinates": [ [ [ 117.31584239361608, 42.410594324295609 ], [ 117.31585454659654, 42.410594290812213 ], [ 117.315854501411536, 42.410585284928551 ], [ 117.315878807368932, 42.410585217957909 ], [ 117.315878671803645, 42.410558200306902 ], [ 117.315884748290358, 42.41055818356346 ], [ 117.315884725695724, 42.410553680621611 ], [ 117.315890802182011, 42.410553663877835 ], [ 117.315890779586937, 42.410549160935993 ], [ 117.315878626615245, 42.410549194423211 ], [ 117.315878604021066, 42.410544691481348 ], [ 117.315854298079316, 42.410544758451898 ], [ 117.315854320671761, 42.410549261393754 ], [ 117.315836091214109, 42.410549311618297 ], [ 117.31583615898758, 42.410562820443886 ], [ 117.315830082500383, 42.410562837184763 ], [ 117.315830127681849, 42.410571843068489 ], [ 117.315842280657975, 42.410571809586408 ], [ 117.31584239361608, 42.410594324295609 ] ] ] } },
{ "type": "Feature", "properties": { "crown_id": 1403, "tree_id": "1403", "top_h_m": 24.241, "H_95_Mean": 23.8902, "DBH": 31.7558, "Carbon_kg": 212.09042, "area_m2": 18.5 }, "geometry": { "type": "Polygon", "coordinates": [ [ [ 117.315957733930219, 42.410571491442354 ], [ 117.316006345833785, 42.410571357452177 ], [ 117.316006323230425, 42.410566854510407 ], [ 117.316000246742945, 42.410566871260293 ], [ 117.316000224140041, 42.410562368318516 ], [ 117.31600630062708, 42.410562351568608 ], [ 117.316006278023778, 42.410557848626823 ], [ 117.316000201537136, 42.410557865376724 ], [ 117.31600017893426, 42.410553362434911 ], [ 117.316006255420433, 42.410553345685038 ], [ 117.316006142403907, 42.410530830976022 ], [ 117.31600006591988, 42.410530847725887 ], [ 117.316000088522742, 42.410535350667701 ], [ 117.315987935553835, 42.410535384166494 ], [ 117.315987912951854, 42.410530881224673 ], [ 117.315969683499745, 42.41053093147044 ], [ 117.315969706100432, 42.410535434412253 ], [ 117.315963629615965, 42.410535451160214 ], [ 117.315963607015703, 42.410530948218387 ], [ 117.315951454047593, 42.410530981713308 ], [ 117.315951521845776, 42.41054449053879 ], [ 117.315945445360398, 42.410544507285778 ], [ 117.315945467959367, 42.410549010227605 ], [ 117.315951544445156, 42.410548993480617 ], [ 117.315951589644001, 42.410557999364244 ], [ 117.315957666130657, 42.410557982616943 ], [ 117.315957733930219, 42.410571491442354 ] ] ] } },
{ "type": "Feature", "properties": { "crown_id": 1404, "tree_id": "1404", "top_h_m": 21.348, "H_95_Mean": 21.2115, "DBH": 26.1058, "Carbon_kg": 133.193491, "area_m2": 10.75 }, "geometry": { "type": "Polygon", "coordinates": [ [ [ 117.316030696995583, 42.410580296332896 ], [ 117.316042849973115, 42.410580262829534 ], [ 117.316042623913773, 42.4105352334118 ], [ 117.316024394460513, 42.410535283666256 ], [ 117.316024417065123, 42.410539786608062 ], [ 117.316012264095392, 42.410539820109442 ], [ 117.316012422321691, 42.410571340701964 ], [ 117.316024575297519, 42.410571307200541 ], [ 117.316024597902157, 42.410575810142326 ], [ 117.31603067439049, 42.410575793391132 ], [ 117.316030696995583, 42.410580296332896 ] ] ] } },
{ "type": "Feature", "properties": { "crown_id": 1414, "tree_id": "1414", "top_h_m": 20.736, "H_95_Mean": 21.1232, "DBH": 28.0164, "Carbon_kg": 153.19242, "area_m2": 14.25 }, "geometry": { "type": "MultiPolygon", "coordinates": [ [ [ [ 117.31556280734489, 42.410581585232322 ], [ 117.315568883834075, 42.410581568505606 ], [ 117.315568861262008, 42.410577065563636 ], [ 117.315574937750739, 42.410577048836608 ], [ 117.315574689453655, 42.410527516474801 ], [ 117.315544307033875, 42.410527600106604 ], [ 117.315544374744675, 42.410541108932641 ], [ 117.315538298259412, 42.410541125658042 ], [ 117.315538388538826, 42.410559137426034 ], [ 117.315532312051801, 42.410559154151137 ], [ 117.315532334621224, 42.410563657093128 ], [ 117.31555056408358, 42.410563606916867 ], [ 117.315550586654297, 42.410568109858858 ], [ 117.315556663142175, 42.410568093132788 ], [ 117.315556685713361, 42.410572596074765 ], [ 117.315562762201651, 42.410572579348383 ], [ 117.31556280734489, 42.410581585232322 ] ] ], [ [ [ 117.315574689453655, 42.410527516474801 ], [ 117.315580765937597, 42.410527499747481 ], [ 117.315580743364748, 42.410522996805476 ], [ 117.315574666881233, 42.410523013532796 ], [ 117.315574689453655, 42.410527516474801 ] ] ] ] } },
{ "type": "Feature", "properties": { "crown_id": 1415, "tree_id": "1415", "top_h_m": 24.093, "H_95_Mean": 23.9913, "DBH": 33.0749, "Carbon_kg": 230.797205, "area_m2": 21.5 }, "geometry": { "type": "Polygon", "coordinates": [ [ [ 117.315581014239456, 42.410577032109252 ], [ 117.31560532019428, 42.410576965196604 ], [ 117.315605297619626, 42.410572462254649 ], [ 117.315641756549127, 42.410572361876028 ], [ 117.315641733971873, 42.410567858934101 ], [ 117.315647810459652, 42.410567842203207 ], [ 117.315647742726583, 42.410554333377377 ], [ 117.315635589753612, 42.410554366838824 ], [ 117.315635544599985, 42.410545360954913 ], [ 117.315629468114366, 42.410545377685146 ], [ 117.315629445538008, 42.410540874743184 ], [ 117.31561729256758, 42.410540908202684 ], [ 117.315617269992103, 42.410536405260707 ], [ 117.315611193507323, 42.410536421989981 ], [ 117.315611170932272, 42.41053191904799 ], [ 117.315599017963578, 42.410531952505558 ], [ 117.315598972815224, 42.410522946621569 ], [ 117.315592896331736, 42.410522963349855 ], [ 117.315592918905452, 42.41052746629186 ], [ 117.315586842421538, 42.410527483019834 ], [ 117.315586864994827, 42.410531985961825 ], [ 117.315580788510474, 42.410532002689472 ], [ 117.315581014239456, 42.410577032109252 ] ], [ [ 117.315635634907238, 42.410563372722727 ], [ 117.315635612330411, 42.410558869780779 ], [ 117.315641688817351, 42.410558853050212 ], [ 117.315641711394605, 42.41056335599216 ], [ 117.315635634907238, 42.410563372722727 ] ] ] } },
{ "type": "Feature", "properties": { "crown_id": 1453, "tree_id": "1453", "top_h_m": 23.4, "H_95_Mean": 23.0385, "DBH": 33.9941, "Carbon_kg": 238.130772, "area_m2": 25.75 }, "geometry": { "type": "Polygon", "coordinates": [ [ [ 117.31567826063818, 42.410581267369665 ], [ 117.315690413616309, 42.410581233903677 ], [ 117.315690345874089, 42.410567725077925 ], [ 117.315684269386324, 42.410567741811079 ], [ 117.315684201645425, 42.410554232985291 ], [ 117.315690278131882, 42.410554216252152 ], [ 117.315690255551161, 42.410549713310225 ], [ 117.315696332037191, 42.410549696576766 ], [ 117.315696309456044, 42.410545193634832 ], [ 117.31570238594162, 42.410545176901053 ], [ 117.315702340778458, 42.410536171017185 ], [ 117.315708417263153, 42.410536154283086 ], [ 117.315708372099152, 42.410527148399197 ], [ 117.315702295615338, 42.410527165133296 ], [ 117.315702250452233, 42.410518159249399 ], [ 117.315696173969258, 42.410518175983157 ], [ 117.315696151388124, 42.410513673041194 ], [ 117.315690074905604, 42.410513689774639 ], [ 117.315690052324925, 42.410509186832684 ], [ 117.315677899360693, 42.410509220298586 ], [ 117.315677854201127, 42.410500214414633 ], [ 117.315671777719857, 42.410500231147104 ], [ 117.315671845457956, 42.410513739973027 ], [ 117.315659692492829, 42.410513773437003 ], [ 117.315659737649852, 42.410522779320942 ], [ 117.315653661166394, 42.410522796052454 ], [ 117.315653728900656, 42.410536304878356 ], [ 117.315647652415905, 42.410536321609548 ], [ 117.315647697571237, 42.410545327493473 ], [ 117.315641621085604, 42.410545344224353 ], [ 117.315641643662872, 42.410549847166315 ], [ 117.315653796634976, 42.410549813704215 ], [ 117.31565388694743, 42.410567825471979 ], [ 117.315659963435223, 42.410567808740453 ], [ 117.315659986013799, 42.41057231168238 ], [ 117.315666062502018, 42.410572294950519 ], [ 117.31566608508102, 42.410576797892439 ], [ 117.315678238058297, 42.410576764427752 ], [ 117.31567826063818, 42.410581267369665 ] ] ] } },
{ "type": "Feature", "properties": { "crown_id": 1454, "tree_id": "1454", "top_h_m": 20.837, "H_95_Mean": 20.534, "DBH": 32.5907, "Carbon_kg": 204.338703, "area_m2": 27.0 }, "geometry": { "type": "Polygon", "coordinates": [ [ [ 117.3157571872391, 42.410567540992048 ], [ 117.31576326372678, 42.410567524255029 ], [ 117.315763241140843, 42.410563021313138 ], [ 117.315769317628096, 42.410563004575806 ], [ 117.315769295041704, 42.410558501633922 ], [ 117.315787524502156, 42.410558451420002 ], [ 117.315787501914471, 42.410553948478103 ], [ 117.315793578400857, 42.410553931739479 ], [ 117.315793533224635, 42.41054492585571 ], [ 117.315805686195617, 42.410544892377523 ], [ 117.315805618428712, 42.410531383551842 ], [ 117.315799541944543, 42.410531400291099 ], [ 117.31579951935602, 42.410526897349186 ], [ 117.315793442872277, 42.410526914088116 ], [ 117.31579342028418, 42.410522411146196 ], [ 117.315787343800878, 42.4105224278848 ], [ 117.315787276037966, 42.410508919059055 ], [ 117.315775123073919, 42.410508952535267 ], [ 117.315775100487173, 42.410504449593319 ], [ 117.31576294752395, 42.410504483068244 ], [ 117.31576297010983, 42.410508986010178 ], [ 117.315726511217477, 42.410509086427233 ], [ 117.31572655638405, 42.410518092311129 ], [ 117.315732632866968, 42.410518075575752 ], [ 117.315732723201933, 42.41053608734348 ], [ 117.315738799686585, 42.410536070607769 ], [ 117.315738844854963, 42.410545076491609 ], [ 117.31574492134051, 42.410545059755584 ], [ 117.315744943925111, 42.41054956269749 ], [ 117.315757096897045, 42.410549529224447 ], [ 117.3157571872391, 42.410567540992048 ] ] ] } },
{ "type": "Feature", "properties": { "crown_id": 1482, "tree_id": "1482", "top_h_m": 24.142, "H_95_Mean": 24.0353, "DBH": 33.3, "Carbon_kg": 234.227684, "area_m2": 22.0 }, "geometry": { "type": "Polygon", "coordinates": [ [ [ 117.315635522023186, 42.410540858012943 ], [ 117.315641598508378, 42.410540841282398 ], [ 117.315641553353942, 42.410531835398466 ], [ 117.315647629838267, 42.410531818667593 ], [ 117.315647562105326, 42.41051830984167 ], [ 117.31565363858833, 42.410518293110478 ], [ 117.315653593432188, 42.410509287226525 ], [ 117.315665746396448, 42.410509253763209 ], [ 117.315665678659698, 42.410495744937251 ], [ 117.315659602178854, 42.410495761669068 ], [ 117.315659579600378, 42.410491258727085 ], [ 117.315653503119975, 42.410491275458575 ], [ 117.315653457963919, 42.41048226957458 ], [ 117.315616999086643, 42.410482369956746 ], [ 117.315617021662078, 42.410486872898751 ], [ 117.315610945182073, 42.41048688962799 ], [ 117.315611035482092, 42.410504901396038 ], [ 117.315604959000339, 42.410504918124957 ], [ 117.315605071873321, 42.410527432834947 ], [ 117.315617224841148, 42.410527399376754 ], [ 117.315617247416625, 42.410531902318731 ], [ 117.315623323900951, 42.410531885589144 ], [ 117.315623346476883, 42.410536388531121 ], [ 117.315635499446387, 42.410536355070981 ], [ 117.315635522023186, 42.410540858012943 ] ] ] } },
{ "type": "Feature", "properties": { "crown_id": 1483, "tree_id": "1483", "top_h_m": 22.13, "H_95_Mean": 21.8083, "DBH": 31.8095, "Carbon_kg": 201.641245, "area_m2": 22.0 }, "geometry": { "type": "Polygon", "coordinates": [ [ [ 117.315817839166556, 42.410544858898049 ], [ 117.315848221593882, 42.410544775193721 ], [ 117.315848199001863, 42.410540272251858 ], [ 117.315860351971878, 42.410540238767879 ], [ 117.315860329379021, 42.410535735826009 ], [ 117.315866405863574, 42.410535719083533 ], [ 117.315866428456886, 42.410540222025404 ], [ 117.315872504941879, 42.410540205282608 ], [ 117.315872459754416, 42.410531199398868 ], [ 117.315860306786149, 42.410531232884125 ], [ 117.315860261600434, 42.410522227000371 ], [ 117.315854185117161, 42.410522243742513 ], [ 117.315854162524744, 42.410517740800628 ], [ 117.315848086041896, 42.410517757542436 ], [ 117.315848040857944, 42.410508751658668 ], [ 117.315841964375977, 42.410508768400142 ], [ 117.315841896601384, 42.410495259574425 ], [ 117.315829743640052, 42.410495293056421 ], [ 117.315829721049383, 42.410490790114508 ], [ 117.315811491608628, 42.410490840335079 ], [ 117.315811536787308, 42.410499846218919 ], [ 117.315805460306166, 42.410499862958474 ], [ 117.315805505484008, 42.410508868842314 ], [ 117.315793352519989, 42.410508902320466 ], [ 117.315793397696112, 42.410517908204284 ], [ 117.315799474179002, 42.410517891465375 ], [ 117.315799496767511, 42.41052239440728 ], [ 117.315805573250813, 42.410522377668038 ], [ 117.315805595839777, 42.41052688060995 ], [ 117.31581167232352, 42.410526863870381 ], [ 117.315811740091704, 42.410540372696069 ], [ 117.31581781657674, 42.410540355956172 ], [ 117.315817839166556, 42.410544858898049 ] ] ] } },
{ "type": "Feature", "properties": { "crown_id": 1524, "tree_id": "1524", "top_h_m": 23.162, "H_95_Mean": 22.7534, "DBH": 33.7105, "Carbon_kg": 232.425567, "area_m2": 25.5 }, "geometry": { "type": "Polygon", "coordinates": [ [ [ 117.315878536238529, 42.410531182655774 ], [ 117.315884612722655, 42.410531165912325 ], [ 117.31588459012805, 42.410526662970469 ], [ 117.315890666611736, 42.410526646226721 ], [ 117.31589064401669, 42.410522143284844 ], [ 117.315896720499921, 42.410522126540769 ], [ 117.315896630118118, 42.410504114773282 ], [ 117.315902706599616, 42.410504098028888 ], [ 117.31590261621615, 42.410486086261358 ], [ 117.315890463256636, 42.410486119749777 ], [ 117.315890395471683, 42.410472610924074 ], [ 117.315884318993241, 42.410472627667801 ], [ 117.315884273804173, 42.410463621783961 ], [ 117.315859967893743, 42.410463688755613 ], [ 117.315859990486544, 42.410468191697539 ], [ 117.315853914008486, 42.410468208439653 ], [ 117.31585393660086, 42.41047271138158 ], [ 117.315847860122361, 42.410472728123366 ], [ 117.315847882714294, 42.410477231065286 ], [ 117.315835729756415, 42.410477264547907 ], [ 117.31583579752963, 42.410490773373674 ], [ 117.315847950490109, 42.410490739891038 ], [ 117.315848018265982, 42.410504248716755 ], [ 117.315854094747522, 42.410504231974947 ], [ 117.315854139932313, 42.410513237858744 ], [ 117.315860216414734, 42.410513221116602 ], [ 117.315860239007591, 42.410517724058494 ], [ 117.31586631549041, 42.410517707316032 ], [ 117.315866360676978, 42.4105267131998 ], [ 117.31587851364435, 42.410526679713897 ], [ 117.315878536238529, 42.410531182655774 ] ] ] } },
{ "type": "Feature", "properties": { "crown_id": 1538, "tree_id": "1538", "top_h_m": 23.346, "H_95_Mean": 23.2602, "DBH": 29.32, "Carbon_kg": 177.746604, "area_m2": 14.25 }, "geometry": { "type": "Polygon", "coordinates": [ [ [ 117.315574644308811, 42.410518510590798 ], [ 117.315598950241068, 42.410518443679578 ], [ 117.315598927666898, 42.410513940737573 ], [ 117.315592851184277, 42.410513957465852 ], [ 117.315592828610548, 42.410509454523861 ], [ 117.315598905092742, 42.410509437795568 ], [ 117.315598859944458, 42.410500431911558 ], [ 117.315604936425757, 42.410500415182952 ], [ 117.315604846127513, 42.410482403414882 ], [ 117.315592693168355, 42.410482436871732 ], [ 117.315592670594668, 42.41047793392972 ], [ 117.315550135240514, 42.410478051018551 ], [ 117.315550180381791, 42.410487056902639 ], [ 117.315562333341887, 42.410487023450287 ], [ 117.31556244619955, 42.41050953816044 ], [ 117.315568522681758, 42.410509521433767 ], [ 117.315568545253754, 42.410514024375779 ], [ 117.315574621736388, 42.410514007648786 ], [ 117.315574644308811, 42.410518510590798 ] ] ] } },
{ "type": "Feature", "properties": { "crown_id": 1539, "tree_id": "1539", "top_h_m": 22.671, "H_95_Mean": 22.5636, "DBH": 34.938, "Carbon_kg": 248.564165, "area_m2": 29.75 }, "geometry": { "type": "Polygon", "coordinates": [ [ [ 117.316012218887892, 42.410530814225822 ], [ 117.316030448339902, 42.410530763973298 ], [ 117.316030425734866, 42.410526261031492 ], [ 117.316036502218424, 42.410526244280014 ], [ 117.316036524823886, 42.410530747221813 ], [ 117.316042601307856, 42.410530730470001 ], [ 117.316042330037391, 42.410476695168207 ], [ 117.316030177079853, 42.410476728671426 ], [ 117.316030154474888, 42.410472225729578 ], [ 117.316018001518174, 42.410472259231518 ], [ 117.316017978914104, 42.41046775628967 ], [ 117.315999749480312, 42.410467806540147 ], [ 117.315999726877536, 42.410463303598284 ], [ 117.315993650400031, 42.410463320347795 ], [ 117.315993695604746, 42.410472326231528 ], [ 117.315981542647989, 42.410472359729603 ], [ 117.315981565249487, 42.410476862671466 ], [ 117.315987641728299, 42.410476845922588 ], [ 117.315987686932175, 42.410485851806307 ], [ 117.315981610452496, 42.410485868555192 ], [ 117.315981655655506, 42.410494874438896 ], [ 117.315969502694401, 42.410494907935707 ], [ 117.315969570496364, 42.41050841676126 ], [ 117.315975646978217, 42.410508400013008 ], [ 117.315975624377131, 42.410503897071159 ], [ 117.315981700858543, 42.410503880322587 ], [ 117.315981723460084, 42.410508383264435 ], [ 117.315993876423789, 42.410508349766317 ], [ 117.315993921628603, 42.410517355649979 ], [ 117.315999998111323, 42.410517338900441 ], [ 117.316000043317032, 42.410526344784081 ], [ 117.316012196284177, 42.410526311284009 ], [ 117.316012218887892, 42.410530814225822 ] ], [ [ 117.315993876423789, 42.410508349766317 ], [ 117.315993853821396, 42.410503846824483 ], [ 117.315999930302823, 42.410503830074944 ], [ 117.315999952905642, 42.410508333016786 ], [ 117.315993876423789, 42.410508349766317 ] ] ] } },
{ "type": "Feature", "properties": { "crown_id": 1564, "tree_id": "1564", "top_h_m": 21.097, "H_95_Mean": 20.9267, "DBH": 29.623, "Carbon_kg": 170.468876, "area_m2": 18.0 }, "geometry": { "type": "Polygon", "coordinates": [ [ [ 117.315708304353208, 42.410513639573367 ], [ 117.31572045731825, 42.410513606104232 ], [ 117.315720412152558, 42.410504600220314 ], [ 117.315714335670904, 42.410504616955038 ], [ 117.315714132429491, 42.410464090477269 ], [ 117.315683750040733, 42.410464174145922 ], [ 117.315683772620915, 42.410468677087934 ], [ 117.31565946670807, 42.410468744017066 ], [ 117.315659557021903, 42.410486755785087 ], [ 117.315665633501879, 42.410486739053276 ], [ 117.315665656080768, 42.410491241995267 ], [ 117.315671732561171, 42.410491225263122 ], [ 117.315671755140514, 42.410495728205113 ], [ 117.31568390810213, 42.410495694739872 ], [ 117.315683953262578, 42.410504700623811 ], [ 117.315696106225928, 42.410504667157269 ], [ 117.315696128807033, 42.410509170099239 ], [ 117.315708281771222, 42.410509136631404 ], [ 117.315708304353208, 42.410513639573367 ] ] ] } },
{ "type": "Feature", "properties": { "crown_id": 1565, "tree_id": "1565", "top_h_m": 20.364, "H_95_Mean": 20.2487, "DBH": 31.6574, "Carbon_kg": 191.128006, "area_m2": 24.75 }, "geometry": { "type": "Polygon", "coordinates": [ [ [ 117.315726488634184, 42.41050458348527 ], [ 117.315756871042339, 42.410504499805214 ], [ 117.3157568484569, 42.41049999686328 ], [ 117.315787230862739, 42.410499913175187 ], [ 117.315787185687512, 42.410490907291326 ], [ 117.315793262167787, 42.410490890552744 ], [ 117.31579319440371, 42.41047738172692 ], [ 117.315781041445746, 42.410477415203736 ], [ 117.315781018858587, 42.410472912261795 ], [ 117.315768865901475, 42.410472945737318 ], [ 117.315768798142656, 42.410459436911417 ], [ 117.315744492233577, 42.410459503858576 ], [ 117.315744469649076, 42.410455000916599 ], [ 117.315726240218524, 42.410455051123577 ], [ 117.315726285384969, 42.410464057007545 ], [ 117.315720208907237, 42.410464073742567 ], [ 117.315720389569705, 42.410500097278366 ], [ 117.315726466050933, 42.410500080543315 ], [ 117.315726488634184, 42.41050458348527 ] ] ] } },
{ "type": "Feature", "properties": { "crown_id": 1566, "tree_id": "1566", "top_h_m": 23.26, "H_95_Mean": 22.7883, "DBH": 35.9102, "Carbon_kg": 264.245799, "area_m2": 32.5 }, "geometry": { "type": "Polygon", "coordinates": [ [ [ 117.315939210685443, 42.410513003439533 ], [ 117.315945287167779, 42.4105129866929 ], [ 117.315945264568839, 42.410508483751045 ], [ 117.31595134105072, 42.410508467004085 ], [ 117.315951318451383, 42.410503964062215 ], [ 117.315957394932838, 42.410503947314936 ], [ 117.315957417532601, 42.410508450256792 ], [ 117.315963494014483, 42.410508433509193 ], [ 117.315963403613608, 42.41049042174177 ], [ 117.315975556573889, 42.410490388245606 ], [ 117.315975511371732, 42.410481382361887 ], [ 117.31596943489248, 42.410481399110125 ], [ 117.315969412291835, 42.410476896168262 ], [ 117.315975488770661, 42.410476879420024 ], [ 117.315975466169618, 42.410472376478161 ], [ 117.315969389691219, 42.410472393226385 ], [ 117.315969367090602, 42.410467890284508 ], [ 117.315975443568576, 42.410467873536284 ], [ 117.315975398366476, 42.41045886765253 ], [ 117.315951092458093, 42.410458934643479 ], [ 117.315951069858798, 42.410454431701588 ], [ 117.315944993382132, 42.410454448448533 ], [ 117.315944970783278, 42.41044994550662 ], [ 117.31593889430701, 42.410449962253232 ], [ 117.31593887170861, 42.410445459311326 ], [ 117.315920642281142, 42.410445509549206 ], [ 117.315920664878263, 42.410450012491125 ], [ 117.315914588402009, 42.410450029236436 ], [ 117.315914633595384, 42.410459035120262 ], [ 117.315908557118249, 42.41045905186526 ], [ 117.315908579714517, 42.410463554807173 ], [ 117.315902503236941, 42.410463571551844 ], [ 117.315902480641114, 42.410459068609946 ], [ 117.315896404163965, 42.410459085354297 ], [ 117.315896426759352, 42.410463588296217 ], [ 117.315890350281748, 42.410463605040256 ], [ 117.315890372876723, 42.410468107982162 ], [ 117.315896449354753, 42.410468091238123 ], [ 117.31589651714097, 42.410481600063839 ], [ 117.315908670099603, 42.410481566574767 ], [ 117.315908760484774, 42.410499578342311 ], [ 117.315920913446888, 42.410499544851938 ], [ 117.315920936044066, 42.410504047793808 ], [ 117.315927012525535, 42.410504031048134 ], [ 117.315927035123153, 42.410508533990011 ], [ 117.315939188086958, 42.410508500497691 ], [ 117.315939210685443, 42.410513003439533 ] ] ] } }
]
}
