{
"type": "FeatureCollection",
"name": "tile_3_12",
"crs": { "type": "name", "properties": { "name": "urn:ogc:def:crs:OGC:1.3:CRS84" } },
"features": [
{ "type": "Feature", "properties": { "crown_id": 661, "tree_id": "661", "top_h_m": 17.864, "H_95_Mean": 17.7459, "DBH": 27.4828, "Carbon_kg": 132.939596, "area_m2": 18.25 }, "geometry": { "type": "Polygon", "coordinates": [ [ [ 117.312800308775252, 42.411052965600781 ], [ 117.312806385311532, 42.411052949020345 ], [ 117.312806295812223, 42.411034937249184 ], [ 117.312812372346784, 42.411034920668442 ], [ 117.312812305221044, 42.411021411840039 ], [ 117.312806228687819, 42.411021428420781 ], [ 117.312806139188666, 42.411003416649521 ], [ 117.312800062657161, 42.411003433229922 ], [ 117.312800017908486, 42.410994427344257 ], [ 117.312775711785932, 42.410994493662656 ], [ 117.312775689413357, 42.410989990719813 ], [ 117.31276961288313, 42.410990007298608 ], [ 117.312769590510982, 42.41098550435575 ], [ 117.312763513981182, 42.410985520934219 ], [ 117.312763536352904, 42.410990023877069 ], [ 117.312757459822677, 42.410990040455218 ], [ 117.312757549307861, 42.411008052226606 ], [ 117.312763625839821, 42.411008035648436 ], [ 117.312763670583323, 42.411017041534116 ], [ 117.31276974711615, 42.411017024955626 ], [ 117.312769791860518, 42.411026030841271 ], [ 117.31277586839424, 42.411026014262468 ], [ 117.312775890766872, 42.411030517205276 ], [ 117.312781967300992, 42.411030500626133 ], [ 117.312782012047137, 42.411039506511763 ], [ 117.312788088582124, 42.411039489932293 ], [ 117.312788110955651, 42.411043992875101 ], [ 117.312800264026478, 42.411043959715201 ], [ 117.312800308775252, 42.411052965600781 ] ] ] } },
{ "type": "Feature", "properties": { "crown_id": 668, "tree_id": "668", "top_h_m": 19.487, "H_95_Mean": 19.2822, "DBH": 30.9297, "Carbon_kg": 177.176399, "area_m2": 24.75 }, "geometry": { "type": "Polygon", "coordinates": [ [ [ 117.31270306182671, 42.411048727901125 ], [ 117.312721291434457, 42.411048678174325 ], [ 117.312721246696981, 42.411039672288673 ], [ 117.312733399767041, 42.411039639135865 ], [ 117.312733332658254, 42.411026130307377 ], [ 117.312739409191991, 42.411026113730493 ], [ 117.31273938682196, 42.411021610787664 ], [ 117.312745463355256, 42.41102159421046 ], [ 117.312745440984799, 42.411017091267631 ], [ 117.312757594050481, 42.411017058112265 ], [ 117.312757571679171, 42.411012555169442 ], [ 117.312751495146756, 42.411012571747271 ], [ 117.312751405663306, 42.410994559975897 ], [ 117.312714946479176, 42.410994659436085 ], [ 117.312714924110949, 42.41099015649322 ], [ 117.312696694520127, 42.410990206218955 ], [ 117.312696716887075, 42.410994709161841 ], [ 117.312690640356351, 42.410994725736437 ], [ 117.312690662722872, 42.410999228679316 ], [ 117.312696739254008, 42.410999212104706 ], [ 117.312696783987931, 42.41100821799045 ], [ 117.3126907074559, 42.41100823456506 ], [ 117.312690729822421, 42.411012737507917 ], [ 117.312684653289992, 42.411012754082222 ], [ 117.312684675656072, 42.411017257025094 ], [ 117.312678599123188, 42.411017273599057 ], [ 117.312678643854525, 42.41102627948478 ], [ 117.31269687345582, 42.411026229761873 ], [ 117.312696962923781, 42.411044241533254 ], [ 117.312703039459265, 42.411044224958296 ], [ 117.31270306182671, 42.411048727901125 ] ] ] } },
{ "type": "Feature", "properties": { "crown_id": 695, "tree_id": "695", "top_h_m": 20.805, "H_95_Mean": 20.4937, "DBH": 30.2345, "Carbon_kg": 175.452427, "area_m2": 20.25 }, "geometry": { "type": "Polygon", "coordinates": [ [ [ 117.312824525415834, 42.411034887505977 ], [ 117.312836678484857, 42.411034854342219 ], [ 117.312836633730882, 42.411025848456646 ], [ 117.312842710264519, 42.411025831874298 ], [ 117.312842687887112, 42.411021328931504 ], [ 117.312854840953506, 42.411021295765835 ], [ 117.312854818575232, 42.411016792823048 ], [ 117.312860895107974, 42.411016776239734 ], [ 117.312860850350575, 42.411007770354146 ], [ 117.31286692688245, 42.411007753770505 ], [ 117.312866792607778, 42.410980736113693 ], [ 117.31286071607849, 42.410980752697306 ], [ 117.312860671321175, 42.410971746811676 ], [ 117.312854594792782, 42.410971763394969 ], [ 117.312854617171013, 42.410976266337791 ], [ 117.31284854064215, 42.410976282920757 ], [ 117.312848563019955, 42.410980785863579 ], [ 117.312836409961363, 42.410980819028552 ], [ 117.312836432338287, 42.410985321971388 ], [ 117.312824279278828, 42.410985355135068 ], [ 117.312824301654899, 42.410989858077905 ], [ 117.31281822512473, 42.410989874659265 ], [ 117.31281824750036, 42.410994377602087 ], [ 117.312806094439125, 42.410994410763863 ], [ 117.312806116813888, 42.410998913706699 ], [ 117.312812193344925, 42.41099889712595 ], [ 117.312812282845812, 42.411016908897238 ], [ 117.31281835937861, 42.411016892316162 ], [ 117.312818404129928, 42.411025898201778 ], [ 117.312824480663593, 42.411025881620382 ], [ 117.312824525415834, 42.411034887505977 ] ] ] } },
{ "type": "Feature", "properties": { "crown_id": 731, "tree_id": "731", "top_h_m": 16.918, "H_95_Mean": 16.9692, "DBH": 25.8967, "Carbon_kg": 114.848504, "area_m2": 15.75 }, "geometry": { "type": "Polygon", "coordinates": [ [ [ 117.312672410764165, 42.41099477545832 ], [ 117.312684563825641, 42.41099474231072 ], [ 117.312684541459546, 42.410990239367841 ], [ 117.312690617989844, 42.410990222793558 ], [ 117.312690439057974, 42.410954199250391 ], [ 117.312678286004342, 42.410954232398588 ], [ 117.312678263638759, 42.410949729455673 ], [ 117.31264180448035, 42.41094982889252 ], [ 117.312641849206315, 42.410958834778377 ], [ 117.31263577267903, 42.410958851350067 ], [ 117.312635795041587, 42.410963354292996 ], [ 117.312641871569326, 42.410963337721292 ], [ 117.31264191629532, 42.410972343607142 ], [ 117.312647992823898, 42.410972327035132 ], [ 117.312648015187349, 42.41097682997804 ], [ 117.312654091716368, 42.410976813405703 ], [ 117.31265411408026, 42.410981316348611 ], [ 117.312660190609691, 42.410981299775941 ], [ 117.312660212974023, 42.410985802718841 ], [ 117.312666289503895, 42.410985786145858 ], [ 117.312666311868668, 42.410990289088744 ], [ 117.312672388398965, 42.410990272515441 ], [ 117.312672410764165, 42.41099477545832 ] ] ] } },
{ "type": "Feature", "properties": { "crown_id": 742, "tree_id": "742", "top_h_m": 17.245, "H_95_Mean": 17.1837, "DBH": 27.5272, "Carbon_kg": 130.857291, "area_m2": 19.5 }, "geometry": { "type": "Polygon", "coordinates": [ [ [ 117.312721000641204, 42.410990139917331 ], [ 117.312751383292451, 42.410990057033047 ], [ 117.312751360921609, 42.410985554090182 ], [ 117.312757437451396, 42.410985537512367 ], [ 117.312757347966311, 42.410967525740915 ], [ 117.312751271438245, 42.410967542318723 ], [ 117.312751226696619, 42.410958536432965 ], [ 117.31275730322379, 42.41095851985515 ], [ 117.312757280852566, 42.410954016912285 ], [ 117.312751204325792, 42.410954033490079 ], [ 117.312751181954994, 42.410949530547192 ], [ 117.312739028902328, 42.410949563701834 ], [ 117.312739006532397, 42.410945060758927 ], [ 117.312732930006504, 42.410945077335761 ], [ 117.312732952375995, 42.410949580278661 ], [ 117.312714722796954, 42.410949630007231 ], [ 117.312714745165152, 42.410954132950131 ], [ 117.312708668638365, 42.410954149525679 ], [ 117.312708691006137, 42.410958652468572 ], [ 117.312696537951666, 42.410958685618716 ], [ 117.312696672153194, 42.410985703276076 ], [ 117.312720978272537, 42.410985636974452 ], [ 117.312721000641204, 42.410990139917331 ] ] ] } },
{ "type": "Feature", "properties": { "crown_id": 743, "tree_id": "743", "top_h_m": 17.166, "H_95_Mean": 17.0553, "DBH": 28.2939, "Carbon_kg": 137.694855, "area_m2": 22.0 }, "geometry": { "type": "Polygon", "coordinates": [ [ [ 117.312787842473753, 42.410989957561263 ], [ 117.312812148594531, 42.410989891240312 ], [ 117.312812126219356, 42.410985388297483 ], [ 117.312818202749099, 42.410985371716443 ], [ 117.312818180373455, 42.410980868773606 ], [ 117.312830333432075, 42.410980835610559 ], [ 117.312830311055578, 42.41097633266773 ], [ 117.312842464113302, 42.41097629950341 ], [ 117.312842441735938, 42.410971796560581 ], [ 117.31284851826436, 42.410971779977928 ], [ 117.312848473508808, 42.410962774092262 ], [ 117.312842396981253, 42.410962790674901 ], [ 117.312842329849261, 42.410949281846378 ], [ 117.312830176796751, 42.410949315010676 ], [ 117.312830199173206, 42.410953817953526 ], [ 117.312824122646518, 42.410953834535192 ], [ 117.312824100270504, 42.410949331592334 ], [ 117.312811947217966, 42.4109493647547 ], [ 117.312811924842805, 42.410944861811835 ], [ 117.312805848316955, 42.410944878392534 ], [ 117.312805870691676, 42.410949381335399 ], [ 117.31278156458653, 42.410949447654971 ], [ 117.312781586959517, 42.410953950597843 ], [ 117.312775510432786, 42.410953967176937 ], [ 117.312775555177893, 42.410962973062688 ], [ 117.312769478650281, 42.410962989641455 ], [ 117.312769501022416, 42.410967492584319 ], [ 117.312775577550454, 42.410967476005538 ], [ 117.312775667040754, 42.410985487776962 ], [ 117.312787820100311, 42.410985454618427 ], [ 117.312787842473753, 42.410989957561263 ] ] ] } },
{ "type": "Feature", "properties": { "crown_id": 800, "tree_id": "800", "top_h_m": 17.02, "H_95_Mean": 16.7605, "DBH": 29.8559, "Carbon_kg": 151.871103, "area_m2": 28.0 }, "geometry": { "type": "Polygon", "coordinates": [ [ [ 117.312696515584761, 42.410954182675809 ], [ 117.312702592111577, 42.410954166100908 ], [ 117.312702569744232, 42.410949663158007 ], [ 117.312708646270593, 42.410949646582786 ], [ 117.31270862390285, 42.410945143639864 ], [ 117.312726853480598, 42.410945093912268 ], [ 117.312726831111533, 42.410940590969375 ], [ 117.312738984162465, 42.410940557816026 ], [ 117.312738961792547, 42.410936054873133 ], [ 117.312732885267522, 42.410936071449967 ], [ 117.312732862898045, 42.410931568507053 ], [ 117.312726786373446, 42.41093158508356 ], [ 117.312726764004395, 42.410927082140631 ], [ 117.312732840528568, 42.410927065564145 ], [ 117.312732773420151, 42.410913556735387 ], [ 117.312726696897286, 42.41091357331188 ], [ 117.312726674528264, 42.410909070368938 ], [ 117.312720598005825, 42.410909086945111 ], [ 117.312720553268647, 42.410900081059232 ], [ 117.312678017617557, 42.410900197083343 ], [ 117.312678062348652, 42.410909202969258 ], [ 117.312665909303703, 42.410909236116105 ], [ 117.312665931668363, 42.410913739059069 ], [ 117.312659855145441, 42.410913755632016 ], [ 117.312659899873935, 42.410922761517917 ], [ 117.312665976397724, 42.410922744944962 ], [ 117.312665998762427, 42.410927247887905 ], [ 117.312659922238197, 42.410927264460852 ], [ 117.312659944602458, 42.410931767403802 ], [ 117.312653868077803, 42.410931783976451 ], [ 117.312653890441638, 42.41093628691938 ], [ 117.31265996696672, 42.410936270346753 ], [ 117.3126600116953, 42.41094527623261 ], [ 117.312684317799096, 42.410945209938816 ], [ 117.312684340165134, 42.410949712881738 ], [ 117.312696493217885, 42.410949679732902 ], [ 117.312696515584761, 42.410954182675809 ] ] ] } },
{ "type": "Feature", "properties": { "crown_id": 851, "tree_id": "851", "top_h_m": 18.577, "H_95_Mean": 18.3055, "DBH": 31.2886, "Carbon_kg": 175.85395, "area_m2": 28.5 }, "geometry": { "type": "Polygon", "coordinates": [ [ [ 117.31280578119285, 42.410931369563912 ], [ 117.312811857717406, 42.410931352983233 ], [ 117.312811835342259, 42.410926850040347 ], [ 117.312823988390448, 42.410926816878003 ], [ 117.312824010766462, 42.410931319820882 ], [ 117.312830087290962, 42.410931303239231 ], [ 117.312830064914536, 42.410926800296345 ], [ 117.312836141438623, 42.41092678371438 ], [ 117.312836119061743, 42.410922280771516 ], [ 117.312842195585404, 42.410922264189225 ], [ 117.312842150830832, 42.410913258303474 ], [ 117.31285430387635, 42.410913225137925 ], [ 117.312854259120058, 42.410904219252174 ], [ 117.312848182598159, 42.410904235835091 ], [ 117.312848160220469, 42.410899732892219 ], [ 117.312854236741913, 42.410899716309288 ], [ 117.312854147229402, 42.410881704537729 ], [ 117.312848070709677, 42.410881721120646 ], [ 117.312848025954338, 42.410872715234838 ], [ 117.312841949435466, 42.410872731817413 ], [ 117.312841882303772, 42.410859222988677 ], [ 117.312835805786221, 42.410859239570932 ], [ 117.312835828163031, 42.410863742513854 ], [ 117.312823675127021, 42.410863775677406 ], [ 117.312823697502935, 42.410868278620335 ], [ 117.312811544466058, 42.4108683117826 ], [ 117.312811566841134, 42.410872814725522 ], [ 117.312805490322219, 42.410872831306186 ], [ 117.312805512696869, 42.410877334249101 ], [ 117.312799436177528, 42.410877350829438 ], [ 117.31279950330017, 42.410890859658188 ], [ 117.312793426779535, 42.410890876238213 ], [ 117.312793471527115, 42.410899882124049 ], [ 117.312787395005586, 42.410899898703747 ], [ 117.312787439752327, 42.410908904589569 ], [ 117.312799592797077, 42.410908871429825 ], [ 117.31279968229407, 42.410926883201398 ], [ 117.312805758818158, 42.41092686662104 ], [ 117.31280578119285, 42.410931369563912 ] ] ] } },
{ "type": "Feature", "properties": { "crown_id": 878, "tree_id": "878", "top_h_m": 18.625, "H_95_Mean": 18.3673, "DBH": 30.5304, "Carbon_kg": 167.704827, "area_m2": 25.75 }, "geometry": { "type": "Polygon", "coordinates": [ [ [ 117.312659788052741, 42.410900246803124 ], [ 117.312665864574356, 42.41090023023019 ], [ 117.312665842209697, 42.410895727287219 ], [ 117.312684071773191, 42.410895677566479 ], [ 117.312684049407252, 42.410891174623515 ], [ 117.312690125927958, 42.410891158049289 ], [ 117.312690148294365, 42.41089566099226 ], [ 117.312708377857817, 42.410895611267634 ], [ 117.312708310754715, 42.410882102438777 ], [ 117.312720463794406, 42.410882069287446 ], [ 117.312720419057314, 42.410873063401525 ], [ 117.312714342538328, 42.41087307997735 ], [ 117.312714297802131, 42.410864074091421 ], [ 117.312708221284041, 42.410864090666919 ], [ 117.312708198916368, 42.410859587723934 ], [ 117.312714275434018, 42.410859571148443 ], [ 117.31271423069785, 42.410850565262486 ], [ 117.312696001147444, 42.410850614987986 ], [ 117.31269595641389, 42.410841609102 ], [ 117.312683803382015, 42.410841642250709 ], [ 117.312683825747925, 42.410846145193709 ], [ 117.31267774923154, 42.410846161767587 ], [ 117.312677726866056, 42.410841658824573 ], [ 117.31265949731818, 42.410841708544268 ], [ 117.312659542046532, 42.410850714430289 ], [ 117.312653465529678, 42.410850731002874 ], [ 117.312653554984664, 42.410868742774873 ], [ 117.312659631503237, 42.410868726202274 ], [ 117.312659788052741, 42.410900246803124 ] ] ] } },
{ "type": "Feature", "properties": { "crown_id": 904, "tree_id": "904", "top_h_m": 18.984, "H_95_Mean": 18.6252, "DBH": 35.7394, "Carbon_kg": 232.282501, "area_m2": 46.25 }, "geometry": { "type": "MultiPolygon", "coordinates": [ [ [ [ 117.312769254929279, 42.410917960212579 ], [ 117.31278140797582, 42.410917927054768 ], [ 117.312781385602875, 42.410913424111861 ], [ 117.312775309080052, 42.410913440690933 ], [ 117.312775241962569, 42.41089993186219 ], [ 117.31276916544104, 42.410899948440921 ], [ 117.312769254929279, 42.410917960212579 ] ] ], [ [ [ 117.312775241962569, 42.41089993186219 ], [ 117.312781318484085, 42.410899915283132 ], [ 117.312781296111154, 42.41089541234021 ], [ 117.312787372632243, 42.410895395760839 ], [ 117.312787305512202, 42.410881886932074 ], [ 117.31279338203197, 42.410881870352377 ], [ 117.312793337284447, 42.410872864466519 ], [ 117.312799413803347, 42.410872847886509 ], [ 117.312799391429166, 42.410868344943587 ], [ 117.312805467947612, 42.410868328363257 ], [ 117.312805445572991, 42.410863825420329 ], [ 117.31281152209101, 42.410863808839679 ], [ 117.312811499715949, 42.410859305896736 ], [ 117.31280542319837, 42.410859322477386 ], [ 117.312805356074549, 42.410845813648564 ], [ 117.312811432590834, 42.410845797067928 ], [ 117.312811343090729, 42.410827785296121 ], [ 117.312805266576177, 42.410827801876756 ], [ 117.312805244201613, 42.410823298933785 ], [ 117.312787014659264, 42.410823348673723 ], [ 117.31278703703255, 42.410827851616695 ], [ 117.312780960517983, 42.410827868196051 ], [ 117.312780938145139, 42.410823365253066 ], [ 117.312750555574439, 42.410823448144917 ], [ 117.312750577945124, 42.410827951087924 ], [ 117.312732348401312, 42.41082800081918 ], [ 117.312732370770689, 42.410832503762165 ], [ 117.312726294255654, 42.410832520338609 ], [ 117.312726316624577, 42.410837023281594 ], [ 117.312714163593611, 42.410837056433515 ], [ 117.312714208329766, 42.410846062319507 ], [ 117.312720284846122, 42.410846045743696 ], [ 117.312720307214633, 42.410850548686668 ], [ 117.31272638373143, 42.410850532110544 ], [ 117.31272654031423, 42.410882052711294 ], [ 117.31273261683404, 42.410882036134829 ], [ 117.31273259446462, 42.410877533191865 ], [ 117.312744747503388, 42.410877500037962 ], [ 117.312744769873689, 42.410882002980905 ], [ 117.31275084639347, 42.410881986403474 ], [ 117.312750868764226, 42.41088648934641 ], [ 117.31276302180467, 42.410886456190561 ], [ 117.312763044176293, 42.410890959133489 ], [ 117.312769120696956, 42.410890942555085 ], [ 117.312769143068991, 42.410895445497999 ], [ 117.31277521959008, 42.410895428919268 ], [ 117.312775241962569, 42.41089993186219 ] ] ] ] } }
]
}
