{
"type": "FeatureCollection",
"name": "tile_13_10",
"crs": { "type": "name", "properties": { "name": "urn:ogc:def:crs:OGC:1.3:CRS84" } },
"features": [
{ "type": "Feature", "properties": { "crown_id": 3958, "tree_id": "3960", "top_h_m": 21.028, "H_95_Mean": 20.6417, "DBH": 36.3265, "Carbon_kg": 255.084547, "area_m2": 40.75 }, "geometry": { "type": "Polygon", "coordinates": [ [ [ 117.312384153757719, 42.409234886510248 ], [ 117.312390230118766, 42.409234869952449 ], [ 117.312390207775124, 42.409230367008036 ], [ 117.312396284135701, 42.40923035044991 ], [ 117.312396261791648, 42.409225847505517 ], [ 117.312408414511964, 42.4092258143883 ], [ 117.312408168717909, 42.409176281999734 ], [ 117.312402092362532, 42.409176298558478 ], [ 117.312402002984797, 42.409158286780702 ], [ 117.312395926631154, 42.409158303339119 ], [ 117.312395904287143, 42.40915380039467 ], [ 117.312389827933941, 42.409153816952745 ], [ 117.312389850277512, 42.409158319897202 ], [ 117.312383773923855, 42.409158336454979 ], [ 117.312383818610115, 42.409167342343878 ], [ 117.312371665901068, 42.409167375458459 ], [ 117.312371643558819, 42.409162872513996 ], [ 117.312365567204722, 42.409162889070799 ], [ 117.312365589546545, 42.409167392015256 ], [ 117.312359513192007, 42.40916740857174 ], [ 117.312359490850596, 42.409162905627284 ], [ 117.312353414496499, 42.409162922183427 ], [ 117.312353436837455, 42.40916742512789 ], [ 117.312347360482917, 42.409167441683728 ], [ 117.312347382823447, 42.409171944628199 ], [ 117.312335230113462, 42.4091719777389 ], [ 117.312335341811846, 42.409194492461197 ], [ 117.312341418169026, 42.409194475905991 ], [ 117.312341440509144, 42.409198978850441 ], [ 117.312347516866723, 42.409198962294909 ], [ 117.312347539207295, 42.409203465239358 ], [ 117.312341462849275, 42.409203481794897 ], [ 117.312341507529553, 42.40921248768376 ], [ 117.312335431170652, 42.40921250423898 ], [ 117.312335498189796, 42.409226013072264 ], [ 117.312359803630599, 42.409225946849432 ], [ 117.312359825972052, 42.40923044979386 ], [ 117.312384131414504, 42.409230383565841 ], [ 117.312384153757719, 42.409234886510248 ] ] ] } },
{ "type": "Feature", "properties": { "crown_id": 3999, "tree_id": "4001", "top_h_m": 21.3, "H_95_Mean": 21.0309, "DBH": 34.2973, "Carbon_kg": 229.703902, "area_m2": 31.5 }, "geometry": { "type": "Polygon", "coordinates": [ [ [ 117.312159261414436, 42.409221990089236 ], [ 117.312183566854088, 42.409221923903765 ], [ 117.312183544525254, 42.409217420959287 ], [ 117.312189620884709, 42.409217404412104 ], [ 117.312189553896886, 42.409203895578599 ], [ 117.312195630255033, 42.409203879031118 ], [ 117.312195540936258, 42.409185867253079 ], [ 117.312201617292672, 42.409185850705285 ], [ 117.312201572632461, 42.409176844816244 ], [ 117.312207648987993, 42.40917682826813 ], [ 117.312207604326915, 42.409167822379089 ], [ 117.312201527972263, 42.409167838927189 ], [ 117.312201438651911, 42.409149827149058 ], [ 117.312195362298951, 42.409149843696824 ], [ 117.312195384628609, 42.409154346641373 ], [ 117.312189308275222, 42.409154363188826 ], [ 117.31218933060444, 42.409158866133367 ], [ 117.312183254250627, 42.409158882680508 ], [ 117.312183276579418, 42.40916338562505 ], [ 117.312177200225165, 42.409163402171863 ], [ 117.312177177896814, 42.409158899227322 ], [ 117.312165025189145, 42.409158932319976 ], [ 117.312165047516643, 42.409163435264531 ], [ 117.312158971162361, 42.409163451810379 ], [ 117.312158948835332, 42.40915894886583 ], [ 117.312152872481477, 42.409158965411351 ], [ 117.312152917134711, 42.409167971300455 ], [ 117.312140764425266, 42.409168004390544 ], [ 117.31214083140253, 42.409181513224205 ], [ 117.312134755046529, 42.40918152976878 ], [ 117.312134888998585, 42.409208547435995 ], [ 117.312147041715875, 42.409208514346496 ], [ 117.312147064042122, 42.409213017291009 ], [ 117.312153140401179, 42.409213000745773 ], [ 117.312153162727839, 42.409217503690293 ], [ 117.312159239087322, 42.40921748714473 ], [ 117.312159261414436, 42.409221990089236 ] ] ] } },
{ "type": "Feature", "properties": { "crown_id": 4019, "tree_id": "4021", "top_h_m": 14.091, "H_95_Mean": 13.9096, "DBH": 25.0872, "Carbon_kg": 95.775979, "area_m2": 20.25 }, "geometry": { "type": "Polygon", "coordinates": [ [ [ 117.312280654597117, 42.409194641443584 ], [ 117.31229280731155, 42.409194608338638 ], [ 117.3122927849749, 42.409190105394174 ], [ 117.312298861331669, 42.409190088841221 ], [ 117.312298838994607, 42.409185585896751 ], [ 117.312310991707236, 42.409185552789893 ], [ 117.312310969369307, 42.409181049845422 ], [ 117.312323122081068, 42.409181016737278 ], [ 117.312323144419878, 42.409185519681735 ], [ 117.312329220776178, 42.409185503127169 ], [ 117.312329131419247, 42.409167491349308 ], [ 117.312323055064667, 42.409167507903859 ], [ 117.312323010387118, 42.409158502014904 ], [ 117.31231693403339, 42.409158518569114 ], [ 117.312316889356723, 42.409149512680145 ], [ 117.312322965709555, 42.40914949612592 ], [ 117.31232292103202, 42.409140490236929 ], [ 117.312316844680055, 42.40914050679114 ], [ 117.312316867018396, 42.409145009735639 ], [ 117.312304714313584, 42.4091450428431 ], [ 117.312304669638678, 42.409136036954095 ], [ 117.31229859328711, 42.409136053507339 ], [ 117.312298570950105, 42.409131550562812 ], [ 117.312292494598978, 42.409131567115743 ], [ 117.312292472262428, 42.409127064171216 ], [ 117.312286395911741, 42.409127080723806 ], [ 117.312286418247865, 42.409131583668326 ], [ 117.312280341896738, 42.409131600220611 ], [ 117.312280654597117, 42.409194641443584 ] ] ] } },
{ "type": "Feature", "properties": { "crown_id": 4023, "tree_id": "4025", "top_h_m": 21.87, "H_95_Mean": 21.5584, "DBH": 34.0455, "Carbon_kg": 229.65806, "area_m2": 29.25 }, "geometry": { "type": "Polygon", "coordinates": [ [ [ 117.312262403190999, 42.409190188154099 ], [ 117.312274555904594, 42.4091901550511 ], [ 117.312274287880896, 42.409136119717083 ], [ 117.312256058826165, 42.40913616937101 ], [ 117.312256036492172, 42.409131666426489 ], [ 117.312249960141031, 42.40913168297714 ], [ 117.312249937807508, 42.409127180032606 ], [ 117.312219556053833, 42.40912726278107 ], [ 117.31221960071656, 42.409136268670174 ], [ 117.31221352436495, 42.409136285218899 ], [ 117.31221356902681, 42.40914529110799 ], [ 117.312207492674318, 42.409145307656402 ], [ 117.312207581996404, 42.409163319434569 ], [ 117.312213658350629, 42.409163302886128 ], [ 117.31221372534354, 42.409176811719689 ], [ 117.312225878054591, 42.40917677862187 ], [ 117.312225900386437, 42.409181281566369 ], [ 117.312262358522062, 42.409181182265129 ], [ 117.312262403190999, 42.409190188154099 ] ] ] } },
{ "type": "Feature", "properties": { "crown_id": 4098, "tree_id": "4100", "top_h_m": 22.638, "H_95_Mean": 22.2001, "DBH": 37.0525, "Carbon_kg": 277.141093, "area_m2": 38.5 }, "geometry": { "type": "Polygon", "coordinates": [ [ [ 117.312146773801473, 42.409154479012003 ], [ 117.312183231921864, 42.409154379735952 ], [ 117.312183209593073, 42.40914987679141 ], [ 117.312189285946019, 42.409149860244284 ], [ 117.31218926361683, 42.409145357299728 ], [ 117.312201416321813, 42.409145324204502 ], [ 117.312201393991757, 42.40914082125996 ], [ 117.312207470343822, 42.409140804711868 ], [ 117.312207425682828, 42.40913179882277 ], [ 117.31220134933163, 42.409131815370856 ], [ 117.312201282341491, 42.409118306537167 ], [ 117.312195205991586, 42.409118323084918 ], [ 117.312195116673209, 42.409100311306609 ], [ 117.312189040325038, 42.409100327854041 ], [ 117.31218895100848, 42.409082316075654 ], [ 117.312182874662057, 42.409082332622759 ], [ 117.312182807675995, 42.409068823788921 ], [ 117.312146349605143, 42.409068923064659 ], [ 117.312146394257297, 42.409077928953913 ], [ 117.312140317911272, 42.409077945498758 ], [ 117.312140340236908, 42.409082448443371 ], [ 117.312146416583374, 42.409082431898533 ], [ 117.312146438909465, 42.409086934843153 ], [ 117.312152515256358, 42.409086918298001 ], [ 117.312152582235967, 42.409100427131811 ], [ 117.312146505887767, 42.409100443676998 ], [ 117.312146550540007, 42.409109449566188 ], [ 117.312140474190926, 42.40910946611104 ], [ 117.312140675122293, 42.409149992612306 ], [ 117.312146751475296, 42.409149976067432 ], [ 117.312146773801473, 42.409154479012003 ] ] ] } },
{ "type": "Feature", "properties": { "crown_id": 4119, "tree_id": "4121", "top_h_m": 23.566, "H_95_Mean": 23.2035, "DBH": 36.9148, "Carbon_kg": 282.356033, "area_m2": 35.0 }, "geometry": { "type": "Polygon", "coordinates": [ [ [ 117.312262112843328, 42.409131649875491 ], [ 117.312268189194469, 42.409131633324186 ], [ 117.312268122189977, 42.40911812449059 ], [ 117.312262045840157, 42.40911814104188 ], [ 117.312261911833929, 42.409091123374573 ], [ 117.312255835486695, 42.409091139925529 ], [ 117.312255790818853, 42.409082134036389 ], [ 117.312249714472472, 42.409082150587032 ], [ 117.3122495804717, 42.409055132919505 ], [ 117.312255656815466, 42.409055116368897 ], [ 117.312255634481588, 42.409050613424299 ], [ 117.312249558138262, 42.409050629974907 ], [ 117.312249535804838, 42.409046127030308 ], [ 117.312243459461925, 42.409046143580611 ], [ 117.312243481794923, 42.409050646525209 ], [ 117.312237405451583, 42.409050663075178 ], [ 117.312237427784169, 42.409055166019783 ], [ 117.312231351440374, 42.409055182569439 ], [ 117.312231373772519, 42.409059685514052 ], [ 117.312225297428327, 42.409059702063374 ], [ 117.312225319760017, 42.409064205007979 ], [ 117.312213167070695, 42.409064238105678 ], [ 117.312213189401547, 42.409068741050277 ], [ 117.312188884021111, 42.409068807241844 ], [ 117.312188928679348, 42.409077813131056 ], [ 117.31219500502533, 42.409077796583652 ], [ 117.312195094343636, 42.409095808362025 ], [ 117.312201170691338, 42.409095791814288 ], [ 117.312201260011449, 42.409113803592597 ], [ 117.312207336360913, 42.409113787044518 ], [ 117.312207403352332, 42.409127295878207 ], [ 117.31221347970309, 42.409127279329809 ], [ 117.312213457372167, 42.409122776385246 ], [ 117.312255991824259, 42.409122660537399 ], [ 117.312256014158223, 42.409127163481941 ], [ 117.312262090508938, 42.409127146930956 ], [ 117.312262112843328, 42.409131649875491 ] ] ] } },
{ "type": "Feature", "properties": { "crown_id": 4146, "tree_id": "4148", "top_h_m": 20.829, "H_95_Mean": 20.3337, "DBH": 37.5718, "Carbon_kg": 270.598957, "area_m2": 47.75 }, "geometry": { "type": "Polygon", "coordinates": [ [ [ 117.312280297225342, 42.409122594331556 ], [ 117.312298526276109, 42.409122544673778 ], [ 117.312298503939104, 42.409118041729258 ], [ 117.312304580288895, 42.409118025176028 ], [ 117.312304513276644, 42.409104516342445 ], [ 117.312310589625156, 42.409104499788896 ], [ 117.312310611962999, 42.409109002733423 ], [ 117.312334917358683, 42.409108936516006 ], [ 117.312334895019077, 42.409104433571486 ], [ 117.312340971367547, 42.40910441701633 ], [ 117.312340926687526, 42.409095411127289 ], [ 117.312328773992306, 42.409095444237273 ], [ 117.31232870697491, 42.409081935403655 ], [ 117.312334783321234, 42.409081918848841 ], [ 117.312334760981642, 42.409077415904306 ], [ 117.31234691367338, 42.409077382793697 ], [ 117.312346891332965, 42.409072879849155 ], [ 117.312340814987536, 42.409072896404609 ], [ 117.312340703287688, 42.409050381681851 ], [ 117.312328550601165, 42.409050414791785 ], [ 117.312328528262071, 42.409045911847208 ], [ 117.312316375576387, 42.409045944955849 ], [ 117.312316330899975, 42.409036939066695 ], [ 117.312310254557985, 42.409036955620515 ], [ 117.312310276895758, 42.409041458565113 ], [ 117.31228597152608, 42.409041524777209 ], [ 117.312285993862133, 42.4090460277218 ], [ 117.312261688490622, 42.409046093928758 ], [ 117.312261755493552, 42.409059602762539 ], [ 117.312255679149359, 42.409059619313489 ], [ 117.312255768484945, 42.409077631091819 ], [ 117.312261844830886, 42.40907761454087 ], [ 117.312261889499553, 42.409086620430003 ], [ 117.31226796584636, 42.409086603878727 ], [ 117.31226809985516, 42.409113621546048 ], [ 117.312274176204582, 42.409113604994431 ], [ 117.312274198539825, 42.409118107938966 ], [ 117.312280274889659, 42.409118091387022 ], [ 117.312280297225342, 42.409122594331556 ] ] ] } },
{ "type": "Feature", "properties": { "crown_id": 4163, "tree_id": "4165", "top_h_m": 21.328, "H_95_Mean": 21.0955, "DBH": 29.6289, "Carbon_kg": 171.349589, "area_m2": 17.75 }, "geometry": { "type": "Polygon", "coordinates": [ [ [ 117.312158479968488, 42.40906438702941 ], [ 117.312207090726034, 42.409064254654048 ], [ 117.312207068395622, 42.409059751709442 ], [ 117.312219221084092, 42.40905971861239 ], [ 117.312219198752814, 42.40905521566777 ], [ 117.312225275096608, 42.409055199118768 ], [ 117.31222525276489, 42.409050696174148 ], [ 117.312231329108243, 42.409050679624826 ], [ 117.312231306776098, 42.409046176680228 ], [ 117.312237383119026, 42.409046160130565 ], [ 117.31223736078644, 42.409041657185966 ], [ 117.312231284443982, 42.409041673735601 ], [ 117.312231262111851, 42.409037170790988 ], [ 117.312213033085712, 42.40903722043798 ], [ 117.312213010754888, 42.409032717493353 ], [ 117.312206934413254, 42.409032734041709 ], [ 117.312206912082885, 42.409028231097075 ], [ 117.312188683059262, 42.409028280740195 ], [ 117.312188705388365, 42.409032783684829 ], [ 117.312182629046703, 42.409032800231898 ], [ 117.312182651375338, 42.40903730317654 ], [ 117.31216442234907, 42.409037352815801 ], [ 117.312164489331124, 42.409050861649725 ], [ 117.312158412987714, 42.409050878195508 ], [ 117.312158479968488, 42.40906438702941 ] ] ] } }
]
}
