{
"type": "FeatureCollection",
"name": "tile_21_4",
"crs": { "type": "name", "properties": { "name": "urn:ogc:def:crs:OGC:1.3:CRS84" } },
"features": [
{ "type": "Feature", "properties": { "crown_id": 6217, "tree_id": "6221", "top_h_m": 20.531, "H_95_Mean": 20.3363, "DBH": 30.7742, "Carbon_kg": 180.994718, "area_m2": 22.0 }, "geometry": { "type": "Polygon", "coordinates": [ [ [ 117.310857881840221, 42.407784564422371 ], [ 117.310888262949874, 42.407784482036867 ], [ 117.310888085069308, 42.407748458467296 ], [ 117.310900237506189, 42.407748425510874 ], [ 117.310900148562538, 42.407730413726036 ], [ 117.310881919912447, 42.407730463160142 ], [ 117.310881942147034, 42.407734966106368 ], [ 117.310869789712726, 42.407734999060828 ], [ 117.310869811946489, 42.407739502007061 ], [ 117.310863735728873, 42.407739518483822 ], [ 117.310863757962196, 42.407744021430034 ], [ 117.310845529308082, 42.407744070858378 ], [ 117.310845573772085, 42.407753076750836 ], [ 117.310839497553161, 42.407753093226304 ], [ 117.310839519784764, 42.40775759617253 ], [ 117.310833443565386, 42.407757612647679 ], [ 117.310833465796549, 42.407762115593911 ], [ 117.310821313356939, 42.407762148543256 ], [ 117.310821335587235, 42.407766651489474 ], [ 117.310833488027711, 42.407766618540123 ], [ 117.310833510258874, 42.407771121486341 ], [ 117.310839586479545, 42.407771105011179 ], [ 117.310839630942723, 42.407780110903595 ], [ 117.310857859607296, 42.407780061476167 ], [ 117.310857881840221, 42.407784564422371 ] ] ] } },
{ "type": "Feature", "properties": { "crown_id": 6261, "tree_id": "6265", "top_h_m": 19.694, "H_95_Mean": 19.4013, "DBH": 34.5844, "Carbon_kg": 222.714243, "area_m2": 37.75 }, "geometry": { "type": "Polygon", "coordinates": [ [ [ 117.310815214907308, 42.407757662071212 ], [ 117.31082736734605, 42.407757629122521 ], [ 117.310827345115314, 42.407753126176281 ], [ 117.310833421334252, 42.40775310970146 ], [ 117.310833399103117, 42.40774860675522 ], [ 117.3108394753216, 42.407748590280072 ], [ 117.310839430858465, 42.407739584387606 ], [ 117.310857659511285, 42.407739534960236 ], [ 117.310857637278417, 42.407735032014017 ], [ 117.310863713495564, 42.407735015537583 ], [ 117.310863691262298, 42.407730512591357 ], [ 117.310875843695726, 42.407730479637536 ], [ 117.310875821461551, 42.407725976691303 ], [ 117.310894050110377, 42.407725927258156 ], [ 117.310894027874951, 42.40772142431193 ], [ 117.310900104090749, 42.407721407833577 ], [ 117.310900081854882, 42.407716904887351 ], [ 117.310894005639483, 42.407716921365697 ], [ 117.310893983404029, 42.407712418419472 ], [ 117.310900059618987, 42.407712401941119 ], [ 117.310899992911388, 42.407698893102399 ], [ 117.310893916697708, 42.407698909580745 ], [ 117.31089387222687, 42.407689903688244 ], [ 117.310881719801287, 42.407689936643955 ], [ 117.310881697566742, 42.407685433697694 ], [ 117.310869545141983, 42.407685466652097 ], [ 117.310869522908334, 42.407680963705836 ], [ 117.310863446696388, 42.407680980182555 ], [ 117.310863491162863, 42.407689986075098 ], [ 117.310857414950064, 42.407690002551497 ], [ 117.310857437182847, 42.407694505497766 ], [ 117.31083313232979, 42.407694571400171 ], [ 117.310833154560882, 42.407699074346439 ], [ 117.310808849705992, 42.4076991402437 ], [ 117.310809094229128, 42.407748672652609 ], [ 117.310815170447626, 42.40774865617874 ], [ 117.310815214907308, 42.407757662071212 ] ] ] } },
{ "type": "Feature", "properties": { "crown_id": 6275, "tree_id": "6279", "top_h_m": 21.897, "H_95_Mean": 21.4779, "DBH": 41.0699, "Carbon_kg": 334.43404, "area_m2": 61.0 }, "geometry": { "type": "Polygon", "coordinates": [ [ [ 117.310748354268824, 42.407753340319765 ], [ 117.310760506706799, 42.407753307378151 ], [ 117.31076048448088, 42.40774880443189 ], [ 117.310784789355026, 42.407748738544832 ], [ 117.310784811582693, 42.407753241491072 ], [ 117.310796964020625, 42.4077532085456 ], [ 117.310796941792091, 42.40774870559936 ], [ 117.310803018010589, 42.407748689126144 ], [ 117.310802684576657, 42.407681144932049 ], [ 117.310796608364669, 42.407681161405222 ], [ 117.31079658613622, 42.407676658458925 ], [ 117.310790509924644, 42.407676674931771 ], [ 117.310790487696636, 42.407672171985453 ], [ 117.310784411485486, 42.407672188457987 ], [ 117.310784389257904, 42.407667685511676 ], [ 117.310778313047223, 42.407667701983883 ], [ 117.310778224138701, 42.407649690198568 ], [ 117.310747843093765, 42.407649772554706 ], [ 117.310747909768622, 42.407663281393731 ], [ 117.310741833558311, 42.407663297864012 ], [ 117.310741989130094, 42.407694818488295 ], [ 117.310735912916755, 42.407694834958264 ], [ 117.310735957365011, 42.407703840850893 ], [ 117.310729881150777, 42.407703857320534 ], [ 117.310729925598196, 42.407712863213156 ], [ 117.31071777316798, 42.407712896151494 ], [ 117.310717795390843, 42.407717399097798 ], [ 117.310711719175288, 42.407717415566481 ], [ 117.310711808064966, 42.407735427351703 ], [ 117.31070573184769, 42.40773544382008 ], [ 117.310705776291684, 42.407744449712666 ], [ 117.310724004946167, 42.407744400306548 ], [ 117.310724027169456, 42.407748903252838 ], [ 117.310748332043758, 42.407748837373497 ], [ 117.310748354268824, 42.407753340319765 ] ] ] } },
{ "type": "Feature", "properties": { "crown_id": 6286, "tree_id": "6290", "top_h_m": 21.17, "H_95_Mean": 20.9914, "DBH": 33.6926, "Carbon_kg": 221.368078, "area_m2": 29.5 }, "geometry": { "type": "Polygon", "coordinates": [ [ [ 117.310699544522635, 42.40771294555659 ], [ 117.310711696952879, 42.407712912620184 ], [ 117.31071167473047, 42.407708409673859 ], [ 117.310723827159819, 42.407708376736174 ], [ 117.310723782713282, 42.407699370843538 ], [ 117.310729858927075, 42.407699354374216 ], [ 117.310729814479714, 42.407690348481573 ], [ 117.310735890692627, 42.407690332011938 ], [ 117.310735735123899, 42.407658811387606 ], [ 117.310741811333784, 42.407658794917673 ], [ 117.310741766884775, 42.407649789024973 ], [ 117.310705309630634, 42.407649887839774 ], [ 117.310705265186826, 42.407640881947032 ], [ 117.31069918897866, 42.407640898415039 ], [ 117.310699211200131, 42.407645401361407 ], [ 117.310680982574283, 42.407645450763496 ], [ 117.310681049234788, 42.407658959602621 ], [ 117.310674973024859, 42.407658976069335 ], [ 117.310675039684085, 42.407672484908439 ], [ 117.310681115895321, 42.407672468441696 ], [ 117.310681204776117, 42.40769048022711 ], [ 117.310687280989086, 42.407690463760041 ], [ 117.31068734765104, 42.407703972599052 ], [ 117.310693423865317, 42.40770395613167 ], [ 117.310693446086404, 42.407708459077988 ], [ 117.310699522301093, 42.407708442610264 ], [ 117.310699544522635, 42.40771294555659 ] ] ] } },
{ "type": "Feature", "properties": { "crown_id": 6328, "tree_id": "6333", "top_h_m": 18.744, "H_95_Mean": 18.1019, "DBH": 37.4969, "Carbon_kg": 251.602686, "area_m2": 58.75 }, "geometry": { "type": "Polygon", "coordinates": [ [ [ 117.310808827476663, 42.407694637297418 ], [ 117.310827056116523, 42.407694587874971 ], [ 117.310827033885872, 42.407690084928689 ], [ 117.310851338737223, 42.407690019027577 ], [ 117.310851316504852, 42.407685516081308 ], [ 117.310857392717239, 42.407685499605229 ], [ 117.310857348251645, 42.407676493712678 ], [ 117.310875576886161, 42.407676444282522 ], [ 117.31087559912028, 42.407680947228798 ], [ 117.310881675332197, 42.407680930751425 ], [ 117.310881653097667, 42.407676427805164 ], [ 117.310893805520635, 42.407676394849474 ], [ 117.310893783285252, 42.407671891903199 ], [ 117.310905935707325, 42.407671858946223 ], [ 117.310905913471075, 42.407667355999976 ], [ 117.310899837260465, 42.407667372478606 ], [ 117.310899815024641, 42.407662869532345 ], [ 117.310893738814457, 42.407662886010669 ], [ 117.310893716579073, 42.40765838306438 ], [ 117.310887640369316, 42.407658399542385 ], [ 117.310887618134373, 42.407653896596102 ], [ 117.31089369434369, 42.407653880118104 ], [ 117.310893649872938, 42.407644874225539 ], [ 117.310899726081374, 42.407644857747229 ], [ 117.310899659374002, 42.407631348908346 ], [ 117.31090573558113, 42.407631332429723 ], [ 117.310905713344908, 42.407626829483426 ], [ 117.310899637138206, 42.407626845962049 ], [ 117.310899614902439, 42.407622343015746 ], [ 117.310875310077321, 42.407622408927004 ], [ 117.310875332311383, 42.407626911873322 ], [ 117.310826722657438, 42.407627043680385 ], [ 117.310826744888004, 42.407631546626718 ], [ 117.310814592473619, 42.407631579575273 ], [ 117.310814570243906, 42.407627076628948 ], [ 117.310772036796379, 42.407627191938708 ], [ 117.310772103476381, 42.407640700777762 ], [ 117.310778179684476, 42.407640684305889 ], [ 117.310778201911589, 42.407645187252236 ], [ 117.310784278120124, 42.407645170780036 ], [ 117.310784367030365, 42.407663182565351 ], [ 117.31079044324062, 42.407663166092838 ], [ 117.310790465468628, 42.407667669039149 ], [ 117.310796541679323, 42.407667652566303 ], [ 117.310796563907758, 42.407672155512614 ], [ 117.310802640118894, 42.407672139039441 ], [ 117.310802662347783, 42.407676641985745 ], [ 117.310808738559345, 42.407676625512252 ], [ 117.310808827476663, 42.407694637297418 ] ] ] } },
{ "type": "Feature", "properties": { "crown_id": 6359, "tree_id": "6364", "top_h_m": 12.272, "H_95_Mean": 12.1368, "DBH": 21.5206, "Carbon_kg": 64.864751, "area_m2": 14.5 }, "geometry": { "type": "Polygon", "coordinates": [ [ [ 117.310711363617344, 42.407645368425079 ], [ 117.310766049494504, 42.407645220195647 ], [ 117.310765982815795, 42.407631711356601 ], [ 117.310759906608538, 42.40763172782782 ], [ 117.310759817705417, 42.407613716042363 ], [ 117.310753741499894, 42.407613732513255 ], [ 117.310753697049222, 42.407604726620498 ], [ 117.31074762084458, 42.407604743091049 ], [ 117.310747665294372, 42.407613748983806 ], [ 117.310723360472252, 42.407613814862849 ], [ 117.3107233826954, 42.407618317809231 ], [ 117.310717306489437, 42.407618334278183 ], [ 117.310717328712144, 42.407622837224558 ], [ 117.310711252505726, 42.407622853693198 ], [ 117.310711363617344, 42.407645368425079 ] ] ] } }
]
}
