{
"type": "FeatureCollection",
"name": "tile_24_20",
"crs": { "type": "name", "properties": { "name": "urn:ogc:def:crs:OGC:1.3:CRS84" } },
"features": [
{ "type": "Feature", "properties": { "crown_id": 6977, "tree_id": "6982", "top_h_m": 24.062, "H_95_Mean": 24.2226, "DBH": 26.5476, "Carbon_kg": 149.028632, "area_m2": 9.0 }, "geometry": { "type": "Polygon", "coordinates": [ [ [ 117.314762280097185, 42.407251561999857 ], [ 117.314774432433666, 42.407251528633061 ], [ 117.314774409921057, 42.407247025688129 ], [ 117.31478048608885, 42.407247009004266 ], [ 117.314780463575815, 42.407242506059326 ], [ 117.314786539743153, 42.407242489375136 ], [ 117.314786427175875, 42.407219974650431 ], [ 117.314798579506217, 42.407219941281106 ], [ 117.314798511963303, 42.407206432446252 ], [ 117.314780283471691, 42.407206482499738 ], [ 117.314780305984684, 42.407210985444685 ], [ 117.314774229820372, 42.407211002128555 ], [ 117.314774274845504, 42.407220008018463 ], [ 117.31476212251512, 42.407220041385216 ], [ 117.314762280097185, 42.407251561999857 ] ] ] } },
{ "type": "Feature", "properties": { "crown_id": 6991, "tree_id": "6996", "top_h_m": 25.015, "H_95_Mean": 24.7528, "DBH": 39.3209, "Carbon_kg": 333.173528, "area_m2": 39.75 }, "geometry": { "type": "Polygon", "coordinates": [ [ [ 117.314744006571573, 42.407242606157709 ], [ 117.314756158906349, 42.407242572792867 ], [ 117.31475602383864, 42.407215555123145 ], [ 117.314768176168187, 42.407215521757038 ], [ 117.314768131143921, 42.407206515867109 ], [ 117.314774207307792, 42.40720649918358 ], [ 117.31477418479524, 42.407201996238605 ], [ 117.314798489449018, 42.407201929501291 ], [ 117.314798399391861, 42.407183917721433 ], [ 117.314780170906772, 42.40718396777487 ], [ 117.314780193419736, 42.407188470719845 ], [ 117.314743736446815, 42.407188570818043 ], [ 117.314743691426088, 42.40717956492805 ], [ 117.314737615264775, 42.407179581609945 ], [ 117.314737592754838, 42.407175078664942 ], [ 117.314731516593966, 42.407175095346524 ], [ 117.314731494084498, 42.407170592401506 ], [ 117.314719341763592, 42.40717062576369 ], [ 117.314719274237788, 42.407157116928616 ], [ 117.314707121919454, 42.4071571502895 ], [ 117.31470723445814, 42.407179665014631 ], [ 117.314701158296813, 42.407179681694593 ], [ 117.314701270833467, 42.407202196419647 ], [ 117.314695194669937, 42.40720221309931 ], [ 117.314695284697606, 42.407220224879296 ], [ 117.314701360862855, 42.407220208199618 ], [ 117.314701405877599, 42.40722921408959 ], [ 117.314707482043715, 42.407229197409599 ], [ 117.314707504551507, 42.407233700354574 ], [ 117.314731809217676, 42.40723363363135 ], [ 117.314731831727215, 42.407238136576318 ], [ 117.314743984061153, 42.407238103212755 ], [ 117.314744006571573, 42.407242606157709 ] ] ] } },
{ "type": "Feature", "properties": { "crown_id": 7019, "tree_id": "7024", "top_h_m": 24.095, "H_95_Mean": 23.9547, "DBH": 34.0012, "Carbon_kg": 243.789841, "area_m2": 24.0 }, "geometry": { "type": "Polygon", "coordinates": [ [ [ 117.314561631558092, 42.407225094695605 ], [ 117.314592012387038, 42.407225011329452 ], [ 117.314591967387955, 42.407216005439373 ], [ 117.314598043552849, 42.407215988765188 ], [ 117.314598021052902, 42.407211485820149 ], [ 117.314610173381823, 42.407211452470804 ], [ 117.314610150880995, 42.407206949525772 ], [ 117.314622303209035, 42.407206916175141 ], [ 117.314622258205659, 42.407197910285063 ], [ 117.314610105879353, 42.40719794363568 ], [ 117.314609948373757, 42.407166423020286 ], [ 117.314579567573105, 42.4071665063911 ], [ 117.314579590071745, 42.407171009336182 ], [ 117.314573513911142, 42.407171026009379 ], [ 117.314573536409327, 42.407175528954461 ], [ 117.314567460248327, 42.407175545627339 ], [ 117.314567482746057, 42.407180048572421 ], [ 117.314561406584602, 42.407180065244994 ], [ 117.31456145157928, 42.407189071135136 ], [ 117.31455537541693, 42.407189087807382 ], [ 117.314555420410727, 42.407198093697524 ], [ 117.314561496573944, 42.407198077025271 ], [ 117.314561631558092, 42.407225094695605 ] ] ] } },
{ "type": "Feature", "properties": { "crown_id": 7034, "tree_id": "7039", "top_h_m": 25.953, "H_95_Mean": 25.5984, "DBH": 40.8831, "Carbon_kg": 367.622285, "area_m2": 43.5 }, "geometry": { "type": "Polygon", "coordinates": [ [ [ 117.314634523044774, 42.407220391658285 ], [ 117.314640599210065, 42.407220374981833 ], [ 117.314640576707063, 42.407215872036829 ], [ 117.314664881366511, 42.407215805327816 ], [ 117.314664858861747, 42.407211302382791 ], [ 117.314670935026157, 42.407211285704747 ], [ 117.314670912520981, 42.407206782759744 ], [ 117.314689141012892, 42.407206732723651 ], [ 117.314689095999952, 42.407197726833637 ], [ 117.314695172163042, 42.4071977101543 ], [ 117.314695059628605, 42.407175195429204 ], [ 117.314701135789505, 42.407175178749569 ], [ 117.314701068267595, 42.407161669914487 ], [ 117.314694992108002, 42.407161686594115 ], [ 117.314694969601149, 42.407157183649076 ], [ 117.314664588805201, 42.407157267042422 ], [ 117.314664566300536, 42.407152764097368 ], [ 117.31463418550662, 42.407152847482635 ], [ 117.314634140501653, 42.407143841592493 ], [ 117.314621988185777, 42.407143874944346 ], [ 117.314621965684168, 42.40713937199925 ], [ 117.31461588952665, 42.407139388674693 ], [ 117.314615912027861, 42.407143891619782 ], [ 117.314609835869902, 42.407143908294898 ], [ 117.31460988087143, 42.407152914185062 ], [ 117.314597728553792, 42.407152947534328 ], [ 117.314597773553615, 42.407161953424506 ], [ 117.314616002032636, 42.40716190340008 ], [ 117.314616159541274, 42.407193424015482 ], [ 117.314628311866684, 42.407193390664226 ], [ 117.314628401875183, 42.407211402444368 ], [ 117.314634478039622, 42.407211385768242 ], [ 117.314634523044774, 42.407220391658285 ] ] ] } },
{ "type": "Feature", "properties": { "crown_id": 7063, "tree_id": "7068", "top_h_m": 23.015, "H_95_Mean": 23.0053, "DBH": 28.6267, "Carbon_kg": 168.276904, "area_m2": 13.25 }, "geometry": { "type": "Polygon", "coordinates": [ [ [ 117.314749790098162, 42.407184051190825 ], [ 117.314774094745061, 42.407183984458698 ], [ 117.314774072232538, 42.407179481513722 ], [ 117.314792300716348, 42.407179431461252 ], [ 117.314792255688687, 42.40717042557128 ], [ 117.314786179528298, 42.407170442255762 ], [ 117.314786111988141, 42.407156933420772 ], [ 117.314773959669964, 42.407156966788733 ], [ 117.314773937157454, 42.40715246384373 ], [ 117.314737480205324, 42.40715256393986 ], [ 117.314737502715218, 42.407157066884885 ], [ 117.314725350396941, 42.407157100247701 ], [ 117.314725395414996, 42.407166106137751 ], [ 117.314737547735007, 42.407166072774928 ], [ 117.314737570244944, 42.407170575719931 ], [ 117.314743646405375, 42.407170559038036 ], [ 117.314743668915725, 42.407175061983047 ], [ 117.314749745076597, 42.407175045300832 ], [ 117.314749790098162, 42.407184051190825 ] ] ] } },
{ "type": "Feature", "properties": { "crown_id": 7112, "tree_id": "7117", "top_h_m": 21.972, "H_95_Mean": 21.9, "DBH": 27.8328, "Carbon_kg": 154.439677, "area_m2": 13.0 }, "geometry": { "type": "Polygon", "coordinates": [ [ [ 117.314713175570475, 42.407152630664186 ], [ 117.314731404046611, 42.407152580621428 ], [ 117.314731381537158, 42.407148077676403 ], [ 117.31477391464496, 42.407147960898719 ], [ 117.314773869619984, 42.407138955008683 ], [ 117.314767793462593, 42.407138971692163 ], [ 117.314767680902435, 42.407116456967017 ], [ 117.314755528592002, 42.407116490333003 ], [ 117.314755551103161, 42.407120993278035 ], [ 117.314743398791876, 42.407121026642734 ], [ 117.314743421302154, 42.40712552958778 ], [ 117.314719116677779, 42.407125596313328 ], [ 117.314719206712027, 42.40714360809352 ], [ 117.314713130554182, 42.407143624774108 ], [ 117.314713175570475, 42.407152630664186 ] ] ] } },
{ "type": "Feature", "properties": { "crown_id": 7137, "tree_id": "7142", "top_h_m": 21.841, "H_95_Mean": 21.4171, "DBH": 32.9254, "Carbon_kg": 213.850466, "area_m2": 26.0 }, "geometry": { "type": "Polygon", "coordinates": [ [ [ 117.314670642459291, 42.407152747419346 ], [ 117.314707099411734, 42.407152647344461 ], [ 117.314707031888616, 42.407139138509336 ], [ 117.314713108046021, 42.407139121829061 ], [ 117.314713040521653, 42.407125612993909 ], [ 117.314706964365541, 42.407125629674162 ], [ 117.31470694185785, 42.407121126729109 ], [ 117.314670484923624, 42.407121226803888 ], [ 117.314670462418547, 42.407116723858806 ], [ 117.3146522339527, 42.407116773891836 ], [ 117.31465221144893, 42.407112270946747 ], [ 117.314621830674525, 42.407112354328675 ], [ 117.31462187567773, 42.407121360218888 ], [ 117.314615799521974, 42.407121376894317 ], [ 117.314615822023143, 42.407125879839406 ], [ 117.314609745866932, 42.407125896514515 ], [ 117.314609790868417, 42.407134902404714 ], [ 117.314628019339608, 42.407134852378412 ], [ 117.314628041841658, 42.407139355323501 ], [ 117.314640194156638, 42.407139321971009 ], [ 117.314640239162472, 42.407148327861158 ], [ 117.314670619954171, 42.407148244474293 ], [ 117.314670642459291, 42.407152747419346 ] ] ] } },
{ "type": "Feature", "properties": { "crown_id": 7148, "tree_id": "7153", "top_h_m": 21.581, "H_95_Mean": 21.4747, "DBH": 26.4145, "Carbon_kg": 137.385392, "area_m2": 11.0 }, "geometry": { "type": "Polygon", "coordinates": [ [ [ 117.314780013316124, 42.407152447159902 ], [ 117.314792165633435, 42.407152413791309 ], [ 117.314792143119647, 42.407147910846305 ], [ 117.314798219277861, 42.407147894161525 ], [ 117.314798196763633, 42.407143391216508 ], [ 117.314804272921407, 42.407143374531415 ], [ 117.314804250406738, 42.407138871586412 ], [ 117.314810326564086, 42.407138854900992 ], [ 117.314810236503774, 42.407120843120943 ], [ 117.31480416034816, 42.407120859806348 ], [ 117.314804137833534, 42.407116356861344 ], [ 117.31479806167836, 42.40711637354643 ], [ 117.314798039164174, 42.407111870601398 ], [ 117.314791963009441, 42.407111887286156 ], [ 117.314791940495667, 42.407107384341117 ], [ 117.314773712032704, 42.407107434393453 ], [ 117.314773847107489, 42.407134452063666 ], [ 117.31477992326441, 42.407134435379852 ], [ 117.314780013316124, 42.407152447159902 ] ] ] } },
{ "type": "Feature", "properties": { "crown_id": 7175, "tree_id": "7180", "top_h_m": 24.117, "H_95_Mean": 23.6739, "DBH": 33.4446, "Carbon_kg": 234.174319, "area_m2": 23.0 }, "geometry": { "type": "Polygon", "coordinates": [ [ [ 117.314713018013535, 42.407121110048848 ], [ 117.314737322636219, 42.407121043324608 ], [ 117.314737300126353, 42.407116540379555 ], [ 117.314749452436814, 42.407116507015509 ], [ 117.314749429926096, 42.407112004070456 ], [ 117.314767658390423, 42.407111954021971 ], [ 117.314767523318395, 42.407084936351644 ], [ 117.314761447166219, 42.407084953034783 ], [ 117.314761312097019, 42.407057935364307 ], [ 117.314749159797898, 42.407057968729582 ], [ 117.314749204819208, 42.407066974619752 ], [ 117.314743128668766, 42.407066991301917 ], [ 117.314743151179002, 42.407071494247006 ], [ 117.314718846575445, 42.407071560972433 ], [ 117.314718959117982, 42.40709407569787 ], [ 117.314706806811856, 42.407094109058669 ], [ 117.314706851827154, 42.407103114948839 ], [ 117.31471292798112, 42.407103098268578 ], [ 117.314713018013535, 42.407121110048848 ] ] ] } },
{ "type": "Feature", "properties": { "crown_id": 7201, "tree_id": "7206", "top_h_m": 25.187, "H_95_Mean": 24.6941, "DBH": 38.8899, "Carbon_kg": 325.39676, "area_m2": 38.25 }, "geometry": { "type": "Polygon", "coordinates": [ [ [ 117.314676538573835, 42.407116707180485 ], [ 117.314706919350158, 42.407116623784049 ], [ 117.314706874334831, 42.407107617893899 ], [ 117.314700798180439, 42.407107634573833 ], [ 117.314700708151534, 42.407089622793492 ], [ 117.314712860456837, 42.40708958943334 ], [ 117.314712770424549, 42.407071577652978 ], [ 117.314700618122757, 42.407071611013109 ], [ 117.314700595615548, 42.40706710806802 ], [ 117.314694519465078, 42.407067124747591 ], [ 117.314694451944831, 42.407053615912226 ], [ 117.314682299646464, 42.407053649270424 ], [ 117.314682277140605, 42.407049146325292 ], [ 117.31467620099184, 42.407049163003897 ], [ 117.314676178486408, 42.407044660058759 ], [ 117.314657950041422, 42.407044710092634 ], [ 117.314657995049686, 42.407053715982912 ], [ 117.314651918900466, 42.407053732660231 ], [ 117.314651941404165, 42.407058235605376 ], [ 117.314645865254505, 42.407058252282376 ], [ 117.314645910261035, 42.407067258172631 ], [ 117.314639834110523, 42.407067274849332 ], [ 117.314639856613383, 42.407071777794457 ], [ 117.314633780462401, 42.407071794470816 ], [ 117.314633847969645, 42.407085303306204 ], [ 117.31463992412192, 42.407085286629837 ], [ 117.31463994662478, 42.407089789574947 ], [ 117.314627794319364, 42.407089822927368 ], [ 117.314627861825386, 42.40710333176272 ], [ 117.314621785671363, 42.407103348438461 ], [ 117.314621808172944, 42.407107851383572 ], [ 117.314658265099595, 42.407107751324297 ], [ 117.314658287603791, 42.407112254269393 ], [ 117.314676516068332, 42.407112204235411 ], [ 117.314676538573835, 42.407116707180485 ] ] ] } },
{ "type": "Feature", "properties": { "crown_id": 7214, "tree_id": "7219", "top_h_m": 24.443, "H_95_Mean": 23.9627, "DBH": 37.199, "Carbon_kg": 292.267213, "area_m2": 34.0 }, "geometry": { "type": "Polygon", "coordinates": [ [ [ 117.314585441242087, 42.407125963211733 ], [ 117.314591517398298, 42.40712594653791 ], [ 117.314591494898877, 42.407121443592786 ], [ 117.314597571054662, 42.40712142691865 ], [ 117.314597548554786, 42.407116923973547 ], [ 117.314603624710131, 42.407116907299084 ], [ 117.314603602209843, 42.407112404353974 ], [ 117.314615754519636, 42.407112371004104 ], [ 117.314615664515074, 42.407094359223642 ], [ 117.314621740668215, 42.407094342548234 ], [ 117.314621718166663, 42.407089839603096 ], [ 117.314597413555759, 42.407089906302794 ], [ 117.314597368556122, 42.407080900412531 ], [ 117.314585216252368, 42.407080933760447 ], [ 117.314585171254492, 42.40707192787012 ], [ 117.314579095103468, 42.407071944543596 ], [ 117.314579072604985, 42.407067441598436 ], [ 117.314572996454388, 42.407067458271584 ], [ 117.314572951458288, 42.407058452381243 ], [ 117.314566875308572, 42.407058469054057 ], [ 117.314566852810955, 42.407053966108876 ], [ 117.314572928960246, 42.407053949436076 ], [ 117.314572883964146, 42.407044943545721 ], [ 117.314548579370481, 42.407045010235016 ], [ 117.314548601866775, 42.407049513180198 ], [ 117.314542525717911, 42.407049529851719 ], [ 117.31454263819731, 42.407072044577617 ], [ 117.314536562046257, 42.407072061248833 ], [ 117.314536584541699, 42.407076564194014 ], [ 117.31453050839022, 42.407076580864903 ], [ 117.314530575875338, 42.407090089700404 ], [ 117.314524499722523, 42.40709010637098 ], [ 117.314524522217141, 42.407094609316154 ], [ 117.314542750676836, 42.407094559303445 ], [ 117.314542795668686, 42.407103565193744 ], [ 117.314548871822765, 42.407103548522194 ], [ 117.314548894319131, 42.407108051467333 ], [ 117.314554970473637, 42.407108034795456 ], [ 117.314554992970443, 42.407112537740602 ], [ 117.3145792975902, 42.407112471049871 ], [ 117.314579320088725, 42.407116973994988 ], [ 117.314585396244112, 42.407116957321492 ], [ 117.314585441242087, 42.407125963211733 ] ] ] } },
{ "type": "Feature", "properties": { "crown_id": 7242, "tree_id": "7248", "top_h_m": 24.702, "H_95_Mean": 24.6395, "DBH": 31.0367, "Carbon_kg": 206.255078, "area_m2": 16.0 }, "geometry": { "type": "Polygon", "coordinates": [ [ [ 117.314603467208229, 42.407085386683228 ], [ 117.314627771817371, 42.407085319982244 ], [ 117.314627681809455, 42.407067308201725 ], [ 117.314633757959996, 42.407067291525685 ], [ 117.314633735457576, 42.407062788580561 ], [ 117.314639811607691, 42.407062771904187 ], [ 117.314639766602028, 42.407053766013902 ], [ 117.314645842751247, 42.40705374933723 ], [ 117.314645820247975, 42.407049246392084 ], [ 117.314651896396768, 42.407049229715099 ], [ 117.314651851389399, 42.407040223824794 ], [ 117.314639699093576, 42.407040257178451 ], [ 117.314639721596393, 42.407044760123604 ], [ 117.314633645448026, 42.407044776799957 ], [ 117.314633667950403, 42.40704927974511 ], [ 117.314578982611039, 42.407049429817768 ], [ 117.314579050106474, 42.407062938653283 ], [ 117.314585126256645, 42.407062921979815 ], [ 117.314585148755555, 42.407067424924982 ], [ 117.314591224906124, 42.407067408251194 ], [ 117.314591269904867, 42.4070764141415 ], [ 117.314603422207725, 42.407076380792958 ], [ 117.314603467208229, 42.407085386683228 ] ] ] } },
{ "type": "Feature", "properties": { "crown_id": 7272, "tree_id": "7278", "top_h_m": 23.956, "H_95_Mean": 23.6385, "DBH": 33.4211, "Carbon_kg": 233.635923, "area_m2": 23.0 }, "geometry": { "type": "Polygon", "coordinates": [ [ [ 117.314706671766032, 42.4070670913881 ], [ 117.314737052518325, 42.407067007983756 ], [ 117.314737030008516, 42.40706250503866 ], [ 117.314743106158545, 42.407062488356821 ], [ 117.314743061138103, 42.40705348246663 ], [ 117.314761289585491, 42.407053432419225 ], [ 117.314761222050961, 42.407039923583916 ], [ 117.314755145903135, 42.407039940266721 ], [ 117.314755123392089, 42.407035437321603 ], [ 117.314742971097289, 42.40703547068621 ], [ 117.31474294858711, 42.407030967741086 ], [ 117.31473687244015, 42.407030984422896 ], [ 117.314736849930398, 42.407026481477786 ], [ 117.31473077378385, 42.407026498159269 ], [ 117.314730751274553, 42.407021995214137 ], [ 117.314712522836203, 42.407022045256667 ], [ 117.314712545344207, 42.407026548201806 ], [ 117.314694316904507, 42.407026598241444 ], [ 117.314694339411233, 42.407031101186575 ], [ 117.314663958676121, 42.407031184579559 ], [ 117.314664003685223, 42.40704019046985 ], [ 117.314682232128888, 42.407040140435022 ], [ 117.314682254634747, 42.407044643380154 ], [ 117.314688330783071, 42.407044626701229 ], [ 117.31468835328937, 42.407049129646353 ], [ 117.314700505586842, 42.407049096287537 ], [ 117.314700573108368, 42.407062605122888 ], [ 117.314706649258397, 42.407062588442997 ], [ 117.314706671766032, 42.4070670913881 ] ] ] } },
{ "type": "Feature", "properties": { "crown_id": 7279, "tree_id": "7285", "top_h_m": 24.886, "H_95_Mean": 24.859, "DBH": 27.6119, "Carbon_kg": 163.808997, "area_m2": 10.0 }, "geometry": { "type": "Polygon", "coordinates": [ [ [ 117.314578960112556, 42.407044926872594 ], [ 117.314627569299645, 42.407044793475983 ], [ 117.314627546797709, 42.407040290530823 ], [ 117.314633622945664, 42.407040273854797 ], [ 117.314633600443287, 42.407035770909637 ], [ 117.314651828885729, 42.407035720879655 ], [ 117.314651806382059, 42.407031217934495 ], [ 117.314645730235, 42.407031234611473 ], [ 117.314645707731785, 42.407026731666313 ], [ 117.314651783878389, 42.407026714989328 ], [ 117.314651761374748, 42.407022212044168 ], [ 117.314633532936185, 42.407022262074129 ], [ 117.314633510433836, 42.407017759128962 ], [ 117.314627434288084, 42.407017775804974 ], [ 117.314627456789992, 42.407022278750141 ], [ 117.3146213806438, 42.407022295425833 ], [ 117.314621403145281, 42.407026798371028 ], [ 117.314609250852016, 42.407026831721438 ], [ 117.31460927335263, 42.40703133466662 ], [ 117.314584968764279, 42.407031401363604 ], [ 117.31458499126316, 42.407035904308785 ], [ 117.314578915115646, 42.407035920982239 ], [ 117.314578960112556, 42.407044926872594 ] ] ] } },
{ "type": "Feature", "properties": { "crown_id": 7317, "tree_id": "7323", "top_h_m": 25.768, "H_95_Mean": 25.578, "DBH": 35.0626, "Carbon_kg": 269.627672, "area_m2": 24.0 }, "geometry": { "type": "Polygon", "coordinates": [ [ [ 117.314548556874158, 42.407040507289807 ], [ 117.314572861466132, 42.407040440600532 ], [ 117.31457281647009, 42.407031434710163 ], [ 117.314578892617192, 42.40703141803705 ], [ 117.314578870118737, 42.407026915091855 ], [ 117.314603174705368, 42.407026848396164 ], [ 117.31460315220518, 42.407022345450983 ], [ 117.314615304497593, 42.407022312101212 ], [ 117.314615281996566, 42.407017809156024 ], [ 117.314621358142318, 42.407017792480666 ], [ 117.314621335640837, 42.407013289535477 ], [ 117.314627411786162, 42.4070132728598 ], [ 117.314627389284254, 42.407008769914611 ], [ 117.314615236994456, 42.407008803265661 ], [ 117.314615191992416, 42.406999797375271 ], [ 117.314596963560305, 42.406999847399398 ], [ 117.314596873561442, 42.406981835618545 ], [ 117.314584721276816, 42.406981868966341 ], [ 117.314584743775654, 42.406986371911557 ], [ 117.314578667632901, 42.406986388584983 ], [ 117.314578690131299, 42.406990891530207 ], [ 117.314554385558495, 42.406990958220653 ], [ 117.314554430551837, 42.406999964111101 ], [ 117.314548354407762, 42.406999980782913 ], [ 117.31454844439277, 42.407017992563794 ], [ 117.314554520538607, 42.407017975891975 ], [ 117.314554588028727, 42.40703148472759 ], [ 117.314548511881597, 42.407031501399416 ], [ 117.314548556874158, 42.407040507289807 ] ] ] } },
{ "type": "Feature", "properties": { "crown_id": 7326, "tree_id": "7332", "top_h_m": 24.188, "H_95_Mean": 24.009, "DBH": 32.4756, "Carbon_kg": 222.543165, "area_m2": 20.0 }, "geometry": { "type": "Polygon", "coordinates": [ [ [ 117.314761199539475, 42.40703542063882 ], [ 117.314785504128949, 42.407035353904469 ], [ 117.314785369049659, 42.407008336233822 ], [ 117.314791445194416, 42.407008319549448 ], [ 117.31479142268077, 42.40700381660433 ], [ 117.314785346536468, 42.407003833288705 ], [ 117.314785301510071, 42.406994827398456 ], [ 117.314767073079679, 42.406994877449634 ], [ 117.314767050567824, 42.406990374504495 ], [ 117.314760974424786, 42.406990391187577 ], [ 117.314760929401885, 42.406981385297279 ], [ 117.314742700975373, 42.406981435344569 ], [ 117.314742723485509, 42.406985938289722 ], [ 117.314730571200244, 42.406985971652979 ], [ 117.314730593709513, 42.406990474598139 ], [ 117.314736669852579, 42.40699045791667 ], [ 117.314736737381708, 42.407003966752107 ], [ 117.314730661237348, 42.407003983433583 ], [ 117.314730683746646, 42.407008486378736 ], [ 117.314736759891431, 42.40700846969726 ], [ 117.314736827420646, 42.407021978532647 ], [ 117.314742903566739, 42.407021961850845 ], [ 117.314742926076917, 42.407026464795969 ], [ 117.314749002223436, 42.407026448113832 ], [ 117.314749024734056, 42.40703095105895 ], [ 117.314761177027975, 42.40703091769371 ], [ 117.314761199539475, 42.40703542063882 ] ] ] } },
{ "type": "Feature", "properties": { "crown_id": 7354, "tree_id": "7360", "top_h_m": 23.684, "H_95_Mean": 23.6458, "DBH": 29.5476, "Carbon_kg": 182.302734, "area_m2": 14.25 }, "geometry": { "type": "Polygon", "coordinates": [ [ [ 117.314633487931488, 42.407013256183788 ], [ 117.314639564076799, 42.407013239507457 ], [ 117.314639519071264, 42.407004233617094 ], [ 117.314651671360139, 42.407004200263479 ], [ 117.314651513834789, 42.406972679647154 ], [ 117.314645437693414, 42.406972696324097 ], [ 117.314645392687083, 42.406963690433685 ], [ 117.314627164265474, 42.406963740462572 ], [ 117.314627209269176, 42.406972746353013 ], [ 117.314608980844923, 42.40697279637903 ], [ 117.314609003345495, 42.406977299324247 ], [ 117.314602927203637, 42.406977315998951 ], [ 117.314603017204192, 42.406995327779804 ], [ 117.314621245634982, 42.40699527775471 ], [ 117.314621290637902, 42.407004283645101 ], [ 117.314633442926819, 42.407004250293419 ], [ 117.314633487931488, 42.407013256183788 ] ] ] } },
{ "type": "Feature", "properties": { "crown_id": 7355, "tree_id": "7361", "top_h_m": 25.792, "H_95_Mean": 25.4844, "DBH": 36.6694, "Carbon_kg": 294.471698, "area_m2": 28.75 }, "geometry": { "type": "Polygon", "coordinates": [ [ [ 117.31465786002498, 42.407026698312023 ], [ 117.314688240757931, 42.407026614920682 ], [ 117.314688218251661, 42.407022111975529 ], [ 117.314706446690067, 42.407022061936864 ], [ 117.314706424182503, 42.407017558991726 ], [ 117.314730728765227, 42.407017492269006 ], [ 117.314730706255943, 42.407012989323874 ], [ 117.314724630110689, 42.40701300600503 ], [ 117.314724562584132, 42.406999497169593 ], [ 117.314730638728079, 42.406999480488444 ], [ 117.314730616218782, 42.406994977543299 ], [ 117.314724540075289, 42.406994994224441 ], [ 117.314724495057618, 42.406985988334128 ], [ 117.314712342772339, 42.406986021695445 ], [ 117.314712297756415, 42.406977015805104 ], [ 117.314663688622048, 42.40697714923747 ], [ 117.314663666117582, 42.406972646292282 ], [ 117.314657589976193, 42.406972662969885 ], [ 117.314657770008651, 42.40700868653137 ], [ 117.314645617718909, 42.407008719885624 ], [ 117.31464566272534, 42.407017725775979 ], [ 117.314657815016801, 42.407017692421704 ], [ 117.31465786002498, 42.407026698312023 ] ] ] } },
{ "type": "Feature", "properties": { "crown_id": 7373, "tree_id": "7379", "top_h_m": 25.391, "H_95_Mean": 25.1902, "DBH": 27.961, "Carbon_kg": 169.330338, "area_m2": 10.25 }, "geometry": { "type": "Polygon", "coordinates": [ [ [ 117.314791400167152, 42.406999313659213 ], [ 117.314797476311028, 42.406999296974519 ], [ 117.314797453796956, 42.406994794029401 ], [ 117.314803529940392, 42.406994777344387 ], [ 117.314803507425907, 42.406990274399256 ], [ 117.314815659711911, 42.406990241028261 ], [ 117.31481563719656, 42.406985738083144 ], [ 117.314803484911423, 42.406985771454139 ], [ 117.314803439882482, 42.406976765563869 ], [ 117.314797363740766, 42.406976782248869 ], [ 117.314797341226736, 42.406972279303737 ], [ 117.314791265085489, 42.406972295988417 ], [ 117.314791220058297, 42.406963290098119 ], [ 117.314754763215774, 42.406963390199394 ], [ 117.314754830748726, 42.406976899034881 ], [ 117.3147669830322, 42.406976865669058 ], [ 117.314767028055925, 42.40698587155935 ], [ 117.314773104198537, 42.406985854875948 ], [ 117.314773126710833, 42.406990357821094 ], [ 117.314791355139889, 42.406990307768957 ], [ 117.314791400167152, 42.406999313659213 ] ] ] } },
{ "type": "Feature", "properties": { "crown_id": 7382, "tree_id": "7388", "top_h_m": 23.278, "H_95_Mean": 23.1643, "DBH": 24.8032, "Carbon_kg": 126.561651, "area_m2": 7.5 }, "geometry": { "type": "Polygon", "coordinates": [ [ [ 117.31471839640659, 42.406981502069776 ], [ 117.314736624833174, 42.406981452026365 ], [ 117.314736602323478, 42.406976949081191 ], [ 117.314748754606981, 42.406976915717308 ], [ 117.314748642054255, 42.406954400991474 ], [ 117.314742565914671, 42.406954417673568 ], [ 117.314742543404591, 42.406949914728386 ], [ 117.314736467265448, 42.406949931410153 ], [ 117.314736444755766, 42.406945428464965 ], [ 117.314730368617063, 42.406945445146405 ], [ 117.314730413635516, 42.406954451036789 ], [ 117.314724337495917, 42.40695446771791 ], [ 117.314724360004732, 42.406958970663084 ], [ 117.314718283864693, 42.406958987343891 ], [ 117.31471839640659, 42.406981502069776 ] ] ] } },
{ "type": "Feature", "properties": { "crown_id": 7412, "tree_id": "7418", "top_h_m": 24.553, "H_95_Mean": 24.2954, "DBH": 29.652, "Carbon_kg": 186.570072, "area_m2": 13.75 }, "geometry": { "type": "Polygon", "coordinates": [ [ [ 117.314584698777978, 42.406977366021117 ], [ 117.314596851061737, 42.406977332673321 ], [ 117.31459682856206, 42.406972829728097 ], [ 117.314602904703492, 42.406972813053727 ], [ 117.31460288220336, 42.406968310108496 ], [ 117.314621110626348, 42.406968260083453 ], [ 117.314620930615106, 42.406932236521577 ], [ 117.314614854477625, 42.406932253196892 ], [ 117.314614876978567, 42.406936756142137 ], [ 117.314590572426724, 42.406936822840194 ], [ 117.314590594925946, 42.406941325785454 ], [ 117.314572366510731, 42.406941375805623 ], [ 117.314572434004489, 42.406954884641401 ], [ 117.314578510144216, 42.406954867968331 ], [ 117.314578555140955, 42.406963873858807 ], [ 117.314584631281548, 42.406963857185403 ], [ 117.314584698777978, 42.406977366021117 ] ] ] } },
{ "type": "Feature", "properties": { "crown_id": 7413, "tree_id": "7419", "top_h_m": 26.479, "H_95_Mean": 26.2179, "DBH": 37.8877, "Carbon_kg": 319.846174, "area_m2": 31.0 }, "geometry": { "type": "Polygon", "coordinates": [ [ [ 117.314669742258971, 42.406972629614359 ], [ 117.314712275248468, 42.406972512859944 ], [ 117.314712185216734, 42.406954501079198 ], [ 117.314718261356319, 42.406954484398703 ], [ 117.314718238847959, 42.406949981453522 ], [ 117.314724314987131, 42.406949964772714 ], [ 117.31472426996956, 42.406940958882331 ], [ 117.314730346107837, 42.406940942201217 ], [ 117.314730278580242, 42.406927433365617 ], [ 117.314736354717198, 42.406927416684184 ], [ 117.314736332207573, 42.406922913738981 ], [ 117.314730256071016, 42.406922930420414 ], [ 117.314730233561846, 42.406918427475183 ], [ 117.314724157425729, 42.40691844415629 ], [ 117.314724112408214, 42.40690943826587 ], [ 117.314711960137714, 42.406909471627095 ], [ 117.314711892614127, 42.406895962791396 ], [ 117.314705816480171, 42.406895979471521 ], [ 117.314705838987592, 42.406900482416759 ], [ 117.314699762853195, 42.406900499096558 ], [ 117.314699785360204, 42.40690500204181 ], [ 117.314687633090514, 42.406905035400463 ], [ 117.314687700608943, 42.406918544236156 ], [ 117.314681624472797, 42.406918560915017 ], [ 117.314681669484202, 42.406927566805471 ], [ 117.314675593347204, 42.406927583484013 ], [ 117.31467563835777, 42.40693658937446 ], [ 117.314669562219876, 42.406936606052675 ], [ 117.31466962973451, 42.406950114888339 ], [ 117.314663553595281, 42.406950131566241 ], [ 117.314663621108636, 42.406963640401877 ], [ 117.314651468827606, 42.406963673756728 ], [ 117.31465149133119, 42.406968176701938 ], [ 117.31466971975405, 42.406968126669163 ], [ 117.314669742258971, 42.406972629614359 ] ] ] } },
{ "type": "Feature", "properties": { "crown_id": 7423, "tree_id": "7429", "top_h_m": 25.523, "H_95_Mean": 25.296, "DBH": 30.359, "Carbon_kg": 200.370798, "area_m2": 14.0 }, "geometry": { "type": "Polygon", "coordinates": [ [ [ 117.314754740704799, 42.406958887254227 ], [ 117.314785121404739, 42.406958803837313 ], [ 117.314784986325947, 42.406931786166304 ], [ 117.314791062463314, 42.406931769481972 ], [ 117.314791039949768, 42.40692726653679 ], [ 117.314784963812841, 42.40692728322113 ], [ 117.314784941299735, 42.406922780275956 ], [ 117.314778865163234, 42.406922796959954 ], [ 117.314778842650583, 42.406918294014758 ], [ 117.31476669037842, 42.406918327381796 ], [ 117.314766712890204, 42.406922830326998 ], [ 117.314742408344117, 42.406922897057228 ], [ 117.314742453364261, 42.406931902947619 ], [ 117.314736377226836, 42.406931919629379 ], [ 117.314736422246114, 42.406940925519777 ], [ 117.314742498384405, 42.40694090883801 ], [ 117.314742520894484, 42.406945411783205 ], [ 117.314748597033187, 42.406945395101118 ], [ 117.314748619543735, 42.406949898046292 ], [ 117.314754695682851, 42.406949881363879 ], [ 117.314754740704799, 42.406958887254227 ] ] ] } },
{ "type": "Feature", "properties": { "crown_id": 7435, "tree_id": "7441", "top_h_m": 21.862, "H_95_Mean": 21.8592, "DBH": 24.5389, "Carbon_kg": 119.682029, "area_m2": 8.0 }, "geometry": { "type": "Polygon", "coordinates": [ [ [ 117.314627141763609, 42.406959237517356 ], [ 117.314657522464117, 42.406959154134249 ], [ 117.314657454952055, 42.406945645298599 ], [ 117.314663531090844, 42.406945628621024 ], [ 117.314663486081983, 42.406936622730569 ], [ 117.314645257668232, 42.40693667276232 ], [ 117.314645235165131, 42.40693216981709 ], [ 117.314639159027635, 42.406932186493691 ], [ 117.314639136524931, 42.40692768354846 ], [ 117.314626984250822, 42.406927716900697 ], [ 117.314627141763609, 42.406959237517356 ] ] ] } },
{ "type": "Feature", "properties": { "crown_id": 7474, "tree_id": "7480", "top_h_m": 23.013, "H_95_Mean": 22.8948, "DBH": 28.9699, "Carbon_kg": 171.877621, "area_m2": 14.0 }, "geometry": { "type": "Polygon", "coordinates": [ [ [ 117.314578420150781, 42.406936856187293 ], [ 117.314584496288759, 42.406936839513904 ], [ 117.314584473789992, 42.406932336568637 ], [ 117.314608778340101, 42.406932269871888 ], [ 117.314608755839586, 42.406927766926628 ], [ 117.314620908113739, 42.406927733576332 ], [ 117.314620885612371, 42.406923230631072 ], [ 117.314626961748999, 42.406923213955437 ], [ 117.314626894243617, 42.406909705119652 ], [ 117.314614741972932, 42.406909738470588 ], [ 117.314614719472004, 42.406905235525322 ], [ 117.31460864333711, 42.406905252200289 ], [ 117.314608598336164, 42.406896246309735 ], [ 117.314596446068066, 42.406896279658717 ], [ 117.314596423568474, 42.406891776713429 ], [ 117.314578195167584, 42.406891826734487 ], [ 117.314578420150781, 42.406936856187293 ] ] ] } },
{ "type": "Feature", "properties": { "crown_id": 7483, "tree_id": "7489", "top_h_m": 22.446, "H_95_Mean": 22.2334, "DBH": 32.561, "Carbon_kg": 213.784925, "area_m2": 23.25 }, "geometry": { "type": "Polygon", "coordinates": [ [ [ 117.314651311302583, 42.406932153140161 ], [ 117.314669539715013, 42.406932103107451 ], [ 117.314669494705299, 42.406923097216996 ], [ 117.314675570841899, 42.406923080538782 ], [ 117.314675525831348, 42.406914074648299 ], [ 117.314681601967067, 42.406914057969772 ], [ 117.314681534449974, 42.406900549134043 ], [ 117.314693686718783, 42.406900515776044 ], [ 117.314693664212243, 42.406896012830806 ], [ 117.3146997403462, 42.40689599615132 ], [ 117.314699717839218, 42.406891493206082 ], [ 117.314705793972735, 42.406891476526276 ], [ 117.31470574895792, 42.406882470635772 ], [ 117.314717901223204, 42.406882437275222 ], [ 117.31471785620667, 42.406873431384724 ], [ 117.314723932338438, 42.406873414703973 ], [ 117.314723909829738, 42.406868911758721 ], [ 117.314681376910244, 42.406869028517228 ], [ 117.314681421921591, 42.406878034407775 ], [ 117.314663193524837, 42.406878084442326 ], [ 117.314663261037936, 42.406891593278125 ], [ 117.314657184904362, 42.406891609955672 ], [ 117.314657207408317, 42.406896112900938 ], [ 117.314651131274317, 42.406896129578158 ], [ 117.314651153777831, 42.406900632523417 ], [ 117.314645077643391, 42.406900649200331 ], [ 117.314645100146478, 42.40690515214559 ], [ 117.314632947876717, 42.406905185498452 ], [ 117.314633037885628, 42.40692319727949 ], [ 117.31464519015887, 42.406923163926614 ], [ 117.314645212661986, 42.406927666871859 ], [ 117.314651288799041, 42.406927650194937 ], [ 117.314651311302583, 42.406932153140161 ] ] ] } },
{ "type": "Feature", "properties": { "crown_id": 7499, "tree_id": "7505", "top_h_m": 21.869, "H_95_Mean": 21.7771, "DBH": 30.6098, "Carbon_kg": 186.449101, "area_m2": 19.0 }, "geometry": { "type": "Polygon", "coordinates": [ [ [ 117.314736309697949, 42.406918410793757 ], [ 117.314760614242331, 42.406918344064827 ], [ 117.314760591730973, 42.406913841119632 ], [ 117.314772744002269, 42.406913807753241 ], [ 117.314772631441215, 42.406891293027215 ], [ 117.314766555307713, 42.406891309710552 ], [ 117.314766532795986, 42.406886806765336 ], [ 117.314760456662924, 42.406886823448353 ], [ 117.314760366617676, 42.406868811667429 ], [ 117.314729985961094, 42.406868895077643 ], [ 117.314730030979348, 42.406877900968134 ], [ 117.314723954847153, 42.406877917649219 ], [ 117.314723999864569, 42.406886923539702 ], [ 117.314711847598417, 42.406886956900912 ], [ 117.314711870106265, 42.40689145984615 ], [ 117.314717946239782, 42.406891443165705 ], [ 117.314718013764661, 42.406904952001412 ], [ 117.314730166034295, 42.406904918639547 ], [ 117.314730211052662, 42.406913924529974 ], [ 117.31473628718831, 42.406913907848555 ], [ 117.314736309697949, 42.406918410793757 ] ] ] } },
{ "type": "Feature", "properties": { "crown_id": 7522, "tree_id": "7528", "top_h_m": 22.64, "H_95_Mean": 22.5711, "DBH": 28.9077, "Carbon_kg": 169.699396, "area_m2": 14.25 }, "geometry": { "type": "Polygon", "coordinates": [ [ [ 117.314620795606928, 42.406905218850014 ], [ 117.314626871741822, 42.4069052021744 ], [ 117.314626849240028, 42.406900699229119 ], [ 117.314639001508965, 42.406900665876918 ], [ 117.314638979006304, 42.406896162931652 ], [ 117.314645055140318, 42.406896146255072 ], [ 117.31464503263723, 42.406891643309805 ], [ 117.314651108770818, 42.406891626632891 ], [ 117.314651086267304, 42.406887123687625 ], [ 117.314657162400437, 42.406887107010398 ], [ 117.314657094888645, 42.406873598174585 ], [ 117.314675323284121, 42.406873548141 ], [ 117.314675300778887, 42.406869045195727 ], [ 117.314602387201987, 42.406869245312606 ], [ 117.314602499702076, 42.406891760039095 ], [ 117.314614651969293, 42.40689172668948 ], [ 117.314614696971105, 42.406900732580034 ], [ 117.314620773105574, 42.406900715904733 ], [ 117.314620795606928, 42.406905218850014 ] ] ] } },
{ "type": "Feature", "properties": { "crown_id": 7574, "tree_id": "7580", "top_h_m": 21.222, "H_95_Mean": 21.2216, "DBH": 20.8643, "Carbon_kg": 84.806905, "area_m2": 4.5 }, "geometry": { "type": "Polygon", "coordinates": [ [ [ 117.314572096536082, 42.406887340462205 ], [ 117.314596401068869, 42.406887273768127 ], [ 117.314596311070545, 42.406869261986934 ], [ 117.314565930413252, 42.40686934535367 ], [ 117.314565975408044, 42.406878351244309 ], [ 117.314572051540395, 42.406878334571587 ], [ 117.314572096536082, 42.406887340462205 ] ] ] } },
{ "type": "Feature", "properties": { "crown_id": 7575, "tree_id": "7581", "top_h_m": 22.298, "H_95_Mean": 22.1683, "DBH": 24.8987, "Carbon_kg": 124.273012, "area_m2": 8.25 }, "geometry": { "type": "Polygon", "coordinates": [ [ [ 117.314778752599935, 42.406900282233956 ], [ 117.314784828734275, 42.406900265549972 ], [ 117.314784806221184, 42.406895762604762 ], [ 117.314790882355098, 42.406895745920444 ], [ 117.314790837328076, 42.406886740030039 ], [ 117.314815141860109, 42.406886673289591 ], [ 117.314815119344885, 42.406882170344382 ], [ 117.314809043212321, 42.406882187029979 ], [ 117.314808975667958, 42.40686867819435 ], [ 117.31476644274899, 42.406868794984419 ], [ 117.314766510284215, 42.406882303820105 ], [ 117.314772586416822, 42.406882287136767 ], [ 117.31477260892899, 42.406886790082005 ], [ 117.314778685062038, 42.406886773398327 ], [ 117.314778752599935, 42.406900282233956 ] ] ] } }
]
}
