{
"type": "FeatureCollection",
"name": "tile_21_14",
"crs": { "type": "name", "properties": { "name": "urn:ogc:def:crs:OGC:1.3:CRS84" } },
"features": [
{ "type": "Feature", "properties": { "crown_id": 6187, "tree_id": "6191", "top_h_m": 19.36, "H_95_Mean": 18.8979, "DBH": 35.4243, "Carbon_kg": 230.143445, "area_m2": 43.5 }, "geometry": { "type": "Polygon", "coordinates": [ [ [ 117.313318908171993, 42.407809385726203 ], [ 117.313331060617827, 42.407809352512075 ], [ 117.313331038208005, 42.407804849566951 ], [ 117.313361419320302, 42.407804766525992 ], [ 117.313361374496338, 42.407795760635786 ], [ 117.313373526939472, 42.40779572741716 ], [ 117.313373504526638, 42.407791224472057 ], [ 117.313379580747764, 42.407791207862253 ], [ 117.3133795359212, 42.407782201972033 ], [ 117.313385612141474, 42.407782185361924 ], [ 117.313385567314072, 42.407773179471697 ], [ 117.313397719752842, 42.407773146250527 ], [ 117.313397697338274, 42.407768643305388 ], [ 117.31340984977615, 42.40776861008294 ], [ 117.313409827360715, 42.40776410713783 ], [ 117.313403751142232, 42.40776412374921 ], [ 117.313403728727238, 42.407759620804093 ], [ 117.313391576291124, 42.407759654025902 ], [ 117.313391553877011, 42.407755151080771 ], [ 117.313385477659352, 42.407755167691185 ], [ 117.313385432832021, 42.407746161800908 ], [ 117.313379356615243, 42.407746178410989 ], [ 117.31337933420204, 42.407741675465857 ], [ 117.313367181769323, 42.407741708685066 ], [ 117.313367159356972, 42.407737205739899 ], [ 117.313348930709196, 42.407737255566289 ], [ 117.313348953120212, 42.407741758511463 ], [ 117.313342876903846, 42.407741775119604 ], [ 117.313342899314478, 42.407746278064771 ], [ 117.313336823097643, 42.407746294672606 ], [ 117.31333680068748, 42.407741791727453 ], [ 117.313324648254692, 42.40774182494215 ], [ 117.313324715482636, 42.407755333777637 ], [ 117.313318639264949, 42.407755350384505 ], [ 117.313318661673833, 42.407759853329665 ], [ 117.313312585455691, 42.407759869936228 ], [ 117.313312607864177, 42.407764372881374 ], [ 117.313300455427012, 42.407764406093527 ], [ 117.313300477834602, 42.407768909038694 ], [ 117.313294401615565, 42.407768925644284 ], [ 117.313294446429907, 42.407777931534604 ], [ 117.313300522649811, 42.407777914929021 ], [ 117.31330054505743, 42.407782417874159 ], [ 117.313306621277746, 42.407782401268229 ], [ 117.313306688501925, 42.407795910103665 ], [ 117.313312764723563, 42.407795893497408 ], [ 117.313312787132048, 42.407800396442532 ], [ 117.313318863354112, 42.407800379835962 ], [ 117.313318908171993, 42.407809385726203 ] ] ] } },
{ "type": "Feature", "properties": { "crown_id": 6197, "tree_id": "6201", "top_h_m": 20.221, "H_95_Mean": 20.0377, "DBH": 35.5896, "Carbon_kg": 240.501048, "area_m2": 39.75 }, "geometry": { "type": "Polygon", "coordinates": [ [ [ 117.313118325629119, 42.407796424737775 ], [ 117.313142630516225, 42.407796358350765 ], [ 117.313142585723554, 42.407787352460339 ], [ 117.313148661944453, 42.407787335862793 ], [ 117.313148639547705, 42.407782832917583 ], [ 117.313154715768135, 42.407782816319703 ], [ 117.313154536590801, 42.407746792757891 ], [ 117.313130231722894, 42.407746859147373 ], [ 117.31313014214129, 42.40772884736635 ], [ 117.313099761064947, 42.407728930345897 ], [ 117.313099783458171, 42.407733433291163 ], [ 117.313093707242459, 42.407733449886109 ], [ 117.313093774420835, 42.407746958721923 ], [ 117.313087698203816, 42.407746975316549 ], [ 117.313087720596187, 42.407751478261822 ], [ 117.313081644378727, 42.407751494856129 ], [ 117.313081666770671, 42.407755997801402 ], [ 117.313069514334856, 42.407756030989056 ], [ 117.313069536725934, 42.407760533934322 ], [ 117.313051308070854, 42.407760583713404 ], [ 117.313051330460638, 42.407765086658678 ], [ 117.31305740667942, 42.40776507006597 ], [ 117.313057429069659, 42.407769573011244 ], [ 117.313063505288881, 42.407769556418202 ], [ 117.313063550070197, 42.407778562308721 ], [ 117.313081778730449, 42.407778512527671 ], [ 117.313081801122408, 42.407783015472916 ], [ 117.313069648681378, 42.407783048660612 ], [ 117.313069671072483, 42.407787551605864 ], [ 117.313100052177205, 42.407787468634197 ], [ 117.313100074570471, 42.407791971579428 ], [ 117.313118303234532, 42.407791921792558 ], [ 117.313118325629119, 42.407796424737775 ] ] ] } },
{ "type": "Feature", "properties": { "crown_id": 6246, "tree_id": "6250", "top_h_m": 21.751, "H_95_Mean": 20.8874, "DBH": 44.2814, "Carbon_kg": 382.869962, "area_m2": 86.0 }, "geometry": { "type": "Polygon", "coordinates": [ [ [ 117.31319115069094, 42.40777821378051 ], [ 117.31323368423071, 42.407778097572887 ], [ 117.31323366182788, 42.407773594627692 ], [ 117.3132397380474, 42.407773578025328 ], [ 117.31323971564413, 42.407769075080132 ], [ 117.31327009673943, 42.407768992063446 ], [ 117.313270051928569, 42.407759986173083 ], [ 117.31327612814674, 42.407759969568787 ], [ 117.313276016117555, 42.407737454842859 ], [ 117.313257787469524, 42.407737504654754 ], [ 117.313257765065003, 42.407733001709552 ], [ 117.313263841280587, 42.407732985105909 ], [ 117.313263796470693, 42.407723979215497 ], [ 117.313269872685382, 42.407723962611549 ], [ 117.313269850280022, 42.407719459666332 ], [ 117.313275926494285, 42.407719443062049 ], [ 117.313275881682685, 42.407710437171623 ], [ 117.31326980546929, 42.407710453775906 ], [ 117.313269783063916, 42.407705950830682 ], [ 117.313251554425023, 42.407706000641568 ], [ 117.313251532020956, 42.407701497696323 ], [ 117.313245455808413, 42.407701514299298 ], [ 117.313245411001205, 42.407692508408829 ], [ 117.313221106154444, 42.407692574817496 ], [ 117.313221038948868, 42.407679065981725 ], [ 117.313196734107237, 42.407679132385205 ], [ 117.313196756507338, 42.407683635330478 ], [ 117.313190680296501, 42.407683651930547 ], [ 117.313190725095879, 42.407692657821087 ], [ 117.313166420248933, 42.407692724218172 ], [ 117.31316646504483, 42.407701730108698 ], [ 117.31316038883223, 42.407701746707183 ], [ 117.313160456024832, 42.407715255542982 ], [ 117.313154379810911, 42.407715272141147 ], [ 117.313154402208013, 42.407719775086399 ], [ 117.313148325993666, 42.407719791684237 ], [ 117.313148370787033, 42.407728797574762 ], [ 117.313136218356547, 42.407728830769472 ], [ 117.313136285544033, 42.407742339605235 ], [ 117.31316059041022, 42.407742273214495 ], [ 117.31316072479575, 42.407769290885867 ], [ 117.313178953453146, 42.407769241089369 ], [ 117.313178975852068, 42.407773744034593 ], [ 117.313191128291166, 42.407773710835315 ], [ 117.31319115069094, 42.40777821378051 ] ] ] } },
{ "type": "Feature", "properties": { "crown_id": 6290, "tree_id": "6294", "top_h_m": 23.243, "H_95_Mean": 22.9363, "DBH": 37.8761, "Carbon_kg": 295.341419, "area_m2": 39.5 }, "geometry": { "type": "Polygon", "coordinates": [ [ [ 117.313099738671752, 42.407724427400616 ], [ 117.313111891101414, 42.407724394209772 ], [ 117.313111868707367, 42.407719891264485 ], [ 117.313117944921743, 42.40771987466858 ], [ 117.313117967316259, 42.407724377613853 ], [ 117.31314227217554, 42.407724311227021 ], [ 117.313142204986818, 42.407710802391215 ], [ 117.313154357413794, 42.407710769195873 ], [ 117.313154290222514, 42.407697260360045 ], [ 117.313160366434687, 42.407697243761902 ], [ 117.313160209652153, 42.407665723144888 ], [ 117.313154133443007, 42.407665739743017 ], [ 117.313154111045947, 42.407661236797715 ], [ 117.313148034837241, 42.40766125339551 ], [ 117.313148012440635, 42.407656750450208 ], [ 117.313141936232327, 42.407656767047683 ], [ 117.313141869043832, 42.407643258211714 ], [ 117.31311756421583, 42.407643324598375 ], [ 117.313117586610275, 42.407647827543698 ], [ 117.313111510402834, 42.407647844139575 ], [ 117.31311153279681, 42.407652347084905 ], [ 117.313099380381047, 42.407652380275664 ], [ 117.313099469953585, 42.407670392056986 ], [ 117.313093393743969, 42.40767040865191 ], [ 117.313093460922133, 42.407683917487859 ], [ 117.313099537133056, 42.407683900892948 ], [ 117.313099604312583, 42.407697409728861 ], [ 117.313093528100339, 42.407697426323786 ], [ 117.313093550493093, 42.407701929269088 ], [ 117.313087474280422, 42.4077019458637 ], [ 117.31308751906505, 42.407710951754297 ], [ 117.313093595278588, 42.407710935159692 ], [ 117.313093640064139, 42.407719941050267 ], [ 117.313099716278543, 42.407719924455328 ], [ 117.313099738671752, 42.407724427400616 ] ], [ [ 117.313117944921743, 42.40771987466858 ], [ 117.313117922527255, 42.407715371723299 ], [ 117.313123998741204, 42.407715355127081 ], [ 117.313124021136147, 42.407719858072362 ], [ 117.313117944921743, 42.40771987466858 ] ], [ [ 117.313136128773294, 42.407710818988399 ], [ 117.313136106377513, 42.407706316043118 ], [ 117.313142182590568, 42.407706299445934 ], [ 117.313142204986818, 42.407710802391215 ], [ 117.313136128773294, 42.407710818988399 ] ] ] } },
{ "type": "Feature", "properties": { "crown_id": 6304, "tree_id": "6308", "top_h_m": 15.537, "H_95_Mean": 15.3033, "DBH": 26.6115, "Carbon_kg": 114.134213, "area_m2": 21.25 }, "geometry": { "type": "Polygon", "coordinates": [ [ [ 117.313257608233513, 42.407701481093014 ], [ 117.313287989296143, 42.407701398071687 ], [ 117.313287922076185, 42.40768788923603 ], [ 117.313293998287392, 42.407687872630802 ], [ 117.313293841437996, 42.407656352014136 ], [ 117.313251307980735, 42.407656468243822 ], [ 117.31325133038473, 42.407660971189081 ], [ 117.313239177967475, 42.407661004394662 ], [ 117.313239200370589, 42.407665507339935 ], [ 117.313233124161513, 42.407665523942256 ], [ 117.313233191369633, 42.407679032778042 ], [ 117.313227115159251, 42.40767904938005 ], [ 117.31322715996383, 42.407688055270562 ], [ 117.313251464808843, 42.407687988860609 ], [ 117.313251509616933, 42.407696994751092 ], [ 117.313257585829021, 42.407696978147797 ], [ 117.313257608233513, 42.407701481093014 ] ] ] } },
{ "type": "Feature", "properties": { "crown_id": 6305, "tree_id": "6309", "top_h_m": 19.209, "H_95_Mean": 18.7485, "DBH": 32.6067, "Carbon_kg": 193.826621, "area_m2": 32.0 }, "geometry": { "type": "Polygon", "coordinates": [ [ [ 117.313336643816342, 42.407710271111206 ], [ 117.313348796243019, 42.407710237895259 ], [ 117.313348773832018, 42.407705734950071 ], [ 117.313354850044902, 42.40770571834161 ], [ 117.313354827633461, 42.407701215396408 ], [ 117.313360903845918, 42.407701198787642 ], [ 117.31336088143405, 42.407696695842461 ], [ 117.313366957646068, 42.407696679233368 ], [ 117.313366935233759, 42.40769217628818 ], [ 117.313379087656912, 42.407692143069035 ], [ 117.313378998004296, 42.407674131288253 ], [ 117.313385074214125, 42.407674114678208 ], [ 117.313385029386978, 42.407665108787803 ], [ 117.313391105595926, 42.407665092177439 ], [ 117.313391083181941, 42.407660589232236 ], [ 117.313397159390448, 42.407660572621552 ], [ 117.313397136976008, 42.407656069676349 ], [ 117.313403213184088, 42.407656053065352 ], [ 117.31340316835437, 42.407647047174933 ], [ 117.313397092147184, 42.40764706378593 ], [ 117.313397114561596, 42.407651566731147 ], [ 117.313391038353956, 42.407651583341817 ], [ 117.313390993525999, 42.407642577451384 ], [ 117.313384917319198, 42.407642594061734 ], [ 117.313384872492122, 42.407633588171279 ], [ 117.313378796286216, 42.407633604781303 ], [ 117.313378841112424, 42.407642610671772 ], [ 117.313360612492048, 42.407642660499924 ], [ 117.313360657315656, 42.407651666390386 ], [ 117.313354581107987, 42.407651682999131 ], [ 117.313354603519372, 42.407656185944354 ], [ 117.313348527311248, 42.407656202552786 ], [ 117.313348549722193, 42.407660705498003 ], [ 117.313324244887966, 42.407660771928498 ], [ 117.313324267297162, 42.407665274873729 ], [ 117.313318191088186, 42.407665291480555 ], [ 117.31331821349697, 42.407669794425793 ], [ 117.313312137287525, 42.407669811032299 ], [ 117.313312159695883, 42.407674313977523 ], [ 117.313306083485998, 42.40767433058371 ], [ 117.313306105893915, 42.407678833528934 ], [ 117.313312182104227, 42.407678816922747 ], [ 117.313312249329385, 42.407692325758404 ], [ 117.31331832554099, 42.407692309151891 ], [ 117.313318370358644, 42.40770131504231 ], [ 117.313336598996074, 42.407701265220808 ], [ 117.313336643816342, 42.407710271111206 ] ] ] } },
{ "type": "Feature", "properties": { "crown_id": 6361, "tree_id": "6366", "top_h_m": 21.532, "H_95_Mean": 21.1682, "DBH": 39.4331, "Carbon_kg": 305.478441, "area_m2": 53.5 }, "geometry": { "type": "Polygon", "coordinates": [ [ [ 117.313166397850992, 42.407688221272892 ], [ 117.313184626484897, 42.40768817147557 ], [ 117.3131845816864, 42.407679165585023 ], [ 117.313190657896811, 42.407679148985274 ], [ 117.313190635497136, 42.407674646039993 ], [ 117.313227092756975, 42.407674546434784 ], [ 117.313227025550148, 42.407661037598977 ], [ 117.313233101758811, 42.407661020996976 ], [ 117.313233079356124, 42.407656518051702 ], [ 117.313245231772527, 42.407656484846768 ], [ 117.313245209368986, 42.407651981901495 ], [ 117.313251285576754, 42.407651965298548 ], [ 117.313251263172745, 42.407647462353268 ], [ 117.313257339380073, 42.407647445749994 ], [ 117.313257361784494, 42.407651948695282 ], [ 117.313269514200002, 42.407651915487769 ], [ 117.313269469389425, 42.407642909597229 ], [ 117.313263393182538, 42.407642926201135 ], [ 117.313263348372857, 42.407633920310573 ], [ 117.313245119754797, 42.407633970120358 ], [ 117.313245074947716, 42.407624964229782 ], [ 117.313251151152897, 42.40762494762685 ], [ 117.313251106344964, 42.407615941736246 ], [ 117.313245030140678, 42.407615958339179 ], [ 117.313244985333654, 42.40760695244856 ], [ 117.313232832926801, 42.407606985653445 ], [ 117.313232788121539, 42.407597979762805 ], [ 117.313226711918958, 42.407597996364764 ], [ 117.313226689516782, 42.407593493419427 ], [ 117.313220613314641, 42.407593510021051 ], [ 117.313220635716405, 42.407598012966382 ], [ 117.313214559513838, 42.407598029567694 ], [ 117.313214581915148, 42.407602532513025 ], [ 117.313208505712126, 42.407602549114017 ], [ 117.313208528113037, 42.407607052059348 ], [ 117.313196375706099, 42.407607085260366 ], [ 117.313196398106129, 42.40761158820569 ], [ 117.313184245698338, 42.407611621405415 ], [ 117.313184268097501, 42.407616124350753 ], [ 117.313172115688815, 42.407616157549199 ], [ 117.313172160485422, 42.40762516343986 ], [ 117.313160008074945, 42.407625196637042 ], [ 117.313160030472417, 42.407629699582365 ], [ 117.313153954266738, 42.40762971618048 ], [ 117.313153999060773, 42.407638722071134 ], [ 117.313160075267305, 42.407638705473019 ], [ 117.313160097664763, 42.407643208418349 ], [ 117.31316617387175, 42.407643191819894 ], [ 117.313166196269648, 42.407647694765224 ], [ 117.313160120062236, 42.407647711363659 ], [ 117.313160187254653, 42.407661220199586 ], [ 117.313166263463359, 42.407661203601144 ], [ 117.313166285861286, 42.407665706546446 ], [ 117.313178438279579, 42.407665673348575 ], [ 117.313178460678358, 42.40767017629387 ], [ 117.313166308259213, 42.407670209491741 ], [ 117.313166397850992, 42.407688221272892 ] ] ] } },
{ "type": "Feature", "properties": { "crown_id": 6362, "tree_id": "6367", "top_h_m": 20.968, "H_95_Mean": 20.5501, "DBH": 34.728, "Carbon_kg": 232.354684, "area_m2": 34.5 }, "geometry": { "type": "Polygon", "coordinates": [ [ [ 117.313312092470809, 42.407660805141823 ], [ 117.313318168679388, 42.407660788535324 ], [ 117.313318146270603, 42.407656285590086 ], [ 117.313342451103125, 42.407656219160884 ], [ 117.313342428692636, 42.407651716215661 ], [ 117.31334850490029, 42.407651699607555 ], [ 117.313348482489374, 42.407647196662325 ], [ 117.313354558696602, 42.4076471800539 ], [ 117.313354513873861, 42.407638174163431 ], [ 117.313372742492959, 42.407638124336252 ], [ 117.313372675254996, 42.407624615500538 ], [ 117.313384827665089, 42.407624582280818 ], [ 117.313384782838042, 42.407615576390334 ], [ 117.313372630429683, 42.407615609610048 ], [ 117.313372585604426, 42.407606603719543 ], [ 117.313366509401106, 42.407606620328906 ], [ 117.313366486988912, 42.407602117383647 ], [ 117.31335433458311, 42.407602150601406 ], [ 117.313354356994452, 42.407606653546672 ], [ 117.313317899774361, 42.407606753192233 ], [ 117.313317922183089, 42.4076112561375 ], [ 117.313293617367876, 42.407611322561451 ], [ 117.313293639774855, 42.407615825506738 ], [ 117.313287563570597, 42.407615842111909 ], [ 117.313287698010058, 42.407642859783572 ], [ 117.313293774216902, 42.407642843178365 ], [ 117.313293796623938, 42.407647346123618 ], [ 117.313275568002027, 42.407647395938255 ], [ 117.313275590407741, 42.407651898883529 ], [ 117.313305971446411, 42.407651815857513 ], [ 117.3133059938543, 42.407656318802751 ], [ 117.313312070062452, 42.407656302196585 ], [ 117.313312092470809, 42.407660805141823 ] ] ] } }
]
}
