{
"type": "FeatureCollection",
"name": "tile_3_6",
"crs": { "type": "name", "properties": { "name": "urn:ogc:def:crs:OGC:1.3:CRS84" } },
"features": [
{ "type": "Feature", "properties": { "crown_id": 674, "tree_id": "674", "top_h_m": 20.596, "H_95_Mean": 20.1307, "DBH": 31.4872, "Carbon_kg": 188.410185, "area_m2": 24.5 }, "geometry": { "type": "Polygon", "coordinates": [ [ [ 117.31141481382015, 42.411047731645198 ], [ 117.311420890356715, 42.411047715138203 ], [ 117.311420868081001, 42.411043212194819 ], [ 117.311439097689387, 42.411043162671909 ], [ 117.311439075412352, 42.411038659728533 ], [ 117.311445151948035, 42.411038643220252 ], [ 117.311445107393126, 42.411029637333492 ], [ 117.311451183927957, 42.411029620824898 ], [ 117.311451117094322, 42.411016111994726 ], [ 117.311457193627831, 42.411016095485813 ], [ 117.311457149071245, 42.411007089599032 ], [ 117.311444996005974, 42.411007122616525 ], [ 117.311444906896327, 42.41098911084287 ], [ 117.311438830365418, 42.410989127351137 ], [ 117.311438852642411, 42.410993630294541 ], [ 117.311432776111062, 42.410993646802474 ], [ 117.311432753834509, 42.410989143859055 ], [ 117.311426677303587, 42.410989160366668 ], [ 117.311426655027518, 42.410984657423228 ], [ 117.311414501966539, 42.410984690437481 ], [ 117.311414524241769, 42.410989193380914 ], [ 117.311396294648958, 42.410989242899866 ], [ 117.311396361470756, 42.411002751730159 ], [ 117.311390284938525, 42.411002768235832 ], [ 117.31139037403257, 42.411020780009544 ], [ 117.311402527100526, 42.411020746997842 ], [ 117.311402571649339, 42.411029752884652 ], [ 117.31140864818417, 42.411029736378303 ], [ 117.311408670459016, 42.411034239321694 ], [ 117.311414746994288, 42.411034222815033 ], [ 117.31141481382015, 42.411047731645198 ] ] ] } },
{ "type": "Feature", "properties": { "crown_id": 677, "tree_id": "677", "top_h_m": 19.725, "H_95_Mean": 19.6299, "DBH": 31.8247, "Carbon_kg": 189.655574, "area_m2": 26.75 }, "geometry": { "type": "Polygon", "coordinates": [ [ [ 117.311177784373157, 42.411039369279848 ], [ 117.311189937444951, 42.411039336290671 ], [ 117.31118991518575, 42.41103483334718 ], [ 117.31119599172122, 42.411034816852109 ], [ 117.311196013980862, 42.411039319795591 ], [ 117.311208167052627, 42.411039286804481 ], [ 117.311208144792133, 42.411034783861005 ], [ 117.311214221327575, 42.41103476736496 ], [ 117.311214154544771, 42.411021258534511 ], [ 117.31122023107892, 42.411021242038153 ], [ 117.31122016429488, 42.411007733207676 ], [ 117.311226240827708, 42.411007716711012 ], [ 117.311226218565935, 42.411003213767508 ], [ 117.311220142033548, 42.411003230264171 ], [ 117.311220119772202, 42.410998727320667 ], [ 117.311214043240255, 42.410998743817011 ], [ 117.311213998718458, 42.410989737929981 ], [ 117.311195769125163, 42.410989787417058 ], [ 117.311195791384748, 42.41099429036057 ], [ 117.311147179132234, 42.41099442231193 ], [ 117.311147201388337, 42.410998925255484 ], [ 117.31114112485632, 42.410998941747955 ], [ 117.311141191623364, 42.411012450578554 ], [ 117.311147268156702, 42.411012434086075 ], [ 117.311147312668965, 42.411021439973112 ], [ 117.311159465737362, 42.411021406987182 ], [ 117.311159510251386, 42.41103041287419 ], [ 117.311171663321474, 42.411030379886959 ], [ 117.311171685579353, 42.411034882830457 ], [ 117.311177762114824, 42.411034866336351 ], [ 117.311177784373157, 42.411039369279848 ] ] ] } },
{ "type": "Feature", "properties": { "crown_id": 691, "tree_id": "691", "top_h_m": 19.872, "H_95_Mean": 19.7981, "DBH": 29.3572, "Carbon_kg": 161.999968, "area_m2": 19.25 }, "geometry": { "type": "Polygon", "coordinates": [ [ [ 117.311274942151144, 42.411025596499961 ], [ 117.311281018685662, 42.411025580000384 ], [ 117.311280996419981, 42.411021077056922 ], [ 117.311293149488108, 42.411021044056817 ], [ 117.31129312722156, 42.411016541113355 ], [ 117.311299203755169, 42.411016524612819 ], [ 117.311299181488181, 42.411012021669357 ], [ 117.311305258021378, 42.411012005168502 ], [ 117.311305168951705, 42.410993993394641 ], [ 117.311299092420228, 42.410994009895482 ], [ 117.311299047886308, 42.410985004008523 ], [ 117.311292971355698, 42.410985020509031 ], [ 117.311292949089193, 42.410980517565555 ], [ 117.311286872559023, 42.41098053406575 ], [ 117.311286894825116, 42.410985037009233 ], [ 117.311280818294506, 42.410985053509108 ], [ 117.311280773763215, 42.410976047622114 ], [ 117.311262544173985, 42.410976097119786 ], [ 117.311262588702689, 42.410985103006801 ], [ 117.311244359110816, 42.410985152501596 ], [ 117.311244470426132, 42.411007667219081 ], [ 117.311250546958931, 42.411007650721118 ], [ 117.311250569222452, 42.411012153664601 ], [ 117.311256645755691, 42.411012137166324 ], [ 117.311256668019638, 42.411016640109793 ], [ 117.311262744553304, 42.411016623611204 ], [ 117.311262766817691, 42.411021126554672 ], [ 117.311274919885889, 42.411021093556492 ], [ 117.311274942151144, 42.411025596499961 ] ] ] } },
{ "type": "Feature", "properties": { "crown_id": 706, "tree_id": "706", "top_h_m": 16.724, "H_95_Mean": 16.5176, "DBH": 29.1578, "Carbon_kg": 143.553994, "area_m2": 26.25 }, "geometry": { "type": "Polygon", "coordinates": [ [ [ 117.31134178403056, 42.411025414986923 ], [ 117.311353937099483, 42.411025381980359 ], [ 117.311353914828558, 42.411020879036933 ], [ 117.311366067896586, 42.411020846029089 ], [ 117.311366045624794, 42.411016343085656 ], [ 117.311378198691926, 42.411016310076533 ], [ 117.311378176419296, 42.411011807133107 ], [ 117.311384252952422, 42.411011790628066 ], [ 117.311384186133196, 42.410998281797781 ], [ 117.311390262665014, 42.41099826529242 ], [ 117.311390195844538, 42.410984756462092 ], [ 117.31140234890556, 42.410984723450433 ], [ 117.311402326631182, 42.410980220506993 ], [ 117.31139625010114, 42.410980237012978 ], [ 117.311396227827203, 42.410975734069538 ], [ 117.311390151297587, 42.410975750575204 ], [ 117.311390129024119, 42.410971247631757 ], [ 117.311384052494915, 42.410971264137096 ], [ 117.311384030221873, 42.41096676119362 ], [ 117.311377953693096, 42.410966777698654 ], [ 117.311377931420509, 42.410962274755185 ], [ 117.311371854892144, 42.410962291259885 ], [ 117.311371877164291, 42.41096679420334 ], [ 117.311359724106723, 42.410966827211773 ], [ 117.311359746378002, 42.410971330155242 ], [ 117.311353669848771, 42.410971346658968 ], [ 117.311353714390506, 42.410980352545906 ], [ 117.311329408270041, 42.410980418557621 ], [ 117.311329497346605, 42.410998430331496 ], [ 117.31132342081473, 42.410998446833624 ], [ 117.311323465352189, 42.411007452720547 ], [ 117.31132954188493, 42.411007436218412 ], [ 117.311329608692432, 42.411020945048747 ], [ 117.311341761760488, 42.411020912043483 ], [ 117.31134178403056, 42.411025414986923 ] ] ] } },
{ "type": "Feature", "properties": { "crown_id": 774, "tree_id": "774", "top_h_m": 22.233, "H_95_Mean": 21.7264, "DBH": 34.2456, "Carbon_kg": 233.456085, "area_m2": 29.5 }, "geometry": { "type": "Polygon", "coordinates": [ [ [ 117.311317232941505, 42.410975948618081 ], [ 117.31132330947122, 42.41097593211628 ], [ 117.311323287202526, 42.410971429172804 ], [ 117.311329363731787, 42.410971412670683 ], [ 117.311329386000907, 42.410975915614152 ], [ 117.311347615589966, 42.410975866105851 ], [ 117.311347571049112, 42.410966860218892 ], [ 117.311353647577917, 42.410966843715507 ], [ 117.311353625307063, 42.410962340772024 ], [ 117.311365778363793, 42.410962307764251 ], [ 117.311365733820352, 42.410953301877299 ], [ 117.311371810347836, 42.410953285372941 ], [ 117.311371743531424, 42.410939776542492 ], [ 117.311365667005248, 42.410939793046843 ], [ 117.311365644733556, 42.410935290103353 ], [ 117.31132918557897, 42.410935389122727 ], [ 117.311329163309892, 42.410930886179209 ], [ 117.311292704157736, 42.410930985186951 ], [ 117.31129268189126, 42.410926482243426 ], [ 117.31128660536632, 42.410926498743599 ], [ 117.311286627632342, 42.410931001687125 ], [ 117.311274474581566, 42.410931034686492 ], [ 117.311274585907469, 42.410953549404127 ], [ 117.31128066243501, 42.410953532904593 ], [ 117.311280684700648, 42.410958035848097 ], [ 117.31129891428462, 42.410957986347562 ], [ 117.311298958818483, 42.410966992234556 ], [ 117.311305035347331, 42.410966975733722 ], [ 117.311305057614703, 42.410971478677226 ], [ 117.311317210673252, 42.410971445674598 ], [ 117.311317232941505, 42.410975948618081 ] ] ] } },
{ "type": "Feature", "properties": { "crown_id": 780, "tree_id": "780", "top_h_m": 18.879, "H_95_Mean": 18.7246, "DBH": 28.9632, "Carbon_kg": 152.534484, "area_m2": 20.25 }, "geometry": { "type": "Polygon", "coordinates": [ [ [ 117.311207833145602, 42.410971742651896 ], [ 117.311213909674962, 42.4109717261559 ], [ 117.311213887414112, 42.41096722321236 ], [ 117.311232117000841, 42.410967173722426 ], [ 117.311232139262998, 42.410971676665959 ], [ 117.311238215792329, 42.410971660168663 ], [ 117.311238193529746, 42.410967157225144 ], [ 117.311244270058651, 42.410967140727536 ], [ 117.311244247795599, 42.410962637784017 ], [ 117.311262477380964, 42.410962588289266 ], [ 117.311262388323669, 42.410944576515163 ], [ 117.311256311796981, 42.410944593013731 ], [ 117.311256289533105, 42.410940090070198 ], [ 117.311262366059381, 42.410940073571645 ], [ 117.311262321530776, 42.410931067684565 ], [ 117.311268398056171, 42.410931051185685 ], [ 117.311268375791443, 42.410926548242152 ], [ 117.311262299266488, 42.410926564741018 ], [ 117.3112622770022, 42.410922061797464 ], [ 117.311231894379475, 42.410922144287007 ], [ 117.311231938903703, 42.410931150174122 ], [ 117.311207632801953, 42.410931216159952 ], [ 117.311207833145602, 42.410971742651896 ] ] ] } },
{ "type": "Feature", "properties": { "crown_id": 814, "tree_id": "814", "top_h_m": 21.811, "H_95_Mean": 21.2138, "DBH": 34.8534, "Carbon_kg": 238.490598, "area_m2": 33.0 }, "geometry": { "type": "Polygon", "coordinates": [ [ [ 117.311396161005504, 42.410962225239174 ], [ 117.311408314062163, 42.41096219222689 ], [ 117.311408269512654, 42.410953186339974 ], [ 117.311420422567551, 42.410953153326417 ], [ 117.311420333465094, 42.410935141552564 ], [ 117.311438563042188, 42.410935092029845 ], [ 117.311438496211508, 42.410921583199432 ], [ 117.311432419687108, 42.410921599707329 ], [ 117.311432375134231, 42.41091259382037 ], [ 117.311426298610698, 42.410912610327927 ], [ 117.311426276334672, 42.410908107384437 ], [ 117.311420199811607, 42.410908123891666 ], [ 117.31142015526045, 42.410899118004686 ], [ 117.311408002216012, 42.410899151018185 ], [ 117.311407979941308, 42.410894648074681 ], [ 117.311401903419508, 42.410894664580937 ], [ 117.311401881145272, 42.410890161637425 ], [ 117.311395804623871, 42.410890178143383 ], [ 117.311395760076266, 42.410881172256332 ], [ 117.31138968355576, 42.410881188761941 ], [ 117.311389661282377, 42.410876685818415 ], [ 117.311383584762311, 42.410876702323705 ], [ 117.311383607035253, 42.410881205267231 ], [ 117.311377530514719, 42.4108812217722 ], [ 117.311377575059737, 42.410890227659252 ], [ 117.311371498538335, 42.410890244163902 ], [ 117.311371632170847, 42.410917261825006 ], [ 117.311365555646859, 42.410917278329364 ], [ 117.311365622461892, 42.410930787159863 ], [ 117.311371698987202, 42.410930770655504 ], [ 117.311371721259306, 42.410935273598994 ], [ 117.311377797785056, 42.410935257094323 ], [ 117.311377886875334, 42.410953268868255 ], [ 117.311390039930274, 42.41095323585791 ], [ 117.311390062203714, 42.410957738801379 ], [ 117.311396138731624, 42.41095772229572 ], [ 117.311396161005504, 42.410962225239174 ] ] ] } },
{ "type": "Feature", "properties": { "crown_id": 831, "tree_id": "831", "top_h_m": 20.853, "H_95_Mean": 20.6287, "DBH": 30.8922, "Carbon_kg": 183.942796, "area_m2": 21.75 }, "geometry": { "type": "Polygon", "coordinates": [ [ [ 117.311335239835245, 42.410930869676783 ], [ 117.311359545936554, 42.410930803663874 ], [ 117.311359456851605, 42.410912791889849 ], [ 117.311365533375181, 42.410912775385846 ], [ 117.311365444288569, 42.410894763611765 ], [ 117.311359367766741, 42.410894780115775 ], [ 117.311359323224309, 42.410885774228703 ], [ 117.31131071105635, 42.410885906249149 ], [ 117.311310844662771, 42.410912923910423 ], [ 117.311304768139166, 42.410912940411542 ], [ 117.311304790406481, 42.410917443355082 ], [ 117.311298713882422, 42.410917459855881 ], [ 117.311298691615534, 42.410912956912341 ], [ 117.311292615091901, 42.41091297341282 ], [ 117.311292659624797, 42.4109219792999 ], [ 117.311298736149297, 42.410921962799421 ], [ 117.311298758416186, 42.410926465742946 ], [ 117.311335217565727, 42.410926366733271 ], [ 117.311335239835245, 42.410930869676783 ] ] ] } },
{ "type": "Feature", "properties": { "crown_id": 834, "tree_id": "834", "top_h_m": 20.75, "H_95_Mean": 20.3932, "DBH": 30.8151, "Carbon_kg": 181.780024, "area_m2": 22.0 }, "geometry": { "type": "Polygon", "coordinates": [ [ [ 117.31119552427009, 42.410940255038085 ], [ 117.311201600796394, 42.410940238542743 ], [ 117.311201534016547, 42.410926729712052 ], [ 117.311225840116592, 42.410926663727501 ], [ 117.311225795593231, 42.410917657840379 ], [ 117.311250101689694, 42.410917591850705 ], [ 117.311250057162894, 42.410908585963568 ], [ 117.311243980639645, 42.410908602461468 ], [ 117.311243958376679, 42.4109040995179 ], [ 117.311237881853884, 42.410904116015473 ], [ 117.311237837328846, 42.410895110128322 ], [ 117.311231760806891, 42.410895126625562 ], [ 117.311231694020663, 42.410881617794786 ], [ 117.311219540979366, 42.410881650788319 ], [ 117.311219563240556, 42.410886153731909 ], [ 117.311213486719467, 42.410886170228189 ], [ 117.311213464458703, 42.410881667284578 ], [ 117.311195234896687, 42.41088171677147 ], [ 117.311195257156143, 42.410886219715074 ], [ 117.311183104113908, 42.410886252704728 ], [ 117.311183304441471, 42.410926779197084 ], [ 117.311195457491522, 42.41092674620738 ], [ 117.31119552427009, 42.410940255038085 ] ] ] } },
{ "type": "Feature", "properties": { "crown_id": 865, "tree_id": "865", "top_h_m": 20.735, "H_95_Mean": 20.0017, "DBH": 35.5592, "Carbon_kg": 239.831966, "area_m2": 39.75 }, "geometry": { "type": "Polygon", "coordinates": [ [ [ 117.311268353526728, 42.410922045298612 ], [ 117.311274430051256, 42.410922028799419 ], [ 117.311274385520946, 42.410913022912311 ], [ 117.31128653856824, 42.410912989912973 ], [ 117.311286516302246, 42.410908486969419 ], [ 117.311298669348645, 42.410908453968801 ], [ 117.311298647081756, 42.410903951025254 ], [ 117.311304723604536, 42.410903934524462 ], [ 117.311304612268074, 42.410881419806692 ], [ 117.311322841829792, 42.41088137030242 ], [ 117.311322819561198, 42.410876867358859 ], [ 117.311316743041075, 42.410876883860603 ], [ 117.311316720772922, 42.410872380917041 ], [ 117.311310644253226, 42.410872397418466 ], [ 117.311310621985527, 42.410867894474897 ], [ 117.311316698504783, 42.41086787797348 ], [ 117.311316631700421, 42.410854369142761 ], [ 117.31132270821837, 42.410854352641024 ], [ 117.311322685949818, 42.410849849697449 ], [ 117.311304456397195, 42.410849899201665 ], [ 117.311304478664468, 42.410854402145254 ], [ 117.3112923256285, 42.410854435146462 ], [ 117.311292303362123, 42.410849932202872 ], [ 117.311280150326994, 42.410849965202786 ], [ 117.311280128061497, 42.410845462259189 ], [ 117.311255821992944, 42.410845528255138 ], [ 117.311255844256692, 42.410850031198756 ], [ 117.311249767739113, 42.41085004769694 ], [ 117.311249812265785, 42.410859053584154 ], [ 117.31123765922888, 42.410859086579563 ], [ 117.311237681491363, 42.410863589523174 ], [ 117.311231604972434, 42.410863606020399 ], [ 117.311231649496534, 42.410872611907614 ], [ 117.31123772601633, 42.410872595410375 ], [ 117.311237815066306, 42.410890607184733 ], [ 117.311243891587836, 42.410890590687174 ], [ 117.31124393611374, 42.410899596574332 ], [ 117.311250012636094, 42.410899580076439 ], [ 117.311250034899501, 42.410904083020007 ], [ 117.311256111422296, 42.410904066521802 ], [ 117.31125617821381, 42.410917575352478 ], [ 117.311268331261999, 42.410917542355058 ], [ 117.311268353526728, 42.410922045298612 ] ] ] } }
]
}
