{
"type": "FeatureCollection",
"name": "tile_20_20",
"crs": { "type": "name", "properties": { "name": "urn:ogc:def:crs:OGC:1.3:CRS84" } },
"features": [
{ "type": "Feature", "properties": { "crown_id": 5972, "tree_id": "5976", "top_h_m": 25.693, "H_95_Mean": 25.2519, "DBH": 40.1335, "Carbon_kg": 351.320153, "area_m2": 41.5 }, "geometry": { "type": "Polygon", "coordinates": [ [ [ 117.314583639905706, 42.407981539392665 ], [ 117.314601868622063, 42.407981489369703 ], [ 117.314601801119537, 42.407967980536398 ], [ 117.314607877357005, 42.407967963861452 ], [ 117.314607832354497, 42.407958957972568 ], [ 117.314613908591099, 42.407958941297302 ], [ 117.314613886089404, 42.407954438352853 ], [ 117.314619962325565, 42.40795442167726 ], [ 117.314619939823444, 42.407949918732818 ], [ 117.314626016059179, 42.407949902056913 ], [ 117.314625836038971, 42.407913878501247 ], [ 117.314637988503435, 42.407913845148506 ], [ 117.314637966000049, 42.407909342204036 ], [ 117.314625813536452, 42.407909375556777 ], [ 117.314625746028966, 42.407895866723337 ], [ 117.31460751733745, 42.407895916749986 ], [ 117.31460756233983, 42.407904922638977 ], [ 117.314583257414228, 42.407904989336686 ], [ 117.314583279913677, 42.407909492281199 ], [ 117.31457720368185, 42.407909508954823 ], [ 117.314577248679896, 42.407918514843807 ], [ 117.314552943749007, 42.407918581535128 ], [ 117.314552921251703, 42.407914078590622 ], [ 117.314546845019407, 42.407914095262655 ], [ 117.314547024994425, 42.40795011881859 ], [ 117.314553101230203, 42.40795010214655 ], [ 117.314553168722213, 42.407963610979955 ], [ 117.314583549907553, 42.407963527614875 ], [ 117.314583639905706, 42.407981539392665 ] ] ] } },
{ "type": "Feature", "properties": { "crown_id": 5987, "tree_id": "5991", "top_h_m": 23.396, "H_95_Mean": 23.2123, "DBH": 35.4075, "Carbon_kg": 259.659076, "area_m2": 29.75 }, "geometry": { "type": "Polygon", "coordinates": [ [ [ 117.314735365790881, 42.407945098891119 ], [ 117.314741442026062, 42.407945082209103 ], [ 117.314741419515258, 42.407940579264697 ], [ 117.314783953158383, 42.407940462481534 ], [ 117.314783930644566, 42.407935959537141 ], [ 117.314777854410281, 42.407935976221417 ], [ 117.3147778093835, 42.407926970332646 ], [ 117.314771733150081, 42.40792698701658 ], [ 117.314771665611232, 42.40791347818336 ], [ 117.314765589379121, 42.407913494866975 ], [ 117.314765521841636, 42.407899986033733 ], [ 117.314759445610818, 42.407900002717014 ], [ 117.314759423098778, 42.407895499772586 ], [ 117.314753346868386, 42.407895516455554 ], [ 117.314753301845172, 42.407886510566676 ], [ 117.314747225615648, 42.407886527249303 ], [ 117.314747203104474, 42.407882024304861 ], [ 117.314735050646291, 42.407882057669163 ], [ 117.314735005625721, 42.407873051780257 ], [ 117.314728929397461, 42.40787306846191 ], [ 117.314728951907313, 42.407877571406367 ], [ 117.314716799449954, 42.407877604768721 ], [ 117.314716776940969, 42.407873101824258 ], [ 117.314710700712709, 42.407873118504959 ], [ 117.314710745729826, 42.407882124393893 ], [ 117.314716821958939, 42.407882107713185 ], [ 117.314716866976923, 42.407891113602098 ], [ 117.314710790746943, 42.407891130282806 ], [ 117.314710925798408, 42.407918147949459 ], [ 117.314717002031003, 42.407918131268737 ], [ 117.314717114576226, 42.407940645990848 ], [ 117.314735343280518, 42.407940595946719 ], [ 117.314735365790881, 42.407945098891119 ] ] ] } },
{ "type": "Feature", "properties": { "crown_id": 5992, "tree_id": "5996", "top_h_m": 21.637, "H_95_Mean": 21.4876, "DBH": 31.1151, "Carbon_kg": 191.185174, "area_m2": 20.75 }, "geometry": { "type": "Polygon", "coordinates": [ [ [ 117.314704984614849, 42.407945182296409 ], [ 117.314711060850072, 42.407945165615999 ], [ 117.31471094830701, 42.407922650893887 ], [ 117.314704872073975, 42.407922667574283 ], [ 117.314704669500685, 42.407882141074268 ], [ 117.314692517042403, 42.40788217443405 ], [ 117.314692494535166, 42.40787767148958 ], [ 117.314674265849021, 42.407877721526837 ], [ 117.314674288354979, 42.407882224471315 ], [ 117.31466821212581, 42.407882241149764 ], [ 117.314668257136844, 42.407891247038719 ], [ 117.31464395221667, 42.407891313749289 ], [ 117.314644019728064, 42.407904822582715 ], [ 117.314656172190752, 42.407904789228056 ], [ 117.314656194695417, 42.407909292172526 ], [ 117.314668347158957, 42.407909258816566 ], [ 117.314668392170063, 42.407918264705472 ], [ 117.3146744684027, 42.407918248027023 ], [ 117.3146744909087, 42.407922750971466 ], [ 117.314680567141764, 42.407922734292669 ], [ 117.314680589648191, 42.407927237237111 ], [ 117.31468666588168, 42.407927220558001 ], [ 117.314686688388548, 42.407931723502436 ], [ 117.314698840856408, 42.407931690143229 ], [ 117.314698863364143, 42.407936193087657 ], [ 117.314704939598499, 42.407936176407567 ], [ 117.314704984614849, 42.407945182296409 ] ] ] } },
{ "type": "Feature", "properties": { "crown_id": 6027, "tree_id": "6031", "top_h_m": 23.281, "H_95_Mean": 23.2924, "DBH": 29.7293, "Carbon_kg": 182.932704, "area_m2": 15.0 }, "geometry": { "type": "Polygon", "coordinates": [ [ [ 117.314558997483999, 42.407914061918277 ], [ 117.314571149948591, 42.407914028572641 ], [ 117.314571104951398, 42.407905022683629 ], [ 117.314577181182827, 42.407905006010324 ], [ 117.314577158683818, 42.407900503065818 ], [ 117.314601463607687, 42.407900436369395 ], [ 117.314601418606188, 42.407891430480397 ], [ 117.31461357106636, 42.407891397130264 ], [ 117.314613548564751, 42.407886894185765 ], [ 117.314619624794375, 42.407886877510215 ], [ 117.314619647296411, 42.407891380454721 ], [ 117.31462572352649, 42.407891363778838 ], [ 117.314625678521551, 42.407882357889847 ], [ 117.314613526063141, 42.407882391241273 ], [ 117.314613503561546, 42.40787788829676 ], [ 117.31460742733276, 42.40787790497199 ], [ 117.314607404831619, 42.407873402027477 ], [ 117.314583099918181, 42.407873468725128 ], [ 117.314583054919368, 42.407864462836073 ], [ 117.314570902464354, 42.40786449618296 ], [ 117.314570969960002, 42.407878005016542 ], [ 117.314564893731173, 42.407878021689505 ], [ 117.314564938727415, 42.40788702757856 ], [ 117.314558862497748, 42.407887044251211 ], [ 117.314558952488554, 42.407905056029271 ], [ 117.314552876257125, 42.40790507270161 ], [ 117.314552898754414, 42.407909575646123 ], [ 117.314558974986284, 42.407909558973778 ], [ 117.314558997483999, 42.407914061918277 ] ] ] } },
{ "type": "Feature", "properties": { "crown_id": 6028, "tree_id": "6032", "top_h_m": 24.521, "H_95_Mean": 24.3539, "DBH": 36.2154, "Carbon_kg": 279.565431, "area_m2": 29.75 }, "geometry": { "type": "Polygon", "coordinates": [ [ [ 117.314783908130735, 42.407931456592763 ], [ 117.314802136832228, 42.407931406538019 ], [ 117.31480206928687, 42.407917897704849 ], [ 117.314808145519393, 42.407917881019308 ], [ 117.314808168034943, 42.407922383963687 ], [ 117.314820320500843, 42.407922350591619 ], [ 117.314820252951606, 42.407908841758463 ], [ 117.314826329183248, 42.407908825071949 ], [ 117.314826171565485, 42.407877304461131 ], [ 117.314832247794072, 42.407877287774319 ], [ 117.314832202759604, 42.407868281885484 ], [ 117.314813974076429, 42.407868331944947 ], [ 117.314813996592335, 42.407872834889375 ], [ 117.314765386766808, 42.40787296836713 ], [ 117.31476536425437, 42.407868465422681 ], [ 117.31474105934322, 42.407868532153806 ], [ 117.314741104364657, 42.407877538042726 ], [ 117.314753256821973, 42.407877504677785 ], [ 117.314753279333587, 42.407882007622234 ], [ 117.314759355562643, 42.407881990939281 ], [ 117.314759400586738, 42.407890996828158 ], [ 117.314765476816689, 42.40789098014487 ], [ 117.31476549932917, 42.407895483089312 ], [ 117.314771575559547, 42.407895466405705 ], [ 117.314771643098297, 42.407908975238954 ], [ 117.314777719329982, 42.407908958555019 ], [ 117.31477778687011, 42.407922467388232 ], [ 117.314783863103088, 42.407922450703971 ], [ 117.314783908130735, 42.407931456592763 ] ] ] } },
{ "type": "Feature", "properties": { "crown_id": 6069, "tree_id": "6073", "top_h_m": 23.183, "H_95_Mean": 23.2233, "DBH": 29.1648, "Carbon_kg": 175.690332, "area_m2": 14.0 }, "geometry": { "type": "Polygon", "coordinates": [ [ [ 117.314771440482133, 42.407868448739087 ], [ 117.314807897848681, 42.407868348630792 ], [ 117.314807875333187, 42.40786384568635 ], [ 117.314820027787803, 42.407863812314353 ], [ 117.314819960238751, 42.407850303481048 ], [ 117.31480780778675, 42.407850336853031 ], [ 117.314807740240369, 42.407836828019683 ], [ 117.314783435341539, 42.407836894759768 ], [ 117.314783457855256, 42.407841397704246 ], [ 117.314777381630094, 42.40784141438845 ], [ 117.314777404143385, 42.407845917332921 ], [ 117.314759175466591, 42.407845967383643 ], [ 117.314759197978589, 42.407850470328107 ], [ 117.314753121752517, 42.407850487011046 ], [ 117.314753189287217, 42.407863995844437 ], [ 117.314771417969283, 42.407863945794638 ], [ 117.314771440482133, 42.407868448739087 ] ] ] } },
{ "type": "Feature", "properties": { "crown_id": 6082, "tree_id": "6086", "top_h_m": 25.7, "H_95_Mean": 25.4799, "DBH": 34.9054, "Carbon_kg": 266.590194, "area_m2": 23.75 }, "geometry": { "type": "Polygon", "coordinates": [ [ [ 117.314643929712901, 42.40788681080479 ], [ 117.314662158401717, 42.407886760772357 ], [ 117.314662113391577, 42.407877754883401 ], [ 117.314668189620306, 42.407877738205279 ], [ 117.314668167114775, 42.407873235260801 ], [ 117.314698548256189, 42.407873151865381 ], [ 117.314698570763881, 42.407877654809845 ], [ 117.314704646992567, 42.407877638129797 ], [ 117.314704556960166, 42.4078596263519 ], [ 117.314692404506232, 42.407859659711661 ], [ 117.314692291970175, 42.407837144989188 ], [ 117.314680139520561, 42.407837178347627 ], [ 117.314680117014248, 42.407832675403114 ], [ 117.314661888341092, 42.407832725438368 ], [ 117.314661865836072, 42.407828222493841 ], [ 117.314655789612132, 42.407828239171614 ], [ 117.314655812116712, 42.407832742116142 ], [ 117.314649735892303, 42.407832758793582 ], [ 117.314649780900638, 42.407841764682637 ], [ 117.3146376284501, 42.407841798036571 ], [ 117.314637830979933, 42.407882324537148 ], [ 117.314643907209117, 42.407882307860305 ], [ 117.314643929712901, 42.40788681080479 ] ] ] } },
{ "type": "Feature", "properties": { "crown_id": 6088, "tree_id": "6092", "top_h_m": 25.454, "H_95_Mean": 25.3626, "DBH": 31.0735, "Carbon_kg": 210.315723, "area_m2": 15.25 }, "geometry": { "type": "Polygon", "coordinates": [ [ [ 117.314619579790303, 42.407877871621217 ], [ 117.314631732247832, 42.407877838269165 ], [ 117.314631552224796, 42.407841814713059 ], [ 117.314601171098332, 42.407841898090673 ], [ 117.31460114859766, 42.407837395146117 ], [ 117.314595072372768, 42.40783741182068 ], [ 117.314595049872523, 42.407832908876138 ], [ 117.3145889736481, 42.407832925550366 ], [ 117.314588951148295, 42.40782842260581 ], [ 117.31458287492427, 42.407828439279719 ], [ 117.314582897423634, 42.407832942224275 ], [ 117.314576821199182, 42.407832958897856 ], [ 117.314576911194962, 42.407850970676051 ], [ 117.314582987421176, 42.407850954002456 ], [ 117.314583032419961, 42.407859959891546 ], [ 117.314589108647013, 42.407859943217616 ], [ 117.314589153646708, 42.407868949106671 ], [ 117.314613458558355, 42.40786888240774 ], [ 117.314613481059936, 42.407873385352254 ], [ 117.314619557288296, 42.407873368676711 ], [ 117.314619579790303, 42.407877871621217 ] ] ] } },
{ "type": "Feature", "properties": { "crown_id": 6097, "tree_id": "6101", "top_h_m": 21.82, "H_95_Mean": 21.7113, "DBH": 31.3644, "Carbon_kg": 195.478861, "area_m2": 21.0 }, "geometry": { "type": "Polygon", "coordinates": [ [ [ 117.314710678204179, 42.407868615560488 ], [ 117.314728906887609, 42.407868565517447 ], [ 117.314728884377786, 42.40786406257299 ], [ 117.31474711305988, 42.40786401252705 ], [ 117.314747023015357, 42.407846000749188 ], [ 117.31475309924096, 42.407845984066576 ], [ 117.314753009194803, 42.407827972288665 ], [ 117.314746932970934, 42.407827988971263 ], [ 117.314746842926553, 42.407809977193281 ], [ 117.314734690482254, 42.40781001055749 ], [ 117.314734667972047, 42.407805507612984 ], [ 117.314728591750338, 42.407805524294602 ], [ 117.314728614260119, 42.407810027239123 ], [ 117.314716461815777, 42.407810060601392 ], [ 117.314716574360361, 42.407832575323916 ], [ 117.314704421911671, 42.407832608684942 ], [ 117.314704444419746, 42.407837111629441 ], [ 117.314698368194954, 42.407837128309481 ], [ 117.31469845822555, 42.407855140087449 ], [ 117.314710610678588, 42.407855106727048 ], [ 117.314710678204179, 42.407868615560488 ] ] ] } },
{ "type": "Feature", "properties": { "crown_id": 6102, "tree_id": "6106", "top_h_m": 25.436, "H_95_Mean": 25.3559, "DBH": 28.5619, "Carbon_kg": 177.431505, "area_m2": 11.0 }, "geometry": { "type": "Polygon", "coordinates": [ [ [ 117.314607224822524, 42.40783737847125 ], [ 117.314643682171649, 42.407837278415244 ], [ 117.314643637164195, 42.407828272526181 ], [ 117.314649713388178, 42.407828255849054 ], [ 117.314649645875761, 42.407814747015451 ], [ 117.314582807426177, 42.407814930446015 ], [ 117.314582852424891, 42.407823936335163 ], [ 117.314595004872061, 42.40782390298704 ], [ 117.314595027372292, 42.407828405931575 ], [ 117.314601103596289, 42.407828389257041 ], [ 117.31460112609696, 42.407832892201576 ], [ 117.314607202321397, 42.407832875526708 ], [ 117.314607224822524, 42.40783737847125 ] ] ] } },
{ "type": "Feature", "properties": { "crown_id": 6129, "tree_id": "6133", "top_h_m": 24.028, "H_95_Mean": 23.95, "DBH": 30.7485, "Carbon_kg": 199.043558, "area_m2": 16.25 }, "geometry": { "type": "Polygon", "coordinates": [ [ [ 117.3146861932386, 42.407832658724047 ], [ 117.314698345687347, 42.407832625364975 ], [ 117.314698323179698, 42.407828122420476 ], [ 117.314710475627535, 42.407828089060096 ], [ 117.314710363085155, 42.407805574337544 ], [ 117.314704286863389, 42.407805591017869 ], [ 117.31470426435537, 42.407801088073327 ], [ 117.314692111912734, 42.407801121433025 ], [ 117.314692066898445, 42.407792115543963 ], [ 117.314661685796125, 42.407792198937528 ], [ 117.314661708301088, 42.407796701882077 ], [ 117.314655632080203, 42.407796718559837 ], [ 117.314655677089291, 42.407805724448934 ], [ 117.314649600867511, 42.407805741126367 ], [ 117.314649623371636, 42.407810244070909 ], [ 117.314655699593857, 42.407810227393462 ], [ 117.314655767107539, 42.407823736227073 ], [ 117.31466791955458, 42.407823702871234 ], [ 117.314667942060026, 42.407828205815747 ], [ 117.314686170731861, 42.407828155779541 ], [ 117.3146861932386, 42.407832658724047 ] ] ] } },
{ "type": "Feature", "properties": { "crown_id": 6130, "tree_id": "6134", "top_h_m": 21.416, "H_95_Mean": 21.2923, "DBH": 27.6001, "Carbon_kg": 149.341794, "area_m2": 13.25 }, "geometry": { "type": "Polygon", "coordinates": [ [ [ 117.314759152954593, 42.40784146443918 ], [ 117.314771305404946, 42.407841431072363 ], [ 117.314771282892082, 42.407836928127871 ], [ 117.314777359116803, 42.407836911443987 ], [ 117.314777336603541, 42.407832408499523 ], [ 117.31481379394917, 42.407832308389416 ], [ 117.31481370388569, 42.407814296611562 ], [ 117.314801551440638, 42.407814329982862 ], [ 117.314801528925642, 42.407809827038385 ], [ 117.314771147815094, 42.40780991046099 ], [ 117.314771125302272, 42.407805407516499 ], [ 117.314758972858897, 42.407805440883287 ], [ 117.314758995370838, 42.407809943827779 ], [ 117.314752919148688, 42.407809960510697 ], [ 117.314752986683274, 42.40782346934418 ], [ 117.314759062906703, 42.407823452661262 ], [ 117.314759152954593, 42.40784146443918 ] ] ] } },
{ "type": "Feature", "properties": { "crown_id": 6165, "tree_id": "6169", "top_h_m": 24.841, "H_95_Mean": 24.7866, "DBH": 38.1469, "Carbon_kg": 313.681344, "area_m2": 35.25 }, "geometry": { "type": "Polygon", "coordinates": [ [ [ 117.314570632482258, 42.407810460848268 ], [ 117.314643547149387, 42.407810260748022 ], [ 117.314643502142019, 42.407801254858924 ], [ 117.314649578363372, 42.407801238181811 ], [ 117.314649533355166, 42.407792232292699 ], [ 117.314655609575638, 42.407792215615281 ], [ 117.314655542062056, 42.407778706781599 ], [ 117.314649465842862, 42.407778723459003 ], [ 117.31464944333878, 42.40777422051444 ], [ 117.314643367120027, 42.407774237191532 ], [ 117.314643344616371, 42.407769734246955 ], [ 117.314637268398073, 42.40776975092372 ], [ 117.314637245894858, 42.407765247979135 ], [ 117.314625093459071, 42.407765281331699 ], [ 117.314625003449748, 42.407747269553319 ], [ 117.314618927233596, 42.407747286229096 ], [ 117.314618904731731, 42.40774278328449 ], [ 117.31461282851599, 42.407742799959955 ], [ 117.314612873518882, 42.40775180584918 ], [ 117.314606797302261, 42.407751822524332 ], [ 117.314606819803288, 42.407756325468938 ], [ 117.314594667369178, 42.407756358818268 ], [ 117.314594689869338, 42.407760861762874 ], [ 117.314582537434362, 42.407760895110926 ], [ 117.314582627431534, 42.407778906889362 ], [ 117.314570474993047, 42.407778940236135 ], [ 117.314570564986852, 42.407796952014529 ], [ 117.314564488765868, 42.407796968687443 ], [ 117.314564511263896, 42.407801471632027 ], [ 117.314570587485335, 42.407801454959106 ], [ 117.314570632482258, 42.407810460848268 ] ] ] } },
{ "type": "Feature", "properties": { "crown_id": 6181, "tree_id": "6185", "top_h_m": 26.15, "H_95_Mean": 25.6654, "DBH": 28.7245, "Carbon_kg": 180.76573, "area_m2": 11.0 }, "geometry": { "type": "Polygon", "coordinates": [ [ [ 117.314777201523952, 42.407805390832635 ], [ 117.314801506410646, 42.407805324093907 ], [ 117.31480148389565, 42.407800821149415 ], [ 117.314795407674424, 42.407800837834586 ], [ 117.314795340130814, 42.407787329001103 ], [ 117.314789263910882, 42.407787345685932 ], [ 117.31478917385455, 42.407769333907893 ], [ 117.314783097636351, 42.407769350592389 ], [ 117.314783075122733, 42.407764847647869 ], [ 117.314776998904961, 42.407764864332044 ], [ 117.314777021418152, 42.407769367276572 ], [ 117.314764868981726, 42.407769400643957 ], [ 117.314764891494065, 42.407773903588478 ], [ 117.314758815275411, 42.407773920271694 ], [ 117.31475886029925, 42.407782926160728 ], [ 117.314752784079715, 42.407782942843625 ], [ 117.314752829102687, 42.407791948732665 ], [ 117.314758905323075, 42.407791932049768 ], [ 117.314758950346956, 42.407800937938781 ], [ 117.314777179010719, 42.407800887888129 ], [ 117.314777201523952, 42.407805390832635 ] ] ] } }
]
}
