{
"type": "FeatureCollection",
"name": "tile_1_23",
"crs": { "type": "name", "properties": { "name": "urn:ogc:def:crs:OGC:1.3:CRS84" } },
"features": [
{ "type": "Feature", "properties": { "crown_id": 33, "tree_id": "33", "top_h_m": 20.242, "H_95_Mean": 20.6541, "DBH": 22.6449, "Carbon_kg": 98.435724, "area_m2": 6.5 }, "geometry": { "type": "Polygon", "coordinates": [ [ [ 117.315475834639969, 42.411414880304093 ], [ 117.315536600336216, 42.411414713065916 ], [ 117.315536555195422, 42.41140570718327 ], [ 117.315506172351704, 42.411405790806356 ], [ 117.315506149783488, 42.411401287865004 ], [ 117.315487920078482, 42.411401338034999 ], [ 117.315487897511559, 42.411396835093647 ], [ 117.31548182094366, 42.411396851816328 ], [ 117.315481843510142, 42.411401354757679 ], [ 117.315475766941788, 42.411401371480039 ], [ 117.315475834639969, 42.411414880304093 ] ] ] } },
{ "type": "Feature", "properties": { "crown_id": 54, "tree_id": "54", "top_h_m": 17.516, "H_95_Mean": 17.8285, "DBH": 22.2718, "Carbon_kg": 87.261274, "area_m2": 8.0 }, "geometry": { "type": "Polygon", "coordinates": [ [ [ 117.315329996966781, 42.411415281544315 ], [ 117.315366456385348, 42.411415181251648 ], [ 117.315366433827123, 42.411410678310261 ], [ 117.315360357257788, 42.411410695026497 ], [ 117.315360334700003, 42.411406192085096 ], [ 117.315354258131123, 42.411406208801019 ], [ 117.315354213016406, 42.411397202918209 ], [ 117.315348136448392, 42.411397219633798 ], [ 117.31534809133457, 42.411388213750961 ], [ 117.315342014767396, 42.411388230466237 ], [ 117.31534194709802, 42.411374721641941 ], [ 117.315335870532181, 42.411374738356884 ], [ 117.315335893088189, 42.411379241298327 ], [ 117.31532981652191, 42.411379258012936 ], [ 117.315329839077478, 42.411383760954365 ], [ 117.315323762510744, 42.411383777668668 ], [ 117.315323807621084, 42.411392783551527 ], [ 117.315329884188685, 42.411392766837224 ], [ 117.315329996966781, 42.411415281544315 ] ] ] } },
{ "type": "Feature", "properties": { "crown_id": 65, "tree_id": "65", "top_h_m": 19.693, "H_95_Mean": 19.6657, "DBH": 28.0139, "Carbon_kg": 146.823021, "area_m2": 16.25 }, "geometry": { "type": "Polygon", "coordinates": [ [ [ 117.315396839234026, 42.411415097665568 ], [ 117.315469758070307, 42.411414897026141 ], [ 117.315469667807832, 42.411396885260721 ], [ 117.315475744375746, 42.411396868538688 ], [ 117.315475721809705, 42.411392365597337 ], [ 117.315481798377192, 42.411392348874976 ], [ 117.315481753244256, 42.411383342992245 ], [ 117.315463523544423, 42.411383393158332 ], [ 117.315463546109569, 42.411387896099704 ], [ 117.315439239841311, 42.411387962983305 ], [ 117.315439262404723, 42.411392465924692 ], [ 117.315408879567116, 42.41139254952197 ], [ 117.315408902128368, 42.411397052463371 ], [ 117.315402825560383, 42.411397069181859 ], [ 117.31540289324289, 42.41141057800602 ], [ 117.315396816673612, 42.411410594724195 ], [ 117.315396839234026, 42.411415097665568 ] ], [ [ 117.315408947250901, 42.411406058346138 ], [ 117.315408924689621, 42.411401555404744 ], [ 117.315415001258046, 42.411401538685936 ], [ 117.315415023819725, 42.411406041627309 ], [ 117.315408947250901, 42.411406058346138 ] ] ] } },
{ "type": "Feature", "properties": { "crown_id": 80, "tree_id": "80", "top_h_m": 19.321, "H_95_Mean": 19.3843, "DBH": 27.5993, "Carbon_kg": 141.266999, "area_m2": 15.75 }, "geometry": { "type": "Polygon", "coordinates": [ [ [ 117.315372532955095, 42.411415164535072 ], [ 117.315378609524828, 42.41141514781819 ], [ 117.315378564406629, 42.411406141935402 ], [ 117.315384640975509, 42.411406125218186 ], [ 117.315384663535028, 42.411410628159587 ], [ 117.315390740104334, 42.411410611442051 ], [ 117.315390717544346, 42.411406108500664 ], [ 117.315396794113198, 42.411406091782801 ], [ 117.315396726432013, 42.411392582958641 ], [ 117.315402802999571, 42.411392566240465 ], [ 117.315402757877933, 42.411383560357663 ], [ 117.31539668131127, 42.411383577075831 ], [ 117.315396591069799, 42.411365565310199 ], [ 117.315366208245038, 42.411365648896115 ], [ 117.315366230803207, 42.411370151837552 ], [ 117.315360154237823, 42.411370168553773 ], [ 117.315360176795565, 42.411374671495203 ], [ 117.315348023663873, 42.411374704926686 ], [ 117.315348068777666, 42.411383710809545 ], [ 117.315354145344386, 42.411383694093956 ], [ 117.315354190459075, 42.411392699976787 ], [ 117.315360267026648, 42.411392683260885 ], [ 117.315360312142204, 42.411401689143688 ], [ 117.315366388710657, 42.411401672427459 ], [ 117.315366411268883, 42.411406175368853 ], [ 117.315372487837749, 42.411406158652284 ], [ 117.315372532955095, 42.411415164535072 ] ] ] } },
{ "type": "Feature", "properties": { "crown_id": 90, "tree_id": "90", "top_h_m": 23.069, "H_95_Mean": 22.7889, "DBH": 32.4763, "Carbon_kg": 215.792396, "area_m2": 22.0 }, "geometry": { "type": "Polygon", "coordinates": [ [ [ 117.3155122263518, 42.411401271141045 ], [ 117.31553045605672, 42.411401220967193 ], [ 117.315530410916821, 42.41139221508454 ], [ 117.315536487484238, 42.41139219835928 ], [ 117.315536510054628, 42.411396701300617 ], [ 117.315554739758198, 42.411396651122914 ], [ 117.315554672043149, 42.411383142298916 ], [ 117.315560748609684, 42.411383125572385 ], [ 117.315560726037589, 42.411378622631048 ], [ 117.315548572905357, 42.411378656083798 ], [ 117.315548550334128, 42.411374153142454 ], [ 117.315554626899797, 42.411374136416249 ], [ 117.315554581756487, 42.411365130533547 ], [ 117.315530275497224, 42.411365197436439 ], [ 117.315530230357382, 42.411356191553708 ], [ 117.315512000665493, 42.411356241727475 ], [ 117.315512023234092, 42.411360744668848 ], [ 117.315505946669703, 42.4113607613928 ], [ 117.315505924101529, 42.411356258451413 ], [ 117.315499847537538, 42.411356275175045 ], [ 117.315499892673017, 42.411365281057797 ], [ 117.315487739543315, 42.411365314504089 ], [ 117.31548778467706, 42.411374320386834 ], [ 117.315481708111335, 42.411374337109507 ], [ 117.315481730677789, 42.411378840050872 ], [ 117.315487807243954, 42.411378823328207 ], [ 117.315487874944665, 42.411392332152303 ], [ 117.31549395151211, 42.411392315429296 ], [ 117.315493974079473, 42.411396818370648 ], [ 117.315512203783143, 42.411396768199701 ], [ 117.3155122263518, 42.411401271141045 ] ] ] } },
{ "type": "Feature", "properties": { "crown_id": 102, "tree_id": "102", "top_h_m": 19.574, "H_95_Mean": 19.7604, "DBH": 27.3861, "Carbon_kg": 140.665919, "area_m2": 14.75 }, "geometry": { "type": "Polygon", "coordinates": [ [ [ 117.315408857005849, 42.411388046580583 ], [ 117.315433163274221, 42.411387979703406 ], [ 117.315433140711235, 42.411383476762026 ], [ 117.315457446977788, 42.411383409879711 ], [ 117.315457424413069, 42.411378906938324 ], [ 117.315475654111623, 42.411378856773226 ], [ 117.315475631545596, 42.411374353831846 ], [ 117.315463478414102, 42.411374387275572 ], [ 117.315463410718692, 42.411360878451418 ], [ 117.315457334154246, 42.411360895172784 ], [ 117.315457356718937, 42.411365398114171 ], [ 117.315451280154051, 42.411365414835224 ], [ 117.31545123502552, 42.411356408952436 ], [ 117.315414775641273, 42.411356509271947 ], [ 117.315414798202937, 42.411361012213355 ], [ 117.315402645073931, 42.411361045650615 ], [ 117.315402735317136, 42.411379057416269 ], [ 117.315408811883358, 42.411379040697781 ], [ 117.315408857005849, 42.411388046580583 ] ] ] } },
{ "type": "Feature", "properties": { "crown_id": 142, "tree_id": "142", "top_h_m": 20.156, "H_95_Mean": 20.2106, "DBH": 27.3112, "Carbon_kg": 141.767991, "area_m2": 14.0 }, "geometry": { "type": "Polygon", "coordinates": [ [ [ 117.315560658321289, 42.411365113807022 ], [ 117.315578888015651, 42.41136506362551 ], [ 117.315578842868874, 42.411356057742829 ], [ 117.315566689741047, 42.411356091197483 ], [ 117.315566667168525, 42.411351588256117 ], [ 117.315572743732034, 42.411351571528961 ], [ 117.315572653440285, 42.411333559763513 ], [ 117.315566576878524, 42.411333576490676 ], [ 117.315566531733552, 42.411324570607931 ], [ 117.315542225489992, 42.411324637513296 ], [ 117.315542248060737, 42.41132914045469 ], [ 117.315536171499389, 42.411329157180219 ], [ 117.315536194069693, 42.411333660121606 ], [ 117.315524040946144, 42.411333693571713 ], [ 117.315524131223981, 42.411351705337239 ], [ 117.315536284351012, 42.411351671887104 ], [ 117.315536329491692, 42.411360677769835 ], [ 117.315560635749193, 42.411360610865678 ], [ 117.315560658321289, 42.411365113807022 ] ] ] } },
{ "type": "Feature", "properties": { "crown_id": 159, "tree_id": "159", "top_h_m": 21.02, "H_95_Mean": 20.5628, "DBH": 31.8061, "Carbon_kg": 194.706378, "area_m2": 24.5 }, "geometry": { "type": "MultiPolygon", "coordinates": [ [ [ [ 117.315475338187824, 42.411315815593639 ], [ 117.315475315621882, 42.411311312652224 ], [ 117.315469239062224, 42.411311329374215 ], [ 117.315469216496723, 42.411306826432778 ], [ 117.315463139937492, 42.411306843154442 ], [ 117.315463162502553, 42.411311346095879 ], [ 117.31545100938321, 42.411311379538233 ], [ 117.315451031947404, 42.41131588247967 ], [ 117.315444955387306, 42.411315899200368 ], [ 117.315444977951074, 42.411320402141804 ], [ 117.315432824829969, 42.41132043558224 ], [ 117.31543284739287, 42.411324938523684 ], [ 117.315426770831891, 42.411324955243423 ], [ 117.315426748269388, 42.411320452301979 ], [ 117.315414595148255, 42.41132048574049 ], [ 117.315414753079637, 42.411352006330517 ], [ 117.315420829643244, 42.411351989611411 ], [ 117.315420807081182, 42.411347486669996 ], [ 117.315426883644363, 42.411347469950556 ], [ 117.315426906206852, 42.411351972891978 ], [ 117.315457289024849, 42.411351889289982 ], [ 117.31545731158954, 42.411356392231383 ], [ 117.315469464717566, 42.411356358788325 ], [ 117.315469442152008, 42.411351855846924 ], [ 117.315475518715573, 42.411351839124912 ], [ 117.315475541281586, 42.411356342066313 ], [ 117.315487694409555, 42.411356308621329 ], [ 117.315487671842703, 42.411351805679935 ], [ 117.315493748406269, 42.411351788956956 ], [ 117.31549370327167, 42.41134278307419 ], [ 117.315487626709015, 42.411342799797147 ], [ 117.315487649275866, 42.411347302738541 ], [ 117.315475496149588, 42.411347336183518 ], [ 117.315475428451663, 42.411333827359307 ], [ 117.31548150501348, 42.411333810636997 ], [ 117.315481482447098, 42.411329307695574 ], [ 117.315487559008488, 42.411329290972944 ], [ 117.315487581575312, 42.411333793914338 ], [ 117.315499734698946, 42.411333760468089 ], [ 117.315499689563538, 42.411324754585287 ], [ 117.315493613002602, 42.411324771308578 ], [ 117.315493590435338, 42.411320268367156 ], [ 117.315481437314304, 42.411320301812751 ], [ 117.315481414747921, 42.411315798871328 ], [ 117.315475338187824, 42.411315815593639 ] ], [ [ 117.315469284193256, 42.411320335257059 ], [ 117.315469261627726, 42.41131583231563 ], [ 117.315475338187824, 42.411315815593639 ], [ 117.31547536075378, 42.411320318535054 ], [ 117.315469284193256, 42.411320335257059 ] ] ], [ [ [ 117.315469464717566, 42.411356358788325 ], [ 117.315469509848697, 42.411365364671099 ], [ 117.315475586413569, 42.411365347949086 ], [ 117.315475541281586, 42.411356342066313 ], [ 117.315469464717566, 42.411356358788325 ] ] ] ] } },
{ "type": "Feature", "properties": { "crown_id": 200, "tree_id": "200", "top_h_m": 20.457, "H_95_Mean": 20.1133, "DBH": 29.8711, "Carbon_kg": 169.341011, "area_m2": 20.0 }, "geometry": { "type": "Polygon", "coordinates": [ [ [ 117.315317437842324, 42.411334262026607 ], [ 117.315329590966257, 42.411334228598392 ], [ 117.315329568410704, 42.41132972565692 ], [ 117.315347798095246, 42.411329675512192 ], [ 117.315347775538413, 42.41132517257072 ], [ 117.315366005221605, 42.411325122423108 ], [ 117.315366027779731, 42.411329625364552 ], [ 117.315372104341222, 42.411329608648046 ], [ 117.315372126899803, 42.41133411158949 ], [ 117.315378203461705, 42.41133409487265 ], [ 117.315378180902698, 42.411329591931192 ], [ 117.315384257464174, 42.41132957521404 ], [ 117.315384212345307, 42.411320569331117 ], [ 117.315378135784698, 42.411320586048276 ], [ 117.315378113225691, 42.411316083106811 ], [ 117.315390266346029, 42.41131604967218 ], [ 117.315390243786183, 42.411311546730715 ], [ 117.315384167226441, 42.411311563448194 ], [ 117.315384122107602, 42.41130255756525 ], [ 117.315378045548727, 42.411302574282395 ], [ 117.315378022989762, 42.41129807134093 ], [ 117.315371946431313, 42.411298088057748 ], [ 117.315371878755727, 42.411284579233282 ], [ 117.315353649084287, 42.411284629381811 ], [ 117.315353671641503, 42.411289132323311 ], [ 117.315335441968713, 42.411289182468934 ], [ 117.315335487080588, 42.411298188351942 ], [ 117.315329410522111, 42.411298205066515 ], [ 117.315329523299653, 42.411320719773968 ], [ 117.315323446739015, 42.411320736488221 ], [ 117.315323469294086, 42.411325239429708 ], [ 117.315317392732993, 42.411325256143648 ], [ 117.315317437842324, 42.411334262026607 ] ] ] } },
{ "type": "Feature", "properties": { "crown_id": 201, "tree_id": "201", "top_h_m": 19.867, "H_95_Mean": 19.314, "DBH": 29.3944, "Carbon_kg": 160.053225, "area_m2": 20.25 }, "geometry": { "type": "Polygon", "coordinates": [ [ [ 117.315511887822538, 42.411333727020548 ], [ 117.315517964384341, 42.411333710296297 ], [ 117.31551794181533, 42.411329207354903 ], [ 117.31553009493804, 42.411329173905436 ], [ 117.315530072368162, 42.411324670964056 ], [ 117.315536148929084, 42.411324654238832 ], [ 117.315536126358765, 42.411320151297438 ], [ 117.315554356040181, 42.41132010111987 ], [ 117.315554333468569, 42.411315598178483 ], [ 117.315548256908556, 42.411315614904659 ], [ 117.315548166623927, 42.411297603139062 ], [ 117.315560319740513, 42.411297569686418 ], [ 117.315560252024483, 42.411284060862201 ], [ 117.315554175467497, 42.411284077588675 ], [ 117.315554152895942, 42.41127957464726 ], [ 117.315541999782837, 42.41127960809925 ], [ 117.315542067494917, 42.41129311692351 ], [ 117.315535990937065, 42.411293133649018 ], [ 117.315535968366802, 42.411288630707602 ], [ 117.315517738694481, 42.411288680882215 ], [ 117.315517716125512, 42.411284177940786 ], [ 117.31550556301147, 42.411284211388917 ], [ 117.315505608147674, 42.411293217271776 ], [ 117.315499531589765, 42.411293233995359 ], [ 117.315499576725117, 42.411302239878211 ], [ 117.315487423607564, 42.411302273324431 ], [ 117.315487491307991, 42.411315782148705 ], [ 117.315499644428158, 42.411315748702471 ], [ 117.315499666995848, 42.411320251643872 ], [ 117.315505743556344, 42.411320234920275 ], [ 117.31550578869259, 42.411329240803084 ], [ 117.315511865253967, 42.411329224079154 ], [ 117.315511887822538, 42.411333727020548 ] ], [ [ 117.315517919246318, 42.411324704413516 ], [ 117.315517896677335, 42.411320201472101 ], [ 117.315523973237816, 42.411320184747538 ], [ 117.315523995807254, 42.411324687688939 ], [ 117.315517919246318, 42.411324704413516 ] ] ] } },
{ "type": "Feature", "properties": { "crown_id": 235, "tree_id": "235", "top_h_m": 15.906, "H_95_Mean": 16.9141, "DBH": 24.7302, "Carbon_kg": 104.459097, "area_m2": 13.25 }, "geometry": { "type": "Polygon", "coordinates": [ [ [ 117.315396320345897, 42.41131153001291 ], [ 117.315402396905611, 42.411311513294791 ], [ 117.315402374344885, 42.411307010353333 ], [ 117.315408450904172, 42.411306993634902 ], [ 117.315408473465354, 42.41131149657636 ], [ 117.315420626584753, 42.411311463138503 ], [ 117.31542055889868, 42.411297954314122 ], [ 117.315426635457072, 42.411297937594732 ], [ 117.315426612894626, 42.411293434653274 ], [ 117.315420536336674, 42.411293451372671 ], [ 117.315420491212663, 42.411284445489734 ], [ 117.31541441465555, 42.411284462208812 ], [ 117.315414392093984, 42.411279959267333 ], [ 117.315402238980639, 42.4112799927045 ], [ 117.315402216419969, 42.411275489763021 ], [ 117.315396139863722, 42.411275506481125 ], [ 117.315396072182992, 42.411261997656638 ], [ 117.315389995628024, 42.411262014374408 ], [ 117.315390018187827, 42.411266517315902 ], [ 117.315377865077053, 42.411266550750483 ], [ 117.315377887636018, 42.411271053691998 ], [ 117.315371811080169, 42.411271070408802 ], [ 117.315371856197203, 42.411280076291803 ], [ 117.315377932753918, 42.411280059574985 ], [ 117.315378000430769, 42.411293568399444 ], [ 117.315384076988778, 42.411293551682299 ], [ 117.315384099548183, 42.411298054623778 ], [ 117.315390176106618, 42.411298037906306 ], [ 117.315390221226323, 42.411307043789257 ], [ 117.315396297785611, 42.411307027071452 ], [ 117.315396320345897, 42.41131153001291 ] ] ] } },
{ "type": "Feature", "properties": { "crown_id": 255, "tree_id": "255", "top_h_m": 20.12, "H_95_Mean": 19.9758, "DBH": 27.4067, "Carbon_kg": 141.785533, "area_m2": 14.5 }, "geometry": { "type": "Polygon", "coordinates": [ [ [ 117.315329342855634, 42.411284696241992 ], [ 117.315347572527116, 42.411284646097336 ], [ 117.315347549970355, 42.411280143155835 ], [ 117.315353626527056, 42.411280126440296 ], [ 117.315353603969854, 42.411275623498803 ], [ 117.315359680526129, 42.411275606782958 ], [ 117.315359612853214, 42.411262097958421 ], [ 117.315365689408196, 42.411262081242256 ], [ 117.315365666850127, 42.411257578300756 ], [ 117.3153595902956, 42.411257595016899 ], [ 117.315359567737985, 42.411253092075384 ], [ 117.31535349118387, 42.411253108791222 ], [ 117.315353446069508, 42.411244102908164 ], [ 117.315323063303254, 42.411244186482463 ], [ 117.315323108413267, 42.41125319236555 ], [ 117.31531095530498, 42.411253225793033 ], [ 117.315311022967435, 42.411266734617634 ], [ 117.315317099522872, 42.411266717904049 ], [ 117.315317167186677, 42.411280226728636 ], [ 117.315329320300165, 42.41128019330047 ], [ 117.315329342855634, 42.411284696241992 ] ] ] } },
{ "type": "Feature", "properties": { "crown_id": 267, "tree_id": "267", "top_h_m": 19.852, "H_95_Mean": 19.3109, "DBH": 30.8707, "Carbon_kg": 176.651207, "area_m2": 24.5 }, "geometry": { "type": "Polygon", "coordinates": [ [ [ 117.315475202792214, 42.411288797945048 ], [ 117.315487355907166, 42.411288764500135 ], [ 117.3154873333404, 42.411284261558684 ], [ 117.315493409897442, 42.411284244835748 ], [ 117.315493387330207, 42.411279741894312 ], [ 117.315523770113131, 42.411279658274808 ], [ 117.315523792682527, 42.411284161216237 ], [ 117.315529869239555, 42.411284144491361 ], [ 117.315529824099897, 42.411275138608509 ], [ 117.315541977212149, 42.411275105157827 ], [ 117.315541954641489, 42.411270602216391 ], [ 117.315548031197153, 42.411270585490577 ], [ 117.315548008626052, 42.411266082549126 ], [ 117.315529778960268, 42.411266132725643 ], [ 117.315529711250889, 42.411252623901319 ], [ 117.31552363469693, 42.411252640626167 ], [ 117.315523566988901, 42.411239131801793 ], [ 117.315517490436221, 42.411239148526306 ], [ 117.315517467867323, 42.411234645584855 ], [ 117.315511391315084, 42.411234662309042 ], [ 117.315511413883556, 42.411239165250514 ], [ 117.31550533733089, 42.411239181974395 ], [ 117.315505292194828, 42.411230176091443 ], [ 117.31549921564303, 42.411230192814998 ], [ 117.31549923821062, 42.411234695756477 ], [ 117.315481008553832, 42.411234745925192 ], [ 117.315481031120129, 42.411239248866686 ], [ 117.315474954567435, 42.411239265588939 ], [ 117.315475112528588, 42.411270786179244 ], [ 117.315469035972839, 42.411270802901207 ], [ 117.315469058538312, 42.411275305842665 ], [ 117.315462981982108, 42.411275322564308 ], [ 117.315463004547155, 42.411279825505758 ], [ 117.315475157660401, 42.411279792062139 ], [ 117.315475202792214, 42.411288797945048 ] ] ] } },
{ "type": "Feature", "properties": { "crown_id": 275, "tree_id": "275", "top_h_m": 19.205, "H_95_Mean": 18.9619, "DBH": 30.9984, "Carbon_kg": 176.215954, "area_m2": 25.75 }, "geometry": { "type": "Polygon", "coordinates": [ [ [ 117.315432689452592, 42.411293417933557 ], [ 117.31545091912642, 42.411293367772458 ], [ 117.315450851433908, 42.411279858948078 ], [ 117.315456927990525, 42.411279842227074 ], [ 117.315456882861326, 42.411270836344173 ], [ 117.31546295941709, 42.411270819622843 ], [ 117.315462936852043, 42.411266316681377 ], [ 117.315469013407395, 42.411266299959735 ], [ 117.315468923145588, 42.411248288193846 ], [ 117.315462846591998, 42.411248304915468 ], [ 117.315462778897029, 42.411234796091023 ], [ 117.315450625792451, 42.411234829533299 ], [ 117.315450603228356, 42.411230326591792 ], [ 117.315438450124631, 42.411230360032775 ], [ 117.315438472687859, 42.411234862974275 ], [ 117.315420243030957, 42.411234913133335 ], [ 117.315420265592891, 42.411239416074849 ], [ 117.315408112487376, 42.411239449512614 ], [ 117.315408225292856, 42.411261964220131 ], [ 117.315402148737917, 42.411261980938541 ], [ 117.315402193859285, 42.411270986821542 ], [ 117.315408270415077, 42.411270970103104 ], [ 117.315408292976201, 42.41127547304459 ], [ 117.315420446088652, 42.41127543960679 ], [ 117.315420468650643, 42.411279942548269 ], [ 117.315426545207316, 42.411279925828872 ], [ 117.31542659033218, 42.411288931711816 ], [ 117.315432666889706, 42.411288914992092 ], [ 117.315432689452592, 42.411293417933557 ] ] ] } },
{ "type": "Feature", "properties": { "crown_id": 310, "tree_id": "310", "top_h_m": 19.314, "H_95_Mean": 19.3983, "DBH": 27.1462, "Carbon_kg": 136.690007, "area_m2": 14.75 }, "geometry": { "type": "Polygon", "coordinates": [ [ [ 117.315535832945301, 42.411261613059033 ], [ 117.315547986054938, 42.411261579607711 ], [ 117.315547963483837, 42.411257076666267 ], [ 117.31557226970132, 42.411257009759765 ], [ 117.3155721342644, 42.411229992111139 ], [ 117.315559981160888, 42.411230025565004 ], [ 117.315559913445099, 42.411216516740623 ], [ 117.315529530692757, 42.411216600369606 ], [ 117.315529575832258, 42.41122560625255 ], [ 117.315523499280886, 42.411225622977391 ], [ 117.315523544419548, 42.411234628860335 ], [ 117.315529620971787, 42.411234612135488 ], [ 117.31552968868111, 42.411248120959868 ], [ 117.315535765234614, 42.411248104234694 ], [ 117.315535832945301, 42.411261613059033 ] ] ] } },
{ "type": "Feature", "properties": { "crown_id": 345, "tree_id": "345", "top_h_m": 16.329, "H_95_Mean": 16.2889, "DBH": 26.1852, "Carbon_kg": 114.633829, "area_m2": 17.75 }, "geometry": { "type": "Polygon", "coordinates": [ [ [ 117.315359500065156, 42.411239583250804 ], [ 117.31536557661795, 42.411239566534654 ], [ 117.315365554059895, 42.411235063593125 ], [ 117.315371630612262, 42.411235046876662 ], [ 117.315371608053809, 42.411230543935119 ], [ 117.315377684605707, 42.411230527218336 ], [ 117.315377707164629, 42.411235030159872 ], [ 117.315395936821659, 42.411234980007571 ], [ 117.315395959381874, 42.411239482949092 ], [ 117.315402035934639, 42.411239466231009 ], [ 117.315401945692102, 42.411221454464922 ], [ 117.315414098794122, 42.411221421027832 ], [ 117.315414053671162, 42.411212415144767 ], [ 117.315395824020698, 42.411212465299919 ], [ 117.315395801460511, 42.411207962358382 ], [ 117.315401878010221, 42.411207945640314 ], [ 117.315401855449636, 42.411203442698785 ], [ 117.315395778900353, 42.411203459416846 ], [ 117.315395756340166, 42.411198956475289 ], [ 117.315371450144696, 42.411199023344281 ], [ 117.315371427586257, 42.411194520402731 ], [ 117.315365351037812, 42.411194537119179 ], [ 117.315365396153808, 42.411203543002301 ], [ 117.315359319604497, 42.411203559718423 ], [ 117.315359342162068, 42.411208062659981 ], [ 117.315347189062535, 42.411208096091272 ], [ 117.315347211619226, 42.411212599032829 ], [ 117.315341135069033, 42.411212615747999 ], [ 117.315341180181562, 42.411221621631121 ], [ 117.31534725673265, 42.411221604915951 ], [ 117.315347279289369, 42.411226107857502 ], [ 117.31535335584087, 42.411226091141998 ], [ 117.315353400955175, 42.411235097025092 ], [ 117.315359477507542, 42.411235080309275 ], [ 117.315359500065156, 42.411239583250804 ] ] ] } },
{ "type": "Feature", "properties": { "crown_id": 372, "tree_id": "372", "top_h_m": 17.49, "H_95_Mean": 17.3116, "DBH": 27.5338, "Carbon_kg": 131.496012, "area_m2": 19.25 }, "geometry": { "type": "Polygon", "coordinates": [ [ [ 117.315474841738194, 42.411216750881486 ], [ 117.315486994839233, 42.411216717436645 ], [ 117.315486972272538, 42.411212214495151 ], [ 117.315505201922775, 42.411212164325498 ], [ 117.315505224490764, 42.411216667266991 ], [ 117.315517377591775, 42.411216633818938 ], [ 117.315517355022891, 42.411212130877459 ], [ 117.31551127847284, 42.411212147601638 ], [ 117.315511255904397, 42.411207644660159 ], [ 117.315523409003646, 42.411207611211466 ], [ 117.31552338643435, 42.411203108269987 ], [ 117.315535539532718, 42.411203074820016 ], [ 117.315535494392378, 42.411194068937029 ], [ 117.315517264747456, 42.411194119111485 ], [ 117.315517174472092, 42.411176107345447 ], [ 117.315505021378911, 42.411176140793444 ], [ 117.315504998810951, 42.411171637851929 ], [ 117.315498922264794, 42.41117165457544 ], [ 117.315498944832299, 42.411176157516969 ], [ 117.315480715192493, 42.411176207685592 ], [ 117.315480737758705, 42.411180710627114 ], [ 117.315468584664629, 42.41118074407126 ], [ 117.315468629795348, 42.411189749954318 ], [ 117.315456476699481, 42.411189783397184 ], [ 117.315456499263988, 42.411194286338713 ], [ 117.315462575812347, 42.41119426961744 ], [ 117.315462643507203, 42.411207778442005 ], [ 117.315474796606537, 42.411207744998464 ], [ 117.315474841738194, 42.411216750881486 ] ] ] } }
]
}
