{
"type": "FeatureCollection",
"name": "tile_7_8",
"crs": { "type": "name", "properties": { "name": "urn:ogc:def:crs:OGC:1.3:CRS84" } },
"features": [
{ "type": "Feature", "properties": { "crown_id": 1966, "tree_id": "1966", "top_h_m": 24.702, "H_95_Mean": 24.5863, "DBH": 32.0742, "Carbon_kg": 220.105669, "area_m2": 18.25 }, "geometry": { "type": "Polygon", "coordinates": [ [ [ 117.311751509685607, 42.410321832849824 ], [ 117.311757586151941, 42.410321816325208 ], [ 117.31175756385268, 42.410317313381412 ], [ 117.311781869716143, 42.410317247279735 ], [ 117.311781825114195, 42.410308241392123 ], [ 117.311806130974091, 42.410308175285309 ], [ 117.311806064065991, 42.4102946664539 ], [ 117.311799987602328, 42.410294682981082 ], [ 117.311799965300068, 42.410290180037251 ], [ 117.311793888836846, 42.410290196564105 ], [ 117.311793866535027, 42.410285693620288 ], [ 117.311787790072216, 42.410285710146823 ], [ 117.311787767770866, 42.410281207202999 ], [ 117.311757385458932, 42.410281289830777 ], [ 117.311757363159728, 42.410276786886946 ], [ 117.311733057311827, 42.41027685298338 ], [ 117.311733079609297, 42.410281355927225 ], [ 117.31173915607171, 42.410281339403603 ], [ 117.311739222965414, 42.410294848235125 ], [ 117.311745299429134, 42.41029483171117 ], [ 117.311745388622541, 42.410312843486487 ], [ 117.311751465087994, 42.410312826962205 ], [ 117.311751509685607, 42.410321832849824 ] ] ] } },
{ "type": "Feature", "properties": { "crown_id": 1979, "tree_id": "1979", "top_h_m": 22.747, "H_95_Mean": 22.6439, "DBH": 29.9479, "Carbon_kg": 182.579049, "area_m2": 16.25 }, "geometry": { "type": "Polygon", "coordinates": [ [ [ 117.31180617557952, 42.410317181172907 ], [ 117.31183655790862, 42.410317098532126 ], [ 117.311836535603746, 42.410312595588344 ], [ 117.311842612069114, 42.410312579059223 ], [ 117.311842589763785, 42.410308076115442 ], [ 117.311854742693654, 42.41030804305624 ], [ 117.311854720387473, 42.410303540112459 ], [ 117.31186079685196, 42.410303523582378 ], [ 117.311860729932135, 42.410290014751013 ], [ 117.311854653468956, 42.410290031281093 ], [ 117.311854586550467, 42.410276522449713 ], [ 117.311848510088595, 42.410276538979446 ], [ 117.311848487782882, 42.410272036035636 ], [ 117.311824181937027, 42.410272102151382 ], [ 117.31182420424102, 42.410276605095206 ], [ 117.311818127779105, 42.410276621623332 ], [ 117.311818150082658, 42.410281124567142 ], [ 117.311812073620288, 42.410281141094956 ], [ 117.311812229742202, 42.410312661701603 ], [ 117.311806153276805, 42.410312678229111 ], [ 117.31180617557952, 42.410317181172907 ] ] ] } },
{ "type": "Feature", "properties": { "crown_id": 2017, "tree_id": "2017", "top_h_m": 21.373, "H_95_Mean": 20.7965, "DBH": 34.3915, "Carbon_kg": 229.45113, "area_m2": 32.5 }, "geometry": { "type": "Polygon", "coordinates": [ [ [ 117.311696620834681, 42.410281455062218 ], [ 117.311714850222003, 42.410281405496171 ], [ 117.311714827925854, 42.410276902552319 ], [ 117.311720904387855, 42.410276886029664 ], [ 117.311720815201539, 42.410258874254183 ], [ 117.311726891661792, 42.410258857731222 ], [ 117.311726847067803, 42.41024985184346 ], [ 117.311720770608417, 42.410249868366428 ], [ 117.311720748311856, 42.410245365422547 ], [ 117.311708595393952, 42.410245398467502 ], [ 117.311708483915609, 42.410222883748013 ], [ 117.311702407458824, 42.410222900269986 ], [ 117.31170242975405, 42.410227403213902 ], [ 117.311696353296824, 42.410227419735563 ], [ 117.311696308707255, 42.410218413847723 ], [ 117.311684155794509, 42.410218446890077 ], [ 117.311684178088413, 42.410222949833994 ], [ 117.3116781016316, 42.410222966354702 ], [ 117.311678123925091, 42.410227469298611 ], [ 117.311672047467852, 42.410227485818986 ], [ 117.311672025174772, 42.410222982875069 ], [ 117.311659872261146, 42.410223015914838 ], [ 117.3116599168455, 42.410232021802692 ], [ 117.31165384038782, 42.4102320383221 ], [ 117.311653929554865, 42.410250050097773 ], [ 117.311641776635966, 42.410250083135644 ], [ 117.311641865799629, 42.410268094911281 ], [ 117.311654018721995, 42.410268061873381 ], [ 117.311654041013824, 42.410272564817276 ], [ 117.311672270398617, 42.410272515258008 ], [ 117.311672292691739, 42.410277018201896 ], [ 117.311696598539825, 42.410276952118352 ], [ 117.311696620834681, 42.410281455062218 ] ] ] } },
{ "type": "Feature", "properties": { "crown_id": 2018, "tree_id": "2018", "top_h_m": 22.391, "H_95_Mean": 22.376, "DBH": 28.9189, "Carbon_kg": 168.962138, "area_m2": 14.5 }, "geometry": { "type": "Polygon", "coordinates": [ [ [ 117.311866806395315, 42.410289998220627 ], [ 117.311903265174266, 42.410289899031497 ], [ 117.311903086697313, 42.41025387548121 ], [ 117.311897010237644, 42.410253892013515 ], [ 117.311896987928478, 42.410249389069705 ], [ 117.311884835010005, 42.410249422133354 ], [ 117.311884812701692, 42.410244919189537 ], [ 117.311878736242889, 42.410244935720868 ], [ 117.311878758550748, 42.410249438664678 ], [ 117.311872682091476, 42.410249455195704 ], [ 117.311872726706341, 42.410258461083338 ], [ 117.311866650246216, 42.410258477614043 ], [ 117.311866672553208, 42.410262980557839 ], [ 117.311860596092643, 42.410262997088225 ], [ 117.311860618399194, 42.410267500032035 ], [ 117.311854541938203, 42.410267516562087 ], [ 117.311854564244328, 42.410272019505896 ], [ 117.311860640705774, 42.41027200297583 ], [ 117.311860707625542, 42.410285511807231 ], [ 117.311866784088281, 42.410285495276845 ], [ 117.311866806395315, 42.410289998220627 ] ] ] } },
{ "type": "Feature", "properties": { "crown_id": 2039, "tree_id": "2039", "top_h_m": 23.236, "H_95_Mean": 22.985, "DBH": 30.7409, "Carbon_kg": 194.163538, "area_m2": 17.5 }, "geometry": { "type": "MultiPolygon", "coordinates": [ [ [ [ 117.311799920695591, 42.410281174149624 ], [ 117.311799942997823, 42.410285677093441 ], [ 117.311806019460619, 42.410285660566267 ], [ 117.311805997157961, 42.41028115762245 ], [ 117.311799920695591, 42.410281174149624 ] ] ], [ [ [ 117.311799920695591, 42.410281174149624 ], [ 117.311799831486653, 42.410263162374306 ], [ 117.311805907947289, 42.410263145847139 ], [ 117.311805885644631, 42.410258642903308 ], [ 117.311811962104812, 42.410258626375828 ], [ 117.311811872892505, 42.410240614600454 ], [ 117.311805796434058, 42.410240631127927 ], [ 117.311805774131429, 42.41023612818406 ], [ 117.311793621215401, 42.410236161238032 ], [ 117.311793643517177, 42.410240664181906 ], [ 117.311787567058701, 42.410240680708398 ], [ 117.311787589360037, 42.41024518365225 ], [ 117.311775436442232, 42.410245216704297 ], [ 117.311775481043171, 42.410254222592016 ], [ 117.311745098744225, 42.410254305216505 ], [ 117.311745121042534, 42.410258808160371 ], [ 117.311739044582282, 42.410258824684313 ], [ 117.311739066880151, 42.410263327628172 ], [ 117.311726913958807, 42.410263360675089 ], [ 117.311726958552839, 42.410272366562808 ], [ 117.311733035014385, 42.410272350039513 ], [ 117.311733012716942, 42.410267847095646 ], [ 117.311745165639152, 42.41026781404809 ], [ 117.311745187937461, 42.410272316991943 ], [ 117.311763417322055, 42.410272267418179 ], [ 117.311763439621686, 42.410276770362039 ], [ 117.311793821931403, 42.41027668773264 ], [ 117.311793844233222, 42.410281190676471 ], [ 117.311799920695591, 42.410281174149624 ] ] ] ] } },
{ "type": "Feature", "properties": { "crown_id": 2071, "tree_id": "2071", "top_h_m": 24.424, "H_95_Mean": 24.3013, "DBH": 34.3228, "Carbon_kg": 250.579678, "area_m2": 24.25 }, "geometry": { "type": "MultiPolygon", "coordinates": [ [ [ [ 117.311805974855275, 42.410276654678647 ], [ 117.311812051317204, 42.410276638151146 ], [ 117.311812006710994, 42.410267632263498 ], [ 117.311805930249946, 42.41026764879097 ], [ 117.311805974855275, 42.410276654678647 ] ] ], [ [ [ 117.311812006710994, 42.410267632263498 ], [ 117.311818083172028, 42.410267615735691 ], [ 117.311818060868504, 42.41026311279186 ], [ 117.311811984407896, 42.410263129319667 ], [ 117.311812006710994, 42.410267632263498 ] ] ], [ [ [ 117.311818060868504, 42.41026311279186 ], [ 117.311824137329111, 42.410263096263726 ], [ 117.311824159633076, 42.41026759920755 ], [ 117.311848465477183, 42.410267533091826 ], [ 117.311848443171471, 42.410263030148016 ], [ 117.311854519632064, 42.410263013618284 ], [ 117.311854497325939, 42.410258510674467 ], [ 117.311860573786063, 42.410258494144415 ], [ 117.311860551479512, 42.410253991200591 ], [ 117.31186662793921, 42.410253974670219 ], [ 117.311866583325241, 42.410244968782578 ], [ 117.311872659784058, 42.410244952251887 ], [ 117.311872570554442, 42.410226940476583 ], [ 117.311860417640276, 42.410226973537618 ], [ 117.311860373027216, 42.410217967649928 ], [ 117.311848220114754, 42.410218000709669 ], [ 117.311848197809113, 42.41021349776581 ], [ 117.311842121353308, 42.410213514295208 ], [ 117.311842099048107, 42.410209011351341 ], [ 117.311836022592715, 42.410209027880406 ], [ 117.311836000287968, 42.410204524936539 ], [ 117.311829923833002, 42.410204541465276 ], [ 117.311829946137351, 42.410209044409136 ], [ 117.311823869681959, 42.410209060937554 ], [ 117.311823891985867, 42.41021356388142 ], [ 117.311817815530034, 42.410213580409518 ], [ 117.311817882440465, 42.410227089241104 ], [ 117.311811805983339, 42.410227105768897 ], [ 117.31181185058945, 42.410236111656609 ], [ 117.311817927047457, 42.410236095128816 ], [ 117.311818060868504, 42.41026311279186 ] ] ] ] } },
{ "type": "Feature", "properties": { "crown_id": 2104, "tree_id": "2104", "top_h_m": 22.718, "H_95_Mean": 22.3506, "DBH": 35.931, "Carbon_kg": 261.537057, "area_m2": 33.75 }, "geometry": { "type": "Polygon", "coordinates": [ [ [ 117.311732945824602, 42.410254338264053 ], [ 117.311739022284428, 42.410254321740439 ], [ 117.311738999986545, 42.410249818796558 ], [ 117.311769382283359, 42.410249736173697 ], [ 117.311769337683288, 42.410240730285977 ], [ 117.311781490600225, 42.410240697234578 ], [ 117.311781468299344, 42.410236194290711 ], [ 117.311787544757394, 42.410236177764531 ], [ 117.311787522456058, 42.410231674820665 ], [ 117.311805751828814, 42.410231625240215 ], [ 117.311805707223584, 42.410222619352488 ], [ 117.311811783680298, 42.41022260282503 ], [ 117.311811739074216, 42.410213596937297 ], [ 117.311805662618383, 42.410213613464741 ], [ 117.311805640315768, 42.410209110520874 ], [ 117.311787410949549, 42.410209160101282 ], [ 117.311787388648256, 42.410204657157408 ], [ 117.311757006373284, 42.410204739784973 ], [ 117.311756984074151, 42.410200236841071 ], [ 117.311726601801212, 42.410200319460579 ], [ 117.311726624098171, 42.410204822404495 ], [ 117.311714471188068, 42.410204855450047 ], [ 117.311714493484146, 42.410209358393963 ], [ 117.311702340573177, 42.410209391438237 ], [ 117.311702385163613, 42.410218397326069 ], [ 117.311714538076302, 42.410218364281789 ], [ 117.311714649556805, 42.410240879001293 ], [ 117.311726802473828, 42.410240845955698 ], [ 117.311726824770815, 42.410245348899579 ], [ 117.311732901229774, 42.410245332376306 ], [ 117.311732945824602, 42.410254338264053 ] ] ] } },
{ "type": "Feature", "properties": { "crown_id": 2115, "tree_id": "2115", "top_h_m": 23.288, "H_95_Mean": 23.0167, "DBH": 34.7999, "Carbon_kg": 249.504765, "area_m2": 28.25 }, "geometry": { "type": "Polygon", "coordinates": [ [ [ 117.311903064387707, 42.410249372537407 ], [ 117.311909140846936, 42.410249356004769 ], [ 117.311909118536931, 42.410244853060973 ], [ 117.311915194995706, 42.41024483652803 ], [ 117.311915172685261, 42.410240333584234 ], [ 117.311927325601943, 42.410240300517373 ], [ 117.311927258668021, 42.410226791685957 ], [ 117.311933335125033, 42.410226775152054 ], [ 117.311933268189833, 42.410213266320611 ], [ 117.311927191734114, 42.410213282854507 ], [ 117.311927102488994, 42.410195271079189 ], [ 117.311921026034966, 42.410195287612744 ], [ 117.311921003724137, 42.41019078466892 ], [ 117.311902774363404, 42.410190834267652 ], [ 117.311902796672939, 42.410195337211505 ], [ 117.31185418504063, 42.410195469460668 ], [ 117.311854207346698, 42.410199972404541 ], [ 117.311848130892201, 42.410199988934238 ], [ 117.311848175503471, 42.410208994821964 ], [ 117.311854251958849, 42.41020897829226 ], [ 117.311854274264917, 42.410213481236106 ], [ 117.311866427176483, 42.410213448175725 ], [ 117.31186647179041, 42.41022245406343 ], [ 117.311878624703681, 42.410222421001734 ], [ 117.311878713935045, 42.410240432777059 ], [ 117.311890866851812, 42.41024039971407 ], [ 117.311890889160523, 42.410244902657887 ], [ 117.311903042078129, 42.410244869593612 ], [ 117.311903064387707, 42.410249372537407 ] ] ] } },
{ "type": "Feature", "properties": { "crown_id": 2192, "tree_id": "2192", "top_h_m": 23.35, "H_95_Mean": 22.9821, "DBH": 32.118, "Carbon_kg": 212.077162, "area_m2": 20.75 }, "geometry": { "type": "Polygon", "coordinates": [ [ [ 117.311763060528733, 42.410200220316199 ], [ 117.311775213437869, 42.410200187265502 ], [ 117.311774968133648, 42.410150654882408 ], [ 117.311768891683869, 42.410150671407891 ], [ 117.311768913983784, 42.410155174351836 ], [ 117.311744608182877, 42.410155240450557 ], [ 117.311744630481058, 42.410159743394509 ], [ 117.311726401129022, 42.410159792965167 ], [ 117.31172642342591, 42.410164295909105 ], [ 117.311714270523652, 42.410164328954629 ], [ 117.311714315115708, 42.410173334842526 ], [ 117.311720391567718, 42.41017331831992 ], [ 117.31172043616067, 42.410182324207803 ], [ 117.311714359707793, 42.410182340730408 ], [ 117.311714404299892, 42.410191346618276 ], [ 117.311720480753621, 42.410191330095671 ], [ 117.311720503050125, 42.410195833039595 ], [ 117.311763038229202, 42.410195717372297 ], [ 117.311763060528733, 42.410200220316199 ] ] ] } },
{ "type": "Feature", "properties": { "crown_id": 2193, "tree_id": "2193", "top_h_m": 21.793, "H_95_Mean": 21.4955, "DBH": 30.5247, "Carbon_kg": 183.984046, "area_m2": 19.25 }, "geometry": { "type": "Polygon", "coordinates": [ [ [ 117.311811716771174, 42.410209093993423 ], [ 117.311817793226567, 42.410209077465652 ], [ 117.311817770923113, 42.410204574521785 ], [ 117.311823847378079, 42.410204557993687 ], [ 117.311823825074171, 42.410200055049806 ], [ 117.311829901528696, 42.410200038521396 ], [ 117.31182985692007, 42.410191032633641 ], [ 117.311842009827345, 42.41019099957586 ], [ 117.311841965216985, 42.410181993688106 ], [ 117.311835888764207, 42.410182010217149 ], [ 117.311835866459489, 42.410177507273261 ], [ 117.311829790007152, 42.410177523801984 ], [ 117.311829767702832, 42.410173020858089 ], [ 117.311811538347115, 42.410173070442305 ], [ 117.311811516044116, 42.410168567498403 ], [ 117.311805439592618, 42.410168584025818 ], [ 117.311805417290088, 42.410164081081916 ], [ 117.311799340839016, 42.41016409760902 ], [ 117.311799296234824, 42.410155091721187 ], [ 117.311793219784619, 42.410155108247963 ], [ 117.311793175181307, 42.410146102360102 ], [ 117.311787098731969, 42.410146118886544 ], [ 117.311787121033177, 42.410150621830475 ], [ 117.311781044583412, 42.410150638356612 ], [ 117.311781289892423, 42.410200170739657 ], [ 117.31179344280153, 42.410200137687028 ], [ 117.31179346510325, 42.410204640630923 ], [ 117.311811694468147, 42.410204591049549 ], [ 117.311811716771174, 42.410209093993423 ] ] ] } },
{ "type": "Feature", "properties": { "crown_id": 2205, "tree_id": "2205", "top_h_m": 18.356, "H_95_Mean": 18.2002, "DBH": 26.998, "Carbon_kg": 130.187408, "area_m2": 16.25 }, "geometry": { "type": "Polygon", "coordinates": [ [ [ 117.311854162734591, 42.410190966516808 ], [ 117.311896697909816, 42.410190850799928 ], [ 117.31189667560075, 42.410186347856076 ], [ 117.311908828507029, 42.410186314791211 ], [ 117.311908783887134, 42.410177308903499 ], [ 117.311902707434868, 42.410177325436088 ], [ 117.311902595887346, 42.41015481071674 ], [ 117.311890442987149, 42.410154843780916 ], [ 117.311890420678537, 42.410150340837035 ], [ 117.31187826777915, 42.410150373899917 ], [ 117.311878290086895, 42.410154876843805 ], [ 117.311872213636761, 42.410154893374774 ], [ 117.31187223594408, 42.410159396318662 ], [ 117.311866159493519, 42.410159412849296 ], [ 117.311866181800411, 42.410163915793191 ], [ 117.311860105349396, 42.410163932323513 ], [ 117.311860127655848, 42.410168435267401 ], [ 117.311854051204392, 42.410168451797396 ], [ 117.311854073510432, 42.410172954741284 ], [ 117.311841920606653, 42.410172987800337 ], [ 117.311841942911798, 42.410177490744225 ], [ 117.311848019364149, 42.410177474214862 ], [ 117.311848063975347, 42.410186480102617 ], [ 117.311854140428551, 42.41018646357292 ], [ 117.311854162734591, 42.410190966516808 ] ] ] } },
{ "type": "Feature", "properties": { "crown_id": 2278, "tree_id": "2278", "top_h_m": 23.151, "H_95_Mean": 22.8599, "DBH": 33.3501, "Carbon_kg": 228.07358, "area_m2": 24.25 }, "geometry": { "type": "Polygon", "coordinates": [ [ [ 117.311817592495601, 42.410168550970653 ], [ 117.311847974752951, 42.410168468327079 ], [ 117.311847952447366, 42.410163965383191 ], [ 117.311854028898381, 42.410163948853501 ], [ 117.311854006592355, 42.410159445909613 ], [ 117.311860083042944, 42.410159429379625 ], [ 117.311860060736493, 42.410154926435723 ], [ 117.311866137186641, 42.410154909905408 ], [ 117.311866114879763, 42.410150406961506 ], [ 117.311872191329456, 42.410150390430871 ], [ 117.311872146714848, 42.410141384543074 ], [ 117.311866070266021, 42.410141401073709 ], [ 117.311866047959157, 42.410136898129807 ], [ 117.311872124407557, 42.410136881599179 ], [ 117.311872057485672, 42.410123372767437 ], [ 117.311853828144407, 42.410123422358332 ], [ 117.31185380583841, 42.410118919414415 ], [ 117.311841652945091, 42.41011895247339 ], [ 117.311841675250193, 42.41012345541732 ], [ 117.311823445908814, 42.410123505003391 ], [ 117.311823468212623, 42.410128007947321 ], [ 117.311811315317485, 42.410128041003091 ], [ 117.311811359923368, 42.410137046890981 ], [ 117.311793130577996, 42.410137096472226 ], [ 117.311793152879645, 42.410141599416164 ], [ 117.311799229328543, 42.410141582889402 ], [ 117.311799273932721, 42.410150588777256 ], [ 117.311805350382471, 42.41015057225016 ], [ 117.31180539498753, 42.410159578138007 ], [ 117.311811471438162, 42.410159561610591 ], [ 117.311811493741132, 42.4101640645545 ], [ 117.311817570192204, 42.410164048026743 ], [ 117.311817592495601, 42.410168550970653 ] ] ] } },
{ "type": "Feature", "properties": { "crown_id": 2298, "tree_id": "2298", "top_h_m": 21.626, "H_95_Mean": 21.5515, "DBH": 34.4817, "Carbon_kg": 235.582493, "area_m2": 30.75 }, "geometry": { "type": "Polygon", "coordinates": [ [ [ 117.311665725792096, 42.410177969955669 ], [ 117.311683955149491, 42.410177920394638 ], [ 117.311683910561783, 42.41016891450672 ], [ 117.311689987013352, 42.410168897985741 ], [ 117.311689964719065, 42.410164395041782 ], [ 117.311708194072523, 42.4101643454769 ], [ 117.311708104890201, 42.41014633370105 ], [ 117.311714181339596, 42.410146317178786 ], [ 117.311714159043603, 42.410141814234819 ], [ 117.311720235492558, 42.410141797712242 ], [ 117.311720213196125, 42.410137294768276 ], [ 117.311708060299054, 42.410137327813104 ], [ 117.311708038003516, 42.41013282486913 ], [ 117.3117019615554, 42.410132841391054 ], [ 117.311701939260303, 42.41012833844708 ], [ 117.311695862812627, 42.410128354968677 ], [ 117.311695818223285, 42.410119349080695 ], [ 117.311683665329667, 42.410119382122929 ], [ 117.311683643035863, 42.410114879178927 ], [ 117.311677566589481, 42.410114895699557 ], [ 117.311677588882844, 42.410119398643566 ], [ 117.311665435989184, 42.410119431683874 ], [ 117.311665458281695, 42.410123934627883 ], [ 117.311653305387168, 42.410123967666898 ], [ 117.311653327678783, 42.4101284706109 ], [ 117.311641174783375, 42.410128503648636 ], [ 117.311641197074152, 42.410133006592638 ], [ 117.311629044177835, 42.410133039629095 ], [ 117.311629088757641, 42.410142045517112 ], [ 117.311635165206667, 42.41014202899904 ], [ 117.311635232077748, 42.410155537831045 ], [ 117.311641308528081, 42.410155521312639 ], [ 117.311641353109692, 42.410164527200614 ], [ 117.31165350601205, 42.410164494162835 ], [ 117.311653528303751, 42.410168997106801 ], [ 117.311659604755349, 42.410168980587429 ], [ 117.311659627047476, 42.410173483531416 ], [ 117.311665703499528, 42.410173467011717 ], [ 117.311665725792096, 42.410177969955669 ] ] ] } },
{ "type": "Feature", "properties": { "crown_id": 2299, "tree_id": "2299", "top_h_m": 19.094, "H_95_Mean": 18.9145, "DBH": 27.2785, "Carbon_kg": 135.989302, "area_m2": 15.75 }, "geometry": { "type": "Polygon", "coordinates": [ [ [ 117.311714248227631, 42.410159826010677 ], [ 117.311720324678333, 42.410159809488079 ], [ 117.311720302381886, 42.410155306544127 ], [ 117.311738531732615, 42.410155256974434 ], [ 117.311738509434875, 42.410150754030482 ], [ 117.311762815234076, 42.410150687933054 ], [ 117.311762792934601, 42.410146184989117 ], [ 117.311781022282631, 42.410146135412667 ], [ 117.311780999981863, 42.410141632468736 ], [ 117.311787076430761, 42.410141615942614 ], [ 117.311787054129553, 42.410137112998676 ], [ 117.311780977681082, 42.410137129524792 ], [ 117.3117809553803, 42.410132626580847 ], [ 117.311774878932269, 42.410132643106628 ], [ 117.311774834331601, 42.410123637218724 ], [ 117.311768757884423, 42.410123653744193 ], [ 117.311768735584536, 42.410119150800234 ], [ 117.311762659137798, 42.410119167325384 ], [ 117.311762636838338, 42.410114664381403 ], [ 117.31174440749939, 42.41011471395489 ], [ 117.311744429797542, 42.410119216898885 ], [ 117.311738353350776, 42.410119233422726 ], [ 117.311738375648474, 42.410123736366707 ], [ 117.311732299201282, 42.410123752890243 ], [ 117.311732321498567, 42.410128255834216 ], [ 117.311726245050934, 42.410128272357433 ], [ 117.311726334238372, 42.410146284133297 ], [ 117.311720257788977, 42.410146300656201 ], [ 117.311720280085439, 42.410150803600168 ], [ 117.311714203635617, 42.410150820122752 ], [ 117.311714248227631, 42.410159826010677 ] ] ] } }
]
}
