{
"type": "FeatureCollection",
"name": "tile_13_5",
"crs": { "type": "name", "properties": { "name": "urn:ogc:def:crs:OGC:1.3:CRS84" } },
"features": [
{ "type": "Feature", "properties": { "crown_id": 3932, "tree_id": "3934", "top_h_m": 22.11, "H_95_Mean": 21.7616, "DBH": 38.3734, "Carbon_kg": 293.925745, "area_m2": 45.75 }, "geometry": { "type": "Polygon", "coordinates": [ [ [ 117.311132467782855, 42.409247296441841 ], [ 117.311156773234643, 42.40924723047403 ], [ 117.311156750979208, 42.409242727529126 ], [ 117.311187132791687, 42.409242645062136 ], [ 117.311186910215909, 42.409197615612904 ], [ 117.311174757499614, 42.40919764860061 ], [ 117.311174712986286, 42.409188642710717 ], [ 117.311168636629006, 42.409188659204098 ], [ 117.31116859211653, 42.409179653314169 ], [ 117.311138210334434, 42.409179735776142 ], [ 117.311138188080378, 42.409175232831167 ], [ 117.31112603536836, 42.409175265813694 ], [ 117.31112605762155, 42.409179768758676 ], [ 117.311119981265094, 42.409179785249464 ], [ 117.311120003517857, 42.409184288194453 ], [ 117.311107850804063, 42.409184321175061 ], [ 117.31110787305596, 42.409188824120037 ], [ 117.311101796698622, 42.409188840609865 ], [ 117.311101818950092, 42.409193343554847 ], [ 117.3110957425923, 42.409193360044355 ], [ 117.311095831596461, 42.409211371824249 ], [ 117.311089755236949, 42.409211388313452 ], [ 117.311089777487567, 42.409215891258413 ], [ 117.311101930207442, 42.409215858279694 ], [ 117.311101974710425, 42.409224864169623 ], [ 117.311108051071244, 42.409224847679781 ], [ 117.311108073323197, 42.409229350624727 ], [ 117.311114149684414, 42.409229334134558 ], [ 117.311114171936794, 42.409233837079498 ], [ 117.311126324660137, 42.409233804098186 ], [ 117.31112636916663, 42.409242809988051 ], [ 117.311132445529154, 42.409242793496915 ], [ 117.311132467782855, 42.409247296441841 ] ] ] } },
{ "type": "Feature", "properties": { "crown_id": 3956, "tree_id": "3958", "top_h_m": 22.611, "H_95_Mean": 22.3729, "DBH": 36.1521, "Carbon_kg": 264.947064, "area_m2": 34.5 }, "geometry": { "type": "Polygon", "coordinates": [ [ [ 117.310937957446185, 42.409234315163729 ], [ 117.310968339255226, 42.409234232754741 ], [ 117.310968317013277, 42.409229729809731 ], [ 117.310980469735981, 42.409229696843894 ], [ 117.310980447493193, 42.409225193898891 ], [ 117.310986523854083, 42.409225177415486 ], [ 117.310986479367614, 42.409216171525465 ], [ 117.310998632087689, 42.409216138557703 ], [ 117.310998609843608, 42.409211635612692 ], [ 117.311004686203177, 42.409211619128328 ], [ 117.311004574980601, 42.409189104403254 ], [ 117.310986345908333, 42.40918915385533 ], [ 117.310986323665134, 42.409184650910298 ], [ 117.310968094594116, 42.409184700359475 ], [ 117.310968072352239, 42.409180197414422 ], [ 117.310955919639085, 42.409180230378922 ], [ 117.310955897398046, 42.409175727433876 ], [ 117.310937668329572, 42.4091757768782 ], [ 117.310937646089855, 42.409171273933133 ], [ 117.310931569734137, 42.40917129041393 ], [ 117.310931614212691, 42.409180296304065 ], [ 117.310925537856065, 42.409180312784535 ], [ 117.310925582333766, 42.409189318674663 ], [ 117.310919505976273, 42.409189335154828 ], [ 117.310919617168437, 42.409211849880094 ], [ 117.310925693528091, 42.409211833399915 ], [ 117.31092578248365, 42.409229845180057 ], [ 117.310937935206425, 42.409229812218712 ], [ 117.310937957446185, 42.409234315163729 ] ] ] } },
{ "type": "Feature", "properties": { "crown_id": 4051, "tree_id": "4053", "top_h_m": 22.467, "H_95_Mean": 22.1312, "DBH": 36.1671, "Carbon_kg": 263.47057, "area_m2": 35.25 }, "geometry": { "type": "Polygon", "coordinates": [ [ [ 117.310992400022144, 42.409184634426595 ], [ 117.31101062909309, 42.409184584973559 ], [ 117.311010606848157, 42.409180082028527 ], [ 117.311016683204699, 42.409180065543538 ], [ 117.311016705450058, 42.40918456848857 ], [ 117.31102278180704, 42.409184552003254 ], [ 117.311022737315454, 42.409175546113204 ], [ 117.311016660959339, 42.409175562598513 ], [ 117.31101663871398, 42.409171059653481 ], [ 117.311028791425315, 42.409171026682543 ], [ 117.311028546717196, 42.409121494287028 ], [ 117.311022470366311, 42.409121510772614 ], [ 117.311022448120582, 42.409117007827554 ], [ 117.311016371770123, 42.409117024312827 ], [ 117.311016349524849, 42.409112521367739 ], [ 117.311010273174816, 42.409112537852685 ], [ 117.311010295419663, 42.409117040797774 ], [ 117.310998142718745, 42.409117073766708 ], [ 117.31099816496274, 42.40912157671179 ], [ 117.31099208861184, 42.409121593195785 ], [ 117.310992110855395, 42.409126096140859 ], [ 117.310979958152686, 42.409126129107875 ], [ 117.310979980395373, 42.409130632052957 ], [ 117.310973904043593, 42.409130648535985 ], [ 117.31097394852813, 42.409139654426156 ], [ 117.310967872175482, 42.409139670908857 ], [ 117.310967916659152, 42.409148676799013 ], [ 117.310961840305609, 42.409148693281395 ], [ 117.31096186254706, 42.409153196226477 ], [ 117.310955786193063, 42.409153212708553 ], [ 117.310955830675056, 42.409162218598688 ], [ 117.310943677965327, 42.409162251561881 ], [ 117.310943722445614, 42.409171257452016 ], [ 117.310961951512766, 42.40917120800674 ], [ 117.310961973754203, 42.409175710951786 ], [ 117.310974126466505, 42.409175677986653 ], [ 117.310974148708809, 42.409180180931692 ], [ 117.310992377778504, 42.409180131481548 ], [ 117.310992400022144, 42.409184634426595 ] ] ] } },
{ "type": "Feature", "properties": { "crown_id": 4056, "tree_id": "4058", "top_h_m": 18.846, "H_95_Mean": 18.518, "DBH": 33.2931, "Carbon_kg": 200.664596, "area_m2": 35.5 }, "geometry": { "type": "Polygon", "coordinates": [ [ [ 117.31104713172995, 42.409193491948791 ], [ 117.311059284445577, 42.409193458974613 ], [ 117.311059239948747, 42.409184453084606 ], [ 117.311077469019523, 42.409184403620955 ], [ 117.311077446769815, 42.409179900675944 ], [ 117.311089599482784, 42.409179867698569 ], [ 117.31108957723221, 42.40917536475358 ], [ 117.311095653588254, 42.409175348264391 ], [ 117.311095675839255, 42.409179851209394 ], [ 117.311107828552181, 42.409179818230072 ], [ 117.311107784048446, 42.409170812340093 ], [ 117.311101707692842, 42.4091708288299 ], [ 117.311101640938546, 42.40915731999489 ], [ 117.311107717292842, 42.409157303505097 ], [ 117.311107695041002, 42.409152800560086 ], [ 117.311101618687132, 42.409152817049886 ], [ 117.31110157418432, 42.409143811159851 ], [ 117.311095497831317, 42.409143827649338 ], [ 117.311095453329372, 42.409134821759274 ], [ 117.311077224272992, 42.409134871225767 ], [ 117.311077202023327, 42.409130368280721 ], [ 117.311065049319907, 42.40913040125676 ], [ 117.311065004822353, 42.409121395366668 ], [ 117.311052852120667, 42.409121428341408 ], [ 117.311052829872764, 42.409116925396354 ], [ 117.311034600821458, 42.409116974856033 ], [ 117.311034890027614, 42.409175513141619 ], [ 117.311028813671527, 42.409175529627575 ], [ 117.311028858164008, 42.409184535517618 ], [ 117.311034934520961, 42.409184519031662 ], [ 117.311034912274295, 42.409180016086644 ], [ 117.311040988630808, 42.409179999600369 ], [ 117.311041010877901, 42.409184502545379 ], [ 117.311047087234854, 42.409184486058784 ], [ 117.31104713172995, 42.409193491948791 ] ] ] } },
{ "type": "Feature", "properties": { "crown_id": 4062, "tree_id": "4064", "top_h_m": 22.077, "H_95_Mean": 21.7545, "DBH": 39.0004, "Carbon_kg": 303.627008, "area_m2": 48.75 }, "geometry": { "type": "Polygon", "coordinates": [ [ [ 117.310925471139555, 42.409166803949333 ], [ 117.31093762385018, 42.40916677098808 ], [ 117.310937579370773, 42.409157765097923 ], [ 117.310949732079635, 42.409157732135377 ], [ 117.310949687598537, 42.40914872624522 ], [ 117.31095576395208, 42.409148709763464 ], [ 117.310955741711098, 42.409144206818397 ], [ 117.310961818064229, 42.409144190336328 ], [ 117.310961773581397, 42.409135184446171 ], [ 117.310967849933633, 42.409135167963782 ], [ 117.310967805449991, 42.409126162073598 ], [ 117.310973881801345, 42.409126145590903 ], [ 117.310973859559084, 42.409121642645815 ], [ 117.310986012260926, 42.409121609679453 ], [ 117.310985990017798, 42.409117106734364 ], [ 117.310992066368257, 42.409117090250696 ], [ 117.310992044124731, 42.409112587305607 ], [ 117.311004196824797, 42.40911255433732 ], [ 117.311004174580376, 42.409108051392231 ], [ 117.311010250929968, 42.409108034907604 ], [ 117.31101022868512, 42.409103531962529 ], [ 117.311004152335983, 42.409103548447149 ], [ 117.311004107847168, 42.409094542556943 ], [ 117.310998031498869, 42.409094559041243 ], [ 117.310998053742836, 42.409099061986346 ], [ 117.310991977394096, 42.409099078470319 ], [ 117.31099195515057, 42.409094575525209 ], [ 117.310985878802285, 42.409094592008863 ], [ 117.310985856559185, 42.40909008906376 ], [ 117.310979780211312, 42.409090105547087 ], [ 117.310979757968653, 42.409085602601984 ], [ 117.310973681621221, 42.409085619084976 ], [ 117.310973592652402, 42.409067607304472 ], [ 117.310967516306675, 42.409067623787145 ], [ 117.310967538548454, 42.409072126732269 ], [ 117.310955385856161, 42.409072159696649 ], [ 117.310955408097044, 42.409076662641787 ], [ 117.31094933175045, 42.409076679123494 ], [ 117.310949353990921, 42.409081182068626 ], [ 117.310937201296838, 42.409081215031087 ], [ 117.31093724577606, 42.409090220921343 ], [ 117.310931169428144, 42.409090237402104 ], [ 117.310931191667322, 42.409094740347228 ], [ 117.310919038970596, 42.409094773307778 ], [ 117.310919083447246, 42.409103779198034 ], [ 117.310913007098009, 42.409103795677829 ], [ 117.310913118287502, 42.409126310403437 ], [ 117.310907041936105, 42.409126326882919 ], [ 117.310907108648536, 42.40913983571825 ], [ 117.310888879590365, 42.409139885154786 ], [ 117.310888901826573, 42.409144388099897 ], [ 117.310894978179718, 42.409144371621373 ], [ 117.310895022653014, 42.409153377511579 ], [ 117.31090109900704, 42.409153361032729 ], [ 117.3109011212441, 42.409157863977825 ], [ 117.310925426661925, 42.409157798059169 ], [ 117.310925471139555, 42.409166803949333 ] ] ] } },
{ "type": "Feature", "properties": { "crown_id": 4070, "tree_id": "4072", "top_h_m": 18.651, "H_95_Mean": 18.3539, "DBH": 29.8907, "Carbon_kg": 160.628582, "area_m2": 23.75 }, "geometry": { "type": "MultiPolygon", "coordinates": [ [ [ [ 117.31111993675961, 42.409170779359506 ], [ 117.311126013115185, 42.409170762868712 ], [ 117.311125968608849, 42.409161756978733 ], [ 117.311138121318237, 42.409161723996213 ], [ 117.311138076810195, 42.409152718106228 ], [ 117.311156305871648, 42.409152668630057 ], [ 117.311156239105699, 42.409139159795075 ], [ 117.311162315458191, 42.409139143302383 ], [ 117.311162204179524, 42.409116628577372 ], [ 117.311156127829193, 42.409116645070043 ], [ 117.3111561055739, 42.409112142125025 ], [ 117.311150029224009, 42.409112158617376 ], [ 117.311150006969157, 42.409107655672358 ], [ 117.311137854270214, 42.4091076886561 ], [ 117.311137832016229, 42.409103185711068 ], [ 117.311131755667191, 42.409103202202445 ], [ 117.311131733413674, 42.409098699257413 ], [ 117.311125657065048, 42.40909871574847 ], [ 117.311125679318138, 42.409103218693517 ], [ 117.311119602969072, 42.409103235184247 ], [ 117.311119669727091, 42.409116744019364 ], [ 117.311113593376732, 42.409116760509797 ], [ 117.311113615628955, 42.409121263454828 ], [ 117.311107539278169, 42.409121279944934 ], [ 117.31110760603363, 42.409134788780015 ], [ 117.311101529681522, 42.409134805269815 ], [ 117.311101551932907, 42.40913930821484 ], [ 117.311107628285455, 42.40913929172504 ], [ 117.311107672789149, 42.409148297615069 ], [ 117.311113749142564, 42.409148281124949 ], [ 117.311113838151712, 42.409166292904956 ], [ 117.311119914506875, 42.40916627641451 ], [ 117.31111993675961, 42.409170779359506 ] ] ], [ [ [ 117.311125657065048, 42.40909871574847 ], [ 117.311125634811944, 42.409094212803417 ], [ 117.311119558463758, 42.409094229294155 ], [ 117.311119580716408, 42.409098732239215 ], [ 117.311125657065048, 42.40909871574847 ] ] ] ] } },
{ "type": "Feature", "properties": { "crown_id": 4095, "tree_id": "4097", "top_h_m": 19.648, "H_95_Mean": 19.3686, "DBH": 29.1492, "Carbon_kg": 157.636683, "area_m2": 19.5 }, "geometry": { "type": "Polygon", "coordinates": [ [ [ 117.311083278375037, 42.409130351792221 ], [ 117.311101507430124, 42.409130302324783 ], [ 117.311101440675955, 42.40911679348968 ], [ 117.311107517026343, 42.409116776999895 ], [ 117.311107494774546, 42.409112274054856 ], [ 117.31111357112448, 42.40911225756475 ], [ 117.311113415358918, 42.409080736949399 ], [ 117.311095186318227, 42.409080786418677 ], [ 117.311095208569128, 42.409085289363759 ], [ 117.311070903179711, 42.409085355318311 ], [ 117.311070925428879, 42.409089858263371 ], [ 117.311064849081063, 42.409089874751217 ], [ 117.31106489357856, 42.409098880641366 ], [ 117.311052740881195, 42.409098913616077 ], [ 117.311052785376958, 42.409107919506219 ], [ 117.311046709027408, 42.409107935993099 ], [ 117.311046731274857, 42.409112438938166 ], [ 117.311058883974837, 42.409112405964088 ], [ 117.311058906223167, 42.409116908909141 ], [ 117.311071058923986, 42.409116875933762 ], [ 117.311071103422421, 42.409125881823854 ], [ 117.311083256124945, 42.409125848847189 ], [ 117.311083278375037, 42.409130351792221 ] ] ] } },
{ "type": "Feature", "properties": { "crown_id": 4127, "tree_id": "4129", "top_h_m": 21.742, "H_95_Mean": 21.6723, "DBH": 33.5922, "Carbon_kg": 224.234548, "area_m2": 27.5 }, "geometry": { "type": "Polygon", "coordinates": [ [ [ 117.311143908365295, 42.409103169219357 ], [ 117.311156061063357, 42.409103136234975 ], [ 117.311156038808079, 42.409098633289943 ], [ 117.311174267853858, 42.409098583810973 ], [ 117.311174223340728, 42.409089577920909 ], [ 117.311180299688445, 42.40908956142728 ], [ 117.311180277431461, 42.409085058482255 ], [ 117.311198506473247, 42.409085008999433 ], [ 117.311198461956678, 42.409076003109377 ], [ 117.311204538303059, 42.409075986614461 ], [ 117.311204516044342, 42.409071483669429 ], [ 117.311216668736236, 42.409071450678645 ], [ 117.311216646476652, 42.409066947733621 ], [ 117.311222722822151, 42.409066931237739 ], [ 117.311222700562155, 42.409062428292721 ], [ 117.311198395181847, 42.409062494274274 ], [ 117.311198372923585, 42.409057991329227 ], [ 117.311180143889601, 42.409058040811999 ], [ 117.311180121632646, 42.409053537866946 ], [ 117.311155816255692, 42.409053603839453 ], [ 117.311155794000484, 42.409049100894393 ], [ 117.311137564969002, 42.409049150370386 ], [ 117.311137676238587, 42.40907166509573 ], [ 117.311125523546579, 42.409071698078137 ], [ 117.311125568052717, 42.409080703968264 ], [ 117.311119491705824, 42.409080720458995 ], [ 117.311119536211109, 42.409089726349109 ], [ 117.311131688906613, 42.409089693367328 ], [ 117.311131711160144, 42.40909419631236 ], [ 117.311137787508315, 42.409094179820983 ], [ 117.311137809762272, 42.409098682766036 ], [ 117.31114388611087, 42.409098666274318 ], [ 117.311143908365295, 42.409103169219357 ] ] ] } },
{ "type": "Feature", "properties": { "crown_id": 4160, "tree_id": "4162", "top_h_m": 22.235, "H_95_Mean": 22.1462, "DBH": 36.4403, "Carbon_kg": 267.604425, "area_m2": 36.25 }, "geometry": { "type": "Polygon", "coordinates": [ [ [ 117.311034578574876, 42.409112471910966 ], [ 117.311040654924881, 42.409112455424719 ], [ 117.311040610430823, 42.409103449534577 ], [ 117.31104668677996, 42.409103433048024 ], [ 117.311046642285078, 42.409094427157868 ], [ 117.311058794981562, 42.409094394183811 ], [ 117.311058750484975, 42.409085388293647 ], [ 117.311064826832322, 42.409085371806142 ], [ 117.311064804583609, 42.409080868861061 ], [ 117.311058728236659, 42.409080885348573 ], [ 117.311058594746996, 42.409053867677983 ], [ 117.311064671091358, 42.409053851190485 ], [ 117.311064648842631, 42.409049348245382 ], [ 117.311052496154844, 42.409049381220036 ], [ 117.31105247390704, 42.409044878274919 ], [ 117.311046397563558, 42.40904489476177 ], [ 117.311046375316181, 42.409040391816653 ], [ 117.311034222630099, 42.409040424789346 ], [ 117.311034200383588, 42.409035921844229 ], [ 117.311022047698344, 42.40903595481565 ], [ 117.311022069943988, 42.409040457760781 ], [ 117.311015993600932, 42.409040474246012 ], [ 117.311016015846135, 42.409044977191144 ], [ 117.311003863159115, 42.409045010160654 ], [ 117.311003885403451, 42.409049513105785 ], [ 117.310979580027634, 42.409049579040925 ], [ 117.31097964675547, 42.409063087876355 ], [ 117.310985723100742, 42.409063071393028 ], [ 117.310985767586885, 42.409072077283291 ], [ 117.310979691240746, 42.409072093766611 ], [ 117.310979735726022, 42.409081099656845 ], [ 117.310985812073014, 42.409081083173533 ], [ 117.310985834316085, 42.40908558611865 ], [ 117.310991910663518, 42.409085569634996 ], [ 117.310991932907044, 42.409090072580113 ], [ 117.311016238298478, 42.409090006642302 ], [ 117.311016260543738, 42.409094509587398 ], [ 117.311022336892009, 42.409094493102145 ], [ 117.311022359137723, 42.409098996047234 ], [ 117.311028435486435, 42.409098979561641 ], [ 117.311028457732547, 42.40910348250673 ], [ 117.311034534081685, 42.409103466020817 ], [ 117.311034578574876, 42.409112471910966 ] ] ] } },
{ "type": "Feature", "properties": { "crown_id": 4169, "tree_id": "4171", "top_h_m": 22.457, "H_95_Mean": 22.2054, "DBH": 32.7205, "Carbon_kg": 215.739988, "area_m2": 23.75 }, "geometry": { "type": "Polygon", "coordinates": [ [ [ 117.311070880930529, 42.409080852373229 ], [ 117.311089109971306, 42.409080802907809 ], [ 117.311089087720859, 42.40907629996272 ], [ 117.311119469453175, 42.409076217513928 ], [ 117.311119424947933, 42.4090672116238 ], [ 117.311131577639088, 42.409067178642033 ], [ 117.311131466371705, 42.409044663916653 ], [ 117.311137542715088, 42.409044647425311 ], [ 117.311137498207302, 42.409035641535134 ], [ 117.311113192837169, 42.409035707498582 ], [ 117.311113170585003, 42.409031204553493 ], [ 117.311094941558636, 42.409031254022693 ], [ 117.311094919307791, 42.409026751077583 ], [ 117.3110888429661, 42.409026767566651 ], [ 117.311088887466923, 42.409035773456885 ], [ 117.311082811124351, 42.409035789945662 ], [ 117.311082855624306, 42.409044795835882 ], [ 117.311076779280867, 42.409044812324325 ], [ 117.311076801530419, 42.409049315269435 ], [ 117.311070725186525, 42.409049331757558 ], [ 117.311070769684804, 42.409058337647764 ], [ 117.311064693340043, 42.409058354135581 ], [ 117.311064782334896, 42.409076365915965 ], [ 117.311070858681376, 42.40907634942814 ], [ 117.311070880930529, 42.409080852373229 ] ] ] } }
]
}
