{
"type": "FeatureCollection",
"name": "tile_24_21",
"crs": { "type": "name", "properties": { "name": "urn:ogc:def:crs:OGC:1.3:CRS84" } },
"features": [
{ "type": "Feature", "properties": { "crown_id": 6978, "tree_id": "6983", "top_h_m": 23.575, "H_95_Mean": 23.4239, "DBH": 25.7507, "Carbon_kg": 137.397762, "area_m2": 8.5 }, "geometry": { "type": "Polygon", "coordinates": [ [ [ 117.314829050397989, 42.407237869631857 ], [ 117.314841202731742, 42.40723783625802 ], [ 117.314841157697003, 42.407228830368169 ], [ 117.314835081530987, 42.407228847055251 ], [ 117.314834946429499, 42.407201829385649 ], [ 117.314816717939266, 42.407201879444933 ], [ 117.31481667290808, 42.407192873555012 ], [ 117.314804520582982, 42.407192906926227 ], [ 117.314804655671395, 42.407219924595957 ], [ 117.314816808001709, 42.407219891224713 ], [ 117.314816853032951, 42.407228897114571 ], [ 117.314829005364999, 42.407228863742013 ], [ 117.314829050397989, 42.407237869631857 ] ] ] } },
{ "type": "Feature", "properties": { "crown_id": 6979, "tree_id": "6984", "top_h_m": 23.772, "H_95_Mean": 23.6261, "DBH": 28.4074, "Carbon_kg": 168.318908, "area_m2": 12.25 }, "geometry": { "type": "Polygon", "coordinates": [ [ [ 117.314871606085589, 42.40724225576264 ], [ 117.314883758420137, 42.407242222384269 ], [ 117.314883713379302, 42.407233216494475 ], [ 117.314889789545703, 42.407233199804821 ], [ 117.314889767024852, 42.407228696859917 ], [ 117.314883690858892, 42.407228713549586 ], [ 117.314883600777293, 42.407210701769948 ], [ 117.314871448448827, 42.407210735148276 ], [ 117.314871425929326, 42.40720623220335 ], [ 117.314853197437884, 42.40720628226844 ], [ 117.314853174919676, 42.407201779323493 ], [ 117.314841022592887, 42.407201812698588 ], [ 117.314841135179648, 42.407224327423251 ], [ 117.314847211345196, 42.407224310735849 ], [ 117.314847278898625, 42.407237819570604 ], [ 117.314871583566045, 42.407237752817743 ], [ 117.314871606085589, 42.40724225576264 ] ] ] } },
{ "type": "Feature", "properties": { "crown_id": 7001, "tree_id": "7006", "top_h_m": 24.775, "H_95_Mean": 24.4352, "DBH": 36.6587, "Carbon_kg": 287.07074, "area_m2": 31.0 }, "geometry": { "type": "Polygon", "coordinates": [ [ [ 117.314914116733831, 42.407237635987833 ], [ 117.31493234523424, 42.407237585913052 ], [ 117.314932322710334, 42.407233082968183 ], [ 117.314938398876706, 42.407233066275943 ], [ 117.314938376352373, 42.407228563331053 ], [ 117.314968757181916, 42.407228479865054 ], [ 117.314968734655423, 42.407223976920193 ], [ 117.314980886986319, 42.407223943531541 ], [ 117.31498086445896, 42.40721944058668 ], [ 117.314986940623982, 42.407219423891874 ], [ 117.314986850512895, 42.407201412112364 ], [ 117.314980774349621, 42.407201428807177 ], [ 117.314980729294959, 42.407192422917404 ], [ 117.314962500807724, 42.407192472999839 ], [ 117.314962455755705, 42.407183467110038 ], [ 117.31495637959415, 42.407183483803543 ], [ 117.314956357068567, 42.407178980858632 ], [ 117.314938128585183, 42.407179030937193 ], [ 117.31493817363372, 42.407188036827009 ], [ 117.314926021309688, 42.407188070211113 ], [ 117.31492606635652, 42.407197076100935 ], [ 117.314913914030726, 42.407197109483768 ], [ 117.314913936553268, 42.407201612428672 ], [ 117.314907860389937, 42.407201629119605 ], [ 117.314907905434168, 42.407210635009427 ], [ 117.314901829269957, 42.407210651700041 ], [ 117.314901851791646, 42.407215154644945 ], [ 117.314889699462341, 42.407215188025219 ], [ 117.314889744504015, 42.40722419391502 ], [ 117.314895820669534, 42.407224177225039 ], [ 117.314895843190826, 42.407228680169943 ], [ 117.314907995522717, 42.407228646789008 ], [ 117.314908018044861, 42.407233149733912 ], [ 117.314914094211233, 42.407233133042958 ], [ 117.314914116733831, 42.407237635987833 ] ] ] } },
{ "type": "Feature", "properties": { "crown_id": 7020, "tree_id": "7025", "top_h_m": 23.605, "H_95_Mean": 23.5798, "DBH": 31.3392, "Carbon_kg": 204.928619, "area_m2": 18.0 }, "geometry": { "type": "Polygon", "coordinates": [ [ [ 117.315011290343037, 42.40722836299912 ], [ 117.315041671172267, 42.407228279513802 ], [ 117.315041581045477, 42.407210267734435 ], [ 117.315047657209576, 42.40721025103641 ], [ 117.315047612145349, 42.407201245146716 ], [ 117.315035459818887, 42.407201278542423 ], [ 117.315035414756437, 42.407192272652701 ], [ 117.315029338594059, 42.407192289350064 ], [ 117.315029248470907, 42.407174277570569 ], [ 117.315017096149646, 42.407174310964315 ], [ 117.315017118679563, 42.407178813909198 ], [ 117.315011042518492, 42.407178830605602 ], [ 117.315011087577432, 42.407187836495361 ], [ 117.315005011415494, 42.407187853191431 ], [ 117.315005033944558, 42.407192356136314 ], [ 117.314986805457352, 42.40719240622262 ], [ 117.314986827985123, 42.407196909167496 ], [ 117.314992904147957, 42.407196892472392 ], [ 117.314993016789003, 42.407219407196742 ], [ 117.315005169119004, 42.407219373805511 ], [ 117.315005191648083, 42.407223876750372 ], [ 117.315011267813517, 42.407223860054273 ], [ 117.315011290343037, 42.40722836299912 ] ] ] } },
{ "type": "Feature", "properties": { "crown_id": 7035, "tree_id": "7040", "top_h_m": 25.703, "H_95_Mean": 25.6988, "DBH": 35.14, "Carbon_kg": 271.584423, "area_m2": 24.0 }, "geometry": { "type": "Polygon", "coordinates": [ [ [ 117.314889676941519, 42.407210685080301 ], [ 117.314895753105759, 42.407210668390334 ], [ 117.314895730584496, 42.407206165445423 ], [ 117.314901806748281, 42.407206148755137 ], [ 117.314901761704903, 42.4071971428653 ], [ 117.314907837867807, 42.407197126174687 ], [ 117.31490781534572, 42.407192623229768 ], [ 117.314919967670647, 42.40719258984759 ], [ 117.314919922624711, 42.40718358395776 ], [ 117.314932074947876, 42.407183550574317 ], [ 117.314932052424027, 42.407179047629398 ], [ 117.314913823940572, 42.407179097704081 ], [ 117.314913778895544, 42.407170091814208 ], [ 117.314907702735255, 42.407170108505134 ], [ 117.314907657691094, 42.407161102615248 ], [ 117.314901581531672, 42.407161119305819 ], [ 117.314901536488406, 42.407152113415925 ], [ 117.314895460329851, 42.407152130106184 ], [ 117.314895437808673, 42.40714762716123 ], [ 117.314871133176084, 42.407147693919036 ], [ 117.314871178214986, 42.407156699808972 ], [ 117.314865102055961, 42.407156716497617 ], [ 117.314865237170181, 42.407183734167347 ], [ 117.314859161008542, 42.407183750855687 ], [ 117.314859251083064, 42.407201762635459 ], [ 117.31487747957317, 42.407201712569425 ], [ 117.314877502093125, 42.407206215514357 ], [ 117.314889654420696, 42.407206182135383 ], [ 117.314889676941519, 42.407210685080301 ] ] ] } },
{ "type": "Feature", "properties": { "crown_id": 7064, "tree_id": "7069", "top_h_m": 26.986, "H_95_Mean": 26.5017, "DBH": 38.4685, "Carbon_kg": 331.912104, "area_m2": 32.25 }, "geometry": { "type": "Polygon", "coordinates": [ [ [ 117.314822771586648, 42.407197359813871 ], [ 117.314853152401483, 42.407197276378561 ], [ 117.314853062328723, 42.407179264598774 ], [ 117.314859138489936, 42.407179247910747 ], [ 117.314859003378345, 42.407152230240975 ], [ 117.314865079536958, 42.407152213552649 ], [ 117.314865034498922, 42.407143207662699 ], [ 117.31487111065664, 42.407143190974061 ], [ 117.31487106561778, 42.407134185084104 ], [ 117.314864989460915, 42.407134201772742 ], [ 117.314864966941926, 42.40712969882776 ], [ 117.3148406623162, 42.407129765579072 ], [ 117.314840684833456, 42.407134268524075 ], [ 117.314816380205883, 42.407134335270243 ], [ 117.314816425236941, 42.407143341160243 ], [ 117.314810349079181, 42.407143357845982 ], [ 117.314810371594277, 42.407147860790992 ], [ 117.314804295436076, 42.407147877476412 ], [ 117.314804317950731, 42.407152380421415 ], [ 117.314798241792104, 42.407152397106515 ], [ 117.314798264306333, 42.407156900051518 ], [ 117.314792188147237, 42.407156916736298 ], [ 117.314792233174856, 42.407165922626298 ], [ 117.314798309334819, 42.407165905941504 ], [ 117.314798376877604, 42.407179414776444 ], [ 117.31480445303886, 42.40717939809133 ], [ 117.31480449806827, 42.407188403981273 ], [ 117.314822726554624, 42.407188353923956 ], [ 117.314822771586648, 42.407197359813871 ] ] ] } },
{ "type": "Feature", "properties": { "crown_id": 7065, "tree_id": "7070", "top_h_m": 24.485, "H_95_Mean": 24.1753, "DBH": 34.7726, "Carbon_kg": 256.452563, "area_m2": 25.75 }, "geometry": { "type": "Polygon", "coordinates": [ [ [ 117.314968554443681, 42.407187953361124 ], [ 117.314998935253556, 42.407187869887181 ], [ 117.314998912724917, 42.407183366942299 ], [ 117.315004988886457, 42.407183350246541 ], [ 117.315004943828356, 42.407174344356775 ], [ 117.315011019989015, 42.407174327660705 ], [ 117.315010997459552, 42.407169824715815 ], [ 117.315023149779947, 42.407169791322723 ], [ 117.315023127249617, 42.407165288377833 ], [ 117.315029203409367, 42.407165271680803 ], [ 117.315029180878625, 42.407160768735906 ], [ 117.315023104719273, 42.407160785432936 ], [ 117.315023059658657, 42.407151779543142 ], [ 117.3150169835002, 42.407151796239837 ], [ 117.315016960970311, 42.407147293294933 ], [ 117.315010884812267, 42.407147309991309 ], [ 117.315010862282847, 42.407142807046391 ], [ 117.315004786125229, 42.40714282374244 ], [ 117.315004741067227, 42.407133817852603 ], [ 117.3149743602835, 42.407133901327988 ], [ 117.314974337756667, 42.407129398383056 ], [ 117.314968261600342, 42.407129415077172 ], [ 117.314968329179507, 42.407142923911969 ], [ 117.314962253021861, 42.40714294060578 ], [ 117.314962275547828, 42.407147443550706 ], [ 117.314956199389741, 42.40714746024419 ], [ 117.314956334543012, 42.407174477913721 ], [ 117.314962410703714, 42.407174461220237 ], [ 117.314962433229695, 42.407178964165134 ], [ 117.314968509390823, 42.407178947471323 ], [ 117.314968554443681, 42.407187953361124 ] ] ] } },
{ "type": "Feature", "properties": { "crown_id": 7074, "tree_id": "7079", "top_h_m": 23.599, "H_95_Mean": 23.3056, "DBH": 28.076, "Carbon_kg": 163.062113, "area_m2": 12.0 }, "geometry": { "type": "Polygon", "coordinates": [ [ [ 117.314919877578788, 42.407174578067909 ], [ 117.314950258382325, 42.407174494606892 ], [ 117.31495012323164, 42.407147476937332 ], [ 117.314931894757365, 42.407147527014871 ], [ 117.314931872233572, 42.407143024069917 ], [ 117.314925796075912, 42.407143040761788 ], [ 117.314925773552559, 42.407138537816827 ], [ 117.314883240451763, 42.407138654650829 ], [ 117.314883262972074, 42.407143157595804 ], [ 117.314901491445184, 42.407143107526018 ], [ 117.314901513966788, 42.407147610470972 ], [ 117.314907590124918, 42.407147593780401 ], [ 117.314907635169021, 42.407156599670309 ], [ 117.314913711328018, 42.407156582979383 ], [ 117.314913756373016, 42.407165588869283 ], [ 117.31491983253288, 42.407165572178044 ], [ 117.314919877578788, 42.407174578067909 ] ] ] } },
{ "type": "Feature", "properties": { "crown_id": 7113, "tree_id": "7118", "top_h_m": 24.845, "H_95_Mean": 24.5975, "DBH": 32.1937, "Carbon_kg": 221.821354, "area_m2": 18.5 }, "geometry": { "type": "Polygon", "coordinates": [ [ [ 117.315029158347855, 42.407156265791016 ], [ 117.315071691459949, 42.407156148902828 ], [ 117.315071668926151, 42.407151645957953 ], [ 117.315077745084579, 42.407151629258365 ], [ 117.315077632413505, 42.407129114533923 ], [ 117.315071556257266, 42.407129131233503 ], [ 117.315071511189743, 42.407120125343702 ], [ 117.31506543503437, 42.407120142042956 ], [ 117.315065412501056, 42.407115639098052 ], [ 117.315047184036189, 42.40711568919388 ], [ 117.31504720656821, 42.407120192138798 ], [ 117.315028978101978, 42.407120242231748 ], [ 117.315029000632691, 42.407124745176652 ], [ 117.315016848320994, 42.407124778570342 ], [ 117.315016893380701, 42.407133784460193 ], [ 117.315010817223978, 42.407133801156562 ], [ 117.315010839753398, 42.40713830410148 ], [ 117.315016915910562, 42.407138287405104 ], [ 117.315016938440436, 42.407142790350022 ], [ 117.315023014598026, 42.407142773653327 ], [ 117.315023037128341, 42.407147276598238 ], [ 117.315029113286357, 42.407147259901222 ], [ 117.315029158347855, 42.407156265791016 ] ] ] } },
{ "type": "Feature", "properties": { "crown_id": 7149, "tree_id": "7154", "top_h_m": 22.575, "H_95_Mean": 22.3691, "DBH": 31.9066, "Carbon_kg": 205.953462, "area_m2": 21.25 }, "geometry": { "type": "Polygon", "coordinates": [ [ [ 117.314937948391247, 42.407143007377734 ], [ 117.314956176864214, 42.40714295729925 ], [ 117.314956154338688, 42.407138454354303 ], [ 117.314962230495894, 42.407138437660834 ], [ 117.314961937658921, 42.407079899376335 ], [ 117.314931556901072, 42.407079982840301 ], [ 117.314931646995973, 42.407097994620266 ], [ 117.314925570842661, 42.407098011312094 ], [ 117.314925660935899, 42.407116023092016 ], [ 117.31491350862575, 42.407116056474742 ], [ 117.314913576193121, 42.407129565309667 ], [ 117.314907500036753, 42.407129582000543 ], [ 117.314907522558769, 42.407134084945518 ], [ 117.31493182718603, 42.407134018180017 ], [ 117.314931849709794, 42.407138521124971 ], [ 117.314937925867042, 42.407138504432787 ], [ 117.314937948391247, 42.407143007377734 ] ] ] } },
{ "type": "Feature", "properties": { "crown_id": 7170, "tree_id": "7175", "top_h_m": 24.363, "H_95_Mean": 24.1428, "DBH": 32.1331, "Carbon_kg": 218.555302, "area_m2": 19.0 }, "geometry": { "type": "Polygon", "coordinates": [ [ [ 117.314980413912991, 42.40712938168862 ], [ 117.315010794694558, 42.407129298211636 ], [ 117.315010704576892, 42.407111286431913 ], [ 117.315004628422358, 42.407111303127941 ], [ 117.315004515777602, 42.407088788403186 ], [ 117.314998439625199, 42.407088805098887 ], [ 117.314998417096689, 42.407084302153912 ], [ 117.314992340944727, 42.407084318849286 ], [ 117.314992273360559, 42.407070810014368 ], [ 117.314980121059222, 42.407070843404128 ], [ 117.314980098532033, 42.407066340459139 ], [ 117.314967946231562, 42.40706637384762 ], [ 117.314967968757855, 42.407070876792595 ], [ 117.314961892607172, 42.407070893486349 ], [ 117.31496191513304, 42.407075396431345 ], [ 117.314967991284163, 42.407075379737591 ], [ 117.314968239073963, 42.407124912132225 ], [ 117.31498039138576, 42.40712487874368 ], [ 117.314980413912991, 42.40712938168862 ] ] ] } },
{ "type": "Feature", "properties": { "crown_id": 7176, "tree_id": "7181", "top_h_m": 23.821, "H_95_Mean": 23.3067, "DBH": 40.1816, "Carbon_kg": 335.861979, "area_m2": 48.25 }, "geometry": { "type": "Polygon", "coordinates": [ [ [ 117.31481635769039, 42.407129832325246 ], [ 117.314834586159748, 42.407129782266097 ], [ 117.314834563642918, 42.4071252793211 ], [ 117.314858868266953, 42.407125212571074 ], [ 117.314858823229841, 42.407116206681088 ], [ 117.314852747074724, 42.407116223369059 ], [ 117.314852634484254, 42.407093708644013 ], [ 117.314846558331297, 42.407093725331649 ], [ 117.314846445743143, 42.407071210606482 ], [ 117.314840369592346, 42.407071227293805 ], [ 117.314840302040793, 42.40705771845866 ], [ 117.314834225891317, 42.407057735145635 ], [ 117.314834203374573, 42.407053232200575 ], [ 117.314828127225539, 42.40705324888723 ], [ 117.314828082192946, 42.407044242997102 ], [ 117.31481592989654, 42.407044276369447 ], [ 117.314815952411948, 42.407048779314501 ], [ 117.314785571668693, 42.407048862739749 ], [ 117.314785526642197, 42.407039856849558 ], [ 117.314767298198788, 42.407039906900806 ], [ 117.314767500806397, 42.407080433406584 ], [ 117.314773576958146, 42.407080416723119 ], [ 117.314773667007842, 42.407098428503367 ], [ 117.314779743161282, 42.407098411819568 ], [ 117.31477976567416, 42.407102914764614 ], [ 117.314797994135787, 42.40710286471132 ], [ 117.314798016649974, 42.407107367656359 ], [ 117.31480409280428, 42.40710735097128 ], [ 117.314804115318921, 42.407111853916319 ], [ 117.31481019147364, 42.407111837230914 ], [ 117.314810213988707, 42.407116340175925 ], [ 117.314816290143852, 42.4071163234902 ], [ 117.31481635769039, 42.407129832325246 ] ] ] } },
{ "type": "Feature", "properties": { "crown_id": 7177, "tree_id": "7182", "top_h_m": 25.977, "H_95_Mean": 25.7457, "DBH": 35.3573, "Carbon_kg": 275.276638, "area_m2": 24.5 }, "geometry": { "type": "Polygon", "coordinates": [ [ [ 117.31487714177463, 42.407134168395146 ], [ 117.314901446401961, 42.407134101636089 ], [ 117.314901401358767, 42.407125095746132 ], [ 117.314907477514708, 42.407125079055575 ], [ 117.31490740994866, 42.40711157022065 ], [ 117.314919562257941, 42.407111536838556 ], [ 117.314919472166466, 42.407093525058627 ], [ 117.314925548319351, 42.407093508367112 ], [ 117.314925503272775, 42.407084502477126 ], [ 117.314919427120756, 42.407084519168627 ], [ 117.314919404597887, 42.407080016223638 ], [ 117.314907252294688, 42.407080049605668 ], [ 117.314907229772729, 42.407075546660664 ], [ 117.314901153621548, 42.407075563351199 ], [ 117.314901176143081, 42.407080066296217 ], [ 117.314895099991475, 42.407080082986433 ], [ 117.314895122512567, 42.407084585931429 ], [ 117.314852589448108, 42.407084702753963 ], [ 117.314852611966174, 42.407089205698973 ], [ 117.314858688118704, 42.40708918901101 ], [ 117.314858800711306, 42.407111703736085 ], [ 117.314864876865997, 42.407111687047774 ], [ 117.314864944422936, 42.40712519588277 ], [ 117.314871020578906, 42.407125179194132 ], [ 117.314871043098321, 42.407129682139129 ], [ 117.314877119254746, 42.407129665450171 ], [ 117.31487714177463, 42.407134168395146 ] ] ] } },
{ "type": "Feature", "properties": { "crown_id": 7178, "tree_id": "7183", "top_h_m": 23.753, "H_95_Mean": 23.5006, "DBH": 30.8323, "Carbon_kg": 197.908627, "area_m2": 17.0 }, "geometry": { "type": "Polygon", "coordinates": [ [ [ 117.315016825791147, 42.407120275625424 ], [ 117.315022901946577, 42.407120258928742 ], [ 117.31502287941629, 42.407115755983803 ], [ 117.315041107881228, 42.407115705891847 ], [ 117.315041085349634, 42.407111202946922 ], [ 117.315053237658688, 42.407111169550674 ], [ 117.315053147528971, 42.407093157770959 ], [ 117.315040995223413, 42.407093191167199 ], [ 117.31504090509722, 42.407075179387405 ], [ 117.315034828946168, 42.407075196085017 ], [ 117.315034783884002, 42.407066190195103 ], [ 117.315028707733788, 42.407066206892388 ], [ 117.315028685203146, 42.407061703947427 ], [ 117.315022609053386, 42.407061720644393 ], [ 117.315022631583602, 42.407066223589368 ], [ 117.314998326982746, 42.407066290374033 ], [ 117.314998394568192, 42.407079799208958 ], [ 117.315004470719728, 42.407079782513264 ], [ 117.315004493248665, 42.407084285458225 ], [ 117.315010569400599, 42.407084268762198 ], [ 117.3150106820475, 42.407106783486967 ], [ 117.315016758201637, 42.407106766790612 ], [ 117.315016825791147, 42.407120275625424 ] ] ] } },
{ "type": "Feature", "properties": { "crown_id": 7228, "tree_id": "7233", "top_h_m": 23.271, "H_95_Mean": 22.9052, "DBH": 27.2306, "Carbon_kg": 151.753912, "area_m2": 11.0 }, "geometry": { "type": "Polygon", "coordinates": [ [ [ 117.314852566930028, 42.407080199808938 ], [ 117.314889023839854, 42.407080099676321 ], [ 117.314889001319187, 42.407075596731303 ], [ 117.314895077470368, 42.407075580041408 ], [ 117.31489500990709, 42.407062071206354 ], [ 117.314888933757217, 42.407062087896229 ], [ 117.314888888715899, 42.407053082006158 ], [ 117.314876736417872, 42.407053115384947 ], [ 117.314876713898116, 42.407048612439915 ], [ 117.314870637749507, 42.407048629128816 ], [ 117.314870615230191, 42.40704412618377 ], [ 117.314864539082009, 42.407044142872351 ], [ 117.314864561600928, 42.407048645817397 ], [ 117.314858485452319, 42.407048662505673 ], [ 117.314858530489246, 42.407057668395773 ], [ 117.314846378190296, 42.407057701771343 ], [ 117.314846423225504, 42.407066707661443 ], [ 117.314852499375874, 42.407066690973814 ], [ 117.314852566930028, 42.407080199808938 ] ] ] } },
{ "type": "Feature", "properties": { "crown_id": 7257, "tree_id": "7263", "top_h_m": 24.25, "H_95_Mean": 24.0569, "DBH": 29.7878, "Carbon_kg": 187.200734, "area_m2": 14.25 }, "geometry": { "type": "Polygon", "coordinates": [ [ [ 117.314913305923881, 42.407075529969809 ], [ 117.314931534377365, 42.407075479895312 ], [ 117.31493148932995, 42.407066474005291 ], [ 117.314925413179665, 42.407066490697105 ], [ 117.314925323086655, 42.407048478917034 ], [ 117.314919246938103, 42.407048495608514 ], [ 117.314919156846912, 42.407030483828379 ], [ 117.314913080700109, 42.407030500519525 ], [ 117.314913058177737, 42.407025997574479 ], [ 117.314882677445752, 42.407026081025421 ], [ 117.314882722486118, 42.407035086915521 ], [ 117.314876646338831, 42.407035103604748 ], [ 117.314876691378345, 42.407044109494862 ], [ 117.314882767526484, 42.407044092805627 ], [ 117.314882790046696, 42.407048595750673 ], [ 117.314894942343841, 42.407048562371244 ], [ 117.314894987385998, 42.40705756826133 ], [ 117.314901063535444, 42.407057551571114 ], [ 117.314901131100015, 42.407071060406182 ], [ 117.314913283401481, 42.407071027024799 ], [ 117.314913305923881, 42.407075529969809 ] ] ] } },
{ "type": "Feature", "properties": { "crown_id": 7283, "tree_id": "7289", "top_h_m": 24.325, "H_95_Mean": 24.0103, "DBH": 33.5724, "Carbon_kg": 237.958939, "area_m2": 22.75 }, "geometry": { "type": "Polygon", "coordinates": [ [ [ 117.314937610528503, 42.407075463203157 ], [ 117.31495583898193, 42.407075413124787 ], [ 117.314955793931034, 42.407066407234794 ], [ 117.314961870081291, 42.407066390541367 ], [ 117.314961509668009, 42.406994343420983 ], [ 117.314937205094765, 42.406994410192596 ], [ 117.314937250142876, 42.407003416082716 ], [ 117.314931173998673, 42.407003432774815 ], [ 117.314931241569582, 42.407016941609982 ], [ 117.314919089278561, 42.407016974993233 ], [ 117.314919134324128, 42.407025980883347 ], [ 117.314925210470491, 42.407025964191867 ], [ 117.314925300563431, 42.407043975972009 ], [ 117.314931376711527, 42.407043959280202 ], [ 117.314931466806257, 42.407061971060273 ], [ 117.314937542956116, 42.407061954368139 ], [ 117.314937610528503, 42.407075463203157 ] ] ] } },
{ "type": "Feature", "properties": { "crown_id": 7284, "tree_id": "7290", "top_h_m": 25.603, "H_95_Mean": 25.372, "DBH": 34.2555, "Carbon_kg": 256.037189, "area_m2": 22.25 }, "geometry": { "type": "Polygon", "coordinates": [ [ [ 117.314986174682275, 42.407066323764425 ], [ 117.314992250832503, 42.4070663070694 ], [ 117.314992228304462, 42.40706180412441 ], [ 117.315016532903613, 42.407061737341039 ], [ 117.315016487844048, 42.407052731451074 ], [ 117.31501041169517, 42.4070527481474 ], [ 117.315010253989954, 42.407021227532411 ], [ 117.315004177844088, 42.407021244228396 ], [ 117.31500413278637, 42.407012238338361 ], [ 117.314991980496359, 42.40701227172935 ], [ 117.31499195796836, 42.407007768784318 ], [ 117.314985881823802, 42.407007785479315 ], [ 117.314985836768713, 42.406998779589252 ], [ 117.314979760624993, 42.406998796283929 ], [ 117.31497973809789, 42.40699429333889 ], [ 117.314973661954596, 42.406994310033241 ], [ 117.314973684481274, 42.406998812978294 ], [ 117.31496760833754, 42.406998829672318 ], [ 117.31496792370524, 42.407061870902623 ], [ 117.31498615215466, 42.407061820819443 ], [ 117.314986174682275, 42.407066323764425 ] ] ] } },
{ "type": "Feature", "properties": { "crown_id": 7301, "tree_id": "7307", "top_h_m": 27.176, "H_95_Mean": 26.8597, "DBH": 36.6206, "Carbon_kg": 302.955619, "area_m2": 26.0 }, "geometry": { "type": "Polygon", "coordinates": [ [ [ 117.315022586523185, 42.407057217699418 ], [ 117.315028662672503, 42.407057201002452 ], [ 117.315028640141861, 42.407052698057477 ], [ 117.315046868588524, 42.407052647964655 ], [ 117.315046800992732, 42.407039139129729 ], [ 117.31505895328786, 42.407039105732913 ], [ 117.315058885689496, 42.407025596897988 ], [ 117.315064961835773, 42.407025580199104 ], [ 117.315064916769344, 42.407016574309125 ], [ 117.315077069060123, 42.407016540910412 ], [ 117.315077046526042, 42.407012037965423 ], [ 117.315083122670998, 42.407012021265579 ], [ 117.315083100136491, 42.407007518320604 ], [ 117.315089176280992, 42.407007501620434 ], [ 117.315089108676219, 42.406993992785473 ], [ 117.315076956389845, 42.406994026185444 ], [ 117.315076933855792, 42.406989523240441 ], [ 117.31507085771301, 42.406989539939943 ], [ 117.315070835179412, 42.406985036994925 ], [ 117.315064759037057, 42.4069850536941 ], [ 117.315064736503899, 42.40698055074909 ], [ 117.315058660361984, 42.406980567447938 ], [ 117.315058705427461, 42.406989573337988 ], [ 117.315046553141883, 42.40698960673474 ], [ 117.31504662073749, 42.407003115569772 ], [ 117.315040544593387, 42.407003132267668 ], [ 117.315040567124839, 42.407007635212686 ], [ 117.315016262546635, 42.407007702001074 ], [ 117.315016285076368, 42.407012204946092 ], [ 117.315010208931369, 42.40701222164239 ], [ 117.315010231460661, 42.407016724587407 ], [ 117.315016307606086, 42.407016707891103 ], [ 117.315016465314301, 42.407048228506085 ], [ 117.315022541462753, 42.407048211809446 ], [ 117.315022586523185, 42.407057217699418 ] ] ] } },
{ "type": "Feature", "properties": { "crown_id": 7309, "tree_id": "7315", "top_h_m": 23.418, "H_95_Mean": 23.2471, "DBH": 28.7679, "Carbon_kg": 171.008269, "area_m2": 13.25 }, "geometry": { "type": "Polygon", "coordinates": [ [ [ 117.314791625303656, 42.40704434311025 ], [ 117.314809853748315, 42.407044293055122 ], [ 117.314809831233347, 42.407039790110048 ], [ 117.314821983528887, 42.407039756738357 ], [ 117.314821938497218, 42.407030750848193 ], [ 117.314828014644107, 42.407030734161864 ], [ 117.314827947095324, 42.407017225326612 ], [ 117.314821870949714, 42.40701724201292 ], [ 117.31482178088649, 42.406999230232515 ], [ 117.314827857030338, 42.406999213546214 ], [ 117.314827811997887, 42.406990207655987 ], [ 117.314833888140868, 42.406990190969374 ], [ 117.314833865624195, 42.406985688024257 ], [ 117.314821713339114, 42.40698572139717 ], [ 117.314821758370684, 42.406994727287405 ], [ 117.314809606083841, 42.406994760659046 ], [ 117.314809628598766, 42.406999263604163 ], [ 117.314803552454904, 42.40699928028949 ], [ 117.314803574969389, 42.407003783234615 ], [ 117.314797498825087, 42.407003799919629 ], [ 117.314797543853246, 42.407012805809856 ], [ 117.314791467708034, 42.407012822494565 ], [ 117.314791625303656, 42.40704434311025 ] ] ] } },
{ "type": "Feature", "properties": { "crown_id": 7310, "tree_id": "7316", "top_h_m": 24.036, "H_95_Mean": 23.7107, "DBH": 32.3889, "Carbon_kg": 219.716594, "area_m2": 20.25 }, "geometry": { "type": "Polygon", "coordinates": [ [ [ 117.314840279523636, 42.407053215513592 ], [ 117.314852431821748, 42.407053182138668 ], [ 117.314852386785688, 42.407044176248554 ], [ 117.314858462933856, 42.407044159560613 ], [ 117.314858440415406, 42.407039656615552 ], [ 117.314870592710875, 42.40703962323871 ], [ 117.314870547672228, 42.407030617348596 ], [ 117.314876623819089, 42.407030600659688 ], [ 117.314876578779604, 42.40702159476956 ], [ 117.314882654925569, 42.407021578080347 ], [ 117.314882632405414, 42.407017075135279 ], [ 117.314876556259847, 42.407017091824493 ], [ 117.314876511220405, 42.407008085934343 ], [ 117.314870435075733, 42.40700810262323 ], [ 117.314870367517898, 42.406994593787971 ], [ 117.314858215231112, 42.406994627164764 ], [ 117.314858192712705, 42.406990124219661 ], [ 117.314839964283834, 42.406990174282434 ], [ 117.314839986800934, 42.406994677227537 ], [ 117.314833910657512, 42.406994693914484 ], [ 117.314833955690858, 42.407003699804683 ], [ 117.314827879546584, 42.407003716491317 ], [ 117.314827924579063, 42.407012722381509 ], [ 117.314834000724204, 42.407012705694882 ], [ 117.314834113307697, 42.407035220420298 ], [ 117.314828037160368, 42.407035237106946 ], [ 117.314828059676657, 42.407039740052028 ], [ 117.314834135824398, 42.407039723365372 ], [ 117.314834180857844, 42.407048729255514 ], [ 117.31484025700648, 42.407048712568532 ], [ 117.314840279523636, 42.407053215513592 ] ] ] } },
{ "type": "Feature", "properties": { "crown_id": 7334, "tree_id": "7340", "top_h_m": 24.5, "H_95_Mean": 24.3182, "DBH": 29.3833, "Carbon_kg": 183.279901, "area_m2": 13.25 }, "geometry": { "type": "Polygon", "coordinates": [ [ [ 117.314888731071562, 42.407021561390806 ], [ 117.31491303565538, 42.407021494629433 ], [ 117.314912990610708, 42.407012488739333 ], [ 117.31492514290089, 42.407012455356721 ], [ 117.314925075331303, 42.406998946521533 ], [ 117.314931151475051, 42.406998929829747 ], [ 117.314931128951429, 42.406994426884701 ], [ 117.314925052808107, 42.40699444357648 ], [ 117.314925030284925, 42.406989940631405 ], [ 117.314918954142016, 42.406989957322864 ], [ 117.314918931619289, 42.406985454377768 ], [ 117.314894627049384, 42.406985521140356 ], [ 117.314894604528376, 42.406981018195268 ], [ 117.314888528386305, 42.406981034885099 ], [ 117.314888550906872, 42.406985537830195 ], [ 117.314882474764374, 42.406985554519707 ], [ 117.314882519804641, 42.406994560409892 ], [ 117.314876443661277, 42.406994577099098 ], [ 117.314876488700705, 42.407003582989262 ], [ 117.314882564844936, 42.407003566300055 ], [ 117.314882609885245, 42.407012572190212 ], [ 117.314888686030343, 42.407012555500678 ], [ 117.314888731071562, 42.407021561390806 ] ] ] } },
{ "type": "Feature", "properties": { "crown_id": 7342, "tree_id": "7348", "top_h_m": 26.802, "H_95_Mean": 26.6354, "DBH": 31.2425, "Carbon_kg": 218.875476, "area_m2": 14.25 }, "geometry": { "type": "Polygon", "coordinates": [ [ [ 117.314998034112946, 42.407007752088994 ], [ 117.315010186402077, 42.407007718697379 ], [ 117.315010163872813, 42.407003215752347 ], [ 117.315034468449284, 42.407003148965252 ], [ 117.315034445918286, 42.406998646020241 ], [ 117.315040522061949, 42.406998629322658 ], [ 117.315040454467635, 42.406985120487597 ], [ 117.31505260675236, 42.406985087091499 ], [ 117.315052561687793, 42.406976081201456 ], [ 117.315022180980293, 42.406976164689262 ], [ 117.315022158450162, 42.406971661744223 ], [ 117.315010006168009, 42.406971695137095 ], [ 117.31500998363876, 42.406967192192042 ], [ 117.315003907498124, 42.406967208887984 ], [ 117.315003952555713, 42.406976214778098 ], [ 117.314997876414196, 42.406976231473728 ], [ 117.314997898942579, 42.406980734418767 ], [ 117.314991822800607, 42.406980751114077 ], [ 117.314991867856506, 42.406989757004176 ], [ 117.314985791713667, 42.406989773699166 ], [ 117.314985814241183, 42.406994276644213 ], [ 117.314991890384476, 42.406994259949215 ], [ 117.314991935440389, 42.407003265839279 ], [ 117.314998011584549, 42.407003249143962 ], [ 117.314998034112946, 42.407007752088994 ] ] ] } },
{ "type": "Feature", "properties": { "crown_id": 7389, "tree_id": "7395", "top_h_m": 23.995, "H_95_Mean": 24.1252, "DBH": 24.6047, "Carbon_kg": 127.558409, "area_m2": 6.75 }, "geometry": { "type": "Polygon", "coordinates": [ [ [ 117.315028234591239, 42.406971645047314 ], [ 117.315052539155502, 42.406971578256424 ], [ 117.31505244902641, 42.406953566476275 ], [ 117.315046372887096, 42.40695358317447 ], [ 117.315046305291659, 42.40694007433931 ], [ 117.315034153015603, 42.406940107734712 ], [ 117.315034198077498, 42.406949113624826 ], [ 117.315028121938582, 42.406949130322047 ], [ 117.315028144469125, 42.406953633267115 ], [ 117.315022068329782, 42.406953649964024 ], [ 117.315022113389972, 42.40696265585413 ], [ 117.315016037249762, 42.406962672550719 ], [ 117.315016059779438, 42.406967175495765 ], [ 117.315028212060696, 42.40696714210226 ], [ 117.315028234591239, 42.406971645047314 ] ] ] } },
{ "type": "Feature", "properties": { "crown_id": 7402, "tree_id": "7408", "top_h_m": 26.407, "H_95_Mean": 26.0702, "DBH": 35.6582, "Carbon_kg": 282.100821, "area_m2": 24.75 }, "geometry": { "type": "Polygon", "coordinates": [ [ [ 117.314864268855672, 42.406990107531435 ], [ 117.314876421141562, 42.406990074154002 ], [ 117.314876376102163, 42.406981068263804 ], [ 117.314882452244234, 42.406981051574618 ], [ 117.314882429724136, 42.406976548629515 ], [ 117.314894582007383, 42.406976515250172 ], [ 117.314894446881539, 42.406949497579532 ], [ 117.314888370742523, 42.406949514269357 ], [ 117.314888258139973, 42.406926999543707 ], [ 117.31485787745568, 42.406927082987913 ], [ 117.314857922492322, 42.406936088878197 ], [ 117.314851846354586, 42.406936105566075 ], [ 117.314851891390404, 42.406945111456366 ], [ 117.314845815251786, 42.406945128143931 ], [ 117.314845905321732, 42.406963139924464 ], [ 117.314833753041015, 42.406963173298635 ], [ 117.31483384310755, 42.40698118507914 ], [ 117.314839919249664, 42.4069811683922 ], [ 117.314839941766749, 42.406985671337317 ], [ 117.314864246336839, 42.406985604586325 ], [ 117.314864268855672, 42.406990107531435 ] ] ] } },
{ "type": "Feature", "properties": { "crown_id": 7403, "tree_id": "7409", "top_h_m": 24.56, "H_95_Mean": 24.422, "DBH": 30.2669, "Carbon_kg": 195.048666, "area_m2": 14.75 }, "geometry": { "type": "Polygon", "coordinates": [ [ [ 117.314931106427835, 42.406989923939626 ], [ 117.314943258713598, 42.406989890555103 ], [ 117.314943213664662, 42.406980884664982 ], [ 117.314949289806648, 42.406980867972244 ], [ 117.314949222231974, 42.40696735913702 ], [ 117.314943146091252, 42.406967375829744 ], [ 117.314943055993496, 42.406949364049396 ], [ 117.314949132132469, 42.406949347356672 ], [ 117.314949109607596, 42.406944844411576 ], [ 117.314936957330502, 42.40694487779669 ], [ 117.314936979854508, 42.406949380741786 ], [ 117.314900523020555, 42.406949480889395 ], [ 117.314900680670419, 42.406981001505102 ], [ 117.314924985238576, 42.406980934741242 ], [ 117.314925007761758, 42.406985437686323 ], [ 117.314931083904213, 42.406985420994559 ], [ 117.314931106427835, 42.406989923939626 ] ] ] } },
{ "type": "Feature", "properties": { "crown_id": 7404, "tree_id": "7410", "top_h_m": 25.477, "H_95_Mean": 25.3716, "DBH": 30.9466, "Carbon_kg": 208.631982, "area_m2": 15.0 }, "geometry": { "type": "Polygon", "coordinates": [ [ [ 117.314949334856493, 42.406989873862372 ], [ 117.314979715570814, 42.406989790393837 ], [ 117.314979693043725, 42.406985287448798 ], [ 117.314985769186123, 42.406985270754113 ], [ 117.314985724131105, 42.406976264864014 ], [ 117.314991800272665, 42.40697624816903 ], [ 117.314991777744723, 42.406971745223977 ], [ 117.314997853885828, 42.406971728528674 ], [ 117.314997786300736, 42.4069582196935 ], [ 117.314991710160939, 42.406958236388782 ], [ 117.314991665105097, 42.406949230498647 ], [ 117.314979512827236, 42.406949263888258 ], [ 117.314979490300189, 42.406944760943183 ], [ 117.314955185746129, 42.406944827718547 ], [ 117.314955230796727, 42.406953833608732 ], [ 117.314949154657327, 42.406953850301782 ], [ 117.314949199707087, 42.406962856191939 ], [ 117.314955275847353, 42.406962839498888 ], [ 117.314955388474004, 42.406985354224254 ], [ 117.314949312331578, 42.406985370917312 ], [ 117.314949334856493, 42.406989873862372 ] ] ] } },
{ "type": "Feature", "properties": { "crown_id": 7424, "tree_id": "7430", "top_h_m": 25.633, "H_95_Mean": 25.7897, "DBH": 33.5831, "Carbon_kg": 248.396243, "area_m2": 20.0 }, "geometry": { "type": "Polygon", "coordinates": [ [ [ 117.314809538539095, 42.40698125182368 ], [ 117.314821690823337, 42.406981218452053 ], [ 117.314821668307545, 42.406976715506921 ], [ 117.314827744449232, 42.406976698820635 ], [ 117.314827654384459, 42.40695868704011 ], [ 117.314839806664324, 42.406958653666585 ], [ 117.314839716596126, 42.406940641886024 ], [ 117.314845792734303, 42.406940625198786 ], [ 117.31484574769938, 42.40693161930848 ], [ 117.31485182383669, 42.406931602620936 ], [ 117.314851778800929, 42.406922596730624 ], [ 117.314833550391555, 42.40692264679231 ], [ 117.314833572908157, 42.40692714973747 ], [ 117.314797116086694, 42.406927249852153 ], [ 117.314797161114683, 42.406936255742494 ], [ 117.314791084976889, 42.406936272427146 ], [ 117.314791197544707, 42.406958787152973 ], [ 117.31479727368469, 42.4069587704683 ], [ 117.314797318712721, 42.406967776358599 ], [ 117.314803394853541, 42.406967759673591 ], [ 117.314803417368026, 42.406972262618737 ], [ 117.314809493509273, 42.40697224593341 ], [ 117.314809538539095, 42.40698125182368 ] ] ] } },
{ "type": "Feature", "properties": { "crown_id": 7425, "tree_id": "7431", "top_h_m": 24.129, "H_95_Mean": 24.0622, "DBH": 23.0339, "Carbon_kg": 111.504513, "area_m2": 5.25 }, "geometry": { "type": "MultiPolygon", "coordinates": [ [ [ [ 117.3150038849693, 42.406962705942924 ], [ 117.315009961109538, 42.406962689246988 ], [ 117.315009938580303, 42.406958186301928 ], [ 117.315016014720086, 42.406958169605659 ], [ 117.315015969660777, 42.406949163715524 ], [ 117.315022045799694, 42.406949147018956 ], [ 117.31502202326962, 42.406944644073896 ], [ 117.315028099408067, 42.406944627377001 ], [ 117.315028054347067, 42.406935621486859 ], [ 117.315003749796645, 42.406935688272512 ], [ 117.315003772325412, 42.406940191217593 ], [ 117.314997696187362, 42.406940207913195 ], [ 117.314997763772396, 42.406953716748426 ], [ 117.315003839911739, 42.40695370005281 ], [ 117.3150038849693, 42.406962705942924 ] ] ], [ [ [ 117.315028054347067, 42.406935621486859 ], [ 117.315034130484662, 42.406935604789645 ], [ 117.315034085422795, 42.406926598899503 ], [ 117.315028009286095, 42.40692661559671 ], [ 117.315028054347067, 42.406935621486859 ] ] ] ] } },
{ "type": "Feature", "properties": { "crown_id": 7455, "tree_id": "7461", "top_h_m": 24.805, "H_95_Mean": 24.591, "DBH": 30.7554, "Carbon_kg": 202.268834, "area_m2": 15.5 }, "geometry": { "type": "Polygon", "coordinates": [ [ [ 117.314894424360588, 42.406944994634422 ], [ 117.31493088119197, 42.40694489448876 ], [ 117.314930858668404, 42.406940391543664 ], [ 117.314943010944631, 42.406940358159197 ], [ 117.314942943371378, 42.406926849323874 ], [ 117.314949019508177, 42.406926832631164 ], [ 117.314948951933687, 42.406913323795813 ], [ 117.314936799662675, 42.406913357180883 ], [ 117.314936777138726, 42.406908854235752 ], [ 117.314918548733502, 42.406908904310939 ], [ 117.314918526210846, 42.4069044013658 ], [ 117.31490637394154, 42.406904434747638 ], [ 117.314906418985117, 42.406913440637915 ], [ 117.314900342849583, 42.406913457328358 ], [ 117.314900387892294, 42.406922463218649 ], [ 117.314894311755907, 42.406922479908779 ], [ 117.314894424360588, 42.406944994634422 ] ] ] } },
{ "type": "Feature", "properties": { "crown_id": 7456, "tree_id": "7462", "top_h_m": 24.84, "H_95_Mean": 24.5992, "DBH": 33.6644, "Carbon_kg": 242.728953, "area_m2": 22.0 }, "geometry": { "type": "Polygon", "coordinates": [ [ [ 117.314985566438693, 42.406944744248541 ], [ 117.314991642577198, 42.406944727553565 ], [ 117.314991597521384, 42.406935721663402 ], [ 117.314997673659036, 42.406935704968113 ], [ 117.31499765113071, 42.406931202023038 ], [ 117.315021955679399, 42.406931135238679 ], [ 117.315021910619279, 42.406922129348523 ], [ 117.315015834482992, 42.40692214604509 ], [ 117.315015766894163, 42.406908637209817 ], [ 117.315003614624146, 42.406908670601965 ], [ 117.315003592095408, 42.406904167656855 ], [ 117.314991439826258, 42.406904201047709 ], [ 117.314991417298415, 42.406899698102592 ], [ 117.31498534116426, 42.406899714797532 ], [ 117.314985318636843, 42.406895211852422 ], [ 117.314954937968167, 42.406895295322286 ], [ 117.314954960493395, 42.406899798267425 ], [ 117.314948884359211, 42.406899814960433 ], [ 117.314948929408843, 42.406908820850688 ], [ 117.314955005543922, 42.406908804157666 ], [ 117.314955118170261, 42.406931318883245 ], [ 117.314949042033021, 42.406931335576267 ], [ 117.314949064557894, 42.406935838521377 ], [ 117.314955140695531, 42.406935821828348 ], [ 117.31495516322083, 42.406940324773458 ], [ 117.314985543911234, 42.40694024130346 ], [ 117.314985566438693, 42.406944744248541 ] ] ] } },
{ "type": "Feature", "properties": { "crown_id": 7475, "tree_id": "7481", "top_h_m": 23.365, "H_95_Mean": 23.1456, "DBH": 28.984, "Carbon_kg": 173.158495, "area_m2": 13.75 }, "geometry": { "type": "Polygon", "coordinates": [ [ [ 117.314791017436221, 42.406922763591623 ], [ 117.314827474255111, 42.406922663478888 ], [ 117.314827451738978, 42.406918160533714 ], [ 117.314839604010999, 42.406918127160218 ], [ 117.314839581493999, 42.406913624215065 ], [ 117.314845657629576, 42.406913607527834 ], [ 117.314845590077297, 42.406900098692326 ], [ 117.314827361674446, 42.406900148752996 ], [ 117.314827339158327, 42.406895645807822 ], [ 117.314821263024456, 42.406895662494058 ], [ 117.314821240508778, 42.406891159548863 ], [ 117.314796935975039, 42.406891226290618 ], [ 117.314796981002914, 42.406900232181016 ], [ 117.314790904868616, 42.406900248865654 ], [ 117.314790927382134, 42.406904751810849 ], [ 117.314778775112586, 42.406904785179172 ], [ 117.314778820137903, 42.406913791069563 ], [ 117.314784896273537, 42.406913774385558 ], [ 117.314784918786643, 42.406918277330746 ], [ 117.314790994922689, 42.406918260646421 ], [ 117.314791017436221, 42.406922763591623 ] ] ] } },
{ "type": "Feature", "properties": { "crown_id": 7496, "tree_id": "7502", "top_h_m": 23.765, "H_95_Mean": 23.6802, "DBH": 31.1748, "Carbon_kg": 203.277899, "area_m2": 17.5 }, "geometry": { "type": "Polygon", "coordinates": [ [ [ 117.314857854937344, 42.40692258004276 ], [ 117.314888235619478, 42.406922496598575 ], [ 117.314888213098996, 42.406917993653416 ], [ 117.314894289234957, 42.406917976963612 ], [ 117.314894244193141, 42.406908971073335 ], [ 117.314900320328235, 42.406908954383219 ], [ 117.314900185200258, 42.406881936712274 ], [ 117.314888032935272, 42.406881970092151 ], [ 117.314888010414805, 42.406877467146977 ], [ 117.314857629754428, 42.406877550591041 ], [ 117.314857697309264, 42.406891059426584 ], [ 117.314851621175848, 42.406891076114434 ], [ 117.314851756283034, 42.406918093785457 ], [ 117.314857832419051, 42.406918077097593 ], [ 117.314857854937344, 42.40692258004276 ] ] ] } },
{ "type": "Feature", "properties": { "crown_id": 7511, "tree_id": "7517", "top_h_m": 24.776, "H_95_Mean": 24.6999, "DBH": 27.3499, "Carbon_kg": 160.082277, "area_m2": 9.75 }, "geometry": { "type": "Polygon", "coordinates": [ [ [ 117.314924602345485, 42.406904384674398 ], [ 117.314942830749416, 42.406904334598266 ], [ 117.314942785700651, 42.406895328707982 ], [ 117.314948861834424, 42.406895312015294 ], [ 117.314948839309608, 42.406890809070163 ], [ 117.31494276317629, 42.406890825762837 ], [ 117.314942740651929, 42.406886322817705 ], [ 117.314936664519024, 42.406886339510059 ], [ 117.314936641995089, 42.406881836564899 ], [ 117.314930565862639, 42.406881853256941 ], [ 117.314930498292199, 42.406868344421454 ], [ 117.314906193767527, 42.406868411186352 ], [ 117.314906351419779, 42.406899931802478 ], [ 117.314924579822431, 42.406899881729245 ], [ 117.314924602345485, 42.406904384674398 ] ] ] } },
{ "type": "Feature", "properties": { "crown_id": 7523, "tree_id": "7529", "top_h_m": 24.597, "H_95_Mean": 24.2255, "DBH": 35.9683, "Carbon_kg": 274.873458, "area_m2": 29.25 }, "geometry": { "type": "Polygon", "coordinates": [ [ [ 117.315027986755595, 42.406922112651635 ], [ 117.315040139028156, 42.406922079256894 ], [ 117.31504009396545, 42.406913073366738 ], [ 117.315046170100885, 42.406913056668884 ], [ 117.315046147569092, 42.406908553723802 ], [ 117.315052223704072, 42.406908537025629 ], [ 117.315052201171866, 42.406904034080547 ], [ 117.315058277306392, 42.406904017382054 ], [ 117.31505825477376, 42.406899514436979 ], [ 117.315070407041944, 42.406899481039041 ], [ 117.315070384508431, 42.406894978093966 ], [ 117.315076460642075, 42.406894961394514 ], [ 117.315076370506404, 42.406876949614166 ], [ 117.315070294374479, 42.406876966313597 ], [ 117.315070271841023, 42.406872463368501 ], [ 117.315064195709539, 42.406872480067605 ], [ 117.315064173176495, 42.406867977122509 ], [ 117.314985183472459, 42.406868194181641 ], [ 117.31498522852722, 42.406877200071911 ], [ 117.314991304659202, 42.406877183376984 ], [ 117.314991394770544, 42.406895195157482 ], [ 117.314997470904274, 42.406895178462221 ], [ 117.314997493432543, 42.406899681407339 ], [ 117.315009645700826, 42.406899648015838 ], [ 117.315009668230005, 42.406904150960941 ], [ 117.315021820499126, 42.406904117568153 ], [ 117.315021888089248, 42.406917626403427 ], [ 117.315027964225109, 42.406917609706547 ], [ 117.315027986755595, 42.406922112651635 ] ] ] } },
{ "type": "Feature", "properties": { "crown_id": 7540, "tree_id": "7546", "top_h_m": 18.781, "H_95_Mean": 18.7897, "DBH": 21.8601, "Carbon_kg": 86.691787, "area_m2": 6.75 }, "geometry": { "type": "Polygon", "coordinates": [ [ [ 117.314833415292185, 42.406895629121244 ], [ 117.314839491426028, 42.406895612434361 ], [ 117.314839468909028, 42.406891109489173 ], [ 117.314845545042445, 42.406891092801963 ], [ 117.314845522525033, 42.406886589856782 ], [ 117.314851598657995, 42.406886573169253 ], [ 117.314851531104495, 42.406873064333695 ], [ 117.314857607236149, 42.406873047645838 ], [ 117.314857584717899, 42.406868544700643 ], [ 117.314815051799215, 42.40686866150876 ], [ 117.314815096829662, 42.406877667399186 ], [ 117.314821172961786, 42.40687765071327 ], [ 117.314821217993114, 42.406886656603675 ], [ 117.314827294126104, 42.406886639917438 ], [ 117.314827316642223, 42.406891142862619 ], [ 117.31483339277564, 42.406891126176056 ], [ 117.314833415292185, 42.406895629121244 ] ] ] } },
{ "type": "Feature", "properties": { "crown_id": 7577, "tree_id": "7583", "top_h_m": 24.76, "H_95_Mean": 24.7062, "DBH": 25.7824, "Carbon_kg": 142.150016, "area_m2": 7.75 }, "geometry": { "type": "Polygon", "coordinates": [ [ [ 117.314954915442925, 42.406890792377155 ], [ 117.314985296109441, 42.406890708907298 ], [ 117.314985251054608, 42.406881703017042 ], [ 117.314979174922186, 42.406881719711649 ], [ 117.31497910734133, 42.40686821087624 ], [ 117.314936574423371, 42.406868327729434 ], [ 117.314936619471197, 42.406877333619747 ], [ 117.314942695603222, 42.406877316927392 ], [ 117.314942718127568, 42.406881819872552 ], [ 117.314948794260033, 42.406881803179864 ], [ 117.31494881678482, 42.406886306125024 ], [ 117.314954892917697, 42.406886289432016 ], [ 117.314954915442925, 42.406890792377155 ] ] ] } }
]
}
