{
"type": "FeatureCollection",
"name": "tile_6_15",
"crs": { "type": "name", "properties": { "name": "urn:ogc:def:crs:OGC:1.3:CRS84" } },
"features": [
{ "type": "Feature", "properties": { "crown_id": 1626, "tree_id": "1626", "top_h_m": 23.155, "H_95_Mean": 22.9192, "DBH": 29.5042, "Carbon_kg": 178.438917, "area_m2": 15.0 }, "geometry": { "type": "Polygon", "coordinates": [ [ [ 117.313368634052068, 42.410475028957535 ], [ 117.313374710532244, 42.410475012347156 ], [ 117.313374688117221, 42.410470509404163 ], [ 117.313380764596928, 42.410470492793465 ], [ 117.313380742181451, 42.410465989850465 ], [ 117.313386818660746, 42.410465973239454 ], [ 117.313386796244856, 42.410461470296461 ], [ 117.313398949202536, 42.410461437073465 ], [ 117.31339892678578, 42.410456934130458 ], [ 117.31340500326418, 42.410456917518488 ], [ 117.313404958429828, 42.410447911632488 ], [ 117.313398881952295, 42.410447928244466 ], [ 117.313398792285369, 42.41042991647241 ], [ 117.313386639333771, 42.410429949695377 ], [ 117.313386616917924, 42.410425446752356 ], [ 117.313380540442566, 42.410425463363346 ], [ 117.313380585273393, 42.410434469249388 ], [ 117.3133684323209, 42.41043450247043 ], [ 117.313368454735439, 42.410439005413451 ], [ 117.313362378258759, 42.410439022023496 ], [ 117.313362400672887, 42.410443524966517 ], [ 117.313350247718617, 42.410443558185627 ], [ 117.313350314958413, 42.410457067014697 ], [ 117.313344238479971, 42.410457083623776 ], [ 117.313344260892833, 42.410461586566804 ], [ 117.313350337371716, 42.410461569957725 ], [ 117.313350359784977, 42.410466072900725 ], [ 117.313362512743595, 42.410466039681594 ], [ 117.313362535157751, 42.410470542624587 ], [ 117.313368611637472, 42.410470526014542 ], [ 117.313368634052068, 42.410475028957535 ] ] ] } },
{ "type": "Feature", "properties": { "crown_id": 1636, "tree_id": "1636", "top_h_m": 21.414, "H_95_Mean": 21.2598, "DBH": 30.2638, "Carbon_kg": 179.652967, "area_m2": 19.0 }, "geometry": { "type": "Polygon", "coordinates": [ [ [ 117.313538730641113, 42.410465557859325 ], [ 117.313556960078543, 42.410465508000179 ], [ 117.313556915222435, 42.410456502114322 ], [ 117.313562991700707, 42.410456485493981 ], [ 117.313562969272226, 42.410451982551045 ], [ 117.313575122227874, 42.41045194930939 ], [ 117.313575099798527, 42.410447446366454 ], [ 117.31358725275328, 42.410447413123507 ], [ 117.313587230323066, 42.410442910180585 ], [ 117.313599383276923, 42.410442876936351 ], [ 117.313599338414775, 42.410433871050493 ], [ 117.313593261938721, 42.410433887672774 ], [ 117.313593239508066, 42.410429384729831 ], [ 117.313587163032452, 42.410429401351784 ], [ 117.313587140602266, 42.410424898408841 ], [ 117.313581064127078, 42.410424915030468 ], [ 117.313581041697319, 42.410420412087518 ], [ 117.313568888747753, 42.410420445329791 ], [ 117.313568911176645, 42.410424948272755 ], [ 117.313550681750982, 42.410424998133749 ], [ 117.313550704178567, 42.410429501076706 ], [ 117.313526398275883, 42.41042956755355 ], [ 117.313526465553437, 42.410443076382428 ], [ 117.313520389076444, 42.410443093000836 ], [ 117.313520456352762, 42.410456601829686 ], [ 117.31353868578762, 42.410456551973461 ], [ 117.313538730641113, 42.410465557859325 ] ] ] } },
{ "type": "Feature", "properties": { "crown_id": 1664, "tree_id": "1664", "top_h_m": 23.123, "H_95_Mean": 22.9757, "DBH": 30.3902, "Carbon_kg": 189.679545, "area_m2": 16.75 }, "geometry": { "type": "Polygon", "coordinates": [ [ [ 117.313429331596637, 42.410461354010337 ], [ 117.313441484554247, 42.410461320782822 ], [ 117.313441462134463, 42.410456817839837 ], [ 117.313447538612806, 42.410456801225607 ], [ 117.313447516192596, 42.410452298282635 ], [ 117.313453592670513, 42.410452281668086 ], [ 117.313453480567276, 42.410429766953143 ], [ 117.313447404091534, 42.410429783567693 ], [ 117.313447381671338, 42.410425280624686 ], [ 117.313441305196022, 42.410425297238902 ], [ 117.313441260356512, 42.410416291352888 ], [ 117.313435183882063, 42.41041630796677 ], [ 117.313435139043449, 42.410407302080742 ], [ 117.313429062569853, 42.410407318694297 ], [ 117.313429084988726, 42.410411821637332 ], [ 117.313416932040667, 42.41041185486349 ], [ 117.313416976876681, 42.410420860749525 ], [ 117.313404823926874, 42.410420893974411 ], [ 117.313404936012645, 42.410443408689488 ], [ 117.313411012489738, 42.410443392077191 ], [ 117.313411079742565, 42.410456900906183 ], [ 117.313429309177721, 42.410456851067345 ], [ 117.313429331596637, 42.410461354010337 ] ] ] } },
{ "type": "Feature", "properties": { "crown_id": 1665, "tree_id": "1665", "top_h_m": 22.547, "H_95_Mean": 22.4559, "DBH": 30.9507, "Carbon_kg": 194.150797, "area_m2": 18.75 }, "geometry": { "type": "Polygon", "coordinates": [ [ [ 117.313490073961191, 42.410456684916952 ], [ 117.313514379874448, 42.410456618447782 ], [ 117.31351433502445, 42.410447612561882 ], [ 117.313508258547017, 42.410447629179657 ], [ 117.313508236122459, 42.4104431262367 ], [ 117.313514312599452, 42.410443109618932 ], [ 117.313514290174453, 42.41043860667596 ], [ 117.313520366651019, 42.410438590057872 ], [ 117.313520299374773, 42.410425081228986 ], [ 117.313508146424255, 42.410425114464829 ], [ 117.313508079150651, 42.410411605635879 ], [ 117.313495926202719, 42.410411638870421 ], [ 117.313495948626397, 42.4104161418134 ], [ 117.313477719203149, 42.410416191662797 ], [ 117.313477741625491, 42.41042069460579 ], [ 117.313459512200922, 42.410420744452281 ], [ 117.313459669148415, 42.410452265053209 ], [ 117.313490051537926, 42.410452181974001 ], [ 117.313490073961191, 42.410456684916952 ] ] ] } },
{ "type": "Feature", "properties": { "crown_id": 1693, "tree_id": "1693", "top_h_m": 19.222, "H_95_Mean": 18.9697, "DBH": 26.6212, "Carbon_kg": 129.689106, "area_m2": 14.25 }, "geometry": { "type": "Polygon", "coordinates": [ [ [ 117.313599315983723, 42.410429368107572 ], [ 117.313617545410551, 42.410429318238819 ], [ 117.313617522978177, 42.410424815295897 ], [ 117.313623599453365, 42.410424798672345 ], [ 117.313623577020564, 42.410420295729416 ], [ 117.313635729970017, 42.410420262481338 ], [ 117.313635617801779, 42.41039774776668 ], [ 117.313629541329234, 42.410397764390858 ], [ 117.313629518896022, 42.410393261447922 ], [ 117.313623442423918, 42.410393278071773 ], [ 117.313623397558402, 42.410384272185851 ], [ 117.31361732108715, 42.410384288809389 ], [ 117.313617343519454, 42.410388791752347 ], [ 117.313611267047747, 42.410388808375565 ], [ 117.313611311911529, 42.410397814261479 ], [ 117.313587006021208, 42.410397880751127 ], [ 117.313587050881537, 42.410406886637041 ], [ 117.313574897934615, 42.410406919879946 ], [ 117.313574920363919, 42.410411422822918 ], [ 117.313580996837828, 42.410411406201618 ], [ 117.313581019267559, 42.410415909144575 ], [ 117.31358709574188, 42.410415892522948 ], [ 117.31358711817208, 42.410420395465891 ], [ 117.313593194646828, 42.410420378843959 ], [ 117.313593217077454, 42.410424881786895 ], [ 117.313599293552642, 42.410424865164636 ], [ 117.313599315983723, 42.410429368107572 ] ] ] } },
{ "type": "Feature", "properties": { "crown_id": 1718, "tree_id": "1718", "top_h_m": 19.822, "H_95_Mean": 19.7479, "DBH": 22.8001, "Carbon_kg": 97.18664, "area_m2": 7.25 }, "geometry": { "type": "Polygon", "coordinates": [ [ [ 117.313392693393297, 42.410425430141039 ], [ 117.313398769868655, 42.410425413529396 ], [ 117.313398725035228, 42.410416407643339 ], [ 117.313410877984182, 42.410416374419107 ], [ 117.313410833149049, 42.41040736853305 ], [ 117.313422986096271, 42.410407335307532 ], [ 117.313422963677837, 42.410402832364518 ], [ 117.313429040150993, 42.410402815751283 ], [ 117.313429017732133, 42.410398312808248 ], [ 117.313380405950184, 42.410398445705091 ], [ 117.313380518027159, 42.410420960420311 ], [ 117.313392670976995, 42.410420927197997 ], [ 117.313392693393297, 42.410425430141039 ] ] ] } },
{ "type": "Feature", "properties": { "crown_id": 1725, "tree_id": "1725", "top_h_m": 20.199, "H_95_Mean": 20.1101, "DBH": 27.1204, "Carbon_kg": 139.367382, "area_m2": 13.75 }, "geometry": { "type": "Polygon", "coordinates": [ [ [ 117.313447359251157, 42.410420777681686 ], [ 117.313453435726032, 42.410420761067151 ], [ 117.31345341330541, 42.410416258124151 ], [ 117.313471642728715, 42.410416208278626 ], [ 117.3134716203068, 42.410411705335626 ], [ 117.313489849728754, 42.410411655487195 ], [ 117.313489827305546, 42.410407152544202 ], [ 117.31350198025261, 42.410407119310321 ], [ 117.313501935404446, 42.410398113424321 ], [ 117.313483705986442, 42.410398163274657 ], [ 117.313483661140921, 42.410389157388629 ], [ 117.313465431725461, 42.410389207236044 ], [ 117.313465409304015, 42.410384704293023 ], [ 117.313435026947005, 42.410384787365594 ], [ 117.313435116624149, 42.410402799137714 ], [ 117.313441193097304, 42.410402782523839 ], [ 117.313441237936786, 42.410411788409881 ], [ 117.313447314410809, 42.410411771795665 ], [ 117.313447359251157, 42.410420777681686 ] ] ] } },
{ "type": "Feature", "properties": { "crown_id": 1726, "tree_id": "1726", "top_h_m": 20.538, "H_95_Mean": 20.4415, "DBH": 30.759, "Carbon_kg": 181.367228, "area_m2": 21.75 }, "geometry": { "type": "Polygon", "coordinates": [ [ [ 117.313526375850017, 42.410425064610578 ], [ 117.313544605275737, 42.410425014753436 ], [ 117.313544582848607, 42.410420511810486 ], [ 117.313562812272977, 42.410420461950444 ], [ 117.313562789844539, 42.410415959007487 ], [ 117.313568866318889, 42.410415942386848 ], [ 117.313568799032296, 42.410402433557955 ], [ 117.313580951978352, 42.410402400315697 ], [ 117.313580929548621, 42.410397897372732 ], [ 117.313562700130817, 42.410397947235623 ], [ 117.313562655273998, 42.410388941349666 ], [ 117.313556578802249, 42.410388957969985 ], [ 117.313556533946297, 42.410379952084021 ], [ 117.313544381004547, 42.410379985323672 ], [ 117.31354435857746, 42.410375482380672 ], [ 117.313520052695594, 42.410375548856095 ], [ 117.313520075120948, 42.410380051799109 ], [ 117.313513998650052, 42.410380068417155 ], [ 117.313514043499893, 42.410389074303161 ], [ 117.313507967028116, 42.410389090920901 ], [ 117.31350805672615, 42.410407102692879 ], [ 117.313514133199646, 42.410407086075146 ], [ 117.313514200474543, 42.410420594904089 ], [ 117.31352635342418, 42.4104205616676 ], [ 117.313526375850017, 42.410425064610578 ] ] ] } },
{ "type": "Feature", "properties": { "crown_id": 1781, "tree_id": "1781", "top_h_m": 19.829, "H_95_Mean": 19.6447, "DBH": 30.3607, "Carbon_kg": 172.558882, "area_m2": 22.25 }, "geometry": { "type": "Polygon", "coordinates": [ [ [ 117.313368230590129, 42.410393975983034 ], [ 117.313416842368682, 42.410393843091363 ], [ 117.313416819950717, 42.410389340148313 ], [ 117.313422896422566, 42.410389323535398 ], [ 117.313422918840971, 42.410393826478455 ], [ 117.313428995313288, 42.410393809865219 ], [ 117.313428928056751, 42.410380301036099 ], [ 117.31341677511476, 42.410380334262221 ], [ 117.313416730278846, 42.410371328376115 ], [ 117.313410653808717, 42.410371344988683 ], [ 117.313410631391207, 42.410366842045619 ], [ 117.313398478451788, 42.410366875269794 ], [ 117.313398433618488, 42.41035786938366 ], [ 117.313386280680803, 42.410357902606535 ], [ 117.313386235849279, 42.410348896720365 ], [ 117.313380159381296, 42.410348913331319 ], [ 117.313380136965975, 42.410344410388227 ], [ 117.313374060498433, 42.41034442699884 ], [ 117.313374038083538, 42.410339924055755 ], [ 117.313361885149291, 42.41033995727603 ], [ 117.313362019633459, 42.41036697493459 ], [ 117.313355943163714, 42.410366991544272 ], [ 117.313355965577301, 42.410371494487357 ], [ 117.31334988910713, 42.410371511096699 ], [ 117.313349956346684, 42.410385019925947 ], [ 117.313362109289656, 42.410384986706909 ], [ 117.313362131703713, 42.410389489649972 ], [ 117.313368208175618, 42.41038947303997 ], [ 117.313368230590129, 42.410393975983034 ] ] ] } },
{ "type": "Feature", "properties": { "crown_id": 1787, "tree_id": "1787", "top_h_m": 18.804, "H_95_Mean": 18.5209, "DBH": 30.1819, "Carbon_kg": 164.678032, "area_m2": 24.25 }, "geometry": { "type": "Polygon", "coordinates": [ [ [ 117.313568754174568, 42.41039342767202 ], [ 117.313605213007506, 42.410393327941421 ], [ 117.313605168144619, 42.410384322055499 ], [ 117.313611244615885, 42.410384305432608 ], [ 117.313611222183994, 42.410379802489629 ], [ 117.313623375125644, 42.410379769242908 ], [ 117.313623330260185, 42.410370763356973 ], [ 117.313617253790227, 42.410370779980482 ], [ 117.313617164061057, 42.410352768208583 ], [ 117.313611087592847, 42.410352784831773 ], [ 117.313611065160998, 42.410348281888787 ], [ 117.313598912225402, 42.410348315134193 ], [ 117.313598889794434, 42.410343812191194 ], [ 117.313586736859705, 42.410343845435314 ], [ 117.313586759289805, 42.410348348378321 ], [ 117.313574606354166, 42.410348381621162 ], [ 117.313574583924947, 42.410343878678148 ], [ 117.31355635452276, 42.41034392853998 ], [ 117.313556466662433, 42.410366443255022 ], [ 117.313550390192859, 42.410366459875 ], [ 117.313550435047901, 42.410375465761 ], [ 117.313562587988784, 42.410375432520716 ], [ 117.313562632845588, 42.410384438406695 ], [ 117.313568709316897, 42.410384421786063 ], [ 117.313568754174568, 42.41039342767202 ] ] ] } },
{ "type": "Feature", "properties": { "crown_id": 1795, "tree_id": "1795", "top_h_m": 18.752, "H_95_Mean": 18.6696, "DBH": 27.5427, "Carbon_kg": 137.592278, "area_m2": 16.75 }, "geometry": { "type": "Polygon", "coordinates": [ [ [ 117.313489760035921, 42.410393643715196 ], [ 117.313501912980385, 42.410393610481329 ], [ 117.313501868132249, 42.410384604595308 ], [ 117.3135079446036, 42.410384587977894 ], [ 117.313507899754654, 42.410375582091874 ], [ 117.313513976225138, 42.410375565474148 ], [ 117.313513886525499, 42.410357553702077 ], [ 117.313501733587998, 42.410357586937181 ], [ 117.313501666315958, 42.410344078108075 ], [ 117.313489513381057, 42.410344111341885 ], [ 117.313489535804194, 42.410348614284928 ], [ 117.313471306400487, 42.410348664133245 ], [ 117.313471328822317, 42.410353167076295 ], [ 117.313465252353978, 42.410353183691754 ], [ 117.31346531961826, 42.410366692520888 ], [ 117.313459243148586, 42.410366709136042 ], [ 117.313459265569591, 42.41037121207907 ], [ 117.313453189099519, 42.410371228693904 ], [ 117.313453233940663, 42.410380234579982 ], [ 117.313471463353522, 42.410380184734521 ], [ 117.313471485775395, 42.410384687677542 ], [ 117.313489715189533, 42.410384637829168 ], [ 117.313489760035921, 42.410393643715196 ] ] ] } },
{ "type": "Feature", "properties": { "crown_id": 1812, "tree_id": "1812", "top_h_m": 13.331, "H_95_Mean": 13.2304, "DBH": 20.6676, "Carbon_kg": 62.917189, "area_m2": 10.5 }, "geometry": { "type": "Polygon", "coordinates": [ [ [ 117.313520030270254, 42.410371045913088 ], [ 117.313544336150358, 42.410370979437666 ], [ 117.313544291296211, 42.410361973551652 ], [ 117.313550367765345, 42.410361956931993 ], [ 117.313550255627874, 42.410339442216923 ], [ 117.313556332094834, 42.410339425596959 ], [ 117.313556309666922, 42.410334922653924 ], [ 117.313525927334197, 42.410335005750504 ], [ 117.313525949759935, 42.410339508693554 ], [ 117.313513796825944, 42.410339541929943 ], [ 117.313513841675714, 42.410348547816007 ], [ 117.313507765207845, 42.410348564433718 ], [ 117.31350778763229, 42.410353067376754 ], [ 117.313519940568895, 42.410353034140996 ], [ 117.313520030270254, 42.410371045913088 ] ] ] } },
{ "type": "Feature", "properties": { "crown_id": 1850, "tree_id": "1850", "top_h_m": 19.535, "H_95_Mean": 19.3526, "DBH": 32.4169, "Carbon_kg": 195.186364, "area_m2": 29.5 }, "geometry": { "type": "Polygon", "coordinates": [ [ [ 117.313422829167351, 42.410375814706271 ], [ 117.313441058579002, 42.410375764865641 ], [ 117.31344103615929, 42.410371261922599 ], [ 117.313447112629419, 42.410371245308419 ], [ 117.31344709020928, 42.410366742365369 ], [ 117.313453166678954, 42.410366725750862 ], [ 117.313453144258375, 42.410362222807827 ], [ 117.313459220727609, 42.410362206192993 ], [ 117.313459198306617, 42.41035770324995 ], [ 117.313453121837838, 42.410357719864777 ], [ 117.313453099417288, 42.410353216921713 ], [ 117.31345917588564, 42.410353200306893 ], [ 117.313459131043686, 42.41034419442078 ], [ 117.313465207511186, 42.410344177805648 ], [ 117.313465117825601, 42.410326166033379 ], [ 117.313446888428359, 42.410326215877795 ], [ 117.313446866008292, 42.41032171293471 ], [ 117.31343471307764, 42.410321746162701 ], [ 117.313434668239239, 42.41031274027651 ], [ 117.313416438845806, 42.410312790116059 ], [ 117.313416461263714, 42.410317293059158 ], [ 117.3134103847988, 42.410317309671697 ], [ 117.313410407216267, 42.410321812614811 ], [ 117.313404330750927, 42.410321829227037 ], [ 117.313404353167954, 42.410326332170129 ], [ 117.313386123770556, 42.410326382004882 ], [ 117.313386213433517, 42.410344393777265 ], [ 117.313392289901074, 42.410344377165998 ], [ 117.313392334733464, 42.410353383052168 ], [ 117.313404487670255, 42.410353349828661 ], [ 117.313404532504393, 42.41036235571481 ], [ 117.313416685442945, 42.410362322489995 ], [ 117.313416707860895, 42.410366825433051 ], [ 117.313422784330584, 42.410366808820157 ], [ 117.313422829167351, 42.410375814706271 ] ] ] } }
]
}
