{
"type": "FeatureCollection",
"name": "tile_3_8",
"crs": { "type": "name", "properties": { "name": "urn:ogc:def:crs:OGC:1.3:CRS84" } },
"features": [
{ "type": "Feature", "properties": { "crown_id": 693, "tree_id": "693", "top_h_m": 19.316, "H_95_Mean": 19.2048, "DBH": 28.3367, "Carbon_kg": 148.159946, "area_m2": 17.75 }, "geometry": { "type": "Polygon", "coordinates": [ [ [ 117.311730682225743, 42.411024358138029 ], [ 117.311754988362253, 42.411024292041169 ], [ 117.311754966062665, 42.411019789097921 ], [ 117.311779272197327, 42.411019722995924 ], [ 117.311779227594656, 42.411010717109406 ], [ 117.311767074529072, 42.411010750161033 ], [ 117.311767029928149, 42.4110017442745 ], [ 117.311760953396217, 42.411001760799834 ], [ 117.311760864196188, 42.41098374902672 ], [ 117.311724405014914, 42.410983848171874 ], [ 117.311724382717529, 42.410979345228569 ], [ 117.311712229657914, 42.410979378274369 ], [ 117.311712341140549, 42.411001892990868 ], [ 117.311718417672537, 42.411001876468127 ], [ 117.311718439969525, 42.411006379411411 ], [ 117.311724516501911, 42.411006362888337 ], [ 117.311724583394181, 42.411019871718182 ], [ 117.311730659927903, 42.411019855194759 ], [ 117.311730682225743, 42.411024358138029 ] ] ] } },
{ "type": "Feature", "properties": { "crown_id": 722, "tree_id": "722", "top_h_m": 18.743, "H_95_Mean": 18.5408, "DBH": 25.9679, "Carbon_kg": 121.697141, "area_m2": 13.5 }, "geometry": { "type": "Polygon", "coordinates": [ [ [ 117.311785304127454, 42.411010700583113 ], [ 117.311797457193023, 42.411010667529546 ], [ 117.31179743489038, 42.411006164586283 ], [ 117.311803511422724, 42.411006148059023 ], [ 117.311803444513572, 42.410992639229256 ], [ 117.31180952104458, 42.410992622701677 ], [ 117.311809409527243, 42.410970107985356 ], [ 117.311797256469504, 42.41097014104016 ], [ 117.311797211864345, 42.410961135153585 ], [ 117.31179113533635, 42.410961151680496 ], [ 117.311791157638481, 42.410965654623787 ], [ 117.31178508111006, 42.410965671150386 ], [ 117.311785103411779, 42.41097017409367 ], [ 117.311779026882903, 42.410970190619956 ], [ 117.311779049184196, 42.410974693563233 ], [ 117.311766896125548, 42.410974726614825 ], [ 117.311767007627708, 42.410997241331231 ], [ 117.311773084159199, 42.410997224805584 ], [ 117.31177312876099, 42.411006230692117 ], [ 117.311785281825678, 42.411006197639843 ], [ 117.311785304127454, 42.411010700583113 ] ] ] } },
{ "type": "Feature", "properties": { "crown_id": 723, "tree_id": "723", "top_h_m": 18.316, "H_95_Mean": 18.1394, "DBH": 27.6744, "Carbon_kg": 136.574353, "area_m2": 18.0 }, "geometry": { "type": "Polygon", "coordinates": [ [ [ 117.31182779524724, 42.411001579003511 ], [ 117.311876407502126, 42.411001446763514 ], [ 117.311876273652572, 42.410974429104108 ], [ 117.31186412059408, 42.410974462166017 ], [ 117.311864075979358, 42.410965456279499 ], [ 117.311827616809012, 42.41096555545743 ], [ 117.311827639113758, 42.410970058400714 ], [ 117.311815486056091, 42.410970091457465 ], [ 117.311815619879525, 42.410997109117027 ], [ 117.311827772942451, 42.410997076060255 ], [ 117.31182779524724, 42.411001579003511 ] ] ] } },
{ "type": "Feature", "properties": { "crown_id": 775, "tree_id": "775", "top_h_m": 22.062, "H_95_Mean": 21.949, "DBH": 33.3093, "Carbon_kg": 222.105103, "area_m2": 26.0 }, "geometry": { "type": "Polygon", "coordinates": [ [ [ 117.311730459247315, 42.410979328705189 ], [ 117.311760841896202, 42.410979246083443 ], [ 117.31176079729623, 42.410970240196853 ], [ 117.311772950353998, 42.410970207145908 ], [ 117.311772928053173, 42.41096570420261 ], [ 117.311779004581624, 42.410965687676651 ], [ 117.31177898228033, 42.410961184733367 ], [ 117.31178505880834, 42.410961168207102 ], [ 117.31178503650662, 42.410956665263797 ], [ 117.311791113034204, 42.410956648737198 ], [ 117.311791046127809, 42.410943139907303 ], [ 117.311797122654085, 42.410943123380406 ], [ 117.311797100351527, 42.410938620437094 ], [ 117.311791023825705, 42.410938636964005 ], [ 117.31179093461725, 42.410920625190748 ], [ 117.31177878156906, 42.410920658243562 ], [ 117.311778803870297, 42.410925161186881 ], [ 117.311766650821227, 42.410925194238423 ], [ 117.311766606220502, 42.410916188351756 ], [ 117.311754453173137, 42.410916221401997 ], [ 117.311754497772114, 42.410925227288665 ], [ 117.311748421247572, 42.41092524381331 ], [ 117.311748465845682, 42.410934249699984 ], [ 117.311742389320273, 42.410934266224309 ], [ 117.311742433917559, 42.410943272110956 ], [ 117.31173635739124, 42.410943288634968 ], [ 117.311736401987687, 42.410952294521621 ], [ 117.311730325460488, 42.410952311045307 ], [ 117.311730347758285, 42.410956813988626 ], [ 117.311718194703047, 42.410956847035045 ], [ 117.311718239296894, 42.410965852921692 ], [ 117.311724315825387, 42.410965836398624 ], [ 117.311724338122758, 42.410970339341958 ], [ 117.311730414651691, 42.410970322818571 ], [ 117.311730459247315, 42.410979328705189 ] ] ] } },
{ "type": "Feature", "properties": { "crown_id": 786, "tree_id": "786", "top_h_m": 20.801, "H_95_Mean": 20.447, "DBH": 31.3823, "Carbon_kg": 188.880877, "area_m2": 23.5 }, "geometry": { "type": "Polygon", "coordinates": [ [ [ 117.311803310695339, 42.410965621569623 ], [ 117.311821540280604, 42.410965571985976 ], [ 117.311821517976284, 42.410961069042706 ], [ 117.311851900616091, 42.410960986396852 ], [ 117.311851677551445, 42.410915956964018 ], [ 117.311845601027841, 42.410915973493815 ], [ 117.311845578721844, 42.410911470550502 ], [ 117.311809119582705, 42.410911569722451 ], [ 117.311809141886101, 42.410916072665778 ], [ 117.311803065362469, 42.410916089193314 ], [ 117.311803087665439, 42.410920592136627 ], [ 117.311797011141337, 42.410920608663851 ], [ 117.311797078048969, 42.410934117493788 ], [ 117.311803154574363, 42.410934100966564 ], [ 117.311803221483331, 42.410947609796473 ], [ 117.311797144956643, 42.410947626323704 ], [ 117.311797189561759, 42.410956632210294 ], [ 117.311803266089342, 42.410956615683055 ], [ 117.311803310695339, 42.410965621569623 ] ] ] } },
{ "type": "Feature", "properties": { "crown_id": 789, "tree_id": "789", "top_h_m": 19.639, "H_95_Mean": 19.3544, "DBH": 30.3194, "Carbon_kg": 170.577447, "area_m2": 22.75 }, "geometry": { "type": "Polygon", "coordinates": [ [ [ 117.311870174815525, 42.410969942691978 ], [ 117.311876251344316, 42.41096992616086 ], [ 117.311876184419617, 42.410956417331114 ], [ 117.311888337474599, 42.410956384267941 ], [ 117.311888315165533, 42.410951881324692 ], [ 117.311894391692576, 42.410951864792629 ], [ 117.31189436938304, 42.410947361849374 ], [ 117.311900445909657, 42.410947345316977 ], [ 117.311900401289762, 42.410938339430473 ], [ 117.311906477815498, 42.410938322897763 ], [ 117.311906433194736, 42.410929317011238 ], [ 117.311912509719591, 42.410929300478223 ], [ 117.311912487408819, 42.410924797534953 ], [ 117.311924640457647, 42.410924764467964 ], [ 117.311924595834327, 42.410915758581432 ], [ 117.311918519310765, 42.410915775115086 ], [ 117.311918474688355, 42.410906769228525 ], [ 117.311894168597604, 42.410906835359903 ], [ 117.311894190907054, 42.410911338303187 ], [ 117.311857731768171, 42.410911437490604 ], [ 117.311857977144044, 42.410960969866707 ], [ 117.311870130199921, 42.410960936805459 ], [ 117.311870174815525, 42.410969942691978 ] ] ] } },
{ "type": "Feature", "properties": { "crown_id": 807, "tree_id": "807", "top_h_m": 20.466, "H_95_Mean": 20.0229, "DBH": 32.3557, "Carbon_kg": 198.400018, "area_m2": 27.5 }, "geometry": { "type": "Polygon", "coordinates": [ [ [ 117.311706063943845, 42.410961383023498 ], [ 117.311712140471897, 42.410961366501105 ], [ 117.311712095878917, 42.410952360614438 ], [ 117.311724248933317, 42.410952327568673 ], [ 117.311724226635974, 42.410947824625346 ], [ 117.311730303162719, 42.410947808101987 ], [ 117.311730258567167, 42.410938802215327 ], [ 117.311736335093045, 42.410938785691634 ], [ 117.311736290496626, 42.41092977980496 ], [ 117.311742367021637, 42.410929763280969 ], [ 117.311742322424379, 42.410920757394287 ], [ 117.311748398948524, 42.410920740869976 ], [ 117.311748354350399, 42.410911734983287 ], [ 117.311736201303901, 42.410911768031575 ], [ 117.31173617900572, 42.410907265088213 ], [ 117.311730102482898, 42.410907281611884 ], [ 117.311730057887416, 42.410898275725152 ], [ 117.311711828321506, 42.410898325294212 ], [ 117.311711806025073, 42.410893822350815 ], [ 117.311699652981972, 42.410893855395237 ], [ 117.311699675277509, 42.410898358338628 ], [ 117.311693598755539, 42.410898374860352 ], [ 117.311693643345762, 42.410907380747105 ], [ 117.311681490300018, 42.410907413789609 ], [ 117.311681601771383, 42.410929928506469 ], [ 117.311675525246329, 42.410929945027235 ], [ 117.311675569834037, 42.410938950913973 ], [ 117.311687722885893, 42.410938917872087 ], [ 117.31168774518062, 42.410943420815421 ], [ 117.311681668654259, 42.410943437336542 ], [ 117.311681690948575, 42.410947940279883 ], [ 117.311687767475362, 42.410947923758776 ], [ 117.311687789770104, 42.410952426702124 ], [ 117.311693866297304, 42.410952410180684 ], [ 117.311693888592487, 42.410956913124018 ], [ 117.311706041647767, 42.410956880080178 ], [ 117.311706063943845, 42.410961383023498 ] ] ] } },
{ "type": "Feature", "properties": { "crown_id": 849, "tree_id": "849", "top_h_m": 19.129, "H_95_Mean": 18.554, "DBH": 32.1134, "Carbon_kg": 186.806097, "area_m2": 30.75 }, "geometry": { "type": "Polygon", "coordinates": [ [ [ 117.311772682744163, 42.410916171826159 ], [ 117.311790912315175, 42.410916122247414 ], [ 117.311790823106818, 42.410898110474079 ], [ 117.31179689962876, 42.410898093947203 ], [ 117.311796855023744, 42.410889088060514 ], [ 117.311802931544776, 42.410889071533319 ], [ 117.311802864636007, 42.410875562703268 ], [ 117.311796788116268, 42.410875579230463 ], [ 117.311796765813781, 42.410871076287101 ], [ 117.311790689294483, 42.410871092813963 ], [ 117.311790666992451, 42.410866589870601 ], [ 117.311784590473579, 42.41086660639715 ], [ 117.311784568171987, 42.410862103453766 ], [ 117.311772415135067, 42.410862136505877 ], [ 117.311772370533646, 42.410853130619117 ], [ 117.31176021749846, 42.410853163669934 ], [ 117.311760239798289, 42.410857666613317 ], [ 117.311735933726141, 42.410857732711079 ], [ 117.311736045216776, 42.410880247428004 ], [ 117.311717815656095, 42.410880296997988 ], [ 117.311717882546631, 42.410893805828138 ], [ 117.31173611211122, 42.410893756258133 ], [ 117.311736156707553, 42.410902762144865 ], [ 117.31174223322995, 42.410902745620874 ], [ 117.311742255528529, 42.410907248564236 ], [ 117.311754408574174, 42.410907215515294 ], [ 117.311754430873663, 42.410911718458649 ], [ 117.311772660443395, 42.410911668882825 ], [ 117.311772682744163, 42.410916171826159 ] ] ] } },
{ "type": "Feature", "properties": { "crown_id": 850, "tree_id": "850", "top_h_m": 16.765, "H_95_Mean": 16.4036, "DBH": 23.88, "Carbon_kg": 95.598734, "area_m2": 12.25 }, "geometry": { "type": "Polygon", "coordinates": [ [ [ 117.31185163293857, 42.410906951077408 ], [ 117.311888092074881, 42.410906851891944 ], [ 117.311888069765871, 42.410902348948646 ], [ 117.31190022281038, 42.410902315884243 ], [ 117.311900133570816, 42.410884304111072 ], [ 117.31189405705031, 42.410884320643405 ], [ 117.31189403474086, 42.410879817700092 ], [ 117.311881881700657, 42.410879850763806 ], [ 117.311881859392102, 42.410875347820507 ], [ 117.311869706352766, 42.410875380882935 ], [ 117.311869728660469, 42.410879883826254 ], [ 117.311857575620209, 42.410879916887403 ], [ 117.311857597927045, 42.41088441983073 ], [ 117.311845444885932, 42.410884452890599 ], [ 117.311845511803867, 42.410897961720572 ], [ 117.311851588325752, 42.41089794519079 ], [ 117.31185163293857, 42.410906951077408 ] ] ] } }
]
}
