{
"type": "FeatureCollection",
"name": "tile_19_10",
"crs": { "type": "name", "properties": { "name": "urn:ogc:def:crs:OGC:1.3:CRS84" } },
"features": [
{ "type": "Feature", "properties": { "crown_id": 5703, "tree_id": "5706", "top_h_m": 21.628, "H_95_Mean": 21.6462, "DBH": 34.2602, "Carbon_kg": 233.146203, "area_m2": 29.75 }, "geometry": { "type": "Polygon", "coordinates": [ [ [ 117.312129665003681, 42.408154858319655 ], [ 117.312141817517556, 42.408154825231371 ], [ 117.312141795192531, 42.408150322286012 ], [ 117.312147871449028, 42.408150305741401 ], [ 117.312147893774508, 42.408154808686753 ], [ 117.312160046288369, 42.408154775596536 ], [ 117.312160023962022, 42.408150272651191 ], [ 117.312172176474974, 42.408150239559689 ], [ 117.312172131820603, 42.408141233668992 ], [ 117.312178208076205, 42.408141217122768 ], [ 117.312178163420967, 42.408132211232065 ], [ 117.312184239675673, 42.408132194685514 ], [ 117.312184195019597, 42.408123188794804 ], [ 117.312190271273437, 42.40812317224794 ], [ 117.312190181959593, 42.408105160466491 ], [ 117.312165876951084, 42.408105226651962 ], [ 117.312165854624368, 42.408100723706575 ], [ 117.31215977837266, 42.408100740252131 ], [ 117.312159756046384, 42.408096237306751 ], [ 117.312129374789947, 42.408096320029699 ], [ 117.312129419438165, 42.408105325920502 ], [ 117.312123343186002, 42.40810534246414 ], [ 117.312123365509677, 42.408109845409534 ], [ 117.312117289257046, 42.408109861952852 ], [ 117.312117445519917, 42.408141382570541 ], [ 117.312123521775575, 42.408141366027216 ], [ 117.312123544099279, 42.408145868972589 ], [ 117.312129620355364, 42.408145852428937 ], [ 117.312129665003681, 42.408154858319655 ] ] ] } },
{ "type": "Feature", "properties": { "crown_id": 5759, "tree_id": "5763", "top_h_m": 23.131, "H_95_Mean": 22.8447, "DBH": 36.2338, "Carbon_kg": 269.460748, "area_m2": 33.5 }, "geometry": { "type": "Polygon", "coordinates": [ [ [ 117.312196258211685, 42.408105143919322 ], [ 117.3122266394722, 42.408105061178631 ], [ 117.312226594810085, 42.408096055287899 ], [ 117.31222051855886, 42.408096071836681 ], [ 117.312220496228235, 42.408091568891315 ], [ 117.312232648729804, 42.408091535793439 ], [ 117.312232626398341, 42.40808703284808 ], [ 117.312238702648671, 42.408087016298659 ], [ 117.312238680316753, 42.408082513353293 ], [ 117.31223260406685, 42.408082529902707 ], [ 117.312232559403924, 42.408073524011961 ], [ 117.312226483154888, 42.408073540561048 ], [ 117.312226460823851, 42.408069037615668 ], [ 117.312208232078007, 42.408069087260976 ], [ 117.312208165088862, 42.408055578424786 ], [ 117.312183860099552, 42.408055644614002 ], [ 117.312183815443618, 42.408046638723178 ], [ 117.312177739197153, 42.408046655269672 ], [ 117.312177716869641, 42.408042152324249 ], [ 117.312153411885419, 42.408042218506999 ], [ 117.312153568165982, 42.408073739124973 ], [ 117.312147491916875, 42.408073755669875 ], [ 117.312147558893017, 42.408087264506101 ], [ 117.312141482642602, 42.408087281050676 ], [ 117.312141504967585, 42.408091783996085 ], [ 117.312165809970935, 42.4080917178158 ], [ 117.312165832297637, 42.408096220761188 ], [ 117.312171908548919, 42.408096204215312 ], [ 117.312171930876062, 42.408100707160685 ], [ 117.312196235882823, 42.408100640973942 ], [ 117.312196258211685, 42.408105143919322 ] ] ] } },
{ "type": "Feature", "properties": { "crown_id": 5760, "tree_id": "5764", "top_h_m": 22.433, "H_95_Mean": 21.7379, "DBH": 41.4775, "Carbon_kg": 343.594021, "area_m2": 62.0 }, "geometry": { "type": "Polygon", "coordinates": [ [ [ 117.312263163985662, 42.408118470715159 ], [ 117.312269240239019, 42.408118454164104 ], [ 117.312269173236672, 42.408104945328127 ], [ 117.312372469520781, 42.408104663911203 ], [ 117.312372447179285, 42.408100160965908 ], [ 117.312366370927762, 42.408100177522428 ], [ 117.312366348586707, 42.408095674577119 ], [ 117.312372424837804, 42.408095658020613 ], [ 117.312372380154855, 42.408086652130002 ], [ 117.312384532655301, 42.408086619016032 ], [ 117.312384510312938, 42.40808211607073 ], [ 117.312372357813388, 42.408082149184693 ], [ 117.312372313130467, 42.408073143294068 ], [ 117.312378389379376, 42.40807312673725 ], [ 117.312378344695617, 42.408064120846603 ], [ 117.312372268447561, 42.408064137403407 ], [ 117.312372201423258, 42.408050628567416 ], [ 117.312366125176482, 42.4080506451239 ], [ 117.312366080494499, 42.408041639233218 ], [ 117.31234177551093, 42.408041705455901 ], [ 117.31234175317168, 42.408037202510549 ], [ 117.312329600680727, 42.40803723561995 ], [ 117.312329556003988, 42.408028229729211 ], [ 117.312323479759371, 42.408028246283422 ], [ 117.3123235020973, 42.408032749228802 ], [ 117.312317425852257, 42.408032765782693 ], [ 117.312317470527276, 42.408041771673446 ], [ 117.312299241789475, 42.408041821333207 ], [ 117.31229926412567, 42.40804632427858 ], [ 117.312281035386533, 42.408046373935456 ], [ 117.312281124726212, 42.408064385716941 ], [ 117.31226897222993, 42.408064418819933 ], [ 117.312269016898057, 42.408073424710679 ], [ 117.312256864400027, 42.408073457812378 ], [ 117.312256909066434, 42.408082463703117 ], [ 117.312262985316323, 42.40808244715241 ], [ 117.312263052317292, 42.408095955988472 ], [ 117.312256976066095, 42.408095972539179 ], [ 117.312257043065799, 42.408109481375213 ], [ 117.312263119318303, 42.408109464824499 ], [ 117.312263163985662, 42.408118470715159 ] ] ] } },
{ "type": "Feature", "properties": { "crown_id": 5840, "tree_id": "5844", "top_h_m": 24.695, "H_95_Mean": 24.2973, "DBH": 39.3536, "Carbon_kg": 330.08608, "area_m2": 41.25 }, "geometry": { "type": "Polygon", "coordinates": [ [ [ 117.312244734234326, 42.408077993858186 ], [ 117.312250810483775, 42.408077977308132 ], [ 117.312250765818249, 42.408068971417386 ], [ 117.312262918315412, 42.408068938316319 ], [ 117.312262873648166, 42.408059932425573 ], [ 117.312275026143567, 42.408059899323234 ], [ 117.31227493680565, 42.408041887541721 ], [ 117.312281013051617, 42.408041870990075 ], [ 117.312280990716715, 42.408037368044695 ], [ 117.312274914471189, 42.408037384596334 ], [ 117.312274892136742, 42.408032881650932 ], [ 117.312268815891656, 42.408032898202258 ], [ 117.312268793557621, 42.408028395256864 ], [ 117.312262717312962, 42.408028411807855 ], [ 117.312262694979381, 42.408023908862461 ], [ 117.312256618735148, 42.408023925413126 ], [ 117.312256551735729, 42.408010416576886 ], [ 117.312250475492789, 42.408010433127217 ], [ 117.312250408494734, 42.407996924290934 ], [ 117.312244332253101, 42.407996940840953 ], [ 117.312244265256396, 42.407983432004642 ], [ 117.312238189016043, 42.407983448554319 ], [ 117.312238211347861, 42.40798795149977 ], [ 117.312232135107067, 42.407987968049127 ], [ 117.31223215743843, 42.407992470994564 ], [ 117.312226081197224, 42.407992487543602 ], [ 117.312226058866301, 42.407987984598165 ], [ 117.312219982625507, 42.407988001146869 ], [ 117.312220071947507, 42.408006012928652 ], [ 117.31221399570498, 42.408006029477065 ], [ 117.312214040365163, 42.408015035367924 ], [ 117.312207964121754, 42.40801505191601 ], [ 117.312208008781056, 42.408024057806877 ], [ 117.31220193253678, 42.40802407435465 ], [ 117.312201977195258, 42.408033080245502 ], [ 117.312171595969431, 42.408033162979542 ], [ 117.312171618296517, 42.408037665924979 ], [ 117.312183770787726, 42.408037632832325 ], [ 117.312183793115665, 42.408042135777755 ], [ 117.312189869361703, 42.408042119230934 ], [ 117.312189914018475, 42.408051125121766 ], [ 117.312214219006052, 42.408051058931278 ], [ 117.312214285996475, 42.408064567767468 ], [ 117.312232514740998, 42.408064518121186 ], [ 117.312232537072461, 42.408069021066567 ], [ 117.312238613321071, 42.408069004517174 ], [ 117.31223863565296, 42.408073507462554 ], [ 117.312244711901968, 42.40807349091282 ], [ 117.312244734234326, 42.408077993858186 ] ] ] } },
{ "type": "Feature", "properties": { "crown_id": 5864, "tree_id": "5868", "top_h_m": 25.856, "H_95_Mean": 25.776, "DBH": 36.0112, "Carbon_kg": 285.832601, "area_m2": 26.25 }, "geometry": { "type": "Polygon", "coordinates": [ [ [ 117.31228708929757, 42.408041854438103 ], [ 117.312293165543537, 42.408041837885811 ], [ 117.312293143207739, 42.408037334940438 ], [ 117.312311371944276, 42.408037285281644 ], [ 117.312311327270123, 42.408028279390891 ], [ 117.312317403514768, 42.408028262837313 ], [ 117.312317381177266, 42.408023759891947 ], [ 117.312311304933061, 42.408023776445511 ], [ 117.312311148573826, 42.407992255827729 ], [ 117.312305072332663, 42.407992272380959 ], [ 117.312305005322941, 42.407978763544719 ], [ 117.312274624123617, 42.40797884630598 ], [ 117.312274601789227, 42.407974343360543 ], [ 117.312256373070866, 42.40797439301344 ], [ 117.312256395403963, 42.407978895958884 ], [ 117.31225031916405, 42.407978912509193 ], [ 117.312250386162063, 42.407992421345519 ], [ 117.312256462403255, 42.407992404795188 ], [ 117.312256529402603, 42.408005913631456 ], [ 117.312262605645103, 42.408005897080812 ], [ 117.312262672645815, 42.408019405917059 ], [ 117.312268748889608, 42.408019389366054 ], [ 117.312268771223614, 42.408023892311469 ], [ 117.312274847467847, 42.408023875760151 ], [ 117.31227486980228, 42.408028378705545 ], [ 117.31228094604694, 42.408028362153907 ], [ 117.312280968381813, 42.408032865099294 ], [ 117.312287044626913, 42.408032848547336 ], [ 117.31228708929757, 42.408041854438103 ] ] ] } },
{ "type": "Feature", "properties": { "crown_id": 5868, "tree_id": "5872", "top_h_m": 22.742, "H_95_Mean": 22.2415, "DBH": 33.7645, "Carbon_kg": 230.0594, "area_m2": 26.75 }, "geometry": { "type": "Polygon", "coordinates": [ [ [ 117.312153389559654, 42.408037715561555 ], [ 117.312165542050877, 42.40803768247082 ], [ 117.312165497397629, 42.408028676579946 ], [ 117.312195878621296, 42.408028593847533 ], [ 117.312195833963713, 42.408019587956666 ], [ 117.312201910207563, 42.40801957140922 ], [ 117.312201865549113, 42.408010565518346 ], [ 117.312207941792096, 42.40801054897058 ], [ 117.312207897132808, 42.408001543079706 ], [ 117.312213973374895, 42.408001526531628 ], [ 117.312213906384699, 42.407988017695274 ], [ 117.31220783014389, 42.407988034243338 ], [ 117.312207807814275, 42.407983531297887 ], [ 117.31221996029501, 42.407983498201418 ], [ 117.312219937964514, 42.407978995255959 ], [ 117.312213861724572, 42.407979011804365 ], [ 117.312213817064503, 42.407970005913434 ], [ 117.312201664586368, 42.407970039009236 ], [ 117.312201642257193, 42.407965536063763 ], [ 117.312189489779911, 42.407965569158264 ], [ 117.312189534436527, 42.407974575049224 ], [ 117.312183458196998, 42.407974591595995 ], [ 117.31218348052488, 42.407979094541474 ], [ 117.312177404284924, 42.407979111087933 ], [ 117.312177426612365, 42.407983614033391 ], [ 117.312171350371983, 42.40798363057953 ], [ 117.312171395025999, 42.407992636470482 ], [ 117.312159242543473, 42.407992669561807 ], [ 117.312159287195783, 42.408001675452752 ], [ 117.312153210953639, 42.408001691997924 ], [ 117.312153233279375, 42.40800619494339 ], [ 117.312147157036776, 42.408006211488249 ], [ 117.312147179362086, 42.408010714433715 ], [ 117.312141103119046, 42.408010730978262 ], [ 117.312141147768799, 42.408019736869186 ], [ 117.312147224012691, 42.408019720324639 ], [ 117.312147246338029, 42.40802422327009 ], [ 117.312153322582361, 42.408024206725223 ], [ 117.312153389559654, 42.408037715561555 ] ] ] } },
{ "type": "Feature", "properties": { "crown_id": 5879, "tree_id": "5883", "top_h_m": 23.892, "H_95_Mean": 23.3275, "DBH": 35.8684, "Carbon_kg": 267.29796, "area_m2": 31.0 }, "geometry": { "type": "Polygon", "coordinates": [ [ [ 117.312347829417163, 42.408037185955372 ], [ 117.312353905662619, 42.408037169399861 ], [ 117.312353883322501, 42.408032666454488 ], [ 117.312359959567516, 42.408032649898672 ], [ 117.312359937227001, 42.408028146953313 ], [ 117.312372089716135, 42.408028113840693 ], [ 117.312372000350564, 42.408010102059258 ], [ 117.312378076593404, 42.408010085502475 ], [ 117.312378031909759, 42.408001079611743 ], [ 117.3123719556678, 42.408001096168519 ], [ 117.312371843960989, 42.407978581441597 ], [ 117.31235969148139, 42.407978614554153 ], [ 117.312359669140918, 42.407974111608752 ], [ 117.312353592901545, 42.407974128164547 ], [ 117.312353570561513, 42.407969625219131 ], [ 117.312347494322566, 42.407969641774606 ], [ 117.312347449643354, 42.407960635883782 ], [ 117.312329220929115, 42.407960685548225 ], [ 117.312329265605712, 42.407969691439085 ], [ 117.312317113127762, 42.407969724547122 ], [ 117.312317135465193, 42.407974227492531 ], [ 117.312311059225777, 42.407974244046081 ], [ 117.312311126236807, 42.407987752882327 ], [ 117.31231720247753, 42.407987736328785 ], [ 117.312317358839778, 42.408019256946552 ], [ 117.312323435083528, 42.408019240392676 ], [ 117.312323457421456, 42.408023743338056 ], [ 117.312335609909809, 42.408023710229308 ], [ 117.312335654587386, 42.408032716120047 ], [ 117.312347807077472, 42.408032683009999 ], [ 117.312347829417163, 42.408037185955372 ] ] ] } },
{ "type": "Feature", "properties": { "crown_id": 5912, "tree_id": "5916", "top_h_m": 21.18, "H_95_Mean": 21.036, "DBH": 32.066, "Carbon_kg": 200.607805, "area_m2": 24.25 }, "geometry": { "type": "Polygon", "coordinates": [ [ [ 117.312128928308979, 42.408006261120903 ], [ 117.312141080794177, 42.408006228032789 ], [ 117.312141058469336, 42.408001725087317 ], [ 117.312147134711481, 42.408001708542777 ], [ 117.312147112386199, 42.407997205597304 ], [ 117.312153188627903, 42.407997189052445 ], [ 117.312153143976474, 42.4079881831615 ], [ 117.312165296458147, 42.407988150070835 ], [ 117.312165251804984, 42.407979144179876 ], [ 117.312171328044968, 42.407979127634064 ], [ 117.312171305717953, 42.407974624688578 ], [ 117.312177381957483, 42.407974608142446 ], [ 117.312177359630041, 42.407970105196966 ], [ 117.31218343586913, 42.407970088650522 ], [ 117.312183391213409, 42.407961082759542 ], [ 117.312177314975202, 42.407961099305986 ], [ 117.312177270320362, 42.407952093415012 ], [ 117.312171194083007, 42.40795210996113 ], [ 117.31217117175602, 42.407947607015622 ], [ 117.312165095519092, 42.407947623561419 ], [ 117.312165073192574, 42.407943120615919 ], [ 117.312152920719583, 42.407943153706526 ], [ 117.312152943045248, 42.407947656652034 ], [ 117.312140790571362, 42.407947689741377 ], [ 117.31214081289616, 42.407952192686885 ], [ 117.312116507946598, 42.407952258861705 ], [ 117.312116686531283, 42.407988282425777 ], [ 117.312128839013027, 42.407988249338963 ], [ 117.312128928308979, 42.408006261120903 ] ] ] } }
]
}
