{
"type": "FeatureCollection",
"name": "tile_13_19",
"crs": { "type": "name", "properties": { "name": "urn:ogc:def:crs:OGC:1.3:CRS84" } },
"features": [
{ "type": "Feature", "properties": { "crown_id": 3985, "tree_id": "3987", "top_h_m": 22.254, "H_95_Mean": 22.241, "DBH": 30.0426, "Carbon_kg": 181.803775, "area_m2": 17.0 }, "geometry": { "type": "Polygon", "coordinates": [ [ [ 117.31440139290217, 42.409206856904142 ], [ 117.314443927402152, 42.409206740244336 ], [ 117.314443904911641, 42.409202237300811 ], [ 117.314462133981692, 42.409202187298931 ], [ 117.314462111489888, 42.409197684355398 ], [ 117.314468187846117, 42.409197667687458 ], [ 117.314468007908346, 42.409161644139104 ], [ 117.314461931555599, 42.409161660807015 ], [ 117.31446195404736, 42.409166163750577 ], [ 117.314455877694158, 42.409166180418175 ], [ 117.314455900185507, 42.409170683361737 ], [ 117.314431594770923, 42.409170750028906 ], [ 117.314431639750126, 42.409179755916028 ], [ 117.314413410686527, 42.409179805913041 ], [ 117.314413433174835, 42.409184308856602 ], [ 117.314419509529813, 42.409184292191256 ], [ 117.314419532018562, 42.40918879513481 ], [ 117.314413455663157, 42.409188811800163 ], [ 117.314413478151465, 42.409193314743732 ], [ 117.314407401795634, 42.409193331408758 ], [ 117.31440742428353, 42.409197834352327 ], [ 117.314401347927245, 42.409197851017034 ], [ 117.31440139290217, 42.409206856904142 ] ] ] } },
{ "type": "Feature", "properties": { "crown_id": 3986, "tree_id": "3988", "top_h_m": 24.002, "H_95_Mean": 23.9159, "DBH": 33.6048, "Carbon_kg": 237.867146, "area_m2": 23.0 }, "geometry": { "type": "Polygon", "coordinates": [ [ [ 117.314480430531063, 42.409215646124686 ], [ 117.314492583246974, 42.409215612786547 ], [ 117.314492560752967, 42.409211109843035 ], [ 117.314504713468011, 42.40921107650361 ], [ 117.314504668478278, 42.409202070616594 ], [ 117.314516821191532, 42.40920203727589 ], [ 117.314516776200122, 42.409193031388874 ], [ 117.314522852555868, 42.409193014718035 ], [ 117.314522695082943, 42.409161494113377 ], [ 117.3145044660248, 42.409161544124856 ], [ 117.314504421035195, 42.40915253823777 ], [ 117.314474039275837, 42.409152621583758 ], [ 117.314474286695031, 42.409202153962731 ], [ 117.314468210338362, 42.409202170630991 ], [ 117.314468232830606, 42.409206673574509 ], [ 117.314480385544812, 42.409206640237663 ], [ 117.314480430531063, 42.409215646124686 ] ] ] } },
{ "type": "Feature", "properties": { "crown_id": 3996, "tree_id": "3998", "top_h_m": 22.587, "H_95_Mean": 22.5066, "DBH": 28.8687, "Carbon_kg": 168.952065, "area_m2": 14.25 }, "geometry": { "type": "Polygon", "coordinates": [ [ [ 117.314352827012726, 42.409215996097451 ], [ 117.314364979728836, 42.409215962772834 ], [ 117.314364957243967, 42.409211459829265 ], [ 117.31437710995921, 42.409211426503362 ], [ 117.314377087473488, 42.409206923559807 ], [ 117.314395316544989, 42.40920687356855 ], [ 117.31439524908393, 42.409193364737867 ], [ 117.314401325439775, 42.409193348073472 ], [ 117.314401302952319, 42.409188845129904 ], [ 117.314407379307738, 42.40918882846519 ], [ 117.314407334331975, 42.409179822578068 ], [ 117.314395181622885, 42.409179855907162 ], [ 117.314395159135884, 42.40917535296358 ], [ 117.314370853719325, 42.409175419617881 ], [ 117.314370831234086, 42.409170916674292 ], [ 117.314364754880359, 42.409170933337045 ], [ 117.314364777365185, 42.409175436280655 ], [ 117.314358701011031, 42.409175452943096 ], [ 117.314358790948646, 42.409193464717447 ], [ 117.314352714592758, 42.409193481379575 ], [ 117.314352827012726, 42.409215996097451 ] ] ] } },
{ "type": "Feature", "properties": { "crown_id": 3997, "tree_id": "3999", "top_h_m": 24.761, "H_95_Mean": 24.4501, "DBH": 36.8957, "Carbon_kg": 290.92849, "area_m2": 31.75 }, "geometry": { "type": "Polygon", "coordinates": [ [ [ 117.314559423184136, 42.409215429403709 ], [ 117.314571575899919, 42.409215396057185 ], [ 117.31457155340027, 42.409210893113709 ], [ 117.314583706115158, 42.409210859765913 ], [ 117.314583661114128, 42.409201853878969 ], [ 117.314595813827268, 42.409201820529887 ], [ 117.314595701320457, 42.409179305812486 ], [ 117.314589624966075, 42.409179322487184 ], [ 117.314589602465176, 42.409174819543679 ], [ 117.314583526111207, 42.40917483621805 ], [ 117.314583458609818, 42.409161327387537 ], [ 117.314577382257141, 42.409161344061573 ], [ 117.314577359757138, 42.409156841118062 ], [ 117.314571283404888, 42.409156857791778 ], [ 117.314571260905311, 42.409152354848253 ], [ 117.314534802794412, 42.409152454883724 ], [ 117.314534780297464, 42.409147951940184 ], [ 117.314528703946053, 42.409147968611641 ], [ 117.314528681449531, 42.409143465668095 ], [ 117.314510452396604, 42.409143515680505 ], [ 117.314510497387047, 42.409152521567606 ], [ 117.314516573738914, 42.409152504897115 ], [ 117.314516596234569, 42.409157007840662 ], [ 117.314528748939125, 42.409156974498721 ], [ 117.314528928911628, 42.409192998046876 ], [ 117.314535005267359, 42.409192981375412 ], [ 117.314535027764379, 42.409197484318916 ], [ 117.314541104120565, 42.409197467647118 ], [ 117.31454112661801, 42.409201970590608 ], [ 117.314547202974623, 42.409201953918483 ], [ 117.31454724797041, 42.409210959805456 ], [ 117.314559400685354, 42.409210926460233 ], [ 117.314559423184136, 42.409215429403709 ] ] ] } },
{ "type": "Feature", "properties": { "crown_id": 4011, "tree_id": "4013", "top_h_m": 22.388, "H_95_Mean": 22.2295, "DBH": 28.57, "Carbon_kg": 164.239415, "area_m2": 14.0 }, "geometry": { "type": "Polygon", "coordinates": [ [ [ 117.314340561880954, 42.409193514702878 ], [ 117.314346638236856, 42.409193498041397 ], [ 117.314346615753308, 42.4091889950978 ], [ 117.314352692108784, 42.409188978435978 ], [ 117.314352602172931, 42.40917096666162 ], [ 117.314358678526645, 42.409170949999499 ], [ 117.314358611073516, 42.409157441168702 ], [ 117.314352534721095, 42.409157457830808 ], [ 117.314352467269302, 42.409143948999962 ], [ 117.314346390918175, 42.409143965661755 ], [ 117.314346345951208, 42.409134959774491 ], [ 117.314340269600962, 42.409134976435951 ], [ 117.314340314567048, 42.409143982323208 ], [ 117.314334238215935, 42.409143998984348 ], [ 117.314334283181168, 42.409153004871598 ], [ 117.314328206829174, 42.409153021532425 ], [ 117.314328229311371, 42.409157524476043 ], [ 117.314322152958923, 42.409157541136551 ], [ 117.314322197922451, 42.40916654702378 ], [ 117.314316121569149, 42.409166563683975 ], [ 117.31431614405048, 42.409171066627586 ], [ 117.314310067696738, 42.409171083287461 ], [ 117.314310090177628, 42.409175586231086 ], [ 117.314316166531825, 42.409175569571204 ], [ 117.314316211494543, 42.409184575458418 ], [ 117.314322287849606, 42.409184558798223 ], [ 117.314322310331391, 42.409189061741827 ], [ 117.314340539397847, 42.409189011759288 ], [ 117.314340561880954, 42.409193514702878 ] ] ] } },
{ "type": "Feature", "properties": { "crown_id": 4034, "tree_id": "4036", "top_h_m": 22.868, "H_95_Mean": 22.6073, "DBH": 31.9687, "Carbon_kg": 208.061584, "area_m2": 21.0 }, "geometry": { "type": "Polygon", "coordinates": [ [ [ 117.314401235489996, 42.409175336299199 ], [ 117.314413388198219, 42.40917530296948 ], [ 117.314413095850696, 42.409116764702759 ], [ 117.314407019502241, 42.40911678136775 ], [ 117.314407064477862, 42.409125787254979 ], [ 117.314394911779175, 42.409125820584009 ], [ 117.314394934266133, 42.40913032352762 ], [ 117.314352399817565, 42.409130440169079 ], [ 117.314352444785371, 42.409139446056336 ], [ 117.314358521136057, 42.40913942939423 ], [ 117.31435858858913, 42.409152938225077 ], [ 117.314364664941124, 42.409152921562651 ], [ 117.314364732395546, 42.409166430393455 ], [ 117.314376885102092, 42.409166397067608 ], [ 117.314376907587771, 42.40917090001119 ], [ 117.314401213002569, 42.409170833355624 ], [ 117.314401235489996, 42.409175336299199 ] ] ] } },
{ "type": "Feature", "properties": { "crown_id": 4035, "tree_id": "4037", "top_h_m": 21.666, "H_95_Mean": 21.5413, "DBH": 29.704, "Carbon_kg": 174.369532, "area_m2": 17.25 }, "geometry": { "type": "Polygon", "coordinates": [ [ [ 117.31441946455233, 42.409175286304126 ], [ 117.314425540906427, 42.409175269638453 ], [ 117.314425495928091, 42.409166263751317 ], [ 117.314449801340942, 42.409166197085447 ], [ 117.314449778850047, 42.409161694141886 ], [ 117.314455855202823, 42.409161677474621 ], [ 117.314455832711488, 42.409157174531053 ], [ 117.314467985416158, 42.409157141195564 ], [ 117.314467895447422, 42.409139129421277 ], [ 117.314461819096834, 42.409139146089174 ], [ 117.314461751621621, 42.409125637258434 ], [ 117.314449598923048, 42.409125670593248 ], [ 117.314449576432196, 42.409121167649651 ], [ 117.314425271036711, 42.409121234315428 ], [ 117.314425316014947, 42.409130240202622 ], [ 117.314419239665199, 42.409130256868274 ], [ 117.31441946455233, 42.409175286304126 ] ] ] } },
{ "type": "Feature", "properties": { "crown_id": 4080, "tree_id": "4082", "top_h_m": 21.924, "H_95_Mean": 21.5616, "DBH": 31.5459, "Carbon_kg": 196.957829, "area_m2": 21.75 }, "geometry": { "type": "Polygon", "coordinates": [ [ [ 117.314486169486116, 42.40914808530276 ], [ 117.314498322188967, 42.40914805196406 ], [ 117.31449829969462, 42.409143549020506 ], [ 117.314504376045605, 42.409143532350669 ], [ 117.314504353550817, 42.4091390294071 ], [ 117.314522582602478, 42.409138979395671 ], [ 117.314522380137916, 42.409098452903564 ], [ 117.314528456484524, 42.409098436232455 ], [ 117.314528433988059, 42.409093933288872 ], [ 117.314522357641877, 42.409093949959981 ], [ 117.314522335145838, 42.409089447016385 ], [ 117.31449195341699, 42.409089530367019 ], [ 117.31449193092314, 42.409085027423416 ], [ 117.314485854577768, 42.409085044092571 ], [ 117.314485944551492, 42.409103055866979 ], [ 117.314479868204387, 42.409103072535835 ], [ 117.314479958176435, 42.4091210843102 ], [ 117.314473881827595, 42.40912110097873 ], [ 117.314473904320195, 42.40912560392232 ], [ 117.314467827970915, 42.409125620590537 ], [ 117.314467872955248, 42.409134626477702 ], [ 117.314473949305381, 42.409134609809477 ], [ 117.314473971798009, 42.409139112753053 ], [ 117.314486124499155, 42.409139079415631 ], [ 117.314486169486116, 42.40914808530276 ] ] ] } },
{ "type": "Feature", "properties": { "crown_id": 4081, "tree_id": "4083", "top_h_m": 24.509, "H_95_Mean": 24.1799, "DBH": 39.6272, "Carbon_kg": 333.770165, "area_m2": 42.75 }, "geometry": { "type": "Polygon", "coordinates": [ [ [ 117.314540856648833, 42.409147935268415 ], [ 117.314571238405748, 42.40914785190472 ], [ 117.31457121590617, 42.409143348961202 ], [ 117.314583368608027, 42.409143315613484 ], [ 117.314583301106737, 42.4091298067829 ], [ 117.31459545380595, 42.409129773433897 ], [ 117.314595431304667, 42.409125270490378 ], [ 117.314613660352165, 42.409125220464468 ], [ 117.314613615347, 42.409116214577416 ], [ 117.31461969169527, 42.409116197901469 ], [ 117.314619646689252, 42.40910719201441 ], [ 117.314613570341848, 42.409107208690344 ], [ 117.314613547839301, 42.409102705746804 ], [ 117.314595318798297, 42.409102755772665 ], [ 117.314595251294563, 42.40908924694201 ], [ 117.314589174948864, 42.409089263616643 ], [ 117.314589152448036, 42.409084760673082 ], [ 117.314570923412234, 42.409084810695042 ], [ 117.314570855913757, 42.409071301864316 ], [ 117.314540474193805, 42.409071385227776 ], [ 117.314540519188427, 42.409080391114969 ], [ 117.314528366498678, 42.409080424458111 ], [ 117.31452841149158, 42.409089430345304 ], [ 117.314534487837335, 42.409089413673875 ], [ 117.314534555328052, 42.409102922504623 ], [ 117.314528478981003, 42.409102939176037 ], [ 117.314528658953009, 42.409138962724548 ], [ 117.314534735303525, 42.409138946053098 ], [ 117.314534757800473, 42.409143448996652 ], [ 117.314540834151444, 42.409143432324875 ], [ 117.314540856648833, 42.409147935268415 ] ] ] } },
{ "type": "Feature", "properties": { "crown_id": 4092, "tree_id": "4094", "top_h_m": 21.643, "H_95_Mean": 21.5654, "DBH": 31.7338, "Carbon_kg": 199.350249, "area_m2": 22.25 }, "geometry": { "type": "Polygon", "coordinates": [ [ [ 117.314340247117926, 42.409130473492311 ], [ 117.314346323467745, 42.409130456830859 ], [ 117.314346300984269, 42.409125953887227 ], [ 117.314388835429838, 42.409125837248034 ], [ 117.314388812943321, 42.409121334304409 ], [ 117.314400965641127, 42.409121300976039 ], [ 117.314400920666415, 42.409112295088796 ], [ 117.314413073362473, 42.409112261759134 ], [ 117.314412983409568, 42.409094249984626 ], [ 117.314406907063272, 42.409094266649618 ], [ 117.314406862087736, 42.409085260762325 ], [ 117.314400785742322, 42.409085277426982 ], [ 117.31440076325498, 42.409080774483321 ], [ 117.314394686909992, 42.409080791147652 ], [ 117.314394641936218, 42.409071785260345 ], [ 117.314388565592083, 42.409071801924341 ], [ 117.314388588078529, 42.409076304867995 ], [ 117.314382511733982, 42.409076321531678 ], [ 117.314382556706022, 42.409085327418993 ], [ 117.314352174978737, 42.40908541073258 ], [ 117.314352354849746, 42.409121434281801 ], [ 117.314340202151854, 42.409121467605026 ], [ 117.314340247117926, 42.409130473492311 ] ] ] } },
{ "type": "Feature", "properties": { "crown_id": 4108, "tree_id": "4110", "top_h_m": 21.344, "H_95_Mean": 21.0373, "DBH": 31.1806, "Carbon_kg": 189.607143, "area_m2": 21.75 }, "geometry": { "type": "Polygon", "coordinates": [ [ [ 117.314455652781049, 42.409121150982408 ], [ 117.31446780547877, 42.40912111764694 ], [ 117.314467782986625, 42.40911661470335 ], [ 117.314473859335024, 42.409116598035133 ], [ 117.314473769364739, 42.409098586260761 ], [ 117.314479845711375, 42.409098569592231 ], [ 117.314479755739441, 42.409080557817809 ], [ 117.314485832084358, 42.40908054114896 ], [ 117.314485809590963, 42.409076038205342 ], [ 117.314479733246486, 42.409076054874177 ], [ 117.314479688260533, 42.409067048986934 ], [ 117.314473611916924, 42.409067065655435 ], [ 117.314473566931866, 42.409058059768178 ], [ 117.314461414246338, 42.409058093104207 ], [ 117.314461481721295, 42.409071601935118 ], [ 117.314443252689088, 42.409071651936777 ], [ 117.314443275179443, 42.409076154880402 ], [ 117.314437198834909, 42.409076171546985 ], [ 117.314437266304736, 42.409089680377882 ], [ 117.31443118995891, 42.409089697044138 ], [ 117.314431212448397, 42.40909419998777 ], [ 117.314419059755849, 42.409094233319337 ], [ 117.314419104733176, 42.409103239206587 ], [ 117.314431257427444, 42.409103205875013 ], [ 117.314431279916974, 42.409107708818631 ], [ 117.314425203569385, 42.409107725484581 ], [ 117.314425248547593, 42.409116731371817 ], [ 117.314455630289771, 42.409116648038818 ], [ 117.314455652781049, 42.409121150982408 ] ] ] } },
{ "type": "Feature", "properties": { "crown_id": 4131, "tree_id": "4133", "top_h_m": 21.904, "H_95_Mean": 21.7809, "DBH": 30.6123, "Carbon_kg": 186.499039, "area_m2": 19.0 }, "geometry": { "type": "Polygon", "coordinates": [ [ [ 117.314339999804801, 42.40908094111208 ], [ 117.314376457874971, 42.409080841138689 ], [ 117.314376412903812, 42.409071835251368 ], [ 117.314382489247961, 42.409071818588018 ], [ 117.314382376817946, 42.409049303869644 ], [ 117.314376300475985, 42.409049320532979 ], [ 117.314376277990434, 42.409044817589304 ], [ 117.314358048965815, 42.409044867577379 ], [ 117.314358026481571, 42.409040364633675 ], [ 117.314339797458203, 42.409040414618858 ], [ 117.314339819941125, 42.409044917562568 ], [ 117.314327667257999, 42.409044950884407 ], [ 117.314327689740068, 42.409049453828111 ], [ 117.31432161339805, 42.409049470488554 ], [ 117.314321635879693, 42.409053973432272 ], [ 117.314315559537249, 42.409053990092389 ], [ 117.3143156269809, 42.409067498923491 ], [ 117.314327779668417, 42.409067465602909 ], [ 117.314327802150515, 42.409071968546606 ], [ 117.314333878494693, 42.409071951885828 ], [ 117.314333900977246, 42.40907645482951 ], [ 117.31433997732185, 42.409076438168412 ], [ 117.314339999804801, 42.40908094111208 ] ] ] } },
{ "type": "Feature", "properties": { "crown_id": 4147, "tree_id": "4149", "top_h_m": 22.355, "H_95_Mean": 22.2797, "DBH": 32.6829, "Carbon_kg": 215.666295, "area_m2": 23.5 }, "geometry": { "type": "Polygon", "coordinates": [ [ [ 117.314498007268483, 42.409085010753934 ], [ 117.314522312649828, 42.409084944072802 ], [ 117.314522267657765, 42.409075938185595 ], [ 117.314534420346675, 42.409075904843107 ], [ 117.31453437535292, 42.409066898955899 ], [ 117.314546528040054, 42.409066865612139 ], [ 117.314546483044566, 42.409057859724932 ], [ 117.314540406701866, 42.409057876396972 ], [ 117.314540361707301, 42.40904887050975 ], [ 117.314534285365468, 42.409048887181456 ], [ 117.314534262868619, 42.409044384237845 ], [ 117.314528186527212, 42.409044400909231 ], [ 117.31452816403079, 42.409039897965606 ], [ 117.314522087689824, 42.409039914636679 ], [ 117.31452206519387, 42.409035411693047 ], [ 117.314503836172207, 42.409035461704292 ], [ 117.314503858666868, 42.409039964647931 ], [ 117.314461324279804, 42.4090400813296 ], [ 117.314461391754705, 42.409053590160561 ], [ 117.314479620781682, 42.409053540156044 ], [ 117.314479665767578, 42.409062546043302 ], [ 117.314485742110762, 42.409062529374481 ], [ 117.314485787097553, 42.409071535261731 ], [ 117.314491863441589, 42.409071518592583 ], [ 117.314491908429289, 42.409080524479805 ], [ 117.314497984774178, 42.40908050781033 ], [ 117.314498007268483, 42.409085010753934 ] ] ] } },
{ "type": "Feature", "properties": { "crown_id": 4167, "tree_id": "4169", "top_h_m": 23.19, "H_95_Mean": 23.1586, "DBH": 35.8936, "Carbon_kg": 266.528596, "area_m2": 31.5 }, "geometry": { "type": "Polygon", "coordinates": [ [ [ 117.314412960921359, 42.409089747040994 ], [ 117.314425113613055, 42.409089713710081 ], [ 117.314425091123979, 42.409085210766449 ], [ 117.31443116746938, 42.409085194100506 ], [ 117.314431100000888, 42.409071685269602 ], [ 117.314437176344981, 42.409071668603346 ], [ 117.314437153855081, 42.409067165659692 ], [ 117.314455382886024, 42.409067115659006 ], [ 117.314455157974038, 42.409022086222464 ], [ 117.314430852616837, 42.409022152889285 ], [ 117.314430875106254, 42.409026655832967 ], [ 117.314388340727859, 42.409026772487536 ], [ 117.314388363214277, 42.409031275431218 ], [ 117.31438228687405, 42.409031292094888 ], [ 117.314382354331968, 42.409044800925955 ], [ 117.314388430673489, 42.409044784262299 ], [ 117.314388543105636, 42.409067298980681 ], [ 117.314400695793026, 42.409067265652361 ], [ 117.314400740767667, 42.409076271539682 ], [ 117.314406817112229, 42.409076254875025 ], [ 117.314406839599968, 42.409080757818678 ], [ 117.314412915944956, 42.409080741153716 ], [ 117.314412960921359, 42.409089747040994 ] ] ] } }
]
}
