{
"type": "FeatureCollection",
"name": "tile_4_23",
"crs": { "type": "name", "properties": { "name": "urn:ogc:def:crs:OGC:1.3:CRS84" } },
"features": [
{ "type": "Feature", "properties": { "crown_id": 918, "tree_id": "918", "top_h_m": 21.589, "H_95_Mean": 21.4172, "DBH": 39.2154, "Carbon_kg": 304.185611, "area_m2": 51.25 }, "geometry": { "type": "Polygon", "coordinates": [ [ [ 117.315412271330047, 42.410856682752687 ], [ 117.315418347845849, 42.410856666033865 ], [ 117.315418325284341, 42.410852163092052 ], [ 117.315442631345803, 42.410852096213553 ], [ 117.315442653909031, 42.410856599155359 ], [ 117.315448730424805, 42.410856582434924 ], [ 117.315448685297469, 42.410847576551312 ], [ 117.315460838327269, 42.410847543109497 ], [ 117.315460793198199, 42.410838537225899 ], [ 117.315466869712239, 42.410838520504505 ], [ 117.315466802017355, 42.41082501167908 ], [ 117.315460725504622, 42.410825028400467 ], [ 117.315460657811087, 42.410811519574992 ], [ 117.315472810833938, 42.410811486131927 ], [ 117.315472788268565, 42.410806983190106 ], [ 117.315466711757594, 42.410806999911799 ], [ 117.315466689192661, 42.410802496969971 ], [ 117.315454536171544, 42.41080253041239 ], [ 117.315454558735624, 42.410807033354224 ], [ 117.315448482224596, 42.410807050074943 ], [ 117.315448414533748, 42.410793541249426 ], [ 117.31545449104344, 42.410793524528707 ], [ 117.315454468479416, 42.410789021586858 ], [ 117.315448391970151, 42.41078903830757 ], [ 117.315448369406539, 42.410784535365721 ], [ 117.315424063371211, 42.410784602245357 ], [ 117.315424040809347, 42.41078009930348 ], [ 117.31540581128408, 42.410780149459811 ], [ 117.31540583384465, 42.410784652401688 ], [ 117.315399757335769, 42.410784669119835 ], [ 117.315399779895913, 42.410789172061698 ], [ 117.315387626877282, 42.410789205497018 ], [ 117.315387649436559, 42.410793708438888 ], [ 117.31538157292681, 42.410793725156061 ], [ 117.315381595485647, 42.410798228097924 ], [ 117.31536944246524, 42.410798261531326 ], [ 117.315369532697147, 42.410816273298806 ], [ 117.315363456185224, 42.410816290015021 ], [ 117.315363478742782, 42.410820792956891 ], [ 117.315369555255145, 42.410820776240676 ], [ 117.315369577813144, 42.410825279182525 ], [ 117.315375654325933, 42.410825262465977 ], [ 117.315375722001264, 42.410838771291516 ], [ 117.315381798515361, 42.410838754574641 ], [ 117.315381843633133, 42.410847760458317 ], [ 117.315393996663047, 42.410847727023565 ], [ 117.315394019222822, 42.410852229965407 ], [ 117.315412248768979, 42.410852179810874 ], [ 117.315412271330047, 42.410856682752687 ] ], [ [ 117.315454671555969, 42.410829548063333 ], [ 117.315454648991903, 42.41082504512152 ], [ 117.315460725504622, 42.410825028400467 ], [ 117.315460748069157, 42.41082953134228 ], [ 117.315454671555969, 42.410829548063333 ] ] ] } },
{ "type": "Feature", "properties": { "crown_id": 983, "tree_id": "983", "top_h_m": 22.214, "H_95_Mean": 21.4494, "DBH": 42.681, "Carbon_kg": 361.118828, "area_m2": 71.0 }, "geometry": { "type": "Polygon", "coordinates": [ [ [ 117.315333096180836, 42.410820876533187 ], [ 117.31535740223039, 42.410820809672792 ], [ 117.315357357116156, 42.410811803789059 ], [ 117.315363433627681, 42.410811787073165 ], [ 117.315363411070123, 42.410807284131288 ], [ 117.315357334559053, 42.410807300847189 ], [ 117.315357244330656, 42.410789289079652 ], [ 117.315363320839992, 42.410789272363772 ], [ 117.315363343397536, 42.410793775305656 ], [ 117.315375496417047, 42.410793741872915 ], [ 117.315375473858666, 42.410789238931038 ], [ 117.315381550367974, 42.410789222214191 ], [ 117.315381527809137, 42.410784719272307 ], [ 117.315387604318047, 42.410784702555141 ], [ 117.315387559199536, 42.410775696671365 ], [ 117.315381482691521, 42.410775713388539 ], [ 117.315381460132713, 42.41077121044664 ], [ 117.315393613147876, 42.410771177011995 ], [ 117.315393545468879, 42.410757668186314 ], [ 117.315387468962598, 42.410757684903793 ], [ 117.315387446403378, 42.410753181961894 ], [ 117.315381369897551, 42.410753198679039 ], [ 117.315381347338771, 42.410748695737134 ], [ 117.315369194327943, 42.410748729170471 ], [ 117.315369149212117, 42.410739723286625 ], [ 117.315363072707569, 42.410739740002803 ], [ 117.315363005035209, 42.410726231177009 ], [ 117.315356928531955, 42.410726247892853 ], [ 117.315356905974966, 42.410721744950912 ], [ 117.315338676466467, 42.410721795096514 ], [ 117.315338653910757, 42.410717292154573 ], [ 117.315296118393832, 42.410717409149683 ], [ 117.315296231157191, 42.410739923859509 ], [ 117.315284078147968, 42.410739957283802 ], [ 117.315284100699785, 42.410744460225757 ], [ 117.31527802419474, 42.410744476937438 ], [ 117.31527809184891, 42.41075798576329 ], [ 117.315272015342543, 42.410758002474658 ], [ 117.315272082995463, 42.410771511300482 ], [ 117.315278159503123, 42.410771494589135 ], [ 117.315278136951719, 42.410766991647186 ], [ 117.315284213458938, 42.410766974935498 ], [ 117.315284190907107, 42.410762471993564 ], [ 117.3152902674139, 42.410762455281564 ], [ 117.315290357623027, 42.410780467049278 ], [ 117.315284281114501, 42.410780483761307 ], [ 117.31528437132198, 42.410798495528979 ], [ 117.315296524342514, 42.410798462104601 ], [ 117.315296501789788, 42.410793959162696 ], [ 117.315314731319219, 42.410793909023731 ], [ 117.315314753873267, 42.410798411965629 ], [ 117.315320830383513, 42.410798395252002 ], [ 117.315320875492503, 42.410807401135791 ], [ 117.315326952003602, 42.410807384421823 ], [ 117.315326974558545, 42.410811887363714 ], [ 117.315333051070084, 42.410811870649425 ], [ 117.315333096180836, 42.410820876533187 ] ] ] } },
{ "type": "Feature", "properties": { "crown_id": 1005, "tree_id": "1005", "top_h_m": 22.661, "H_95_Mean": 22.1603, "DBH": 35.2989, "Carbon_kg": 251.07366, "area_m2": 32.0 }, "geometry": { "type": "Polygon", "coordinates": [ [ [ 117.315466598932986, 42.410784485202619 ], [ 117.315484828459418, 42.410784435036618 ], [ 117.315484805893206, 42.410779932094769 ], [ 117.315490882401548, 42.410779915372125 ], [ 117.315490859834924, 42.41077541243029 ], [ 117.315509089358656, 42.410775362260431 ], [ 117.315509021654876, 42.410761853434906 ], [ 117.315521174668078, 42.410761819986746 ], [ 117.315521152099265, 42.410757317044919 ], [ 117.315527228605418, 42.410757300320348 ], [ 117.315527183466997, 42.410748294436651 ], [ 117.315533259972284, 42.410748277711775 ], [ 117.315533237402633, 42.410743774769927 ], [ 117.315527160897801, 42.410743791494809 ], [ 117.315527138328591, 42.410739288552961 ], [ 117.315521061824185, 42.410739305277502 ], [ 117.31552103925543, 42.410734802335647 ], [ 117.315514962751436, 42.410734819059876 ], [ 117.315514917614792, 42.410725813176143 ], [ 117.315496688105398, 42.410725863346876 ], [ 117.315496665538404, 42.410721360404999 ], [ 117.315472359527575, 42.410721427294781 ], [ 117.31547238209285, 42.410725930236666 ], [ 117.315460229086511, 42.410725963679639 ], [ 117.315460274215326, 42.410734969563428 ], [ 117.31545419771129, 42.410734986284432 ], [ 117.315454333095261, 42.410762003935709 ], [ 117.315442180081959, 42.410762037376777 ], [ 117.315442202645102, 42.410766540318662 ], [ 117.315460432166361, 42.410766490156554 ], [ 117.315460499859725, 42.410779998982107 ], [ 117.315466576368095, 42.410779982260763 ], [ 117.315466598932986, 42.410784485202619 ] ] ] } },
{ "type": "Feature", "properties": { "crown_id": 1040, "tree_id": "1040", "top_h_m": 24.081, "H_95_Mean": 23.8189, "DBH": 38.4918, "Carbon_kg": 311.987883, "area_m2": 39.25 }, "geometry": { "type": "Polygon", "coordinates": [ [ [ 117.315411842670542, 42.410771126857618 ], [ 117.315423995685649, 42.41077109341974 ], [ 117.315423950561964, 42.410762087535986 ], [ 117.315430027068629, 42.410762070816567 ], [ 117.315430049630905, 42.410766573758451 ], [ 117.315436126137996, 42.410766557038727 ], [ 117.315436081012592, 42.410757551154965 ], [ 117.315448234025027, 42.410757517714529 ], [ 117.315448098643699, 42.410730500063217 ], [ 117.315454175147309, 42.41073048334254 ], [ 117.31545413001939, 42.410721477458743 ], [ 117.315466283024861, 42.410721444016431 ], [ 117.31546621533036, 42.410707935190715 ], [ 117.315460138828939, 42.41070795191203 ], [ 117.315460071135817, 42.410694443086292 ], [ 117.315453994635689, 42.410694459807267 ], [ 117.315453972071779, 42.410689956865355 ], [ 117.315441819072362, 42.410689990306352 ], [ 117.315441864198505, 42.410698996190199 ], [ 117.315423634696756, 42.410699046349286 ], [ 117.315423679820299, 42.410708052233147 ], [ 117.315405450315893, 42.410708102389357 ], [ 117.315405472876378, 42.410712605331291 ], [ 117.315381166868704, 42.410712672201733 ], [ 117.315381189427441, 42.410717175143667 ], [ 117.315375112925068, 42.410717191860485 ], [ 117.315375135483379, 42.410721694802405 ], [ 117.315369058980579, 42.41072171151891 ], [ 117.315369104096334, 42.410730717402764 ], [ 117.315375180600029, 42.410730700686273 ], [ 117.315375248275004, 42.410744209512046 ], [ 117.315387401284951, 42.410744176078069 ], [ 117.315387423844157, 42.410748679019981 ], [ 117.315393500349558, 42.41074866230251 ], [ 117.315393522909204, 42.410753165244422 ], [ 117.315399599415045, 42.410753148526624 ], [ 117.315399621975132, 42.410757651468515 ], [ 117.315405698481385, 42.410757634750404 ], [ 117.315405721041898, 42.410762137692288 ], [ 117.315411797548592, 42.41076212097385 ], [ 117.315411842670542, 42.410771126857618 ] ] ] } },
{ "type": "Feature", "properties": { "crown_id": 1090, "tree_id": "1090", "top_h_m": 22.229, "H_95_Mean": 22.117, "DBH": 32.6589, "Carbon_kg": 214.4157, "area_m2": 23.75 }, "geometry": { "type": "Polygon", "coordinates": [ [ [ 117.315520994117918, 42.410725796451921 ], [ 117.315527070621016, 42.410725779727372 ], [ 117.315526957775162, 42.410703265018 ], [ 117.3155330342761, 42.410703248293153 ], [ 117.315532989136926, 42.41069424240937 ], [ 117.315526912636855, 42.410694259134225 ], [ 117.315526890067716, 42.410689756192333 ], [ 117.315520813568071, 42.410689772916854 ], [ 117.315520768430687, 42.410680767033064 ], [ 117.315502538934354, 42.410680817204671 ], [ 117.315502493799571, 42.410671811320846 ], [ 117.315484264305809, 42.410671861489554 ], [ 117.315484286871893, 42.410676364431467 ], [ 117.315459980878401, 42.410676431318585 ], [ 117.315460003442752, 42.410680934260512 ], [ 117.315453926943931, 42.410680950981501 ], [ 117.315453949507855, 42.410685453923428 ], [ 117.315460026007102, 42.410685437202453 ], [ 117.315460048571467, 42.410689940144366 ], [ 117.315466125071154, 42.410689923423071 ], [ 117.315466192765541, 42.410703432248816 ], [ 117.315472269266536, 42.41070341552718 ], [ 117.315472336962301, 42.41071692435289 ], [ 117.315502719473656, 42.410716840739859 ], [ 117.31550274204109, 42.41072134368175 ], [ 117.315520971549148, 42.410721293510043 ], [ 117.315520994117918, 42.410725796451921 ] ] ] } },
{ "type": "Feature", "properties": { "crown_id": 1134, "tree_id": "1134", "top_h_m": 24.388, "H_95_Mean": 24.0304, "DBH": 35.9106, "Carbon_kg": 272.678217, "area_m2": 29.5 }, "geometry": { "type": "Polygon", "coordinates": [ [ [ 117.315350784358998, 42.410712755782534 ], [ 117.315362937362877, 42.410712722351171 ], [ 117.315362914805448, 42.41070821940923 ], [ 117.315399373814415, 42.41070811910744 ], [ 117.315399351254385, 42.410703616165506 ], [ 117.315417580757497, 42.410703566010284 ], [ 117.31541753563485, 42.410694560126402 ], [ 117.315435765135291, 42.410694509968287 ], [ 117.315435720010043, 42.410685504084434 ], [ 117.315441796509305, 42.410685487364418 ], [ 117.315441751383219, 42.410676481480536 ], [ 117.315435674884824, 42.410676498200552 ], [ 117.315435584634443, 42.410658486432737 ], [ 117.315380896164214, 42.410658636898205 ], [ 117.315380873605562, 42.410654133956221 ], [ 117.315368720612994, 42.410654167389445 ], [ 117.31536878828642, 42.410667676215404 ], [ 117.31537486478399, 42.410667659498941 ], [ 117.315374887342244, 42.410672162440918 ], [ 117.315368810844234, 42.410672179157373 ], [ 117.315368946191256, 42.410699196809176 ], [ 117.315356793189977, 42.410699230241157 ], [ 117.315356838303956, 42.410708236125075 ], [ 117.315350761802421, 42.410708252840585 ], [ 117.315350784358998, 42.410712755782534 ] ] ] } },
{ "type": "Feature", "properties": { "crown_id": 1151, "tree_id": "1151", "top_h_m": 25.047, "H_95_Mean": 24.7036, "DBH": 33.6321, "Carbon_kg": 242.867381, "area_m2": 21.75 }, "geometry": { "type": "Polygon", "coordinates": [ [ [ 117.315338586243698, 42.410703783328685 ], [ 117.315350739245886, 42.410703749898637 ], [ 117.315350694132761, 42.410694744014698 ], [ 117.315362847133201, 42.410694710583364 ], [ 117.315362644116689, 42.410654184105567 ], [ 117.315344414627788, 42.410654234252014 ], [ 117.315344392071722, 42.410649731310016 ], [ 117.315338315575843, 42.410649748024866 ], [ 117.315338293020218, 42.410645245082854 ], [ 117.315326140029342, 42.410645278511545 ], [ 117.315326185138844, 42.410654284395576 ], [ 117.31532010864251, 42.410654301109446 ], [ 117.315320131196842, 42.410658804051451 ], [ 117.315314054700067, 42.410658820765015 ], [ 117.315314099807864, 42.410667826649025 ], [ 117.315308023310237, 42.410667843362262 ], [ 117.315308136077647, 42.410690358072252 ], [ 117.315314212577462, 42.410690341359 ], [ 117.315314235131382, 42.410694844300977 ], [ 117.315326388131865, 42.410694810873501 ], [ 117.31532641068668, 42.410699313815492 ], [ 117.315338563688016, 42.41069928038673 ], [ 117.315338586243698, 42.410703783328685 ] ] ] } },
{ "type": "Feature", "properties": { "crown_id": 1192, "tree_id": "1192", "top_h_m": 22.065, "H_95_Mean": 22.0512, "DBH": 34.0259, "Carbon_kg": 232.478729, "area_m2": 28.0 }, "geometry": { "type": "Polygon", "coordinates": [ [ [ 117.315532966567332, 42.410689739467493 ], [ 117.315539043066977, 42.410689722742319 ], [ 117.315539020496971, 42.410685219800435 ], [ 117.315557249994498, 42.410685169623008 ], [ 117.315557204851885, 42.410676163739225 ], [ 117.315575434346769, 42.410676113558914 ], [ 117.315575411774162, 42.410671610617037 ], [ 117.31556325877844, 42.410671644070888 ], [ 117.315563191063291, 42.410658135245193 ], [ 117.315569267559852, 42.410658118518427 ], [ 117.315569222415547, 42.41064911263463 ], [ 117.315563145919867, 42.410649129361381 ], [ 117.315563033061423, 42.410626614651775 ], [ 117.315556956567889, 42.410626631378193 ], [ 117.31555693399666, 42.410622128436273 ], [ 117.31553870451738, 42.410622178613586 ], [ 117.315538727087315, 42.410626681555527 ], [ 117.315526574100218, 42.410626715005463 ], [ 117.315526641807466, 42.41064022383128 ], [ 117.31551448881774, 42.410640257279951 ], [ 117.31551451138597, 42.410644760221892 ], [ 117.315502358395364, 42.410644793669277 ], [ 117.315502471232179, 42.410667308378926 ], [ 117.315508547729664, 42.410667291655379 ], [ 117.315508592865299, 42.410676297539204 ], [ 117.315526822360326, 42.410676247366631 ], [ 117.315526867498576, 42.410685253250435 ], [ 117.315532943997766, 42.410685236525595 ], [ 117.315532966567332, 42.410689739467493 ] ] ] } },
{ "type": "Feature", "properties": { "crown_id": 1214, "tree_id": "1214", "top_h_m": 20.227, "H_95_Mean": 20.1302, "DBH": 29.2888, "Carbon_kg": 162.834408, "area_m2": 18.5 }, "geometry": { "type": "Polygon", "coordinates": [ [ [ 117.315441728820176, 42.410671978538588 ], [ 117.315478187807869, 42.410671878211801 ], [ 117.31547816524224, 42.410667375269874 ], [ 117.315496394734708, 42.410667325102153 ], [ 117.315496281900081, 42.410644810392483 ], [ 117.315484128909418, 42.410644843837929 ], [ 117.315484106343376, 42.410640340895981 ], [ 117.315478029848506, 42.41064035761822 ], [ 117.31547798471729, 42.410631351734303 ], [ 117.315471908223273, 42.410631368456208 ], [ 117.315471885658113, 42.410626865514239 ], [ 117.315465809164493, 42.410626882235832 ], [ 117.315465764035068, 42.410617876351893 ], [ 117.315459687542358, 42.410617893073145 ], [ 117.315459664978064, 42.410613390131161 ], [ 117.315453588485752, 42.4106134068521 ], [ 117.315453701305017, 42.41063592156199 ], [ 117.315447624810545, 42.410635938282624 ], [ 117.315447669937399, 42.410644944166556 ], [ 117.31544159344206, 42.410644960886856 ], [ 117.315441728820176, 42.410671978538588 ] ] ] } }
]
}
