{
"type": "FeatureCollection",
"name": "tile_3_21",
"crs": { "type": "name", "properties": { "name": "urn:ogc:def:crs:OGC:1.3:CRS84" } },
"features": [
{ "type": "Feature", "properties": { "crown_id": 704, "tree_id": "704", "top_h_m": 16.093, "H_95_Mean": 15.8153, "DBH": 28.622, "Carbon_kg": 134.778432, "area_m2": 26.5 }, "geometry": { "type": "Polygon", "coordinates": [ [ [ 117.31481753838716, 42.411011419663161 ], [ 117.314860074104701, 42.411011302844976 ], [ 117.314860051583011, 42.411006799903042 ], [ 117.314866128113621, 42.411006783213431 ], [ 117.314866083069376, 42.410997777329577 ], [ 117.314872159599119, 42.41099776063966 ], [ 117.314872114554021, 42.410988754755778 ], [ 117.314878191082897, 42.410988738065548 ], [ 117.314878123513992, 42.410975229239703 ], [ 117.314872046986423, 42.410975245929933 ], [ 117.314872024463895, 42.410970742987985 ], [ 117.31484771835531, 42.410970809745656 ], [ 117.314847740876104, 42.410975312687611 ], [ 117.314829511293311, 42.410975362752488 ], [ 117.314829488773825, 42.410970859810512 ], [ 117.314823412246639, 42.410970876498169 ], [ 117.314823434765685, 42.410975379440146 ], [ 117.314793052127555, 42.410975462873552 ], [ 117.314793074644442, 42.41097996581555 ], [ 117.314780921588294, 42.410979999186651 ], [ 117.314780966620333, 42.410989005070618 ], [ 117.314787043149295, 42.410988988385228 ], [ 117.3147870881822, 42.410997994269174 ], [ 117.314805317771629, 42.410997944211026 ], [ 117.314805362807192, 42.411006950094944 ], [ 117.314817515868512, 42.411006916721213 ], [ 117.31481753838716, 42.411011419663161 ] ] ] } },
{ "type": "Feature", "properties": { "crown_id": 720, "tree_id": "720", "top_h_m": 18.491, "H_95_Mean": 18.2432, "DBH": 32.0535, "Carbon_kg": 184.254269, "area_m2": 31.5 }, "geometry": { "type": "Polygon", "coordinates": [ [ [ 117.314926960998989, 42.411020125125425 ], [ 117.314933037530878, 42.41102010843229 ], [ 117.31493299247704, 42.411011102548493 ], [ 117.314939069008034, 42.411011085855023 ], [ 117.314939091535365, 42.411015588796921 ], [ 117.314945168066814, 42.411015572103118 ], [ 117.314945145539014, 42.411011069161233 ], [ 117.314951222070007, 42.411011052467124 ], [ 117.314951244598205, 42.411015555409016 ], [ 117.314963397661046, 42.411015522019817 ], [ 117.314963352602874, 42.411006516136041 ], [ 117.314957276072306, 42.411006532830797 ], [ 117.314957231015029, 42.410997526947007 ], [ 117.314969384074374, 42.41099749355719 ], [ 117.314969339015363, 42.410988487673393 ], [ 117.314963262486557, 42.410988504368461 ], [ 117.314963194899391, 42.410974995542738 ], [ 117.314957118371908, 42.410975012237472 ], [ 117.314957095843312, 42.410970509295552 ], [ 117.314963172370355, 42.410970492600825 ], [ 117.314963149841319, 42.410965989658905 ], [ 117.314920614154829, 42.410966106515247 ], [ 117.314920591628834, 42.410961603573305 ], [ 117.314908438576381, 42.410961636957921 ], [ 117.314908416051253, 42.410957134015973 ], [ 117.314896262999639, 42.410957167399296 ], [ 117.314896330572395, 42.410970676225155 ], [ 117.314884177518167, 42.410970709607206 ], [ 117.314884245088365, 42.41098421843305 ], [ 117.314890321616772, 42.410984201742174 ], [ 117.314890389188349, 42.410997710567976 ], [ 117.314902542247779, 42.410997677185243 ], [ 117.314902609821999, 42.411011186010988 ], [ 117.314908686353007, 42.411011169319146 ], [ 117.314908708878178, 42.411015672261037 ], [ 117.314914785409627, 42.411015655568868 ], [ 117.314914740358418, 42.411006649685049 ], [ 117.314920816888971, 42.411006632992546 ], [ 117.314920839415038, 42.411011135934466 ], [ 117.314926915946032, 42.411011119241635 ], [ 117.314926960998989, 42.411020125125425 ] ] ] } },
{ "type": "Feature", "properties": { "crown_id": 768, "tree_id": "768", "top_h_m": 18.543, "H_95_Mean": 18.2227, "DBH": 30.3389, "Carbon_kg": 164.819148, "area_m2": 25.5 }, "geometry": { "type": "Polygon", "coordinates": [ [ [ 117.314799106137912, 42.410970943245523 ], [ 117.314817335719468, 42.410970893185485 ], [ 117.314817313200862, 42.410966390243502 ], [ 117.314835542781083, 42.410966340180579 ], [ 117.314835565300996, 42.410970843122549 ], [ 117.314841641828167, 42.410970826434259 ], [ 117.314841619307799, 42.410966323492296 ], [ 117.314865925414679, 42.410966256735918 ], [ 117.314865902892592, 42.410961753793963 ], [ 117.314871979418868, 42.410961737104074 ], [ 117.314871866806371, 42.410939222394198 ], [ 117.314865790282269, 42.41093923908408 ], [ 117.314865700194105, 42.410921227316116 ], [ 117.314853547149383, 42.410921260694892 ], [ 117.314853524628205, 42.410916757752879 ], [ 117.314847448106278, 42.410916774441787 ], [ 117.314847425585555, 42.410912271499782 ], [ 117.314823119499493, 42.41091233825216 ], [ 117.314823232094454, 42.410934852962228 ], [ 117.314817155570751, 42.410934869649545 ], [ 117.314817178089328, 42.410939372591535 ], [ 117.314811101565184, 42.410939389278525 ], [ 117.314811214155924, 42.410961903988522 ], [ 117.314805137629619, 42.410961920675199 ], [ 117.314805160147358, 42.410966423617182 ], [ 117.314799083620599, 42.41096644030354 ], [ 117.314799106137912, 42.410970943245523 ] ] ] } },
{ "type": "Feature", "properties": { "crown_id": 769, "tree_id": "769", "top_h_m": 18.62, "H_95_Mean": 18.5534, "DBH": 27.9746, "Carbon_kg": 141.452209, "area_m2": 18.0 }, "geometry": { "type": "Polygon", "coordinates": [ [ [ 117.314926668155039, 42.410961586880518 ], [ 117.314969203838473, 42.410961470021931 ], [ 117.314969158779562, 42.410952464138084 ], [ 117.314963082254224, 42.410952480833124 ], [ 117.314963059725201, 42.41094797789119 ], [ 117.314956983200318, 42.410947994585911 ], [ 117.314956938143155, 42.410938988702028 ], [ 117.314950861619138, 42.410939005396415 ], [ 117.314950839091026, 42.410934502454474 ], [ 117.314944762567407, 42.41093451914854 ], [ 117.314944740039721, 42.410930016206585 ], [ 117.314938663516571, 42.410930032900325 ], [ 117.314938618462051, 42.4109210270164 ], [ 117.314908235850496, 42.410921110480253 ], [ 117.314908258375567, 42.410925613422236 ], [ 117.314902181852815, 42.410925630114043 ], [ 117.31490224942678, 42.410939138939959 ], [ 117.314896172902692, 42.410939155631439 ], [ 117.314896217951144, 42.410948161515392 ], [ 117.314902294476113, 42.410948144823884 ], [ 117.314902317000772, 42.410952647765846 ], [ 117.314914470051505, 42.410952614381877 ], [ 117.31491449257706, 42.410957117323825 ], [ 117.314926645628631, 42.410957083938563 ], [ 117.314926668155039, 42.410961586880518 ] ] ] } },
{ "type": "Feature", "properties": { "crown_id": 795, "tree_id": "795", "top_h_m": 17.8, "H_95_Mean": 17.8019, "DBH": 29.2959, "Carbon_kg": 151.490424, "area_m2": 23.25 }, "geometry": { "type": "Polygon", "coordinates": [ [ [ 117.315042122152306, 42.410961269656227 ], [ 117.315054275204531, 42.410961236257435 ], [ 117.315054230133455, 42.410952230373653 ], [ 117.315048153608217, 42.410952247073212 ], [ 117.315048131073098, 42.410947744131313 ], [ 117.315054207597925, 42.410947727431768 ], [ 117.315054185062365, 42.410943224489863 ], [ 117.315060261586737, 42.410943207789991 ], [ 117.315060216514823, 42.410934201906187 ], [ 117.315054139991346, 42.410934218606059 ], [ 117.315054117455816, 42.410929715664153 ], [ 117.315060193978894, 42.410929698964296 ], [ 117.315060103835123, 42.410911687196631 ], [ 117.315054027313778, 42.410911703896495 ], [ 117.315053982242802, 42.410902698012627 ], [ 117.315017523119948, 42.410902798204937 ], [ 117.315017568185709, 42.410911804088826 ], [ 117.315005415142963, 42.410911837483702 ], [ 117.315005572867236, 42.410943358077226 ], [ 117.315011649391636, 42.410943341379934 ], [ 117.31501167192414, 42.410947844321839 ], [ 117.315017748448966, 42.410947827624234 ], [ 117.315017770981896, 42.41095233056614 ], [ 117.315023847507192, 42.410952313868201 ], [ 117.315023870040548, 42.410956816810099 ], [ 117.315042099617642, 42.410956766714335 ], [ 117.315042122152306, 42.410961269656227 ] ] ] } },
{ "type": "Feature", "properties": { "crown_id": 802, "tree_id": "802", "top_h_m": 18.144, "H_95_Mean": 18.6208, "DBH": 28.701, "Carbon_kg": 149.272539, "area_m2": 19.75 }, "geometry": { "type": "Polygon", "coordinates": [ [ [ 117.314969136250085, 42.41094796119615 ], [ 117.314981289299851, 42.410947927805111 ], [ 117.314981266769536, 42.410943424863177 ], [ 117.314987343293964, 42.410943408167178 ], [ 117.314987320763223, 42.410938905225237 ], [ 117.314999473811199, 42.410938871832258 ], [ 117.31499931609001, 42.410907351238706 ], [ 117.315005392610956, 42.410907334541754 ], [ 117.315005370078964, 42.410902831599799 ], [ 117.314981063996882, 42.410902898385658 ], [ 117.314981041466623, 42.410898395443688 ], [ 117.314956735386232, 42.410898462224367 ], [ 117.314956757914771, 42.410902965166358 ], [ 117.314944604873673, 42.410902998554775 ], [ 117.314944627401317, 42.410907501496759 ], [ 117.314938550880328, 42.410907518190484 ], [ 117.314938595934819, 42.410916524074423 ], [ 117.314944672456676, 42.410916507380691 ], [ 117.314944717512034, 42.410925513264623 ], [ 117.314950794034743, 42.41092549657057 ], [ 117.31495081656287, 42.410929999512518 ], [ 117.314956893086048, 42.410929982818139 ], [ 117.314956915614601, 42.41093448576008 ], [ 117.314962992138192, 42.410934469065374 ], [ 117.314963037196193, 42.410943474949264 ], [ 117.314969113720636, 42.410943458254216 ], [ 117.314969136250085, 42.41094796119615 ] ] ] } },
{ "type": "Feature", "properties": { "crown_id": 863, "tree_id": "863", "top_h_m": 20.707, "H_95_Mean": 20.3815, "DBH": 31.505, "Carbon_kg": 190.01133, "area_m2": 24.0 }, "geometry": { "type": "Polygon", "coordinates": [ [ [ 117.314902114278908, 42.410912121288078 ], [ 117.314914267321825, 42.410912087904165 ], [ 117.314914244796327, 42.410907584962182 ], [ 117.314920321317331, 42.410907568269735 ], [ 117.314920298791407, 42.410903065327751 ], [ 117.314926375311984, 42.410903048634985 ], [ 117.314926352785619, 42.410898545693001 ], [ 117.31493242930577, 42.410898528999908 ], [ 117.314932384252188, 42.410889523115934 ], [ 117.314944537290714, 42.410889489728817 ], [ 117.314944469707783, 42.41087598090283 ], [ 117.314950546225745, 42.410875964208813 ], [ 117.314950501169633, 42.410866958324796 ], [ 117.31493834813547, 42.410866991712524 ], [ 117.314938325608281, 42.410862488770526 ], [ 117.314932249091626, 42.410862505463911 ], [ 117.314932226564892, 42.410858002521884 ], [ 117.314926150048663, 42.410858019214949 ], [ 117.314926172574985, 42.410862522156954 ], [ 117.314901866508308, 42.410862588925973 ], [ 117.314901911557456, 42.410871594810025 ], [ 117.31488368200479, 42.410871644883414 ], [ 117.314883704528071, 42.410876147825448 ], [ 117.314865474974042, 42.410876197895959 ], [ 117.314865497496029, 42.410880700837986 ], [ 117.314871574014475, 42.410880684148125 ], [ 117.314871686626645, 42.410903198858236 ], [ 117.314877763147251, 42.410903182168056 ], [ 117.314877740624368, 42.410898679226037 ], [ 117.314889893664727, 42.410898645844711 ], [ 117.314889916188463, 42.410903148786723 ], [ 117.314895992709083, 42.410903132095569 ], [ 117.314896015233259, 42.410907635037567 ], [ 117.314902091754263, 42.410907618346094 ], [ 117.314902114278908, 42.410912121288078 ] ] ] } },
{ "type": "Feature", "properties": { "crown_id": 866, "tree_id": "866", "top_h_m": 19.337, "H_95_Mean": 19.0256, "DBH": 30.3252, "Carbon_kg": 168.922608, "area_m2": 23.5 }, "geometry": { "type": "Polygon", "coordinates": [ [ [ 117.314810943938312, 42.41090786868439 ], [ 117.314829173501622, 42.410907818622533 ], [ 117.314829150982192, 42.410903315680493 ], [ 117.314835227502854, 42.410903298992565 ], [ 117.314835182463199, 42.410894293108512 ], [ 117.314841258982966, 42.410894276420265 ], [ 117.31484128150322, 42.410898779362292 ], [ 117.314865587584023, 42.410898712606063 ], [ 117.314865520018031, 42.410885203780012 ], [ 117.314859443499117, 42.410885220469531 ], [ 117.314859308369904, 42.410858202817302 ], [ 117.314853231853618, 42.410858219506487 ], [ 117.314853209332512, 42.410853716564439 ], [ 117.314847132816666, 42.410853733253305 ], [ 117.314847087775377, 42.410844727369181 ], [ 117.314834934745392, 42.410844760745931 ], [ 117.314834957265163, 42.410849263688 ], [ 117.314828880749729, 42.410849280375899 ], [ 117.314828925788433, 42.410858286260037 ], [ 117.314804619723162, 42.410858353008429 ], [ 117.314804642240773, 42.410862855950498 ], [ 117.314798565724004, 42.410862872636784 ], [ 117.314798588241189, 42.410867375578853 ], [ 117.314810741275593, 42.410867342205947 ], [ 117.314810763793659, 42.410871845148009 ], [ 117.314804687276023, 42.410871861834622 ], [ 117.314804732311288, 42.410880867718753 ], [ 117.314810808829776, 42.410880851032125 ], [ 117.314810898902124, 42.410898862800309 ], [ 117.314816975422346, 42.410898846113348 ], [ 117.314816997940881, 42.410903349055381 ], [ 117.314810921420218, 42.410903365742357 ], [ 117.314810943938312, 42.41090786868439 ] ] ] } },
{ "type": "Feature", "properties": { "crown_id": 899, "tree_id": "899", "top_h_m": 19.895, "H_95_Mean": 19.1391, "DBH": 34.4195, "Carbon_kg": 218.811094, "area_m2": 38.0 }, "geometry": { "type": "Polygon", "coordinates": [ [ [ 117.315035685078868, 42.410889239284394 ], [ 117.315041761598053, 42.410889222585524 ], [ 117.315041716528853, 42.410880216701621 ], [ 117.315047793047171, 42.410880200002424 ], [ 117.31504781558219, 42.410884702944372 ], [ 117.315066045138337, 42.410884652844871 ], [ 117.315066000065713, 42.410875646960989 ], [ 117.315072076583547, 42.41087563026052 ], [ 117.315072099120286, 42.410880133202461 ], [ 117.315084252156822, 42.410880099800529 ], [ 117.315084229619217, 42.410875596858602 ], [ 117.315090306137037, 42.41087558015716 ], [ 117.315090261060931, 42.410866574273278 ], [ 117.315072031510041, 42.410866624376617 ], [ 117.315072008973303, 42.410862121434668 ], [ 117.315090238522885, 42.41086207133133 ], [ 117.315090215984839, 42.410857568389375 ], [ 117.315084139468752, 42.410857585090817 ], [ 117.315084071855935, 42.410844076264937 ], [ 117.315071918826376, 42.410844109666819 ], [ 117.315071896289652, 42.410839606724842 ], [ 117.315077972804005, 42.410839590024068 ], [ 117.315077950266868, 42.410835087082091 ], [ 117.315071873752927, 42.410835103782858 ], [ 117.315071851216231, 42.410830600840875 ], [ 117.315065774702717, 42.410830617541336 ], [ 117.315065752166461, 42.410826114599345 ], [ 117.315053599140327, 42.410826147999273 ], [ 117.315053576604939, 42.41082164505729 ], [ 117.315041423579643, 42.410821678455918 ], [ 117.315041446114179, 42.410826181397908 ], [ 117.315035369601077, 42.410826198096743 ], [ 117.3150353245329, 42.41081719221274 ], [ 117.315023171508457, 42.410817225609428 ], [ 117.315023194041672, 42.410821728551447 ], [ 117.315017117529024, 42.410821745249315 ], [ 117.315017162594586, 42.410830751133332 ], [ 117.315005009567486, 42.410830784528102 ], [ 117.315005077163306, 42.410844293354124 ], [ 117.315011153678142, 42.410844276656881 ], [ 117.315011221275284, 42.410857785482854 ], [ 117.315005144759127, 42.410857802180097 ], [ 117.315005189823054, 42.410866808064057 ], [ 117.315011266340079, 42.410866791366814 ], [ 117.315011311404902, 42.41087579725076 ], [ 117.315017387922779, 42.410875780553198 ], [ 117.315017410455638, 42.410880283495146 ], [ 117.315029563492246, 42.410880250099034 ], [ 117.315029586025972, 42.410884753040989 ], [ 117.315035662544716, 42.410884736342432 ], [ 117.315035685078868, 42.410889239284394 ] ] ] } },
{ "type": "Feature", "properties": { "crown_id": 907, "tree_id": "907", "top_h_m": 22.64, "H_95_Mean": 21.9657, "DBH": 36.1048, "Carbon_kg": 261.39358, "area_m2": 35.5 }, "geometry": { "type": "Polygon", "coordinates": [ [ [ 117.314865452452082, 42.410871694953912 ], [ 117.314877605487212, 42.410871661573907 ], [ 117.314877582964385, 42.410867158631874 ], [ 117.314895812515772, 42.410867108559451 ], [ 117.31489576746749, 42.410858102675405 ], [ 117.314920073532434, 42.410858035907673 ], [ 117.314920051006581, 42.410853532965646 ], [ 117.31494435706972, 42.410853466192783 ], [ 117.314944289486931, 42.410839957366726 ], [ 117.314932136457969, 42.410839990753786 ], [ 117.314932091404557, 42.410830984869705 ], [ 117.314938167918157, 42.410830968176342 ], [ 117.314938122863879, 42.410821962292268 ], [ 117.314925969838384, 42.41082199567866 ], [ 117.314925947312119, 42.410817492736598 ], [ 117.314913794287492, 42.410817526121697 ], [ 117.314913771762122, 42.410813023179635 ], [ 117.314907695250213, 42.410813039871698 ], [ 117.314907672725269, 42.410808536929636 ], [ 117.314913749236723, 42.410808520237566 ], [ 117.314913726711339, 42.410804017295504 ], [ 117.314901573689284, 42.410804050679303 ], [ 117.314901596213801, 42.410808553621379 ], [ 117.314895519702347, 42.410808570312788 ], [ 117.314895542226424, 42.410813073254857 ], [ 117.314877312690683, 42.410813123327188 ], [ 117.314877290167914, 42.410808620385104 ], [ 117.314865137144935, 42.410808653765038 ], [ 117.314865249754519, 42.410831168475433 ], [ 117.314859173240848, 42.41083118516493 ], [ 117.314859128197867, 42.410822179280785 ], [ 117.314853051685063, 42.410822195969956 ], [ 117.314853119248212, 42.410835704796177 ], [ 117.314847042734115, 42.410835721485036 ], [ 117.314847065254739, 42.410840224427105 ], [ 117.314853141769291, 42.410840207738254 ], [ 117.314853186811447, 42.410849213622384 ], [ 117.314859263326852, 42.410849196933199 ], [ 117.314859285848371, 42.41085369987524 ], [ 117.314865362364216, 42.410853683185728 ], [ 117.314865452452082, 42.410871694953912 ] ] ] } }
]
}
