{
"type": "FeatureCollection",
"name": "tile_8_17",
"crs": { "type": "name", "properties": { "name": "urn:ogc:def:crs:OGC:1.3:CRS84" } },
"features": [
{ "type": "Feature", "properties": { "crown_id": 2329, "tree_id": "2329", "top_h_m": 21.85, "H_95_Mean": 21.5008, "DBH": 30.8303, "Carbon_kg": 187.74276, "area_m2": 20.0 }, "geometry": { "type": "Polygon", "coordinates": [ [ [ 117.313907779237681, 42.410140331598235 ], [ 117.313913855685215, 42.410140314959385 ], [ 117.313913833231908, 42.410135812016364 ], [ 117.313919909679001, 42.410135795377187 ], [ 117.313919887225225, 42.410131292434158 ], [ 117.313925963671892, 42.410131275794676 ], [ 117.31392591876353, 42.410122269908605 ], [ 117.313938071655102, 42.410122236628673 ], [ 117.313938049200061, 42.410117733685638 ], [ 117.313944125645392, 42.410117717045196 ], [ 117.313943990912605, 42.410090699386949 ], [ 117.313931838027131, 42.410090732667499 ], [ 117.313931815572545, 42.410086229724442 ], [ 117.313895356918607, 42.410086329558318 ], [ 117.313895334466636, 42.410081826615247 ], [ 117.313883181582796, 42.410081859890624 ], [ 117.313883226485004, 42.41009086577678 ], [ 117.313877150042231, 42.410090882414003 ], [ 117.313877172492894, 42.410095385357074 ], [ 117.313883248936108, 42.410095368719858 ], [ 117.313883271387226, 42.410099871662936 ], [ 117.313889347830866, 42.410099855025393 ], [ 117.313889370282425, 42.410104357968457 ], [ 117.313895446726505, 42.410104341330594 ], [ 117.313895514082503, 42.410117850159764 ], [ 117.313901590527877, 42.410117833521575 ], [ 117.313901635432771, 42.41012683940766 ], [ 117.313907711879011, 42.410126822769129 ], [ 117.313907779237681, 42.410140331598235 ] ] ] } },
{ "type": "Feature", "properties": { "crown_id": 2343, "tree_id": "2343", "top_h_m": 21.927, "H_95_Mean": 21.6969, "DBH": 30.5565, "Carbon_kg": 185.390327, "area_m2": 19.0 }, "geometry": { "type": "Polygon", "coordinates": [ [ [ 117.313974530329673, 42.410122136781133 ], [ 117.313992759666903, 42.410122086853029 ], [ 117.313992714748991, 42.410113080967008 ], [ 117.313998791193853, 42.41011306432366 ], [ 117.313998768734479, 42.410108561380653 ], [ 117.314004845178914, 42.410108544736978 ], [ 117.314004755339667, 42.410090532964915 ], [ 117.313992602454292, 42.410090566251895 ], [ 117.313992579995386, 42.41008606330886 ], [ 117.313986503553124, 42.410086079951874 ], [ 117.313986481094631, 42.410081577008839 ], [ 117.31398040465281, 42.410081593651512 ], [ 117.313980382194757, 42.410077090708469 ], [ 117.313974305753362, 42.41007710735083 ], [ 117.313974260838151, 42.410068101464717 ], [ 117.313962107957053, 42.410068134748457 ], [ 117.313962152870531, 42.410077140634577 ], [ 117.313949999987685, 42.410077173917038 ], [ 117.313950202090709, 42.410117700404427 ], [ 117.313974507872032, 42.410117633838134 ], [ 117.313974530329673, 42.410122136781133 ] ] ] } },
{ "type": "Feature", "properties": { "crown_id": 2372, "tree_id": "2372", "top_h_m": 22.036, "H_95_Mean": 21.7586, "DBH": 34.7102, "Carbon_kg": 240.093795, "area_m2": 31.0 }, "geometry": { "type": "Polygon", "coordinates": [ [ [ 117.314010944083577, 42.410113031036012 ], [ 117.314029173418092, 42.410112981102117 ], [ 117.314029150956543, 42.41010847815911 ], [ 117.314077762511573, 42.41010834498789 ], [ 117.314077740046542, 42.410103842044911 ], [ 117.3140959693783, 42.410103792100401 ], [ 117.314095946911962, 42.410099289157429 ], [ 117.314083794025009, 42.410099322454094 ], [ 117.31408374909411, 42.410090316568109 ], [ 117.314101978421917, 42.410090266622653 ], [ 117.314101955955167, 42.410085763679668 ], [ 117.314095879513005, 42.410085780328473 ], [ 117.314095857046709, 42.410081277385487 ], [ 117.314089780604945, 42.410081294033972 ], [ 117.314089713207366, 42.410067785204966 ], [ 117.314083636766938, 42.41006780185311 ], [ 117.314083614301509, 42.410063298910096 ], [ 117.314071461421491, 42.410063332205425 ], [ 117.314071438956944, 42.410058829262404 ], [ 117.314065362517354, 42.410058845909582 ], [ 117.314065340053247, 42.410054342966554 ], [ 117.314053187174935, 42.410054376259943 ], [ 117.314053164711723, 42.410049873316893 ], [ 117.314041011834234, 42.410049906608997 ], [ 117.314041101683713, 42.410067918381131 ], [ 117.314035025243228, 42.41006793502671 ], [ 117.314035070167137, 42.410076940912766 ], [ 117.314028993725771, 42.410076957558019 ], [ 117.314029016187305, 42.410081460501033 ], [ 117.314022939745499, 42.410081477145987 ], [ 117.314022962206593, 42.410085980089001 ], [ 117.31401688576436, 42.410085996733621 ], [ 117.314016908225028, 42.410090499676642 ], [ 117.314010831782355, 42.410090516320935 ], [ 117.314010944083577, 42.410113031036012 ] ] ] } },
{ "type": "Feature", "properties": { "crown_id": 2435, "tree_id": "2435", "top_h_m": 23.199, "H_95_Mean": 22.8937, "DBH": 35.6997, "Carbon_kg": 261.846847, "area_m2": 31.5 }, "geometry": { "type": "Polygon", "coordinates": [ [ [ 117.313937892014849, 42.410086213084334 ], [ 117.313943968457139, 42.410086196443906 ], [ 117.313943901090838, 42.410072687614715 ], [ 117.313956053972817, 42.410072654332907 ], [ 117.313956009060234, 42.410063648446787 ], [ 117.313968161940451, 42.4100636151637 ], [ 117.313968072111848, 42.410045603391403 ], [ 117.313955919235099, 42.410045636674475 ], [ 117.313955874322602, 42.410036630788298 ], [ 117.313949797885059, 42.410036647429344 ], [ 117.313949775429251, 42.410032144486252 ], [ 117.313907240369588, 42.410032260964542 ], [ 117.313907217916807, 42.410027758021428 ], [ 117.313901141480116, 42.410027774659888 ], [ 117.313901186384811, 42.410036780546115 ], [ 117.313895109947254, 42.410036797184269 ], [ 117.31389517730301, 42.410050306013595 ], [ 117.313889100864159, 42.410050322651429 ], [ 117.313889123315647, 42.410054825594543 ], [ 117.313883046876327, 42.410054842232057 ], [ 117.313883091778479, 42.410063848118249 ], [ 117.313877015338278, 42.410063864755458 ], [ 117.313877060239577, 42.410072870641642 ], [ 117.313883136680644, 42.410072854004454 ], [ 117.31388315913172, 42.410077356947539 ], [ 117.313901388456145, 42.410077307034001 ], [ 117.313901410908542, 42.410081809977072 ], [ 117.313937869559837, 42.410081710141277 ], [ 117.313937892014849, 42.410086213084334 ] ] ] } },
{ "type": "Feature", "properties": { "crown_id": 2436, "tree_id": "2436", "top_h_m": 23.443, "H_95_Mean": 23.2197, "DBH": 32.0718, "Carbon_kg": 212.753097, "area_m2": 20.25 }, "geometry": { "type": "Polygon", "coordinates": [ [ [ 117.313998656437619, 42.410086046665533 ], [ 117.314010809322127, 42.410086013377914 ], [ 117.314010786861886, 42.410081510434892 ], [ 117.314016863303692, 42.410081493790592 ], [ 117.314016840843038, 42.410076990847564 ], [ 117.314022917284419, 42.410076974202951 ], [ 117.314022894823339, 42.410072471259916 ], [ 117.31402897126425, 42.410072454614991 ], [ 117.314028926341237, 42.410063448728927 ], [ 117.314035002781281, 42.410063432083682 ], [ 117.314034912933565, 42.410045420311505 ], [ 117.314047065810186, 42.410045387020077 ], [ 117.314047043347401, 42.410040884077027 ], [ 117.314040966909545, 42.410040900722905 ], [ 117.314040944447186, 42.410036397779848 ], [ 117.314034868009756, 42.410036414425413 ], [ 117.314034845547837, 42.410031911482356 ], [ 117.314022692673831, 42.410031944772484 ], [ 117.314022715134854, 42.410036447715555 ], [ 117.314010562259938, 42.410036481004397 ], [ 117.314010584720123, 42.410040983947468 ], [ 117.313998431844297, 42.410041017235038 ], [ 117.313998454303629, 42.410045520178095 ], [ 117.313980224988583, 42.410045570107052 ], [ 117.313980247446594, 42.410050073050115 ], [ 117.313974171007786, 42.410050089692469 ], [ 117.313974215922968, 42.410059095578603 ], [ 117.313980292362615, 42.41005907893625 ], [ 117.313980359736703, 42.410072587765413 ], [ 117.313986436177672, 42.41007257112274 ], [ 117.313986458636151, 42.410077074065804 ], [ 117.313992535077531, 42.410077057422797 ], [ 117.313992557536437, 42.410081560365832 ], [ 117.313998633978272, 42.410081543722505 ], [ 117.313998656437619, 42.410086046665533 ] ] ] } },
{ "type": "Feature", "properties": { "crown_id": 2456, "tree_id": "2456", "top_h_m": 19.456, "H_95_Mean": 19.3236, "DBH": 28.3164, "Carbon_kg": 148.486716, "area_m2": 17.5 }, "geometry": { "type": "Polygon", "coordinates": [ [ [ 117.314089690741511, 42.410063282261952 ], [ 117.314107920061502, 42.410063232315586 ], [ 117.314107762791551, 42.410031711714467 ], [ 117.314095609917658, 42.41003174501234 ], [ 117.314095587451391, 42.410027242069305 ], [ 117.31408951101487, 42.410027258717754 ], [ 117.314089488549072, 42.410022755774705 ], [ 117.314077335676885, 42.410022789070638 ], [ 117.314077313211968, 42.410018286127588 ], [ 117.314065160340618, 42.410018319422221 ], [ 117.314065137876554, 42.410013816479164 ], [ 117.314052985006057, 42.41001384977249 ], [ 117.31405305239565, 42.410027358601674 ], [ 117.314046975959087, 42.410027375247864 ], [ 117.314047020884615, 42.41003638113397 ], [ 117.314053097322045, 42.410036364487773 ], [ 117.314053142248483, 42.410045370373865 ], [ 117.314059218686765, 42.410045353727341 ], [ 117.314059241150446, 42.410049856670376 ], [ 117.314071394027877, 42.410049823376355 ], [ 117.314071416492411, 42.41005432631939 ], [ 117.314077492931546, 42.410054309671878 ], [ 117.314077515396519, 42.410058812614913 ], [ 117.31408966827567, 42.410058779318938 ], [ 117.314089690741511, 42.410063282261952 ] ] ] } },
{ "type": "Feature", "properties": { "crown_id": 2480, "tree_id": "2480", "top_h_m": 22.643, "H_95_Mean": 22.3816, "DBH": 26.9355, "Carbon_kg": 146.440853, "area_m2": 11.0 }, "geometry": { "type": "Polygon", "coordinates": [ [ [ 117.313961973216777, 42.410041117090024 ], [ 117.313992355406413, 42.410041033878336 ], [ 117.313992332947521, 42.410036530935272 ], [ 117.314004485822494, 42.410036497648349 ], [ 117.314004463362764, 42.410031994705285 ], [ 117.314016616236799, 42.410031961417069 ], [ 117.314016593776202, 42.410027458474012 ], [ 117.314010517339625, 42.41002747511827 ], [ 117.314010494879454, 42.410022972175192 ], [ 117.31399226557096, 42.410023022106031 ], [ 117.313992243112125, 42.410018519162946 ], [ 117.313986166676372, 42.410018535805918 ], [ 117.313986144217964, 42.410014032862833 ], [ 117.313980067782651, 42.41001404950547 ], [ 117.313980045324683, 42.410009546562371 ], [ 117.313973968889812, 42.410009563204689 ], [ 117.313973946432284, 42.410005060261575 ], [ 117.313967869997825, 42.410005076903573 ], [ 117.313967892454912, 42.410009579846673 ], [ 117.313961816020026, 42.410009596488358 ], [ 117.313961883390022, 42.410023105317663 ], [ 117.313955806953842, 42.410023121959021 ], [ 117.313955851866325, 42.41003212784522 ], [ 117.313961928303399, 42.410032111203854 ], [ 117.313961973216777, 42.410041117090024 ] ] ] } },
{ "type": "Feature", "properties": { "crown_id": 2484, "tree_id": "2484", "top_h_m": 22.663, "H_95_Mean": 22.4043, "DBH": 35.6237, "Carbon_kg": 257.413493, "area_m2": 32.5 }, "geometry": { "type": "Polygon", "coordinates": [ [ [ 117.313870916447911, 42.410059378449226 ], [ 117.313876992887657, 42.410059361812337 ], [ 117.313876947986401, 42.410050355926124 ], [ 117.31388302442528, 42.410050339288944 ], [ 117.313883001974219, 42.41004583634583 ], [ 117.313889078412643, 42.41004581970833 ], [ 117.313889011058222, 42.410032310878968 ], [ 117.313895087495339, 42.410032294241155 ], [ 117.31389504259154, 42.410023288354907 ], [ 117.313888966155275, 42.41002330499272 ], [ 117.313888921252385, 42.410014299106464 ], [ 117.313882844816987, 42.410014315743958 ], [ 117.313882799914964, 42.410005309857667 ], [ 117.313876723480433, 42.410005326494833 ], [ 117.313876656128727, 42.409991817665379 ], [ 117.313852350395777, 42.409991884210768 ], [ 117.313852327946961, 42.409987381267591 ], [ 117.313846251514136, 42.409987397903137 ], [ 117.313846273962525, 42.409991900846315 ], [ 117.31384019752926, 42.409991917481541 ], [ 117.313840219977209, 42.409996420424704 ], [ 117.313834143543517, 42.409996437059611 ], [ 117.313834188438577, 42.410005442945952 ], [ 117.313828112004003, 42.410005459580532 ], [ 117.313828089556921, 42.410000956637369 ], [ 117.313822013122774, 42.410000973271622 ], [ 117.313821990676118, 42.409996470328444 ], [ 117.313815914242397, 42.409996486962385 ], [ 117.313816071366034, 42.410028007564563 ], [ 117.313822147802796, 42.410027990930601 ], [ 117.313822170249466, 42.41003249387375 ], [ 117.313828246686668, 42.410032477239476 ], [ 117.313828269133779, 42.410036980182625 ], [ 117.313834345571408, 42.410036963548016 ], [ 117.313834368018973, 42.410041466491151 ], [ 117.313852597333081, 42.410041416585408 ], [ 117.313852664679743, 42.410054925414784 ], [ 117.313870893997702, 42.410054875506106 ], [ 117.313870916447911, 42.410059378449226 ] ] ] } },
{ "type": "Feature", "properties": { "crown_id": 2507, "tree_id": "2507", "top_h_m": 22.094, "H_95_Mean": 21.7116, "DBH": 35.776, "Carbon_kg": 254.858001, "area_m2": 35.0 }, "geometry": { "type": "Polygon", "coordinates": [ [ [ 117.313913294353469, 42.410027741382642 ], [ 117.313949752973443, 42.410027641543174 ], [ 117.313949708061827, 42.410018635656961 ], [ 117.313955784497594, 42.410018619015915 ], [ 117.313955717128891, 42.410005110186596 ], [ 117.313961793563379, 42.410005093545251 ], [ 117.313961771106719, 42.410000590602138 ], [ 117.313967847540738, 42.410000573960474 ], [ 117.313967735255389, 42.409978059244864 ], [ 117.313955582391671, 42.409978092527858 ], [ 117.313955559935479, 42.409973589584716 ], [ 117.313949483504047, 42.409973606225719 ], [ 117.313949461048296, 42.409969103282585 ], [ 117.313937308186311, 42.409969136563625 ], [ 117.313937263276571, 42.409960130677312 ], [ 117.313925110416292, 42.409960163957066 ], [ 117.313925132870295, 42.409964666900223 ], [ 117.313919056439715, 42.40996468353962 ], [ 117.313919078893278, 42.409969186482776 ], [ 117.313906926031223, 42.409969219760612 ], [ 117.313906993389367, 42.40998272859008 ], [ 117.313900916957024, 42.409982745228518 ], [ 117.313900939409294, 42.409987248171667 ], [ 117.31388271011096, 42.409987298085056 ], [ 117.313882777463959, 42.410000806914518 ], [ 117.313888853898035, 42.410000790277039 ], [ 117.313888898800926, 42.410009796163322 ], [ 117.313894975235883, 42.410009779525517 ], [ 117.31389502013964, 42.410018785411772 ], [ 117.313901096575464, 42.410018768773639 ], [ 117.31390111902779, 42.410023271716753 ], [ 117.31391327190029, 42.410023238439521 ], [ 117.313913294353469, 42.410027741382642 ] ] ] } },
{ "type": "Feature", "properties": { "crown_id": 2508, "tree_id": "2508", "top_h_m": 24.478, "H_95_Mean": 24.0698, "DBH": 36.919, "Carbon_kg": 288.61048, "area_m2": 32.75 }, "geometry": { "type": "Polygon", "coordinates": [ [ [ 117.314022670212793, 42.410027441829428 ], [ 117.31404089952251, 42.410027391893742 ], [ 117.314040877060194, 42.410022888950678 ], [ 117.31404695349633, 42.410022872304808 ], [ 117.314046931033545, 42.410018369361751 ], [ 117.314040854597863, 42.410018386007607 ], [ 117.314040832135547, 42.410013883064551 ], [ 117.314046908570816, 42.41001386641868 ], [ 117.314046841182574, 42.410000357589468 ], [ 117.314040764748626, 42.410000374235317 ], [ 117.314040742286323, 42.409995871292239 ], [ 117.314046818719831, 42.40999585464639 ], [ 117.314046773794374, 42.409986848760219 ], [ 117.314040697361733, 42.409986865406061 ], [ 117.314040585050364, 42.409964350690558 ], [ 117.314034508619883, 42.409964367336073 ], [ 117.314034486158064, 42.40995986439296 ], [ 117.31402840972801, 42.409959881038155 ], [ 117.314028387266632, 42.409955378095034 ], [ 117.31402231083699, 42.409955394739889 ], [ 117.31402237821986, 42.409968903569251 ], [ 117.314016301788925, 42.409968920213792 ], [ 117.314016279328399, 42.409964417270686 ], [ 117.314010202897904, 42.409964433914901 ], [ 117.314010180437819, 42.409959930971773 ], [ 117.314004104007736, 42.409959947615683 ], [ 117.314004126467395, 42.409964450558803 ], [ 117.313991973606349, 42.409964483845656 ], [ 117.313992018523919, 42.409973489731897 ], [ 117.313979865661125, 42.409973523017463 ], [ 117.31397988811905, 42.409978025960591 ], [ 117.313973811687219, 42.409978042602894 ], [ 117.313973923974757, 42.410000557318469 ], [ 117.313980000408762, 42.410000540676165 ], [ 117.31398002286673, 42.410005043619265 ], [ 117.313986099301161, 42.410005026976627 ], [ 117.313986121759569, 42.410009529919726 ], [ 117.313992198194441, 42.410009513276769 ], [ 117.31399222065329, 42.410014016219861 ], [ 117.313998297088574, 42.410013999576577 ], [ 117.313998319547849, 42.410018502519662 ], [ 117.314016548855022, 42.410018452587863 ], [ 117.314016571315619, 42.410022955530927 ], [ 117.31402264775177, 42.410022938886343 ], [ 117.314022670212793, 42.410027441829428 ] ] ] } },
{ "type": "Feature", "properties": { "crown_id": 2568, "tree_id": "2568", "top_h_m": 23.193, "H_95_Mean": 23.3836, "DBH": 31.9715, "Carbon_kg": 212.295578, "area_m2": 19.75 }, "geometry": { "type": "Polygon", "coordinates": [ [ [ 117.314052850227014, 42.409986832114043 ], [ 117.31406500309231, 42.409986798820732 ], [ 117.314064980628288, 42.409982295877654 ], [ 117.314077133492688, 42.409982262583064 ], [ 117.314077111027785, 42.409977759639986 ], [ 117.314083187459545, 42.409977742992211 ], [ 117.314083164994216, 42.409973240049133 ], [ 117.314101394288159, 42.409973190103884 ], [ 117.314101371821536, 42.409968687160799 ], [ 117.3141074482524, 42.409968670511738 ], [ 117.314107425785338, 42.409964167568653 ], [ 117.314113502215775, 42.409964150919286 ], [ 117.314113479748315, 42.409959647976208 ], [ 117.314107403318317, 42.409959664625582 ], [ 117.314107380851283, 42.409955161682497 ], [ 117.314095227992169, 42.409955194980284 ], [ 117.314095205526002, 42.409950692037178 ], [ 117.314083052667741, 42.409950725333672 ], [ 117.314083007737167, 42.409941719447453 ], [ 117.314070854880626, 42.40994175274264 ], [ 117.31407083241622, 42.409937249799526 ], [ 117.314058679560489, 42.409937283093413 ], [ 117.314058702024042, 42.409941786036541 ], [ 117.314046549167443, 42.409941819329156 ], [ 117.314046571630101, 42.409946322272269 ], [ 117.314040495201368, 42.409946338918097 ], [ 117.314040517663614, 42.40995084186121 ], [ 117.31403444123444, 42.409950858506718 ], [ 117.314034463696245, 42.409955361449846 ], [ 117.314040540125873, 42.409955344804345 ], [ 117.314040562588119, 42.409959847747452 ], [ 117.314046639018173, 42.409959831101617 ], [ 117.314046751331674, 42.409982345817134 ], [ 117.314052827763888, 42.409982329170958 ], [ 117.314052850227014, 42.409986832114043 ] ] ] } },
{ "type": "Feature", "properties": { "crown_id": 2575, "tree_id": "2575", "top_h_m": 20.325, "H_95_Mean": 20.1941, "DBH": 30.3065, "Carbon_kg": 174.766611, "area_m2": 21.0 }, "geometry": { "type": "Polygon", "coordinates": [ [ [ 117.313858404379758, 42.409987364631732 ], [ 117.313864480812583, 42.409987347995546 ], [ 117.3138644583629, 42.409982845052376 ], [ 117.313870534795271, 42.40998282841587 ], [ 117.31387055724538, 42.409987331359041 ], [ 117.313876633678177, 42.409987314722208 ], [ 117.313876611227641, 42.409982811779045 ], [ 117.313894840524682, 42.409982761866637 ], [ 117.313894818072839, 42.409978258923474 ], [ 117.313900894504755, 42.409978242285369 ], [ 117.313900782243408, 42.409955727569525 ], [ 117.313894705813667, 42.409955744207622 ], [ 117.313894616006436, 42.409937732434884 ], [ 117.313846004582288, 42.409937865528001 ], [ 117.313846094375634, 42.409955877300831 ], [ 117.313852170805404, 42.409955860665313 ], [ 117.313852193254164, 42.409960363608498 ], [ 117.313846116823953, 42.40996038024403 ], [ 117.313846184169023, 42.409973889073605 ], [ 117.313852260600555, 42.409973872438073 ], [ 117.313852305498145, 42.409982878324421 ], [ 117.313858381930515, 42.409982861688569 ], [ 117.313858404379758, 42.409987364631732 ] ] ] } },
{ "type": "Feature", "properties": { "crown_id": 2576, "tree_id": "2576", "top_h_m": 16.555, "H_95_Mean": 16.54, "DBH": 22.7543, "Carbon_kg": 87.159094, "area_m2": 10.0 }, "geometry": { "type": "Polygon", "coordinates": [ [ [ 117.313961636366898, 42.409973572943379 ], [ 117.313973789229721, 42.409973539659752 ], [ 117.313973766772236, 42.409969036716618 ], [ 117.313985919634163, 42.409969003431712 ], [ 117.313985874717488, 42.40995999754545 ], [ 117.313998027577668, 42.409959964259265 ], [ 117.313998005118435, 42.409955461316123 ], [ 117.313991928688793, 42.409955477959379 ], [ 117.313991906230015, 42.409950975016237 ], [ 117.313997982659245, 42.409950958372988 ], [ 117.313997960200027, 42.409946455429854 ], [ 117.314004036628802, 42.409946438786278 ], [ 117.314004014169186, 42.409941935843136 ], [ 117.313985784884139, 42.409941985772875 ], [ 117.313985762425816, 42.409937482829719 ], [ 117.313979685997893, 42.409937499472314 ], [ 117.31397970845579, 42.409942002415477 ], [ 117.313961479170686, 42.40994205234135 ], [ 117.313961546540455, 42.409955561170818 ], [ 117.313955470110784, 42.409955577812134 ], [ 117.313955492566947, 42.409960080755283 ], [ 117.313943339706697, 42.409960114036963 ], [ 117.313943362161993, 42.409964616980119 ], [ 117.313955515023125, 42.409964583698432 ], [ 117.313955537479288, 42.409969086641574 ], [ 117.31396161391028, 42.409969070000251 ], [ 117.313961636366898, 42.409973572943379 ] ] ] } },
{ "type": "Feature", "properties": { "crown_id": 2610, "tree_id": "2610", "top_h_m": 19.877, "H_95_Mean": 19.5928, "DBH": 31.3269, "Carbon_kg": 183.518489, "area_m2": 25.25 }, "geometry": { "type": "Polygon", "coordinates": [ [ [ 117.313906903578513, 42.409964716817441 ], [ 117.313912980009121, 42.409964700178698 ], [ 117.313912957555985, 42.409960197235527 ], [ 117.313919033986139, 42.409960180596457 ], [ 117.313919011532576, 42.409955677653301 ], [ 117.313949393681085, 42.40995559445313 ], [ 117.313949371225362, 42.409951091509974 ], [ 117.313955447654621, 42.409951074868978 ], [ 117.313955380286146, 42.409937566039488 ], [ 117.313973609569956, 42.409937516114596 ], [ 117.313973587112528, 42.409933013171432 ], [ 117.313991816394989, 42.409932963243648 ], [ 117.313991838853752, 42.409937466186804 ], [ 117.313997915281661, 42.409937449543555 ], [ 117.313997847904105, 42.409923940714101 ], [ 117.313955312917741, 42.409924057209984 ], [ 117.313955290461607, 42.409919554266793 ], [ 117.313949214035404, 42.409919570907768 ], [ 117.313949191579709, 42.40991506796459 ], [ 117.313943115153947, 42.409915084605238 ], [ 117.313943092698693, 42.409910581662047 ], [ 117.313937016273343, 42.409910598302368 ], [ 117.31393699381853, 42.409906095359183 ], [ 117.313924840968681, 42.409906128638859 ], [ 117.313924863422642, 42.409910631582072 ], [ 117.313918786997263, 42.409910648221434 ], [ 117.313918831904274, 42.409919654107824 ], [ 117.313906679051783, 42.409919687385596 ], [ 117.31390670150445, 42.409924190328802 ], [ 117.31390062507775, 42.409924206967204 ], [ 117.313900759791167, 42.40995122462634 ], [ 117.313906836220454, 42.409951207987923 ], [ 117.313906903578513, 42.409964716817441 ] ] ] } }
]
}
